{"type":"FeatureCollection","features":[{"type":"Feature","bbox":[76.36658,32.10632,76.38002,32.11487],"properties":{"ward":1,"name":"Govt Girlssss"},"geometry":{"type":"Polygon","coordinates":[[[76.37942,32.10993],[76.37942,32.10882],[76.38002,32.1081],[76.37944,32.10793],[76.37863,32.10733],[76.37787,32.107],[76.37419,32.10632],[76.37338,32.10673],[76.37311,32.10712],[76.37257,32.10723],[76.37103,32.10819],[76.37107,32.11058],[76.37028,32.11112],[76.36927,32.1115],[76.36906,32.11191],[76.36658,32.11316],[76.3674,32.1144],[76.36874,32.11487],[76.37016,32.11289],[76.37121,32.11234],[76.37166,32.11121],[76.37245,32.11001],[76.3732,32.10933],[76.37326,32.10896],[76.3738,32.10809],[76.37434,32.10749],[76.37532,32.10679],[76.37619,32.10769],[76.37685,32.10794],[76.37762,32.10893],[76.37782,32.10944],[76.37787,32.11145],[76.37837,32.11148],[76.37862,32.11124],[76.37942,32.10993]]]}},{"type":"Feature","bbox":[76.37121,32.10679,76.37764,32.11234],"properties":{"ward":2,"name":"Dewaan Bag"},"geometry":{"type":"Polygon","coordinates":[[[76.37464,32.11223],[76.37631,32.11045],[76.3763,32.11008],[76.37764,32.10901],[76.37685,32.10794],[76.37619,32.10769],[76.37539,32.10679],[76.37434,32.10749],[76.3738,32.10809],[76.37326,32.10896],[76.3732,32.10933],[76.37245,32.11001],[76.37166,32.11121],[76.37121,32.11234],[76.37243,32.11181],[76.37305,32.11174],[76.37464,32.11223]]]}},{"type":"Feature","bbox":[76.37461,32.1081,76.38386,32.11287],"properties":{"ward":3,"name":"Narda Sharda"},"geometry":{"type":"Polygon","coordinates":[[[76.37763,32.1115],[76.37837,32.11149],[76.37864,32.11123],[76.37938,32.11019],[76.37944,32.1099],[76.37993,32.10988],[76.3809,32.11052],[76.38121,32.11149],[76.38284,32.11159],[76.38356,32.11237],[76.38386,32.11224],[76.38342,32.11067],[76.38265,32.10993],[76.38262,32.10968],[76.38214,32.10945],[76.38091,32.10842],[76.38002,32.1081],[76.37942,32.10882],[76.37937,32.1102],[76.37837,32.11148],[76.37787,32.11145],[76.37782,32.10944],[76.37764,32.10901],[76.37664,32.10972],[76.3763,32.11008],[76.37631,32.11045],[76.37461,32.11221],[76.37616,32.11287],[76.3763,32.11244],[76.37763,32.1115]]]}},{"type":"Feature","bbox":[76.38221,32.10545,76.39131,32.11199],"properties":{"ward":4,"name":"Railway Station"},"geometry":{"type":"Polygon","coordinates":[[[76.38488,32.11097],[76.38514,32.11111],[76.38632,32.111],[76.38694,32.11112],[76.38724,32.11095],[76.3877,32.11114],[76.388,32.11086],[76.38852,32.11096],[76.38901,32.11049],[76.38917,32.11009],[76.39098,32.10969],[76.39131,32.10885],[76.39039,32.1082],[76.39037,32.10738],[76.38996,32.1073],[76.38912,32.10607],[76.38905,32.10574],[76.38539,32.10561],[76.38482,32.10545],[76.38403,32.10613],[76.38493,32.10677],[76.38508,32.10704],[76.38412,32.1077],[76.38307,32.10785],[76.38221,32.10834],[76.38264,32.10905],[76.38351,32.10964],[76.3826,32.10976],[76.38342,32.11067],[76.38386,32.11199],[76.38454,32.11166],[76.38463,32.11115],[76.38488,32.11097]]]}},{"type":"Feature","bbox":[76.37554,32.10304,76.38508,32.10968],"properties":{"ward":5,"name":"Hospital"},"geometry":{"type":"Polygon","coordinates":[[[76.38404,32.10613],[76.38307,32.10684],[76.38218,32.10711],[76.38206,32.10659],[76.38162,32.10588],[76.38007,32.10452],[76.37957,32.10359],[76.37844,32.10304],[76.37655,32.10342],[76.37554,32.10426],[76.37588,32.10442],[76.37705,32.10428],[76.37733,32.10449],[76.37704,32.10501],[76.37721,32.10522],[76.37708,32.10576],[76.37715,32.10692],[76.37836,32.10719],[76.37944,32.10793],[76.38091,32.10842],[76.38257,32.10968],[76.38351,32.10964],[76.38243,32.1088],[76.38221,32.10834],[76.38231,32.10821],[76.38307,32.10785],[76.38412,32.1077],[76.38508,32.10704],[76.38493,32.10677],[76.38404,32.10613]]]}},{"type":"Feature","bbox":[76.37361,32.10047,76.37844,32.10693],"properties":{"ward":6,"name":"Sarotri"},"geometry":{"type":"Polygon","coordinates":[[[76.37844,32.10304],[76.37804,32.10237],[76.37733,32.1019],[76.37613,32.10065],[76.37525,32.10047],[76.37469,32.10068],[76.37373,32.10073],[76.37378,32.10128],[76.37361,32.10154],[76.37393,32.10282],[76.37409,32.10321],[76.37469,32.10373],[76.3747,32.10403],[76.37503,32.10448],[76.37462,32.10472],[76.37464,32.10501],[76.3744,32.10542],[76.37562,32.10628],[76.37558,32.1066],[76.377,32.10691],[76.37716,32.10693],[76.37708,32.10576],[76.37721,32.10522],[76.37704,32.10501],[76.37735,32.10453],[76.37705,32.10428],[76.37572,32.10441],[76.37554,32.10435],[76.37557,32.10415],[76.37655,32.10342],[76.37844,32.10304]]]}},{"type":"Feature","bbox":[76.36926,32.10154,76.37562,32.10819],"properties":{"ward":7,"name":"Luxmi Narayan Mandir"},"geometry":{"type":"Polygon","coordinates":[[[76.37558,32.1066],[76.37562,32.10628],[76.3744,32.10542],[76.37464,32.10501],[76.37462,32.10472],[76.37503,32.10448],[76.3747,32.10403],[76.37467,32.1037],[76.37409,32.10321],[76.37361,32.10154],[76.37163,32.10156],[76.37185,32.10235],[76.37135,32.10304],[76.372,32.10327],[76.3721,32.10344],[76.37197,32.10359],[76.37216,32.10398],[76.37139,32.10436],[76.37069,32.10551],[76.37011,32.10563],[76.36926,32.10554],[76.37075,32.10663],[76.37103,32.10819],[76.37257,32.10723],[76.37311,32.10712],[76.37338,32.10673],[76.37419,32.10632],[76.37558,32.1066]]]}}]}