{"type":"FeatureCollection","features":[{"type":"Feature","bbox":[74.90185,33.87521,74.92316,33.88715],"properties":{"ward":1,"name":"Prichoo A"},"geometry":{"type":"Polygon","coordinates":[[[74.90185,33.87763],[74.91249,33.88638],[74.91399,33.88714],[74.91443,33.88715],[74.9153,33.88679],[74.91619,33.8868],[74.91761,33.88622],[74.91947,33.88434],[74.9226,33.88179],[74.92316,33.88077],[74.92031,33.87621],[74.91801,33.8755],[74.90802,33.87521],[74.90276,33.87595],[74.90216,33.87642],[74.90185,33.87763]]]}},{"type":"Feature","bbox":[74.89872,33.88005,74.91336,33.89069],"properties":{"ward":2,"name":"Prichoo B"},"geometry":{"type":"Polygon","coordinates":[[[74.90261,33.89044],[74.91336,33.88767],[74.9109,33.88595],[74.90354,33.88005],[74.90282,33.88055],[74.90004,33.88752],[74.89872,33.89036],[74.89973,33.89069],[74.90261,33.89044]]]}},{"type":"Feature","bbox":[74.88669,33.87782,74.90291,33.89006],"properties":{"ward":3,"name":"Dalipora A"},"geometry":{"type":"Polygon","coordinates":[[[74.89826,33.89006],[74.89981,33.88751],[74.90291,33.87933],[74.90082,33.87832],[74.89739,33.87782],[74.89504,33.87802],[74.88835,33.88124],[74.88669,33.88189],[74.88669,33.88579],[74.88698,33.88723],[74.88787,33.88777],[74.89446,33.88939],[74.89619,33.89006],[74.89826,33.89006]]]}},{"type":"Feature","bbox":[74.87899,33.87829,74.88643,33.88736],"properties":{"ward":4,"name":"Dalipora B"},"geometry":{"type":"Polygon","coordinates":[[[74.88643,33.88736],[74.88631,33.88421],[74.88585,33.88044],[74.88388,33.87829],[74.87899,33.88427],[74.87999,33.88449],[74.88113,33.8852],[74.88228,33.88556],[74.88496,33.88691],[74.88643,33.88736]]]}},{"type":"Feature","bbox":[74.88082,33.8716,74.89664,33.8814],"properties":{"ward":5,"name":"Sirnoo A"},"geometry":{"type":"Polygon","coordinates":[[[74.88644,33.8814],[74.889,33.88052],[74.89445,33.87813],[74.89481,33.87735],[74.89664,33.87501],[74.89611,33.87415],[74.89092,33.87317],[74.88679,33.87218],[74.88502,33.8716],[74.88326,33.87175],[74.88178,33.87222],[74.88082,33.87316],[74.88263,33.87601],[74.88625,33.88068],[74.88644,33.8814]]]}},{"type":"Feature","bbox":[74.8719,33.8696,74.88356,33.88415],"properties":{"ward":6,"name":"Sirnoo B"},"geometry":{"type":"Polygon","coordinates":[[[74.87885,33.88415],[74.88356,33.87819],[74.8806,33.8732],[74.88071,33.87283],[74.88298,33.87087],[74.87796,33.8696],[74.87337,33.87052],[74.87296,33.87104],[74.87258,33.8723],[74.8719,33.87591],[74.87307,33.88028],[74.87363,33.88161],[74.87446,33.88218],[74.87885,33.88415]]]}},{"type":"Feature","bbox":[74.90126,33.86794,74.91046,33.8756],"properties":{"ward":7,"name":"Malikpora A"},"geometry":{"type":"Polygon","coordinates":[[[74.90278,33.8756],[74.90811,33.87489],[74.90793,33.87464],[74.91045,33.87477],[74.91005,33.87277],[74.91046,33.87093],[74.91043,33.86988],[74.90914,33.86912],[74.90845,33.86794],[74.90651,33.86822],[74.90511,33.86894],[74.90384,33.8692],[74.90268,33.86971],[74.90132,33.8721],[74.90126,33.87334],[74.90278,33.8756]]]}},{"type":"Feature","bbox":[74.90987,33.86603,74.92225,33.87523],"properties":{"ward":8,"name":"Malikpora B"},"geometry":{"type":"Polygon","coordinates":[[[74.91118,33.875],[74.91976,33.87523],[74.92204,33.87402],[74.92225,33.87287],[74.91992,33.87066],[74.91853,33.86874],[74.91731,33.86759],[74.91611,33.86717],[74.91495,33.86632],[74.91322,33.86603],[74.91131,33.86615],[74.90987,33.86673],[74.91027,33.86747],[74.91081,33.87003],[74.91062,33.86986],[74.91028,33.87277],[74.91058,33.8742],[74.91118,33.875]]]}},{"type":"Feature","bbox":[74.8948,33.87271,74.90241,33.8778],"properties":{"ward":9,"name":"Chatapora A"},"geometry":{"type":"Polygon","coordinates":[[[74.8948,33.8778],[74.90128,33.87735],[74.9016,33.87632],[74.90241,33.87564],[74.90078,33.8729],[74.90033,33.87271],[74.89841,33.87288],[74.8975,33.87318],[74.89688,33.87439],[74.89655,33.87598],[74.8948,33.8778]]]}},{"type":"Feature","bbox":[74.89699,33.86718,74.90241,33.87384],"properties":{"ward":10,"name":"Chatapora B"},"geometry":{"type":"Polygon","coordinates":[[[74.89699,33.87384],[74.8974,33.87301],[74.89772,33.87279],[74.89821,33.87264],[74.90084,33.87248],[74.90241,33.8697],[74.90187,33.86889],[74.90096,33.86825],[74.89994,33.86718],[74.89741,33.8674],[74.89768,33.87061],[74.89699,33.87384]]]}},{"type":"Feature","bbox":[74.91328,33.86259,74.92751,33.88081],"properties":{"ward":11,"name":"Dangerpora A"},"geometry":{"type":"Polygon","coordinates":[[[74.92348,33.88081],[74.92751,33.87603],[74.92589,33.86993],[74.92531,33.86885],[74.92422,33.86584],[74.92376,33.86334],[74.92327,33.86275],[74.9199,33.86259],[74.91731,33.86296],[74.91444,33.86395],[74.91328,33.86476],[74.91349,33.86551],[74.91477,33.86596],[74.91598,33.86669],[74.91643,33.86676],[74.91824,33.86806],[74.92124,33.87166],[74.92187,33.87223],[74.92237,33.87236],[74.92261,33.87324],[74.92241,33.87391],[74.92161,33.87469],[74.92054,33.87516],[74.92084,33.87609],[74.92348,33.88081]]]}},{"type":"Feature","bbox":[74.90631,33.85925,74.92372,33.86921],"properties":{"ward":12,"name":"Dangerpora B"},"geometry":{"type":"Polygon","coordinates":[[[74.92364,33.86257],[74.92372,33.86232],[74.92121,33.86123],[74.91553,33.85936],[74.91464,33.85925],[74.91329,33.85985],[74.9122,33.86122],[74.91145,33.86188],[74.90915,33.863],[74.90713,33.86447],[74.90645,33.86547],[74.90631,33.86637],[74.90709,33.86772],[74.90824,33.86762],[74.90909,33.86841],[74.90961,33.86917],[74.91004,33.86921],[74.90951,33.86694],[74.90975,33.86645],[74.91065,33.86603],[74.91297,33.86562],[74.91313,33.86448],[74.91441,33.86352],[74.91746,33.86259],[74.92104,33.86234],[74.92364,33.86257]]]}},{"type":"Feature","bbox":[74.89714,33.85901,74.91424,33.86936],"properties":{"ward":13,"name":"Washbugh"},"geometry":{"type":"Polygon","coordinates":[[[74.90676,33.86777],[74.90611,33.86586],[74.90734,33.86379],[74.91068,33.86192],[74.91213,33.86082],[74.91316,33.85961],[74.91424,33.8591],[74.91295,33.85901],[74.90838,33.85944],[74.90723,33.85983],[74.90558,33.86109],[74.90332,33.86238],[74.9016,33.8627],[74.90101,33.86305],[74.89907,33.86318],[74.89714,33.86283],[74.8973,33.86702],[74.89758,33.86717],[74.89925,33.86679],[74.89993,33.86688],[74.90276,33.86936],[74.90538,33.86853],[74.90676,33.86777]]]}}]}