{"type":"FeatureCollection","features":[{"type":"Feature","bbox":[75.71348,32.97989,75.71845,32.98939],"properties":{"ward":1,"name":"Mohalla Sarafa"},"geometry":{"type":"Polygon","coordinates":[[[75.71348,32.98907],[75.71486,32.98939],[75.71597,32.98619],[75.71747,32.98451],[75.71763,32.98245],[75.71752,32.98207],[75.71769,32.98159],[75.71845,32.98057],[75.71841,32.98024],[75.71711,32.9799],[75.71683,32.97989],[75.71661,32.98009],[75.71645,32.98099],[75.71657,32.98166],[75.71607,32.98231],[75.71619,32.98261],[75.71586,32.98341],[75.71586,32.98441],[75.71554,32.9849],[75.7145,32.9856],[75.71402,32.9863],[75.71406,32.98756],[75.71348,32.98907]]]}},{"type":"Feature","bbox":[75.71487,32.97915,75.72457,32.98947],"properties":{"ward":2,"name":"Ganpat Marh"},"geometry":{"type":"Polygon","coordinates":[[[75.71742,32.97915],[75.71718,32.97992],[75.7184,32.98023],[75.71845,32.98056],[75.7177,32.98159],[75.71751,32.98207],[75.71763,32.98245],[75.71747,32.98451],[75.71596,32.98619],[75.71487,32.98939],[75.71601,32.98947],[75.71685,32.98928],[75.71732,32.98821],[75.71801,32.98816],[75.7195,32.98669],[75.71959,32.98639],[75.72011,32.98659],[75.7201,32.98553],[75.72166,32.98422],[75.72183,32.9839],[75.72141,32.98308],[75.72056,32.98315],[75.71947,32.983],[75.71884,32.98273],[75.71819,32.98211],[75.71829,32.98151],[75.71847,32.98134],[75.72045,32.98111],[75.72078,32.98088],[75.72127,32.98082],[75.72252,32.98113],[75.7234,32.98044],[75.72457,32.98014],[75.72443,32.98002],[75.72377,32.98009],[75.72326,32.98033],[75.72298,32.9807],[75.72229,32.98071],[75.72157,32.98044],[75.7194,32.9801],[75.71847,32.98021],[75.71836,32.98005],[75.71877,32.97934],[75.71742,32.97915]]]}},{"type":"Feature","bbox":[75.7173,32.97728,75.7197,32.97934],"properties":{"ward":3,"name":"Mohalla Khakhal"},"geometry":{"type":"Polygon","coordinates":[[[75.71742,32.97914],[75.71878,32.97934],[75.71899,32.97907],[75.71932,32.97792],[75.7197,32.97752],[75.71964,32.97728],[75.71846,32.97838],[75.71739,32.97875],[75.7173,32.97901],[75.71742,32.97914]]]}},{"type":"Feature","bbox":[75.71836,32.97569,75.72578,32.98071],"properties":{"ward":4,"name":"Vasak Dera"},"geometry":{"type":"Polygon","coordinates":[[[75.72443,32.98002],[75.72456,32.98014],[75.72578,32.97968],[75.72576,32.97809],[75.72383,32.97569],[75.72311,32.97569],[75.72024,32.97646],[75.71967,32.97631],[75.7197,32.97751],[75.71932,32.97792],[75.719,32.97907],[75.71836,32.98005],[75.71847,32.98021],[75.7194,32.9801],[75.72157,32.98044],[75.72228,32.98071],[75.72298,32.9807],[75.72326,32.98033],[75.72378,32.98009],[75.72443,32.98002]]]}},{"type":"Feature","bbox":[75.71682,32.96972,75.72515,32.97832],"properties":{"ward":5,"name":"Mohalla Chinar"},"geometry":{"type":"Polygon","coordinates":[[[75.72311,32.97569],[75.72383,32.97569],[75.72337,32.9749],[75.72343,32.97477],[75.72406,32.97391],[75.72443,32.97377],[75.72515,32.97303],[75.72479,32.97251],[75.72485,32.97175],[75.72473,32.97158],[75.72072,32.96972],[75.72065,32.96997],[75.72012,32.96981],[75.71933,32.97002],[75.71902,32.9699],[75.71923,32.97088],[75.71951,32.97136],[75.71969,32.9714],[75.71969,32.97207],[75.71932,32.97275],[75.71879,32.97296],[75.71809,32.97375],[75.71755,32.97599],[75.71682,32.97738],[75.71703,32.97787],[75.71695,32.97824],[75.71711,32.97832],[75.71775,32.97773],[75.71817,32.97776],[75.71855,32.97716],[75.71878,32.97606],[75.71809,32.97536],[75.71845,32.9749],[75.71909,32.97509],[75.71911,32.9756],[75.71938,32.97589],[75.71949,32.97729],[75.71964,32.97728],[75.71966,32.97631],[75.72022,32.97646],[75.72311,32.97569]]]}},{"type":"Feature","bbox":[75.71711,32.9749,75.71949,32.9785],"properties":{"ward":6,"name":"Mohalla Havelli"},"geometry":{"type":"Polygon","coordinates":[[[75.71853,32.97833],[75.71868,32.97804],[75.71945,32.9775],[75.71949,32.97729],[75.71938,32.97589],[75.71911,32.9756],[75.71909,32.97509],[75.71845,32.9749],[75.71809,32.97536],[75.71878,32.97607],[75.71855,32.97716],[75.71817,32.97776],[75.7176,32.97781],[75.71711,32.97832],[75.71763,32.9785],[75.71853,32.97833]]]}},{"type":"Feature","bbox":[75.71536,32.97824,75.71806,32.98291],"properties":{"ward":7,"name":"Dharampura"},"geometry":{"type":"Polygon","coordinates":[[[75.71739,32.97875],[75.71806,32.97836],[75.71763,32.97851],[75.71695,32.97824],[75.71626,32.97884],[75.71613,32.97932],[75.71584,32.97965],[75.71588,32.98072],[75.71536,32.98168],[75.71559,32.9824],[75.71614,32.98291],[75.71606,32.98232],[75.71656,32.98166],[75.71648,32.98032],[75.71683,32.97989],[75.71718,32.97992],[75.71739,32.97875]]]}},{"type":"Feature","bbox":[75.71115,32.97954,75.71615,32.98836],"properties":{"ward":8,"name":"Mohalla Masjid"},"geometry":{"type":"Polygon","coordinates":[[[75.71562,32.97954],[75.71307,32.98],[75.7129,32.9813],[75.71251,32.98138],[75.71115,32.98116],[75.71124,32.98159],[75.71191,32.98236],[75.71171,32.98287],[75.71328,32.9847],[75.71321,32.98566],[75.71285,32.98596],[75.71264,32.98667],[75.71226,32.98708],[75.7138,32.98836],[75.71412,32.98708],[75.71401,32.9863],[75.71496,32.98517],[75.71566,32.98476],[75.71586,32.98439],[75.71575,32.98423],[75.71584,32.98347],[75.71615,32.98293],[75.71559,32.98239],[75.71535,32.98165],[75.71588,32.98073],[75.7159,32.98045],[75.71584,32.97965],[75.71562,32.97954]]]}},{"type":"Feature","bbox":[75.71065,32.96992,75.71703,32.97984],"properties":{"ward":9,"name":"Mohalla Tharra"},"geometry":{"type":"Polygon","coordinates":[[[75.71439,32.97984],[75.71562,32.97955],[75.71585,32.97965],[75.71612,32.97932],[75.71626,32.97885],[75.71695,32.97824],[75.71703,32.97787],[75.71619,32.97825],[75.71596,32.97805],[75.71585,32.97696],[75.71533,32.97678],[75.71454,32.97515],[75.71351,32.97415],[75.71389,32.97267],[75.71471,32.9727],[75.71508,32.97199],[75.71532,32.97172],[75.71566,32.97166],[75.71578,32.97131],[75.71574,32.97062],[75.715,32.96998],[75.71445,32.96992],[75.71404,32.97],[75.71353,32.9708],[75.71327,32.97094],[75.71264,32.97055],[75.71177,32.97032],[75.71115,32.97063],[75.71065,32.97067],[75.71123,32.97197],[75.71097,32.9728],[75.71165,32.97382],[75.71186,32.97544],[75.71222,32.97555],[75.71326,32.97656],[75.7139,32.97658],[75.71466,32.97636],[75.71467,32.97665],[75.71501,32.977],[75.71509,32.97773],[75.71483,32.97843],[75.71526,32.97878],[75.71453,32.97959],[75.71404,32.97976],[75.71439,32.97984]]]}},{"type":"Feature","bbox":[75.71352,32.97118,75.71969,32.97825],"properties":{"ward":10,"name":"Mohalla Qassaban"},"geometry":{"type":"Polygon","coordinates":[[[75.71618,32.97825],[75.71702,32.97787],[75.71682,32.97738],[75.71755,32.97599],[75.71809,32.97375],[75.71879,32.97296],[75.71946,32.97259],[75.71969,32.97207],[75.71969,32.9714],[75.7184,32.97118],[75.71799,32.97145],[75.71757,32.97219],[75.71668,32.97235],[75.71629,32.97257],[75.71566,32.97204],[75.71566,32.97165],[75.71508,32.97198],[75.71472,32.97268],[75.71388,32.97267],[75.71352,32.97415],[75.71454,32.97515],[75.71534,32.97678],[75.71585,32.97696],[75.71596,32.97805],[75.71618,32.97825]]]}},{"type":"Feature","bbox":[75.70921,32.97545,75.71526,32.98138],"properties":{"ward":11,"name":"Mohalla Passri"},"geometry":{"type":"Polygon","coordinates":[[[75.71252,32.98138],[75.7129,32.98129],[75.71307,32.98],[75.71454,32.97959],[75.71526,32.97878],[75.71483,32.97843],[75.71505,32.97814],[75.71508,32.97719],[75.71466,32.97666],[75.71464,32.97636],[75.7139,32.97659],[75.71328,32.97657],[75.71224,32.97557],[75.71188,32.97545],[75.71225,32.97615],[75.71214,32.9772],[75.71316,32.97745],[75.71399,32.97792],[75.71366,32.9782],[75.71355,32.97854],[75.71325,32.97868],[75.71248,32.97848],[75.71168,32.97857],[75.71142,32.97886],[75.71111,32.9789],[75.70994,32.97842],[75.70977,32.97849],[75.70974,32.97886],[75.7103,32.97967],[75.71026,32.97985],[75.70921,32.97985],[75.71002,32.98041],[75.7113,32.98086],[75.71144,32.98112],[75.71252,32.98138]]]}},{"type":"Feature","bbox":[75.70938,32.97356,75.71399,32.97891],"properties":{"ward":12,"name":"Mohalla Qilla"},"geometry":{"type":"Polygon","coordinates":[[[75.71214,32.9772],[75.71225,32.97615],[75.7118,32.97524],[75.71166,32.97382],[75.71146,32.97359],[75.71051,32.97356],[75.70989,32.9739],[75.70959,32.97434],[75.70938,32.9757],[75.70989,32.97778],[75.70978,32.97849],[75.70994,32.97843],[75.71111,32.97891],[75.71142,32.97887],[75.71169,32.97857],[75.71247,32.97848],[75.71325,32.97869],[75.71356,32.97853],[75.71366,32.9782],[75.71399,32.97792],[75.71315,32.97746],[75.71214,32.9772]]]}},{"type":"Feature","bbox":[75.70357,32.97041,75.71148,32.98013],"properties":{"ward":13,"name":"Runta"},"geometry":{"type":"Polygon","coordinates":[[[75.70921,32.97985],[75.71005,32.97991],[75.71026,32.97985],[75.7103,32.97966],[75.70974,32.97886],[75.70972,32.97833],[75.7099,32.97778],[75.70941,32.97623],[75.70939,32.97569],[75.70961,32.97435],[75.7099,32.97393],[75.71048,32.97355],[75.71148,32.9736],[75.71096,32.97279],[75.71123,32.97202],[75.71067,32.97068],[75.7086,32.97041],[75.70596,32.97094],[75.70357,32.97222],[75.70571,32.97343],[75.70539,32.97453],[75.70543,32.97472],[75.70577,32.97472],[75.70608,32.97654],[75.70637,32.97684],[75.70613,32.97747],[75.70624,32.97765],[75.7072,32.97845],[75.70786,32.9787],[75.70852,32.9794],[75.70879,32.98003],[75.70918,32.98013],[75.70921,32.97985]]]}}]}