{"type":"FeatureCollection","features":[{"type":"Feature","bbox":[75.26777,32.46061,75.27473,32.46296],"properties":{"ward":1},"geometry":{"type":"Polygon","coordinates":[[[75.27426,32.46145],[75.27359,32.46123],[75.26812,32.46061],[75.26779,32.46098],[75.26777,32.46147],[75.26794,32.46172],[75.2695,32.46236],[75.27133,32.46255],[75.27329,32.46296],[75.27402,32.46296],[75.27461,32.46248],[75.27473,32.46195],[75.27426,32.46145]]]}},{"type":"Feature","bbox":[75.26812,32.45981,75.27426,32.46145],"properties":{"ward":2},"geometry":{"type":"Polygon","coordinates":[[[75.27286,32.46028],[75.26918,32.45981],[75.26867,32.45997],[75.26812,32.46061],[75.27359,32.46123],[75.27426,32.46145],[75.27403,32.46077],[75.2738,32.46057],[75.27286,32.46028]]]}},{"type":"Feature","bbox":[75.26927,32.45904,75.27286,32.46028],"properties":{"ward":3},"geometry":{"type":"Polygon","coordinates":[[[75.27286,32.46028],[75.27192,32.45945],[75.26996,32.45904],[75.26944,32.4593],[75.26927,32.45982],[75.27286,32.46028]]]}},{"type":"Feature","bbox":[75.26883,32.45482,75.27354,32.45977],"properties":{"ward":4},"geometry":{"type":"Polygon","coordinates":[[[75.27328,32.45915],[75.27354,32.45851],[75.27339,32.45808],[75.2723,32.45721],[75.272,32.45716],[75.27193,32.45694],[75.26982,32.45482],[75.26992,32.45559],[75.26928,32.4562],[75.26883,32.45762],[75.26887,32.45806],[75.26932,32.45882],[75.26965,32.45909],[75.27053,32.4591],[75.27192,32.45945],[75.27241,32.45977],[75.27328,32.45915]]]}},{"type":"Feature","bbox":[75.27192,32.45551,75.27762,32.45918],"properties":{"ward":5},"geometry":{"type":"Polygon","coordinates":[[[75.27354,32.45851],[75.27328,32.45915],[75.27421,32.45918],[75.27587,32.45886],[75.27695,32.45827],[75.2775,32.45771],[75.27762,32.45735],[75.2774,32.4571],[75.27676,32.4569],[75.27431,32.45641],[75.27424,32.45567],[75.27311,32.45551],[75.27274,32.45595],[75.27297,32.45621],[75.27293,32.4565],[75.27192,32.45695],[75.272,32.45716],[75.2723,32.45721],[75.27339,32.45808],[75.27354,32.45851]]]}},{"type":"Feature","bbox":[75.27414,32.45281,75.2789,32.45724],"properties":{"ward":6},"geometry":{"type":"Polygon","coordinates":[[[75.27542,32.45385],[75.27545,32.45481],[75.27582,32.45588],[75.27414,32.45559],[75.27429,32.45574],[75.27431,32.45641],[75.27676,32.4569],[75.27757,32.45724],[75.27808,32.4567],[75.27856,32.45555],[75.2789,32.45433],[75.2788,32.45369],[75.27775,32.45281],[75.27685,32.45296],[75.27638,32.45345],[75.27542,32.45385]]]}},{"type":"Feature","bbox":[75.27145,32.45188,75.27639,32.45588],"properties":{"ward":7},"geometry":{"type":"Polygon","coordinates":[[[75.27311,32.45196],[75.27301,32.4528],[75.27279,32.45325],[75.27145,32.45344],[75.27205,32.45401],[75.27171,32.45423],[75.27165,32.45452],[75.27181,32.45476],[75.27311,32.45551],[75.27582,32.45588],[75.27552,32.45512],[75.27535,32.45402],[75.27564,32.45354],[75.27639,32.45299],[75.27625,32.45244],[75.27582,32.45203],[75.27534,32.45189],[75.27439,32.45188],[75.27373,32.4521],[75.27311,32.45196]]]}},{"type":"Feature","bbox":[75.26989,32.45405,75.27311,32.45595],"properties":{"ward":8},"geometry":{"type":"Polygon","coordinates":[[[75.27223,32.45562],[75.27274,32.45595],[75.27311,32.45551],[75.27266,32.45516],[75.27198,32.45497],[75.27165,32.45452],[75.27171,32.45423],[75.27142,32.45405],[75.27059,32.4543],[75.26989,32.45479],[75.27028,32.45533],[75.2709,32.45519],[75.27223,32.45562]]]}},{"type":"Feature","bbox":[75.27028,32.45523,75.27297,32.45695],"properties":{"ward":9},"geometry":{"type":"Polygon","coordinates":[[[75.27102,32.45523],[75.27028,32.45533],[75.27192,32.45695],[75.27297,32.45643],[75.27292,32.45608],[75.27223,32.45562],[75.27102,32.45523]]]}},{"type":"Feature","bbox":[75.26659,32.45268,75.26992,32.45855],"properties":{"ward":10},"geometry":{"type":"Polygon","coordinates":[[[75.26977,32.45491],[75.26903,32.45406],[75.26744,32.45304],[75.26724,32.45268],[75.26659,32.45445],[75.26681,32.45614],[75.2676,32.45767],[75.26911,32.45855],[75.26883,32.45762],[75.26928,32.4562],[75.26992,32.45559],[75.26977,32.45491]]]}},{"type":"Feature","bbox":[75.26724,32.45155,75.26989,32.45489],"properties":{"ward":11},"geometry":{"type":"Polygon","coordinates":[[[75.26989,32.45479],[75.26882,32.45319],[75.26918,32.45169],[75.26853,32.45234],[75.26782,32.45155],[75.26757,32.45167],[75.26728,32.45214],[75.26724,32.45268],[75.26744,32.45304],[75.26903,32.45406],[75.26968,32.45489],[75.26989,32.45479]]]}},{"type":"Feature","bbox":[75.26882,32.4516,75.27205,32.45479],"properties":{"ward":12},"geometry":{"type":"Polygon","coordinates":[[[75.27171,32.45423],[75.27205,32.45401],[75.27194,32.45387],[75.27089,32.45281],[75.26925,32.4516],[75.26882,32.45319],[75.26989,32.45479],[75.27093,32.45415],[75.27142,32.45405],[75.27171,32.45423]]]}},{"type":"Feature","bbox":[75.26782,32.45069,75.27311,32.45344],"properties":{"ward":13},"geometry":{"type":"Polygon","coordinates":[[[75.26782,32.45155],[75.26853,32.45234],[75.26911,32.45168],[75.26943,32.45168],[75.27089,32.45281],[75.27145,32.45344],[75.27274,32.45329],[75.27301,32.4528],[75.27311,32.45196],[75.27162,32.4511],[75.27094,32.45088],[75.26942,32.45069],[75.26815,32.45078],[75.26782,32.45103],[75.26782,32.45155]]]}}]}