{"type":"FeatureCollection","features":[{"type":"Feature","bbox":[74.42498,34.05941,74.43187,34.06415],"properties":{"ward":1,"name":"Hospital Ward Tangmarg"},"geometry":{"type":"Polygon","coordinates":[[[74.43187,34.06073],[74.42964,34.05978],[74.42808,34.05941],[74.42747,34.05972],[74.42687,34.06052],[74.42597,34.06018],[74.42498,34.0614],[74.4268,34.06383],[74.42739,34.06415],[74.43074,34.06311],[74.43187,34.06073]]]}},{"type":"Feature","bbox":[74.41983,34.05687,74.42763,34.06131],"properties":{"ward":2,"name":"Market Ward Tangmarg"},"geometry":{"type":"Polygon","coordinates":[[[74.42595,34.0589],[74.42146,34.05687],[74.41983,34.05699],[74.42022,34.05912],[74.42048,34.05904],[74.42027,34.05796],[74.42027,34.05772],[74.42046,34.05766],[74.42344,34.05943],[74.4249,34.06131],[74.42551,34.06076],[74.42599,34.06005],[74.42667,34.06036],[74.42755,34.05963],[74.42763,34.05934],[74.42595,34.0589]]]}},{"type":"Feature","bbox":[74.38634,34.0448,74.40293,34.06139],"properties":{"ward":3,"name":"Market Ward Gulmarg"},"geometry":{"type":"Polygon","coordinates":[[[74.39589,34.04978],[74.39489,34.05086],[74.39286,34.05155],[74.38855,34.05238],[74.38634,34.05298],[74.38718,34.05429],[74.39318,34.06086],[74.39562,34.06139],[74.40113,34.06112],[74.40199,34.06062],[74.40245,34.05997],[74.40259,34.05826],[74.40293,34.05786],[74.40231,34.05757],[74.40276,34.05719],[74.40255,34.0558],[74.40269,34.05546],[74.40116,34.0542],[74.40052,34.05389],[74.40101,34.05331],[74.39981,34.05102],[74.39869,34.04953],[74.39751,34.04895],[74.39694,34.04694],[74.39665,34.0448],[74.39648,34.04562],[74.39657,34.04639],[74.39747,34.04893],[74.39657,34.04924],[74.39624,34.0499],[74.39589,34.04978]]]}},{"type":"Feature","bbox":[74.37822,34.04264,74.39581,34.05269],"properties":{"ward":4,"name":"Gondola Ward Gulmarg"},"geometry":{"type":"Polygon","coordinates":[[[74.38193,34.0513],[74.38664,34.05269],[74.39489,34.05075],[74.39581,34.04982],[74.39479,34.04851],[74.39294,34.04834],[74.39216,34.04794],[74.38847,34.04691],[74.38781,34.04636],[74.3872,34.04649],[74.38617,34.04332],[74.38526,34.04271],[74.38444,34.04264],[74.3844,34.04369],[74.3847,34.04436],[74.38368,34.04516],[74.38266,34.04445],[74.38105,34.04498],[74.38088,34.04394],[74.38012,34.04441],[74.37936,34.04585],[74.37948,34.04654],[74.37822,34.04832],[74.38019,34.04919],[74.38151,34.05009],[74.38193,34.0513]]]}},{"type":"Feature","bbox":[74.3699,34.0518,74.3929,34.06651],"properties":{"ward":5,"name":"Club To Royal Park Ward Gulmarg"},"geometry":{"type":"Polygon","coordinates":[[[74.3815,34.0518],[74.37942,34.05683],[74.37713,34.05797],[74.37639,34.06017],[74.37291,34.06081],[74.37177,34.06224],[74.3699,34.06361],[74.37142,34.06369],[74.3775,34.0657],[74.37948,34.06651],[74.38228,34.06352],[74.38356,34.06185],[74.38335,34.06081],[74.38293,34.05999],[74.38415,34.0591],[74.38445,34.05975],[74.38509,34.05846],[74.38566,34.05928],[74.38743,34.06104],[74.38845,34.06163],[74.39094,34.06117],[74.3929,34.06121],[74.38764,34.05533],[74.38751,34.05493],[74.3857,34.05285],[74.3839,34.05227],[74.3815,34.0518]]]}}]}