{"type":"FeatureCollection","features":[{"type":"Feature","bbox":[75.91367,31.54443,75.93238,31.56226],"properties":{"ward":1},"geometry":{"type":"Polygon","coordinates":[[[75.91486,31.54502],[75.91417,31.54443],[75.91388,31.5448],[75.91367,31.54557],[75.91942,31.55106],[75.91792,31.55412],[75.91801,31.55584],[75.92109,31.55601],[75.92226,31.55521],[75.92396,31.55893],[75.92756,31.56226],[75.93105,31.55962],[75.93238,31.55793],[75.93142,31.55576],[75.92703,31.55208],[75.92473,31.54961],[75.92322,31.54836],[75.92252,31.54733],[75.92228,31.5465],[75.92174,31.54638],[75.92106,31.54581],[75.91932,31.54548],[75.91793,31.54558],[75.91651,31.54539],[75.91553,31.54499],[75.91486,31.54502]]]}},{"type":"Feature","bbox":[75.91421,31.53191,75.94886,31.55434],"properties":{"ward":2},"geometry":{"type":"Polygon","coordinates":[[[75.92892,31.53678],[75.92484,31.53502],[75.92433,31.53595],[75.92416,31.53681],[75.92457,31.53688],[75.92456,31.53764],[75.92379,31.53924],[75.92429,31.54041],[75.92158,31.54039],[75.91988,31.54001],[75.91631,31.53997],[75.91604,31.54187],[75.91469,31.54404],[75.91421,31.54437],[75.9149,31.54496],[75.91565,31.54496],[75.91654,31.54533],[75.91926,31.54543],[75.9209,31.54572],[75.92191,31.54642],[75.92235,31.54643],[75.9226,31.54729],[75.92328,31.54827],[75.92413,31.5489],[75.92734,31.55228],[75.92994,31.55434],[75.9363,31.553],[75.93766,31.55216],[75.93914,31.54911],[75.93869,31.54754],[75.93865,31.54381],[75.93941,31.54332],[75.93751,31.54116],[75.93738,31.5393],[75.94543,31.53976],[75.94716,31.53956],[75.94787,31.53972],[75.94886,31.53828],[75.94062,31.53191],[75.93863,31.53248],[75.93368,31.53337],[75.93365,31.53455],[75.93378,31.53469],[75.93348,31.53523],[75.93197,31.53514],[75.93187,31.5366],[75.93223,31.53662],[75.9322,31.53679],[75.93241,31.53686],[75.93225,31.5381],[75.93091,31.53785],[75.92892,31.53678]]]}},{"type":"Feature","bbox":[75.92075,31.53179,75.92949,31.54035],"properties":{"ward":3},"geometry":{"type":"Polygon","coordinates":[[[75.92695,31.53601],[75.92949,31.53252],[75.92744,31.53179],[75.92708,31.53299],[75.92605,31.53253],[75.92487,31.5324],[75.92522,31.53405],[75.92498,31.53473],[75.92445,31.53475],[75.92282,31.53425],[75.92211,31.5342],[75.92145,31.53604],[75.92306,31.53642],[75.92277,31.53727],[75.92126,31.53703],[75.92113,31.53865],[75.92075,31.5401],[75.92159,31.54034],[75.92422,31.54035],[75.92375,31.53923],[75.92453,31.53763],[75.92453,31.53689],[75.92412,31.53685],[75.92431,31.53595],[75.92483,31.53499],[75.92695,31.53601]]]}},{"type":"Feature","bbox":[75.92489,31.52542,75.94369,31.53806],"properties":{"ward":4},"geometry":{"type":"Polygon","coordinates":[[[75.93099,31.52915],[75.9297,31.52869],[75.92896,31.52915],[75.92862,31.52894],[75.92796,31.52947],[75.92602,31.5292],[75.92541,31.52924],[75.92501,31.5309],[75.92489,31.53237],[75.92609,31.53249],[75.92705,31.53292],[75.92739,31.53174],[75.92957,31.5325],[75.927,31.53602],[75.92901,31.53678],[75.93093,31.53783],[75.93222,31.53806],[75.93237,31.53687],[75.93217,31.5368],[75.9322,31.53665],[75.93182,31.53662],[75.93193,31.53511],[75.93345,31.5352],[75.93372,31.53468],[75.93362,31.53332],[75.93908,31.53232],[75.94369,31.53089],[75.94359,31.53059],[75.94308,31.53058],[75.94304,31.52761],[75.94336,31.52759],[75.94337,31.52542],[75.93494,31.52626],[75.93099,31.52915]]]}},{"type":"Feature","bbox":[75.9142,31.52675,75.92658,31.53355],"properties":{"ward":5},"geometry":{"type":"Polygon","coordinates":[[[75.9146,31.53331],[75.91626,31.53355],[75.91746,31.53292],[75.91816,31.53297],[75.92162,31.53249],[75.9249,31.53134],[75.92536,31.52915],[75.926,31.52913],[75.92628,31.5289],[75.92658,31.5276],[75.92136,31.52675],[75.92022,31.53051],[75.91857,31.53014],[75.9168,31.52947],[75.91425,31.52942],[75.91449,31.52965],[75.91436,31.53037],[75.91453,31.53039],[75.91461,31.53084],[75.91484,31.53092],[75.9149,31.53076],[75.91532,31.5309],[75.91513,31.53158],[75.91439,31.53146],[75.9142,31.53222],[75.91476,31.53243],[75.9146,31.53331]]]}},{"type":"Feature","bbox":[75.91235,31.52469,75.92127,31.53221],"properties":{"ward":6},"geometry":{"type":"Polygon","coordinates":[[[75.91368,31.52775],[75.91344,31.5294],[75.91235,31.53147],[75.91415,31.53221],[75.91437,31.53142],[75.91508,31.53153],[75.91526,31.53093],[75.91457,31.53086],[75.91449,31.53043],[75.91433,31.53041],[75.91446,31.52968],[75.91419,31.52936],[75.91677,31.52944],[75.91832,31.53003],[75.92018,31.53041],[75.92127,31.52673],[75.92067,31.52659],[75.92023,31.52623],[75.91972,31.52622],[75.91901,31.52656],[75.91881,31.52718],[75.91772,31.52747],[75.91687,31.52759],[75.91512,31.52726],[75.91588,31.52588],[75.91544,31.52531],[75.91481,31.52533],[75.91405,31.52469],[75.91373,31.52582],[75.91368,31.52775]]]}},{"type":"Feature","bbox":[75.9214,31.52078,75.93591,31.5294],"properties":{"ward":7},"geometry":{"type":"Polygon","coordinates":[[[75.9319,31.52078],[75.93091,31.52144],[75.93043,31.52203],[75.92956,31.52173],[75.92942,31.52213],[75.9288,31.52198],[75.92871,31.52233],[75.92739,31.5221],[75.9273,31.52309],[75.9256,31.52277],[75.92368,31.52192],[75.92217,31.52383],[75.9214,31.52663],[75.92667,31.52751],[75.92644,31.52873],[75.92611,31.52916],[75.92792,31.5294],[75.92857,31.52888],[75.92899,31.52907],[75.92969,31.52865],[75.93095,31.52908],[75.93591,31.52553],[75.9319,31.52078]]]}},{"type":"Feature","bbox":[75.92784,31.51276,75.93423,31.52099],"properties":{"ward":8},"geometry":{"type":"Polygon","coordinates":[[[75.93088,31.51293],[75.93059,31.51276],[75.92784,31.51635],[75.93038,31.51865],[75.93212,31.52099],[75.93223,31.52093],[75.93234,31.51865],[75.93326,31.51865],[75.93314,31.51847],[75.93423,31.51765],[75.9342,31.51626],[75.93398,31.51627],[75.93394,31.51408],[75.9331,31.51407],[75.9323,31.51325],[75.93198,31.51356],[75.93233,31.51403],[75.93218,31.51407],[75.9322,31.51431],[75.93196,31.51439],[75.93134,31.51344],[75.9311,31.51348],[75.93088,31.51293]]]}},{"type":"Feature","bbox":[75.93064,31.51109,75.94768,31.52621],"properties":{"ward":9},"geometry":{"type":"Polygon","coordinates":[[[75.93229,31.52093],[75.93217,31.521],[75.93601,31.52552],[75.93508,31.52621],[75.94768,31.52491],[75.94481,31.52325],[75.94241,31.52109],[75.94226,31.52117],[75.93663,31.51736],[75.93458,31.514],[75.93253,31.51297],[75.93229,31.51269],[75.93188,31.51109],[75.93064,31.5127],[75.93112,31.51311],[75.93116,31.5134],[75.93136,31.51339],[75.93198,31.5143],[75.93223,31.51397],[75.9319,31.51359],[75.93234,31.5132],[75.93313,31.51402],[75.934,31.51403],[75.93406,31.5162],[75.93427,31.5162],[75.93429,31.51767],[75.93323,31.51848],[75.93334,31.51871],[75.9324,31.51871],[75.93229,31.52093]]]}},{"type":"Feature","bbox":[75.92374,31.50668,75.93188,31.52302],"properties":{"ward":10},"geometry":{"type":"Polygon","coordinates":[[[75.92914,31.50668],[75.92751,31.50669],[75.92572,31.51288],[75.92465,31.51594],[75.92397,31.51871],[75.92645,31.51825],[75.92374,31.52186],[75.92589,31.52278],[75.92725,31.52302],[75.92734,31.52203],[75.92869,31.52227],[75.92876,31.52192],[75.92936,31.52207],[75.92952,31.52168],[75.9304,31.52197],[75.93092,31.52136],[75.93188,31.52075],[75.93036,31.51868],[75.92981,31.51832],[75.92779,31.51634],[75.93181,31.51101],[75.93142,31.50951],[75.92914,31.50668]]]}},{"type":"Feature","bbox":[75.91393,31.51838,75.92614,31.52752],"properties":{"ward":11},"geometry":{"type":"Polygon","coordinates":[[[75.91724,31.52114],[75.91393,31.52371],[75.91406,31.52465],[75.91495,31.52533],[75.91545,31.52527],[75.91594,31.52582],[75.9152,31.52712],[75.91697,31.52752],[75.91738,31.52745],[75.91868,31.52712],[75.91882,31.52663],[75.9192,31.5263],[75.91992,31.52611],[75.9204,31.52621],[75.92066,31.5265],[75.92133,31.52663],[75.92215,31.52368],[75.92614,31.51838],[75.91817,31.52008],[75.91752,31.52063],[75.91724,31.52114]]]}},{"type":"Feature","bbox":[75.91342,31.50889,75.92515,31.52361],"properties":{"ward":12},"geometry":{"type":"Polygon","coordinates":[[[75.91613,31.50918],[75.91474,31.50889],[75.91371,31.51513],[75.91495,31.5157],[75.91603,31.51591],[75.91591,31.51642],[75.91596,31.51821],[75.9161,31.51859],[75.91631,31.51857],[75.91637,31.52029],[75.91394,31.52025],[75.91367,31.52045],[75.91342,31.52096],[75.91391,31.52361],[75.91717,31.52108],[75.91744,31.52058],[75.91812,31.52001],[75.91887,31.51997],[75.91945,31.51973],[75.92386,31.51878],[75.92461,31.51576],[75.92515,31.51429],[75.92086,31.51268],[75.92094,31.5124],[75.92063,31.5123],[75.92118,31.51012],[75.9208,31.50985],[75.92054,31.51008],[75.91962,31.50982],[75.91947,31.5094],[75.91805,31.50909],[75.91792,31.50957],[75.91632,31.50946],[75.91613,31.50918]]]}},{"type":"Feature","bbox":[75.90622,31.50751,75.91631,31.52022],"properties":{"ward":13},"geometry":{"type":"Polygon","coordinates":[[[75.9075,31.50894],[75.90622,31.50883],[75.90628,31.50973],[75.90666,31.50951],[75.9069,31.50963],[75.90692,31.5104],[75.90763,31.51024],[75.91026,31.5148],[75.91139,31.51781],[75.91228,31.51915],[75.91232,31.51979],[75.91366,31.52019],[75.91631,31.52022],[75.91629,31.51861],[75.91606,31.51864],[75.91591,31.51826],[75.91585,31.51638],[75.91597,31.51593],[75.91499,31.51574],[75.91368,31.51515],[75.91436,31.5113],[75.91479,31.50751],[75.9116,31.50814],[75.90824,31.50857],[75.9075,31.50894]]]}},{"type":"Feature","bbox":[75.897,31.51035,75.91225,31.51983],"properties":{"ward":14},"geometry":{"type":"Polygon","coordinates":[[[75.897,31.51035],[75.89782,31.51244],[75.91225,31.51983],[75.91222,31.51924],[75.91129,31.5178],[75.91021,31.51484],[75.90911,31.5132],[75.90791,31.51083],[75.90675,31.51117],[75.90664,31.51105],[75.90555,31.51163],[75.90559,31.51042],[75.897,31.51035]]]}},{"type":"Feature","bbox":[75.89556,31.50658,75.90789,31.51156],"properties":{"ward":15},"geometry":{"type":"Polygon","coordinates":[[[75.89556,31.50658],[75.89696,31.51033],[75.90563,31.5104],[75.90559,31.51156],[75.90666,31.51101],[75.90677,31.51113],[75.90789,31.5108],[75.90761,31.51029],[75.90685,31.51044],[75.90685,31.50967],[75.90665,31.50957],[75.90622,31.50981],[75.90612,31.50889],[75.90568,31.50887],[75.9057,31.5085],[75.90472,31.50851],[75.90419,31.50728],[75.90373,31.50748],[75.899,31.50738],[75.89556,31.50658]]]}},{"type":"Feature","bbox":[75.9042,31.4979,75.92962,31.51426],"properties":{"ward":16},"geometry":{"type":"Polygon","coordinates":[[[75.9042,31.50617],[75.90426,31.5072],[75.90479,31.5084],[75.90582,31.50842],[75.90582,31.50875],[75.90748,31.50888],[75.90822,31.50852],[75.91155,31.50808],[75.91485,31.50743],[75.91481,31.50886],[75.91618,31.50914],[75.91637,31.5094],[75.91788,31.5095],[75.918,31.50901],[75.91951,31.50935],[75.91967,31.50978],[75.92049,31.51],[75.92078,31.50974],[75.92127,31.51009],[75.92085,31.51205],[75.92105,31.51234],[75.92102,31.51265],[75.92528,31.51426],[75.9274,31.50671],[75.92962,31.50072],[75.92627,31.49809],[75.9092,31.4979],[75.90905,31.50619],[75.9042,31.50617]]]}},{"type":"Feature","bbox":[75.89358,31.50116,75.90413,31.50744],"properties":{"ward":17},"geometry":{"type":"Polygon","coordinates":[[[75.89533,31.5022],[75.89358,31.50221],[75.8955,31.50654],[75.89905,31.50734],[75.90371,31.50744],[75.90413,31.50729],[75.90409,31.50183],[75.90361,31.50176],[75.90349,31.50126],[75.89638,31.50116],[75.89638,31.50144],[75.89538,31.50145],[75.89533,31.5022]]]}},{"type":"Feature","bbox":[75.88854,31.49833,75.89537,31.50646],"properties":{"ward":18},"geometry":{"type":"Polygon","coordinates":[[[75.88863,31.49933],[75.88854,31.5001],[75.88922,31.50104],[75.89123,31.50177],[75.88992,31.50421],[75.89537,31.50646],[75.89374,31.50265],[75.89275,31.50099],[75.89244,31.49863],[75.8908,31.49833],[75.88991,31.49844],[75.88978,31.49889],[75.89007,31.49905],[75.89001,31.49951],[75.8892,31.49915],[75.88919,31.49929],[75.88863,31.49933]]]}},{"type":"Feature","bbox":[75.87045,31.48733,75.90915,31.5061],"properties":{"ward":19},"geometry":{"type":"Polygon","coordinates":[[[75.87153,31.48733],[75.87045,31.49319],[75.87282,31.49344],[75.87679,31.49343],[75.87795,31.49501],[75.87901,31.49687],[75.88195,31.49872],[75.88507,31.49844],[75.88849,31.50008],[75.8886,31.49929],[75.88876,31.49933],[75.88875,31.49918],[75.88915,31.49925],[75.88915,31.49908],[75.88999,31.49947],[75.89004,31.49906],[75.88973,31.4989],[75.88987,31.49841],[75.89079,31.49831],[75.89248,31.4986],[75.8928,31.50099],[75.89356,31.50216],[75.89527,31.50217],[75.89532,31.50142],[75.89635,31.50141],[75.89636,31.50113],[75.90351,31.50123],[75.90364,31.50174],[75.90412,31.5018],[75.90415,31.50602],[75.90895,31.5061],[75.90915,31.49791],[75.8992,31.49781],[75.89927,31.49025],[75.89728,31.49244],[75.89379,31.49082],[75.89124,31.49007],[75.88898,31.49013],[75.88456,31.48978],[75.88365,31.48997],[75.87938,31.48918],[75.87802,31.49106],[75.87153,31.48733]]]}},{"type":"Feature","bbox":[75.86717,31.49329,75.89745,31.51826],"properties":{"ward":20},"geometry":{"type":"Polygon","coordinates":[[[75.86717,31.5034],[75.86753,31.50721],[75.87069,31.50875],[75.86981,31.51184],[75.87583,31.51479],[75.88153,31.51826],[75.88312,31.51559],[75.88351,31.51452],[75.88816,31.5166],[75.88866,31.51625],[75.88857,31.51256],[75.88992,31.51251],[75.88999,31.51271],[75.89401,31.51259],[75.89399,31.51187],[75.89524,31.51199],[75.89745,31.51188],[75.89538,31.5065],[75.88981,31.50422],[75.89116,31.5018],[75.8892,31.50109],[75.88848,31.50012],[75.88507,31.4985],[75.882,31.49885],[75.87884,31.49686],[75.87786,31.49509],[75.87672,31.49352],[75.8727,31.49351],[75.87041,31.49329],[75.8697,31.49716],[75.86998,31.50094],[75.86717,31.5034]]]}},{"type":"Feature","bbox":[75.88159,31.5146,75.89432,31.52408],"properties":{"ward":21},"geometry":{"type":"Polygon","coordinates":[[[75.89424,31.51934],[75.88353,31.5146],[75.88323,31.5155],[75.88159,31.51828],[75.88185,31.51855],[75.89167,31.52408],[75.89255,31.52302],[75.89187,31.52269],[75.8923,31.52193],[75.89209,31.52185],[75.89258,31.52122],[75.89249,31.52055],[75.89385,31.52058],[75.89432,31.51954],[75.89424,31.51934]]]}},{"type":"Feature","bbox":[75.86569,31.51191,75.88287,31.52087],"properties":{"ward":22},"geometry":{"type":"Polygon","coordinates":[[[75.87598,31.51503],[75.86974,31.51191],[75.86853,31.51702],[75.86669,31.51887],[75.86569,31.51907],[75.86577,31.52061],[75.87897,31.52062],[75.87897,31.52078],[75.88105,31.52087],[75.88286,31.52073],[75.88287,31.51922],[75.87598,31.51503]]]}},{"type":"Feature","bbox":[75.88235,31.51923,75.89539,31.53038],"properties":{"ward":23},"geometry":{"type":"Polygon","coordinates":[[[75.88756,31.53004],[75.89215,31.52997],[75.89459,31.53038],[75.89455,31.5288],[75.8951,31.52879],[75.89508,31.52798],[75.89481,31.52782],[75.89539,31.52644],[75.88582,31.52077],[75.88292,31.51923],[75.88292,31.52084],[75.88235,31.52094],[75.88247,31.52626],[75.88751,31.52631],[75.88756,31.53004]]]}},{"type":"Feature","bbox":[75.87892,31.52084,75.89068,31.53386],"properties":{"ward":24},"geometry":{"type":"Polygon","coordinates":[[[75.88227,31.52091],[75.87892,31.52084],[75.87905,31.53083],[75.88086,31.53084],[75.88056,31.53384],[75.88198,31.53374],[75.88202,31.53386],[75.88331,31.53386],[75.88331,31.53284],[75.88568,31.53277],[75.88586,31.53384],[75.89012,31.53363],[75.89068,31.53335],[75.89065,31.53313],[75.88969,31.53315],[75.88967,31.53266],[75.88932,31.53263],[75.8896,31.53003],[75.88749,31.53009],[75.88746,31.52635],[75.88241,31.5263],[75.88227,31.52091]]]}},{"type":"Feature","bbox":[75.88937,31.52646,75.8969,31.53363],"properties":{"ward":25},"geometry":{"type":"Polygon","coordinates":[[[75.89072,31.53333],[75.89545,31.53363],[75.8969,31.52909],[75.89572,31.52665],[75.89542,31.52646],[75.89499,31.52728],[75.89486,31.52781],[75.89511,31.52797],[75.89512,31.52881],[75.89457,31.52884],[75.89461,31.53042],[75.89206,31.52999],[75.88965,31.53002],[75.88937,31.53259],[75.88972,31.53263],[75.88973,31.53311],[75.89072,31.53333]]]}},{"type":"Feature","bbox":[75.89169,31.51937,75.89622,31.52626],"properties":{"ward":26},"geometry":{"type":"Polygon","coordinates":[[[75.89528,31.52626],[75.89622,31.52402],[75.89491,31.52353],[75.89502,31.52328],[75.89452,31.52312],[75.89522,31.52141],[75.89503,31.52136],[75.89505,31.52113],[75.89541,31.51989],[75.89427,31.51937],[75.89434,31.51953],[75.89387,31.52063],[75.89252,31.52057],[75.89263,31.52124],[75.89214,31.52183],[75.89235,31.52193],[75.89194,31.52268],[75.89262,31.523],[75.89169,31.52412],[75.89528,31.52626]]]}},{"type":"Feature","bbox":[75.88821,31.51191,75.90179,31.5227],"properties":{"ward":27},"geometry":{"type":"Polygon","coordinates":[[[75.8886,31.51259],[75.8887,31.51629],[75.88821,31.51661],[75.90179,31.5227],[75.89747,31.51191],[75.89525,31.51201],[75.89404,31.51191],[75.89404,31.51263],[75.88998,31.51273],[75.88991,31.51253],[75.8886,31.51259]]]}},{"type":"Feature","bbox":[75.89788,31.51251,75.90574,31.52298],"properties":{"ward":28},"geometry":{"type":"Polygon","coordinates":[[[75.90574,31.51661],[75.89788,31.51251],[75.90172,31.52206],[75.90398,31.52298],[75.90431,31.52245],[75.90376,31.52204],[75.90426,31.51888],[75.90548,31.51898],[75.90559,31.51682],[75.90574,31.51661]]]}},{"type":"Feature","bbox":[75.90412,31.51665,75.91392,31.5241],"properties":{"ward":29},"geometry":{"type":"Polygon","coordinates":[[[75.90431,31.51891],[75.90412,31.52059],[75.90694,31.52088],[75.90735,31.52106],[75.90748,31.52128],[75.90729,31.52199],[75.90914,31.52328],[75.91024,31.52381],[75.911,31.52306],[75.91112,31.52255],[75.91275,31.52295],[75.91256,31.52376],[75.91332,31.52395],[75.91335,31.52407],[75.91392,31.5241],[75.91336,31.52142],[75.91337,31.52077],[75.91376,31.52028],[75.91221,31.51986],[75.90584,31.51665],[75.90567,31.51695],[75.90552,31.51901],[75.90431,31.51891]]]}},{"type":"Feature","bbox":[75.90382,31.52063,75.91399,31.52776],"properties":{"ward":30},"geometry":{"type":"Polygon","coordinates":[[[75.90732,31.52107],[75.90405,31.52063],[75.90382,31.52201],[75.9044,31.52243],[75.90406,31.52302],[75.9063,31.52403],[75.90643,31.52424],[75.91059,31.52608],[75.91147,31.5263],[75.91361,31.52776],[75.91368,31.52582],[75.91399,31.52468],[75.91394,31.52413],[75.9133,31.52412],[75.91322,31.52397],[75.9125,31.5238],[75.91268,31.52298],[75.91119,31.52263],[75.91107,31.52311],[75.91057,31.52345],[75.91026,31.5239],[75.90913,31.52333],[75.90725,31.52202],[75.90744,31.5213],[75.90732,31.52107]]]}},{"type":"Feature","bbox":[75.89897,31.52173,75.91316,31.52901],"properties":{"ward":31},"geometry":{"type":"Polygon","coordinates":[[[75.89972,31.52726],[75.89953,31.52745],[75.89976,31.52757],[75.89963,31.52793],[75.90169,31.52823],[75.90157,31.52879],[75.90311,31.52878],[75.9032,31.52897],[75.90405,31.5288],[75.90379,31.52803],[75.90904,31.52901],[75.91316,31.52755],[75.91148,31.52636],[75.9103,31.52601],[75.90165,31.52206],[75.90192,31.52285],[75.89942,31.52173],[75.89904,31.52241],[75.90008,31.523],[75.89897,31.52486],[75.90017,31.52529],[75.89972,31.52726]]]}},{"type":"Feature","bbox":[75.90644,31.52843,75.91199,31.53497],"properties":{"ward":32},"geometry":{"type":"Polygon","coordinates":[[[75.91109,31.52843],[75.90902,31.5291],[75.90853,31.53075],[75.90644,31.5315],[75.90836,31.53234],[75.9082,31.53263],[75.90906,31.53303],[75.90828,31.5342],[75.90917,31.53475],[75.91007,31.53497],[75.91199,31.53203],[75.91106,31.5313],[75.91047,31.53114],[75.90998,31.53077],[75.91003,31.53061],[75.90951,31.52989],[75.90971,31.52921],[75.91019,31.5293],[75.91029,31.52904],[75.91095,31.52907],[75.91109,31.52843]]]}},{"type":"Feature","bbox":[75.90955,31.52759,75.91362,31.532],"properties":{"ward":33},"geometry":{"type":"Polygon","coordinates":[[[75.91362,31.52785],[75.9132,31.52759],[75.91114,31.52842],[75.91098,31.52909],[75.9103,31.52906],[75.91021,31.52932],[75.90974,31.52931],[75.90955,31.52989],[75.91009,31.53061],[75.91001,31.53077],[75.91049,31.53113],[75.91107,31.53128],[75.91201,31.532],[75.91338,31.5294],[75.91357,31.5288],[75.91362,31.52785]]]}},{"type":"Feature","bbox":[75.91018,31.53152,75.91616,31.53662],"properties":{"ward":34},"geometry":{"type":"Polygon","coordinates":[[[75.91467,31.53247],[75.91235,31.53152],[75.91059,31.53416],[75.91018,31.53504],[75.91158,31.53531],[75.91511,31.53662],[75.91561,31.53515],[75.91439,31.53465],[75.91477,31.53423],[75.91616,31.5336],[75.91522,31.53336],[75.91451,31.53337],[75.91467,31.53247]]]}},{"type":"Feature","bbox":[75.91453,31.53281,75.91957,31.53663],"properties":{"ward":35},"geometry":{"type":"Polygon","coordinates":[[[75.91741,31.533],[75.91483,31.53431],[75.91453,31.53463],[75.9157,31.53512],[75.91519,31.53663],[75.9181,31.53649],[75.91918,31.53625],[75.91957,31.53281],[75.91741,31.533]]]}},{"type":"Feature","bbox":[75.91898,31.5315,75.92513,31.54005],"properties":{"ward":36},"geometry":{"type":"Polygon","coordinates":[[[75.92163,31.53253],[75.91965,31.53277],[75.9192,31.53676],[75.91898,31.53748],[75.92025,31.53994],[75.92071,31.54005],[75.9211,31.53861],[75.92121,31.53703],[75.92141,31.53689],[75.92233,31.53722],[75.92271,31.5372],[75.92296,31.53646],[75.92135,31.53608],[75.92208,31.53413],[75.92287,31.5342],[75.92447,31.53471],[75.92488,31.53469],[75.92513,31.53395],[75.9248,31.53279],[75.92433,31.53262],[75.92449,31.5315],[75.92163,31.53253]]]}},{"type":"Feature","bbox":[75.91315,31.5364,75.9201,31.5399],"properties":{"ward":37},"geometry":{"type":"Polygon","coordinates":[[[75.9191,31.5364],[75.91517,31.53669],[75.91486,31.53752],[75.91459,31.53782],[75.91483,31.53889],[75.91315,31.53936],[75.91601,31.5399],[75.9201,31.5399],[75.91893,31.53755],[75.9191,31.5364]]]}},{"type":"Feature","bbox":[75.91113,31.53595,75.91512,31.5397],"properties":{"ward":38},"geometry":{"type":"Polygon","coordinates":[[[75.91327,31.53595],[75.91263,31.53659],[75.91166,31.53798],[75.9116,31.53862],[75.91113,31.53942],[75.9112,31.5397],[75.91477,31.53883],[75.91454,31.53791],[75.91485,31.53751],[75.91512,31.53669],[75.91327,31.53595]]]}},{"type":"Feature","bbox":[75.90379,31.53254,75.9092,31.53986],"properties":{"ward":39},"geometry":{"type":"Polygon","coordinates":[[[75.90835,31.53496],[75.90722,31.53366],[75.9054,31.53254],[75.90379,31.53447],[75.90521,31.53708],[75.90629,31.53827],[75.90516,31.53969],[75.9092,31.53986],[75.90897,31.53891],[75.90888,31.53617],[75.90835,31.53496]]]}},{"type":"Feature","bbox":[75.90737,31.53372,75.91311,31.53978],"properties":{"ward":40},"geometry":{"type":"Polygon","coordinates":[[[75.90904,31.53475],[75.90737,31.53372],[75.90842,31.53493],[75.90894,31.53614],[75.90911,31.53934],[75.90925,31.53978],[75.91103,31.53977],[75.91159,31.53862],[75.91164,31.53797],[75.91311,31.53599],[75.91154,31.53538],[75.90904,31.53475]]]}},{"type":"Feature","bbox":[75.8974,31.52806,75.90536,31.53461],"properties":{"ward":41},"geometry":{"type":"Polygon","coordinates":[[[75.90536,31.53249],[75.89814,31.52806],[75.8974,31.52965],[75.89803,31.53072],[75.89762,31.53158],[75.89765,31.53235],[75.89795,31.53322],[75.89856,31.53335],[75.89893,31.53392],[75.90223,31.53461],[75.9037,31.53447],[75.90536,31.53249]]]}},{"type":"Feature","bbox":[75.90391,31.52811,75.90903,31.53418],"properties":{"ward":42},"geometry":{"type":"Polygon","coordinates":[[[75.90895,31.52911],[75.90391,31.52811],[75.90504,31.5311],[75.90464,31.53119],[75.90449,31.53093],[75.90419,31.53093],[75.90392,31.53152],[75.90826,31.53418],[75.90903,31.53303],[75.90814,31.53264],[75.9083,31.53233],[75.90638,31.53149],[75.90849,31.53071],[75.90895,31.52911]]]}},{"type":"Feature","bbox":[75.89821,31.52714,75.90494,31.5315],"properties":{"ward":43},"geometry":{"type":"Polygon","coordinates":[[[75.90494,31.53111],[75.90405,31.52883],[75.90317,31.529],[75.90309,31.52879],[75.90154,31.52881],[75.90166,31.52825],[75.89959,31.52794],[75.89972,31.52757],[75.8995,31.52746],[75.89953,31.52733],[75.89853,31.52714],[75.89821,31.52799],[75.90391,31.5315],[75.90419,31.53091],[75.90451,31.53091],[75.90465,31.53118],[75.90494,31.53111]]]}},{"type":"Feature","bbox":[75.89458,31.5199,75.90013,31.52958],"properties":{"ward":44},"geometry":{"type":"Polygon","coordinates":[[[75.89741,31.52958],[75.89851,31.52706],[75.89965,31.52726],[75.90013,31.52533],[75.8989,31.5249],[75.90002,31.52301],[75.899,31.52244],[75.8994,31.52172],[75.89542,31.5199],[75.89505,31.52133],[75.89526,31.5214],[75.89458,31.5231],[75.89508,31.52327],[75.89497,31.52352],[75.89625,31.524],[75.89534,31.52627],[75.89614,31.52672],[75.89614,31.52699],[75.89741,31.52958]]]}},{"type":"Feature","bbox":[75.88031,31.52928,75.90022,31.53867],"properties":{"ward":45},"geometry":{"type":"Polygon","coordinates":[[[75.89551,31.5337],[75.89097,31.53332],[75.8901,31.53372],[75.89001,31.53362],[75.88857,31.53369],[75.88858,31.53385],[75.88579,31.5339],[75.88563,31.53285],[75.88336,31.53289],[75.88337,31.53393],[75.88199,31.5339],[75.88193,31.53379],[75.88059,31.53388],[75.88031,31.53721],[75.882,31.53792],[75.88255,31.53793],[75.88342,31.53738],[75.88346,31.53693],[75.885,31.53666],[75.8851,31.53624],[75.88622,31.53654],[75.88762,31.53733],[75.89137,31.53855],[75.89412,31.53867],[75.89407,31.53819],[75.89452,31.53687],[75.8952,31.53697],[75.89524,31.53678],[75.89698,31.53676],[75.89716,31.53713],[75.89888,31.53652],[75.90022,31.53674],[75.89855,31.53343],[75.89791,31.53327],[75.89779,31.53303],[75.89758,31.53238],[75.89755,31.5316],[75.89791,31.53081],[75.89704,31.52928],[75.89551,31.5337]]]}},{"type":"Feature","bbox":[75.87993,31.53631,75.90213,31.54957],"properties":{"ward":46},"geometry":{"type":"Polygon","coordinates":[[[75.89756,31.5431],[75.89465,31.53932],[75.89539,31.53877],[75.89741,31.53818],[75.90029,31.53904],[75.90157,31.53924],[75.90195,31.53822],[75.90213,31.53704],[75.90116,31.53703],[75.89871,31.5366],[75.89714,31.53721],[75.89694,31.53682],[75.89526,31.53683],[75.89524,31.53703],[75.89455,31.53693],[75.89417,31.53801],[75.8942,31.53872],[75.89371,31.53873],[75.89123,31.53858],[75.88703,31.53719],[75.88603,31.5365],[75.88514,31.53631],[75.88507,31.53672],[75.88352,31.53698],[75.88345,31.53742],[75.88267,31.53803],[75.88198,31.53796],[75.88034,31.53728],[75.87993,31.54113],[75.88251,31.54199],[75.88513,31.54319],[75.88557,31.54523],[75.88276,31.54798],[75.88332,31.54938],[75.88401,31.54957],[75.89033,31.54723],[75.8901,31.54647],[75.8895,31.54642],[75.88955,31.54446],[75.89159,31.54445],[75.89165,31.54365],[75.89347,31.54364],[75.89346,31.54388],[75.89659,31.54387],[75.8967,31.54331],[75.89756,31.5431]]]}},{"type":"Feature","bbox":[75.89894,31.53399,75.90615,31.53974],"properties":{"ward":47},"geometry":{"type":"Polygon","coordinates":[[[75.902,31.5383],[75.90161,31.53928],[75.90507,31.53974],[75.9051,31.5395],[75.90615,31.53837],[75.90516,31.53709],[75.9037,31.53456],[75.90226,31.53465],[75.89894,31.53399],[75.90029,31.53682],[75.90217,31.537],[75.902,31.5383]]]}},{"type":"Feature","bbox":[75.88958,31.53829,75.9162,31.54719],"properties":{"ward":48},"geometry":{"type":"Polygon","coordinates":[[[75.91595,31.54187],[75.9162,31.53992],[75.91304,31.53936],[75.91113,31.53978],[75.90923,31.53992],[75.90726,31.53996],[75.90447,31.53976],[75.90028,31.53913],[75.89754,31.53829],[75.89688,31.53834],[75.89546,31.53886],[75.89471,31.53942],[75.89765,31.54313],[75.89675,31.54335],[75.89675,31.54387],[75.89659,31.54391],[75.89341,31.54393],[75.89342,31.54366],[75.89174,31.54369],[75.89167,31.54448],[75.88962,31.54451],[75.88958,31.54643],[75.89016,31.5464],[75.89039,31.54719],[75.89318,31.54611],[75.89427,31.54587],[75.89697,31.54609],[75.89938,31.54589],[75.90742,31.5462],[75.90933,31.5446],[75.90967,31.54348],[75.91011,31.54351],[75.9114,31.54281],[75.91148,31.54293],[75.91366,31.54236],[75.91573,31.54234],[75.91595,31.54187]]]}},{"type":"Feature","bbox":[75.90651,31.54238,75.91938,31.55459],"properties":{"ward":49},"geometry":{"type":"Polygon","coordinates":[[[75.9146,31.54404],[75.91571,31.54238],[75.91348,31.54245],[75.91146,31.54298],[75.91139,31.54288],[75.91012,31.54356],[75.90969,31.54353],[75.90936,31.54463],[75.90734,31.54631],[75.90833,31.54697],[75.90759,31.54862],[75.90696,31.54957],[75.90651,31.55098],[75.91629,31.55455],[75.91695,31.55459],[75.91786,31.55412],[75.91938,31.55106],[75.91364,31.54558],[75.91382,31.54474],[75.9146,31.54404]]]}},{"type":"Feature","bbox":[75.88401,31.5459,75.91792,31.55914],"properties":{"ward":50},"geometry":{"type":"Polygon","coordinates":[[[75.89972,31.54596],[75.89768,31.54613],[75.89456,31.5459],[75.89355,31.54604],[75.88401,31.54961],[75.88858,31.55067],[75.88936,31.5488],[75.89187,31.54898],[75.89207,31.55153],[75.90405,31.55521],[75.90951,31.55914],[75.91198,31.55907],[75.91383,31.55568],[75.91792,31.55584],[75.91782,31.5542],[75.91717,31.55457],[75.9165,31.55466],[75.90644,31.55099],[75.90688,31.5496],[75.90825,31.54698],[75.90726,31.54633],[75.9074,31.54622],[75.89972,31.54596]]]}}]}