{"type":"FeatureCollection","features":[{"type":"Feature","bbox":[76.75654,31.34607,76.76917,31.35292],"properties":{"ward":1,"name":"Nihal"},"geometry":{"type":"Polygon","coordinates":[[[76.75699,31.35292],[76.75856,31.35274],[76.75952,31.35208],[76.76152,31.35234],[76.76185,31.35209],[76.76245,31.35208],[76.76261,31.35199],[76.76281,31.35122],[76.76342,31.35082],[76.76309,31.35034],[76.7634,31.34966],[76.76487,31.34917],[76.76676,31.35012],[76.76763,31.35032],[76.76805,31.34917],[76.76881,31.34796],[76.76917,31.34772],[76.76913,31.34757],[76.76863,31.34656],[76.76774,31.34612],[76.7672,31.34641],[76.76627,31.34644],[76.76518,31.34672],[76.76461,31.34666],[76.76389,31.34607],[76.76335,31.34607],[76.7621,31.34669],[76.76096,31.34668],[76.76072,31.34688],[76.76023,31.34808],[76.75965,31.34841],[76.75948,31.34878],[76.75917,31.34877],[76.7591,31.34825],[76.75932,31.34781],[76.75985,31.34708],[76.76051,31.34665],[76.76017,31.34636],[76.75941,31.3467],[76.75805,31.34629],[76.7579,31.34765],[76.75771,31.34778],[76.75712,31.34936],[76.75679,31.34955],[76.75654,31.35106],[76.75661,31.35217],[76.75704,31.35256],[76.75699,31.35292]]]}},{"type":"Feature","bbox":[76.75746,31.3426,76.7623,31.34669],"properties":{"ward":2,"name":"Statdium"},"geometry":{"type":"Polygon","coordinates":[[[76.75936,31.34669],[76.76017,31.34636],[76.76054,31.34663],[76.7623,31.34413],[76.76161,31.34344],[76.7609,31.34315],[76.7601,31.34312],[76.76007,31.34287],[76.75979,31.3427],[76.75769,31.3426],[76.75746,31.34348],[76.75825,31.34433],[76.75801,31.34543],[76.75805,31.34629],[76.75936,31.34669]]]}},{"type":"Feature","bbox":[76.7591,31.34415,76.76774,31.34878],"properties":{"ward":3,"name":"Roura"},"geometry":{"type":"Polygon","coordinates":[[[76.76119,31.3466],[76.7621,31.34669],[76.76293,31.34618],[76.76374,31.34603],[76.76461,31.34666],[76.76518,31.34672],[76.76627,31.34644],[76.7672,31.34641],[76.76774,31.34612],[76.76621,31.34544],[76.76588,31.34491],[76.76568,31.34496],[76.76572,31.34521],[76.7649,31.34508],[76.76452,31.34473],[76.76326,31.3446],[76.76231,31.34415],[76.76054,31.34663],[76.75963,31.34734],[76.7591,31.34825],[76.7591,31.34873],[76.75948,31.34878],[76.75965,31.34841],[76.76023,31.34808],[76.76072,31.34688],[76.76119,31.3466]]]}},{"type":"Feature","bbox":[76.75769,31.34053,76.76473,31.34483],"properties":{"ward":4,"name":"Gurudwara"},"geometry":{"type":"Polygon","coordinates":[[[76.76471,31.34459],[76.76321,31.34389],[76.76279,31.34331],[76.7628,31.34248],[76.76311,31.34187],[76.7622,31.34172],[76.76168,31.34103],[76.76086,31.34053],[76.75959,31.34074],[76.75837,31.34159],[76.75769,31.3426],[76.75979,31.3427],[76.76007,31.34287],[76.7601,31.34312],[76.7609,31.34315],[76.76161,31.34344],[76.76231,31.34415],[76.76307,31.34455],[76.76421,31.34463],[76.76473,31.34483],[76.76471,31.34459]]]}},{"type":"Feature","bbox":[76.75914,31.33539,76.76938,31.34244],"properties":{"ward":5,"name":"Mainmarket"},"geometry":{"type":"Polygon","coordinates":[[[76.76938,31.34244],[76.76785,31.34004],[76.76813,31.33875],[76.76918,31.3379],[76.76924,31.33769],[76.76886,31.33742],[76.76841,31.33639],[76.7681,31.33609],[76.76639,31.33597],[76.76569,31.33539],[76.76603,31.33637],[76.76638,31.33669],[76.76623,31.33755],[76.7659,31.33819],[76.76493,31.33856],[76.76416,31.33914],[76.76424,31.33969],[76.7639,31.3397],[76.76345,31.34013],[76.7631,31.34024],[76.76258,31.34007],[76.76196,31.34017],[76.76151,31.33982],[76.76051,31.33948],[76.75914,31.33989],[76.7596,31.34021],[76.75959,31.34074],[76.76086,31.34053],[76.76168,31.34103],[76.7622,31.34172],[76.76278,31.34191],[76.76312,31.34187],[76.76335,31.34104],[76.76358,31.34079],[76.7654,31.34021],[76.76695,31.34102],[76.76835,31.34219],[76.76938,31.34244]]]}},{"type":"Feature","bbox":[76.76272,31.34019,76.77076,31.34772],"properties":{"ward":6,"name":"Kosriyan"},"geometry":{"type":"Polygon","coordinates":[[[76.77076,31.34493],[76.77076,31.34442],[76.76964,31.34306],[76.76938,31.34244],[76.76835,31.34219],[76.76661,31.34082],[76.76524,31.34019],[76.76358,31.34079],[76.76335,31.34104],[76.76272,31.34291],[76.76301,31.34368],[76.76333,31.34396],[76.76459,31.34449],[76.76481,31.34504],[76.76572,31.34521],[76.76568,31.34496],[76.76588,31.34491],[76.76638,31.34554],[76.76863,31.34656],[76.76917,31.34772],[76.77027,31.34628],[76.77076,31.34493]]]}},{"type":"Feature","bbox":[76.75939,31.328,76.77368,31.33966],"properties":{"ward":7,"name":"Changar"},"geometry":{"type":"Polygon","coordinates":[[[76.76199,31.33966],[76.76422,31.33962],[76.76416,31.33914],[76.76493,31.33856],[76.7659,31.33819],[76.76623,31.33757],[76.76638,31.33669],[76.76603,31.33637],[76.76569,31.33539],[76.76599,31.33455],[76.76647,31.33447],[76.7673,31.33362],[76.76781,31.3336],[76.76887,31.33274],[76.76991,31.33282],[76.77055,31.33268],[76.77274,31.33332],[76.77311,31.33307],[76.77353,31.33218],[76.77368,31.33127],[76.77348,31.33057],[76.77277,31.33023],[76.77204,31.33033],[76.77094,31.33085],[76.76917,31.33088],[76.76838,31.33074],[76.76778,31.33039],[76.76751,31.32935],[76.76708,31.32928],[76.76603,31.32828],[76.76525,31.328],[76.76402,31.32853],[76.76289,31.32968],[76.75987,31.33053],[76.75939,31.33179],[76.7599,31.33273],[76.76003,31.3335],[76.76065,31.33373],[76.76237,31.33362],[76.76318,31.33337],[76.7634,31.33357],[76.76337,31.33376],[76.76266,31.33438],[76.76053,31.33509],[76.76025,31.33555],[76.76068,31.33892],[76.76199,31.33966]]]}},{"type":"Feature","bbox":[76.75686,31.3339,76.76425,31.34024],"properties":{"ward":8,"name":"Laxmi Narayan Mandir"},"geometry":{"type":"Polygon","coordinates":[[[76.76314,31.34024],[76.7639,31.3397],[76.76425,31.33964],[76.76409,31.3396],[76.76351,31.33977],[76.76204,31.33968],[76.76159,31.33953],[76.76074,31.33892],[76.76002,31.3391],[76.75943,31.33898],[76.75883,31.33756],[76.75788,31.33653],[76.75789,31.3347],[76.75714,31.3339],[76.7569,31.33443],[76.75686,31.33555],[76.75731,31.33986],[76.75754,31.34],[76.75862,31.33979],[76.75914,31.33989],[76.76051,31.33948],[76.76151,31.33982],[76.76206,31.3402],[76.76254,31.34007],[76.76314,31.34024]]]}},{"type":"Feature","bbox":[76.75788,31.3359,76.76068,31.33909],"properties":{"ward":9,"name":"Town Hall"},"geometry":{"type":"Polygon","coordinates":[[[76.75987,31.33909],[76.76068,31.33892],[76.76063,31.33827],[76.76024,31.33627],[76.75863,31.3359],[76.75794,31.33608],[76.75788,31.33653],[76.75883,31.33756],[76.75936,31.33891],[76.75987,31.33909]]]}},{"type":"Feature","bbox":[76.75714,31.3287,76.7634,31.33636],"properties":{"ward":10,"name":"Doulra"},"geometry":{"type":"Polygon","coordinates":[[[76.76026,31.33636],[76.76025,31.33555],[76.76053,31.33509],[76.76266,31.33438],[76.76337,31.33376],[76.7634,31.33352],[76.76318,31.33337],[76.76237,31.33362],[76.76065,31.33373],[76.76003,31.3335],[76.7599,31.33273],[76.75939,31.33179],[76.75987,31.33053],[76.7602,31.33035],[76.76134,31.33022],[76.76242,31.3298],[76.76036,31.32938],[76.75941,31.32934],[76.7585,31.3287],[76.75858,31.32936],[76.75842,31.33019],[76.75801,31.33104],[76.75714,31.3339],[76.75787,31.33463],[76.75794,31.33608],[76.75863,31.3359],[76.76026,31.33636]]]}},{"type":"Feature","bbox":[76.75573,31.3203,76.77101,31.3298],"properties":{"ward":11,"name":"Lakhanpur"},"geometry":{"type":"Polygon","coordinates":[[[76.76289,31.32968],[76.76402,31.32853],[76.76525,31.328],[76.76603,31.32828],[76.76708,31.32928],[76.76751,31.32935],[76.76837,31.32832],[76.76835,31.32721],[76.76987,31.32403],[76.77037,31.32341],[76.7709,31.32319],[76.77101,31.32286],[76.76955,31.32276],[76.7687,31.32254],[76.76823,31.32212],[76.76789,31.3215],[76.76738,31.32115],[76.76702,31.3213],[76.76654,31.32186],[76.76464,31.32281],[76.76348,31.32311],[76.76261,31.32315],[76.76184,31.32282],[76.76132,31.32237],[76.76044,31.32111],[76.75966,31.32042],[76.75832,31.3203],[76.75644,31.32071],[76.75606,31.32151],[76.75602,31.32302],[76.75573,31.32462],[76.75587,31.32498],[76.75682,31.32552],[76.75816,31.32687],[76.75843,31.32751],[76.7585,31.3287],[76.75941,31.32934],[76.76036,31.32938],[76.76242,31.3298],[76.76289,31.32968]]]}}]}