{"type":"FeatureCollection","features":[{"type":"Feature","bbox":[76.93019,31.71288,76.95656,31.75548],"properties":{"ward":1,"name":"Khaliyar"},"geometry":{"type":"Polygon","coordinates":[[[76.93366,31.7266],[76.93421,31.72735],[76.9361,31.72845],[76.9363,31.72906],[76.93635,31.72955],[76.93531,31.73197],[76.93515,31.7337],[76.93523,31.73675],[76.93564,31.73666],[76.93655,31.73853],[76.93679,31.74051],[76.93672,31.74204],[76.93745,31.74369],[76.93808,31.74408],[76.93886,31.74526],[76.93972,31.74794],[76.94137,31.75214],[76.94157,31.75306],[76.94146,31.75413],[76.95134,31.75548],[76.95494,31.75491],[76.95548,31.75398],[76.95656,31.75041],[76.95518,31.74848],[76.95334,31.74759],[76.95277,31.7467],[76.95219,31.7441],[76.95223,31.7411],[76.94534,31.72192],[76.94484,31.72012],[76.94321,31.71835],[76.94089,31.71544],[76.9405,31.71485],[76.94064,31.71453],[76.93835,31.71518],[76.93701,31.71499],[76.93436,31.7139],[76.93268,31.71288],[76.93169,31.71383],[76.93062,31.71539],[76.93019,31.7164],[76.93033,31.71738],[76.93326,31.72142],[76.93386,31.72282],[76.93388,31.72372],[76.93352,31.72541],[76.93366,31.7266]]]}},{"type":"Feature","bbox":[76.9327,31.70336,76.94624,31.71518],"properties":{"ward":2,"name":"Purani Mandi"},"geometry":{"type":"Polygon","coordinates":[[[76.93835,31.71518],[76.94064,31.71453],[76.94253,31.71216],[76.94327,31.71089],[76.9438,31.70978],[76.94498,31.70636],[76.9454,31.70619],[76.94624,31.70631],[76.94594,31.70559],[76.94548,31.70519],[76.94427,31.70483],[76.94306,31.70479],[76.94314,31.70441],[76.94367,31.70366],[76.94298,31.70336],[76.94133,31.70496],[76.93613,31.7121],[76.93519,31.71271],[76.9327,31.7129],[76.93388,31.71366],[76.93678,31.71492],[76.93835,31.71518]]]}},{"type":"Feature","bbox":[76.93441,31.69811,76.9525,31.71198],"properties":{"ward":3,"name":"Paddal"},"geometry":{"type":"Polygon","coordinates":[[[76.94133,31.70496],[76.94298,31.70336],[76.94367,31.70366],[76.94314,31.70441],[76.94306,31.70479],[76.94427,31.70483],[76.94548,31.70519],[76.94594,31.70559],[76.94624,31.70631],[76.9511,31.70752],[76.95131,31.70748],[76.95167,31.70704],[76.9525,31.70529],[76.95096,31.70389],[76.949,31.70106],[76.94875,31.69982],[76.94929,31.69865],[76.94926,31.69843],[76.94852,31.6987],[76.94523,31.69893],[76.94481,31.69884],[76.94406,31.69819],[76.94338,31.69811],[76.94283,31.6989],[76.94106,31.69966],[76.9386,31.69914],[76.93656,31.69907],[76.93635,31.70081],[76.93606,31.70175],[76.93533,31.70309],[76.93441,31.70662],[76.93504,31.7081],[76.93528,31.71159],[76.93623,31.71198],[76.94133,31.70496]]]}},{"type":"Feature","bbox":[76.93554,31.67738,76.98075,31.70654],"properties":{"ward":4,"name":"Nela"},"geometry":{"type":"Polygon","coordinates":[[[76.98003,31.7065],[76.98038,31.70623],[76.98075,31.705],[76.98043,31.70458],[76.97752,31.702],[76.97661,31.70137],[76.9753,31.70004],[76.96958,31.69633],[76.96372,31.69534],[76.95249,31.69286],[76.9518,31.69258],[76.95078,31.69031],[76.95009,31.68945],[76.94999,31.68831],[76.95154,31.68596],[76.95279,31.683],[76.95429,31.68056],[76.95595,31.67738],[76.95521,31.67785],[76.9541,31.67799],[76.95264,31.67775],[76.95193,31.67801],[76.94995,31.67805],[76.94937,31.678],[76.94907,31.67756],[76.94829,31.67764],[76.94754,31.67917],[76.94751,31.6815],[76.94449,31.6845],[76.94353,31.68515],[76.94151,31.68523],[76.94052,31.68545],[76.93695,31.68673],[76.93624,31.68723],[76.93558,31.68818],[76.93554,31.68884],[76.93592,31.69008],[76.93609,31.69166],[76.93745,31.69472],[76.93748,31.6956],[76.93723,31.69729],[76.93661,31.69907],[76.93881,31.69917],[76.94106,31.69966],[76.94283,31.6989],[76.94338,31.69811],[76.94406,31.69819],[76.94481,31.69884],[76.94523,31.69893],[76.94852,31.6987],[76.94926,31.69843],[76.94929,31.69865],[76.94875,31.69982],[76.949,31.70106],[76.95096,31.70389],[76.9525,31.70529],[76.95569,31.70461],[76.95693,31.70412],[76.9614,31.70149],[76.96262,31.70123],[76.96352,31.70146],[76.96473,31.70254],[76.96578,31.70321],[76.96788,31.70388],[76.96946,31.70359],[76.97027,31.70397],[76.9723,31.70428],[76.9732,31.70425],[76.97523,31.70369],[76.97564,31.70393],[76.97613,31.70464],[76.97713,31.70501],[76.97747,31.70565],[76.9782,31.70621],[76.97904,31.70654],[76.98003,31.7065]]]}},{"type":"Feature","bbox":[76.93235,31.69063,76.93748,31.70667],"properties":{"ward":5,"name":"Mangwain"},"geometry":{"type":"Polygon","coordinates":[[[76.93358,31.70554],[76.9346,31.70554],[76.93533,31.70309],[76.93606,31.70175],[76.93635,31.70081],[76.93656,31.69907],[76.93723,31.69729],[76.93748,31.6956],[76.93745,31.69472],[76.93609,31.69166],[76.93594,31.69065],[76.93458,31.69063],[76.93411,31.69114],[76.93452,31.69236],[76.93595,31.69365],[76.93652,31.69462],[76.93655,31.69512],[76.93616,31.69624],[76.93591,31.69764],[76.93551,31.69836],[76.93486,31.69824],[76.93424,31.6984],[76.93323,31.69891],[76.9329,31.69982],[76.93235,31.69968],[76.93284,31.70132],[76.93274,31.70174],[76.93246,31.70204],[76.93299,31.70283],[76.93252,31.70398],[76.93303,31.7049],[76.93303,31.70516],[76.93284,31.70513],[76.93283,31.70548],[76.93298,31.70667],[76.93344,31.70632],[76.93358,31.70554]]]}},{"type":"Feature","bbox":[76.9265,31.66543,76.94844,31.69987],"properties":{"ward":6,"name":"Sanhyarad"},"geometry":{"type":"Polygon","coordinates":[[[76.93278,31.69987],[76.93311,31.69909],[76.93339,31.69876],[76.93459,31.69829],[76.93551,31.69836],[76.93606,31.69723],[76.93616,31.69624],[76.93655,31.69512],[76.93652,31.69462],[76.93595,31.69365],[76.93452,31.69236],[76.93411,31.69114],[76.93458,31.69063],[76.93594,31.69065],[76.93592,31.69008],[76.93553,31.6887],[76.93558,31.68818],[76.93621,31.68726],[76.93695,31.68673],[76.94052,31.68545],[76.94151,31.68523],[76.94353,31.68515],[76.94449,31.6845],[76.94751,31.6815],[76.94754,31.67917],[76.94844,31.67712],[76.94814,31.67434],[76.94772,31.67343],[76.94643,31.67147],[76.94525,31.6685],[76.94451,31.66729],[76.9445,31.66646],[76.94334,31.66647],[76.94116,31.66579],[76.93906,31.66543],[76.9397,31.6671],[76.94087,31.66948],[76.94115,31.67061],[76.94115,31.67161],[76.94169,31.67288],[76.94162,31.67438],[76.94191,31.67531],[76.94133,31.67634],[76.94129,31.6777],[76.94091,31.67843],[76.93921,31.67939],[76.93729,31.68122],[76.93349,31.68681],[76.93185,31.6873],[76.93052,31.68747],[76.93021,31.68911],[76.92856,31.69118],[76.92768,31.69278],[76.92837,31.69393],[76.92827,31.69447],[76.92747,31.69593],[76.92738,31.69688],[76.92656,31.69732],[76.9265,31.69906],[76.92742,31.69957],[76.92832,31.69942],[76.92909,31.69964],[76.93068,31.69933],[76.93205,31.69949],[76.93278,31.69987]]]}},{"type":"Feature","bbox":[76.9118,31.67518,76.93052,31.70135],"properties":{"ward":7,"name":"Talyahar"},"geometry":{"type":"Polygon","coordinates":[[[76.92372,31.70103],[76.92498,31.70094],[76.92532,31.70079],[76.92561,31.70047],[76.92562,31.69944],[76.92647,31.69889],[76.9266,31.69866],[76.92647,31.69819],[76.92656,31.69732],[76.92738,31.69688],[76.92747,31.69593],[76.92827,31.69447],[76.92837,31.69393],[76.92768,31.69278],[76.92856,31.69118],[76.93021,31.68911],[76.93052,31.68747],[76.92901,31.68757],[76.92873,31.68746],[76.92626,31.68447],[76.9259,31.68363],[76.92218,31.67916],[76.91775,31.68062],[76.91755,31.68025],[76.91685,31.67545],[76.91675,31.6752],[76.91649,31.67518],[76.91603,31.67558],[76.91307,31.67704],[76.91284,31.67731],[76.91233,31.67866],[76.9118,31.6792],[76.91216,31.68015],[76.91211,31.68108],[76.91233,31.68163],[76.91638,31.68772],[76.91998,31.69076],[76.92157,31.69433],[76.92098,31.6974],[76.92056,31.69868],[76.92112,31.69905],[76.92257,31.70061],[76.923,31.70135],[76.92372,31.70103]]]}},{"type":"Feature","bbox":[76.92304,31.7009,76.929,31.70951],"properties":{"ward":8,"name":"Palace Colony -1"},"geometry":{"type":"Polygon","coordinates":[[[76.92768,31.70951],[76.92775,31.70827],[76.9285,31.7081],[76.92893,31.70773],[76.929,31.70704],[76.92835,31.70616],[76.92828,31.705],[76.92789,31.70466],[76.92726,31.70451],[76.92723,31.70378],[76.92648,31.70282],[76.92605,31.7009],[76.92372,31.70103],[76.92304,31.70133],[76.92586,31.70694],[76.92588,31.70805],[76.92717,31.70847],[76.92709,31.70939],[76.92768,31.70951]]]}},{"type":"Feature","bbox":[76.92506,31.70805,76.93635,31.73909],"properties":{"ward":9,"name":"Palace Colony -2"},"geometry":{"type":"Polygon","coordinates":[[[76.92799,31.73909],[76.93028,31.73835],[76.93185,31.73862],[76.93523,31.73675],[76.93515,31.7337],[76.93531,31.73197],[76.93635,31.72955],[76.9361,31.72845],[76.93421,31.72735],[76.93366,31.7266],[76.93352,31.72541],[76.93388,31.72372],[76.93386,31.72282],[76.93326,31.72142],[76.93033,31.71738],[76.93019,31.7164],[76.93113,31.71458],[76.92901,31.71332],[76.92855,31.71262],[76.9286,31.7118],[76.92876,31.71147],[76.92825,31.71103],[76.9276,31.71074],[76.92787,31.70951],[76.92842,31.70888],[76.92858,31.70815],[76.9278,31.70819],[76.92768,31.70951],[76.92709,31.70939],[76.92717,31.70847],[76.92588,31.70805],[76.92541,31.70977],[76.92506,31.71017],[76.92546,31.71094],[76.92554,31.71174],[76.92526,31.71377],[76.92619,31.71562],[76.92873,31.72273],[76.92875,31.72699],[76.92943,31.73027],[76.92744,31.73555],[76.92776,31.73681],[76.92761,31.73897],[76.92799,31.73909]]]}},{"type":"Feature","bbox":[76.9276,31.70755,76.93201,31.71151],"properties":{"ward":10,"name":"Suhra"},"geometry":{"type":"Polygon","coordinates":[[[76.92877,31.71151],[76.92945,31.71076],[76.92923,31.7103],[76.92996,31.71043],[76.93016,31.71073],[76.9313,31.70993],[76.93186,31.70972],[76.93201,31.7094],[76.93189,31.70865],[76.93069,31.70776],[76.93006,31.70755],[76.92944,31.70756],[76.9287,31.70783],[76.92851,31.70808],[76.92842,31.70888],[76.92787,31.70951],[76.9276,31.71068],[76.92877,31.71151]]]}},{"type":"Feature","bbox":[76.92856,31.70984,76.93623,31.71458],"properties":{"ward":11,"name":"Samkhetar"},"geometry":{"type":"Polygon","coordinates":[[[76.93113,31.71458],[76.93268,31.71288],[76.93519,31.71271],[76.93623,31.71198],[76.93551,31.71178],[76.93523,31.7115],[76.93517,31.71116],[76.93477,31.71112],[76.9345,31.71144],[76.93355,31.71117],[76.93315,31.71143],[76.93149,31.70984],[76.93016,31.71073],[76.92996,31.71043],[76.92923,31.7103],[76.92945,31.71076],[76.92864,31.71167],[76.92856,31.71227],[76.92867,31.7129],[76.92901,31.71332],[76.93113,31.71458]]]}},{"type":"Feature","bbox":[76.9313,31.70477,76.93517,31.71143],"properties":{"ward":12,"name":"Bhagwahan"},"geometry":{"type":"Polygon","coordinates":[[[76.93459,31.7114],[76.93477,31.71112],[76.93517,31.71116],[76.93504,31.7081],[76.9344,31.70668],[76.9346,31.70554],[76.93358,31.70554],[76.93344,31.70632],[76.93298,31.70667],[76.93285,31.70636],[76.93284,31.70512],[76.93247,31.70488],[76.93186,31.70477],[76.9313,31.70522],[76.9318,31.70601],[76.93155,31.70675],[76.93172,31.70697],[76.9313,31.70718],[76.93164,31.70771],[76.93144,31.70783],[76.93152,31.70808],[76.93133,31.70821],[76.9319,31.70867],[76.93201,31.70939],[76.93186,31.70972],[76.93149,31.70984],[76.93315,31.71143],[76.93355,31.71117],[76.93395,31.71139],[76.93459,31.7114]]]}},{"type":"Feature","bbox":[76.92521,31.69889,76.93303,31.70821],"properties":{"ward":13,"name":"Thanera"},"geometry":{"type":"Polygon","coordinates":[[[76.93164,31.70771],[76.9313,31.70718],[76.93172,31.70697],[76.93155,31.70675],[76.9318,31.70601],[76.93134,31.70545],[76.93134,31.70513],[76.93204,31.70474],[76.93303,31.70516],[76.93295,31.70462],[76.93256,31.70423],[76.93252,31.70398],[76.93299,31.70283],[76.93246,31.70204],[76.93274,31.70174],[76.93284,31.70132],[76.93235,31.69969],[76.93205,31.69949],[76.93068,31.69933],[76.92909,31.69964],[76.92832,31.69942],[76.92742,31.69957],[76.92662,31.69915],[76.92647,31.69889],[76.92614,31.69904],[76.92562,31.69944],[76.92561,31.70047],[76.92521,31.70085],[76.92605,31.7009],[76.92648,31.70282],[76.92723,31.70376],[76.92728,31.70454],[76.92776,31.7046],[76.92828,31.705],[76.92835,31.70616],[76.929,31.70704],[76.92893,31.70773],[76.93006,31.70755],[76.93069,31.70776],[76.93133,31.70821],[76.93152,31.70808],[76.93144,31.70783],[76.93164,31.70771]]]}},{"type":"Feature","bbox":[76.94451,31.64664,76.96581,31.67801],"properties":{"ward":14,"name":"Behna"},"geometry":{"type":"Polygon","coordinates":[[[76.94937,31.678],[76.95193,31.67801],[76.95264,31.67775],[76.9541,31.67799],[76.95521,31.67785],[76.95595,31.67738],[76.95681,31.67547],[76.95532,31.67519],[76.95009,31.6757],[76.94942,31.67564],[76.9492,31.67507],[76.94882,31.67248],[76.94831,31.67104],[76.94838,31.67083],[76.94932,31.67006],[76.94933,31.66983],[76.94909,31.66966],[76.94762,31.66944],[76.94742,31.66896],[76.94694,31.66849],[76.94716,31.66825],[76.94824,31.66773],[76.94893,31.66818],[76.94944,31.6683],[76.95078,31.66765],[76.9512,31.66769],[76.95221,31.66824],[76.95251,31.66825],[76.95342,31.6676],[76.95389,31.66753],[76.95474,31.6677],[76.95579,31.66765],[76.95954,31.66852],[76.96326,31.66869],[76.96434,31.66861],[76.96531,31.66808],[76.96581,31.66706],[76.96562,31.66458],[76.96467,31.66358],[76.96403,31.66349],[76.96264,31.66364],[76.96118,31.66413],[76.96036,31.66403],[76.96003,31.66391],[76.95902,31.66288],[76.95842,31.66256],[76.95726,31.66122],[76.95756,31.65964],[76.95829,31.65915],[76.95902,31.65818],[76.96075,31.65759],[76.96077,31.65732],[76.96056,31.65706],[76.95881,31.65583],[76.95754,31.65598],[76.9571,31.65566],[76.95528,31.65497],[76.9542,31.6543],[76.9535,31.65424],[76.95324,31.65392],[76.95198,31.65328],[76.95108,31.6531],[76.95065,31.6528],[76.95234,31.64958],[76.95342,31.64794],[76.95229,31.64734],[76.95218,31.64664],[76.95022,31.64702],[76.94941,31.64735],[76.94828,31.64734],[76.94775,31.64793],[76.94786,31.64975],[76.94746,31.65095],[76.94639,31.65278],[76.94615,31.65429],[76.94621,31.65663],[76.94719,31.6583],[76.94724,31.66091],[76.94678,31.66203],[76.94562,31.66301],[76.9449,31.66418],[76.94451,31.66649],[76.94451,31.66729],[76.94525,31.6685],[76.94643,31.67147],[76.94772,31.67343],[76.94814,31.67434],[76.94843,31.67618],[76.94829,31.67764],[76.94907,31.67756],[76.94937,31.678]]]}},{"type":"Feature","bbox":[76.9376,31.62587,76.953,31.66647],"properties":{"ward":15,"name":"Doundhi"},"geometry":{"type":"Polygon","coordinates":[[[76.94334,31.66647],[76.94453,31.66646],[76.94473,31.66458],[76.9449,31.66418],[76.94562,31.66301],[76.94678,31.66203],[76.94724,31.66091],[76.94719,31.6583],[76.94621,31.65663],[76.94615,31.65429],[76.94639,31.65278],[76.94746,31.65095],[76.94786,31.64975],[76.94775,31.64793],[76.94828,31.64734],[76.94941,31.64735],[76.95022,31.64702],[76.95218,31.64664],[76.95298,31.64531],[76.953,31.64504],[76.95281,31.64418],[76.95124,31.64235],[76.95015,31.64204],[76.94838,31.64088],[76.94677,31.64009],[76.94542,31.63869],[76.94524,31.63801],[76.94532,31.63694],[76.94566,31.63624],[76.94672,31.6352],[76.94683,31.6348],[76.94565,31.63167],[76.94679,31.62945],[76.94642,31.62811],[76.94637,31.62711],[76.94584,31.62688],[76.94184,31.62685],[76.94123,31.62665],[76.94076,31.62594],[76.93884,31.62587],[76.9387,31.62602],[76.93931,31.62748],[76.94023,31.63188],[76.94006,31.63627],[76.9402,31.63752],[76.9397,31.63829],[76.93794,31.63937],[76.93777,31.63967],[76.93785,31.64018],[76.94096,31.64194],[76.94203,31.6433],[76.942,31.6437],[76.94089,31.64553],[76.94064,31.64646],[76.94238,31.64693],[76.94308,31.64775],[76.94295,31.64851],[76.942,31.65112],[76.94129,31.6523],[76.94141,31.6528],[76.94126,31.65649],[76.94308,31.65911],[76.93773,31.66163],[76.9376,31.66181],[76.93906,31.66543],[76.94116,31.66579],[76.94334,31.66647]]]}}]}