{"type":"FeatureCollection","features":[{"type":"Feature","bbox":[75.97847,31.18542,75.99212,31.19271],"properties":{"ward":1,"name":"Massanda Patti"},"geometry":{"type":"Polygon","coordinates":[[[75.99206,31.18542],[75.97861,31.18781],[75.97847,31.19164],[75.98071,31.19164],[75.98069,31.18965],[75.98329,31.18954],[75.98327,31.19267],[75.99103,31.19271],[75.99212,31.1914],[75.99107,31.19137],[75.99111,31.19058],[75.98927,31.19048],[75.98922,31.18973],[75.99031,31.18863],[75.99029,31.18813],[75.99068,31.18815],[75.9916,31.18773],[75.99208,31.1861],[75.99206,31.18542]]]}},{"type":"Feature","bbox":[75.98924,31.1852,75.99567,31.19136],"properties":{"ward":2,"name":"Mohalla Krishan Nagar"},"geometry":{"type":"Polygon","coordinates":[[[75.98924,31.18975],[75.9893,31.19046],[75.99114,31.19054],[75.99112,31.19136],[75.99214,31.19135],[75.99329,31.18996],[75.99352,31.18891],[75.99557,31.1892],[75.99567,31.18845],[75.99501,31.18837],[75.99482,31.18805],[75.99468,31.18823],[75.99446,31.18813],[75.99455,31.18772],[75.99482,31.18771],[75.99485,31.18721],[75.99369,31.18713],[75.99373,31.18623],[75.99433,31.18623],[75.99432,31.1852],[75.99315,31.18549],[75.99321,31.18583],[75.99214,31.18596],[75.99161,31.18776],[75.99062,31.1882],[75.99031,31.18814],[75.99027,31.18876],[75.98924,31.18975]]]}},{"type":"Feature","bbox":[75.99371,31.18482,75.99739,31.18813],"properties":{"ward":4,"name":"Mohalla Sanchil Bazar"},"geometry":{"type":"Polygon","coordinates":[[[75.99546,31.18495],[75.99567,31.1857],[75.99438,31.1857],[75.99434,31.18623],[75.99375,31.18625],[75.99371,31.18711],[75.99489,31.18719],[75.99505,31.18703],[75.99531,31.18707],[75.99527,31.18735],[75.99543,31.18739],[75.99555,31.18708],[75.99608,31.18722],[75.99658,31.18703],[75.99651,31.18716],[75.99688,31.18726],[75.99687,31.18742],[75.9972,31.18746],[75.99707,31.18807],[75.9972,31.18813],[75.99739,31.18755],[75.99726,31.18623],[75.99601,31.18482],[75.99546,31.18495]]]}},{"type":"Feature","bbox":[75.99604,31.18403,76.00275,31.18646],"properties":{"ward":5,"name":"Mohalla Sidh Banga"},"geometry":{"type":"Polygon","coordinates":[[[75.99868,31.18403],[75.99604,31.18489],[75.99728,31.18622],[75.99861,31.18615],[76.00114,31.18646],[76.00275,31.18481],[76.00039,31.18424],[75.99868,31.18403]]]}},{"type":"Feature","bbox":[75.99111,31.18619,76.00424,31.19272],"properties":{"ward":6,"name":"Mohalla Panth Mata Sahib Kaur"},"geometry":{"type":"Polygon","coordinates":[[[75.99331,31.18997],[75.99111,31.19272],[75.99571,31.19256],[76.00257,31.19142],[76.00424,31.18718],[76.00126,31.18645],[75.99832,31.18619],[75.9973,31.18626],[75.99735,31.18825],[75.99625,31.18863],[75.9957,31.18852],[75.99559,31.18925],[75.99353,31.18893],[75.99331,31.18997]]]}},{"type":"Feature","bbox":[76.00125,31.18481,76.01694,31.19221],"properties":{"ward":7,"name":"Mohalla Muktpura"},"geometry":{"type":"Polygon","coordinates":[[[76.01694,31.18814],[76.0087,31.18707],[76.00282,31.18481],[76.00125,31.18639],[76.00428,31.1871],[76.0043,31.18725],[76.0071,31.18754],[76.00766,31.18831],[76.00538,31.18994],[76.00328,31.18985],[76.00261,31.19141],[76.01671,31.19221],[76.01661,31.18984],[76.01694,31.18814]]]}},{"type":"Feature","bbox":[76.00328,31.18727,76.00761,31.18991],"properties":{"ward":8,"name":"Bheem Rao Colony Banga"},"geometry":{"type":"Polygon","coordinates":[[[76.00426,31.18727],[76.00328,31.18978],[76.00536,31.18991],[76.00761,31.1883],[76.0071,31.18756],[76.00426,31.18727]]]}},{"type":"Feature","bbox":[75.99877,31.17602,76.01706,31.18811],"properties":{"ward":9,"name":"Mohalla Chhagran"},"geometry":{"type":"Polygon","coordinates":[[[76.01706,31.17602],[75.99877,31.18395],[76.00299,31.18482],[76.00862,31.18697],[76.01692,31.18811],[76.01706,31.17602]]]}},{"type":"Feature","bbox":[75.99422,31.1725,76.00981,31.18078],"properties":{"ward":10,"name":"Mohalla Chhagaran"},"geometry":{"type":"Polygon","coordinates":[[[75.99422,31.17642],[75.99434,31.17686],[75.99615,31.17691],[75.99611,31.17671],[75.99989,31.17599],[75.99998,31.17676],[75.99945,31.17724],[75.99913,31.17792],[76.00561,31.18078],[76.00831,31.17971],[76.00981,31.1725],[76.00099,31.17596],[76.00103,31.17474],[75.99946,31.17469],[75.99948,31.17513],[75.99824,31.17517],[75.99822,31.17539],[75.99542,31.1756],[75.9945,31.17493],[75.99422,31.17642]]]}},{"type":"Feature","bbox":[75.99688,31.17797,76.00561,31.18455],"properties":{"ward":11,"name":"Adarsh Nagar Banga"},"geometry":{"type":"Polygon","coordinates":[[[75.99688,31.18455],[76.00561,31.18089],[75.99909,31.17797],[75.99815,31.18064],[75.99754,31.18155],[75.99688,31.18455]]]}},{"type":"Feature","bbox":[75.99387,31.17606,75.99996,31.18117],"properties":{"ward":12,"name":"Mohalla Gandhi Nagar"},"geometry":{"type":"Polygon","coordinates":[[[75.99988,31.17606],[75.99618,31.17679],[75.99636,31.17772],[75.99421,31.17835],[75.99387,31.18055],[75.99558,31.18051],[75.99557,31.18031],[75.99601,31.18032],[75.99601,31.1805],[75.99664,31.18054],[75.99663,31.18088],[75.99716,31.1809],[75.99774,31.18117],[75.99813,31.18063],[75.99941,31.17719],[75.99996,31.17675],[75.99988,31.17606]]]}},{"type":"Feature","bbox":[75.99359,31.18032,75.99773,31.18569],"properties":{"ward":13,"name":"Mohalla Subhash Nagar"},"geometry":{"type":"Polygon","coordinates":[[[75.99359,31.18543],[75.99433,31.18519],[75.99436,31.18569],[75.99565,31.18569],[75.99543,31.18493],[75.99686,31.18455],[75.99752,31.18155],[75.99773,31.18118],[75.99715,31.18091],[75.99663,31.18089],[75.99663,31.18054],[75.99601,31.18051],[75.996,31.18033],[75.99558,31.18032],[75.99558,31.18053],[75.99386,31.18057],[75.99393,31.18238],[75.99359,31.18543]]]}},{"type":"Feature","bbox":[75.98769,31.17636,75.99633,31.18542],"properties":{"ward":14,"name":"Mohalla Balmik Banga"},"geometry":{"type":"Polygon","coordinates":[[[75.99381,31.18059],[75.99417,31.17832],[75.99633,31.17771],[75.99616,31.17695],[75.99433,31.17687],[75.99417,31.17645],[75.99071,31.17636],[75.99077,31.17796],[75.98995,31.17796],[75.98985,31.17862],[75.98769,31.17907],[75.9877,31.18053],[75.99042,31.18248],[75.99097,31.18325],[75.99133,31.1841],[75.99231,31.18501],[75.99237,31.18536],[75.99355,31.18542],[75.9939,31.18236],[75.99381,31.18059]]]}},{"type":"Feature","bbox":[75.97853,31.18039,75.99319,31.18771],"properties":{"ward":15,"name":"Phagwara Road Banga"},"geometry":{"type":"Polygon","coordinates":[[[75.99236,31.1854],[75.99231,31.18501],[75.99132,31.18411],[75.99043,31.18253],[75.98768,31.18055],[75.98415,31.18039],[75.97853,31.18091],[75.97856,31.18771],[75.99207,31.1854],[75.99211,31.18594],[75.99319,31.18582],[75.99312,31.18552],[75.99236,31.1854]]]}}]}