{"type":"FeatureCollection","features":[{"type":"Feature","bbox":[75.6517,31.43041,75.65506,31.43517],"properties":{"ward":1},"geometry":{"type":"Polygon","coordinates":[[[75.65205,31.43335],[75.6517,31.43491],[75.65223,31.43515],[75.65248,31.43517],[75.65272,31.43495],[75.65296,31.43368],[75.65357,31.43266],[75.65489,31.43304],[75.65504,31.43268],[75.65489,31.4323],[75.65506,31.4315],[75.65391,31.43142],[75.65385,31.43076],[75.65421,31.43041],[75.65359,31.43055],[75.65361,31.43144],[75.65209,31.43162],[75.65205,31.43335]]]}},{"type":"Feature","bbox":[75.65491,31.43153,75.65749,31.43362],"properties":{"ward":2},"geometry":{"type":"Polygon","coordinates":[[[75.65749,31.43287],[75.65737,31.43233],[75.65638,31.43224],[75.65629,31.43178],[75.65507,31.43153],[75.65491,31.43305],[75.65645,31.43362],[75.65724,31.4334],[75.65749,31.43287]]]}},{"type":"Feature","bbox":[75.6545,31.43306,75.65717,31.43431],"properties":{"ward":3},"geometry":{"type":"MultiPolygon","coordinates":[[[[75.65486,31.43306],[75.65476,31.43317],[75.65476,31.43317],[75.65476,31.43317],[75.65476,31.43318],[75.65476,31.43318],[75.65476,31.43317],[75.65476,31.43323],[75.6545,31.43319],[75.6546,31.43407],[75.65554,31.43424],[75.65634,31.43431],[75.65645,31.43405],[75.6568,31.43398],[75.65712,31.43357],[75.65717,31.43344],[75.65648,31.43365],[75.65486,31.43306]],[[75.6557,31.43417],[75.65566,31.43413],[75.65569,31.43416],[75.6557,31.43417],[75.6557,31.43417],[75.6557,31.43417]],[[75.65566,31.43413],[75.65566,31.43413],[75.65566,31.43413],[75.65566,31.43413]],[[75.65569,31.43416],[75.65566,31.43413],[75.65566,31.43413],[75.65569,31.43416]],[[75.65716,31.43346],[75.65713,31.43355],[75.65717,31.43344],[75.65716,31.43346]]],[[[75.65476,31.43317],[75.65476,31.43317],[75.65476,31.43317],[75.65476,31.43317]]],[[[75.6557,31.43417],[75.6557,31.43417],[75.65569,31.43416],[75.6557,31.43417]]],[[[75.65476,31.43317],[75.65476,31.43318],[75.65476,31.43317],[75.65476,31.43317]]],[[[75.65476,31.43317],[75.65476,31.43317],[75.65476,31.43317],[75.65476,31.43317]]]]}},{"type":"Feature","bbox":[75.64403,31.42971,75.68223,31.4409],"properties":{"ward":4,"name":"Navipur Mohalla"},"geometry":{"type":"Polygon","coordinates":[[[75.64535,31.43978],[75.64403,31.4409],[75.64591,31.43946],[75.65249,31.43698],[75.65538,31.43623],[75.66854,31.43349],[75.67481,31.43195],[75.68223,31.43052],[75.68209,31.42988],[75.6817,31.42971],[75.66719,31.42997],[75.66291,31.43088],[75.65896,31.43238],[75.65811,31.4325],[75.65792,31.43241],[75.65797,31.43155],[75.65743,31.43159],[75.65746,31.43316],[75.65643,31.43428],[75.6546,31.43412],[75.65447,31.43322],[75.65472,31.4332],[75.65478,31.43304],[75.65357,31.43266],[75.65296,31.43369],[75.65284,31.43468],[75.65255,31.43513],[75.65162,31.43492],[75.6495,31.43688],[75.64535,31.43978]]]}},{"type":"Feature","bbox":[75.67015,31.42488,75.68191,31.42981],"properties":{"ward":5,"name":"Ramdaspur Mohalla"},"geometry":{"type":"Polygon","coordinates":[[[75.67132,31.42981],[75.68151,31.4296],[75.68191,31.4297],[75.67573,31.42574],[75.67015,31.42488],[75.67045,31.4282],[75.67103,31.42908],[75.67131,31.42925],[75.67132,31.42981]]]}},{"type":"Feature","bbox":[75.65521,31.42391,75.67127,31.43242],"properties":{"ward":6},"geometry":{"type":"MultiPolygon","coordinates":[[[[75.65942,31.43209],[75.65945,31.43208],[75.65931,31.43214],[75.65942,31.43209]]],[[[75.65945,31.43208],[75.66277,31.43081],[75.66578,31.4301],[75.6675,31.42982],[75.67126,31.42982],[75.67127,31.42922],[75.671,31.42911],[75.67045,31.42828],[75.67013,31.42487],[75.66704,31.42441],[75.66381,31.42446],[75.66136,31.42391],[75.65803,31.42591],[75.6568,31.42612],[75.6572,31.42742],[75.65793,31.42894],[75.65794,31.42934],[75.65632,31.42929],[75.65529,31.42943],[75.65521,31.42956],[75.65543,31.42958],[75.65545,31.42993],[75.65726,31.42976],[75.65741,31.4298],[75.65743,31.43003],[75.65793,31.43004],[75.65788,31.43124],[75.65816,31.43137],[75.65806,31.43242],[75.65945,31.43208]]]]}},{"type":"Feature","bbox":[75.65649,31.4298,75.65787,31.43159],"properties":{"ward":7},"geometry":{"type":"Polygon","coordinates":[[[75.65748,31.43127],[75.65741,31.43156],[75.65773,31.43159],[75.65787,31.43114],[75.65786,31.43005],[75.65738,31.43005],[75.65737,31.4298],[75.65653,31.4298],[75.65649,31.43114],[75.65748,31.43127]]]}},{"type":"Feature","bbox":[75.65436,31.42979,75.65743,31.43232],"properties":{"ward":8},"geometry":{"type":"MultiPolygon","coordinates":[[[[75.65597,31.43168],[75.65597,31.43168],[75.65597,31.43168],[75.65597,31.43168]]],[[[75.65596,31.43167],[75.65627,31.43174],[75.65632,31.4318],[75.65639,31.43222],[75.65735,31.43232],[75.65743,31.4313],[75.65645,31.43117],[75.65651,31.42979],[75.65451,31.42998],[75.65436,31.43032],[75.65501,31.43042],[75.65512,31.43087],[75.65537,31.43112],[75.65532,31.43156],[75.65596,31.43167]]]]}},{"type":"Feature","bbox":[75.65352,31.42946,75.65543,31.43156],"properties":{"ward":9},"geometry":{"type":"MultiPolygon","coordinates":[[[[75.65427,31.43034],[75.65386,31.43076],[75.65394,31.43141],[75.6553,31.43156],[75.65535,31.43113],[75.6551,31.43089],[75.655,31.43042],[75.65434,31.43033],[75.65457,31.42995],[75.65543,31.42992],[75.65542,31.4296],[75.65519,31.42946],[75.65352,31.42958],[75.65359,31.42978],[75.65411,31.42976],[75.654,31.43021],[75.65427,31.43034]],[[75.65396,31.43068],[75.65396,31.43068],[75.65396,31.43068],[75.65396,31.43068]]],[[[75.654,31.43021],[75.654,31.43021],[75.654,31.43023],[75.654,31.43021]]]]}},{"type":"Feature","bbox":[75.64725,31.41914,75.66119,31.42957],"properties":{"ward":10},"geometry":{"type":"MultiPolygon","coordinates":[[[[75.65541,31.42939],[75.6554,31.4294],[75.65542,31.42939],[75.65541,31.42939]]],[[[75.65348,31.42957],[75.6554,31.42939],[75.65542,31.42939],[75.6555,31.4294],[75.65634,31.42925],[75.65675,31.42923],[75.65785,31.42931],[75.65785,31.42885],[75.65668,31.42612],[75.65806,31.42575],[75.66002,31.42449],[75.66119,31.42393],[75.65474,31.42247],[75.64944,31.41914],[75.64725,31.41999],[75.65091,31.42583],[75.6515,31.42725],[75.65232,31.42714],[75.65243,31.42779],[75.65309,31.42866],[75.65352,31.4286],[75.65348,31.42957]]]]}},{"type":"Feature","bbox":[75.63619,31.42001,75.65426,31.44087],"properties":{"ward":11},"geometry":{"type":"Polygon","coordinates":[[[75.65426,31.43034],[75.65398,31.43022],[75.6541,31.42977],[75.65357,31.42976],[75.65343,31.42942],[75.65351,31.42859],[75.65308,31.42866],[75.65243,31.4278],[75.65231,31.42714],[75.65149,31.42726],[75.65081,31.42567],[75.64716,31.42001],[75.63882,31.42839],[75.63813,31.42842],[75.63717,31.42889],[75.6363,31.42895],[75.63619,31.43011],[75.64402,31.44087],[75.64555,31.43962],[75.64943,31.43689],[75.65174,31.4348],[75.65203,31.43335],[75.65206,31.4316],[75.65356,31.43142],[75.65357,31.43053],[75.65426,31.43034]]]}}]}