{"type":"FeatureCollection","features":[{"type":"Feature","bbox":[76.29739,31.35563,76.32108,31.37166],"properties":{"ward":1,"name":"Null"},"geometry":{"type":"Polygon","coordinates":[[[76.31356,31.37166],[76.3181,31.37145],[76.32021,31.37048],[76.32014,31.36945],[76.31916,31.36816],[76.31907,31.36772],[76.31923,31.36713],[76.31996,31.36633],[76.31935,31.36561],[76.31945,31.36472],[76.32108,31.3649],[76.32059,31.3616],[76.32031,31.35792],[76.3193,31.35796],[76.31927,31.35783],[76.31777,31.35728],[76.31773,31.35741],[76.31676,31.35739],[76.31563,31.35712],[76.3159,31.35666],[76.31455,31.35584],[76.3137,31.35608],[76.31245,31.35706],[76.31168,31.35719],[76.30121,31.35563],[76.30074,31.35571],[76.30035,31.35608],[76.3002,31.35646],[76.30025,31.35841],[76.29978,31.36003],[76.29945,31.3603],[76.2988,31.36047],[76.29753,31.36158],[76.29739,31.36221],[76.30001,31.36462],[76.30119,31.36628],[76.30227,31.36723],[76.30335,31.36787],[76.30734,31.3697],[76.3101,31.37078],[76.31223,31.37136],[76.31344,31.37138],[76.31356,31.37166]]]}},{"type":"Feature","bbox":[76.31563,31.35507,76.32733,31.36593],"properties":{"ward":2,"name":"Null"},"geometry":{"type":"Polygon","coordinates":[[[76.32183,31.36593],[76.32486,31.36586],[76.32525,31.36539],[76.32568,31.36467],[76.32643,31.36114],[76.32733,31.35877],[76.32441,31.35664],[76.32233,31.35611],[76.31923,31.35575],[76.31805,31.35515],[76.31723,31.35507],[76.31563,31.35712],[76.31676,31.35739],[76.31773,31.35741],[76.31777,31.35728],[76.31927,31.35783],[76.3193,31.35796],[76.32031,31.35792],[76.32059,31.3616],[76.32108,31.36537],[76.32179,31.36554],[76.32183,31.36593]]]}},{"type":"Feature","bbox":[76.31857,31.34511,76.33146,31.35877],"properties":{"ward":3,"name":"Null"},"geometry":{"type":"Polygon","coordinates":[[[76.32733,31.35877],[76.32805,31.35567],[76.32871,31.35385],[76.32871,31.35302],[76.33103,31.35295],[76.331,31.35244],[76.33146,31.35244],[76.32967,31.34869],[76.32911,31.34782],[76.32939,31.34703],[76.32523,31.34589],[76.32021,31.34511],[76.31857,31.34778],[76.32065,31.3483],[76.32052,31.35052],[76.32014,31.35204],[76.3196,31.35579],[76.32323,31.35627],[76.32441,31.35664],[76.32733,31.35877]]]}},{"type":"Feature","bbox":[76.30074,31.35259,76.31984,31.35719],"properties":{"ward":4,"name":"Null"},"geometry":{"type":"Polygon","coordinates":[[[76.31453,31.35584],[76.3159,31.35665],[76.3173,31.35504],[76.31774,31.35505],[76.31893,31.35565],[76.3196,31.35579],[76.31984,31.35415],[76.317,31.35436],[76.31675,31.35407],[76.31499,31.35416],[76.31239,31.35402],[76.31026,31.35321],[76.30404,31.35259],[76.30364,31.35372],[76.30191,31.35472],[76.30074,31.35571],[76.30121,31.35563],[76.31168,31.35719],[76.31245,31.35706],[76.3137,31.35608],[76.31453,31.35584]]]}},{"type":"Feature","bbox":[76.31675,31.35177,76.32014,31.35435],"properties":{"ward":5,"name":"Null"},"geometry":{"type":"Polygon","coordinates":[[[76.31694,31.35435],[76.31984,31.35415],[76.32014,31.35205],[76.31883,31.35177],[76.31814,31.3527],[76.31737,31.3529],[76.31697,31.35404],[76.31675,31.35408],[76.31694,31.35435]]]}},{"type":"Feature","bbox":[76.31667,31.35156,76.31883,31.35408],"properties":{"ward":6,"name":"Null"},"geometry":{"type":"Polygon","coordinates":[[[76.31737,31.3529],[76.31814,31.3527],[76.31883,31.35177],[76.31776,31.35176],[76.31704,31.35156],[76.31705,31.35245],[76.31667,31.35318],[76.31675,31.35408],[76.31697,31.35404],[76.31737,31.3529]]]}},{"type":"Feature","bbox":[76.31704,31.34785,76.32065,31.35204],"properties":{"ward":7,"name":"Null"},"geometry":{"type":"Polygon","coordinates":[[[76.32014,31.35204],[76.32052,31.35052],[76.32065,31.3483],[76.31859,31.34785],[76.31792,31.34911],[76.3178,31.34995],[76.31704,31.35156],[76.32014,31.35204]]]}},{"type":"Feature","bbox":[76.30349,31.3456,76.3171,31.35416],"properties":{"ward":8,"name":"Null"},"geometry":{"type":"Polygon","coordinates":[[[76.31538,31.35011],[76.31266,31.34922],[76.30878,31.34845],[76.30765,31.34792],[76.30722,31.34734],[76.30665,31.3456],[76.30599,31.34594],[76.30522,31.34662],[76.30414,31.34809],[76.30349,31.35063],[76.30405,31.35147],[76.30404,31.35259],[76.31026,31.35321],[76.31239,31.35402],[76.31499,31.35416],[76.31676,31.35407],[76.31667,31.35318],[76.31705,31.35245],[76.3171,31.35132],[76.31666,31.35096],[76.31588,31.35087],[76.31538,31.35011]]]}},{"type":"Feature","bbox":[76.30664,31.3434,76.32021,31.35132],"properties":{"ward":9,"name":"Null"},"geometry":{"type":"Polygon","coordinates":[[[76.30664,31.34558],[76.30722,31.34734],[76.30765,31.34792],[76.30907,31.34853],[76.314,31.3496],[76.31538,31.35011],[76.31588,31.35087],[76.31666,31.35096],[76.31711,31.35132],[76.31772,31.35016],[76.31782,31.34935],[76.31858,31.34769],[76.32021,31.34511],[76.31543,31.34398],[76.3099,31.3434],[76.30844,31.3435],[76.30664,31.34558]]]}}]}