{"type":"FeatureCollection","features":[{"type":"Feature","bbox":[76.50045,31.69016,76.52296,31.70588],"properties":{"ward":1,"name":"Ward 1(Hira Nagar)"},"geometry":{"type":"Polygon","coordinates":[[[76.5203,31.70584],[76.52195,31.70517],[76.52234,31.70538],[76.52287,31.70524],[76.52296,31.70483],[76.52273,31.70368],[76.5228,31.70231],[76.52203,31.70135],[76.52203,31.70098],[76.51898,31.69888],[76.51725,31.69825],[76.51642,31.6976],[76.51623,31.69662],[76.51624,31.69562],[76.51666,31.69417],[76.51666,31.6934],[76.51595,31.69217],[76.51525,31.69141],[76.51439,31.69099],[76.51015,31.69109],[76.50844,31.69016],[76.50702,31.6913],[76.50662,31.69185],[76.50585,31.69201],[76.50455,31.69279],[76.50411,31.69252],[76.50336,31.69264],[76.50266,31.69251],[76.5024,31.69264],[76.50251,31.69296],[76.50178,31.69366],[76.50096,31.69603],[76.50045,31.69691],[76.50091,31.69763],[76.50187,31.69796],[76.50323,31.69786],[76.50394,31.69761],[76.5044,31.69798],[76.50523,31.69833],[76.50625,31.69782],[76.50687,31.69784],[76.50717,31.6975],[76.50846,31.69685],[76.50899,31.6963],[76.50985,31.69602],[76.51089,31.69616],[76.51149,31.69598],[76.51198,31.69629],[76.51278,31.69649],[76.51364,31.69689],[76.51374,31.69714],[76.51501,31.69744],[76.51474,31.69794],[76.51475,31.69823],[76.51502,31.6984],[76.51542,31.69821],[76.51552,31.69842],[76.51522,31.69891],[76.51523,31.69938],[76.51612,31.69956],[76.51679,31.69928],[76.51709,31.69958],[76.51744,31.69954],[76.51764,31.69972],[76.51711,31.70121],[76.51625,31.7018],[76.51619,31.70245],[76.51536,31.70306],[76.51487,31.70393],[76.51586,31.70375],[76.5176,31.70523],[76.51874,31.70544],[76.51959,31.70588],[76.5203,31.70584]]]}},{"type":"Feature","bbox":[76.51623,31.68697,76.52442,31.70098],"properties":{"ward":2,"name":"Ward 2 (Krishna Nagar)"},"geometry":{"type":"Polygon","coordinates":[[[76.5225,31.70049],[76.52275,31.70049],[76.52286,31.70028],[76.52265,31.69946],[76.52215,31.69904],[76.52163,31.6983],[76.52068,31.69789],[76.52034,31.69753],[76.52012,31.69707],[76.52018,31.69581],[76.51978,31.69525],[76.51988,31.695],[76.52036,31.69469],[76.52061,31.69404],[76.52118,31.69371],[76.52133,31.69342],[76.52143,31.69261],[76.52193,31.69157],[76.52217,31.68974],[76.5224,31.68917],[76.52291,31.68868],[76.52397,31.68826],[76.52442,31.68789],[76.5244,31.68769],[76.52308,31.68705],[76.52223,31.68697],[76.52069,31.68799],[76.52039,31.68874],[76.51935,31.69032],[76.5183,31.69143],[76.51736,31.69301],[76.51666,31.69346],[76.51666,31.69417],[76.51624,31.69562],[76.51623,31.69662],[76.51642,31.6976],[76.51704,31.69814],[76.51898,31.69888],[76.52203,31.70098],[76.5225,31.70049]]]}},{"type":"Feature","bbox":[76.52133,31.68328,76.52878,31.69426],"properties":{"ward":3,"name":"Ward 3 (Partap Nagar)"},"geometry":{"type":"Polygon","coordinates":[[[76.52334,31.69426],[76.52479,31.69357],[76.52661,31.69349],[76.52767,31.69251],[76.52837,31.69226],[76.52878,31.69176],[76.52873,31.69121],[76.5282,31.69078],[76.52822,31.69018],[76.52799,31.68974],[76.52655,31.68955],[76.52607,31.68994],[76.52563,31.68997],[76.52514,31.68966],[76.52512,31.68938],[76.52537,31.68868],[76.52593,31.68829],[76.52675,31.68708],[76.52797,31.68652],[76.52833,31.68595],[76.52839,31.68406],[76.5287,31.68328],[76.52787,31.68361],[76.52697,31.68421],[76.52587,31.68556],[76.52577,31.68591],[76.52466,31.6869],[76.52434,31.68804],[76.52291,31.68868],[76.52227,31.6894],[76.522,31.69127],[76.52143,31.69261],[76.52133,31.69354],[76.52157,31.69346],[76.52226,31.69419],[76.52334,31.69426]]]}},{"type":"Feature","bbox":[76.52215,31.68325,76.52687,31.68769],"properties":{"ward":4,"name":"Ward 4 (Shiv Nagar)"},"geometry":{"type":"Polygon","coordinates":[[[76.52215,31.68698],[76.52308,31.68705],[76.5244,31.68769],[76.52466,31.6869],[76.52577,31.68591],[76.52587,31.68556],[76.52687,31.68432],[76.52503,31.68335],[76.52458,31.68325],[76.52381,31.68476],[76.52215,31.68698]]]}},{"type":"Feature","bbox":[76.52384,31.67878,76.52952,31.68432],"properties":{"ward":5,"name":"Ward 5 (Brij Nagar)"},"geometry":{"type":"Polygon","coordinates":[[[76.52863,31.68326],[76.52872,31.68292],[76.52836,31.68252],[76.52824,31.68152],[76.52842,31.68104],[76.52952,31.67974],[76.52946,31.67936],[76.52911,31.67894],[76.52862,31.67878],[76.52587,31.68006],[76.52499,31.6809],[76.52384,31.68273],[76.52414,31.68265],[76.52458,31.68325],[76.52503,31.68335],[76.52687,31.68432],[76.52765,31.68373],[76.52863,31.68326]]]}},{"type":"Feature","bbox":[76.52193,31.68265,76.52462,31.68637],"properties":{"ward":6,"name":"Ward 6 (Gandhi Nagar)"},"geometry":{"type":"Polygon","coordinates":[[[76.52414,31.68265],[76.52379,31.68276],[76.52298,31.68343],[76.52242,31.68526],[76.52193,31.6858],[76.52262,31.68637],[76.52381,31.68476],[76.52462,31.68321],[76.52414,31.68265]]]}},{"type":"Feature","bbox":[76.5064,31.6859,76.52029,31.69346],"properties":{"ward":7,"name":"Ward 7 (Dev Nagar)"},"geometry":{"type":"Polygon","coordinates":[[[76.51868,31.69102],[76.51935,31.69032],[76.52029,31.68887],[76.51893,31.68889],[76.5182,31.68916],[76.51707,31.68906],[76.51509,31.68784],[76.51319,31.68728],[76.51247,31.68649],[76.51155,31.68618],[76.51125,31.6859],[76.51038,31.686],[76.50952,31.68645],[76.50888,31.68649],[76.50823,31.68682],[76.50744,31.68696],[76.50713,31.68738],[76.50732,31.68815],[76.50672,31.68837],[76.50644,31.68895],[76.5064,31.68983],[76.50658,31.6903],[76.5082,31.68974],[76.5085,31.68987],[76.50844,31.69016],[76.50986,31.69104],[76.5109,31.69116],[76.51372,31.69098],[76.51463,31.69106],[76.51549,31.69158],[76.51647,31.69294],[76.51666,31.69346],[76.51736,31.69301],[76.51868,31.69102]]]}},{"type":"Feature","bbox":[76.51124,31.67916,76.52423,31.68916],"properties":{"ward":8,"name":"Ward 8 (Naya Nagar)"},"geometry":{"type":"Polygon","coordinates":[[[76.5182,31.68916],[76.51893,31.68889],[76.52029,31.68887],[76.52069,31.68799],[76.52215,31.68698],[76.52255,31.68652],[76.52265,31.68638],[76.52214,31.68611],[76.52193,31.6858],[76.52242,31.68526],[76.52294,31.68349],[76.52384,31.68273],[76.52423,31.68212],[76.52031,31.6812],[76.51946,31.68062],[76.51895,31.67998],[76.51887,31.67958],[76.51733,31.67916],[76.51674,31.67939],[76.51638,31.68057],[76.51664,31.68129],[76.51633,31.68169],[76.51512,31.68228],[76.51453,31.68301],[76.51373,31.68345],[76.51293,31.68456],[76.51297,31.68502],[76.51234,31.68507],[76.51124,31.68589],[76.51155,31.68618],[76.51247,31.68649],[76.51319,31.68728],[76.5135,31.68743],[76.51509,31.68784],[76.51707,31.68906],[76.5182,31.68916]]]}},{"type":"Feature","bbox":[76.52132,31.67359,76.5307,31.68212],"properties":{"ward":9,"name":"Ward 9 (Roop Nagar)"},"geometry":{"type":"Polygon","coordinates":[[[76.52423,31.68212],[76.52499,31.6809],[76.52598,31.67999],[76.52667,31.67977],[76.52847,31.6788],[76.52911,31.67894],[76.52912,31.67862],[76.53007,31.67727],[76.5307,31.67675],[76.52926,31.67599],[76.52864,31.67533],[76.52813,31.67359],[76.52578,31.67449],[76.5254,31.67487],[76.52522,31.67525],[76.52553,31.67564],[76.5255,31.67607],[76.52459,31.67649],[76.52401,31.678],[76.52228,31.67969],[76.52132,31.68144],[76.52423,31.68212]]]}},{"type":"Feature","bbox":[76.51733,31.67162,76.52813,31.68144],"properties":{"ward":10,"name":"Ward 10 (Ram Nagar)"},"geometry":{"type":"Polygon","coordinates":[[[76.52243,31.67952],[76.52388,31.67819],[76.52459,31.67649],[76.5255,31.67607],[76.52553,31.67564],[76.52522,31.67525],[76.52556,31.6747],[76.52604,31.67437],[76.52813,31.67359],[76.52776,31.67298],[76.52553,31.67162],[76.52515,31.67268],[76.52522,31.6732],[76.52503,31.67418],[76.52481,31.67452],[76.52293,31.67566],[76.52073,31.67644],[76.52025,31.67675],[76.51964,31.67761],[76.51876,31.67848],[76.51733,31.67916],[76.51887,31.67958],[76.51909,31.6802],[76.51991,31.68101],[76.52132,31.68144],[76.52182,31.68034],[76.52243,31.67952]]]}},{"type":"Feature","bbox":[76.52553,31.66583,76.54392,31.68341],"properties":{"ward":11,"name":"Ward 11 (Subash Nagar)"},"geometry":{"type":"Polygon","coordinates":[[[76.531,31.67653],[76.5314,31.6765],[76.53186,31.67687],[76.53284,31.67694],[76.5331,31.67715],[76.53344,31.67768],[76.53343,31.67815],[76.53365,31.6786],[76.534,31.67889],[76.53462,31.67898],[76.53529,31.67934],[76.53561,31.67985],[76.53591,31.68099],[76.53608,31.68112],[76.5365,31.68113],[76.53683,31.68135],[76.53782,31.68137],[76.53809,31.68127],[76.53855,31.68063],[76.53895,31.6811],[76.54,31.68158],[76.54046,31.68279],[76.54089,31.68341],[76.5412,31.68334],[76.54144,31.68302],[76.54139,31.68246],[76.54105,31.68203],[76.54125,31.68127],[76.54233,31.68082],[76.54269,31.68044],[76.54317,31.68039],[76.54375,31.68069],[76.54392,31.68062],[76.54388,31.68043],[76.54281,31.67951],[76.54148,31.67784],[76.54153,31.67685],[76.54018,31.67625],[76.53957,31.6757],[76.53882,31.6757],[76.53873,31.67477],[76.53783,31.67443],[76.53782,31.67379],[76.53808,31.67372],[76.5382,31.67319],[76.53811,31.67261],[76.53776,31.67223],[76.53665,31.67181],[76.53637,31.67142],[76.53615,31.66787],[76.53666,31.66663],[76.5364,31.66614],[76.5355,31.66583],[76.53259,31.66719],[76.53071,31.6676],[76.52881,31.66763],[76.52812,31.669],[76.52749,31.6693],[76.52629,31.67044],[76.52553,31.67162],[76.52788,31.67308],[76.52829,31.67397],[76.52864,31.67533],[76.52926,31.67599],[76.5307,31.67675],[76.531,31.67653]]]}}]}