{"type":"FeatureCollection","features":[{"type":"Feature","bbox":[76.28246,31.06939,76.29467,31.08016],"properties":{"ward":1,"name":"Siana"},"geometry":{"type":"Polygon","coordinates":[[[76.2944,31.06939],[76.28246,31.07985],[76.2826,31.08016],[76.28611,31.08012],[76.28609,31.07917],[76.28751,31.07913],[76.28748,31.07794],[76.29304,31.07785],[76.29301,31.07432],[76.29467,31.07425],[76.29463,31.06959],[76.2944,31.06939]]]}},{"type":"Feature","bbox":[76.29306,31.06616,76.30544,31.07783],"properties":{"ward":2,"name":"Near Water Tank"},"geometry":{"type":"Polygon","coordinates":[[[76.29815,31.06616],[76.29443,31.06937],[76.29466,31.06958],[76.2947,31.0743],[76.29306,31.07434],[76.29311,31.07783],[76.29372,31.07781],[76.29376,31.07689],[76.29554,31.077],[76.29568,31.07693],[76.29568,31.07626],[76.29588,31.0761],[76.29653,31.07599],[76.29695,31.07566],[76.29731,31.07563],[76.29731,31.07269],[76.29918,31.07275],[76.29887,31.07203],[76.298,31.0715],[76.29794,31.07105],[76.30412,31.07128],[76.30516,31.07428],[76.30544,31.06968],[76.30381,31.06963],[76.30128,31.06791],[76.30133,31.06631],[76.29815,31.06616]]]}},{"type":"Feature","bbox":[76.30538,31.06942,76.32206,31.0808],"properties":{"ward":3,"name":"Chaudhary Palace"},"geometry":{"type":"Polygon","coordinates":[[[76.30559,31.06942],[76.30538,31.07438],[76.31103,31.07471],[76.31071,31.07899],[76.31867,31.07888],[76.32206,31.0808],[76.31169,31.0697],[76.30559,31.06942]]]}},{"type":"Feature","bbox":[76.30898,31.06605,76.32353,31.08226],"properties":{"ward":4,"name":"Ravidass Nagar"},"geometry":{"type":"Polygon","coordinates":[[[76.30898,31.06605],[76.3132,31.07081],[76.32,31.07774],[76.32292,31.08115],[76.32353,31.08226],[76.32003,31.07093],[76.31945,31.07095],[76.31946,31.0707],[76.31806,31.07067],[76.31829,31.06636],[76.30898,31.06605]]]}},{"type":"Feature","bbox":[76.30413,31.06405,76.31178,31.06949],"properties":{"ward":5,"name":"Ram Mandir"},"geometry":{"type":"Polygon","coordinates":[[[76.3056,31.06764],[76.3055,31.0693],[76.31178,31.06949],[76.30767,31.06458],[76.30653,31.06405],[76.30631,31.0654],[76.30495,31.06532],[76.30485,31.06699],[76.30416,31.06696],[76.30413,31.06758],[76.3056,31.06764]]]}},{"type":"Feature","bbox":[76.29818,31.06241,76.3065,31.06967],"properties":{"ward":6,"name":"Bav School"},"geometry":{"type":"Polygon","coordinates":[[[76.3065,31.06402],[76.30248,31.06241],[76.29818,31.06614],[76.30135,31.06629],[76.3013,31.06789],[76.30382,31.06962],[76.30544,31.06967],[76.30558,31.06766],[76.3041,31.06761],[76.30414,31.06694],[76.30483,31.06697],[76.30492,31.06529],[76.30629,31.06537],[76.3065,31.06402]]]}},{"type":"Feature","bbox":[76.30836,31.05896,76.31892,31.06632],"properties":{"ward":7,"name":"New Post Office"},"geometry":{"type":"Polygon","coordinates":[[[76.30946,31.05896],[76.30946,31.06413],[76.30886,31.06411],[76.30876,31.06483],[76.30836,31.0653],[76.30898,31.066],[76.3183,31.06632],[76.31892,31.05933],[76.30946,31.05896]]]}},{"type":"Feature","bbox":[76.30186,31.05805,76.30954,31.06527],"properties":{"ward":8,"name":"Gahoon Road"},"geometry":{"type":"Polygon","coordinates":[[[76.30689,31.05805],[76.3058,31.0591],[76.30537,31.05875],[76.30515,31.05892],[76.30456,31.05883],[76.30373,31.05896],[76.30363,31.05882],[76.30315,31.05915],[76.30238,31.05925],[76.30238,31.05986],[76.30261,31.06032],[76.30231,31.06135],[76.30186,31.06137],[76.30187,31.06154],[76.30222,31.0616],[76.30242,31.06191],[76.30224,31.06216],[76.30231,31.06234],[76.30749,31.06433],[76.30835,31.06527],[76.30874,31.06482],[76.30884,31.06409],[76.30943,31.06411],[76.30935,31.06254],[76.30954,31.05814],[76.30689,31.05805]]]}},{"type":"Feature","bbox":[76.30222,31.05583,76.30633,31.05907],"properties":{"ward":9,"name":"Maharana Partap Chowk"},"geometry":{"type":"Polygon","coordinates":[[[76.30579,31.05907],[76.30633,31.05847],[76.30259,31.05583],[76.30222,31.05671],[76.3031,31.05709],[76.30292,31.05816],[76.30374,31.05894],[76.30456,31.05882],[76.30513,31.0589],[76.30537,31.05868],[76.30579,31.05907]]]}},{"type":"Feature","bbox":[76.3026,31.05268,76.31112,31.05898],"properties":{"ward":10,"name":"Girl School"},"geometry":{"type":"Polygon","coordinates":[[[76.31069,31.05356],[76.30915,31.05541],[76.3076,31.05386],[76.30671,31.0534],[76.30564,31.05324],[76.30454,31.05272],[76.30277,31.05268],[76.3026,31.05578],[76.3064,31.05839],[76.30681,31.05801],[76.30956,31.05813],[76.30949,31.05893],[76.31087,31.05898],[76.31112,31.05356],[76.31069,31.05356]]]}},{"type":"Feature","bbox":[76.29277,31.04977,76.30287,31.05949],"properties":{"ward":11,"name":"Saini Mohalla"},"geometry":{"type":"Polygon","coordinates":[[[76.30256,31.05583],[76.30287,31.04993],[76.29764,31.04977],[76.29719,31.0514],[76.29399,31.05128],[76.29277,31.05229],[76.29503,31.05424],[76.29776,31.05706],[76.29822,31.05761],[76.29903,31.05949],[76.29951,31.05782],[76.30204,31.05706],[76.30256,31.05583]]]}},{"type":"Feature","bbox":[76.29905,31.05674,76.30361,31.06259],"properties":{"ward":12,"name":"Ravidass Gurdwara"},"geometry":{"type":"Polygon","coordinates":[[[76.30235,31.05986],[76.30236,31.05923],[76.30316,31.05912],[76.30361,31.0588],[76.30289,31.05817],[76.30307,31.0571],[76.30222,31.05674],[76.30206,31.05708],[76.30006,31.05763],[76.29956,31.05786],[76.29938,31.05815],[76.29905,31.0595],[76.30091,31.06259],[76.30228,31.06242],[76.30222,31.06216],[76.30239,31.0619],[76.3022,31.06162],[76.30184,31.06155],[76.30184,31.06136],[76.30229,31.06134],[76.30259,31.06032],[76.30235,31.05986]]]}},{"type":"Feature","bbox":[76.28772,31.05236,76.29938,31.0624],"properties":{"ward":13,"name":"Mc Office"},"geometry":{"type":"Polygon","coordinates":[[[76.29266,31.05236],[76.28772,31.05658],[76.29078,31.06005],[76.29327,31.0624],[76.29592,31.06179],[76.29637,31.06239],[76.29938,31.06049],[76.29859,31.05857],[76.29785,31.05737],[76.29497,31.05432],[76.29266,31.05236]]]}},{"type":"Feature","bbox":[76.29381,31.06054,76.30209,31.06644],"properties":{"ward":14,"name":"Singh Sabha Gurdwara"},"geometry":{"type":"Polygon","coordinates":[[[76.29772,31.06644],[76.30209,31.06258],[76.30086,31.06276],[76.2994,31.06054],[76.29639,31.06243],[76.2959,31.06181],[76.29381,31.06231],[76.29406,31.06271],[76.2949,31.06324],[76.29511,31.06311],[76.29772,31.06644]]]}},{"type":"Feature","bbox":[76.27768,31.06106,76.29735,31.07951],"properties":{"ward":15,"name":"Singh Sabha Gurdwara"},"geometry":{"type":"Polygon","coordinates":[[[76.28222,31.07951],[76.29735,31.0663],[76.29562,31.06396],[76.29373,31.06257],[76.29303,31.06255],[76.29156,31.06124],[76.28842,31.06106],[76.28811,31.06516],[76.28185,31.06513],[76.28248,31.06553],[76.2824,31.06605],[76.28049,31.06618],[76.28045,31.06774],[76.27919,31.06788],[76.27915,31.07007],[76.28339,31.0702],[76.28329,31.07451],[76.28137,31.07457],[76.27768,31.07332],[76.27769,31.07362],[76.28222,31.07951]]]}}]}