{"type":"FeatureCollection","features":[{"type":"Feature","bbox":[74.85889,31.28926,74.86267,31.29679],"properties":{"ward":1},"geometry":{"type":"Polygon","coordinates":[[[74.85889,31.29332],[74.85911,31.29679],[74.86075,31.29675],[74.86267,31.29035],[74.85891,31.28926],[74.85889,31.29332]]]}},{"type":"Feature","bbox":[74.85545,31.28697,74.85885,31.29662],"properties":{"ward":2},"geometry":{"type":"Polygon","coordinates":[[[74.85885,31.29662],[74.85865,31.28928],[74.85806,31.28697],[74.85545,31.28788],[74.85885,31.29662]]]}},{"type":"Feature","bbox":[74.85403,31.28151,74.85794,31.28777],"properties":{"ward":3},"geometry":{"type":"Polygon","coordinates":[[[74.85403,31.28463],[74.8554,31.28777],[74.85794,31.28682],[74.85716,31.28151],[74.85403,31.28463]]]}},{"type":"Feature","bbox":[74.85722,31.28085,74.86045,31.28675],"properties":{"ward":4},"geometry":{"type":"Polygon","coordinates":[[[74.85722,31.28165],[74.85822,31.28675],[74.8592,31.2865],[74.86045,31.28421],[74.85906,31.28209],[74.85863,31.28085],[74.85722,31.28165]]]}},{"type":"Feature","bbox":[74.85844,31.27764,74.86495,31.29005],"properties":{"ward":5},"geometry":{"type":"Polygon","coordinates":[[[74.8589,31.2891],[74.86246,31.29005],[74.86495,31.27934],[74.86413,31.27764],[74.86178,31.27889],[74.8624,31.27956],[74.86155,31.28005],[74.86195,31.2809],[74.86143,31.28361],[74.86074,31.28435],[74.85946,31.28668],[74.85844,31.28697],[74.8589,31.2891]]]}},{"type":"Feature","bbox":[74.85937,31.28076,74.86171,31.28414],"properties":{"ward":6},"geometry":{"type":"Polygon","coordinates":[[[74.85937,31.282],[74.86069,31.28414],[74.86171,31.28076],[74.85937,31.282]]]}},{"type":"Feature","bbox":[74.85748,31.27903,74.86218,31.28195],"properties":{"ward":7},"geometry":{"type":"Polygon","coordinates":[[[74.86176,31.27903],[74.86034,31.27964],[74.85997,31.27905],[74.85949,31.27941],[74.85977,31.28002],[74.85895,31.28053],[74.85829,31.27982],[74.85748,31.28026],[74.85764,31.28103],[74.85875,31.28063],[74.85889,31.28131],[74.85923,31.28195],[74.86167,31.2806],[74.86123,31.27997],[74.86218,31.27952],[74.86176,31.27903]]]}},{"type":"Feature","bbox":[74.85721,31.27683,74.86344,31.28041],"properties":{"ward":8},"geometry":{"type":"Polygon","coordinates":[[[74.85741,31.2802],[74.85832,31.27973],[74.85894,31.28041],[74.85963,31.27994],[74.85937,31.2794],[74.86002,31.27897],[74.86034,31.27945],[74.86344,31.27774],[74.86214,31.27683],[74.85858,31.27713],[74.85721,31.27955],[74.85741,31.2802]]]}},{"type":"Feature","bbox":[74.85532,31.27363,74.86318,31.27806],"properties":{"ward":9},"geometry":{"type":"Polygon","coordinates":[[[74.85858,31.27701],[74.86318,31.27667],[74.85887,31.27363],[74.85682,31.27422],[74.85713,31.27496],[74.85695,31.27549],[74.85532,31.27579],[74.85613,31.27694],[74.85716,31.27738],[74.85791,31.27806],[74.85858,31.27701]]]}},{"type":"Feature","bbox":[74.85542,31.27715,74.85786,31.28149],"properties":{"ward":10},"geometry":{"type":"Polygon","coordinates":[[[74.85685,31.28069],[74.85721,31.28149],[74.85763,31.28114],[74.8571,31.27966],[74.85786,31.2781],[74.85716,31.27743],[74.85649,31.27715],[74.85624,31.27775],[74.85542,31.27833],[74.8566,31.28058],[74.85685,31.28069]]]}},{"type":"Feature","bbox":[74.85278,31.27585,74.85644,31.27885],"properties":{"ward":11},"geometry":{"type":"Polygon","coordinates":[[[74.85358,31.27885],[74.85525,31.27849],[74.85617,31.2777],[74.85644,31.27713],[74.85607,31.27704],[74.85528,31.27585],[74.85435,31.27653],[74.8536,31.27613],[74.85278,31.27645],[74.85358,31.27885]]]}},{"type":"Feature","bbox":[74.85178,31.27147,74.85887,31.27635],"properties":{"ward":12},"geometry":{"type":"Polygon","coordinates":[[[74.85363,31.27601],[74.85433,31.27634],[74.85527,31.27562],[74.85686,31.27538],[74.85706,31.27496],[74.85671,31.27415],[74.85887,31.2735],[74.85602,31.27147],[74.85419,31.27204],[74.85263,31.27223],[74.85257,31.27308],[74.85178,31.27309],[74.85304,31.27515],[74.85233,31.27526],[74.85281,31.27635],[74.85363,31.27601]]]}},{"type":"Feature","bbox":[74.84237,31.2678,74.85591,31.27549],"properties":{"ward":13},"geometry":{"type":"Polygon","coordinates":[[[74.85591,31.27136],[74.85112,31.2678],[74.84237,31.27115],[74.84851,31.27549],[74.84904,31.27477],[74.85265,31.27476],[74.85162,31.27299],[74.85245,31.27295],[74.85254,31.27213],[74.85591,31.27136]]]}},{"type":"Feature","bbox":[74.8486,31.27484,74.85349,31.2796],"properties":{"ward":14},"geometry":{"type":"Polygon","coordinates":[[[74.852,31.2796],[74.85349,31.27894],[74.85216,31.27513],[74.8528,31.27504],[74.85264,31.27484],[74.84917,31.27491],[74.8486,31.27559],[74.85086,31.27759],[74.852,31.2796]]]}},{"type":"Feature","bbox":[74.84054,31.27617,74.85364,31.28523],"properties":{"ward":15},"geometry":{"type":"Polygon","coordinates":[[[74.85181,31.27989],[74.84847,31.27617],[74.846,31.27655],[74.84054,31.2764],[74.84894,31.2812],[74.84957,31.28143],[74.84967,31.28307],[74.85148,31.28523],[74.85364,31.28438],[74.85181,31.27989]]]}},{"type":"Feature","bbox":[74.83515,31.27142,74.84824,31.28658],"properties":{"ward":16},"geometry":{"type":"Polygon","coordinates":[[[74.83965,31.27621],[74.84816,31.27575],[74.84197,31.27142],[74.83515,31.27394],[74.84077,31.28658],[74.84423,31.28455],[74.84655,31.28438],[74.8469,31.28296],[74.84824,31.28142],[74.83965,31.27621]]]}},{"type":"Feature","bbox":[74.84089,31.28162,74.85478,31.29313],"properties":{"ward":17},"geometry":{"type":"Polygon","coordinates":[[[74.84433,31.28481],[74.84089,31.28668],[74.84446,31.29313],[74.84691,31.29219],[74.84959,31.29218],[74.85062,31.29109],[74.85008,31.28928],[74.85362,31.28885],[74.85478,31.28738],[74.8537,31.28473],[74.85126,31.28535],[74.84948,31.28312],[74.84898,31.28162],[74.84753,31.28275],[74.84672,31.2846],[74.84433,31.28481]]]}},{"type":"Feature","bbox":[74.85203,31.27855,74.85702,31.28447],"properties":{"ward":18},"geometry":{"type":"Polygon","coordinates":[[[74.85393,31.28447],[74.85702,31.28143],[74.85679,31.2808],[74.85643,31.28067],[74.85542,31.27855],[74.85369,31.27895],[74.85203,31.27974],[74.85393,31.28447]]]}},{"type":"Feature","bbox":[74.84455,31.28768,74.85865,31.29806],"properties":{"ward":19},"geometry":{"type":"Polygon","coordinates":[[[74.84455,31.29338],[74.84797,31.29806],[74.85865,31.29672],[74.85492,31.28768],[74.85356,31.28906],[74.85036,31.28951],[74.85076,31.29118],[74.84959,31.29237],[74.84683,31.29239],[74.84455,31.29338]]]}}]}