{"type":"FeatureCollection","features":[{"type":"Feature","bbox":[74.25621,30.60978,74.2638,30.6144],"properties":{"ward":1},"geometry":{"type":"Polygon","coordinates":[[[74.25703,30.61352],[74.25854,30.61324],[74.25876,30.61437],[74.26168,30.6144],[74.2638,30.61281],[74.26244,30.61093],[74.26172,30.61081],[74.26138,30.61056],[74.26044,30.61106],[74.26104,30.61187],[74.26022,30.61243],[74.25983,30.61198],[74.2582,30.61212],[74.25753,30.61091],[74.25621,30.60978],[74.25703,30.61352]]]}},{"type":"Feature","bbox":[74.25087,30.60494,74.26097,30.61235],"properties":{"ward":2},"geometry":{"type":"Polygon","coordinates":[[[74.25337,30.60527],[74.25087,30.60494],[74.25749,30.61069],[74.25824,30.61204],[74.25988,30.6119],[74.26021,30.61235],[74.26097,30.61186],[74.2587,30.60866],[74.25732,30.60882],[74.25715,30.60794],[74.2557,30.60808],[74.25563,30.60766],[74.25438,30.60773],[74.25416,30.60602],[74.25539,30.60587],[74.25533,30.60517],[74.25337,30.60527]]]}},{"type":"Feature","bbox":[74.25421,30.60497,74.25943,30.60793],"properties":{"ward":3},"geometry":{"type":"Polygon","coordinates":[[[74.25574,30.60793],[74.25784,30.60764],[74.25766,30.60637],[74.25943,30.60614],[74.25937,30.6052],[74.25833,30.60531],[74.25836,30.60556],[74.25758,30.60564],[74.25748,30.60497],[74.25537,30.60517],[74.25544,30.60592],[74.25421,30.60607],[74.25446,30.60767],[74.25569,30.60761],[74.25574,30.60793]]]}},{"type":"Feature","bbox":[74.25724,30.60505,74.26418,30.61103],"properties":{"ward":4},"geometry":{"type":"Polygon","coordinates":[[[74.25773,30.60642],[74.25789,30.60766],[74.25724,30.60776],[74.25746,30.60875],[74.25874,30.60861],[74.26041,30.61103],[74.26143,30.61051],[74.26186,30.61081],[74.26255,30.61081],[74.26361,30.61008],[74.26395,30.60964],[74.26418,30.60894],[74.26209,30.60914],[74.26182,30.6068],[74.26307,30.60666],[74.26106,30.60529],[74.26012,30.60505],[74.26004,30.60653],[74.25943,30.60658],[74.25938,30.60623],[74.25773,30.60642]]]}},{"type":"Feature","bbox":[74.26251,30.60831,74.26751,30.61277],"properties":{"ward":5},"geometry":{"type":"Polygon","coordinates":[[[74.26751,30.60985],[74.26703,30.60831],[74.26426,30.60902],[74.2637,30.61009],[74.26251,30.61091],[74.26381,30.61277],[74.26751,30.60985]]]}},{"type":"Feature","bbox":[74.26185,30.60647,74.26704,30.60907],"properties":{"ward":6},"geometry":{"type":"MultiPolygon","coordinates":[[[[74.26212,30.60907],[74.26492,30.60879],[74.26704,30.60822],[74.2663,30.60681],[74.26451,30.60647],[74.26304,30.60655],[74.26317,30.60669],[74.26185,30.60684],[74.26212,30.60907]]],[[[74.26393,30.60892],[74.26387,30.60892],[74.26404,30.60891],[74.26393,30.60892]]]]}},{"type":"Feature","bbox":[74.25814,30.60198,74.26625,30.60675],"properties":{"ward":7},"geometry":{"type":"Polygon","coordinates":[[[74.26568,30.60601],[74.26154,30.60215],[74.26097,30.60236],[74.25912,30.60198],[74.25966,30.60344],[74.25814,30.60371],[74.25828,30.60482],[74.25981,30.6047],[74.26015,30.60496],[74.26124,30.60531],[74.26297,30.60649],[74.26455,30.60637],[74.26625,30.60675],[74.26568,30.60601]]]}},{"type":"Feature","bbox":[74.25325,30.59495,74.26145,30.6038],"properties":{"ward":8},"geometry":{"type":"Polygon","coordinates":[[[74.25767,30.59845],[74.25492,30.59626],[74.25325,30.59495],[74.25392,30.59594],[74.25625,30.60096],[74.25648,30.60225],[74.25573,30.60232],[74.25578,30.60282],[74.2558,30.60293],[74.25657,30.60287],[74.2567,30.6038],[74.25956,30.60347],[74.25904,30.60186],[74.2598,30.60188],[74.26098,30.60226],[74.26145,30.60208],[74.25767,30.59845]]]}},{"type":"Feature","bbox":[74.25377,30.60235,74.26008,30.60654],"properties":{"ward":9},"geometry":{"type":"Polygon","coordinates":[[[74.25377,30.60253],[74.25409,30.60525],[74.25752,30.60495],[74.2576,30.60563],[74.25832,30.60554],[74.25828,30.60528],[74.25939,30.60516],[74.25944,30.60654],[74.26001,30.6065],[74.26008,30.60504],[74.25967,30.60476],[74.25826,30.60484],[74.25809,30.6037],[74.25659,30.60385],[74.25646,30.6029],[74.25577,30.60296],[74.25567,30.60235],[74.25377,30.60253]]]}},{"type":"Feature","bbox":[74.25198,30.59615,74.25633,30.60234],"properties":{"ward":10},"geometry":{"type":"Polygon","coordinates":[[[74.25407,30.60023],[74.25457,30.60234],[74.25633,30.60214],[74.25607,30.60087],[74.25389,30.59615],[74.25266,30.59619],[74.25273,30.59727],[74.25198,30.59728],[74.25231,30.59892],[74.25324,30.59891],[74.25379,30.6003],[74.25407,30.60023]]]}},{"type":"Feature","bbox":[74.25178,30.59986,74.25449,30.60278],"properties":{"ward":11},"geometry":{"type":"Polygon","coordinates":[[[74.25449,30.60233],[74.25404,30.60033],[74.25374,30.60035],[74.25357,30.59986],[74.25293,30.59989],[74.25298,30.60024],[74.25246,30.60024],[74.25243,30.60121],[74.25178,30.60126],[74.25222,30.60278],[74.25294,30.60247],[74.25449,30.60233]]]}},{"type":"Feature","bbox":[74.25089,30.60257,74.2539,30.60519],"properties":{"ward":12},"geometry":{"type":"Polygon","coordinates":[[[74.25204,30.60309],[74.25089,30.60486],[74.2539,30.60519],[74.25368,30.60257],[74.25296,30.60262],[74.25204,30.60309]]]}},{"type":"Feature","bbox":[74.24639,30.59942,74.25241,30.60301],"properties":{"ward":13},"geometry":{"type":"Polygon","coordinates":[[[74.25218,30.60281],[74.25174,30.60123],[74.25241,30.60119],[74.25239,30.60083],[74.25095,30.60083],[74.24895,30.59942],[74.24639,30.60054],[74.24651,30.60141],[74.24797,30.60139],[74.24794,30.6018],[74.24849,30.6018],[74.24853,30.60254],[74.24795,30.60257],[74.24795,30.60293],[74.25195,30.60301],[74.25218,30.60281]]]}},{"type":"Feature","bbox":[74.24602,30.60141,74.25186,30.60492],"properties":{"ward":14},"geometry":{"type":"Polygon","coordinates":[[[74.24602,30.60426],[74.25062,30.60492],[74.25186,30.60303],[74.24792,30.60295],[74.24792,30.60253],[74.2485,30.6025],[74.24846,30.60183],[74.24791,30.60182],[74.24794,30.60141],[74.24648,30.60143],[74.24649,30.60202],[74.24722,30.60204],[74.24723,30.60269],[74.24649,30.6027],[74.2465,30.60295],[74.24603,30.60297],[74.24602,30.60426]]]}},{"type":"Feature","bbox":[74.23957,30.60052,74.2472,30.60426],"properties":{"ward":15},"geometry":{"type":"Polygon","coordinates":[[[74.23957,30.60344],[74.24599,30.60426],[74.24601,30.60294],[74.24648,30.60294],[74.24646,30.60266],[74.2472,30.60267],[74.24719,30.60207],[74.24646,30.60205],[74.24632,30.60052],[74.23957,30.60344]]]}},{"type":"Feature","bbox":[74.24713,30.60492,74.25649,30.61325],"properties":{"ward":16},"geometry":{"type":"Polygon","coordinates":[[[74.25066,30.6052],[74.24953,30.60492],[74.24966,30.6078],[74.24767,30.6079],[74.24761,30.60833],[74.24716,30.60838],[74.24713,30.6122],[74.24809,30.6121],[74.24819,30.61325],[74.25649,30.61189],[74.2561,30.60988],[74.25565,30.60931],[74.25185,30.60604],[74.25066,30.6052]]]}},{"type":"Feature","bbox":[74.23964,30.60359,74.24954,30.6083],"properties":{"ward":17},"geometry":{"type":"Polygon","coordinates":[[[74.24943,30.60487],[74.23964,30.60359],[74.2398,30.6083],[74.24751,30.60827],[74.24755,30.60782],[74.24954,30.60775],[74.24943,30.60487]]]}}]}