{"type":"FeatureCollection","features":[{"type":"Feature","bbox":[74.7917,30.58305,74.8204,30.60643],"properties":{"ward":1},"geometry":{"type":"Polygon","coordinates":[[[74.80271,30.60643],[74.80561,30.60591],[74.80982,30.59763],[74.80951,30.59747],[74.81345,30.5898],[74.81366,30.58991],[74.81519,30.58775],[74.81543,30.58772],[74.8161,30.58651],[74.81735,30.58726],[74.8204,30.58326],[74.81734,30.58337],[74.81598,30.58305],[74.815,30.58475],[74.81373,30.58786],[74.81302,30.58864],[74.81186,30.58948],[74.81098,30.58989],[74.80831,30.59048],[74.80649,30.59046],[74.80459,30.59008],[74.79232,30.58536],[74.7917,30.58545],[74.79816,30.60623],[74.80271,30.60643]]]}},{"type":"Feature","bbox":[74.80569,30.59452,74.81901,30.60587],"properties":{"ward":2},"geometry":{"type":"Polygon","coordinates":[[[74.80569,30.60587],[74.81896,30.60327],[74.81901,30.5958],[74.8169,30.59579],[74.81672,30.59534],[74.81362,30.59524],[74.81271,30.59498],[74.81184,30.59452],[74.80994,30.5975],[74.80569,30.60587]]]}},{"type":"Feature","bbox":[74.80973,30.58657,74.81904,30.59757],"properties":{"ward":3},"geometry":{"type":"Polygon","coordinates":[[[74.81437,30.59105],[74.81732,30.58729],[74.81611,30.58657],[74.81545,30.58779],[74.81528,30.58772],[74.81366,30.58998],[74.81352,30.5899],[74.80973,30.59751],[74.80984,30.59757],[74.81184,30.59448],[74.81359,30.59521],[74.81684,30.59529],[74.817,30.59572],[74.81902,30.5957],[74.81904,30.59174],[74.81571,30.59168],[74.81437,30.59105]]]}},{"type":"Feature","bbox":[74.81462,30.58308,74.82536,30.59165],"properties":{"ward":4},"geometry":{"type":"Polygon","coordinates":[[[74.82062,30.58329],[74.81462,30.59106],[74.81542,30.59154],[74.81902,30.59165],[74.81909,30.58875],[74.81955,30.58795],[74.82224,30.58605],[74.82469,30.58489],[74.82536,30.58438],[74.82526,30.58407],[74.82476,30.58404],[74.82366,30.58308],[74.82184,30.58309],[74.82062,30.58329]]]}},{"type":"Feature","bbox":[74.81904,30.58569,74.82843,30.60324],"properties":{"ward":5},"geometry":{"type":"Polygon","coordinates":[[[74.81904,30.60324],[74.82843,30.60143],[74.82589,30.59362],[74.82474,30.59086],[74.8247,30.59061],[74.82531,30.58946],[74.8243,30.58926],[74.8233,30.58791],[74.82292,30.58765],[74.82389,30.58672],[74.82348,30.58621],[74.82359,30.58607],[74.82321,30.58569],[74.8223,30.5861],[74.8199,30.58774],[74.81921,30.58875],[74.81904,30.60324]]]}},{"type":"Feature","bbox":[74.82478,30.58565,74.84316,30.60138],"properties":{"ward":6},"geometry":{"type":"Polygon","coordinates":[[[74.82539,30.58944],[74.82478,30.59068],[74.82596,30.59355],[74.82851,30.60138],[74.83937,30.5993],[74.84316,30.59787],[74.83641,30.59264],[74.83316,30.59061],[74.83194,30.59034],[74.82986,30.58886],[74.82805,30.58746],[74.82673,30.58573],[74.8261,30.58565],[74.82517,30.58733],[74.82531,30.58757],[74.82539,30.58944]]]}},{"type":"Feature","bbox":[74.82711,30.58297,74.83329,30.5906],"properties":{"ward":7},"geometry":{"type":"Polygon","coordinates":[[[74.83125,30.58421],[74.83141,30.58343],[74.83027,30.5831],[74.82899,30.58297],[74.82762,30.58322],[74.82756,30.58342],[74.82837,30.58474],[74.82822,30.58507],[74.82711,30.58605],[74.82843,30.58773],[74.83194,30.59027],[74.83298,30.5906],[74.83329,30.59034],[74.83258,30.58741],[74.83125,30.58421]]]}},{"type":"Feature","bbox":[74.83136,30.57553,74.85051,30.59782],"properties":{"ward":8},"geometry":{"type":"Polygon","coordinates":[[[74.83343,30.59032],[74.84328,30.59782],[74.84836,30.58943],[74.8498,30.58106],[74.85051,30.57573],[74.85006,30.57553],[74.8466,30.57694],[74.83511,30.58168],[74.83197,30.58367],[74.83147,30.5835],[74.83136,30.58421],[74.83249,30.58676],[74.83343,30.59032]]]}},{"type":"Feature","bbox":[74.83416,30.5717,74.84986,30.58018],"properties":{"ward":9},"geometry":{"type":"Polygon","coordinates":[[[74.83805,30.58018],[74.84481,30.57739],[74.84986,30.57546],[74.8408,30.5717],[74.83922,30.57309],[74.83416,30.5757],[74.83511,30.57697],[74.83532,30.57763],[74.83805,30.58018]]]}},{"type":"Feature","bbox":[74.82882,30.57841,74.838,30.58351],"properties":{"ward":10},"geometry":{"type":"Polygon","coordinates":[[[74.838,30.58024],[74.83601,30.57841],[74.83528,30.57871],[74.83294,30.57913],[74.83248,30.57909],[74.83218,30.57845],[74.83015,30.57901],[74.82882,30.57914],[74.82897,30.58011],[74.83002,30.58006],[74.83045,30.58241],[74.83033,30.58306],[74.83179,30.58351],[74.83545,30.58131],[74.838,30.58024]]]}},{"type":"Feature","bbox":[74.82615,30.5779,74.83036,30.58303],"properties":{"ward":11},"geometry":{"type":"Polygon","coordinates":[[[74.82866,30.58216],[74.82879,30.58293],[74.83024,30.58303],[74.83036,30.58246],[74.82999,30.58008],[74.82893,30.58012],[74.82867,30.57864],[74.82824,30.57866],[74.8281,30.5779],[74.82739,30.5779],[74.82721,30.57837],[74.82615,30.57842],[74.82652,30.57899],[74.82661,30.57948],[74.82687,30.57956],[74.82765,30.58055],[74.82761,30.58079],[74.828,30.58177],[74.82866,30.58216]]]}},{"type":"Feature","bbox":[74.82304,30.58186,74.8287,30.58939],"properties":{"ward":12},"geometry":{"type":"Polygon","coordinates":[[[74.82587,30.58299],[74.82587,30.58395],[74.82534,30.58406],[74.82543,30.58439],[74.82522,30.58455],[74.82328,30.58565],[74.82371,30.58607],[74.82357,30.58622],[74.824,30.58673],[74.82304,30.58764],[74.82437,30.58922],[74.82532,30.58939],[74.82528,30.58758],[74.82512,30.58732],[74.82526,30.58702],[74.82606,30.58557],[74.82678,30.58565],[74.82706,30.58599],[74.82814,30.58503],[74.82828,30.58472],[74.8274,30.58325],[74.8287,30.58292],[74.82869,30.58243],[74.82853,30.58214],[74.82795,30.58186],[74.82643,30.5819],[74.82587,30.58299]]]}},{"type":"Feature","bbox":[74.82085,30.57957,74.82793,30.58399],"properties":{"ward":13},"geometry":{"type":"Polygon","coordinates":[[[74.82365,30.57957],[74.82358,30.57983],[74.82179,30.58171],[74.82085,30.58303],[74.82346,30.58297],[74.82409,30.58328],[74.82479,30.58399],[74.82577,30.5839],[74.82577,30.5832],[74.82625,30.58196],[74.82643,30.58182],[74.82793,30.58179],[74.82748,30.58079],[74.82752,30.58049],[74.82675,30.57957],[74.82365,30.57957]]]}},{"type":"Feature","bbox":[74.81544,30.57624,74.82318,30.58318],"properties":{"ward":14},"geometry":{"type":"Polygon","coordinates":[[[74.81893,30.57914],[74.81973,30.57685],[74.81963,30.57668],[74.81835,30.57624],[74.81795,30.57677],[74.81693,30.57931],[74.81672,30.5796],[74.8163,30.57962],[74.81558,30.58179],[74.81544,30.58238],[74.81552,30.5826],[74.8172,30.58318],[74.82077,30.58307],[74.82179,30.58162],[74.82318,30.58019],[74.82225,30.58009],[74.81893,30.57914]]]}},{"type":"Feature","bbox":[74.81903,30.57689,74.82533,30.58016],"properties":{"ward":15},"geometry":{"type":"Polygon","coordinates":[[[74.81903,30.57911],[74.82321,30.58016],[74.82358,30.57949],[74.82533,30.57952],[74.82532,30.57851],[74.8251,30.57814],[74.82378,30.57796],[74.82345,30.5784],[74.82248,30.57819],[74.81984,30.57689],[74.81903,30.57911]]]}},{"type":"Feature","bbox":[74.82458,30.5757,74.83599,30.57953],"properties":{"ward":16},"geometry":{"type":"Polygon","coordinates":[[[74.83283,30.57904],[74.83599,30.57836],[74.83522,30.57761],[74.8348,30.57658],[74.8341,30.5757],[74.83251,30.5762],[74.82803,30.57689],[74.82813,30.57771],[74.82576,30.57742],[74.82458,30.57757],[74.82466,30.57801],[74.82547,30.57817],[74.82532,30.57896],[74.8254,30.57953],[74.82653,30.5795],[74.82643,30.57897],[74.82603,30.57836],[74.82715,30.57831],[74.8273,30.57785],[74.82816,30.57781],[74.82833,30.57868],[74.82872,30.57854],[74.82884,30.57911],[74.83009,30.57899],[74.83217,30.57836],[74.83252,30.57901],[74.83283,30.57904]]]}},{"type":"Feature","bbox":[74.825,30.56678,74.8407,30.57765],"properties":{"ward":17},"geometry":{"type":"Polygon","coordinates":[[[74.83899,30.57314],[74.8407,30.57165],[74.82884,30.56678],[74.825,30.5749],[74.82659,30.5755],[74.82588,30.57673],[74.82579,30.57738],[74.82806,30.57765],[74.82797,30.57683],[74.83351,30.5759],[74.83899,30.57314]]]}},{"type":"Feature","bbox":[74.81917,30.57496,74.82651,30.57832],"properties":{"ward":18},"geometry":{"type":"Polygon","coordinates":[[[74.82591,30.5766],[74.82651,30.57553],[74.82497,30.57496],[74.82375,30.57758],[74.82235,30.57657],[74.82218,30.5768],[74.81951,30.57575],[74.81917,30.57644],[74.82197,30.57794],[74.82344,30.57832],[74.82375,30.57789],[74.82459,30.578],[74.82451,30.57751],[74.82576,30.57738],[74.82591,30.5766]]]}},{"type":"Feature","bbox":[74.81842,30.56468,74.82874,30.57751],"properties":{"ward":19},"geometry":{"type":"Polygon","coordinates":[[[74.82874,30.56672],[74.82442,30.56478],[74.82363,30.56468],[74.82141,30.57029],[74.82067,30.5701],[74.82051,30.57046],[74.81855,30.57524],[74.81873,30.57576],[74.81842,30.57619],[74.81912,30.5764],[74.81946,30.57565],[74.82212,30.57672],[74.8223,30.57649],[74.82375,30.57751],[74.82874,30.56672]]]}},{"type":"Feature","bbox":[74.81016,30.56238,74.82362,30.5752],"properties":{"ward":20},"geometry":{"type":"Polygon","coordinates":[[[74.81726,30.57238],[74.81726,30.57291],[74.81851,30.5752],[74.81897,30.57437],[74.82063,30.57003],[74.82137,30.57023],[74.82362,30.56461],[74.81016,30.56238],[74.8123,30.56509],[74.81481,30.56888],[74.81623,30.57038],[74.81726,30.57238]]]}},{"type":"Feature","bbox":[74.81303,30.57286,74.81859,30.57844],"properties":{"ward":21},"geometry":{"type":"Polygon","coordinates":[[[74.81439,30.57489],[74.81303,30.57625],[74.81345,30.5765],[74.81311,30.57695],[74.81414,30.57744],[74.81651,30.57664],[74.81678,30.57745],[74.81677,30.57838],[74.8171,30.57844],[74.81783,30.5767],[74.81859,30.57569],[74.81715,30.57286],[74.8163,30.57331],[74.81471,30.5752],[74.81439,30.57489]]]}},{"type":"Feature","bbox":[74.79268,30.55825,74.81722,30.57761],"properties":{"ward":22},"geometry":{"type":"Polygon","coordinates":[[[74.81617,30.57336],[74.81722,30.57276],[74.81712,30.57211],[74.81615,30.57042],[74.81431,30.56829],[74.81219,30.56513],[74.80996,30.56231],[74.79665,30.55825],[74.79573,30.55903],[74.79349,30.55933],[74.79268,30.56194],[74.79449,30.56261],[74.79403,30.57149],[74.81105,30.57761],[74.81164,30.57657],[74.81234,30.5758],[74.813,30.57621],[74.8144,30.57487],[74.8147,30.57514],[74.81617,30.57336]]]}},{"type":"Feature","bbox":[74.81107,30.57587,74.81406,30.57808],"properties":{"ward":23},"geometry":{"type":"Polygon","coordinates":[[[74.81107,30.57762],[74.81245,30.57808],[74.81406,30.57745],[74.81302,30.57697],[74.81336,30.57651],[74.81236,30.57587],[74.81168,30.5766],[74.81107,30.57762]]]}},{"type":"Feature","bbox":[74.81259,30.57627,74.8183,30.58146],"properties":{"ward":24,"name":"Radha Krishan Mandir Rd."},"geometry":{"type":"Polygon","coordinates":[[[74.81669,30.57747],[74.81651,30.57677],[74.81259,30.57813],[74.81483,30.5789],[74.8139,30.57996],[74.81435,30.58059],[74.81482,30.58041],[74.81532,30.58059],[74.81479,30.58112],[74.81557,30.58146],[74.81626,30.57957],[74.81671,30.57952],[74.81686,30.57932],[74.81791,30.57675],[74.8183,30.57627],[74.81787,30.57669],[74.8171,30.57851],[74.81668,30.57842],[74.81669,30.57747]]]}},{"type":"Feature","bbox":[74.81039,30.57795,74.81522,30.58283],"properties":{"ward":25},"geometry":{"type":"Polygon","coordinates":[[[74.8118,30.57795],[74.81151,30.57995],[74.81128,30.57992],[74.81154,30.5811],[74.8113,30.58115],[74.8113,30.58159],[74.81042,30.58167],[74.81039,30.58283],[74.81365,30.5827],[74.81506,30.5828],[74.81522,30.5821],[74.81483,30.5817],[74.81436,30.58203],[74.81408,30.58181],[74.81395,30.58131],[74.81422,30.58107],[74.81325,30.57985],[74.81352,30.57857],[74.8118,30.57795]]]}},{"type":"Feature","bbox":[74.79245,30.5716,74.81176,30.58518],"properties":{"ward":26},"geometry":{"type":"Polygon","coordinates":[[[74.80422,30.58239],[74.81036,30.58283],[74.81038,30.58164],[74.81125,30.58157],[74.81127,30.58112],[74.8115,30.58108],[74.81125,30.57988],[74.81147,30.5799],[74.81176,30.57797],[74.795,30.57207],[74.79404,30.5716],[74.79267,30.58176],[74.79245,30.58403],[74.79254,30.58518],[74.79621,30.58472],[74.80422,30.58239]]]}},{"type":"Feature","bbox":[74.7928,30.58245,74.80677,30.58964],"properties":{"ward":27},"geometry":{"type":"Polygon","coordinates":[[[74.79536,30.58495],[74.7928,30.58529],[74.80384,30.58964],[74.80677,30.58811],[74.80647,30.58624],[74.80598,30.58475],[74.80643,30.58466],[74.806,30.58327],[74.806,30.58256],[74.80435,30.58245],[74.79536,30.58495]]]}},{"type":"Feature","bbox":[74.80605,30.58255,74.81501,30.58808],"properties":{"ward":28},"geometry":{"type":"Polygon","coordinates":[[[74.8061,30.5848],[74.80683,30.58808],[74.81022,30.58634],[74.812,30.58562],[74.81384,30.58457],[74.81459,30.58378],[74.81501,30.58289],[74.81419,30.58279],[74.80902,30.58286],[74.80608,30.58255],[74.80605,30.58317],[74.80651,30.5847],[74.8061,30.5848]]]}},{"type":"Feature","bbox":[74.80398,30.58289,74.81581,30.59036],"properties":{"ward":29},"geometry":{"type":"Polygon","coordinates":[[[74.81032,30.58642],[74.80398,30.58968],[74.80505,30.59007],[74.80742,30.59036],[74.80872,30.59029],[74.81041,30.58993],[74.8118,30.58941],[74.81273,30.58879],[74.81367,30.58781],[74.81581,30.58305],[74.81514,30.58289],[74.81468,30.58381],[74.81396,30.58461],[74.81264,30.58541],[74.81032,30.58642]]]}}]}