{"type":"FeatureCollection","features":[{"type":"Feature","bbox":[80.08541,29.33955,80.10531,29.35191],"properties":{"ward":1,"name":"Chatar Ward"},"geometry":{"type":"Polygon","coordinates":[[[80.08541,29.34185],[80.08575,29.34315],[80.08611,29.34338],[80.08632,29.34337],[80.08706,29.34279],[80.08737,29.34289],[80.08763,29.34323],[80.08908,29.34332],[80.0897,29.34297],[80.08995,29.34233],[80.09017,29.34222],[80.09117,29.34219],[80.09129,29.3425],[80.09177,29.3427],[80.09218,29.34246],[80.09291,29.34263],[80.09331,29.34256],[80.09395,29.34316],[80.09462,29.34281],[80.0945,29.34372],[80.09471,29.3441],[80.0954,29.34454],[80.09551,29.34566],[80.09579,29.34572],[80.09616,29.3454],[80.09651,29.34608],[80.0969,29.34593],[80.09723,29.34606],[80.09708,29.3465],[80.09667,29.34663],[80.09697,29.34678],[80.09695,29.34695],[80.09664,29.34732],[80.09637,29.34732],[80.09689,29.34798],[80.09659,29.34853],[80.0969,29.34881],[80.09675,29.34951],[80.09741,29.34958],[80.09829,29.35035],[80.09855,29.35136],[80.09903,29.35191],[80.09921,29.3519],[80.0993,29.35167],[80.09922,29.35078],[80.09947,29.35049],[80.09965,29.34908],[80.09985,29.34881],[80.10011,29.34886],[80.10052,29.34852],[80.1003,29.34811],[80.09987,29.34782],[80.09985,29.34753],[80.10007,29.34724],[80.1003,29.34731],[80.10051,29.347],[80.10108,29.34666],[80.10072,29.34544],[80.10166,29.34539],[80.10204,29.34502],[80.1031,29.34447],[80.1032,29.34319],[80.10341,29.34359],[80.10339,29.34409],[80.10392,29.3446],[80.10459,29.34485],[80.10512,29.34475],[80.10531,29.3445],[80.10501,29.34417],[80.10418,29.34404],[80.10378,29.34375],[80.10374,29.34264],[80.10279,29.34193],[80.10153,29.34314],[80.10026,29.34317],[80.09985,29.34338],[80.09982,29.34368],[80.09966,29.34377],[80.09897,29.34379],[80.09801,29.34357],[80.09714,29.34291],[80.09656,29.34298],[80.09648,29.34341],[80.0962,29.34361],[80.09513,29.34341],[80.09484,29.34314],[80.0947,29.34242],[80.09234,29.34128],[80.09183,29.34056],[80.09103,29.34126],[80.09043,29.34137],[80.09,29.34125],[80.08983,29.34095],[80.09015,29.33984],[80.08965,29.33955],[80.08865,29.34004],[80.08723,29.33979],[80.08706,29.34045],[80.08663,29.34073],[80.08645,29.34126],[80.08557,29.3416],[80.08541,29.34185]]]}},{"type":"Feature","bbox":[80.09509,29.33559,80.10372,29.34355],"properties":{"ward":2,"name":"Talli Madli"},"geometry":{"type":"Polygon","coordinates":[[[80.09554,29.338],[80.09547,29.33841],[80.09509,29.33893],[80.09514,29.33915],[80.0961,29.33969],[80.09685,29.3399],[80.09674,29.34052],[80.09685,29.34081],[80.09754,29.3411],[80.09813,29.34088],[80.09881,29.34093],[80.09971,29.3412],[80.10005,29.34157],[80.09957,29.34224],[80.09912,29.34227],[80.0986,29.34266],[80.09786,29.34251],[80.09585,29.34267],[80.09574,29.34303],[80.09593,29.34326],[80.09619,29.34325],[80.09647,29.34273],[80.09721,29.34271],[80.09801,29.34337],[80.0994,29.34355],[80.10007,29.34297],[80.10132,29.34296],[80.10164,29.3425],[80.1019,29.34243],[80.1029,29.34147],[80.10271,29.34083],[80.10208,29.34077],[80.10184,29.3406],[80.10151,29.33982],[80.101,29.33959],[80.10047,29.33893],[80.1016,29.33813],[80.10292,29.33792],[80.10328,29.3377],[80.1028,29.33782],[80.10261,29.33767],[80.10321,29.3373],[80.10326,29.33647],[80.10372,29.33587],[80.10305,29.33559],[80.10302,29.33612],[80.10266,29.3367],[80.10221,29.33701],[80.10171,29.33679],[80.10126,29.33701],[80.10096,29.33684],[80.10049,29.33691],[80.10023,29.33629],[80.09967,29.33637],[80.0989,29.33617],[80.09817,29.33661],[80.09718,29.3369],[80.09671,29.33739],[80.09554,29.338]]]}},{"type":"Feature","bbox":[80.0952,29.33934,80.1,29.34275],"properties":{"ward":3,"name":"Malli Madli"},"geometry":{"type":"Polygon","coordinates":[[[80.09529,29.33934],[80.0952,29.33954],[80.09585,29.34002],[80.09574,29.34074],[80.09605,29.34151],[80.0956,29.34234],[80.09555,29.34275],[80.09791,29.34247],[80.0985,29.34264],[80.09912,29.34223],[80.09957,29.34219],[80.1,29.34163],[80.0997,29.34122],[80.09872,29.34095],[80.09814,29.34091],[80.09765,29.34115],[80.09695,29.34091],[80.0967,29.34058],[80.0968,29.33988],[80.09529,29.33934]]]}},{"type":"Feature","bbox":[80.09279,29.33042,80.1061,29.33798],"properties":{"ward":4,"name":"Kanalgoan"},"geometry":{"type":"Polygon","coordinates":[[[80.09279,29.33664],[80.09309,29.33694],[80.09409,29.33732],[80.09441,29.33776],[80.09543,29.33798],[80.0966,29.33739],[80.09726,29.3368],[80.09807,29.33658],[80.09892,29.33612],[80.09965,29.33631],[80.10021,29.33622],[80.10054,29.33684],[80.10095,29.33679],[80.10128,29.33695],[80.1017,29.33673],[80.10221,29.33696],[80.10274,29.33651],[80.10301,29.33599],[80.10304,29.33554],[80.10361,29.33573],[80.10378,29.33595],[80.1033,29.3365],[80.10322,29.33738],[80.10269,29.3377],[80.1033,29.33765],[80.10375,29.33684],[80.10492,29.3363],[80.1049,29.33602],[80.10459,29.33562],[80.10464,29.33498],[80.10504,29.33424],[80.1058,29.33376],[80.1061,29.33334],[80.10554,29.33201],[80.10546,29.33136],[80.10501,29.33105],[80.10375,29.33147],[80.10325,29.33146],[80.10303,29.33121],[80.10306,29.33042],[80.10251,29.33056],[80.10165,29.33126],[80.10093,29.33144],[80.10091,29.33175],[80.10057,29.332],[80.10035,29.33299],[80.0978,29.33478],[80.09701,29.33504],[80.09642,29.3348],[80.09544,29.33471],[80.09466,29.33515],[80.09357,29.33635],[80.09279,29.33664]]]}},{"type":"Feature","bbox":[80.08888,29.33127,80.1009,29.33661],"properties":{"ward":5,"name":"Goral Chour"},"geometry":{"type":"Polygon","coordinates":[[[80.08888,29.33293],[80.08936,29.33382],[80.09037,29.33444],[80.09031,29.3353],[80.09069,29.33594],[80.09121,29.33609],[80.0921,29.33578],[80.09244,29.3358],[80.09261,29.33593],[80.09275,29.33661],[80.0935,29.33635],[80.09447,29.33529],[80.09538,29.33469],[80.09642,29.33476],[80.09694,29.33499],[80.09776,29.33475],[80.10025,29.33302],[80.10044,29.33274],[80.10046,29.33212],[80.1009,29.33165],[80.10087,29.33144],[80.10035,29.33155],[80.09966,29.33127],[80.09903,29.33158],[80.09862,29.33128],[80.09825,29.33128],[80.09776,29.33162],[80.09722,29.33135],[80.09658,29.33236],[80.09572,29.33272],[80.09333,29.33304],[80.09236,29.33272],[80.09179,29.33282],[80.09112,29.33238],[80.09102,29.33278],[80.09057,29.3328],[80.08932,29.3323],[80.0889,29.33244],[80.08888,29.33293]]]}},{"type":"Feature","bbox":[80.08905,29.32169,80.10596,29.333],"properties":{"ward":6,"name":"Joop"},"geometry":{"type":"Polygon","coordinates":[[[80.08905,29.33015],[80.08943,29.33235],[80.09083,29.33278],[80.09101,29.33271],[80.09103,29.33236],[80.09118,29.33232],[80.0918,29.33274],[80.09232,29.33266],[80.09345,29.333],[80.09613,29.33257],[80.09667,29.33223],[80.09721,29.33131],[80.09773,29.33155],[80.09829,29.33122],[80.0987,29.33128],[80.09901,29.33151],[80.09952,29.33123],[80.10024,29.33147],[80.10141,29.33131],[80.10222,29.33066],[80.10304,29.33037],[80.10355,29.32912],[80.10333,29.3282],[80.10362,29.32723],[80.10276,29.32686],[80.10277,29.32671],[80.10359,29.32676],[80.10357,29.32597],[80.10386,29.32559],[80.10437,29.32556],[80.10571,29.32589],[80.10596,29.32537],[80.10588,29.325],[80.10575,29.32486],[80.10518,29.32508],[80.10456,29.325],[80.1035,29.32427],[80.10235,29.32457],[80.10186,29.32388],[80.10188,29.32343],[80.10163,29.32285],[80.10088,29.32221],[80.10097,29.32169],[80.10081,29.32211],[80.10088,29.3225],[80.0995,29.32255],[80.09951,29.32288],[80.09991,29.32306],[80.10017,29.3235],[80.1016,29.32373],[80.10202,29.32412],[80.10222,29.32445],[80.10205,29.32484],[80.10225,29.32509],[80.10186,29.32558],[80.10137,29.32568],[80.10095,29.32629],[80.10037,29.32638],[80.09962,29.32723],[80.09926,29.32711],[80.09761,29.32729],[80.09729,29.32719],[80.09597,29.32757],[80.09532,29.32838],[80.0946,29.32883],[80.09453,29.3298],[80.09412,29.32982],[80.09308,29.33033],[80.09218,29.33037],[80.0921,29.3306],[80.09185,29.33063],[80.09097,29.33031],[80.09031,29.33049],[80.09007,29.33023],[80.08928,29.33048],[80.08905,29.33015]]]}},{"type":"Feature","bbox":[80.06658,29.32188,80.08934,29.33758],"properties":{"ward":7,"name":"Nagnath"},"geometry":{"type":"Polygon","coordinates":[[[80.07364,29.33264],[80.07417,29.33318],[80.07493,29.33305],[80.07544,29.33315],[80.07589,29.33381],[80.07688,29.33372],[80.07689,29.33436],[80.07724,29.33469],[80.07776,29.33486],[80.07805,29.33544],[80.07873,29.33543],[80.0797,29.33586],[80.07989,29.33615],[80.08098,29.33599],[80.08159,29.33633],[80.08203,29.33621],[80.08273,29.33684],[80.08283,29.33743],[80.08303,29.33758],[80.08381,29.33571],[80.08408,29.33548],[80.08443,29.33576],[80.08483,29.33561],[80.08606,29.33609],[80.08675,29.33615],[80.08755,29.33597],[80.08807,29.33566],[80.08767,29.3354],[80.08766,29.33516],[80.08797,29.33491],[80.08852,29.33371],[80.08898,29.33333],[80.08878,29.33255],[80.08898,29.33229],[80.08931,29.33225],[80.08934,29.3314],[80.08867,29.3288],[80.08842,29.32874],[80.08722,29.32907],[80.08659,29.32873],[80.08616,29.32822],[80.08553,29.32805],[80.08497,29.32756],[80.08445,29.32775],[80.08341,29.32753],[80.08289,29.32759],[80.08277,29.32736],[80.08233,29.32727],[80.08213,29.3268],[80.08173,29.32694],[80.08037,29.3264],[80.08012,29.32668],[80.08073,29.32736],[80.08093,29.32812],[80.0795,29.32869],[80.07836,29.32844],[80.07727,29.3278],[80.07673,29.3278],[80.07636,29.3282],[80.07719,29.32854],[80.07744,29.32916],[80.07827,29.32985],[80.07715,29.32942],[80.07681,29.3298],[80.07592,29.32935],[80.07564,29.32947],[80.07561,29.3298],[80.07538,29.3298],[80.07522,29.32965],[80.07528,29.32897],[80.07499,29.32866],[80.07502,29.32847],[80.07394,29.32742],[80.07319,29.32713],[80.07289,29.32767],[80.07064,29.32679],[80.07063,29.32649],[80.07133,29.32595],[80.07148,29.32549],[80.07183,29.3251],[80.07161,29.32493],[80.07065,29.32521],[80.0704,29.32509],[80.07055,29.3248],[80.07047,29.32428],[80.0706,29.32358],[80.06993,29.32323],[80.06919,29.3233],[80.06885,29.32297],[80.0676,29.32315],[80.06737,29.32281],[80.06758,29.32204],[80.06658,29.32188],[80.06752,29.32216],[80.0673,29.32285],[80.06759,29.32322],[80.06883,29.32311],[80.06917,29.3234],[80.06987,29.32339],[80.07043,29.32363],[80.07037,29.3244],[80.0705,29.32477],[80.07032,29.32501],[80.07046,29.3252],[80.07089,29.32523],[80.07147,29.32502],[80.07173,29.32506],[80.07147,29.32538],[80.07127,29.32585],[80.06989,29.32692],[80.06936,29.32703],[80.06846,29.32661],[80.06807,29.32689],[80.06805,29.32715],[80.06871,29.32772],[80.06898,29.32869],[80.06951,29.32889],[80.06987,29.32955],[80.07051,29.32995],[80.07094,29.32985],[80.07163,29.33013],[80.0719,29.33032],[80.07183,29.33064],[80.07199,29.33095],[80.07301,29.33135],[80.07333,29.33181],[80.07369,29.33203],[80.07364,29.33264]]]}},{"type":"Feature","bbox":[80.08327,29.33344,80.09186,29.34078],"properties":{"ward":8,"name":"Baleswar"},"geometry":{"type":"Polygon","coordinates":[[[80.08327,29.33744],[80.08406,29.3372],[80.08473,29.33791],[80.08717,29.33874],[80.08735,29.33948],[80.08754,29.33966],[80.08867,29.33982],[80.08948,29.33937],[80.09003,29.3394],[80.0904,29.33979],[80.09017,29.34078],[80.09085,29.33984],[80.09125,29.3388],[80.09169,29.33856],[80.09171,29.33832],[80.09135,29.33787],[80.09174,29.33737],[80.09186,29.33657],[80.09137,29.33617],[80.09067,29.33604],[80.09023,29.33528],[80.09034,29.33453],[80.08934,29.3339],[80.08901,29.33344],[80.08858,29.33379],[80.08806,29.33487],[80.08773,29.3352],[80.08808,29.33572],[80.08759,29.33601],[80.08671,29.33621],[80.08604,29.33616],[80.0848,29.33569],[80.08438,29.33581],[80.08404,29.3356],[80.08327,29.33744]]]}},{"type":"Feature","bbox":[80.09021,29.33589,80.09596,29.34317],"properties":{"ward":9,"name":"Bhairwa"},"geometry":{"type":"Polygon","coordinates":[[[80.09248,29.33589],[80.09139,29.33604],[80.09193,29.33648],[80.0918,29.33743],[80.09146,29.33782],[80.09182,29.33831],[80.0918,29.33856],[80.09158,29.33887],[80.09129,29.33892],[80.09097,29.33984],[80.09026,29.34081],[80.09021,29.3411],[80.091,29.34108],[80.09159,29.34052],[80.09197,29.34039],[80.09258,29.34121],[80.09325,29.34165],[80.09489,29.34229],[80.09525,29.34313],[80.09581,29.34317],[80.09544,29.34264],[80.09596,29.34165],[80.09591,29.34109],[80.09569,29.34075],[80.0958,29.34014],[80.09516,29.33957],[80.09499,29.33895],[80.09539,29.3384],[80.09541,29.33808],[80.0943,29.33781],[80.09402,29.33736],[80.09283,29.33685],[80.09248,29.33589]]]}}]}