{"type":"FeatureCollection","features":[{"type":"Feature","bbox":[78.29997,30.11647,78.32016,30.12852],"properties":{"ward":1,"name":"Kailash Gate,Bhajan Garh Ward"},"geometry":{"type":"Polygon","coordinates":[[[78.29997,30.12651],[78.30115,30.12636],[78.30246,30.12585],[78.30691,30.12618],[78.30947,30.12586],[78.31116,30.12594],[78.31293,30.12638],[78.31591,30.12679],[78.31711,30.12679],[78.31851,30.12737],[78.32,30.12852],[78.32016,30.12809],[78.31795,30.12665],[78.31558,30.12617],[78.31492,30.12543],[78.31303,30.12455],[78.31131,30.12347],[78.30845,30.12145],[78.30724,30.12039],[78.3044,30.11727],[78.30325,30.11647],[78.30277,30.11921],[78.30369,30.12187],[78.3022,30.12237],[78.30137,30.12298],[78.30022,30.12417],[78.29997,30.12651]]]}},{"type":"Feature","bbox":[78.30521,30.11632,78.32085,30.12795],"properties":{"ward":2,"name":"Satrudhan Mandir.Ganga Khetra Ward"},"geometry":{"type":"Polygon","coordinates":[[[78.31592,30.12506],[78.31087,30.12231],[78.30949,30.12103],[78.3086,30.1191],[78.30815,30.11661],[78.30748,30.11632],[78.30621,30.11691],[78.30521,30.11789],[78.30524,30.1183],[78.30689,30.11984],[78.31087,30.12306],[78.31329,30.12434],[78.3153,30.1257],[78.31692,30.1263],[78.32029,30.12795],[78.32085,30.12695],[78.31799,30.12573],[78.31592,30.12506]]]}},{"type":"Feature","bbox":[78.30337,30.11307,78.30643,30.11607],"properties":{"ward":3,"name":"Vaishnav Mata Mandir Ward"},"geometry":{"type":"Polygon","coordinates":[[[78.30337,30.11516],[78.30346,30.11607],[78.30416,30.11607],[78.30584,30.11536],[78.30643,30.11481],[78.30598,30.11409],[78.30613,30.11362],[78.30602,30.11307],[78.30511,30.11321],[78.30396,30.11425],[78.30337,30.11516]]]}},{"type":"Feature","bbox":[78.3056,30.11307,78.3093,30.11659],"properties":{"ward":4,"name":"Dayanand Ashram,Swami Narayan Ward"},"geometry":{"type":"Polygon","coordinates":[[[78.30566,30.11659],[78.3081,30.11543],[78.3093,30.11307],[78.30867,30.11307],[78.3056,30.11589],[78.30566,30.11659]]]}},{"type":"Feature","bbox":[78.29938,30.11627,78.30317,30.11876],"properties":{"ward":5,"name":"Premanand Ward"},"geometry":{"type":"MultiPolygon","coordinates":[[[[78.3031,30.117],[78.30315,30.11628],[78.30171,30.11643],[78.3006,30.11679],[78.29938,30.11775],[78.29976,30.11866],[78.30094,30.11876],[78.30204,30.11808],[78.3031,30.117]]],[[[78.30315,30.11628],[78.30317,30.11627],[78.30315,30.11627],[78.30315,30.11628]]]]}},{"type":"Feature","bbox":[78.3006,30.11499,78.30299,30.11677],"properties":{"ward":6,"name":"Madhya Chudha Bighaward"},"geometry":{"type":"Polygon","coordinates":[[[78.30199,30.1151],[78.30071,30.11499],[78.3006,30.11677],[78.30223,30.11659],[78.30299,30.11633],[78.30256,30.11543],[78.30199,30.1151]]]}},{"type":"Feature","bbox":[78.29832,30.11377,78.2998,30.11725],"properties":{"ward":7,"name":"14 Bigha Ward"},"geometry":{"type":"Polygon","coordinates":[[[78.29836,30.11493],[78.29842,30.11644],[78.29832,30.11725],[78.29968,30.11675],[78.2998,30.11599],[78.29963,30.1146],[78.29914,30.11377],[78.29836,30.11493]]]}},{"type":"Feature","bbox":[78.29024,30.1171,78.2985,30.12223],"properties":{"ward":8,"name":"Madhya Dhalwala Ward"},"geometry":{"type":"MultiPolygon","coordinates":[[[[78.29024,30.12142],[78.29156,30.12221],[78.29646,30.11882],[78.29846,30.11783],[78.2985,30.1171],[78.29737,30.1175],[78.29702,30.11746],[78.29234,30.12041],[78.29024,30.12142]]],[[[78.29156,30.12221],[78.29155,30.12222],[78.29161,30.12223],[78.29156,30.12221]]]]}},{"type":"Feature","bbox":[78.28829,30.11446,78.29811,30.12079],"properties":{"ward":9,"name":"Shanti Nagar,Rajiv Gram Ward"},"geometry":{"type":"Polygon","coordinates":[[[78.29133,30.11885],[78.28829,30.11906],[78.28962,30.12079],[78.2932,30.12007],[78.29336,30.11949],[78.29388,30.119],[78.2961,30.1181],[78.29713,30.11745],[78.29699,30.11676],[78.2981,30.11499],[78.29811,30.11446],[78.29699,30.1166],[78.29616,30.11776],[78.29434,30.11817],[78.29264,30.11906],[78.29133,30.11885]]]}},{"type":"Feature","bbox":[78.28087,30.11902,78.28924,30.12436],"properties":{"ward":10,"name":"Shiv,Durga Ward"},"geometry":{"type":"Polygon","coordinates":[[[78.28702,30.11902],[78.28382,30.11997],[78.28087,30.12202],[78.28126,30.12417],[78.28206,30.12436],[78.28322,30.12237],[78.28658,30.12172],[78.287,30.12214],[78.28924,30.12092],[78.28859,30.11976],[78.28796,30.11923],[78.28702,30.11902]]]}},{"type":"Feature","bbox":[78.28211,30.12127,78.29091,30.12672],"properties":{"ward":11,"name":"Upri Dhalwala Ward"},"geometry":{"type":"Polygon","coordinates":[[[78.28367,30.12622],[78.28558,30.12672],[78.28785,30.12612],[78.28811,30.12627],[78.28863,30.12622],[78.28998,30.12389],[78.29091,30.12271],[78.29062,30.12221],[78.28937,30.12127],[78.28683,30.12287],[78.28558,30.12316],[78.28443,30.12322],[78.28308,30.12398],[78.28211,30.12546],[78.28367,30.12622]]]}}]}