{"type":"FeatureCollection","features":[{"type":"Feature","bbox":[79.24246,29.03232,79.25514,29.04082],"properties":{"ward":1,"name":"Gurudwara Singh Sabha"},"geometry":{"type":"Polygon","coordinates":[[[79.24982,29.04082],[79.25514,29.03667],[79.25375,29.03515],[79.24858,29.03526],[79.2486,29.03399],[79.24759,29.03395],[79.24622,29.03232],[79.24246,29.0339],[79.24286,29.03424],[79.24377,29.03453],[79.24526,29.03595],[79.24767,29.03773],[79.24758,29.03802],[79.24843,29.03877],[79.24982,29.04082]]]}},{"type":"Feature","bbox":[79.23808,29.03392,79.24979,29.04321],"properties":{"ward":2,"name":"Ambedkar Park"},"geometry":{"type":"Polygon","coordinates":[[[79.23979,29.03552],[79.23808,29.03817],[79.23896,29.03866],[79.2417,29.03818],[79.24283,29.03838],[79.24457,29.04006],[79.24477,29.04064],[79.24596,29.04182],[79.24684,29.04321],[79.24979,29.04085],[79.24839,29.03878],[79.24756,29.03804],[79.24763,29.03773],[79.24571,29.03634],[79.24374,29.03455],[79.24282,29.03426],[79.24241,29.03392],[79.2399,29.03502],[79.23979,29.03552]]]}},{"type":"Feature","bbox":[79.23607,29.03819,79.24678,29.04404],"properties":{"ward":3,"name":"Purana Chikitsalay"},"geometry":{"type":"Polygon","coordinates":[[[79.24524,29.04359],[79.24579,29.04404],[79.24678,29.04324],[79.24671,29.04306],[79.24617,29.04214],[79.24473,29.04065],[79.24454,29.04009],[79.24281,29.03839],[79.24249,29.03826],[79.24164,29.03819],[79.2389,29.0387],[79.23803,29.03823],[79.23618,29.04094],[79.23607,29.04268],[79.24524,29.04359]]]}},{"type":"Feature","bbox":[79.23613,29.04271,79.24579,29.04978],"properties":{"ward":4,"name":"Rajkiya Inter College Ward"},"geometry":{"type":"Polygon","coordinates":[[[79.24529,29.04362],[79.23613,29.04271],[79.23628,29.0434],[79.23701,29.0443],[79.23855,29.04559],[79.24003,29.04656],[79.23737,29.04825],[79.23862,29.04978],[79.24579,29.04405],[79.24529,29.04362]]]}},{"type":"Feature","bbox":[79.2402,29.04749,79.25537,29.05763],"properties":{"ward":5,"name":"Adarsh Colony"},"geometry":{"type":"Polygon","coordinates":[[[79.24105,29.04936],[79.24104,29.04958],[79.24333,29.05179],[79.24385,29.05248],[79.2443,29.05224],[79.24425,29.05264],[79.24535,29.05221],[79.24582,29.05355],[79.24663,29.05352],[79.24666,29.05419],[79.2489,29.0541],[79.25045,29.05759],[79.2507,29.05763],[79.25095,29.05531],[79.25216,29.05466],[79.25203,29.0545],[79.25262,29.05398],[79.2529,29.05425],[79.25537,29.05252],[79.25229,29.0496],[79.25163,29.05035],[79.24779,29.05005],[79.24665,29.0495],[79.24655,29.04957],[79.24634,29.04928],[79.24534,29.04869],[79.24408,29.0482],[79.2419,29.04775],[79.24158,29.04749],[79.2402,29.04863],[79.24105,29.04936]]]}},{"type":"Feature","bbox":[79.24161,29.04491,79.24971,29.05022],"properties":{"ward":6,"name":"Avas Vikas"},"geometry":{"type":"Polygon","coordinates":[[[79.24478,29.04491],[79.24161,29.04748],[79.24192,29.04774],[79.24412,29.04817],[79.24535,29.04869],[79.24636,29.04927],[79.24654,29.04954],[79.24745,29.04995],[79.24971,29.05022],[79.24478,29.04491]]]}},{"type":"Feature","bbox":[79.24481,29.04374,79.24851,29.04679],"properties":{"ward":7,"name":"Shiv Mandir Ward"},"geometry":{"type":"Polygon","coordinates":[[[79.24632,29.04374],[79.24481,29.0449],[79.2466,29.04679],[79.24851,29.04547],[79.24815,29.04483],[79.24689,29.04542],[79.24665,29.0443],[79.24632,29.04374]]]}},{"type":"Feature","bbox":[79.24663,29.04548,79.25318,29.05029],"properties":{"ward":8,"name":"Islam Nagar Ward"},"geometry":{"type":"Polygon","coordinates":[[[79.24663,29.04682],[79.24978,29.0502],[79.25163,29.05029],[79.25318,29.04856],[79.25207,29.04804],[79.25033,29.04675],[79.24965,29.04603],[79.24897,29.04589],[79.24855,29.04548],[79.24663,29.04682]]]}},{"type":"Feature","bbox":[79.24809,29.0424,79.25602,29.0522],"properties":{"ward":9,"name":"Punjabi Colony"},"geometry":{"type":"Polygon","coordinates":[[[79.25516,29.0522],[79.25493,29.04914],[79.25602,29.04748],[79.25571,29.0465],[79.25555,29.0443],[79.25431,29.04444],[79.25373,29.04352],[79.25318,29.04356],[79.25256,29.04286],[79.25204,29.04284],[79.25121,29.0424],[79.24999,29.04336],[79.24845,29.04411],[79.24809,29.04447],[79.24819,29.04493],[79.24898,29.04587],[79.24967,29.04601],[79.25025,29.04666],[79.25201,29.04796],[79.25323,29.04854],[79.25232,29.04959],[79.25516,29.0522]]]}},{"type":"Feature","bbox":[79.24635,29.04093,79.2512,29.04536],"properties":{"ward":10,"name":"Azad Nagar Ward"},"geometry":{"type":"Polygon","coordinates":[[[79.24978,29.04093],[79.24635,29.04369],[79.24667,29.04427],[79.24689,29.04536],[79.24811,29.0448],[79.24807,29.04446],[79.24829,29.04419],[79.24999,29.04332],[79.2512,29.04238],[79.24978,29.04093]]]}},{"type":"Feature","bbox":[79.2498,29.03663,79.25826,29.04442],"properties":{"ward":11,"name":"Pashu Chikitsalaya Ward"},"geometry":{"type":"Polygon","coordinates":[[[79.25522,29.03663],[79.2498,29.04091],[79.25124,29.04236],[79.25213,29.04284],[79.25257,29.04285],[79.25316,29.04351],[79.25378,29.04351],[79.25432,29.04442],[79.25555,29.04427],[79.25551,29.04345],[79.25769,29.0424],[79.25826,29.04164],[79.25819,29.04076],[79.25696,29.03843],[79.25522,29.03663]]]}}]}