{"type":"FeatureCollection","features":[{"type":"Feature","bbox":[78.60537,29.80461,78.60909,29.80658],"properties":{"ward":1,"name":"Dhaniram Bazar Dugadda"},"geometry":{"type":"Polygon","coordinates":[[[78.609,29.80536],[78.6078,29.80564],[78.60537,29.80461],[78.60643,29.80594],[78.60721,29.80658],[78.60778,29.80649],[78.60909,29.80548],[78.609,29.80536]]]}},{"type":"Feature","bbox":[78.60896,29.80484,78.6133,29.80753],"properties":{"ward":2,"name":"Kamla Nehru Marg Dugadda"},"geometry":{"type":"Polygon","coordinates":[[[78.60918,29.80543],[78.60935,29.80575],[78.60897,29.80629],[78.60896,29.80654],[78.60987,29.80701],[78.6102,29.80743],[78.6109,29.8073],[78.61121,29.80752],[78.61303,29.80753],[78.6133,29.80741],[78.61268,29.80593],[78.6122,29.80525],[78.61187,29.80503],[78.61114,29.80484],[78.61054,29.80487],[78.60918,29.80543]]]}},{"type":"Feature","bbox":[78.60778,29.80548,78.60935,29.80669],"properties":{"ward":3,"name":"Moti Bazar Dugadda"},"geometry":{"type":"Polygon","coordinates":[[[78.60909,29.80548],[78.60853,29.8059],[78.60778,29.80649],[78.60882,29.80669],[78.60935,29.80575],[78.60934,29.80558],[78.60909,29.80548]]]}},{"type":"Feature","bbox":[78.60712,29.80649,78.6102,29.80851],"properties":{"ward":4,"name":"Subhash Bazar Dugadda"},"geometry":{"type":"Polygon","coordinates":[[[78.6102,29.80743],[78.60987,29.80701],[78.60896,29.80654],[78.6086,29.80669],[78.60778,29.80649],[78.60712,29.80678],[78.60715,29.80817],[78.60756,29.80847],[78.60806,29.80851],[78.61004,29.80807],[78.61005,29.8076],[78.6102,29.80743]]]}}]}