{"type":"FeatureCollection","features":[{"type":"Feature","bbox":[77.0351,27.20659,77.0386,27.21278],"properties":{"ward":1},"geometry":{"type":"Polygon","coordinates":[[[77.03517,27.20792],[77.0351,27.20851],[77.03568,27.20928],[77.03623,27.21153],[77.03681,27.21251],[77.03729,27.21278],[77.0386,27.21239],[77.03747,27.20659],[77.03517,27.20792]]]}},{"type":"Feature","bbox":[77.03451,27.20432,77.03746,27.20791],"properties":{"ward":2},"geometry":{"type":"Polygon","coordinates":[[[77.03456,27.2049],[77.03492,27.20518],[77.03451,27.20597],[77.03511,27.20791],[77.03746,27.20659],[77.03696,27.20445],[77.03545,27.20466],[77.03538,27.20432],[77.03456,27.2049]]]}},{"type":"Feature","bbox":[77.03635,27.20103,77.03831,27.20442],"properties":{"ward":3},"geometry":{"type":"Polygon","coordinates":[[[77.03699,27.20442],[77.03831,27.20414],[77.03771,27.20124],[77.03735,27.20128],[77.03727,27.20103],[77.03635,27.20117],[77.03699,27.20442]]]}},{"type":"Feature","bbox":[77.03503,27.20224,77.03696,27.20465],"properties":{"ward":4},"geometry":{"type":"Polygon","coordinates":[[[77.03546,27.20465],[77.03696,27.20442],[77.03653,27.20224],[77.03503,27.20244],[77.03546,27.20465]]]}},{"type":"Feature","bbox":[77.03255,27.20298,77.03537,27.2049],"properties":{"ward":5},"geometry":{"type":"Polygon","coordinates":[[[77.03359,27.20417],[77.03452,27.2049],[77.03537,27.2043],[77.03512,27.20298],[77.03255,27.20376],[77.03359,27.20417]]]}},{"type":"Feature","bbox":[77.03204,27.20251,77.03422,27.20375],"properties":{"ward":6},"geometry":{"type":"Polygon","coordinates":[[[77.03204,27.20322],[77.03254,27.20375],[77.03422,27.20323],[77.03401,27.20279],[77.03372,27.20283],[77.03363,27.20251],[77.03265,27.20281],[77.03204,27.20322]]]}},{"type":"Feature","bbox":[77.03324,27.20135,77.03445,27.20323],"properties":{"ward":7},"geometry":{"type":"Polygon","coordinates":[[[77.03422,27.20323],[77.03434,27.20317],[77.03424,27.20243],[77.03445,27.20228],[77.03427,27.20135],[77.03347,27.20149],[77.03324,27.20163],[77.03346,27.20239],[77.03362,27.2024],[77.03372,27.20282],[77.03402,27.20278],[77.03422,27.20323]]]}},{"type":"Feature","bbox":[77.03148,27.20166,77.03361,27.20318],"properties":{"ward":8},"geometry":{"type":"Polygon","coordinates":[[[77.03148,27.20212],[77.03206,27.20318],[77.03276,27.20275],[77.03361,27.2025],[77.03344,27.20238],[77.03324,27.20166],[77.03148,27.20212]]]}},{"type":"Feature","bbox":[77.03093,27.19983,77.03453,27.20211],"properties":{"ward":9},"geometry":{"type":"Polygon","coordinates":[[[77.03145,27.20211],[77.03425,27.20133],[77.03453,27.20094],[77.03363,27.20097],[77.03354,27.20043],[77.03283,27.19983],[77.03147,27.19991],[77.03114,27.20011],[77.031,27.20049],[77.03093,27.20144],[77.0311,27.20193],[77.03145,27.20211]]]}},{"type":"Feature","bbox":[77.03287,27.19991,77.03631,27.2014],"properties":{"ward":10},"geometry":{"type":"Polygon","coordinates":[[[77.03429,27.2014],[77.03631,27.20114],[77.03625,27.2002],[77.03287,27.19991],[77.03356,27.20042],[77.03365,27.20093],[77.03452,27.2009],[77.03429,27.2014]]]}},{"type":"Feature","bbox":[77.03425,27.2014,77.03509,27.20317],"properties":{"ward":11},"geometry":{"type":"Polygon","coordinates":[[[77.03437,27.20317],[77.03509,27.20295],[77.03479,27.2014],[77.03425,27.20147],[77.03447,27.20229],[77.03425,27.20245],[77.03437,27.20317]]]}},{"type":"Feature","bbox":[77.03482,27.20117,77.03655,27.20244],"properties":{"ward":12},"geometry":{"type":"Polygon","coordinates":[[[77.03499,27.20244],[77.03655,27.20221],[77.03632,27.20117],[77.03482,27.20142],[77.03499,27.20244]]]}},{"type":"Feature","bbox":[77.03632,27.2003,77.0388,27.2025],"properties":{"ward":13},"geometry":{"type":"Polygon","coordinates":[[[77.03633,27.20115],[77.03727,27.20102],[77.03736,27.20127],[77.03771,27.20123],[77.03804,27.2025],[77.0388,27.20246],[77.03845,27.2004],[77.03632,27.2003],[77.03633,27.20115]]]}},{"type":"Feature","bbox":[77.03847,27.20041,77.03993,27.20246],"properties":{"ward":14},"geometry":{"type":"Polygon","coordinates":[[[77.03847,27.20041],[77.03882,27.20246],[77.03993,27.20227],[77.03945,27.20119],[77.03981,27.20079],[77.03964,27.2005],[77.03847,27.20041]]]}},{"type":"Feature","bbox":[77.03799,27.20243,77.03961,27.20424],"properties":{"ward":15},"geometry":{"type":"Polygon","coordinates":[[[77.03799,27.20252],[77.03835,27.20424],[77.03954,27.20397],[77.03939,27.20357],[77.03961,27.2035],[77.03913,27.20243],[77.03799,27.20252]]]}},{"type":"Feature","bbox":[77.03836,27.20238,77.04067,27.20499],"properties":{"ward":16},"geometry":{"type":"Polygon","coordinates":[[[77.03866,27.20499],[77.04067,27.20418],[77.03955,27.20238],[77.03915,27.20242],[77.03962,27.2035],[77.03941,27.20357],[77.03955,27.20397],[77.03836,27.20425],[77.03866,27.20499]]]}},{"type":"Feature","bbox":[77.03958,27.2019,77.04315,27.20404],"properties":{"ward":17},"geometry":{"type":"Polygon","coordinates":[[[77.03958,27.20237],[77.04064,27.20404],[77.04315,27.20317],[77.04277,27.2019],[77.03958,27.20237]]]}},{"type":"Feature","bbox":[77.03949,27.2005,77.04319,27.20228],"properties":{"ward":18},"geometry":{"type":"Polygon","coordinates":[[[77.03996,27.20228],[77.04265,27.2019],[77.04319,27.20119],[77.04318,27.20082],[77.04142,27.2005],[77.03968,27.20051],[77.03984,27.20078],[77.03949,27.20119],[77.03996,27.20228]]]}},{"type":"Feature","bbox":[77.04285,27.20078,77.04717,27.20542],"properties":{"ward":19},"geometry":{"type":"Polygon","coordinates":[[[77.0432,27.20078],[77.04323,27.20116],[77.04285,27.20172],[77.04291,27.20221],[77.04326,27.20345],[77.0443,27.20542],[77.04692,27.20405],[77.04717,27.20372],[77.04566,27.201],[77.0432,27.20078]]]}},{"type":"Feature","bbox":[77.04276,27.20379,77.04752,27.21089],"properties":{"ward":20},"geometry":{"type":"Polygon","coordinates":[[[77.04385,27.21083],[77.04461,27.21089],[77.04658,27.21032],[77.04752,27.20957],[77.04725,27.20783],[77.04734,27.20734],[77.04693,27.20588],[77.04732,27.20423],[77.04719,27.20379],[77.04436,27.20547],[77.04557,27.20767],[77.04276,27.20928],[77.04385,27.21083]]]}},{"type":"Feature","bbox":[77.0415,27.20323,77.04422,27.20609],"properties":{"ward":21},"geometry":{"type":"Polygon","coordinates":[[[77.0415,27.20379],[77.04297,27.20609],[77.04422,27.20547],[77.04315,27.20323],[77.0415,27.20379]]]}},{"type":"Feature","bbox":[77.04062,27.20378,77.04278,27.20637],"properties":{"ward":22},"geometry":{"type":"Polygon","coordinates":[[[77.04062,27.20406],[77.04182,27.20637],[77.04278,27.20586],[77.04145,27.20378],[77.04062,27.20406]]]}},{"type":"Feature","bbox":[77.04183,27.20547,77.04552,27.20875],"properties":{"ward":23},"geometry":{"type":"Polygon","coordinates":[[[77.04361,27.20875],[77.04552,27.20766],[77.04434,27.20547],[77.04297,27.20611],[77.0428,27.20587],[77.04183,27.20638],[77.04361,27.20875]]]}},{"type":"Feature","bbox":[77.03866,27.2042,77.04356,27.20921],"properties":{"ward":24},"geometry":{"type":"Polygon","coordinates":[[[77.03866,27.20501],[77.04269,27.20921],[77.04356,27.20871],[77.04177,27.20636],[77.04066,27.2042],[77.03866,27.20501]]]}},{"type":"Feature","bbox":[77.03698,27.20415,77.04381,27.21235],"properties":{"ward":25},"geometry":{"type":"Polygon","coordinates":[[[77.03698,27.20445],[77.03868,27.21235],[77.04045,27.21204],[77.04277,27.21103],[77.04381,27.21085],[77.04266,27.20922],[77.03866,27.20503],[77.03831,27.20415],[77.03698,27.20445]]]}}]}