{"type":"FeatureCollection","features":[{"type":"Feature","bbox":[76.27605,27.89476,76.29648,27.91392],"properties":{"ward":1},"geometry":{"type":"Polygon","coordinates":[[[76.28673,27.89955],[76.28597,27.89745],[76.28494,27.8957],[76.28471,27.89501],[76.28404,27.89508],[76.28366,27.89476],[76.28209,27.89478],[76.28198,27.89579],[76.28011,27.89667],[76.27605,27.90083],[76.27639,27.90207],[76.27679,27.90247],[76.27933,27.90821],[76.27954,27.91004],[76.28163,27.91025],[76.283,27.91017],[76.2905,27.91171],[76.29477,27.9122],[76.29519,27.91294],[76.29581,27.91316],[76.29614,27.91391],[76.29636,27.91392],[76.29648,27.91384],[76.29594,27.91279],[76.29434,27.91038],[76.2925,27.90655],[76.29192,27.90627],[76.29047,27.90387],[76.28999,27.9036],[76.28929,27.90251],[76.28878,27.90213],[76.2881,27.90073],[76.28673,27.89955]]]}},{"type":"Feature","bbox":[76.26706,27.8914,76.2821,27.90083],"properties":{"ward":2},"geometry":{"type":"Polygon","coordinates":[[[76.28198,27.89578],[76.2821,27.89477],[76.28169,27.8945],[76.28049,27.89148],[76.28031,27.8914],[76.27583,27.89327],[76.27313,27.89407],[76.2703,27.89532],[76.26706,27.89632],[76.26719,27.89659],[76.26931,27.89595],[76.27024,27.89758],[76.27136,27.89813],[76.27167,27.8981],[76.27269,27.89877],[76.27296,27.89912],[76.27421,27.89932],[76.27533,27.89907],[76.27604,27.90083],[76.28012,27.89666],[76.28198,27.89578]]]}},{"type":"Feature","bbox":[76.26084,27.88525,76.27984,27.89638],"properties":{"ward":3},"geometry":{"type":"Polygon","coordinates":[[[76.27778,27.88971],[76.27984,27.88913],[76.27935,27.88726],[76.27797,27.8875],[76.27747,27.88704],[76.27544,27.88648],[76.27395,27.88639],[76.27216,27.88592],[76.26874,27.8854],[76.26506,27.88551],[76.26324,27.8853],[76.26084,27.88525],[76.26255,27.88926],[76.26233,27.88953],[76.26176,27.88974],[76.26279,27.89125],[76.26295,27.8922],[76.26396,27.89429],[76.26414,27.89516],[76.26316,27.89553],[76.26347,27.89638],[76.26661,27.89565],[76.26706,27.89632],[76.27031,27.89533],[76.27314,27.89409],[76.27429,27.89383],[76.27614,27.89314],[76.27524,27.89093],[76.27778,27.88971]]]}},{"type":"Feature","bbox":[76.27621,27.88587,76.27935,27.8875],"properties":{"ward":4},"geometry":{"type":"Polygon","coordinates":[[[76.27621,27.88667],[76.27747,27.88704],[76.27798,27.8875],[76.27935,27.88726],[76.27923,27.88607],[76.27907,27.88587],[76.27844,27.88592],[76.2772,27.88643],[76.27625,27.88643],[76.27621,27.88667]]]}},{"type":"Feature","bbox":[76.26061,27.88125,76.27984,27.88726],"properties":{"ward":5},"geometry":{"type":"Polygon","coordinates":[[[76.27923,27.88607],[76.27935,27.88726],[76.27984,27.88718],[76.27966,27.88696],[76.27953,27.88539],[76.27929,27.88499],[76.27905,27.88507],[76.27838,27.88378],[76.27744,27.88428],[76.27754,27.88457],[76.27707,27.88474],[76.27673,27.88444],[76.27623,27.88438],[76.27543,27.88394],[76.27523,27.88409],[76.27451,27.88298],[76.27374,27.88215],[76.2731,27.88241],[76.27296,27.88222],[76.27237,27.88247],[76.27206,27.88157],[76.27175,27.88125],[76.2708,27.88154],[76.26979,27.88148],[76.26827,27.88175],[76.26557,27.88267],[76.26524,27.88227],[76.26412,27.88258],[76.26398,27.88249],[76.26122,27.8835],[76.2615,27.88453],[76.26065,27.88448],[76.26061,27.88469],[76.26084,27.88526],[76.26326,27.88527],[76.2651,27.88553],[76.26877,27.88538],[76.27216,27.8859],[76.27395,27.88639],[76.27489,27.8864],[76.2762,27.88666],[76.27624,27.88642],[76.2772,27.88642],[76.27844,27.88591],[76.27907,27.88586],[76.27923,27.88607]]]}},{"type":"Feature","bbox":[76.25837,27.87426,76.27757,27.88473],"properties":{"ward":6},"geometry":{"type":"Polygon","coordinates":[[[76.26885,27.87426],[76.269,27.87464],[76.26889,27.8749],[76.26589,27.87602],[76.2655,27.87591],[76.26467,27.87485],[76.26427,27.87474],[76.26224,27.87536],[76.26175,27.87576],[76.26224,27.87718],[76.26105,27.87804],[76.2595,27.87789],[76.25837,27.87813],[76.25848,27.87869],[76.25886,27.87938],[76.25923,27.87944],[76.26065,27.88154],[76.26119,27.88349],[76.2622,27.88303],[76.26403,27.88249],[76.26524,27.88227],[76.26556,27.88265],[76.26826,27.88172],[76.26976,27.88145],[76.27056,27.88142],[76.2708,27.88154],[76.27174,27.88125],[76.27206,27.88159],[76.27238,27.88246],[76.27299,27.88221],[76.27311,27.8824],[76.27374,27.88214],[76.27522,27.88408],[76.27544,27.88395],[76.27623,27.88437],[76.27676,27.88445],[76.27707,27.88473],[76.27754,27.88455],[76.27757,27.88443],[76.27683,27.88359],[76.27659,27.88214],[76.2756,27.88075],[76.27404,27.87986],[76.27229,27.8782],[76.27188,27.8782],[76.27145,27.8773],[76.2693,27.87462],[76.26885,27.87426]]]}},{"type":"Feature","bbox":[76.2685,27.87071,76.28328,27.88789],"properties":{"ward":7},"geometry":{"type":"Polygon","coordinates":[[[76.27953,27.8854],[76.27967,27.88696],[76.27985,27.88718],[76.27937,27.88727],[76.27953,27.88789],[76.28038,27.88776],[76.28024,27.88717],[76.28142,27.88711],[76.28141,27.88639],[76.28218,27.88591],[76.2831,27.88587],[76.28273,27.88451],[76.28306,27.88441],[76.28299,27.88424],[76.28328,27.88414],[76.28282,27.88242],[76.2832,27.88212],[76.28257,27.88029],[76.27368,27.87142],[76.27316,27.87167],[76.27258,27.8718],[76.27232,27.87165],[76.27144,27.87198],[76.27122,27.87188],[76.27065,27.87078],[76.27035,27.87071],[76.26994,27.87092],[76.26995,27.87192],[76.26967,27.87261],[76.2685,27.87295],[76.26885,27.87425],[76.27165,27.87754],[76.27191,27.87821],[76.2723,27.87823],[76.27403,27.87989],[76.27561,27.88076],[76.2759,27.88108],[76.27661,27.88216],[76.27683,27.88361],[76.27729,27.88413],[76.27744,27.88427],[76.27838,27.88377],[76.27906,27.88508],[76.27928,27.88498],[76.27953,27.8854]]]}},{"type":"Feature","bbox":[76.27952,27.88775,76.28097,27.88927],"properties":{"ward":8},"geometry":{"type":"Polygon","coordinates":[[[76.28001,27.88927],[76.28082,27.88908],[76.28081,27.88864],[76.28097,27.88862],[76.28059,27.88775],[76.27952,27.88789],[76.27984,27.88914],[76.28001,27.88927]]]}},{"type":"Feature","bbox":[76.27526,27.88914,76.28243,27.89314],"properties":{"ward":9},"geometry":{"type":"Polygon","coordinates":[[[76.27612,27.89314],[76.28098,27.89117],[76.28145,27.89029],[76.28243,27.89029],[76.28195,27.88922],[76.28106,27.8893],[76.28052,27.88916],[76.28001,27.88927],[76.27984,27.88914],[76.27864,27.88945],[76.27526,27.89095],[76.27612,27.89314]]]}},{"type":"Feature","bbox":[76.28046,27.89029,76.28284,27.8927],"properties":{"ward":10},"geometry":{"type":"Polygon","coordinates":[[[76.28097,27.89118],[76.28046,27.89143],[76.28094,27.89256],[76.28136,27.8925],[76.28183,27.8927],[76.28284,27.89218],[76.28223,27.89043],[76.28241,27.89029],[76.28146,27.89029],[76.28097,27.89118]]]}},{"type":"Feature","bbox":[76.28094,27.89214,76.28472,27.89508],"properties":{"ward":11},"geometry":{"type":"Polygon","coordinates":[[[76.28404,27.89508],[76.28472,27.89501],[76.28468,27.89456],[76.28422,27.89365],[76.28299,27.89214],[76.28183,27.8927],[76.28136,27.8925],[76.28094,27.89256],[76.28169,27.89449],[76.28211,27.89477],[76.28366,27.89476],[76.28404,27.89508]]]}},{"type":"Feature","bbox":[76.283,27.89102,76.2869,27.89743],"properties":{"ward":12},"geometry":{"type":"Polygon","coordinates":[[[76.28495,27.89571],[76.28597,27.89743],[76.2869,27.89692],[76.28617,27.89565],[76.2864,27.89543],[76.28531,27.89323],[76.28476,27.89221],[76.28375,27.89102],[76.283,27.89214],[76.28423,27.89365],[76.28469,27.89457],[76.28495,27.89571]]]}},{"type":"Feature","bbox":[76.28404,27.89117,76.28841,27.89456],"properties":{"ward":13},"geometry":{"type":"Polygon","coordinates":[[[76.28404,27.89128],[76.2848,27.89222],[76.28599,27.89456],[76.28656,27.8944],[76.28841,27.89334],[76.2882,27.89282],[76.28775,27.89297],[76.28745,27.89243],[76.28654,27.89278],[76.28572,27.89117],[76.28474,27.89152],[76.28404,27.89128]]]}},{"type":"Feature","bbox":[76.28375,27.8891,76.28787,27.89277],"properties":{"ward":14},"geometry":{"type":"Polygon","coordinates":[[[76.28582,27.88919],[76.28524,27.88943],[76.28519,27.89005],[76.28468,27.89077],[76.28375,27.89071],[76.28375,27.89102],[76.28403,27.89127],[76.28475,27.89151],[76.28572,27.89116],[76.28654,27.89277],[76.28787,27.89222],[76.28703,27.8911],[76.28623,27.88928],[76.28576,27.8891],[76.28582,27.88919]]]}},{"type":"Feature","bbox":[76.28313,27.88866,76.28527,27.89077],"properties":{"ward":15},"geometry":{"type":"Polygon","coordinates":[[[76.28374,27.89073],[76.2847,27.89077],[76.28527,27.88978],[76.28523,27.88943],[76.28438,27.88967],[76.2842,27.88866],[76.28313,27.88923],[76.2837,27.89022],[76.28374,27.89073]]]}},{"type":"Feature","bbox":[76.28195,27.8892,76.28377,27.89217],"properties":{"ward":16},"geometry":{"type":"Polygon","coordinates":[[[76.28223,27.89044],[76.28284,27.89217],[76.283,27.89215],[76.28377,27.89094],[76.28369,27.89021],[76.28313,27.88924],[76.28195,27.8892],[76.28251,27.89023],[76.28223,27.89044]]]}},{"type":"Feature","bbox":[76.28055,27.88816,76.28337,27.88928],"properties":{"ward":17},"geometry":{"type":"Polygon","coordinates":[[[76.28109,27.88928],[76.28301,27.88926],[76.28337,27.88911],[76.28304,27.88816],[76.28093,27.88847],[76.28089,27.88901],[76.28055,27.88916],[76.28109,27.88928]]]}},{"type":"Feature","bbox":[76.28025,27.88584,76.28345,27.88847],"properties":{"ward":18},"geometry":{"type":"Polygon","coordinates":[[[76.28039,27.88778],[76.28059,27.88775],[76.2809,27.88847],[76.28302,27.88817],[76.28321,27.88624],[76.28345,27.88609],[76.28302,27.88584],[76.28219,27.88592],[76.28143,27.88639],[76.28143,27.88712],[76.28025,27.88718],[76.28039,27.88778]]]}},{"type":"Feature","bbox":[76.28296,27.88739,76.28582,27.88966],"properties":{"ward":19},"geometry":{"type":"Polygon","coordinates":[[[76.28439,27.88966],[76.28582,27.88918],[76.28534,27.88893],[76.28464,27.88773],[76.28416,27.88769],[76.28398,27.8874],[76.28317,27.88739],[76.28312,27.88799],[76.28296,27.88806],[76.28341,27.88904],[76.2842,27.88864],[76.28439,27.88966]]]}},{"type":"Feature","bbox":[76.28492,27.88759,76.28985,27.89225],"properties":{"ward":20},"geometry":{"type":"Polygon","coordinates":[[[76.28927,27.89014],[76.28955,27.88982],[76.28985,27.88976],[76.28948,27.88795],[76.28784,27.88759],[76.28492,27.88835],[76.28533,27.88893],[76.28625,27.88927],[76.28704,27.8911],[76.28788,27.89225],[76.28858,27.892],[76.28795,27.89073],[76.28766,27.8894],[76.28844,27.88943],[76.28927,27.89014]]]}},{"type":"Feature","bbox":[76.28744,27.88942,76.29069,27.89334],"properties":{"ward":21},"geometry":{"type":"Polygon","coordinates":[[[76.28844,27.89334],[76.29069,27.89263],[76.28987,27.89061],[76.28863,27.88954],[76.28768,27.88942],[76.28794,27.89072],[76.2886,27.89198],[76.28744,27.89241],[76.28776,27.89295],[76.28821,27.8928],[76.28844,27.89334]]]}},{"type":"Feature","bbox":[76.28927,27.88796,76.29393,27.89264],"properties":{"ward":22},"geometry":{"type":"Polygon","coordinates":[[[76.29062,27.88819],[76.28949,27.88796],[76.28985,27.88976],[76.28956,27.88982],[76.28927,27.89014],[76.28987,27.8906],[76.29069,27.89264],[76.29393,27.89153],[76.29062,27.88819]]]}},{"type":"Feature","bbox":[76.28503,27.88532,76.29063,27.88823],"properties":{"ward":23},"geometry":{"type":"Polygon","coordinates":[[[76.29063,27.88818],[76.28791,27.88532],[76.28628,27.88595],[76.28652,27.88656],[76.28503,27.88704],[76.28522,27.88738],[76.28531,27.88823],[76.28783,27.8876],[76.29063,27.88818]]]}},{"type":"Feature","bbox":[76.28319,27.88394,76.28791,27.88834],"properties":{"ward":24},"geometry":{"type":"Polygon","coordinates":[[[76.2853,27.88824],[76.28521,27.88738],[76.28501,27.88703],[76.2865,27.88655],[76.28628,27.88594],[76.28791,27.88532],[76.28659,27.88394],[76.28459,27.88555],[76.28321,27.88625],[76.28319,27.88739],[76.284,27.88741],[76.28418,27.88769],[76.28462,27.88773],[76.28491,27.88834],[76.2853,27.88824]]]}},{"type":"Feature","bbox":[76.27367,27.86777,76.29573,27.88608],"properties":{"ward":25},"geometry":{"type":"Polygon","coordinates":[[[76.27367,27.87142],[76.28257,27.88028],[76.28322,27.88212],[76.28284,27.88241],[76.28329,27.88415],[76.28301,27.88425],[76.28307,27.88443],[76.28274,27.88453],[76.2831,27.88586],[76.28345,27.88608],[76.28467,27.88551],[76.28653,27.884],[76.28604,27.88344],[76.288,27.88146],[76.2885,27.88116],[76.28841,27.88041],[76.2886,27.8795],[76.28912,27.87839],[76.28958,27.87781],[76.28997,27.87759],[76.29152,27.87599],[76.29287,27.8754],[76.29308,27.87498],[76.29569,27.87398],[76.29573,27.87375],[76.29406,27.87135],[76.29438,27.87088],[76.29447,27.87042],[76.294,27.8691],[76.29414,27.86865],[76.29384,27.86777],[76.29249,27.86789],[76.29228,27.86807],[76.29241,27.86931],[76.29224,27.86947],[76.29084,27.86955],[76.29012,27.86808],[76.28534,27.86931],[76.28509,27.86885],[76.28483,27.86878],[76.28285,27.86906],[76.28271,27.86882],[76.27782,27.87024],[76.27749,27.86995],[76.27727,27.87027],[76.27684,27.87036],[76.27653,27.8703],[76.27637,27.86998],[76.27367,27.87142]]]}},{"type":"Feature","bbox":[76.28611,27.86757,76.31775,27.88817],"properties":{"ward":27},"geometry":{"type":"Polygon","coordinates":[[[76.29636,27.88798],[76.29608,27.88672],[76.29658,27.88657],[76.30319,27.88562],[76.30579,27.88477],[76.30642,27.88469],[76.3069,27.88486],[76.30715,27.88513],[76.30983,27.88465],[76.31406,27.88306],[76.31541,27.88224],[76.31675,27.88162],[76.31775,27.88135],[76.31764,27.88103],[76.31563,27.88156],[76.31526,27.88108],[76.31432,27.88143],[76.31379,27.88096],[76.31254,27.88139],[76.31172,27.88042],[76.30857,27.88129],[76.30723,27.87715],[76.30671,27.87704],[76.30589,27.87601],[76.30433,27.87667],[76.30384,27.87568],[76.30202,27.87432],[76.30148,27.87412],[76.30084,27.87422],[76.29938,27.87196],[76.29919,27.87188],[76.29809,27.87235],[76.29603,27.86891],[76.29599,27.86813],[76.29577,27.86757],[76.29386,27.86778],[76.29414,27.8684],[76.29403,27.86913],[76.29453,27.87042],[76.29414,27.87133],[76.29573,27.87377],[76.29568,27.87404],[76.29309,27.87499],[76.29296,27.8754],[76.29157,27.87601],[76.29007,27.87762],[76.28957,27.87786],[76.28863,27.87958],[76.28847,27.88047],[76.28857,27.88114],[76.28809,27.88144],[76.28611,27.88343],[76.29064,27.88817],[76.29402,27.88778],[76.29636,27.88798]]]}},{"type":"Feature","bbox":[76.29307,27.88135,76.31965,27.88976],"properties":{"ward":28},"geometry":{"type":"Polygon","coordinates":[[[76.29637,27.88796],[76.29307,27.88785],[76.29313,27.88823],[76.29526,27.88799],[76.2955,27.88865],[76.2979,27.8881],[76.29967,27.88821],[76.30006,27.88833],[76.30053,27.88976],[76.30336,27.88898],[76.30437,27.88893],[76.31432,27.88955],[76.31748,27.88927],[76.31965,27.88877],[76.31857,27.88553],[76.31938,27.88505],[76.31938,27.88492],[76.31822,27.88195],[76.31798,27.88201],[76.31774,27.88135],[76.31673,27.88162],[76.3154,27.88224],[76.31405,27.88308],[76.30984,27.88465],[76.30876,27.88473],[76.30747,27.88511],[76.30699,27.88508],[76.30689,27.88486],[76.30641,27.8847],[76.30581,27.88475],[76.30319,27.88563],[76.29762,27.88635],[76.29608,27.88673],[76.29637,27.88796]]]}},{"type":"Feature","bbox":[76.29063,27.88783,76.30054,27.89053],"properties":{"ward":29},"geometry":{"type":"Polygon","coordinates":[[[76.29307,27.88783],[76.29063,27.88817],[76.29298,27.89053],[76.29509,27.88978],[76.2963,27.89009],[76.29772,27.88957],[76.29806,27.89044],[76.30054,27.88975],[76.30006,27.88833],[76.29965,27.8882],[76.2979,27.8881],[76.29551,27.88865],[76.29526,27.88799],[76.29312,27.88823],[76.29307,27.88783]]]}},{"type":"Feature","bbox":[76.29298,27.88891,76.31394,27.90395],"properties":{"ward":30},"geometry":{"type":"Polygon","coordinates":[[[76.29506,27.88978],[76.29298,27.89053],[76.30578,27.90395],[76.30756,27.90348],[76.30767,27.90333],[76.30705,27.90136],[76.30712,27.90105],[76.30688,27.90014],[76.30969,27.89929],[76.30957,27.89782],[76.31107,27.89725],[76.30952,27.89331],[76.30919,27.8931],[76.30831,27.89132],[76.30794,27.88975],[76.30983,27.8899],[76.31394,27.88953],[76.30435,27.88891],[76.30337,27.88897],[76.29807,27.89044],[76.29772,27.88957],[76.2963,27.8901],[76.29506,27.88978]]]}},{"type":"Feature","bbox":[76.29154,27.89153,76.29837,27.89707],"properties":{"ward":31},"geometry":{"type":"Polygon","coordinates":[[[76.29214,27.89222],[76.29271,27.89363],[76.29154,27.8941],[76.29166,27.89447],[76.2918,27.89442],[76.29216,27.89527],[76.29281,27.89499],[76.29302,27.89514],[76.29343,27.89606],[76.2944,27.89576],[76.2953,27.89707],[76.29837,27.89613],[76.29395,27.89153],[76.29214,27.89222]]]}},{"type":"Feature","bbox":[76.28982,27.89221,76.29272,27.89477],"properties":{"ward":32},"geometry":{"type":"Polygon","coordinates":[[[76.29063,27.89477],[76.29166,27.89446],[76.29153,27.89409],[76.29272,27.89363],[76.29215,27.89221],[76.28982,27.8929],[76.29063,27.89477]]]}},{"type":"Feature","bbox":[76.28842,27.89291,76.30157,27.90092],"properties":{"ward":33},"geometry":{"type":"Polygon","coordinates":[[[76.29037,27.89717],[76.29159,27.89675],[76.29245,27.89851],[76.29383,27.89799],[76.29433,27.89939],[76.29519,27.89922],[76.29697,27.90092],[76.30157,27.89948],[76.29836,27.89612],[76.29529,27.89708],[76.29439,27.89576],[76.29343,27.89606],[76.29301,27.89513],[76.29281,27.89499],[76.29217,27.89526],[76.2918,27.89443],[76.29064,27.89475],[76.28981,27.89291],[76.28842,27.89345],[76.29037,27.89717]]]}},{"type":"Feature","bbox":[76.29037,27.89675,76.3066,27.91186],"properties":{"ward":34},"geometry":{"type":"Polygon","coordinates":[[[76.30577,27.90396],[76.30157,27.89948],[76.29694,27.90095],[76.29521,27.89919],[76.29433,27.89938],[76.29382,27.89798],[76.29242,27.89851],[76.2916,27.89675],[76.29037,27.89717],[76.29153,27.89982],[76.29189,27.90031],[76.29493,27.90147],[76.29725,27.90346],[76.29857,27.90487],[76.2988,27.90493],[76.29947,27.90464],[76.29986,27.90506],[76.30282,27.90864],[76.30246,27.90892],[76.3038,27.91186],[76.30608,27.91103],[76.3066,27.91063],[76.30587,27.90745],[76.30465,27.90447],[76.30471,27.90432],[76.30577,27.90396]]]}},{"type":"Feature","bbox":[76.28597,27.89334,76.30383,27.91402],"properties":{"ward":35},"geometry":{"type":"Polygon","coordinates":[[[76.28692,27.89692],[76.28597,27.89744],[76.2864,27.89896],[76.28672,27.89954],[76.28809,27.90074],[76.28879,27.90212],[76.28927,27.90251],[76.29002,27.90361],[76.29044,27.90386],[76.29195,27.90626],[76.29249,27.90654],[76.29434,27.91038],[76.29648,27.91384],[76.29736,27.91367],[76.29784,27.91402],[76.2985,27.91388],[76.29823,27.91323],[76.30068,27.91291],[76.30383,27.91188],[76.30246,27.90891],[76.30281,27.90864],[76.29949,27.90466],[76.29883,27.90493],[76.29858,27.90489],[76.29501,27.90148],[76.29186,27.9004],[76.28839,27.89334],[76.28658,27.89442],[76.28598,27.89458],[76.2864,27.89542],[76.28618,27.89566],[76.28692,27.89692]]]}}]}