{"type":"FeatureCollection","features":[{"type":"Feature","bbox":[73.43416,29.65225,73.44071,29.66551],"properties":{"ward":1},"geometry":{"type":"Polygon","coordinates":[[[73.43418,29.65228],[73.43416,29.66546],[73.44071,29.66551],[73.44064,29.66334],[73.43929,29.66333],[73.43913,29.66188],[73.43985,29.6618],[73.43976,29.66096],[73.43761,29.66105],[73.43692,29.65593],[73.43668,29.65225],[73.43418,29.65228]]]}},{"type":"Feature","bbox":[73.43672,29.65227,73.43959,29.66103],"properties":{"ward":2},"geometry":{"type":"Polygon","coordinates":[[[73.43672,29.65227],[73.43692,29.65528],[73.43762,29.66103],[73.43959,29.66094],[73.43906,29.65705],[73.43813,29.65714],[73.43769,29.65442],[73.43704,29.65229],[73.43672,29.65227]]]}},{"type":"Feature","bbox":[73.43747,29.65377,73.43905,29.65711],"properties":{"ward":3},"geometry":{"type":"MultiPolygon","coordinates":[[[[73.43748,29.65387],[73.43748,29.65387],[73.43747,29.65386],[73.43748,29.65387]]],[[[73.43748,29.65387],[73.43787,29.65501],[73.43815,29.65711],[73.43905,29.65701],[73.43872,29.65377],[73.43748,29.65387]]]]}},{"type":"Feature","bbox":[73.43705,29.65207,73.43872,29.65384],"properties":{"ward":4},"geometry":{"type":"Polygon","coordinates":[[[73.4375,29.65384],[73.43872,29.65377],[73.43862,29.65207],[73.43705,29.65212],[73.4375,29.65384]]]}},{"type":"Feature","bbox":[73.43863,29.65208,73.44066,29.6538],"properties":{"ward":5},"geometry":{"type":"Polygon","coordinates":[[[73.43863,29.65208],[73.43873,29.6538],[73.43971,29.65371],[73.43967,29.65318],[73.44066,29.65313],[73.44061,29.65279],[73.44038,29.65282],[73.44032,29.65209],[73.43863,29.65208]]]}},{"type":"Feature","bbox":[73.43873,29.65371,73.44036,29.65501],"properties":{"ward":6},"geometry":{"type":"Polygon","coordinates":[[[73.43971,29.65371],[73.43873,29.6538],[73.43889,29.65501],[73.44036,29.65488],[73.44027,29.65411],[73.43972,29.65411],[73.43971,29.65371]]]}},{"type":"Feature","bbox":[73.4397,29.65212,73.44278,29.65485],"properties":{"ward":7},"geometry":{"type":"Polygon","coordinates":[[[73.44038,29.65485],[73.44278,29.65465],[73.4427,29.65212],[73.4404,29.65213],[73.44041,29.65277],[73.44067,29.6528],[73.44072,29.65312],[73.4397,29.65322],[73.43976,29.65405],[73.44029,29.65408],[73.44038,29.65485]]]}},{"type":"Feature","bbox":[73.4389,29.65483,73.44111,29.65623],"properties":{"ward":8},"geometry":{"type":"Polygon","coordinates":[[[73.44096,29.65483],[73.4389,29.65502],[73.439,29.65623],[73.44111,29.65603],[73.44096,29.65483]]]}},{"type":"Feature","bbox":[73.441,29.6547,73.44287,29.65601],"properties":{"ward":9},"geometry":{"type":"Polygon","coordinates":[[[73.44287,29.65587],[73.44286,29.65546],[73.44225,29.65551],[73.44216,29.6547],[73.441,29.65483],[73.44112,29.65601],[73.44287,29.65587]]]}},{"type":"Feature","bbox":[73.44223,29.65213,73.45461,29.65692],"properties":{"ward":10},"geometry":{"type":"Polygon","coordinates":[[[73.45461,29.65217],[73.44275,29.65213],[73.44278,29.65466],[73.44223,29.65475],[73.44227,29.65546],[73.44419,29.65533],[73.44434,29.65692],[73.45461,29.65665],[73.45461,29.65217]]]}},{"type":"Feature","bbox":[73.44112,29.65537,73.44432,29.65724],"properties":{"ward":11},"geometry":{"type":"Polygon","coordinates":[[[73.44112,29.65602],[73.44126,29.65724],[73.44432,29.65698],[73.44416,29.65537],[73.44287,29.65546],[73.44291,29.65588],[73.44112,29.65602]]]}},{"type":"Feature","bbox":[73.439,29.65603,73.44127,29.6582],"properties":{"ward":12},"geometry":{"type":"Polygon","coordinates":[[[73.44111,29.65603],[73.439,29.65624],[73.43922,29.6582],[73.43978,29.65815],[73.43973,29.65775],[73.44127,29.65761],[73.44111,29.65603]]]}},{"type":"Feature","bbox":[73.43923,29.65761,73.44141,29.65896],"properties":{"ward":13},"geometry":{"type":"Polygon","coordinates":[[[73.44013,29.65854],[73.44019,29.65896],[73.44141,29.65886],[73.44129,29.65761],[73.43974,29.65775],[73.43979,29.65816],[73.43923,29.65821],[73.43928,29.65861],[73.44013,29.65854]]]}},{"type":"Feature","bbox":[73.44128,29.65667,73.45467,29.65891],"properties":{"ward":14},"geometry":{"type":"MultiPolygon","coordinates":[[[[73.44435,29.65847],[73.44487,29.6586],[73.44473,29.65854],[73.44435,29.65847]]],[[[73.44434,29.65847],[73.44431,29.65845],[73.44449,29.65847],[73.44615,29.65884],[73.45464,29.65891],[73.45467,29.65667],[73.44433,29.65699],[73.44128,29.65727],[73.44137,29.65799],[73.44196,29.65797],[73.44199,29.65835],[73.44376,29.65827],[73.44434,29.65847]]],[[[73.44487,29.6586],[73.44498,29.65865],[73.44509,29.65865],[73.44487,29.6586]]]]}},{"type":"Feature","bbox":[73.44022,29.65796,73.4547,29.66115],"properties":{"ward":15},"geometry":{"type":"Polygon","coordinates":[[[73.44133,29.65805],[73.44141,29.65885],[73.44022,29.65897],[73.44027,29.65948],[73.44084,29.6594],[73.44098,29.6604],[73.44342,29.66017],[73.44357,29.661],[73.4547,29.66115],[73.45467,29.65894],[73.45456,29.65891],[73.44608,29.65886],[73.445,29.65871],[73.4437,29.65828],[73.44199,29.65838],[73.44195,29.65796],[73.44133,29.65805]]]}},{"type":"Feature","bbox":[73.43928,29.65854,73.44096,29.66182],"properties":{"ward":16},"geometry":{"type":"Polygon","coordinates":[[[73.44015,29.65854],[73.43928,29.65861],[73.43985,29.66182],[73.44046,29.66177],[73.44036,29.66046],[73.44096,29.66039],[73.44085,29.65941],[73.44025,29.65948],[73.44015,29.65854]]]}},{"type":"Feature","bbox":[73.44036,29.66018,73.44354,29.66177],"properties":{"ward":17},"geometry":{"type":"Polygon","coordinates":[[[73.44049,29.66177],[73.44293,29.66158],[73.44289,29.66106],[73.44354,29.66103],[73.44341,29.66018],[73.44036,29.66046],[73.44049,29.66177]]]}},{"type":"Feature","bbox":[73.4429,29.66096,73.45462,29.66218],"properties":{"ward":18},"geometry":{"type":"Polygon","coordinates":[[[73.44598,29.66096],[73.4429,29.66107],[73.44295,29.66158],[73.44366,29.6616],[73.44365,29.66214],[73.45459,29.66218],[73.45462,29.66119],[73.44598,29.66096]],[[73.44292,29.66109],[73.44292,29.66109],[73.44294,29.6611],[73.44292,29.66109]]]}},{"type":"Feature","bbox":[73.44349,29.66156,73.45464,29.66567],"properties":{"ward":19},"geometry":{"type":"Polygon","coordinates":[[[73.44349,29.66156],[73.44349,29.66551],[73.4546,29.66567],[73.45464,29.66232],[73.44368,29.66214],[73.44368,29.66161],[73.44349,29.66156]]]}},{"type":"Feature","bbox":[73.43916,29.66155,73.44348,29.66554],"properties":{"ward":20},"geometry":{"type":"Polygon","coordinates":[[[73.44065,29.66333],[73.44073,29.66549],[73.44347,29.66554],[73.44348,29.66155],[73.43916,29.66188],[73.4393,29.6633],[73.44065,29.66333]]]}}]}