{"type":"FeatureCollection","features":[{"type":"Feature","bbox":[76.11694,28.81201,76.13816,28.82109],"properties":{"ward":1},"geometry":{"type":"Polygon","coordinates":[[[76.13816,28.82092],[76.13813,28.81728],[76.13287,28.81732],[76.13285,28.81201],[76.12899,28.81205],[76.12597,28.81748],[76.12247,28.81418],[76.11989,28.81277],[76.11694,28.82086],[76.11706,28.82109],[76.13816,28.82092]]]}},{"type":"Feature","bbox":[76.12904,28.80183,76.14408,28.81732],"properties":{"ward":2},"geometry":{"type":"Polygon","coordinates":[[[76.14408,28.81578],[76.14391,28.806],[76.1435,28.80215],[76.13796,28.80183],[76.13793,28.80396],[76.13333,28.80397],[76.13297,28.80468],[76.13074,28.80465],[76.13212,28.80632],[76.12904,28.81205],[76.13285,28.81201],[76.13287,28.81732],[76.14041,28.81728],[76.14038,28.81582],[76.14408,28.81578]]]}},{"type":"Feature","bbox":[76.13813,28.81203,76.16786,28.82092],"properties":{"ward":3},"geometry":{"type":"Polygon","coordinates":[[[76.16786,28.82066],[76.16362,28.81798],[76.14884,28.81814],[76.14861,28.81703],[76.14857,28.81532],[76.14659,28.81536],[76.14672,28.81203],[76.14406,28.81205],[76.14408,28.81578],[76.14038,28.81582],[76.14041,28.81728],[76.13813,28.81728],[76.13816,28.82092],[76.16786,28.82066]]]}},{"type":"Feature","bbox":[76.1435,28.80215,76.16965,28.82066],"properties":{"ward":4},"geometry":{"type":"Polygon","coordinates":[[[76.16965,28.82064],[76.16955,28.81179],[76.15515,28.80558],[76.15036,28.80623],[76.14847,28.80387],[76.14696,28.80231],[76.1435,28.80215],[76.14391,28.806],[76.14406,28.81205],[76.14672,28.81203],[76.14659,28.81536],[76.14857,28.81532],[76.14861,28.81703],[76.14884,28.81814],[76.16362,28.81798],[76.16786,28.82066],[76.16965,28.82064]]]}},{"type":"Feature","bbox":[76.14224,28.79267,76.16266,28.80662],"properties":{"ward":5},"geometry":{"type":"Polygon","coordinates":[[[76.15756,28.80662],[76.15753,28.80287],[76.15988,28.80345],[76.15983,28.80287],[76.16258,28.80281],[76.16266,28.79641],[76.15741,28.79577],[76.15733,28.79267],[76.15382,28.79451],[76.15161,28.79445],[76.1507,28.79473],[76.15103,28.79519],[76.14922,28.79547],[76.14622,28.79625],[76.14629,28.79726],[76.14437,28.79825],[76.14224,28.7999],[76.14331,28.80214],[76.14696,28.80231],[76.14847,28.80387],[76.15036,28.80623],[76.15515,28.80558],[76.15756,28.80662]]]}},{"type":"Feature","bbox":[76.13489,28.79687,76.14436,28.80214],"properties":{"ward":6},"geometry":{"type":"Polygon","coordinates":[[[76.14331,28.80214],[76.14224,28.7999],[76.14436,28.79826],[76.14391,28.79687],[76.14033,28.79713],[76.13948,28.79765],[76.13538,28.7971],[76.13584,28.79836],[76.13529,28.79902],[76.13548,28.79964],[76.13489,28.80109],[76.13773,28.80182],[76.14331,28.80214]]]}},{"type":"Feature","bbox":[76.13727,28.79428,76.14629,28.79826],"properties":{"ward":7},"geometry":{"type":"Polygon","coordinates":[[[76.14629,28.79726],[76.14606,28.79428],[76.14559,28.79433],[76.14563,28.79486],[76.14426,28.79498],[76.14429,28.79529],[76.14355,28.79533],[76.14267,28.79496],[76.14217,28.79453],[76.14164,28.79469],[76.14099,28.79523],[76.14033,28.79551],[76.13957,28.79554],[76.13823,28.79507],[76.13772,28.79547],[76.13727,28.79738],[76.13948,28.79765],[76.14033,28.79713],[76.14391,28.79687],[76.14436,28.79826],[76.14629,28.79726]]]}},{"type":"Feature","bbox":[76.14144,28.78919,76.15103,28.79625],"properties":{"ward":8},"geometry":{"type":"Polygon","coordinates":[[[76.15042,28.79522],[76.15103,28.79519],[76.14747,28.79059],[76.14536,28.79012],[76.14424,28.78919],[76.1436,28.78951],[76.14165,28.79103],[76.14233,28.79189],[76.14246,28.79233],[76.14201,28.79253],[76.14178,28.79285],[76.14179,28.79329],[76.14144,28.79359],[76.14207,28.79411],[76.14193,28.79425],[76.14212,28.79449],[76.14295,28.79511],[76.14355,28.79533],[76.14429,28.79529],[76.14426,28.79498],[76.14563,28.79486],[76.14559,28.79433],[76.14606,28.79428],[76.14622,28.79625],[76.15042,28.79522]]]}},{"type":"Feature","bbox":[76.14747,28.78784,76.15861,28.79473],"properties":{"ward":9},"geometry":{"type":"Polygon","coordinates":[[[76.15133,28.79453],[76.15382,28.79451],[76.15861,28.79199],[76.15852,28.78784],[76.15282,28.78923],[76.1531,28.78995],[76.15243,28.78997],[76.1524,28.79036],[76.14879,28.79051],[76.1484,28.79035],[76.14747,28.79059],[76.1507,28.79473],[76.15133,28.79453]]]}},{"type":"Feature","bbox":[76.15733,28.7898,76.16945,28.80318],"properties":{"ward":10},"geometry":{"type":"Polygon","coordinates":[[[76.16945,28.80251],[76.16935,28.79352],[76.1627,28.79358],[76.16267,28.7898],[76.15733,28.79267],[76.15741,28.79577],[76.16266,28.79641],[76.16267,28.80116],[76.16527,28.80112],[76.16531,28.80207],[76.16673,28.80294],[76.16676,28.80318],[76.16806,28.80316],[76.16945,28.80251]]]}},{"type":"Feature","bbox":[76.14817,28.77932,76.16935,28.79358],"properties":{"ward":11},"geometry":{"type":"Polygon","coordinates":[[[76.16935,28.79352],[76.16919,28.77932],[76.14832,28.77943],[76.14817,28.77997],[76.14899,28.78229],[76.14866,28.78315],[76.14902,28.78317],[76.15227,28.78143],[76.15245,28.78312],[76.15289,28.78405],[76.15695,28.78257],[76.15696,28.78647],[76.15737,28.78733],[76.15741,28.78804],[76.15852,28.78784],[76.15861,28.79199],[76.16267,28.7898],[76.1627,28.79358],[76.16935,28.79352]]]}},{"type":"Feature","bbox":[76.14868,28.78257,76.15737,28.78975],"properties":{"ward":12},"geometry":{"type":"Polygon","coordinates":[[[76.15733,28.78809],[76.15737,28.78733],[76.15696,28.78647],[76.15695,28.78257],[76.14868,28.78544],[76.14935,28.78633],[76.14887,28.7865],[76.14915,28.78707],[76.1487,28.78724],[76.14888,28.78816],[76.14897,28.78829],[76.15058,28.78808],[76.15057,28.78975],[76.15155,28.78967],[76.15733,28.78809]]]}},{"type":"Feature","bbox":[76.14473,28.77946,76.15289,28.78657],"properties":{"ward":13},"geometry":{"type":"Polygon","coordinates":[[[76.14473,28.78569],[76.14576,28.78657],[76.14729,28.78589],[76.15289,28.78405],[76.15245,28.78312],[76.15227,28.78143],[76.14902,28.78317],[76.14866,28.78315],[76.14899,28.78229],[76.14817,28.77997],[76.14831,28.77946],[76.14523,28.77952],[76.14525,28.78283],[76.14564,28.78283],[76.14561,28.78403],[76.1462,28.78472],[76.14473,28.78569]]]}},{"type":"Feature","bbox":[76.14096,28.77944,76.1462,28.78569],"properties":{"ward":14},"geometry":{"type":"Polygon","coordinates":[[[76.14473,28.78569],[76.1462,28.78472],[76.14561,28.78403],[76.14564,28.78283],[76.14525,28.78283],[76.14523,28.77944],[76.14118,28.77946],[76.14096,28.78284],[76.14157,28.78279],[76.14168,28.78413],[76.14473,28.78569]]]}},{"type":"Feature","bbox":[76.13685,28.77946,76.14168,28.78413],"properties":{"ward":15},"geometry":{"type":"Polygon","coordinates":[[[76.14168,28.78413],[76.14157,28.78279],[76.14096,28.78284],[76.14118,28.77946],[76.13705,28.77948],[76.13704,28.78006],[76.13685,28.78006],[76.13685,28.78115],[76.13707,28.78115],[76.13709,28.78177],[76.13898,28.78167],[76.13807,28.78343],[76.14064,28.78376],[76.14168,28.78413]]]}},{"type":"Feature","bbox":[76.13256,28.77948,76.13898,28.78732],"properties":{"ward":16},"geometry":{"type":"Polygon","coordinates":[[[76.13404,28.78709],[76.13422,28.78732],[76.13477,28.78702],[76.13631,28.7866],[76.1363,28.78623],[76.13665,28.78594],[76.13795,28.78537],[76.13739,28.78446],[76.13639,28.78347],[76.13726,28.78335],[76.13807,28.78343],[76.13898,28.78167],[76.13709,28.78177],[76.13707,28.78115],[76.13685,28.78115],[76.13685,28.78006],[76.13704,28.78006],[76.13705,28.77948],[76.1353,28.7795],[76.13405,28.78048],[76.13423,28.7808],[76.1342,28.78152],[76.13398,28.78153],[76.13399,28.78191],[76.13257,28.78217],[76.13383,28.78474],[76.13301,28.78524],[76.1334,28.786],[76.13256,28.78641],[76.13298,28.78732],[76.13404,28.78709]]]}},{"type":"Feature","bbox":[76.11393,28.77634,76.1353,28.79359],"properties":{"ward":17},"geometry":{"type":"Polygon","coordinates":[[[76.12394,28.79359],[76.12661,28.79356],[76.12807,28.78986],[76.13052,28.79005],[76.13039,28.78905],[76.13374,28.78839],[76.13447,28.78847],[76.13454,28.78876],[76.13496,28.7887],[76.13479,28.78818],[76.13446,28.78794],[76.13413,28.78707],[76.13298,28.78732],[76.13256,28.78641],[76.1334,28.786],[76.13301,28.78524],[76.13383,28.78474],[76.13255,28.78224],[76.13399,28.78191],[76.13398,28.78153],[76.1342,28.78152],[76.13423,28.7808],[76.13405,28.78048],[76.1353,28.7795],[76.13095,28.77948],[76.12924,28.77634],[76.12358,28.77634],[76.12329,28.77962],[76.1211,28.77962],[76.11393,28.78937],[76.11567,28.78921],[76.11705,28.78879],[76.12092,28.7862],[76.12159,28.78493],[76.1221,28.78449],[76.12364,28.78588],[76.12588,28.78656],[76.1235,28.79082],[76.12394,28.79359]]]}},{"type":"Feature","bbox":[76.10826,28.78449,76.12588,28.79929],"properties":{"ward":18},"geometry":{"type":"Polygon","coordinates":[[[76.11447,28.7965],[76.11769,28.79654],[76.11768,28.79602],[76.11805,28.79602],[76.11805,28.79581],[76.1186,28.7958],[76.1186,28.79551],[76.11831,28.79551],[76.1183,28.79469],[76.12391,28.79361],[76.1235,28.79082],[76.12588,28.78656],[76.12364,28.78588],[76.1221,28.78449],[76.12159,28.78493],[76.12092,28.7862],[76.11705,28.78879],[76.11567,28.78921],[76.11393,28.78937],[76.10826,28.79708],[76.10887,28.79929],[76.1145,28.79924],[76.11447,28.7965]]]}},{"type":"Feature","bbox":[76.10887,28.7965,76.11898,28.80915],"properties":{"ward":19},"geometry":{"type":"Polygon","coordinates":[[[76.11848,28.79904],[76.11837,28.7985],[76.11692,28.79864],[76.11685,28.79725],[76.11789,28.79733],[76.11791,28.79654],[76.11447,28.7965],[76.1145,28.79924],[76.10887,28.79929],[76.11051,28.80524],[76.11108,28.80915],[76.11363,28.80825],[76.11661,28.80604],[76.11797,28.80557],[76.11779,28.80481],[76.11852,28.80465],[76.11764,28.80322],[76.11795,28.80308],[76.11782,28.80145],[76.11898,28.80143],[76.11819,28.79917],[76.11848,28.79904]]]}},{"type":"Feature","bbox":[76.11685,28.79363,76.12448,28.80025],"properties":{"ward":20},"geometry":{"type":"Polygon","coordinates":[[[76.12175,28.79877],[76.12205,28.79836],[76.12301,28.79776],[76.1222,28.79671],[76.12199,28.79685],[76.12184,28.79621],[76.12155,28.79623],[76.12154,28.79596],[76.12448,28.79522],[76.12427,28.79363],[76.12211,28.79386],[76.1183,28.79469],[76.11831,28.79551],[76.1186,28.79551],[76.1186,28.7958],[76.11805,28.79581],[76.11805,28.79602],[76.11768,28.79602],[76.11769,28.79654],[76.11791,28.79654],[76.11789,28.79733],[76.11685,28.79725],[76.11692,28.79864],[76.11837,28.7985],[76.11848,28.79904],[76.11818,28.79911],[76.11852,28.80025],[76.12008,28.79981],[76.12001,28.79964],[76.12175,28.79877]]]}},{"type":"Feature","bbox":[76.11108,28.79356,76.12662,28.82086],"properties":{"ward":21},"geometry":{"type":"Polygon","coordinates":[[[76.11694,28.82086],[76.11998,28.8128],[76.12662,28.79356],[76.12427,28.79361],[76.12448,28.79522],[76.12154,28.79596],[76.12155,28.79623],[76.12184,28.79621],[76.12199,28.79685],[76.1222,28.79671],[76.12301,28.79776],[76.12205,28.79836],[76.12175,28.79877],[76.12001,28.79964],[76.12008,28.79981],[76.11851,28.80025],[76.11898,28.80143],[76.11782,28.80145],[76.11795,28.80308],[76.11764,28.80322],[76.11852,28.80465],[76.11779,28.80481],[76.11797,28.80557],[76.11661,28.80604],[76.11363,28.80825],[76.11108,28.80915],[76.11694,28.82086]]]}},{"type":"Feature","bbox":[76.12526,28.78986,76.13234,28.7987],"properties":{"ward":22},"geometry":{"type":"Polygon","coordinates":[[[76.13234,28.79744],[76.1305,28.79005],[76.12807,28.78986],[76.12526,28.79752],[76.12583,28.79759],[76.12756,28.79555],[76.12818,28.79612],[76.12805,28.79625],[76.12846,28.79666],[76.1285,28.79741],[76.12894,28.79737],[76.13005,28.7987],[76.13234,28.79744]]]}},{"type":"Feature","bbox":[76.13051,28.78988,76.13447,28.79746],"properties":{"ward":23},"geometry":{"type":"Polygon","coordinates":[[[76.13332,28.79195],[76.13325,28.79118],[76.13296,28.79125],[76.13266,28.79023],[76.1322,28.79053],[76.13082,28.78988],[76.13051,28.79001],[76.13103,28.79257],[76.13235,28.79746],[76.13395,28.79608],[76.13447,28.79529],[76.13364,28.79397],[76.13392,28.79386],[76.13371,28.79281],[76.13382,28.79275],[76.13332,28.79195]]]}},{"type":"Feature","bbox":[76.13325,28.78939,76.14165,28.79529],"properties":{"ward":24},"geometry":{"type":"Polygon","coordinates":[[[76.1392,28.79197],[76.13887,28.79196],[76.13864,28.79087],[76.13885,28.79084],[76.13935,28.79146],[76.13956,28.7914],[76.13939,28.79086],[76.13996,28.79079],[76.14033,28.79123],[76.14152,28.79076],[76.14144,28.79033],[76.14165,28.79005],[76.14162,28.78961],[76.13737,28.78939],[76.13564,28.7903],[76.13502,28.79035],[76.13325,28.79118],[76.13332,28.79195],[76.13382,28.79275],[76.13371,28.79281],[76.13392,28.79386],[76.13364,28.79397],[76.13448,28.79529],[76.13578,28.7942],[76.1365,28.79326],[76.13925,28.79219],[76.1392,28.79197]]]}},{"type":"Feature","bbox":[76.13039,28.78537,76.14341,28.79125],"properties":{"ward":25},"geometry":{"type":"Polygon","coordinates":[[[76.13502,28.79035],[76.13564,28.7903],[76.13737,28.78939],[76.14162,28.78961],[76.14155,28.78904],[76.14232,28.78882],[76.14341,28.78814],[76.14302,28.78768],[76.14289,28.7872],[76.14078,28.78754],[76.14062,28.78655],[76.13847,28.78678],[76.13795,28.78537],[76.13665,28.78594],[76.1363,28.78623],[76.13631,28.7866],[76.13477,28.78702],[76.13425,28.78731],[76.13446,28.78794],[76.13479,28.78818],[76.13496,28.7887],[76.13454,28.78876],[76.13447,28.78847],[76.13374,28.78839],[76.13039,28.78905],[76.13051,28.79001],[76.13082,28.78988],[76.1322,28.79053],[76.13266,28.79023],[76.13296,28.79125],[76.13502,28.79035]]]}},{"type":"Feature","bbox":[76.13639,28.78336,76.14576,28.78815],"properties":{"ward":26},"geometry":{"type":"Polygon","coordinates":[[[76.14342,28.78815],[76.14422,28.78737],[76.14507,28.78793],[76.14576,28.78656],[76.14478,28.78571],[76.14103,28.78385],[76.13747,28.78336],[76.13639,28.78347],[76.13739,28.78446],[76.13822,28.78594],[76.13847,28.78678],[76.14062,28.78655],[76.14078,28.78754],[76.14289,28.7872],[76.14302,28.78768],[76.14342,28.78815]]]}},{"type":"Feature","bbox":[76.14144,28.78544,76.1531,28.79103],"properties":{"ward":27},"geometry":{"type":"Polygon","coordinates":[[[76.14165,28.79103],[76.14424,28.78919],[76.14536,28.79012],[76.14747,28.79059],[76.1484,28.79035],[76.14879,28.79051],[76.1524,28.79036],[76.15243,28.78997],[76.1531,28.78995],[76.15282,28.78923],[76.15155,28.78967],[76.15057,28.78975],[76.15058,28.78808],[76.14897,28.78829],[76.1487,28.78724],[76.14915,28.78707],[76.14887,28.7865],[76.14935,28.78633],[76.14868,28.78544],[76.14576,28.78656],[76.14507,28.78793],[76.14422,28.78737],[76.14383,28.78789],[76.14307,28.7884],[76.14198,28.78897],[76.14155,28.78904],[76.14167,28.78993],[76.14144,28.79044],[76.14165,28.79103]]]}},{"type":"Feature","bbox":[76.13731,28.79076,76.14246,28.79554],"properties":{"ward":28},"geometry":{"type":"Polygon","coordinates":[[[76.14246,28.79233],[76.14152,28.79076],[76.14033,28.79123],[76.13996,28.79079],[76.13939,28.79086],[76.13956,28.7914],[76.13935,28.79146],[76.13885,28.79084],[76.13864,28.79087],[76.13887,28.79196],[76.13917,28.7919],[76.13925,28.79219],[76.13731,28.79296],[76.13799,28.79444],[76.138,28.79481],[76.13852,28.79528],[76.13957,28.79554],[76.14033,28.79551],[76.14099,28.79523],[76.14164,28.79469],[76.14217,28.79453],[76.14193,28.79425],[76.14207,28.79411],[76.14144,28.79359],[76.14179,28.79329],[76.14178,28.79285],[76.14201,28.79253],[76.14246,28.79233]]]}},{"type":"Feature","bbox":[76.12971,28.79296,76.13824,28.80468],"properties":{"ward":29},"geometry":{"type":"Polygon","coordinates":[[[76.13333,28.80397],[76.13793,28.80396],[76.13796,28.80183],[76.13489,28.80109],[76.13548,28.79964],[76.13529,28.79902],[76.13584,28.79836],[76.13538,28.7971],[76.13727,28.79738],[76.13772,28.79547],[76.13824,28.79507],[76.13793,28.79465],[76.13799,28.79444],[76.13731,28.79296],[76.1365,28.79326],[76.13569,28.79429],[76.13453,28.79517],[76.13395,28.79608],[76.13235,28.79746],[76.12971,28.7989],[76.13143,28.80118],[76.132,28.80077],[76.13266,28.80151],[76.12998,28.80343],[76.13006,28.80362],[76.12983,28.80378],[76.13074,28.80465],[76.13297,28.80468],[76.13333,28.80397]]]}},{"type":"Feature","bbox":[76.12337,28.79555,76.13266,28.80939],"properties":{"ward":30},"geometry":{"type":"Polygon","coordinates":[[[76.13015,28.80335],[76.13266,28.80151],[76.132,28.80077],[76.13143,28.80118],[76.13129,28.80105],[76.12971,28.7989],[76.13005,28.7987],[76.12894,28.79737],[76.1285,28.79741],[76.12846,28.79666],[76.12805,28.79625],[76.12818,28.79612],[76.12756,28.79555],[76.12583,28.79759],[76.12526,28.79752],[76.12337,28.80299],[76.12493,28.80338],[76.12659,28.80309],[76.12829,28.80387],[76.12792,28.80451],[76.1265,28.80558],[76.12618,28.8062],[76.12694,28.80802],[76.12701,28.80939],[76.13076,28.80885],[76.13212,28.80632],[76.12983,28.80378],[76.13015,28.80335]]]}},{"type":"Feature","bbox":[76.11998,28.80299,76.13076,28.81748],"properties":{"ward":31},"geometry":{"type":"Polygon","coordinates":[[[76.12597,28.81748],[76.13076,28.80885],[76.12701,28.80939],[76.12694,28.80802],[76.12618,28.8062],[76.1265,28.80558],[76.12792,28.80451],[76.12829,28.80387],[76.12659,28.80309],[76.12493,28.80338],[76.12337,28.80299],[76.11998,28.8128],[76.12247,28.81418],[76.12597,28.81748]]]}}]}