{"type":"FeatureCollection","features":[{"type":"Feature","bbox":[76.01877,28.94966,76.03031,28.95866],"properties":{"ward":1},"geometry":{"type":"Polygon","coordinates":[[[76.02924,28.95866],[76.03031,28.95678],[76.02974,28.95504],[76.0296,28.95141],[76.029,28.95075],[76.02641,28.95071],[76.0264,28.95122],[76.02495,28.95128],[76.02489,28.95035],[76.02282,28.94966],[76.01877,28.94966],[76.0188,28.95831],[76.0278,28.95827],[76.02785,28.95852],[76.02924,28.95866]]]}},{"type":"Feature","bbox":[76.02966,28.95064,76.03281,28.95467],"properties":{"ward":2},"geometry":{"type":"Polygon","coordinates":[[[76.03281,28.95324],[76.03179,28.95315],[76.0317,28.95198],[76.03199,28.95193],[76.03193,28.95159],[76.03245,28.95144],[76.03175,28.95064],[76.03151,28.95081],[76.03161,28.9512],[76.03102,28.95123],[76.03092,28.9521],[76.03055,28.95217],[76.03067,28.9534],[76.02966,28.95346],[76.0297,28.95467],[76.03192,28.95455],[76.03281,28.95324]]]}},{"type":"Feature","bbox":[76.02916,28.94964,76.04705,28.95883],"properties":{"ward":3},"geometry":{"type":"Polygon","coordinates":[[[76.03281,28.95324],[76.03192,28.95455],[76.0297,28.95467],[76.03031,28.95678],[76.02916,28.95883],[76.04705,28.95872],[76.04697,28.95494],[76.03625,28.95498],[76.03629,28.95323],[76.03799,28.95154],[76.03617,28.95113],[76.03588,28.95077],[76.0361,28.95005],[76.03544,28.95006],[76.03545,28.94975],[76.03428,28.94964],[76.0337,28.9508],[76.03281,28.95324]]]}},{"type":"Feature","bbox":[76.03588,28.94944,76.04976,28.95872],"properties":{"ward":4},"geometry":{"type":"Polygon","coordinates":[[[76.04976,28.95869],[76.04971,28.94944],[76.04702,28.94944],[76.04698,28.95002],[76.03974,28.95006],[76.039,28.94994],[76.03842,28.94949],[76.03846,28.94992],[76.0361,28.95005],[76.03588,28.95077],[76.03617,28.95113],[76.03799,28.95154],[76.03629,28.95323],[76.03625,28.95498],[76.04697,28.95494],[76.04705,28.95872],[76.04976,28.95869]]]}},{"type":"Feature","bbox":[76.03251,28.9266,76.04971,28.95006],"properties":{"ward":5},"geometry":{"type":"Polygon","coordinates":[[[76.03544,28.95006],[76.03846,28.94992],[76.03842,28.94949],[76.039,28.94994],[76.03974,28.95006],[76.04698,28.95002],[76.04702,28.94944],[76.04971,28.94944],[76.04956,28.9266],[76.04149,28.92669],[76.03551,28.93502],[76.03946,28.93704],[76.03894,28.93768],[76.0378,28.9402],[76.03722,28.94101],[76.03428,28.94421],[76.03284,28.94678],[76.0329,28.94756],[76.03377,28.94846],[76.03417,28.94913],[76.03251,28.94941],[76.03262,28.94988],[76.03423,28.94986],[76.03428,28.94964],[76.03545,28.94975],[76.03544,28.95006]]]}},{"type":"Feature","bbox":[76.03012,28.94665,76.03417,28.94944],"properties":{"ward":6},"geometry":{"type":"Polygon","coordinates":[[[76.03252,28.94944],[76.03417,28.94913],[76.03377,28.94846],[76.03303,28.94771],[76.03274,28.94804],[76.03243,28.94805],[76.03236,28.94768],[76.032,28.9476],[76.03171,28.94665],[76.03012,28.94719],[76.03087,28.94864],[76.03119,28.94864],[76.03142,28.94912],[76.0318,28.94935],[76.03252,28.94944]]]}},{"type":"Feature","bbox":[76.0316,28.94935,76.03423,28.95324],"properties":{"ward":7},"geometry":{"type":"Polygon","coordinates":[[[76.03281,28.95324],[76.0337,28.9508],[76.03423,28.94986],[76.03262,28.94988],[76.03252,28.94944],[76.03187,28.94935],[76.03202,28.95015],[76.0316,28.95041],[76.03245,28.95144],[76.03193,28.95159],[76.03199,28.95193],[76.0317,28.95198],[76.03179,28.95315],[76.03239,28.95307],[76.03281,28.95324]]]}},{"type":"Feature","bbox":[76.029,28.9495,76.03175,28.95346],"properties":{"ward":8},"geometry":{"type":"Polygon","coordinates":[[[76.03175,28.95064],[76.0316,28.95041],[76.03125,28.95066],[76.03099,28.9495],[76.03027,28.94968],[76.03005,28.95023],[76.02909,28.95062],[76.029,28.95075],[76.0296,28.95141],[76.02966,28.95346],[76.03067,28.9534],[76.03055,28.95217],[76.03092,28.9521],[76.03102,28.95123],[76.03161,28.9512],[76.03151,28.95081],[76.03175,28.95064]]]}},{"type":"Feature","bbox":[76.0246,28.94935,76.03027,28.95128],"properties":{"ward":9},"geometry":{"type":"Polygon","coordinates":[[[76.029,28.95075],[76.03005,28.95023],[76.03027,28.94968],[76.02868,28.94957],[76.02866,28.94935],[76.02701,28.94987],[76.02557,28.9501],[76.02554,28.9495],[76.02523,28.94942],[76.0246,28.9503],[76.02489,28.95035],[76.02495,28.95128],[76.0264,28.95122],[76.02641,28.95071],[76.029,28.95075]]]}},{"type":"Feature","bbox":[76.02523,28.94581,76.03202,28.95066],"properties":{"ward":10},"geometry":{"type":"Polygon","coordinates":[[[76.03202,28.95015],[76.03177,28.94922],[76.03136,28.94904],[76.03119,28.94864],[76.03087,28.94864],[76.03012,28.94719],[76.0289,28.94683],[76.0278,28.94581],[76.02523,28.94942],[76.02554,28.9495],[76.02557,28.9501],[76.02701,28.94987],[76.02866,28.94935],[76.02868,28.94957],[76.02956,28.94969],[76.03099,28.9495],[76.03125,28.95066],[76.03202,28.95015]]]}},{"type":"Feature","bbox":[76.0278,28.9435,76.03313,28.94804],"properties":{"ward":11},"geometry":{"type":"Polygon","coordinates":[[[76.03259,28.94804],[76.03303,28.94771],[76.03284,28.94741],[76.03282,28.94691],[76.03313,28.94612],[76.03218,28.94487],[76.032,28.9435],[76.03187,28.9435],[76.03166,28.9449],[76.03032,28.94472],[76.03004,28.94455],[76.02939,28.94471],[76.02901,28.94411],[76.0278,28.94581],[76.0289,28.94683],[76.03012,28.94719],[76.03171,28.94665],[76.032,28.9476],[76.03236,28.94768],[76.03237,28.94797],[76.03259,28.94804]]]}},{"type":"Feature","bbox":[76.02901,28.93502,76.03946,28.94612],"properties":{"ward":12},"geometry":{"type":"Polygon","coordinates":[[[76.03452,28.94393],[76.03748,28.94067],[76.03827,28.93936],[76.03894,28.93768],[76.03946,28.93704],[76.03551,28.93502],[76.02901,28.94411],[76.02939,28.94471],[76.03004,28.94455],[76.03032,28.94472],[76.03166,28.9449],[76.03187,28.9435],[76.032,28.9435],[76.03218,28.94487],[76.03313,28.94612],[76.03452,28.94393]]]}},{"type":"Feature","bbox":[76.01863,28.92644,76.04149,28.94089],"properties":{"ward":13},"geometry":{"type":"Polygon","coordinates":[[[76.02984,28.94089],[76.03134,28.94084],[76.04149,28.92669],[76.01863,28.92644],[76.02721,28.93082],[76.02819,28.93566],[76.02909,28.93803],[76.02984,28.94089]]]}},{"type":"Feature","bbox":[76.01863,28.92644,76.03134,28.94581],"properties":{"ward":14},"geometry":{"type":"Polygon","coordinates":[[[76.0278,28.94581],[76.03134,28.94084],[76.03093,28.94068],[76.02984,28.94089],[76.02909,28.93803],[76.02819,28.93566],[76.02721,28.93082],[76.01863,28.92644],[76.01872,28.94147],[76.02625,28.94143],[76.02636,28.94402],[76.0278,28.94581]]]}},{"type":"Feature","bbox":[76.01872,28.94143,76.0278,28.9503],"properties":{"ward":15},"geometry":{"type":"Polygon","coordinates":[[[76.0246,28.9503],[76.0278,28.94581],[76.02636,28.94402],[76.02625,28.94143],[76.01872,28.94147],[76.0188,28.94964],[76.02282,28.94966],[76.0246,28.9503]]]}}]}