{"type":"FeatureCollection","features":[{"type":"Feature","bbox":[76.99639,28.49299,77.03377,28.53173],"properties":{"ward":1},"geometry":{"type":"Polygon","coordinates":[[[77.02963,28.53173],[77.03196,28.53114],[77.03377,28.53017],[77.03019,28.52602],[77.02354,28.5189],[77.02622,28.50957],[77.02692,28.50797],[77.01422,28.49299],[77.00427,28.49677],[77.00226,28.49497],[76.99941,28.49615],[76.99933,28.49631],[76.99971,28.49707],[77.00137,28.49919],[77.00157,28.49923],[76.9979,28.50261],[76.99639,28.50354],[76.99828,28.50594],[77.00037,28.50816],[77.00074,28.50825],[77.00171,28.50944],[77.00193,28.50939],[77.00338,28.51094],[77.00411,28.51103],[77.00472,28.51071],[77.00477,28.51083],[77.0053,28.51076],[77.00645,28.51026],[77.00749,28.51072],[77.0088,28.51278],[77.00958,28.51467],[77.0102,28.5145],[77.01225,28.51676],[77.01704,28.52095],[77.01719,28.52074],[77.01859,28.52023],[77.01996,28.52018],[77.02223,28.5215],[77.02439,28.52378],[77.02515,28.52518],[77.02942,28.531],[77.02963,28.53173]]]}},{"type":"Feature","bbox":[77.01422,28.47848,77.06776,28.53021],"properties":{"ward":2},"geometry":{"type":"Polygon","coordinates":[[[77.05803,28.50261],[77.06776,28.50271],[77.05794,28.49166],[77.0499,28.48228],[77.04941,28.48148],[77.04844,28.4817],[77.04624,28.48142],[77.0423,28.48058],[77.03885,28.47919],[77.03508,28.47848],[77.03521,28.48037],[77.03543,28.4805],[77.03374,28.48635],[77.0293,28.48851],[77.02943,28.4921],[77.03072,28.49293],[77.03136,28.49408],[77.02887,28.50207],[77.02365,28.49835],[77.02269,28.49744],[77.02033,28.49443],[77.0198,28.49294],[77.01967,28.49123],[77.01807,28.49179],[77.01757,28.49064],[77.01543,28.49138],[77.01582,28.49237],[77.01422,28.49299],[77.02692,28.50797],[77.02622,28.50957],[77.02354,28.5189],[77.03019,28.52602],[77.03378,28.53021],[77.04074,28.52639],[77.04053,28.52607],[77.0407,28.52596],[77.04181,28.52555],[77.03341,28.51562],[77.03807,28.51249],[77.04028,28.51068],[77.0508,28.50694],[77.05803,28.50261]]]}},{"type":"Feature","bbox":[77.03341,28.50257,77.06872,28.52555],"properties":{"ward":3},"geometry":{"type":"Polygon","coordinates":[[[77.05982,28.51237],[77.06135,28.51221],[77.06132,28.50944],[77.06273,28.50947],[77.06276,28.50936],[77.06207,28.50875],[77.06346,28.50871],[77.06352,28.50854],[77.0654,28.50855],[77.06544,28.50809],[77.06611,28.50809],[77.06619,28.50477],[77.0669,28.50479],[77.06695,28.50371],[77.06872,28.50378],[77.06776,28.50271],[77.05959,28.50257],[77.0578,28.50268],[77.0508,28.50694],[77.04028,28.51068],[77.03807,28.51249],[77.03341,28.51562],[77.04181,28.52555],[77.0435,28.52481],[77.04337,28.52462],[77.04371,28.52446],[77.04406,28.52333],[77.04446,28.52296],[77.04836,28.5209],[77.04657,28.51664],[77.04838,28.51635],[77.04966,28.51587],[77.05139,28.51553],[77.05982,28.51237]]]}},{"type":"Feature","bbox":[77.06132,28.50371,77.08109,28.52026],"properties":{"ward":4},"geometry":{"type":"Polygon","coordinates":[[[77.08109,28.5121],[77.07909,28.50999],[77.07742,28.51126],[77.07638,28.51134],[77.07514,28.51165],[77.07494,28.51131],[77.07449,28.51153],[77.07389,28.51029],[77.07202,28.50767],[77.06872,28.50378],[77.06695,28.50371],[77.0669,28.50479],[77.06619,28.50477],[77.06611,28.50809],[77.06544,28.50809],[77.0654,28.50855],[77.06352,28.50854],[77.06346,28.50871],[77.06207,28.50875],[77.06273,28.50947],[77.06132,28.50944],[77.06135,28.51221],[77.06394,28.51262],[77.06498,28.51262],[77.06734,28.51215],[77.06768,28.513],[77.07125,28.51736],[77.07213,28.51934],[77.07225,28.52026],[77.07496,28.51864],[77.08048,28.51804],[77.07903,28.51638],[77.0781,28.51562],[77.07945,28.51514],[77.0795,28.51433],[77.08075,28.51351],[77.08011,28.51283],[77.08109,28.5121]]]}},{"type":"Feature","bbox":[77.04941,28.4734,77.09508,28.51804],"properties":{"ward":5},"geometry":{"type":"Polygon","coordinates":[[[77.09312,28.51113],[77.09482,28.50813],[77.09508,28.50721],[77.09501,28.50602],[77.09441,28.50471],[77.09133,28.50095],[77.08717,28.49644],[77.07087,28.47948],[77.06846,28.47741],[77.06314,28.47643],[77.06311,28.47729],[77.06169,28.47725],[77.06157,28.47773],[77.05836,28.47761],[77.05731,28.47679],[77.05704,28.47573],[77.05822,28.47567],[77.05838,28.47468],[77.05542,28.4734],[77.05002,28.48003],[77.04941,28.48148],[77.04965,28.48194],[77.05794,28.49166],[77.07152,28.50701],[77.07389,28.51029],[77.07449,28.51153],[77.07494,28.51131],[77.07514,28.51165],[77.07638,28.51134],[77.07742,28.51126],[77.07909,28.50999],[77.08109,28.5121],[77.08011,28.51283],[77.08075,28.51351],[77.0795,28.51433],[77.07945,28.51514],[77.0781,28.51562],[77.07903,28.51638],[77.08048,28.51804],[77.0912,28.51456],[77.09326,28.51422],[77.09288,28.51215],[77.09312,28.51113]]]}},{"type":"Feature","bbox":[77.02353,28.46328,77.06846,28.48148],"properties":{"ward":6},"geometry":{"type":"Polygon","coordinates":[[[77.0554,28.47344],[77.05838,28.47468],[77.05822,28.47567],[77.05704,28.47573],[77.05731,28.47679],[77.05836,28.47761],[77.06157,28.47773],[77.06169,28.47725],[77.06311,28.47729],[77.06314,28.47643],[77.06846,28.47741],[77.05743,28.46868],[77.05665,28.46786],[77.0553,28.46586],[77.05284,28.46328],[77.05186,28.46402],[77.05169,28.46387],[77.04939,28.46506],[77.04726,28.46685],[77.04412,28.46835],[77.03778,28.46482],[77.03389,28.46361],[77.03347,28.46365],[77.03334,28.46397],[77.03345,28.46497],[77.03288,28.46508],[77.03175,28.46454],[77.03115,28.46537],[77.03228,28.46596],[77.03107,28.46699],[77.03198,28.46767],[77.03149,28.46806],[77.03288,28.46936],[77.03253,28.4696],[77.03303,28.47018],[77.0327,28.47038],[77.03018,28.46829],[77.02956,28.46893],[77.02929,28.46878],[77.02893,28.46909],[77.02675,28.46754],[77.02353,28.46982],[77.025,28.47225],[77.02593,28.47195],[77.02562,28.47084],[77.02575,28.46984],[77.02736,28.46949],[77.02799,28.4711],[77.02821,28.47325],[77.02877,28.47443],[77.02958,28.47415],[77.03413,28.47076],[77.03422,28.47162],[77.03678,28.47148],[77.03917,28.47014],[77.04762,28.47976],[77.04865,28.48089],[77.04941,28.48148],[77.0499,28.48021],[77.05037,28.47955],[77.0554,28.47344]]]}},{"type":"Feature","bbox":[77.03422,28.47014,77.04941,28.4817],"properties":{"ward":7},"geometry":{"type":"Polygon","coordinates":[[[77.04762,28.47976],[77.03917,28.47014],[77.03678,28.47148],[77.03422,28.47162],[77.03508,28.47848],[77.03885,28.47919],[77.0423,28.48058],[77.04624,28.48142],[77.04844,28.4817],[77.04941,28.48148],[77.04865,28.48089],[77.04762,28.47976]]]}},{"type":"Feature","bbox":[77.01603,28.46949,77.03508,28.47924],"properties":{"ward":8},"geometry":{"type":"Polygon","coordinates":[[[77.02748,28.47647],[77.02898,28.47651],[77.03004,28.47684],[77.03141,28.47699],[77.0323,28.47881],[77.03508,28.47848],[77.03413,28.47076],[77.02958,28.47415],[77.02877,28.47443],[77.02821,28.47325],[77.02799,28.4711],[77.02736,28.46949],[77.02575,28.46984],[77.02562,28.47084],[77.02593,28.47195],[77.025,28.47225],[77.02353,28.46981],[77.01825,28.4736],[77.01804,28.47369],[77.01795,28.47358],[77.01603,28.47752],[77.01697,28.47798],[77.01769,28.47647],[77.0185,28.47649],[77.0198,28.47595],[77.02032,28.47658],[77.02091,28.47637],[77.02163,28.47741],[77.02104,28.47765],[77.02215,28.47924],[77.02315,28.4787],[77.02289,28.47782],[77.0234,28.47756],[77.02622,28.477],[77.02748,28.47647]]]}},{"type":"Feature","bbox":[77.01414,28.47595,77.03543,28.50207],"properties":{"ward":9},"geometry":{"type":"Polygon","coordinates":[[[77.02943,28.4921],[77.0293,28.48851],[77.03374,28.48635],[77.03543,28.4805],[77.03521,28.48037],[77.03508,28.47848],[77.0323,28.47881],[77.03141,28.47699],[77.03004,28.47684],[77.02898,28.47651],[77.02749,28.47647],[77.02622,28.477],[77.0234,28.47756],[77.02289,28.47782],[77.02315,28.4787],[77.02215,28.47924],[77.02104,28.47765],[77.02163,28.47741],[77.02091,28.47637],[77.02032,28.47658],[77.0198,28.47595],[77.0185,28.47649],[77.01769,28.47647],[77.01697,28.47798],[77.01603,28.47752],[77.01454,28.48074],[77.01523,28.48165],[77.01414,28.48225],[77.0146,28.48273],[77.01758,28.48461],[77.01551,28.48641],[77.01586,28.48675],[77.0157,28.48684],[77.01631,28.4872],[77.01427,28.48806],[77.01496,28.48911],[77.01558,28.48963],[77.01505,28.49024],[77.01543,28.49138],[77.01757,28.49064],[77.01807,28.49179],[77.01967,28.49123],[77.0198,28.49294],[77.02033,28.49443],[77.02269,28.49744],[77.02365,28.49835],[77.02887,28.50207],[77.03136,28.49408],[77.03072,28.49293],[77.02943,28.4921]]]}},{"type":"Feature","bbox":[77.00084,28.47684,77.01758,28.49299],"properties":{"ward":10},"geometry":{"type":"Polygon","coordinates":[[[77.01631,28.4872],[77.0157,28.48684],[77.01586,28.48675],[77.01551,28.48641],[77.01758,28.48461],[77.0146,28.48273],[77.01414,28.48225],[77.01523,28.48165],[77.01454,28.48074],[77.00338,28.47684],[77.00084,28.47715],[77.00991,28.4881],[77.01422,28.49299],[77.01582,28.49237],[77.01505,28.49024],[77.01558,28.48963],[77.01496,28.48911],[77.01427,28.48806],[77.01631,28.4872]]]}},{"type":"Feature","bbox":[76.99171,28.48289,77.01422,28.49875],"properties":{"ward":11},"geometry":{"type":"Polygon","coordinates":[[[77.00226,28.49497],[77.00427,28.49677],[77.01422,28.49299],[77.00991,28.4881],[77.0057,28.48289],[77.00407,28.48359],[77.00417,28.48379],[77.00265,28.48438],[77.00341,28.48604],[76.99799,28.48803],[76.99837,28.48881],[76.99551,28.48999],[76.99633,28.4912],[76.99171,28.49456],[76.99468,28.49654],[76.99571,28.49875],[76.99941,28.49615],[77.00226,28.49497]]]}},{"type":"Feature","bbox":[76.96074,28.44277,77.00571,28.49499],"properties":{"ward":12},"geometry":{"type":"Polygon","coordinates":[[[76.99509,28.48932],[76.99551,28.48999],[76.99837,28.48881],[76.99799,28.48803],[77.00341,28.48604],[77.00265,28.48438],[77.00417,28.48379],[77.00407,28.48359],[77.00571,28.48289],[76.99768,28.47342],[76.99636,28.4722],[76.994,28.47059],[76.98819,28.46737],[76.9907,28.46162],[76.99102,28.46033],[76.99105,28.45936],[76.99026,28.45765],[76.99072,28.45602],[76.99103,28.4557],[76.99361,28.45464],[76.98882,28.45385],[76.98112,28.45292],[76.97866,28.45032],[76.9807,28.44937],[76.97487,28.44277],[76.96813,28.44604],[76.96605,28.44723],[76.96373,28.44894],[76.96074,28.45198],[76.96419,28.45459],[76.96471,28.45479],[76.96458,28.45506],[76.96481,28.45614],[76.96691,28.45996],[76.97038,28.46419],[76.97477,28.46852],[76.97558,28.46963],[76.97699,28.47221],[76.97746,28.47407],[76.97859,28.4757],[76.97852,28.47662],[76.97868,28.47744],[76.97839,28.47837],[76.9785,28.47936],[76.97802,28.48054],[76.97801,28.48611],[76.97877,28.48824],[76.97894,28.48898],[76.97878,28.48917],[76.97904,28.48955],[76.9789,28.48972],[76.97916,28.49001],[76.97937,28.49103],[76.98055,28.49352],[76.98047,28.4936],[76.98072,28.49423],[76.98129,28.49499],[76.98186,28.49492],[76.9848,28.49323],[76.98933,28.49158],[76.99108,28.49113],[76.99309,28.48991],[76.99509,28.48932]]]}},{"type":"Feature","bbox":[76.97866,28.43449,77.01376,28.46217],"properties":{"ward":13},"geometry":{"type":"Polygon","coordinates":[[[77.00038,28.4571],[77.00798,28.45695],[77.00807,28.45627],[77.00883,28.45458],[77.00999,28.45467],[77.01047,28.45427],[77.01104,28.45489],[77.01147,28.45453],[77.01212,28.45533],[77.01376,28.45417],[77.01164,28.45322],[77.00921,28.4528],[77.00713,28.45196],[77.0073,28.45154],[77.00787,28.4516],[77.00796,28.45081],[77.00716,28.45071],[77.00689,28.4487],[77.00583,28.44919],[77.00549,28.44886],[77.005,28.44918],[77.00515,28.44934],[77.00474,28.44962],[77.00376,28.44981],[77.00375,28.44916],[77.00341,28.44916],[77.00315,28.4487],[77.00237,28.44874],[77.00232,28.4478],[77.00095,28.44783],[77.00099,28.44927],[77.00047,28.44928],[77.00047,28.4497],[76.99723,28.44834],[76.99953,28.44402],[77.00018,28.44334],[76.9981,28.44055],[76.99709,28.44101],[76.99374,28.43678],[76.99213,28.43449],[76.9872,28.43752],[76.9876,28.4381],[76.98171,28.44188],[76.98358,28.44232],[76.98133,28.44673],[76.98121,28.44706],[76.98131,28.44796],[76.98112,28.44795],[76.98114,28.44847],[76.98069,28.44848],[76.9807,28.44937],[76.97866,28.45032],[76.98112,28.45292],[76.98882,28.45385],[76.99361,28.45464],[76.99103,28.4557],[76.99072,28.45602],[76.99026,28.45765],[76.99111,28.45971],[76.9907,28.46162],[76.9948,28.46217],[77.00047,28.45957],[76.99922,28.45819],[77.00022,28.45749],[77.00038,28.4571]]]}},{"type":"Feature","bbox":[76.98819,28.45869,77.00889,28.47715],"properties":{"ward":14},"geometry":{"type":"Polygon","coordinates":[[[77.0085,28.46225],[77.00767,28.46148],[77.00889,28.46054],[77.0067,28.45944],[77.0064,28.45916],[77.005,28.45991],[77.00428,28.46059],[77.00366,28.46007],[77.00347,28.46017],[77.00279,28.45968],[77.00177,28.45869],[77.00047,28.45957],[76.9948,28.46217],[76.9907,28.46162],[76.98819,28.46737],[76.99321,28.47013],[76.99598,28.47189],[76.99768,28.47342],[77.00084,28.47715],[77.00317,28.47691],[77.00338,28.47684],[77.00215,28.4764],[77.0085,28.46225]]]}},{"type":"Feature","bbox":[77.00215,28.46228,77.02023,28.48074],"properties":{"ward":15},"geometry":{"type":"Polygon","coordinates":[[[77.01964,28.46486],[77.01914,28.46426],[77.01864,28.46399],[77.01815,28.46399],[77.01578,28.46248],[77.0144,28.46438],[77.01382,28.46382],[77.01176,28.46467],[77.0094,28.46243],[77.00895,28.46274],[77.00848,28.46228],[77.00215,28.4764],[77.01454,28.48074],[77.0185,28.47228],[77.01299,28.46934],[77.01407,28.46861],[77.01565,28.46827],[77.02023,28.46605],[77.01964,28.46486]]]}},{"type":"Feature","bbox":[77.00767,28.45693,77.02301,28.46713],"properties":{"ward":16},"geometry":{"type":"Polygon","coordinates":[[[77.0218,28.46502],[77.02142,28.46489],[77.02114,28.46439],[77.02045,28.4638],[77.02301,28.4625],[77.02254,28.46189],[77.02289,28.46167],[77.02236,28.46108],[77.02269,28.46093],[77.02213,28.45982],[77.02242,28.45968],[77.02186,28.45852],[77.0216,28.45861],[77.02102,28.45747],[77.01901,28.45822],[77.01918,28.45861],[77.01743,28.45933],[77.0159,28.45693],[77.01164,28.45695],[77.01172,28.45733],[77.01189,28.45735],[77.01281,28.45898],[77.01339,28.45874],[77.01379,28.45942],[77.01197,28.46038],[77.01065,28.46028],[77.00973,28.45961],[77.00889,28.46054],[77.00767,28.46148],[77.00895,28.46274],[77.0094,28.46243],[77.01176,28.46467],[77.01382,28.46382],[77.0144,28.46438],[77.01578,28.46248],[77.01815,28.46399],[77.01864,28.46399],[77.01927,28.46434],[77.02088,28.46713],[77.0218,28.46502]]]}},{"type":"Feature","bbox":[77.01299,28.45657,77.02763,28.47369],"properties":{"ward":17},"geometry":{"type":"Polygon","coordinates":[[[77.01804,28.47369],[77.02748,28.46691],[77.02643,28.46621],[77.02668,28.46596],[77.02595,28.46532],[77.02701,28.46406],[77.02657,28.46379],[77.02643,28.46397],[77.02586,28.4636],[77.02566,28.46387],[77.02472,28.46315],[77.02759,28.46018],[77.02647,28.45933],[77.02763,28.45784],[77.02709,28.45743],[77.0271,28.45674],[77.02658,28.45657],[77.02369,28.45711],[77.02384,28.45748],[77.02227,28.457],[77.02081,28.45695],[77.0216,28.45861],[77.02186,28.45852],[77.02242,28.45968],[77.02213,28.45982],[77.02269,28.46093],[77.02236,28.46108],[77.02289,28.46167],[77.02254,28.46189],[77.02301,28.4625],[77.02045,28.4638],[77.02114,28.46439],[77.02142,28.46489],[77.0218,28.46502],[77.02088,28.46713],[77.02023,28.46605],[77.01565,28.46827],[77.01407,28.46861],[77.01299,28.46934],[77.0185,28.47228],[77.01803,28.47325],[77.01804,28.47369]]]}},{"type":"Feature","bbox":[77.02472,28.4559,77.04358,28.47038],"properties":{"ward":18},"geometry":{"type":"Polygon","coordinates":[[[77.03288,28.46936],[77.03149,28.46806],[77.03198,28.46767],[77.03107,28.46699],[77.03228,28.46596],[77.03115,28.46537],[77.03175,28.46454],[77.03288,28.46508],[77.03345,28.46497],[77.03334,28.46397],[77.03347,28.46365],[77.03389,28.46361],[77.03663,28.46438],[77.03778,28.46482],[77.03965,28.46587],[77.04117,28.46468],[77.04142,28.46495],[77.04358,28.46323],[77.03955,28.45792],[77.03771,28.4559],[77.03627,28.45707],[77.03494,28.4589],[77.03451,28.45918],[77.02851,28.45661],[77.02647,28.45933],[77.02759,28.46018],[77.02472,28.46315],[77.02566,28.46387],[77.02586,28.4636],[77.02643,28.46397],[77.02657,28.46379],[77.02701,28.46406],[77.02595,28.46532],[77.02668,28.46596],[77.02643,28.46621],[77.02748,28.46691],[77.02675,28.46754],[77.02893,28.46909],[77.02929,28.46878],[77.02956,28.46893],[77.03018,28.46829],[77.0327,28.47038],[77.03303,28.47018],[77.03253,28.4696],[77.03288,28.46936]]]}},{"type":"Feature","bbox":[77.02431,28.4405,77.06093,28.46868],"properties":{"ward":19},"geometry":{"type":"Polygon","coordinates":[[[77.0582,28.46413],[77.05818,28.46216],[77.06093,28.46219],[77.06093,28.4605],[77.06035,28.46049],[77.05595,28.45582],[77.05811,28.45416],[77.05765,28.4537],[77.05773,28.45208],[77.05636,28.45063],[77.05701,28.45019],[77.05779,28.44905],[77.06093,28.44673],[77.05827,28.44396],[77.05691,28.44502],[77.05596,28.44626],[77.05445,28.44667],[77.05453,28.44814],[77.0548,28.44862],[77.05463,28.44951],[77.05256,28.44949],[77.05257,28.44916],[77.05234,28.44915],[77.05217,28.44822],[77.05087,28.44915],[77.04983,28.44807],[77.04761,28.44634],[77.04558,28.44828],[77.04618,28.44853],[77.04611,28.44922],[77.04509,28.4488],[77.04285,28.45088],[77.04142,28.44938],[77.04649,28.44579],[77.04138,28.4405],[77.03726,28.44364],[77.03594,28.44608],[77.03436,28.44557],[77.03286,28.44564],[77.02431,28.44803],[77.02632,28.45219],[77.02619,28.45231],[77.0267,28.45429],[77.02979,28.45396],[77.02851,28.45661],[77.03451,28.45918],[77.03494,28.4589],[77.03627,28.45707],[77.03771,28.4559],[77.03955,28.45792],[77.04358,28.46323],[77.04142,28.46495],[77.04117,28.46468],[77.03965,28.46588],[77.04412,28.46835],[77.04726,28.46685],[77.04939,28.46506],[77.05169,28.46387],[77.05186,28.46402],[77.05284,28.46328],[77.0553,28.46586],[77.05665,28.46786],[77.05743,28.46868],[77.05732,28.46809],[77.05746,28.46415],[77.0582,28.46413]]]}},{"type":"Feature","bbox":[77.01307,28.44208,77.02979,28.45784],"properties":{"ward":20},"geometry":{"type":"Polygon","coordinates":[[[77.02851,28.45661],[77.02979,28.45396],[77.0267,28.45429],[77.02619,28.45231],[77.02632,28.45219],[77.02384,28.44678],[77.0219,28.44394],[77.02131,28.44233],[77.02086,28.44239],[77.02062,28.44208],[77.01669,28.44419],[77.01385,28.4452],[77.01307,28.44565],[77.02021,28.4531],[77.01992,28.45321],[77.0201,28.45344],[77.01953,28.4538],[77.01966,28.45398],[77.01939,28.45408],[77.01973,28.45631],[77.02088,28.4562],[77.02093,28.45687],[77.02289,28.45713],[77.02384,28.45748],[77.02369,28.45711],[77.02658,28.45657],[77.0271,28.45674],[77.02709,28.45743],[77.02763,28.45784],[77.02851,28.45661]]]}},{"type":"Feature","bbox":[76.99922,28.45049,77.02102,28.46059],"properties":{"ward":21},"geometry":{"type":"Polygon","coordinates":[[[77.00889,28.46054],[77.00973,28.45961],[77.01065,28.46028],[77.01197,28.46038],[77.01379,28.45942],[77.01339,28.45874],[77.01281,28.45898],[77.01189,28.45735],[77.01172,28.45733],[77.01164,28.45695],[77.0159,28.45693],[77.01743,28.45933],[77.01918,28.45861],[77.01901,28.45822],[77.02102,28.45747],[77.02081,28.45695],[77.02093,28.45687],[77.02088,28.4562],[77.01973,28.45631],[77.01964,28.45531],[77.01952,28.4553],[77.01952,28.45434],[77.01939,28.45408],[77.01966,28.45398],[77.01953,28.4538],[77.0201,28.45344],[77.01992,28.45321],[77.02021,28.4531],[77.01778,28.45049],[77.01539,28.45184],[77.01331,28.45263],[77.01384,28.45411],[77.01212,28.45533],[77.01147,28.45453],[77.01104,28.45489],[77.01047,28.45427],[77.00999,28.45467],[77.00883,28.45458],[77.00807,28.45627],[77.00798,28.45695],[77.00038,28.4571],[77.00022,28.45749],[76.99922,28.45819],[77.00047,28.45957],[77.00177,28.45869],[77.00279,28.45968],[77.00347,28.46017],[77.00366,28.46007],[77.00428,28.46059],[77.005,28.45991],[77.0064,28.45916],[77.0067,28.45944],[77.00889,28.46054]]]}},{"type":"Feature","bbox":[77.00689,28.44564,77.01779,28.45417],"properties":{"ward":22},"geometry":{"type":"Polygon","coordinates":[[[77.01539,28.45184],[77.01779,28.45049],[77.01307,28.44564],[77.00689,28.4487],[77.00716,28.45071],[77.00796,28.45081],[77.00787,28.4516],[77.0073,28.45154],[77.00713,28.45196],[77.00921,28.4528],[77.01164,28.45322],[77.01376,28.45417],[77.01331,28.45263],[77.01539,28.45184]]]}},{"type":"Feature","bbox":[76.98837,28.42654,77.01701,28.44981],"properties":{"ward":23},"geometry":{"type":"Polygon","coordinates":[[[77.005,28.44918],[77.00549,28.44886],[77.00583,28.44919],[77.01064,28.44693],[77.01385,28.4452],[77.01701,28.44396],[77.01035,28.43586],[77.00847,28.43695],[77.00701,28.43512],[77.00451,28.43661],[77.00129,28.43232],[76.99968,28.43052],[76.99562,28.42654],[76.99461,28.42725],[76.98837,28.43049],[76.99056,28.43297],[76.99179,28.43466],[76.99213,28.43449],[76.99374,28.43678],[76.99709,28.44101],[76.9981,28.44055],[77.00018,28.44334],[76.99953,28.44402],[76.99723,28.44834],[77.00047,28.4497],[77.00047,28.44928],[77.00099,28.44927],[77.00095,28.44783],[77.00232,28.4478],[77.00237,28.44874],[77.00315,28.4487],[77.00341,28.44916],[77.00375,28.44916],[77.00376,28.44981],[77.00474,28.44962],[77.00515,28.44934],[77.005,28.44918]]]}},{"type":"Feature","bbox":[76.92819,28.39083,77.00042,28.45198],"properties":{"ward":24},"geometry":{"type":"Polygon","coordinates":[[[76.96074,28.45198],[76.96373,28.44894],[76.96605,28.44723],[76.96813,28.44604],[76.97487,28.44277],[76.9807,28.44937],[76.98069,28.44848],[76.98114,28.44847],[76.98112,28.44795],[76.98131,28.44796],[76.98121,28.44706],[76.98133,28.44673],[76.98358,28.44232],[76.98171,28.44188],[76.9876,28.4381],[76.9872,28.43752],[76.99179,28.43466],[76.99056,28.43297],[76.98837,28.43049],[76.99461,28.42725],[76.99656,28.42589],[76.99825,28.42506],[77.00042,28.42431],[76.99963,28.42314],[76.98825,28.4022],[76.97735,28.39083],[76.97405,28.39275],[76.97172,28.39458],[76.97083,28.39319],[76.96917,28.39137],[76.9686,28.3918],[76.96746,28.39227],[76.96464,28.3929],[76.96089,28.39464],[76.96146,28.39523],[76.96201,28.39617],[76.96247,28.39772],[76.96219,28.39805],[76.9613,28.39831],[76.96174,28.39958],[76.96159,28.40092],[76.9617,28.40227],[76.96138,28.4051],[76.9615,28.40642],[76.96069,28.40731],[76.96075,28.40868],[76.96186,28.41127],[76.96338,28.41375],[76.96487,28.41579],[76.96502,28.41623],[76.96259,28.41769],[76.9581,28.42201],[76.95725,28.42266],[76.95377,28.42348],[76.95105,28.4247],[76.94695,28.42585],[76.94441,28.42694],[76.9432,28.4279],[76.94146,28.42713],[76.94081,28.42702],[76.93739,28.42728],[76.93467,28.42782],[76.93286,28.42872],[76.93038,28.43048],[76.92819,28.43255],[76.92923,28.43351],[76.93431,28.4368],[76.93865,28.44043],[76.94159,28.4419],[76.94236,28.44318],[76.943,28.44384],[76.94323,28.44367],[76.94461,28.44491],[76.94764,28.44651],[76.94926,28.44763],[76.95074,28.44812],[76.95314,28.44936],[76.95538,28.45027],[76.9578,28.45196],[76.95813,28.45159],[76.96074,28.45198]]]}},{"type":"Feature","bbox":[76.97735,28.36919,77.07571,28.40583],"properties":{"ward":25},"geometry":{"type":"Polygon","coordinates":[[[77.00839,28.40091],[77.03129,28.40044],[77.03963,28.4012],[77.04482,28.40133],[77.04567,28.39834],[77.05367,28.39839],[77.05369,28.39855],[77.05419,28.39854],[77.05448,28.39817],[77.05493,28.39802],[77.05399,28.39615],[77.05613,28.39535],[77.05599,28.39447],[77.05738,28.39453],[77.05796,28.39431],[77.05841,28.39231],[77.05907,28.39229],[77.06218,28.3913],[77.06458,28.39081],[77.06764,28.38989],[77.06744,28.38801],[77.06714,28.38692],[77.06671,28.38592],[77.06564,28.38424],[77.06658,28.3835],[77.06623,28.38196],[77.06671,28.38171],[77.06717,28.38078],[77.06701,28.38061],[77.06863,28.37919],[77.06874,28.37881],[77.06949,28.37787],[77.07075,28.37705],[77.07571,28.37446],[77.07442,28.37361],[77.07145,28.37282],[77.07035,28.37104],[77.07002,28.37121],[77.06975,28.37079],[77.0682,28.37035],[77.0656,28.37018],[77.06218,28.3695],[77.059,28.36949],[77.05717,28.36979],[77.05107,28.37151],[77.05083,28.37133],[77.04927,28.3722],[77.04767,28.37087],[77.04511,28.36919],[77.03895,28.37219],[77.03888,28.37207],[77.03598,28.37333],[77.0306,28.37471],[77.03311,28.37914],[77.03366,28.3807],[77.03434,28.38197],[77.03169,28.38433],[77.02785,28.38641],[77.02099,28.38966],[77.01727,28.3911],[77.01485,28.38597],[77.01395,28.3845],[77.01385,28.38375],[77.01338,28.38286],[77.01278,28.38216],[77.00961,28.38368],[77.00877,28.38429],[77.00626,28.38555],[77.00084,28.38774],[77.0004,28.38648],[76.99993,28.38426],[76.9971,28.38004],[76.99467,28.3816],[76.9901,28.38414],[76.98394,28.38653],[76.98304,28.387],[76.98063,28.38848],[76.97735,28.39083],[76.98192,28.39571],[76.98784,28.40166],[76.99027,28.40583],[76.993,28.40456],[76.99672,28.40322],[77.00334,28.40163],[77.00839,28.40091]]]}},{"type":"Feature","bbox":[76.99027,28.39802,77.07635,28.43003],"properties":{"ward":26},"geometry":{"type":"Polygon","coordinates":[[[77.02211,28.42762],[77.02465,28.42628],[77.02652,28.42622],[77.02952,28.42685],[77.03003,28.42503],[77.03129,28.42397],[77.0317,28.42326],[77.03274,28.41909],[77.03366,28.41679],[77.0339,28.41453],[77.03523,28.41453],[77.03532,28.41137],[77.03437,28.41032],[77.03836,28.41108],[77.03835,28.41442],[77.04021,28.41362],[77.04144,28.41338],[77.04034,28.41713],[77.04452,28.41859],[77.04228,28.41955],[77.0428,28.42037],[77.04503,28.41937],[77.04471,28.41866],[77.05032,28.42028],[77.05176,28.42084],[77.054,28.42301],[77.05539,28.42475],[77.05545,28.42417],[77.05673,28.42417],[77.05672,28.42468],[77.0574,28.42469],[77.05741,28.42406],[77.05817,28.42407],[77.05816,28.4236],[77.05887,28.42361],[77.05885,28.42412],[77.05951,28.42414],[77.05947,28.42449],[77.05973,28.4247],[77.06017,28.42434],[77.06018,28.42316],[77.05884,28.42311],[77.05883,28.42038],[77.06092,28.42037],[77.06092,28.41939],[77.06275,28.4194],[77.06274,28.42117],[77.06288,28.4213],[77.06547,28.41942],[77.06504,28.41946],[77.06505,28.41828],[77.06593,28.41829],[77.06606,28.41851],[77.06644,28.41852],[77.06646,28.41651],[77.06824,28.41654],[77.06827,28.41706],[77.06917,28.41707],[77.06664,28.4192],[77.0687,28.42094],[77.07074,28.42226],[77.07079,28.42167],[77.07236,28.42171],[77.07242,28.42061],[77.07423,28.42065],[77.07446,28.42101],[77.07473,28.421],[77.07474,28.42065],[77.07454,28.42065],[77.07455,28.42038],[77.07482,28.42037],[77.07484,28.42002],[77.07454,28.42002],[77.07453,28.41973],[77.07484,28.41973],[77.07486,28.41927],[77.0744,28.41927],[77.0744,28.41902],[77.07465,28.41903],[77.07466,28.41785],[77.07539,28.41786],[77.07548,28.41659],[77.0752,28.41646],[77.0755,28.41499],[77.07635,28.41303],[77.07601,28.41289],[77.07605,28.41276],[77.07476,28.41159],[77.07377,28.41033],[77.07339,28.41039],[77.0725,28.40808],[77.07249,28.40458],[77.0726,28.40451],[77.07115,28.40426],[77.06749,28.40463],[77.06509,28.40459],[77.06321,28.40528],[77.06254,28.40526],[77.06166,28.40495],[77.06018,28.40392],[77.05859,28.40313],[77.05821,28.40276],[77.05611,28.40004],[77.05493,28.39802],[77.05448,28.39817],[77.05419,28.39854],[77.05369,28.39855],[77.05367,28.39839],[77.04567,28.39834],[77.04482,28.40133],[77.03963,28.4012],[77.03129,28.40044],[77.00839,28.40091],[77.00334,28.40163],[76.99849,28.40272],[76.993,28.40456],[76.99027,28.40583],[76.99963,28.42314],[77.00046,28.42436],[77.00474,28.42943],[77.01232,28.42331],[77.01575,28.42706],[77.0163,28.42669],[77.01908,28.43003],[77.02116,28.42864],[77.02211,28.42762]]]}},{"type":"Feature","bbox":[76.99562,28.42331,77.03706,28.44803],"properties":{"ward":27},"geometry":{"type":"Polygon","coordinates":[[[77.03369,28.44556],[77.03433,28.43959],[77.03508,28.43592],[77.03405,28.43562],[77.03292,28.43608],[77.03275,28.43578],[77.03355,28.43542],[77.03295,28.43522],[77.03364,28.4349],[77.03332,28.43441],[77.0336,28.43391],[77.03439,28.43378],[77.03404,28.43322],[77.03447,28.43301],[77.03431,28.43268],[77.03502,28.43239],[77.0345,28.43151],[77.03469,28.43142],[77.03455,28.4312],[77.03478,28.43108],[77.03463,28.4308],[77.03506,28.43058],[77.03463,28.42999],[77.03508,28.42982],[77.03527,28.43005],[77.03637,28.42954],[77.0367,28.42957],[77.03706,28.42865],[77.02695,28.42624],[77.02465,28.42628],[77.02211,28.42762],[77.02116,28.42864],[77.01908,28.43003],[77.0163,28.42669],[77.01575,28.42706],[77.01232,28.42331],[77.00474,28.42943],[77.00042,28.42431],[76.99825,28.42506],[76.99656,28.42589],[76.99562,28.42654],[76.99968,28.43052],[77.00129,28.43232],[77.00451,28.43661],[77.00701,28.43512],[77.00847,28.43695],[77.01035,28.43586],[77.01701,28.44396],[77.02062,28.44208],[77.02086,28.44239],[77.02131,28.44233],[77.0219,28.44394],[77.02384,28.44678],[77.02431,28.44803],[77.03233,28.44577],[77.03369,28.44556]]]}},{"type":"Feature","bbox":[77.03275,28.42865,77.05827,28.45088],"properties":{"ward":28},"geometry":{"type":"Polygon","coordinates":[[[77.04285,28.45088],[77.04509,28.4488],[77.04611,28.44922],[77.04618,28.44853],[77.04558,28.44828],[77.04761,28.44634],[77.04983,28.44807],[77.05087,28.44915],[77.05217,28.44822],[77.05234,28.44915],[77.05257,28.44916],[77.05256,28.44949],[77.05463,28.44951],[77.0548,28.44862],[77.05453,28.44814],[77.05445,28.44667],[77.05596,28.44626],[77.05691,28.44502],[77.05827,28.44396],[77.04541,28.43065],[77.03706,28.42865],[77.0367,28.42957],[77.03637,28.42954],[77.03527,28.43005],[77.03508,28.42982],[77.03463,28.42999],[77.03506,28.43058],[77.03463,28.4308],[77.03478,28.43108],[77.03455,28.4312],[77.03469,28.43142],[77.0345,28.43151],[77.03502,28.43239],[77.03431,28.43268],[77.03447,28.43301],[77.03404,28.43322],[77.03439,28.43378],[77.0336,28.43391],[77.03332,28.43441],[77.03364,28.4349],[77.03295,28.43522],[77.03355,28.43542],[77.03275,28.43578],[77.03292,28.43608],[77.03405,28.43562],[77.03508,28.43592],[77.03433,28.43959],[77.03369,28.44556],[77.03532,28.44579],[77.03594,28.44608],[77.03726,28.44364],[77.04138,28.4405],[77.04649,28.44579],[77.04142,28.44938],[77.04285,28.45088]]]}},{"type":"Feature","bbox":[77.02952,28.41032,77.09177,28.44172],"properties":{"ward":29},"geometry":{"type":"Polygon","coordinates":[[[77.05685,28.43968],[77.05884,28.43824],[77.05964,28.43909],[77.06116,28.43798],[77.06319,28.44002],[77.07524,28.43058],[77.08501,28.42951],[77.09134,28.4299],[77.09115,28.41738],[77.09098,28.41659],[77.09096,28.41503],[77.09117,28.41344],[77.09177,28.41135],[77.0911,28.41106],[77.09078,28.41128],[77.08943,28.41037],[77.08796,28.41165],[77.08675,28.41034],[77.08583,28.41107],[77.08392,28.41183],[77.08171,28.41182],[77.07605,28.41276],[77.07601,28.41289],[77.07635,28.41303],[77.0755,28.41499],[77.0752,28.41646],[77.07548,28.41659],[77.07539,28.41786],[77.07466,28.41785],[77.07465,28.41903],[77.0744,28.41902],[77.0744,28.41927],[77.07486,28.41927],[77.07484,28.41973],[77.07453,28.41973],[77.07454,28.42002],[77.07484,28.42002],[77.07482,28.42037],[77.07455,28.42038],[77.07454,28.42065],[77.07474,28.42065],[77.07473,28.421],[77.07446,28.42101],[77.07423,28.42065],[77.07242,28.42061],[77.07236,28.42171],[77.07079,28.42167],[77.07074,28.42226],[77.0687,28.42094],[77.06664,28.4192],[77.06917,28.41707],[77.06827,28.41706],[77.06824,28.41654],[77.06646,28.41651],[77.06644,28.41852],[77.06606,28.41851],[77.06593,28.41829],[77.06505,28.41828],[77.06504,28.41946],[77.06547,28.41942],[77.06288,28.4213],[77.06274,28.42117],[77.06275,28.4194],[77.06092,28.41939],[77.06092,28.42037],[77.05883,28.42038],[77.05884,28.42311],[77.06018,28.42316],[77.06017,28.42434],[77.05973,28.4247],[77.05947,28.42449],[77.05951,28.42414],[77.05885,28.42412],[77.05887,28.42361],[77.05816,28.4236],[77.05817,28.42407],[77.05741,28.42406],[77.0574,28.42469],[77.05672,28.42468],[77.05673,28.42417],[77.05545,28.42417],[77.05539,28.42475],[77.054,28.42301],[77.05176,28.42084],[77.05032,28.42028],[77.04471,28.41866],[77.04503,28.41937],[77.0428,28.42037],[77.04228,28.41955],[77.04452,28.41859],[77.04034,28.41713],[77.04144,28.41338],[77.04021,28.41362],[77.03835,28.41442],[77.03836,28.41108],[77.03437,28.41032],[77.03532,28.41137],[77.03523,28.41453],[77.0339,28.41453],[77.03366,28.41679],[77.03274,28.41909],[77.0317,28.42326],[77.03129,28.42397],[77.03003,28.42503],[77.02952,28.42685],[77.04541,28.43065],[77.05614,28.44172],[77.05694,28.44107],[77.05685,28.43968]]]}},{"type":"Feature","bbox":[77.09096,28.3619,77.17419,28.44543],"properties":{"ward":30},"geometry":{"type":"Polygon","coordinates":[[[77.12998,28.36997],[77.13113,28.37096],[77.13069,28.37182],[77.12892,28.3742],[77.12694,28.37519],[77.12673,28.37587],[77.12675,28.37682],[77.12748,28.37745],[77.12767,28.37822],[77.12677,28.37915],[77.12774,28.38386],[77.1281,28.38417],[77.12813,28.38606],[77.12762,28.39103],[77.12712,28.39134],[77.12699,28.39581],[77.12551,28.39932],[77.12539,28.40163],[77.12589,28.40486],[77.12672,28.40613],[77.12755,28.40786],[77.1272,28.40944],[77.1267,28.40928],[77.12618,28.40945],[77.12438,28.41159],[77.1244,28.41222],[77.12402,28.41252],[77.12248,28.41233],[77.12056,28.41527],[77.11986,28.41431],[77.11672,28.41256],[77.11533,28.41278],[77.11271,28.41383],[77.1123,28.41339],[77.11091,28.41435],[77.10816,28.41533],[77.10673,28.41347],[77.10492,28.4118],[77.10277,28.4124],[77.1024,28.41354],[77.09931,28.41617],[77.09819,28.41499],[77.09689,28.41468],[77.09675,28.41418],[77.09685,28.41396],[77.09642,28.41368],[77.09477,28.41269],[77.09177,28.41135],[77.09117,28.41344],[77.09096,28.41503],[77.09098,28.41659],[77.09115,28.41738],[77.09134,28.4299],[77.0962,28.43142],[77.11357,28.43115],[77.11842,28.43051],[77.12043,28.43354],[77.12256,28.43636],[77.12267,28.43645],[77.12329,28.43627],[77.12376,28.43749],[77.12445,28.43942],[77.12439,28.43975],[77.12418,28.4398],[77.1243,28.4415],[77.12418,28.44256],[77.12388,28.44264],[77.12378,28.44543],[77.12426,28.44442],[77.12671,28.44218],[77.1281,28.44066],[77.12938,28.44035],[77.13106,28.44032],[77.13175,28.4392],[77.14108,28.43652],[77.14258,28.43721],[77.14805,28.43725],[77.15138,28.43496],[77.1514,28.43439],[77.15237,28.4336],[77.15487,28.43201],[77.15661,28.43114],[77.16129,28.42928],[77.16282,28.42815],[77.16487,28.42606],[77.16571,28.4256],[77.16536,28.42026],[77.16478,28.41797],[77.16455,28.41517],[77.16494,28.41412],[77.16851,28.41212],[77.16981,28.41007],[77.17058,28.40937],[77.17097,28.40877],[77.17119,28.40638],[77.17175,28.40583],[77.17419,28.40457],[77.17257,28.40123],[77.17106,28.39686],[77.16988,28.39485],[77.16854,28.39547],[77.16736,28.39552],[77.16657,28.39496],[77.16438,28.39512],[77.15994,28.39417],[77.15902,28.39356],[77.15697,28.39264],[77.15569,28.39117],[77.15444,28.39086],[77.15361,28.39007],[77.15302,28.38921],[77.15263,28.3882],[77.1525,28.38671],[77.15051,28.38003],[77.15151,28.37957],[77.15333,28.37936],[77.15215,28.37615],[77.1512,28.3742],[77.14995,28.37225],[77.14813,28.3675],[77.14775,28.36691],[77.14766,28.36432],[77.14625,28.36291],[77.14461,28.36192],[77.14394,28.3619],[77.14226,28.36246],[77.13703,28.36257],[77.13599,28.36453],[77.13388,28.36704],[77.13193,28.36904],[77.13143,28.36926],[77.13116,28.36905],[77.13039,28.36939],[77.13033,28.36993],[77.12998,28.36997]]]}},{"type":"Feature","bbox":[77.06728,28.42951,77.0924,28.44618],"properties":{"ward":31},"geometry":{"type":"Polygon","coordinates":[[[77.0809,28.44618],[77.08446,28.44279],[77.08752,28.44048],[77.08803,28.44094],[77.08843,28.44063],[77.08889,28.4411],[77.08925,28.44069],[77.0904,28.44147],[77.09055,28.44134],[77.09045,28.4412],[77.09106,28.44086],[77.09201,28.44143],[77.0924,28.44083],[77.09137,28.44053],[77.09083,28.43999],[77.09061,28.4401],[77.09003,28.43932],[77.0893,28.43876],[77.08992,28.43786],[77.09035,28.43662],[77.09129,28.4312],[77.09134,28.4299],[77.08501,28.42951],[77.07524,28.43058],[77.06728,28.4369],[77.06974,28.43964],[77.0704,28.43914],[77.07235,28.43932],[77.07225,28.44108],[77.07268,28.44174],[77.07382,28.44208],[77.07482,28.44286],[77.07498,28.44271],[77.07503,28.44141],[77.07547,28.44144],[77.0755,28.44204],[77.07592,28.44302],[77.07727,28.44365],[77.07935,28.44593],[77.08048,28.44585],[77.0809,28.44618]]]}},{"type":"Feature","bbox":[77.05595,28.4299,77.12445,28.47423],"properties":{"ward":32},"geometry":{"type":"Polygon","coordinates":[[[77.07894,28.47423],[77.08004,28.47381],[77.07972,28.47316],[77.07977,28.46259],[77.08139,28.46196],[77.08395,28.46126],[77.08447,28.46128],[77.08477,28.46076],[77.08581,28.45975],[77.08589,28.4589],[77.08962,28.45847],[77.08962,28.45583],[77.08945,28.45458],[77.08895,28.45453],[77.08881,28.45428],[77.08883,28.45381],[77.08904,28.45355],[77.08804,28.4509],[77.08802,28.44983],[77.09522,28.45022],[77.09643,28.45002],[77.0965,28.45023],[77.096,28.45079],[77.09282,28.45144],[77.09319,28.45261],[77.09485,28.45221],[77.09557,28.45331],[77.09627,28.4538],[77.09644,28.45374],[77.09676,28.45416],[77.09593,28.45457],[77.09637,28.45509],[77.09747,28.45577],[77.09656,28.45887],[77.09877,28.45902],[77.1029,28.4603],[77.10867,28.46087],[77.11646,28.46355],[77.11691,28.4628],[77.11834,28.46147],[77.12185,28.45853],[77.12273,28.45363],[77.12339,28.44871],[77.12388,28.44431],[77.12388,28.44264],[77.12418,28.44256],[77.1243,28.4415],[77.12418,28.4398],[77.12439,28.43975],[77.12445,28.43942],[77.12329,28.43627],[77.12267,28.43645],[77.12256,28.43636],[77.12043,28.43354],[77.11842,28.43051],[77.11357,28.43115],[77.0962,28.43142],[77.09134,28.4299],[77.09129,28.4312],[77.09035,28.43662],[77.08992,28.43786],[77.0893,28.43876],[77.09003,28.43932],[77.09061,28.4401],[77.09083,28.43999],[77.09137,28.44053],[77.0924,28.44083],[77.09201,28.44143],[77.09106,28.44086],[77.09045,28.4412],[77.09055,28.44134],[77.0904,28.44147],[77.08925,28.44069],[77.08889,28.4411],[77.08843,28.44063],[77.08803,28.44094],[77.08752,28.44048],[77.08446,28.44279],[77.0809,28.44618],[77.08048,28.44585],[77.07935,28.44593],[77.07727,28.44365],[77.07592,28.44302],[77.0755,28.44204],[77.07547,28.44144],[77.07503,28.44141],[77.07498,28.44271],[77.07482,28.44286],[77.07382,28.44208],[77.07268,28.44174],[77.07225,28.44108],[77.07235,28.43932],[77.0704,28.43914],[77.06974,28.43964],[77.06728,28.4369],[77.06319,28.44002],[77.06116,28.43798],[77.05964,28.43909],[77.05884,28.43824],[77.05685,28.43968],[77.05694,28.44107],[77.05614,28.44172],[77.06093,28.44673],[77.05779,28.44905],[77.05701,28.45019],[77.05636,28.45063],[77.05773,28.45208],[77.05765,28.4537],[77.05811,28.45416],[77.05595,28.45582],[77.06035,28.46049],[77.06093,28.4605],[77.06093,28.46219],[77.05818,28.46216],[77.0582,28.46413],[77.05746,28.46415],[77.05732,28.46809],[77.05743,28.46868],[77.05769,28.46836],[77.05903,28.46767],[77.06042,28.46667],[77.07163,28.45811],[77.07208,28.45813],[77.07411,28.45883],[77.07396,28.46199],[77.0722,28.47411],[77.07881,28.47405],[77.07894,28.47423]]]}},{"type":"Feature","bbox":[77.07972,28.44983,77.09747,28.47645],"properties":{"ward":33},"geometry":{"type":"Polygon","coordinates":[[[77.0903,28.47362],[77.0937,28.47239],[77.08761,28.47018],[77.08715,28.46927],[77.08709,28.46881],[77.08763,28.46805],[77.09005,28.46234],[77.09532,28.46316],[77.09747,28.45577],[77.09637,28.45509],[77.09593,28.45457],[77.09676,28.45416],[77.09644,28.45374],[77.09627,28.4538],[77.09557,28.45331],[77.09485,28.45221],[77.09319,28.45261],[77.09282,28.45144],[77.096,28.45079],[77.0965,28.45023],[77.09643,28.45002],[77.09522,28.45022],[77.08802,28.44983],[77.08804,28.4509],[77.08904,28.45355],[77.08883,28.45381],[77.08881,28.45428],[77.08895,28.45453],[77.08945,28.45458],[77.08962,28.45583],[77.08962,28.45847],[77.08589,28.4589],[77.08581,28.45975],[77.08477,28.46076],[77.08447,28.46128],[77.08395,28.46126],[77.08139,28.46196],[77.07977,28.46259],[77.07972,28.47316],[77.08004,28.47381],[77.08327,28.47259],[77.08391,28.47348],[77.0843,28.47329],[77.08508,28.47456],[77.08436,28.47548],[77.08476,28.47645],[77.08831,28.47538],[77.09052,28.47434],[77.0903,28.47362]]]}},{"type":"Feature","bbox":[77.05743,28.45811,77.11649,28.49834],"properties":{"ward":34},"geometry":{"type":"Polygon","coordinates":[[[77.11649,28.4635],[77.10867,28.46087],[77.1029,28.4603],[77.09877,28.45902],[77.09656,28.45887],[77.09532,28.46316],[77.09005,28.46234],[77.08763,28.46805],[77.08709,28.46881],[77.08715,28.46927],[77.08761,28.47018],[77.0937,28.47239],[77.0903,28.47362],[77.09052,28.47434],[77.08831,28.47538],[77.08476,28.47645],[77.08436,28.47548],[77.08508,28.47456],[77.0843,28.47329],[77.08391,28.47348],[77.08327,28.47259],[77.07894,28.47423],[77.07881,28.47405],[77.0722,28.47411],[77.07396,28.46199],[77.07411,28.45883],[77.07208,28.45813],[77.07163,28.45811],[77.06042,28.46667],[77.05903,28.46767],[77.05769,28.46836],[77.05743,28.46868],[77.07041,28.47905],[77.08891,28.49834],[77.08985,28.49751],[77.09239,28.49591],[77.09265,28.49551],[77.09258,28.49506],[77.09003,28.49031],[77.08996,28.48996],[77.09013,28.48952],[77.09095,28.48883],[77.09275,28.488],[77.0952,28.48642],[77.09529,28.48575],[77.09566,28.48584],[77.09604,28.48533],[77.09648,28.48544],[77.09648,28.48529],[77.10028,28.48349],[77.10084,28.4849],[77.10181,28.48476],[77.1018,28.48491],[77.1028,28.48504],[77.10337,28.48465],[77.10322,28.48404],[77.10282,28.48399],[77.1031,28.48353],[77.10353,28.48322],[77.10384,28.48339],[77.1055,28.48335],[77.10554,28.48355],[77.10645,28.48304],[77.10675,28.48257],[77.10751,28.48271],[77.1083,28.48265],[77.11098,28.48164],[77.11381,28.48164],[77.11485,28.48145],[77.11301,28.47133],[77.1109,28.47136],[77.11649,28.4635]]]}},{"type":"Feature","bbox":[77.08891,28.48145,77.12073,28.51422],"properties":{"ward":35},"geometry":{"type":"Polygon","coordinates":[[[77.11697,28.49636],[77.12073,28.49594],[77.11969,28.49245],[77.11865,28.48804],[77.11768,28.48593],[77.11541,28.48301],[77.11485,28.48145],[77.11381,28.48164],[77.11098,28.48164],[77.1083,28.48265],[77.10751,28.48271],[77.10675,28.48257],[77.10645,28.48304],[77.10554,28.48355],[77.1055,28.48335],[77.10384,28.48339],[77.10353,28.48322],[77.1031,28.48353],[77.10282,28.48399],[77.10322,28.48404],[77.10337,28.48465],[77.1028,28.48504],[77.1018,28.48491],[77.10181,28.48476],[77.10084,28.4849],[77.10028,28.48349],[77.09648,28.48529],[77.09648,28.48544],[77.09604,28.48533],[77.09566,28.48584],[77.09529,28.48575],[77.0952,28.48642],[77.09275,28.488],[77.09046,28.48917],[77.08996,28.48996],[77.09003,28.49031],[77.09258,28.49506],[77.09265,28.49551],[77.09239,28.49591],[77.08985,28.49751],[77.08891,28.49834],[77.09133,28.50095],[77.09441,28.50471],[77.09485,28.50552],[77.0951,28.50674],[77.09482,28.50813],[77.09335,28.5106],[77.09297,28.51161],[77.09289,28.51261],[77.09326,28.51422],[77.09468,28.51383],[77.09862,28.51148],[77.0998,28.51127],[77.09708,28.50648],[77.09797,28.50575],[77.10217,28.50362],[77.10567,28.50227],[77.10847,28.50007],[77.11697,28.49636]]]}}]}