{"type":"FeatureCollection","features":[{"type":"Feature","bbox":[76.57377,28.07254,76.58774,28.08078],"properties":{"ward":1},"geometry":{"type":"Polygon","coordinates":[[[76.57998,28.07787],[76.58195,28.07719],[76.58242,28.07808],[76.58301,28.07768],[76.58326,28.0777],[76.58434,28.07987],[76.58774,28.07895],[76.58737,28.076],[76.58749,28.07583],[76.58436,28.07254],[76.5841,28.07282],[76.58412,28.07345],[76.58254,28.07393],[76.5801,28.07381],[76.57953,28.0734],[76.57788,28.07405],[76.5775,28.0736],[76.57377,28.07488],[76.57557,28.08078],[76.57722,28.08048],[76.57811,28.07909],[76.58005,28.07901],[76.57985,28.07814],[76.57998,28.07787]]]}},{"type":"Feature","bbox":[76.58347,28.06793,76.59213,28.0757],"properties":{"ward":2},"geometry":{"type":"Polygon","coordinates":[[[76.5875,28.0757],[76.58853,28.0756],[76.58753,28.07439],[76.58673,28.0725],[76.58842,28.07242],[76.59091,28.07265],[76.59055,28.07104],[76.59086,28.07098],[76.59078,28.07],[76.59121,28.06975],[76.59125,28.06939],[76.59213,28.06929],[76.59171,28.06793],[76.586,28.06807],[76.5859,28.06838],[76.58618,28.06997],[76.58347,28.07135],[76.58662,28.07504],[76.5875,28.0757]]]}},{"type":"Feature","bbox":[76.58194,28.07135,76.58436,28.07396],"properties":{"ward":3},"geometry":{"type":"Polygon","coordinates":[[[76.58412,28.07345],[76.5841,28.07282],[76.58436,28.07254],[76.58408,28.07198],[76.58347,28.07135],[76.58299,28.07173],[76.58194,28.07203],[76.58231,28.07265],[76.58216,28.07281],[76.58217,28.07339],[76.58237,28.07396],[76.58412,28.07345]]]}},{"type":"Feature","bbox":[76.57919,28.07177,76.58237,28.07396],"properties":{"ward":4},"geometry":{"type":"Polygon","coordinates":[[[76.58231,28.07265],[76.58194,28.07203],[76.58127,28.07253],[76.58096,28.07256],[76.58029,28.07177],[76.57994,28.07192],[76.57988,28.07233],[76.57919,28.07277],[76.57954,28.07342],[76.5801,28.07381],[76.58237,28.07396],[76.58217,28.07339],[76.58216,28.07281],[76.58231,28.07265]]]}},{"type":"Feature","bbox":[76.58011,28.07026,76.58324,28.07256],"properties":{"ward":5},"geometry":{"type":"Polygon","coordinates":[[[76.58324,28.07135],[76.58309,28.07055],[76.58207,28.07102],[76.58178,28.07089],[76.58114,28.07118],[76.58067,28.0703],[76.58011,28.07026],[76.5806,28.07114],[76.58042,28.0712],[76.58048,28.0716],[76.58029,28.07177],[76.58096,28.07256],[76.58127,28.07253],[76.58205,28.07198],[76.58299,28.07173],[76.58324,28.07135]]]}},{"type":"Feature","bbox":[76.5726,28.07035,76.5806,28.07488],"properties":{"ward":6},"geometry":{"type":"Polygon","coordinates":[[[76.57649,28.07385],[76.5775,28.0736],[76.57788,28.07405],[76.57953,28.0734],[76.57919,28.07277],[76.57988,28.07233],[76.57994,28.07192],[76.58044,28.07167],[76.58042,28.0712],[76.5806,28.07114],[76.5801,28.07035],[76.57984,28.07059],[76.57956,28.07063],[76.57941,28.07045],[76.57842,28.07085],[76.57735,28.07158],[76.57684,28.07083],[76.5755,28.07143],[76.57401,28.07167],[76.57347,28.07142],[76.57329,28.07046],[76.5726,28.07065],[76.57377,28.07488],[76.57572,28.07427],[76.57649,28.07385]]]}},{"type":"Feature","bbox":[76.58073,28.06815,76.58618,28.07144],"properties":{"ward":7},"geometry":{"type":"Polygon","coordinates":[[[76.58329,28.07144],[76.58618,28.06997],[76.58592,28.06815],[76.58495,28.06851],[76.58305,28.06863],[76.58189,28.06932],[76.58102,28.06953],[76.58123,28.07055],[76.58073,28.0705],[76.58114,28.07118],[76.58178,28.07089],[76.58207,28.07102],[76.58309,28.07055],[76.58329,28.07144]]]}},{"type":"Feature","bbox":[76.57889,28.05972,76.58618,28.06863],"properties":{"ward":8},"geometry":{"type":"MultiPolygon","coordinates":[[[[76.57889,28.06232],[76.57889,28.0623],[76.57889,28.0623],[76.57889,28.06232]]],[[[76.57889,28.0623],[76.57955,28.06214],[76.57949,28.06195],[76.58098,28.06148],[76.58127,28.06344],[76.58268,28.06721],[76.58305,28.06863],[76.58495,28.06851],[76.58587,28.06814],[76.58604,28.0678],[76.58599,28.06554],[76.58618,28.06549],[76.58599,28.06323],[76.58252,28.0633],[76.5826,28.05972],[76.57957,28.05973],[76.57889,28.0623]]]]}},{"type":"Feature","bbox":[76.57727,28.06148,76.58176,28.06711],"properties":{"ward":9},"geometry":{"type":"Polygon","coordinates":[[[76.57727,28.06711],[76.58176,28.06479],[76.58122,28.06324],[76.58098,28.06148],[76.57949,28.06195],[76.57955,28.06214],[76.57887,28.06234],[76.57727,28.06711]]]}},{"type":"Feature","bbox":[76.57602,28.06479,76.58305,28.07158],"properties":{"ward":10},"geometry":{"type":"Polygon","coordinates":[[[76.57984,28.07059],[76.58032,28.07024],[76.58067,28.0703],[76.58075,28.0705],[76.58123,28.07055],[76.58102,28.06953],[76.58189,28.06932],[76.58305,28.06863],[76.58268,28.06721],[76.58176,28.06479],[76.58042,28.06543],[76.58089,28.06669],[76.57935,28.06699],[76.58002,28.06841],[76.57932,28.06851],[76.57897,28.06835],[76.57777,28.06866],[76.5762,28.06939],[76.57602,28.06965],[76.57735,28.07158],[76.57842,28.07085],[76.57941,28.07045],[76.57956,28.07063],[76.57984,28.07059]]]}},{"type":"Feature","bbox":[76.57329,28.06965,76.57684,28.07168],"properties":{"ward":11},"geometry":{"type":"Polygon","coordinates":[[[76.57329,28.07046],[76.57347,28.07142],[76.57407,28.07168],[76.57565,28.07139],[76.57684,28.07083],[76.57602,28.06965],[76.57392,28.06998],[76.57329,28.07046]]]}},{"type":"Feature","bbox":[76.56834,28.06543,76.58089,28.07364],"properties":{"ward":12},"geometry":{"type":"Polygon","coordinates":[[[76.57001,28.07364],[76.57324,28.07318],[76.5726,28.07065],[76.57336,28.07045],[76.57392,28.06998],[76.57597,28.06972],[76.5762,28.06939],[76.57777,28.06866],[76.57897,28.06835],[76.57932,28.06851],[76.58002,28.06841],[76.57935,28.06699],[76.58089,28.06669],[76.58042,28.06543],[76.57727,28.06711],[76.57729,28.06625],[76.57694,28.06641],[76.57451,28.06644],[76.56917,28.06634],[76.56907,28.07261],[76.56834,28.07262],[76.56836,28.0732],[76.5699,28.07317],[76.57001,28.07364]]]}},{"type":"Feature","bbox":[76.56031,28.07154,76.57556,28.08187],"properties":{"ward":13},"geometry":{"type":"Polygon","coordinates":[[[76.56043,28.07365],[76.57269,28.08187],[76.57294,28.08181],[76.57477,28.08092],[76.57556,28.08071],[76.57324,28.07318],[76.57001,28.07364],[76.5699,28.07317],[76.56836,28.0732],[76.56834,28.07262],[76.56907,28.07261],[76.56901,28.07154],[76.56031,28.07168],[76.56043,28.07365]]]}}]}