{"type":"FeatureCollection","features":[{"type":"Feature","bbox":[75.20933,27.95371,75.22138,27.96172],"properties":{"ward":1},"geometry":{"type":"Polygon","coordinates":[[[75.21014,27.96099],[75.21351,27.9617],[75.21642,27.96172],[75.21713,27.95893],[75.21792,27.95898],[75.21856,27.95735],[75.22094,27.95771],[75.22138,27.95391],[75.21925,27.95371],[75.21917,27.95459],[75.21798,27.95602],[75.21015,27.95464],[75.20933,27.95714],[75.21014,27.96099]]]}},{"type":"Feature","bbox":[75.21642,27.95735,75.22094,27.96223],"properties":{"ward":2},"geometry":{"type":"Polygon","coordinates":[[[75.22094,27.95771],[75.21856,27.95735],[75.21792,27.95898],[75.21713,27.95893],[75.21642,27.96172],[75.2189,27.96223],[75.21898,27.96179],[75.22054,27.96205],[75.22094,27.95771]]]}},{"type":"Feature","bbox":[75.21015,27.95031,75.22166,27.95602],"properties":{"ward":3},"geometry":{"type":"Polygon","coordinates":[[[75.21157,27.95031],[75.21015,27.95464],[75.21798,27.95602],[75.21917,27.95459],[75.21925,27.95371],[75.22138,27.95391],[75.22166,27.95116],[75.22011,27.95105],[75.21982,27.95082],[75.21935,27.95076],[75.21911,27.95245],[75.21693,27.95199],[75.21651,27.95217],[75.21157,27.95031]]]}},{"type":"Feature","bbox":[75.21157,27.9486,75.22177,27.95245],"properties":{"ward":4},"geometry":{"type":"Polygon","coordinates":[[[75.21213,27.9486],[75.21157,27.95031],[75.21651,27.95217],[75.21693,27.95199],[75.21911,27.95245],[75.21935,27.95076],[75.21982,27.95082],[75.22011,27.95105],[75.22166,27.95116],[75.22177,27.95005],[75.21678,27.94975],[75.21213,27.9486]]]}},{"type":"Feature","bbox":[75.21213,27.94421,75.22209,27.95005],"properties":{"ward":5},"geometry":{"type":"Polygon","coordinates":[[[75.21304,27.94583],[75.21213,27.9486],[75.21678,27.94975],[75.22177,27.95005],[75.22209,27.94677],[75.22097,27.94655],[75.22106,27.94595],[75.21327,27.94421],[75.21304,27.94583]]]}},{"type":"Feature","bbox":[75.21327,27.93422,75.22555,27.94677],"properties":{"ward":6},"geometry":{"type":"Polygon","coordinates":[[[75.21327,27.94421],[75.22106,27.94595],[75.22097,27.94655],[75.22209,27.94677],[75.22244,27.94432],[75.2242,27.94446],[75.22495,27.93831],[75.22555,27.93649],[75.21802,27.93422],[75.21327,27.94421]]]}},{"type":"Feature","bbox":[75.21802,27.93183,75.23319,27.94579],"properties":{"ward":7},"geometry":{"type":"Polygon","coordinates":[[[75.21802,27.93422],[75.22555,27.93649],[75.22495,27.93831],[75.22428,27.94389],[75.22788,27.94579],[75.22911,27.94407],[75.23046,27.94108],[75.23153,27.94022],[75.23166,27.93841],[75.233,27.93849],[75.23319,27.9349],[75.23095,27.93402],[75.23027,27.93314],[75.22954,27.93253],[75.22725,27.93183],[75.2268,27.93195],[75.22524,27.93185],[75.21902,27.93268],[75.21802,27.93422]]]}},{"type":"Feature","bbox":[75.233,27.93211,75.23797,27.93872],"properties":{"ward":8},"geometry":{"type":"Polygon","coordinates":[[[75.23342,27.93211],[75.233,27.93849],[75.23677,27.93872],[75.23744,27.93856],[75.23797,27.93268],[75.23342,27.93211]]]}},{"type":"Feature","bbox":[75.23084,27.93849,75.23744,27.94924],"properties":{"ward":9},"geometry":{"type":"Polygon","coordinates":[[[75.23084,27.94798],[75.23486,27.94898],[75.23662,27.94924],[75.23744,27.93856],[75.23677,27.93872],[75.233,27.93849],[75.23269,27.94149],[75.23084,27.94798]]]}},{"type":"Feature","bbox":[75.22706,27.93841,75.233,27.94742],"properties":{"ward":10},"geometry":{"type":"Polygon","coordinates":[[[75.22997,27.94633],[75.2312,27.94664],[75.23269,27.94149],[75.233,27.93849],[75.23166,27.93841],[75.23153,27.94022],[75.23046,27.94108],[75.22911,27.94407],[75.22706,27.94701],[75.22835,27.94742],[75.22956,27.9464],[75.22997,27.94633]]]}},{"type":"Feature","bbox":[75.22829,27.94633,75.2312,27.95184],"properties":{"ward":11},"geometry":{"type":"Polygon","coordinates":[[[75.22853,27.95043],[75.22829,27.95153],[75.23082,27.95184],[75.23068,27.94859],[75.2312,27.94664],[75.22997,27.94633],[75.22956,27.9464],[75.22835,27.94742],[75.22971,27.94785],[75.22909,27.95049],[75.22853,27.95043]]]}},{"type":"Feature","bbox":[75.22599,27.94701,75.22971,27.95049],"properties":{"ward":12},"geometry":{"type":"Polygon","coordinates":[[[75.22706,27.94701],[75.22599,27.94859],[75.22691,27.94904],[75.22647,27.95022],[75.22909,27.95049],[75.22971,27.94785],[75.22706,27.94701]]]}},{"type":"Feature","bbox":[75.22212,27.94389,75.22788,27.95022],"properties":{"ward":13},"geometry":{"type":"Polygon","coordinates":[[[75.22788,27.94579],[75.22428,27.94389],[75.2242,27.94446],[75.22244,27.94432],[75.22212,27.94654],[75.22501,27.94701],[75.22451,27.95015],[75.22647,27.95022],[75.22691,27.94904],[75.22599,27.94859],[75.22788,27.94579]]]}},{"type":"Feature","bbox":[75.22201,27.94654,75.22501,27.9479],"properties":{"ward":14},"geometry":{"type":"Polygon","coordinates":[[[75.22201,27.94764],[75.22487,27.9479],[75.22501,27.94701],[75.22212,27.94654],[75.22201,27.94764]]]}},{"type":"Feature","bbox":[75.22177,27.94764,75.22487,27.95015],"properties":{"ward":15},"geometry":{"type":"Polygon","coordinates":[[[75.22487,27.9479],[75.22201,27.94764],[75.22177,27.95005],[75.22244,27.94997],[75.22451,27.95015],[75.22487,27.9479]]]}},{"type":"Feature","bbox":[75.22117,27.94997,75.22451,27.9563],"properties":{"ward":16},"geometry":{"type":"Polygon","coordinates":[[[75.22177,27.95005],[75.22117,27.95574],[75.22204,27.95588],[75.22198,27.95616],[75.22349,27.9563],[75.22451,27.95015],[75.22244,27.94997],[75.22177,27.95005]]]}},{"type":"Feature","bbox":[75.21812,27.95574,75.22349,27.96507],"properties":{"ward":17},"geometry":{"type":"Polygon","coordinates":[[[75.22117,27.95574],[75.22054,27.96205],[75.21898,27.96179],[75.2189,27.96223],[75.21851,27.96215],[75.21812,27.96501],[75.2232,27.96507],[75.22317,27.96187],[75.22179,27.9621],[75.22285,27.95806],[75.22349,27.9563],[75.22198,27.95616],[75.22204,27.95588],[75.22117,27.95574]]]}},{"type":"Feature","bbox":[75.22397,27.95015,75.22962,27.9534],"properties":{"ward":18},"geometry":{"type":"Polygon","coordinates":[[[75.22949,27.95168],[75.22829,27.95153],[75.22853,27.95043],[75.22451,27.95015],[75.22397,27.95311],[75.22513,27.95334],[75.22948,27.9534],[75.22962,27.95226],[75.22944,27.9522],[75.22949,27.95168]]]}},{"type":"Feature","bbox":[75.22375,27.95311,75.23011,27.95499],"properties":{"ward":19},"geometry":{"type":"Polygon","coordinates":[[[75.23011,27.95334],[75.22513,27.95334],[75.22397,27.95311],[75.22375,27.9543],[75.22941,27.95499],[75.22965,27.95412],[75.22984,27.95416],[75.23011,27.95334]]]}},{"type":"Feature","bbox":[75.22179,27.9543,75.22716,27.9621],"properties":{"ward":20},"geometry":{"type":"Polygon","coordinates":[[[75.22179,27.9621],[75.22631,27.96133],[75.22716,27.95726],[75.22565,27.95687],[75.22626,27.9546],[75.22375,27.9543],[75.22349,27.9563],[75.22285,27.95806],[75.22179,27.9621]]]}},{"type":"Feature","bbox":[75.22565,27.9546,75.22941,27.9581],"properties":{"ward":21},"geometry":{"type":"Polygon","coordinates":[[[75.22891,27.95672],[75.22941,27.95499],[75.22626,27.9546],[75.22565,27.95687],[75.22716,27.95726],[75.227,27.95801],[75.22741,27.9581],[75.22764,27.95758],[75.22835,27.95808],[75.22876,27.95671],[75.22891,27.95672]]]}},{"type":"Feature","bbox":[75.22941,27.95168,75.23126,27.95824],"properties":{"ward":22},"geometry":{"type":"Polygon","coordinates":[[[75.22941,27.95499],[75.23058,27.95519],[75.23042,27.95587],[75.23058,27.95597],[75.23052,27.95653],[75.2302,27.95797],[75.23126,27.95824],[75.23082,27.95184],[75.22949,27.95168],[75.22944,27.9522],[75.22962,27.95226],[75.22948,27.9534],[75.23011,27.95334],[75.22984,27.95416],[75.22965,27.95412],[75.22941,27.95499]]]}},{"type":"Feature","bbox":[75.23068,27.94798,75.23662,27.96413],"properties":{"ward":23},"geometry":{"type":"Polygon","coordinates":[[[75.23574,27.96072],[75.23662,27.94924],[75.23486,27.94898],[75.23084,27.94798],[75.23068,27.94859],[75.23072,27.94974],[75.23136,27.95996],[75.23181,27.96166],[75.23443,27.96413],[75.23465,27.96057],[75.23574,27.96072]]]}},{"type":"Feature","bbox":[75.22837,27.95499,75.23455,27.96514],"properties":{"ward":24},"geometry":{"type":"Polygon","coordinates":[[[75.2302,27.95797],[75.23058,27.95519],[75.22941,27.95499],[75.2291,27.95621],[75.22891,27.95672],[75.22876,27.95671],[75.22842,27.95785],[75.22932,27.9581],[75.22907,27.9587],[75.22937,27.9589],[75.22837,27.9639],[75.22851,27.96514],[75.23455,27.96482],[75.2345,27.96429],[75.2342,27.96379],[75.23181,27.96166],[75.23136,27.95996],[75.23126,27.95824],[75.2302,27.95797]]]}},{"type":"Feature","bbox":[75.22317,27.95758,75.22937,27.96514],"properties":{"ward":25},"geometry":{"type":"Polygon","coordinates":[[[75.22842,27.95785],[75.22835,27.95808],[75.22764,27.95758],[75.22741,27.9581],[75.227,27.95801],[75.22631,27.96133],[75.22317,27.96187],[75.2232,27.96507],[75.22851,27.96514],[75.22837,27.9639],[75.22937,27.9589],[75.22907,27.9587],[75.22932,27.9581],[75.22842,27.95785]]]}}]}