{"type":"FeatureCollection","features":[{"type":"Feature","bbox":[76.2814,28.9689,76.29436,28.97522],"properties":{"ward":1},"geometry":{"type":"Polygon","coordinates":[[[76.29332,28.97259],[76.29311,28.97141],[76.29282,28.97147],[76.29285,28.97161],[76.29216,28.97162],[76.2921,28.97044],[76.29163,28.9704],[76.29174,28.96983],[76.29127,28.96974],[76.29128,28.96948],[76.29078,28.96934],[76.2908,28.96915],[76.29037,28.96916],[76.28994,28.9689],[76.2894,28.96965],[76.28555,28.97162],[76.28231,28.97298],[76.2814,28.97354],[76.28198,28.97456],[76.28208,28.9751],[76.29369,28.97522],[76.29436,28.97343],[76.29332,28.97259]]]}},{"type":"Feature","bbox":[76.29311,28.97023,76.29761,28.97546],"properties":{"ward":2},"geometry":{"type":"Polygon","coordinates":[[[76.29734,28.97189],[76.29689,28.97238],[76.29603,28.97242],[76.29586,28.97106],[76.29633,28.97102],[76.29584,28.97023],[76.29533,28.97023],[76.29516,28.97085],[76.29484,28.97115],[76.29311,28.97141],[76.29332,28.97259],[76.29436,28.97343],[76.29369,28.97522],[76.2975,28.97546],[76.29761,28.97392],[76.29734,28.97189]]]}},{"type":"Feature","bbox":[76.29734,28.96674,76.31184,28.97553],"properties":{"ward":3},"geometry":{"type":"Polygon","coordinates":[[[76.31184,28.96783],[76.30507,28.96674],[76.30326,28.96701],[76.30186,28.96755],[76.29779,28.96863],[76.29786,28.97004],[76.29746,28.97005],[76.29788,28.97135],[76.29734,28.97189],[76.29761,28.97392],[76.29749,28.97553],[76.30035,28.97544],[76.30034,28.97359],[76.31149,28.97361],[76.31184,28.96783]]]}},{"type":"Feature","bbox":[76.29816,28.96016,76.31184,28.96783],"properties":{"ward":4},"geometry":{"type":"Polygon","coordinates":[[[76.30518,28.96084],[76.30536,28.96236],[76.30437,28.96304],[76.30273,28.96365],[76.30218,28.96153],[76.30203,28.96156],[76.30167,28.96078],[76.3,28.96086],[76.29816,28.96393],[76.29985,28.96402],[76.30186,28.96755],[76.30326,28.96701],[76.30507,28.96674],[76.31184,28.96783],[76.31141,28.96016],[76.30914,28.9604],[76.30914,28.96053],[76.30778,28.96055],[76.30666,28.96084],[76.30518,28.96084]]]}},{"type":"Feature","bbox":[76.29448,28.96059,76.30186,28.96811],"properties":{"ward":5},"geometry":{"type":"Polygon","coordinates":[[[76.30186,28.96755],[76.29985,28.96402],[76.29816,28.96393],[76.29986,28.96117],[76.29937,28.96115],[76.29941,28.96068],[76.29738,28.9608],[76.29738,28.96063],[76.29576,28.96081],[76.29573,28.96059],[76.29448,28.96072],[76.29452,28.96179],[76.29527,28.96181],[76.29533,28.96431],[76.29566,28.96423],[76.29608,28.96539],[76.29683,28.96496],[76.29715,28.96514],[76.2985,28.96523],[76.29854,28.9656],[76.29915,28.96553],[76.29921,28.96645],[76.29951,28.96643],[76.29961,28.96811],[76.30186,28.96755]]]}},{"type":"Feature","bbox":[76.29608,28.96522,76.29961,28.96849],"properties":{"ward":6},"geometry":{"type":"Polygon","coordinates":[[[76.29961,28.96811],[76.29951,28.96643],[76.29921,28.96645],[76.29915,28.96553],[76.29854,28.9656],[76.2984,28.96522],[76.29835,28.96562],[76.29608,28.96578],[76.29615,28.96675],[76.2969,28.9668],[76.29691,28.96708],[76.29715,28.96708],[76.29752,28.96677],[76.29796,28.96676],[76.29785,28.96756],[76.29804,28.96756],[76.29789,28.96763],[76.2982,28.96849],[76.29961,28.96811]]]}},{"type":"Feature","bbox":[76.29564,28.96675,76.2982,28.97009],"properties":{"ward":7},"geometry":{"type":"Polygon","coordinates":[[[76.29786,28.97004],[76.29779,28.96863],[76.2982,28.96849],[76.29789,28.96763],[76.29804,28.96756],[76.29785,28.96756],[76.29796,28.96676],[76.29752,28.96677],[76.29715,28.96708],[76.29691,28.96708],[76.2969,28.9668],[76.29615,28.96675],[76.29597,28.96814],[76.29564,28.969],[76.29701,28.96887],[76.29739,28.97005],[76.29757,28.97009],[76.29786,28.97004]]]}},{"type":"Feature","bbox":[76.29416,28.96887,76.29788,28.97242],"properties":{"ward":8},"geometry":{"type":"Polygon","coordinates":[[[76.29689,28.97238],[76.29788,28.97135],[76.29701,28.96887],[76.29564,28.969],[76.29561,28.96924],[76.29504,28.96925],[76.29416,28.96984],[76.29468,28.96978],[76.29479,28.97005],[76.29584,28.97023],[76.29621,28.97073],[76.29633,28.97102],[76.29586,28.97106],[76.29603,28.97242],[76.29689,28.97238]]]}},{"type":"Feature","bbox":[76.29074,28.96873,76.29537,28.97162],"properties":{"ward":9},"geometry":{"type":"Polygon","coordinates":[[[76.29285,28.97161],[76.29282,28.97147],[76.29484,28.97115],[76.29516,28.97085],[76.29537,28.97009],[76.29479,28.97005],[76.29468,28.96978],[76.29376,28.97],[76.29371,28.96961],[76.29327,28.96961],[76.29328,28.96942],[76.29263,28.96942],[76.29074,28.96873],[76.29078,28.96934],[76.29107,28.96933],[76.29106,28.96946],[76.29128,28.96948],[76.29127,28.96974],[76.29174,28.96983],[76.29163,28.9704],[76.2921,28.97044],[76.29216,28.97162],[76.29285,28.97161]]]}},{"type":"Feature","bbox":[76.28994,28.96746,76.29273,28.96923],"properties":{"ward":10},"geometry":{"type":"Polygon","coordinates":[[[76.29273,28.9687],[76.29265,28.96792],[76.29236,28.9675],[76.29034,28.96746],[76.28994,28.9689],[76.29037,28.96916],[76.29068,28.96914],[76.29074,28.96873],[76.29199,28.96923],[76.29206,28.96868],[76.29273,28.9687]]]}},{"type":"Feature","bbox":[76.29199,28.96689,76.29592,28.97],"properties":{"ward":11},"geometry":{"type":"Polygon","coordinates":[[[76.29376,28.97],[76.29504,28.96925],[76.29561,28.96924],[76.29592,28.96814],[76.29401,28.96817],[76.29455,28.96715],[76.29406,28.96707],[76.29404,28.96689],[76.29295,28.96708],[76.29293,28.96728],[76.29248,28.96756],[76.29273,28.9687],[76.29206,28.96868],[76.29199,28.96923],[76.29371,28.96961],[76.29376,28.97]]]}},{"type":"Feature","bbox":[76.29366,28.96496,76.2984,28.96817],"properties":{"ward":12},"geometry":{"type":"Polygon","coordinates":[[[76.29592,28.96814],[76.29615,28.96675],[76.29608,28.96578],[76.29835,28.96562],[76.2984,28.96522],[76.29715,28.96514],[76.29683,28.96496],[76.29608,28.96539],[76.29611,28.96551],[76.29419,28.96562],[76.29366,28.96595],[76.29396,28.96656],[76.29422,28.96647],[76.29406,28.96707],[76.29455,28.96715],[76.29401,28.96817],[76.29592,28.96814]]]}},{"type":"Feature","bbox":[76.29067,28.96423,76.29611,28.9665],"properties":{"ward":13},"geometry":{"type":"Polygon","coordinates":[[[76.29323,28.96599],[76.29318,28.96556],[76.29503,28.96567],[76.29611,28.96551],[76.29566,28.96423],[76.29309,28.96449],[76.29308,28.96475],[76.29288,28.96474],[76.29293,28.96538],[76.29115,28.96553],[76.29067,28.96634],[76.29186,28.96621],[76.29194,28.96648],[76.29235,28.9665],[76.293,28.96628],[76.29294,28.9661],[76.29323,28.96599]]]}},{"type":"Feature","bbox":[76.28771,28.9601,76.29533,28.96553],"properties":{"ward":14},"geometry":{"type":"Polygon","coordinates":[[[76.29533,28.96431],[76.29527,28.96181],[76.29452,28.96179],[76.29448,28.96076],[76.29395,28.96065],[76.29358,28.9601],[76.28874,28.96303],[76.28771,28.96448],[76.28879,28.96523],[76.29033,28.96527],[76.29104,28.96539],[76.29115,28.96553],[76.29293,28.96538],[76.29288,28.96474],[76.29308,28.96475],[76.29309,28.96449],[76.29533,28.96431]]]}},{"type":"Feature","bbox":[76.28231,28.96446,76.29422,28.97298],"properties":{"ward":15},"geometry":{"type":"Polygon","coordinates":[[[76.28994,28.9689],[76.29034,28.96746],[76.29216,28.96743],[76.29248,28.96756],[76.29293,28.96728],[76.29295,28.96708],[76.29404,28.96689],[76.29422,28.96647],[76.29396,28.96656],[76.29366,28.96595],[76.29419,28.96562],[76.29318,28.96556],[76.29324,28.96604],[76.29294,28.9661],[76.293,28.96628],[76.29235,28.9665],[76.29194,28.96648],[76.29186,28.96621],[76.29067,28.96634],[76.29115,28.96553],[76.29104,28.96539],[76.28879,28.96523],[76.28769,28.96446],[76.28731,28.96532],[76.28483,28.96879],[76.28231,28.97298],[76.28555,28.97162],[76.2894,28.96965],[76.28994,28.9689]]]}}]}