{"type":"FeatureCollection","features":[{"type":"Feature","bbox":[76.80758,28.20537,76.81117,28.2085],"properties":{"ward":1},"geometry":{"type":"Polygon","coordinates":[[[76.811,28.20586],[76.80803,28.20537],[76.80758,28.20795],[76.81105,28.2085],[76.81117,28.2079],[76.81069,28.20783],[76.811,28.20586]]]}},{"type":"Feature","bbox":[76.80669,28.19606,76.812,28.20685],"properties":{"ward":2},"geometry":{"type":"Polygon","coordinates":[[[76.812,28.1961],[76.81148,28.19606],[76.81116,28.19624],[76.80774,28.20003],[76.80669,28.20254],[76.80691,28.20528],[76.80669,28.20666],[76.8069,28.20678],[76.8075,28.20685],[76.80858,28.20215],[76.812,28.1961]]]}},{"type":"Feature","bbox":[76.81069,28.20123,76.81841,28.20857],"properties":{"ward":3},"geometry":{"type":"Polygon","coordinates":[[[76.81841,28.20123],[76.81632,28.20162],[76.81507,28.2022],[76.81316,28.20277],[76.81362,28.20426],[76.81381,28.20445],[76.81362,28.2057],[76.81395,28.20578],[76.81383,28.20626],[76.811,28.20586],[76.81069,28.20783],[76.81117,28.2079],[76.81105,28.2085],[76.81157,28.20857],[76.81171,28.20803],[76.81468,28.20854],[76.81487,28.2072],[76.81537,28.20617],[76.81737,28.20423],[76.81841,28.20123]]]}},{"type":"Feature","bbox":[76.80803,28.19203,76.82079,28.20626],"properties":{"ward":4},"geometry":{"type":"Polygon","coordinates":[[[76.81841,28.20123],[76.8203,28.20134],[76.82079,28.19571],[76.8193,28.19558],[76.81876,28.19501],[76.81882,28.19412],[76.819,28.19371],[76.81805,28.19203],[76.81651,28.1927],[76.81613,28.19209],[76.81497,28.19269],[76.81459,28.1921],[76.80902,28.20151],[76.80852,28.20304],[76.80803,28.20538],[76.81383,28.20626],[76.81395,28.20578],[76.81362,28.2057],[76.81381,28.20445],[76.81362,28.20426],[76.81316,28.20277],[76.81507,28.2022],[76.81632,28.20162],[76.81841,28.20123]]]}},{"type":"Feature","bbox":[76.81459,28.18719,76.81941,28.1927],"properties":{"ward":5},"geometry":{"type":"Polygon","coordinates":[[[76.81613,28.19209],[76.81651,28.1927],[76.81805,28.19203],[76.81744,28.19113],[76.81895,28.19024],[76.81941,28.19022],[76.81891,28.18912],[76.81748,28.18719],[76.81459,28.19212],[76.81497,28.19269],[76.81613,28.19209]]]}},{"type":"Feature","bbox":[76.80518,28.17718,76.81625,28.18512],"properties":{"ward":6},"geometry":{"type":"Polygon","coordinates":[[[76.81326,28.18417],[76.81372,28.18468],[76.81442,28.18454],[76.81625,28.18512],[76.81463,28.1823],[76.81352,28.1827],[76.81264,28.18101],[76.81281,28.18092],[76.81196,28.17968],[76.81262,28.17938],[76.81249,28.17918],[76.81206,28.17936],[76.81158,28.17859],[76.81024,28.17922],[76.81005,28.17889],[76.80982,28.17895],[76.80969,28.17877],[76.80921,28.17905],[76.80908,28.17873],[76.80868,28.17891],[76.80805,28.17768],[76.8076,28.17718],[76.80518,28.18059],[76.8064,28.1826],[76.80588,28.18289],[76.80608,28.18325],[76.80658,28.18299],[76.80667,28.18313],[76.80777,28.18255],[76.80791,28.18274],[76.80831,28.18263],[76.80851,28.18289],[76.809,28.18268],[76.80908,28.18283],[76.81035,28.18227],[76.8112,28.18359],[76.81165,28.18332],[76.81245,28.18426],[76.8123,28.18437],[76.81249,28.18463],[76.81326,28.18417]]]}},{"type":"Feature","bbox":[76.81196,28.17159,76.82571,28.19026],"properties":{"ward":7},"geometry":{"type":"Polygon","coordinates":[[[76.81943,28.19026],[76.82185,28.18914],[76.82557,28.18795],[76.82571,28.18596],[76.82513,28.18254],[76.82424,28.18022],[76.82408,28.17944],[76.82413,28.1762],[76.82552,28.17159],[76.82284,28.17251],[76.82254,28.17177],[76.82149,28.1721],[76.82177,28.17274],[76.82118,28.17295],[76.82129,28.17314],[76.82035,28.17346],[76.82085,28.17433],[76.82082,28.17458],[76.82148,28.17543],[76.81628,28.17801],[76.81196,28.17968],[76.81281,28.18092],[76.81264,28.18101],[76.81352,28.1827],[76.81463,28.1823],[76.81617,28.18516],[76.81729,28.18698],[76.81891,28.18912],[76.81943,28.19026]]]}},{"type":"Feature","bbox":[76.81125,28.16596,76.82623,28.17938],"properties":{"ward":8},"geometry":{"type":"Polygon","coordinates":[[[76.82615,28.16761],[76.8256,28.16596],[76.82115,28.16764],[76.82057,28.16832],[76.81723,28.1696],[76.81636,28.16785],[76.81612,28.16798],[76.81622,28.16818],[76.81473,28.1688],[76.81573,28.17013],[76.81277,28.17118],[76.81421,28.17463],[76.81125,28.17875],[76.81158,28.17859],[76.81206,28.17936],[76.81249,28.17918],[76.81262,28.17938],[76.81628,28.17801],[76.82148,28.17543],[76.82082,28.17458],[76.82085,28.17433],[76.82035,28.17346],[76.82129,28.17314],[76.82118,28.17295],[76.82177,28.17274],[76.82149,28.1721],[76.82254,28.17177],[76.82284,28.17251],[76.82552,28.17159],[76.82623,28.16907],[76.82615,28.16761]]]}},{"type":"Feature","bbox":[76.82412,28.16163,76.84004,28.17985],"properties":{"ward":9},"geometry":{"type":"Polygon","coordinates":[[[76.82413,28.1762],[76.82412,28.17985],[76.82524,28.17933],[76.82628,28.17923],[76.82828,28.17951],[76.83075,28.1768],[76.83377,28.17391],[76.83562,28.17243],[76.83648,28.17146],[76.83863,28.17186],[76.83835,28.17104],[76.84004,28.17067],[76.84003,28.1692],[76.83542,28.16386],[76.83463,28.16355],[76.8332,28.16367],[76.83151,28.16328],[76.8308,28.1639],[76.82879,28.16235],[76.82787,28.16202],[76.82425,28.16163],[76.82615,28.16761],[76.82626,28.16838],[76.82603,28.16995],[76.82413,28.1762]]]}},{"type":"Feature","bbox":[76.82412,28.17146,76.8446,28.18637],"properties":{"ward":10},"geometry":{"type":"Polygon","coordinates":[[[76.8257,28.18637],[76.8443,28.17705],[76.84437,28.17557],[76.84425,28.17482],[76.8446,28.1742],[76.84374,28.1735],[76.84166,28.17289],[76.84125,28.17236],[76.8396,28.17272],[76.83929,28.172],[76.83648,28.17146],[76.83562,28.17243],[76.83377,28.17391],[76.83075,28.1768],[76.82828,28.17952],[76.82628,28.17923],[76.82524,28.17933],[76.82412,28.17985],[76.82508,28.18227],[76.8257,28.18637]]]}},{"type":"Feature","bbox":[76.81744,28.19022,76.82679,28.20095],"properties":{"ward":11},"geometry":{"type":"Polygon","coordinates":[[[76.82679,28.19887],[76.82547,28.1975],[76.82455,28.1962],[76.82212,28.19391],[76.82026,28.19186],[76.81941,28.19022],[76.81895,28.19024],[76.81744,28.19113],[76.819,28.19371],[76.81882,28.19412],[76.81876,28.19501],[76.8193,28.19558],[76.82079,28.19571],[76.82038,28.20021],[76.82251,28.2005],[76.82266,28.20035],[76.82319,28.20039],[76.82318,28.20089],[76.82421,28.20095],[76.82424,28.20047],[76.82462,28.20079],[76.82552,28.19975],[76.82592,28.20001],[76.8266,28.19943],[76.82679,28.19887]]]}},{"type":"Feature","bbox":[76.81468,28.19975,76.82779,28.2088],"properties":{"ward":12},"geometry":{"type":"Polygon","coordinates":[[[76.82193,28.20434],[76.82504,28.20458],[76.82691,28.20185],[76.82749,28.20173],[76.82779,28.20189],[76.82754,28.20143],[76.82552,28.19975],[76.82462,28.20079],[76.82424,28.20047],[76.82421,28.20095],[76.82318,28.20089],[76.82319,28.20039],[76.82266,28.20035],[76.82251,28.2005],[76.82038,28.20021],[76.82029,28.20134],[76.81841,28.20123],[76.81827,28.20142],[76.8175,28.20401],[76.81537,28.20617],[76.81487,28.2072],[76.81468,28.20856],[76.81885,28.2088],[76.8189,28.20719],[76.81878,28.20724],[76.81892,28.2058],[76.82166,28.20602],[76.82178,28.20594],[76.82193,28.20434]]]}},{"type":"Feature","bbox":[76.81878,28.20434,76.82504,28.2088],"properties":{"ward":13},"geometry":{"type":"Polygon","coordinates":[[[76.82432,28.20847],[76.82504,28.20458],[76.82193,28.20434],[76.82178,28.20594],[76.82166,28.20602],[76.81892,28.2058],[76.81878,28.20724],[76.8189,28.20719],[76.81886,28.2088],[76.82432,28.20847]]]}},{"type":"Feature","bbox":[76.82433,28.20173,76.83112,28.20869],"properties":{"ward":14},"geometry":{"type":"Polygon","coordinates":[[[76.83112,28.20734],[76.82947,28.20489],[76.82779,28.20189],[76.82749,28.20173],[76.82691,28.20185],[76.82504,28.20458],[76.82433,28.20848],[76.82707,28.20869],[76.83112,28.20734]]]}},{"type":"Feature","bbox":[76.82592,28.19703,76.83009,28.20143],"properties":{"ward":15},"geometry":{"type":"Polygon","coordinates":[[[76.82592,28.20001],[76.82754,28.20143],[76.82877,28.20053],[76.82942,28.20057],[76.8298,28.19868],[76.83009,28.1984],[76.82885,28.19703],[76.82764,28.19836],[76.82679,28.19887],[76.8266,28.19943],[76.82592,28.20001]]]}},{"type":"Feature","bbox":[76.81943,28.1742,76.85131,28.19887],"properties":{"ward":16},"geometry":{"type":"Polygon","coordinates":[[[76.82185,28.18914],[76.81943,28.19026],[76.82026,28.19186],[76.82212,28.19391],[76.82455,28.1962],[76.82547,28.1975],[76.82679,28.19887],[76.82764,28.19836],[76.82885,28.19703],[76.82968,28.198],[76.82994,28.19785],[76.83093,28.19644],[76.83194,28.19546],[76.83212,28.19549],[76.83251,28.19434],[76.8341,28.19233],[76.83488,28.19347],[76.8355,28.19313],[76.83588,28.19387],[76.83737,28.19363],[76.83918,28.19391],[76.83929,28.19339],[76.84258,28.19385],[76.84325,28.18998],[76.84718,28.18781],[76.84766,28.18772],[76.84735,28.18663],[76.84646,28.18476],[76.84593,28.18443],[76.84609,28.18421],[76.84641,28.18437],[76.84721,28.18531],[76.85048,28.18665],[76.85131,28.18649],[76.85107,28.18519],[76.84938,28.18136],[76.8489,28.17984],[76.84785,28.17879],[76.84728,28.17784],[76.84723,28.17735],[76.84616,28.176],[76.84525,28.17436],[76.8446,28.1742],[76.84425,28.17482],[76.84437,28.17557],[76.8443,28.17705],[76.8257,28.18637],[76.82557,28.18795],[76.82185,28.18914]]]}},{"type":"Feature","bbox":[76.83172,28.19233,76.83588,28.19666],"properties":{"ward":17},"geometry":{"type":"Polygon","coordinates":[[[76.83527,28.19666],[76.83588,28.19387],[76.8355,28.19313],[76.83488,28.19347],[76.8341,28.19233],[76.83251,28.19434],[76.83212,28.19549],[76.83194,28.19546],[76.83172,28.19613],[76.83527,28.19666]]]}},{"type":"Feature","bbox":[76.82942,28.19546,76.83417,28.20111],"properties":{"ward":18},"geometry":{"type":"Polygon","coordinates":[[[76.8298,28.19868],[76.82942,28.20057],[76.83273,28.20111],[76.83289,28.20012],[76.83401,28.20027],[76.83415,28.1994],[76.83379,28.19933],[76.83417,28.19713],[76.83247,28.19689],[76.83255,28.19624],[76.83172,28.19613],[76.83194,28.19546],[76.83093,28.19644],[76.82994,28.19785],[76.82968,28.198],[76.83009,28.1984],[76.8298,28.19868]]]}},{"type":"Feature","bbox":[76.82754,28.20051,76.83273,28.20489],"properties":{"ward":19},"geometry":{"type":"Polygon","coordinates":[[[76.832,28.2047],[76.83273,28.20111],[76.82898,28.20051],[76.82754,28.20143],[76.82947,28.20489],[76.82975,28.20443],[76.832,28.2047]]]}},{"type":"Feature","bbox":[76.82947,28.20296,76.83605,28.20827],"properties":{"ward":20},"geometry":{"type":"Polygon","coordinates":[[[76.83221,28.20391],[76.832,28.2047],[76.82975,28.20443],[76.82947,28.20489],[76.83174,28.20827],[76.83321,28.20763],[76.8328,28.20693],[76.83407,28.20638],[76.83394,28.206],[76.83428,28.206],[76.83605,28.205],[76.83486,28.20296],[76.83408,28.20378],[76.83323,28.20347],[76.83221,28.20391]]]}},{"type":"Feature","bbox":[76.83221,28.20111,76.83771,28.205],"properties":{"ward":21},"geometry":{"type":"Polygon","coordinates":[[[76.83771,28.20175],[76.83273,28.20111],[76.83221,28.20391],[76.83323,28.20347],[76.83408,28.20378],[76.83486,28.20296],[76.83605,28.205],[76.8372,28.20428],[76.83771,28.20175]]]}},{"type":"Feature","bbox":[76.83247,28.19624,76.83796,28.20175],"properties":{"ward":22},"geometry":{"type":"Polygon","coordinates":[[[76.83273,28.20111],[76.83771,28.20175],[76.83796,28.20046],[76.8374,28.20036],[76.83747,28.19993],[76.83711,28.19987],[76.83719,28.19959],[76.83581,28.1994],[76.83568,28.19997],[76.83466,28.19982],[76.8352,28.19717],[76.83583,28.19722],[76.83593,28.19676],[76.83255,28.19624],[76.83247,28.19689],[76.83417,28.19713],[76.83379,28.19933],[76.83415,28.1994],[76.83401,28.20027],[76.83289,28.20012],[76.83273,28.20111]]]}},{"type":"Feature","bbox":[76.83466,28.196,76.83858,28.20046],"properties":{"ward":23},"geometry":{"type":"Polygon","coordinates":[[[76.8352,28.19717],[76.83466,28.19982],[76.83568,28.19997],[76.83581,28.1994],[76.83719,28.19959],[76.83711,28.19987],[76.83747,28.19993],[76.8374,28.20036],[76.83796,28.20046],[76.83858,28.19704],[76.838,28.19697],[76.83811,28.19643],[76.83542,28.196],[76.83527,28.19666],[76.83593,28.19676],[76.83583,28.19722],[76.8352,28.19717]]]}},{"type":"Feature","bbox":[76.83542,28.19339,76.83989,28.19704],"properties":{"ward":24},"geometry":{"type":"Polygon","coordinates":[[[76.83588,28.19387],[76.83542,28.196],[76.83811,28.19643],[76.838,28.19697],[76.83858,28.19704],[76.8387,28.1965],[76.83931,28.19657],[76.83989,28.19347],[76.8393,28.19339],[76.83919,28.19389],[76.83745,28.19363],[76.83588,28.19387]]]}},{"type":"Feature","bbox":[76.83845,28.19347,76.84258,28.19843],"properties":{"ward":25},"geometry":{"type":"Polygon","coordinates":[[[76.8387,28.1965],[76.83845,28.19775],[76.83905,28.19782],[76.839,28.1981],[76.8417,28.19843],[76.84258,28.19385],[76.83989,28.19347],[76.83931,28.19657],[76.8387,28.1965]]]}},{"type":"Feature","bbox":[76.83771,28.19775,76.84337,28.20256],"properties":{"ward":26},"geometry":{"type":"Polygon","coordinates":[[[76.83845,28.19775],[76.83771,28.20175],[76.84337,28.20256],[76.8417,28.19843],[76.839,28.1981],[76.83905,28.19782],[76.83845,28.19775]]]}},{"type":"Feature","bbox":[76.83394,28.205,76.83959,28.21108],"properties":{"ward":27},"geometry":{"type":"Polygon","coordinates":[[[76.83428,28.206],[76.83394,28.206],[76.83395,28.2061],[76.83511,28.20817],[76.83565,28.20781],[76.83572,28.20795],[76.83599,28.20781],[76.83635,28.20858],[76.83642,28.20882],[76.83601,28.209],[76.8361,28.20919],[76.83493,28.20958],[76.83576,28.21071],[76.83959,28.21108],[76.83901,28.20857],[76.83833,28.20839],[76.83605,28.205],[76.83428,28.206]]]}},{"type":"Feature","bbox":[76.8318,28.20635,76.83642,28.21072],"properties":{"ward":28},"geometry":{"type":"Polygon","coordinates":[[[76.83413,28.20635],[76.8328,28.20693],[76.83321,28.20763],[76.8318,28.20825],[76.83324,28.21044],[76.83576,28.21072],[76.83492,28.20958],[76.8361,28.20919],[76.83601,28.209],[76.83642,28.20882],[76.83635,28.20858],[76.83599,28.20781],[76.83572,28.20795],[76.83565,28.20781],[76.83511,28.20817],[76.83413,28.20635]]]}},{"type":"Feature","bbox":[76.83347,28.21079,76.83837,28.21363],"properties":{"ward":29},"geometry":{"type":"Polygon","coordinates":[[[76.838,28.21116],[76.83347,28.21079],[76.83457,28.2126],[76.83518,28.21237],[76.83554,28.21244],[76.83563,28.2122],[76.83658,28.21193],[76.83657,28.2122],[76.83703,28.21221],[76.83701,28.21301],[76.83726,28.21363],[76.83837,28.21312],[76.838,28.21116]]]}},{"type":"Feature","bbox":[76.83457,28.21193,76.83726,28.21426],"properties":{"ward":30},"geometry":{"type":"Polygon","coordinates":[[[76.83559,28.21426],[76.83726,28.21363],[76.83701,28.21301],[76.83703,28.21221],[76.83657,28.2122],[76.83658,28.21193],[76.83563,28.2122],[76.83554,28.21244],[76.83518,28.21237],[76.83457,28.21261],[76.83559,28.21426]]]}},{"type":"Feature","bbox":[76.83561,28.21116,76.84105,28.21536],"properties":{"ward":31},"geometry":{"type":"Polygon","coordinates":[[[76.8408,28.21151],[76.838,28.21116],[76.83837,28.21312],[76.83561,28.21428],[76.83628,28.21536],[76.83884,28.21438],[76.83854,28.21367],[76.84095,28.21357],[76.84105,28.212],[76.8408,28.21151]]]}},{"type":"Feature","bbox":[76.83628,28.21438,76.83947,28.21662],"properties":{"ward":32},"geometry":{"type":"Polygon","coordinates":[[[76.83628,28.21535],[76.83701,28.21662],[76.83947,28.21562],[76.83884,28.21438],[76.83628,28.21535]]]}},{"type":"Feature","bbox":[76.84027,28.20237,76.84579,28.2059],"properties":{"ward":33},"geometry":{"type":"Polygon","coordinates":[[[76.84579,28.20292],[76.84182,28.20237],[76.84157,28.20338],[76.84106,28.20335],[76.84068,28.20355],[76.84027,28.20479],[76.84109,28.20542],[76.84448,28.2059],[76.84543,28.20465],[76.84579,28.20292]]]}},{"type":"Feature","bbox":[76.83901,28.20856,76.84447,28.21144],"properties":{"ward":34},"geometry":{"type":"Polygon","coordinates":[[[76.83959,28.21108],[76.84356,28.21144],[76.84328,28.2106],[76.84447,28.21053],[76.84281,28.20966],[76.84193,28.20995],[76.84171,28.20982],[76.84147,28.20892],[76.84059,28.20856],[76.83958,28.20868],[76.83901,28.20857],[76.83959,28.21108]]]}},{"type":"Feature","bbox":[76.84328,28.20615,76.84664,28.21159],"properties":{"ward":35},"geometry":{"type":"Polygon","coordinates":[[[76.84356,28.21144],[76.84664,28.21159],[76.84609,28.20947],[76.84614,28.20891],[76.84456,28.20615],[76.84388,28.20665],[76.8449,28.20814],[76.84454,28.20832],[76.84484,28.20876],[76.84452,28.20888],[76.84491,28.20955],[76.84377,28.21009],[76.84443,28.21056],[76.84328,28.2106],[76.84356,28.21144]]]}},{"type":"Feature","bbox":[76.83605,28.20175,76.84182,28.20868],"properties":{"ward":36},"geometry":{"type":"Polygon","coordinates":[[[76.8372,28.20428],[76.83605,28.205],[76.83833,28.20839],[76.83948,28.20868],[76.84059,28.20856],[76.8401,28.20799],[76.84043,28.20763],[76.84055,28.20718],[76.84132,28.20676],[76.84089,28.20605],[76.84095,28.20534],[76.84049,28.20508],[76.84026,28.20453],[76.84068,28.20355],[76.84106,28.20335],[76.84157,28.20338],[76.84182,28.20237],[76.83771,28.20175],[76.8372,28.20428]]]}},{"type":"Feature","bbox":[76.83855,28.21152,76.84623,28.21621],"properties":{"ward":37},"geometry":{"type":"Polygon","coordinates":[[[76.83948,28.21562],[76.84048,28.21545],[76.846,28.21621],[76.84623,28.21214],[76.84081,28.21152],[76.84106,28.212],[76.84096,28.21358],[76.83855,28.21368],[76.83948,28.21562]]]}},{"type":"Feature","bbox":[76.8401,28.20534,76.84491,28.21009],"properties":{"ward":38},"geometry":{"type":"Polygon","coordinates":[[[76.84137,28.20889],[76.84166,28.20926],[76.84171,28.20982],[76.84199,28.20997],[76.84269,28.20965],[76.84377,28.21009],[76.84491,28.20955],[76.84452,28.20888],[76.84484,28.20876],[76.84454,28.20832],[76.8449,28.20814],[76.84388,28.20665],[76.84456,28.20615],[76.84448,28.2059],[76.84095,28.20534],[76.84089,28.20605],[76.84132,28.20676],[76.84055,28.20718],[76.84043,28.20763],[76.8401,28.20799],[76.84059,28.20856],[76.84137,28.20889]]]}},{"type":"Feature","bbox":[76.84204,28.19547,76.85097,28.20292],"properties":{"ward":39},"geometry":{"type":"Polygon","coordinates":[[[76.84653,28.19935],[76.84771,28.19909],[76.84774,28.19964],[76.84887,28.19903],[76.84912,28.19927],[76.85097,28.1981],[76.85058,28.19752],[76.85042,28.19764],[76.85016,28.19727],[76.85013,28.19622],[76.84984,28.19547],[76.84883,28.19594],[76.8489,28.19612],[76.84678,28.19734],[76.8464,28.19696],[76.84204,28.19926],[76.84337,28.20256],[76.84579,28.20292],[76.84653,28.19935]]]}},{"type":"Feature","bbox":[76.84169,28.18772,76.84991,28.19926],"properties":{"ward":40},"geometry":{"type":"Polygon","coordinates":[[[76.84678,28.19734],[76.8489,28.19612],[76.84883,28.19594],[76.84984,28.19547],[76.84957,28.19486],[76.84975,28.19449],[76.84991,28.1928],[76.84858,28.1902],[76.84766,28.18772],[76.84718,28.18781],[76.84325,28.18998],[76.84169,28.19851],[76.84204,28.19926],[76.8464,28.19696],[76.84678,28.19734]]]}},{"type":"Feature","bbox":[76.83835,28.16806,76.85921,28.18811],"properties":{"ward":41},"geometry":{"type":"Polygon","coordinates":[[[76.84004,28.17067],[76.83835,28.17104],[76.83863,28.17186],[76.83929,28.172],[76.8396,28.17272],[76.84125,28.17236],[76.84166,28.17289],[76.84336,28.17334],[76.8446,28.1742],[76.84525,28.17436],[76.84616,28.176],[76.84723,28.17735],[76.84728,28.17784],[76.84785,28.17879],[76.8489,28.17984],[76.84938,28.18136],[76.85107,28.18519],[76.85131,28.18649],[76.85189,28.18622],[76.85264,28.18643],[76.85355,28.18633],[76.85348,28.18684],[76.8566,28.18811],[76.85921,28.17688],[76.85862,28.17566],[76.85893,28.17562],[76.85891,28.17523],[76.85911,28.17503],[76.85889,28.17446],[76.85865,28.17442],[76.8584,28.17372],[76.85816,28.17376],[76.85801,28.1735],[76.85695,28.17413],[76.8558,28.17417],[76.85507,28.17321],[76.85513,28.17291],[76.85306,28.17225],[76.85214,28.17049],[76.85252,28.1702],[76.85234,28.17003],[76.85008,28.17142],[76.8506,28.1722],[76.84959,28.17215],[76.84834,28.17246],[76.84673,28.1725],[76.8465,28.17199],[76.84615,28.17215],[76.84626,28.17238],[76.84609,28.17249],[76.84465,28.17206],[76.84393,28.17101],[76.84409,28.1709],[76.84372,28.17044],[76.84197,28.17117],[76.84132,28.17038],[76.84188,28.17001],[76.84168,28.16948],[76.84254,28.16892],[76.84172,28.16806],[76.84003,28.1692],[76.84004,28.17067]]]}},{"type":"Feature","bbox":[76.84593,28.18421,76.8566,28.19404],"properties":{"ward":42},"geometry":{"type":"Polygon","coordinates":[[[76.85336,28.19302],[76.85482,28.19221],[76.85554,28.19233],[76.8566,28.18811],[76.85348,28.18684],[76.85355,28.18633],[76.85264,28.18643],[76.85189,28.18622],[76.85082,28.18665],[76.85009,28.18652],[76.84721,28.18531],[76.84641,28.18437],[76.84609,28.18421],[76.84593,28.18443],[76.84646,28.18476],[76.8468,28.18546],[76.84735,28.18663],[76.84838,28.18972],[76.84991,28.1928],[76.84973,28.19404],[76.85071,28.19353],[76.85093,28.19387],[76.85336,28.19302]]]}},{"type":"Feature","bbox":[76.84957,28.19119,76.85971,28.19985],"properties":{"ward":43},"geometry":{"type":"Polygon","coordinates":[[[76.85531,28.19321],[76.85373,28.19985],[76.8595,28.19899],[76.8593,28.19744],[76.85956,28.19415],[76.85925,28.19346],[76.85971,28.19311],[76.85964,28.19119],[76.85585,28.19124],[76.85554,28.19233],[76.85482,28.19221],[76.85377,28.19287],[76.85093,28.19387],[76.85071,28.19353],[76.84973,28.19404],[76.84975,28.19449],[76.84957,28.19486],[76.85013,28.19622],[76.85148,28.19556],[76.85265,28.19466],[76.85446,28.19388],[76.8546,28.19339],[76.85502,28.19317],[76.85531,28.19321]]]}},{"type":"Feature","bbox":[76.85013,28.19317,76.85531,28.19901],"properties":{"ward":44},"geometry":{"type":"Polygon","coordinates":[[[76.85399,28.19807],[76.85417,28.19809],[76.85531,28.19321],[76.85502,28.19317],[76.8546,28.19339],[76.85446,28.19388],[76.85265,28.19466],[76.85148,28.19556],[76.85013,28.19622],[76.85016,28.19727],[76.85042,28.19764],[76.85058,28.19752],[76.85097,28.1981],[76.85134,28.19783],[76.85171,28.19836],[76.85247,28.19901],[76.85399,28.19807]]]}},{"type":"Feature","bbox":[76.84568,28.19783,76.85417,28.20501],"properties":{"ward":45},"geometry":{"type":"Polygon","coordinates":[[[76.84775,28.19914],[76.84653,28.19935],[76.84568,28.20347],[76.849,28.20309],[76.84929,28.20489],[76.84957,28.20501],[76.85361,28.20452],[76.85319,28.20245],[76.85417,28.19809],[76.85388,28.19804],[76.85247,28.19901],[76.85171,28.19836],[76.85134,28.19783],[76.84912,28.19927],[76.84887,28.19903],[76.84774,28.19964],[76.84775,28.19914]]]}},{"type":"Feature","bbox":[76.84448,28.20309,76.86205,28.21689],"properties":{"ward":46},"geometry":{"type":"Polygon","coordinates":[[[76.84609,28.20947],[76.84677,28.21218],[76.84623,28.21215],[76.84599,28.21621],[76.85933,28.21689],[76.86164,28.21634],[76.86166,28.21538],[76.86191,28.215],[76.86168,28.21281],[76.86191,28.21269],[76.86202,28.21031],[76.86205,28.20585],[76.86187,28.2036],[76.84957,28.20501],[76.84929,28.20489],[76.849,28.20309],[76.84568,28.20347],[76.84543,28.20465],[76.84448,28.2059],[76.84614,28.20891],[76.84609,28.20947]]]}},{"type":"Feature","bbox":[76.85319,28.19854,76.86321,28.20452],"properties":{"ward":47},"geometry":{"type":"Polygon","coordinates":[[[76.85373,28.19985],[76.85319,28.20245],[76.85361,28.20452],[76.86187,28.2036],[76.86255,28.20349],[76.86228,28.20203],[76.86138,28.20195],[76.86119,28.20113],[76.86287,28.20053],[76.86321,28.19854],[76.85373,28.19985]]]}},{"type":"Feature","bbox":[76.85585,28.17317,76.87021,28.19899],"properties":{"ward":48},"geometry":{"type":"Polygon","coordinates":[[[76.85921,28.17688],[76.85585,28.19124],[76.85964,28.19119],[76.85971,28.19311],[76.85925,28.19346],[76.85956,28.19415],[76.8593,28.19744],[76.8595,28.19899],[76.86321,28.19854],[76.86433,28.19097],[76.86532,28.18683],[76.86639,28.18654],[76.86781,28.18643],[76.87003,28.18314],[76.86661,28.18132],[76.86644,28.18104],[76.86701,28.17948],[76.86786,28.17891],[76.86779,28.17743],[76.86756,28.1764],[76.86795,28.17628],[76.86789,28.17596],[76.86906,28.17544],[76.87021,28.17464],[76.86981,28.17471],[76.86951,28.17456],[76.86824,28.17504],[76.86802,28.17553],[76.86763,28.17552],[76.86742,28.176],[76.86661,28.17599],[76.86583,28.17547],[76.86551,28.17425],[76.86487,28.17393],[76.86418,28.17434],[76.86352,28.1744],[76.86339,28.17397],[76.86348,28.1736],[76.86304,28.17362],[76.86266,28.17401],[76.86119,28.17317],[76.86111,28.17371],[76.86092,28.17392],[76.86089,28.17468],[76.86136,28.17524],[76.86106,28.17556],[76.86071,28.1756],[76.86058,28.17593],[76.86126,28.17612],[76.86132,28.17641],[76.85921,28.17688]]]}},{"type":"Feature","bbox":[76.86644,28.16684,76.88336,28.18904],"properties":{"ward":49},"geometry":{"type":"Polygon","coordinates":[[[76.87,28.18313],[76.86781,28.18643],[76.86932,28.18637],[76.86985,28.18764],[76.87071,28.18848],[76.87099,28.18904],[76.87326,28.18505],[76.87996,28.18794],[76.88082,28.18694],[76.88336,28.18584],[76.87779,28.17545],[76.88104,28.17424],[76.87997,28.1731],[76.87942,28.17275],[76.87842,28.17319],[76.87512,28.17004],[76.87358,28.17081],[76.87327,28.17014],[76.87281,28.16962],[76.87276,28.16914],[76.87216,28.16879],[76.87208,28.16781],[76.87157,28.16721],[76.87087,28.16684],[76.87047,28.16722],[76.86979,28.16751],[76.8687,28.16788],[76.86769,28.16794],[76.86694,28.16897],[76.86763,28.17067],[76.87039,28.17157],[76.87092,28.17347],[76.87063,28.17432],[76.87018,28.17457],[76.87018,28.17474],[76.86794,28.17593],[76.86795,28.17628],[76.86756,28.1764],[76.86779,28.17743],[76.86786,28.17891],[76.86701,28.17948],[76.86644,28.18104],[76.86661,28.18132],[76.87,28.18313]]]}},{"type":"Feature","bbox":[76.86433,28.18637,76.87175,28.1929],"properties":{"ward":50},"geometry":{"type":"Polygon","coordinates":[[[76.86932,28.18637],[76.86532,28.18683],[76.86433,28.19097],[76.86816,28.1893],[76.86867,28.18972],[76.86839,28.18987],[76.86843,28.19005],[76.86781,28.19041],[76.86837,28.19131],[76.86875,28.19139],[76.86942,28.19265],[76.87036,28.1929],[76.87128,28.19236],[76.87175,28.1918],[76.8711,28.19064],[76.87132,28.19052],[76.87077,28.18951],[76.87099,28.18904],[76.87071,28.18848],[76.86985,28.18764],[76.86932,28.18637]]]}},{"type":"Feature","bbox":[76.86117,28.1893,76.86942,28.20349],"properties":{"ward":51},"geometry":{"type":"Polygon","coordinates":[[[76.86255,28.20349],[76.86455,28.20322],[76.86849,28.20226],[76.86694,28.19778],[76.86743,28.19762],[76.86837,28.19688],[76.86892,28.19514],[76.86942,28.19265],[76.86875,28.19139],[76.86837,28.19131],[76.86781,28.19041],[76.86843,28.19005],[76.86839,28.18987],[76.86867,28.18972],[76.86816,28.1893],[76.86433,28.19097],[76.86377,28.19534],[76.86286,28.20054],[76.86117,28.20113],[76.86138,28.20196],[76.86227,28.20204],[76.86255,28.20349]]]}},{"type":"Feature","bbox":[76.86187,28.20273,76.86853,28.21107],"properties":{"ward":52},"geometry":{"type":"Polygon","coordinates":[[[76.86205,28.20585],[76.86201,28.21107],[76.86619,28.2103],[76.86635,28.2095],[76.86853,28.20891],[76.86642,28.20273],[76.86455,28.20322],[76.86187,28.2036],[76.86205,28.20585]]]}},{"type":"Feature","bbox":[76.86165,28.21269,76.86613,28.21635],"properties":{"ward":53},"geometry":{"type":"Polygon","coordinates":[[[76.86165,28.21635],[76.86613,28.2153],[76.86542,28.21485],[76.86421,28.21351],[76.86395,28.21336],[76.86273,28.21327],[76.86224,28.21308],[76.86191,28.21269],[76.86168,28.21281],[76.86191,28.215],[76.86166,28.21538],[76.86165,28.21635]]]}},{"type":"Feature","bbox":[76.86474,28.20892,76.87215,28.2153],"properties":{"ward":54},"geometry":{"type":"Polygon","coordinates":[[[76.87039,28.20892],[76.86476,28.21139],[76.86624,28.21368],[76.86609,28.21409],[76.86551,28.21445],[76.86474,28.21396],[76.86542,28.21485],[76.86613,28.2153],[76.8683,28.2147],[76.87215,28.21293],[76.87039,28.20892]]]}},{"type":"Feature","bbox":[76.86849,28.20054,76.87646,28.20548],"properties":{"ward":55},"geometry":{"type":"Polygon","coordinates":[[[76.86849,28.20226],[76.86954,28.20548],[76.875,28.20387],[76.87646,28.20429],[76.87636,28.20054],[76.86849,28.20226]]]}},{"type":"Feature","bbox":[76.86694,28.18736,76.87696,28.20226],"properties":{"ward":56},"geometry":{"type":"Polygon","coordinates":[[[76.86694,28.19778],[76.86849,28.20226],[76.87478,28.20086],[76.87635,28.20103],[76.87657,28.19637],[76.87484,28.19451],[76.87442,28.19382],[76.87581,28.19308],[76.87696,28.19223],[76.87503,28.18866],[76.87189,28.18736],[76.87077,28.18951],[76.87132,28.19052],[76.8711,28.19064],[76.87175,28.1918],[76.87128,28.19236],[76.87036,28.1929],[76.86942,28.19265],[76.86892,28.19514],[76.86837,28.19688],[76.86743,28.19762],[76.86694,28.19778]]]}},{"type":"Feature","bbox":[76.87189,28.18505,76.88895,28.20241],"properties":{"ward":57},"geometry":{"type":"Polygon","coordinates":[[[76.8764,28.19941],[76.87923,28.19884],[76.87957,28.19981],[76.8809,28.19936],[76.88135,28.20039],[76.88121,28.20048],[76.88134,28.2008],[76.88201,28.20056],[76.8825,28.20179],[76.88279,28.20174],[76.88309,28.20241],[76.88362,28.20222],[76.88338,28.2017],[76.88372,28.20146],[76.88332,28.2006],[76.88341,28.20049],[76.88421,28.20029],[76.88493,28.20145],[76.88708,28.2006],[76.88741,28.20078],[76.88895,28.20002],[76.88488,28.19767],[76.88405,28.19499],[76.88374,28.19089],[76.88437,28.1895],[76.88655,28.18818],[76.88665,28.18779],[76.88577,28.18614],[76.88406,28.18686],[76.88338,28.18583],[76.88082,28.18694],[76.87996,28.18794],[76.87326,28.18505],[76.87189,28.18736],[76.87503,28.18866],[76.87696,28.19223],[76.87581,28.19308],[76.87442,28.19382],[76.87484,28.19451],[76.87657,28.19637],[76.8764,28.19941]]]}},{"type":"Feature","bbox":[76.8764,28.19884,76.88309,28.20432],"properties":{"ward":58},"geometry":{"type":"Polygon","coordinates":[[[76.88309,28.20241],[76.88279,28.20174],[76.8825,28.20179],[76.88201,28.20056],[76.88134,28.2008],[76.88121,28.20048],[76.88135,28.20039],[76.8809,28.19936],[76.87957,28.19981],[76.87923,28.19884],[76.8764,28.19941],[76.87654,28.20371],[76.87644,28.20432],[76.87813,28.204],[76.88309,28.20241]]]}},{"type":"Feature","bbox":[76.88722,28.18778,76.89724,28.20024],"properties":{"ward":59},"geometry":{"type":"Polygon","coordinates":[[[76.89313,28.19735],[76.89255,28.19754],[76.89186,28.1984],[76.88891,28.20007],[76.88921,28.20024],[76.89362,28.19904],[76.89439,28.2],[76.89475,28.19991],[76.89651,28.19829],[76.89724,28.19784],[76.89622,28.19648],[76.89373,28.19595],[76.89012,28.19],[76.88995,28.18852],[76.88938,28.18778],[76.88853,28.18883],[76.88832,28.19035],[76.88722,28.19174],[76.88827,28.19313],[76.8904,28.19542],[76.89169,28.19625],[76.89227,28.19698],[76.89271,28.19681],[76.89313,28.19735]]]}},{"type":"Feature","bbox":[76.87689,28.20007,76.88921,28.20469],"properties":{"ward":60},"geometry":{"type":"Polygon","coordinates":[[[76.87807,28.2046],[76.88471,28.20271],[76.8845,28.20231],[76.88705,28.20103],[76.88742,28.20103],[76.88921,28.20025],[76.88891,28.20007],[76.88741,28.20078],[76.88708,28.2006],[76.88493,28.20145],[76.88421,28.20029],[76.88341,28.20049],[76.88332,28.2006],[76.88372,28.20146],[76.88338,28.2017],[76.88362,28.20222],[76.87973,28.20366],[76.87689,28.20427],[76.87695,28.20469],[76.87807,28.2046]]]}}]}