{"type":"FeatureCollection","features":[{"type":"Feature","bbox":[73.06081,25.14709,73.06367,25.14948],"properties":{"ward":2},"geometry":{"type":"Polygon","coordinates":[[[73.0618,25.14904],[73.06257,25.14907],[73.06297,25.14871],[73.06263,25.1484],[73.06337,25.148],[73.06353,25.14821],[73.06367,25.1481],[73.06263,25.14709],[73.0609,25.14847],[73.06081,25.14905],[73.06136,25.14948],[73.0618,25.14904]]]}},{"type":"Feature","bbox":[73.05644,25.14665,73.06136,25.15181],"properties":{"ward":3},"geometry":{"type":"Polygon","coordinates":[[[73.05967,25.15073],[73.06136,25.14948],[73.06081,25.14905],[73.0609,25.14847],[73.06122,25.14824],[73.05954,25.14665],[73.05644,25.14877],[73.05853,25.15181],[73.05967,25.15073]]]}},{"type":"Feature","bbox":[73.05954,25.14421,73.06346,25.14824],"properties":{"ward":4},"geometry":{"type":"Polygon","coordinates":[[[73.06266,25.14547],[73.06167,25.14421],[73.06014,25.14613],[73.05954,25.14665],[73.06122,25.14824],[73.06282,25.14695],[73.06346,25.14608],[73.06266,25.14547]]]}},{"type":"Feature","bbox":[73.05561,25.14575,73.05954,25.14877],"properties":{"ward":5},"geometry":{"type":"Polygon","coordinates":[[[73.05561,25.14749],[73.05644,25.14877],[73.05954,25.14665],[73.05951,25.14652],[73.05921,25.1458],[73.05897,25.14589],[73.05829,25.14575],[73.05646,25.14717],[73.05561,25.14749]]]}},{"type":"Feature","bbox":[73.05778,25.14421,73.06054,25.14665],"properties":{"ward":6},"geometry":{"type":"Polygon","coordinates":[[[73.05906,25.14421],[73.05778,25.14518],[73.05841,25.14585],[73.05921,25.1458],[73.05954,25.14665],[73.06054,25.14561],[73.05906,25.14421]]]}},{"type":"Feature","bbox":[73.05791,25.14282,73.0613,25.14561],"properties":{"ward":7},"geometry":{"type":"Polygon","coordinates":[[[73.05975,25.14285],[73.05791,25.14282],[73.05882,25.14397],[73.06054,25.14561],[73.0613,25.14465],[73.05944,25.14307],[73.05975,25.14285]]]}},{"type":"Feature","bbox":[73.05715,25.14354,73.05906,25.1451],"properties":{"ward":8},"geometry":{"type":"Polygon","coordinates":[[[73.05906,25.14421],[73.05842,25.14354],[73.05715,25.14404],[73.05792,25.1451],[73.05906,25.14421]]]}},{"type":"Feature","bbox":[73.0526,25.14297,73.05829,25.14749],"properties":{"ward":9},"geometry":{"type":"Polygon","coordinates":[[[73.0526,25.14297],[73.05561,25.14749],[73.05646,25.14717],[73.05829,25.14575],[73.05778,25.14518],[73.05792,25.1451],[73.0578,25.14487],[73.05715,25.14404],[73.05662,25.14435],[73.05591,25.14309],[73.0526,25.14297]]]}},{"type":"Feature","bbox":[73.05244,25.14198,73.05715,25.14435],"properties":{"ward":10},"geometry":{"type":"Polygon","coordinates":[[[73.05275,25.14198],[73.05244,25.14278],[73.0526,25.14297],[73.05591,25.14309],[73.05662,25.14435],[73.05715,25.14404],[73.05605,25.14243],[73.05275,25.14198]]]}},{"type":"Feature","bbox":[73.05944,25.14026,73.06448,25.14465],"properties":{"ward":13},"geometry":{"type":"Polygon","coordinates":[[[73.06326,25.14026],[73.05944,25.14307],[73.0613,25.14465],[73.06167,25.14421],[73.06176,25.14434],[73.06167,25.14421],[73.06179,25.14412],[73.06448,25.14221],[73.06405,25.14132],[73.06326,25.14026]]]}},{"type":"Feature","bbox":[73.06326,25.13692,73.068,25.14221],"properties":{"ward":14},"geometry":{"type":"Polygon","coordinates":[[[73.068,25.14014],[73.06728,25.13902],[73.06764,25.13881],[73.0663,25.13692],[73.06549,25.13757],[73.06574,25.13789],[73.06454,25.13937],[73.06326,25.14026],[73.06405,25.14132],[73.06448,25.14221],[73.06624,25.14098],[73.068,25.14014]]]}},{"type":"Feature","bbox":[73.06133,25.1358,73.06574,25.14026],"properties":{"ward":15},"geometry":{"type":"Polygon","coordinates":[[[73.06133,25.13742],[73.06202,25.13867],[73.06326,25.14026],[73.06454,25.13937],[73.06574,25.13789],[73.06384,25.1358],[73.06133,25.13742]]]}},{"type":"Feature","bbox":[73.06202,25.13288,73.06538,25.1358],"properties":{"ward":17},"geometry":{"type":"Polygon","coordinates":[[[73.06202,25.13333],[73.06319,25.1354],[73.06384,25.1358],[73.06538,25.1347],[73.06481,25.13369],[73.06449,25.13385],[73.06392,25.13288],[73.06202,25.13333]]]}},{"type":"Feature","bbox":[73.06384,25.13478,73.06722,25.13757],"properties":{"ward":18},"geometry":{"type":"Polygon","coordinates":[[[73.06519,25.13482],[73.06384,25.1358],[73.06549,25.13757],[73.06722,25.13605],[73.06703,25.1357],[73.06702,25.13478],[73.06582,25.13551],[73.06519,25.13482]]]}},{"type":"Feature","bbox":[73.06701,25.13151,73.06965,25.13533],"properties":{"ward":20},"geometry":{"type":"Polygon","coordinates":[[[73.06965,25.13388],[73.0684,25.13217],[73.06763,25.13151],[73.06701,25.13437],[73.06712,25.13531],[73.06756,25.13533],[73.06965,25.13388]]]}},{"type":"Feature","bbox":[73.06983,25.13387,73.07247,25.13891],"properties":{"ward":22},"geometry":{"type":"Polygon","coordinates":[[[73.07247,25.1363],[73.07147,25.13459],[73.07093,25.13484],[73.07017,25.13387],[73.06984,25.13411],[73.0706,25.13506],[73.06983,25.1358],[73.07108,25.13768],[73.06989,25.13837],[73.07023,25.13891],[73.07127,25.13835],[73.07178,25.13727],[73.07247,25.1363]]]}},{"type":"Feature","bbox":[73.0674,25.13388,73.07108,25.13813],"properties":{"ward":23},"geometry":{"type":"Polygon","coordinates":[[[73.06965,25.13388],[73.0674,25.13542],[73.06839,25.13678],[73.0692,25.13637],[73.07032,25.13813],[73.07108,25.13768],[73.06983,25.1358],[73.0706,25.13506],[73.06965,25.13388]]]}},{"type":"Feature","bbox":[73.0663,25.13531,73.06944,25.13965],"properties":{"ward":24},"geometry":{"type":"Polygon","coordinates":[[[73.06712,25.13531],[73.06703,25.1357],[73.06722,25.13605],[73.0663,25.13692],[73.06764,25.13881],[73.06728,25.13902],[73.06767,25.13965],[73.06944,25.13873],[73.06943,25.1386],[73.0687,25.13723],[73.06752,25.13551],[73.06712,25.13531]]]}},{"type":"Feature","bbox":[73.06767,25.13637,73.07032,25.14014],"properties":{"ward":25},"geometry":{"type":"Polygon","coordinates":[[[73.07032,25.13813],[73.0692,25.13637],[73.06839,25.13678],[73.06944,25.13873],[73.06767,25.13965],[73.068,25.14014],[73.07023,25.13891],[73.06989,25.13837],[73.07032,25.13813]]]}},{"type":"Feature","bbox":[73.07033,25.13864,73.07316,25.14167],"properties":{"ward":28},"geometry":{"type":"Polygon","coordinates":[[[73.07248,25.14157],[73.07316,25.14125],[73.0725,25.1409],[73.07174,25.14073],[73.0713,25.14016],[73.07129,25.13976],[73.0715,25.13948],[73.07066,25.13864],[73.07033,25.13885],[73.07103,25.14001],[73.07085,25.14013],[73.07089,25.14038],[73.07044,25.14052],[73.07111,25.14148],[73.07141,25.14132],[73.07168,25.14167],[73.07196,25.14147],[73.07248,25.14157]]]}},{"type":"Feature","bbox":[73.06868,25.13885,73.07103,25.14103],"properties":{"ward":30},"geometry":{"type":"Polygon","coordinates":[[[73.07033,25.13885],[73.06868,25.13976],[73.0695,25.14103],[73.07089,25.14038],[73.07085,25.14013],[73.07103,25.14001],[73.07033,25.13885]]]}},{"type":"Feature","bbox":[73.0653,25.13976,73.0695,25.14302],"properties":{"ward":31},"geometry":{"type":"Polygon","coordinates":[[[73.06802,25.14212],[73.06831,25.14171],[73.0695,25.14103],[73.06868,25.13976],[73.06624,25.14098],[73.0653,25.14163],[73.06653,25.14302],[73.06802,25.14212]]]}},{"type":"Feature","bbox":[73.06802,25.14141,73.07131,25.14512],"properties":{"ward":33},"geometry":{"type":"Polygon","coordinates":[[[73.06883,25.14141],[73.06831,25.14171],[73.06802,25.14212],[73.06925,25.144],[73.06943,25.14388],[73.07077,25.14512],[73.07076,25.14497],[73.07131,25.14454],[73.06996,25.14305],[73.06883,25.14141]]]}},{"type":"Feature","bbox":[73.06536,25.14212,73.07077,25.14766],"properties":{"ward":34},"geometry":{"type":"Polygon","coordinates":[[[73.06653,25.14302],[73.06679,25.14332],[73.06566,25.1441],[73.06536,25.14448],[73.06761,25.14766],[73.06887,25.14697],[73.06899,25.14681],[73.0689,25.14673],[73.07077,25.14512],[73.06943,25.14388],[73.06925,25.144],[73.06802,25.14212],[73.06653,25.14302]]]}},{"type":"Feature","bbox":[73.06167,25.14163,73.06761,25.14806],"properties":{"ward":35},"geometry":{"type":"Polygon","coordinates":[[[73.06633,25.14806],[73.06761,25.14766],[73.06536,25.14448],[73.06566,25.1441],[73.06679,25.14332],[73.0653,25.14163],[73.06167,25.14421],[73.06286,25.14564],[73.06633,25.14806]]]}}]}