{"type":"FeatureCollection","features":[{"type":"Feature","bbox":[75.36612,26.29127,75.37263,26.29872],"properties":{"ward":1},"geometry":{"type":"Polygon","coordinates":[[[75.36767,26.29401],[75.3689,26.29821],[75.3696,26.29872],[75.37213,26.29445],[75.37263,26.29253],[75.37249,26.29127],[75.37166,26.29166],[75.37148,26.29194],[75.37162,26.29233],[75.37094,26.293],[75.3702,26.29325],[75.36884,26.2928],[75.36888,26.29251],[75.36789,26.29229],[75.36786,26.29296],[75.36612,26.29221],[75.36767,26.29401]]]}},{"type":"Feature","bbox":[75.36792,26.28984,75.37255,26.29322],"properties":{"ward":2},"geometry":{"type":"Polygon","coordinates":[[[75.36801,26.29137],[75.36792,26.29224],[75.36894,26.29248],[75.36889,26.29279],[75.37021,26.29322],[75.37092,26.29297],[75.37157,26.29231],[75.37144,26.29194],[75.37162,26.29162],[75.37255,26.29117],[75.37234,26.2901],[75.37213,26.2902],[75.37218,26.29048],[75.37146,26.29075],[75.37098,26.28984],[75.36851,26.29045],[75.36827,26.29114],[75.36801,26.29137]]]}},{"type":"Feature","bbox":[75.3632,26.28833,75.37235,26.2929],"properties":{"ward":3},"geometry":{"type":"Polygon","coordinates":[[[75.3632,26.28898],[75.36593,26.29211],[75.36782,26.2929],[75.36796,26.29138],[75.36822,26.29111],[75.36844,26.29042],[75.37097,26.28979],[75.37151,26.29069],[75.37212,26.29045],[75.37209,26.29019],[75.37235,26.29004],[75.3718,26.28833],[75.36549,26.28852],[75.3632,26.28898]]]}},{"type":"Feature","bbox":[75.36047,26.28204,75.37202,26.2889],"properties":{"ward":4},"geometry":{"type":"Polygon","coordinates":[[[75.36052,26.28596],[75.36311,26.2889],[75.36537,26.28843],[75.37177,26.28819],[75.37202,26.28655],[75.37062,26.28586],[75.37058,26.28638],[75.3691,26.28626],[75.3665,26.28397],[75.36181,26.28204],[75.36047,26.28294],[75.36052,26.28596]]]}},{"type":"Feature","bbox":[75.3644,26.2786,75.37346,26.28649],"properties":{"ward":5},"geometry":{"type":"Polygon","coordinates":[[[75.36934,26.2786],[75.3644,26.283],[75.36653,26.28389],[75.36912,26.2862],[75.37053,26.28631],[75.37058,26.2858],[75.37203,26.28649],[75.37223,26.28592],[75.37295,26.28491],[75.37346,26.28331],[75.37227,26.28295],[75.37226,26.28274],[75.37273,26.28273],[75.37296,26.28248],[75.37314,26.28213],[75.37313,26.2817],[75.37273,26.28099],[75.36934,26.2786]]]}},{"type":"Feature","bbox":[75.36939,26.27411,75.37856,26.28328],"properties":{"ward":6},"geometry":{"type":"Polygon","coordinates":[[[75.37032,26.27783],[75.36939,26.27856],[75.37281,26.28094],[75.37319,26.28167],[75.37319,26.28215],[75.37278,26.28275],[75.37232,26.28277],[75.37232,26.28292],[75.37351,26.28328],[75.37451,26.28251],[75.37491,26.2819],[75.37856,26.27411],[75.37032,26.27783]]]}},{"type":"Feature","bbox":[75.37412,26.2818,75.3766,26.28411],"properties":{"ward":7},"geometry":{"type":"Polygon","coordinates":[[[75.37455,26.28254],[75.37412,26.28285],[75.3749,26.28411],[75.37582,26.28348],[75.3766,26.28334],[75.3765,26.28311],[75.37532,26.28239],[75.37497,26.2818],[75.37455,26.28254]]]}},{"type":"Feature","bbox":[75.37335,26.28288,75.37487,26.28498],"properties":{"ward":8},"geometry":{"type":"Polygon","coordinates":[[[75.3741,26.28288],[75.37352,26.28334],[75.37335,26.28395],[75.37378,26.2841],[75.37401,26.28463],[75.37441,26.28498],[75.37487,26.28413],[75.3741,26.28288]]]}},{"type":"Feature","bbox":[75.37215,26.28398,75.3744,26.28633],"properties":{"ward":9},"geometry":{"type":"Polygon","coordinates":[[[75.3744,26.285],[75.374,26.28467],[75.37377,26.28415],[75.37333,26.28398],[75.37298,26.28492],[75.37258,26.28539],[75.37215,26.28631],[75.37251,26.28633],[75.37307,26.28578],[75.37354,26.28561],[75.37352,26.28547],[75.37402,26.28538],[75.3744,26.285]]]}},{"type":"Feature","bbox":[75.37356,26.28438,75.37512,26.28602],"properties":{"ward":10},"geometry":{"type":"Polygon","coordinates":[[[75.37404,26.28542],[75.37356,26.28548],[75.37356,26.28562],[75.37427,26.28602],[75.37506,26.28571],[75.37512,26.28459],[75.37481,26.28438],[75.37446,26.28499],[75.37404,26.28542]]]}},{"type":"Feature","bbox":[75.37189,26.28565,75.37516,26.28779],"properties":{"ward":11},"geometry":{"type":"Polygon","coordinates":[[[75.37504,26.28574],[75.37486,26.28573],[75.37461,26.28604],[75.37426,26.28606],[75.37354,26.28565],[75.37309,26.2858],[75.37252,26.28635],[75.37215,26.28634],[75.37189,26.28779],[75.3728,26.28723],[75.37516,26.28625],[75.37504,26.28574]]]}},{"type":"Feature","bbox":[75.37264,26.28629,75.37611,26.28809],"properties":{"ward":12},"geometry":{"type":"Polygon","coordinates":[[[75.37282,26.28726],[75.37264,26.28747],[75.37356,26.28766],[75.37395,26.28752],[75.37406,26.28809],[75.37611,26.28734],[75.37517,26.28629],[75.37282,26.28726]]]}},{"type":"Feature","bbox":[75.3718,26.28749,75.37401,26.28885],"properties":{"ward":13},"geometry":{"type":"Polygon","coordinates":[[[75.37401,26.28813],[75.37393,26.28756],[75.37355,26.28768],[75.37261,26.28749],[75.37188,26.28783],[75.3718,26.2883],[75.37199,26.28885],[75.3727,26.28874],[75.37401,26.28813]]]}},{"type":"Feature","bbox":[75.372,26.28831,75.3744,26.29089],"properties":{"ward":14},"geometry":{"type":"Polygon","coordinates":[[[75.372,26.28886],[75.37241,26.29028],[75.37313,26.29067],[75.37402,26.29089],[75.37437,26.29074],[75.37434,26.29027],[75.37391,26.29027],[75.37393,26.28984],[75.3744,26.28956],[75.37368,26.28868],[75.37369,26.28831],[75.37269,26.28877],[75.372,26.28886]]]}},{"type":"Feature","bbox":[75.37245,26.28957,75.3754,26.2934],"properties":{"ward":15},"geometry":{"type":"Polygon","coordinates":[[[75.37442,26.28957],[75.37395,26.28986],[75.37394,26.29023],[75.37439,26.29026],[75.37439,26.29076],[75.37399,26.29093],[75.37245,26.29036],[75.37272,26.29201],[75.37255,26.2934],[75.37434,26.29318],[75.3752,26.2933],[75.3754,26.29227],[75.37529,26.29076],[75.37514,26.29011],[75.3749,26.29005],[75.37442,26.28957]]]}},{"type":"Feature","bbox":[75.37148,26.29333,75.37437,26.29717],"properties":{"ward":16},"geometry":{"type":"Polygon","coordinates":[[[75.37252,26.29344],[75.3722,26.29442],[75.37148,26.29559],[75.37342,26.29717],[75.37374,26.29671],[75.37375,26.2963],[75.37415,26.29637],[75.37437,26.29554],[75.37427,26.2949],[75.37394,26.29384],[75.37352,26.29385],[75.37339,26.29333],[75.37252,26.29344]]]}},{"type":"Feature","bbox":[75.37534,26.2907,75.37704,26.29254],"properties":{"ward":17},"geometry":{"type":"Polygon","coordinates":[[[75.37534,26.29071],[75.37543,26.29199],[75.37576,26.29196],[75.37594,26.29247],[75.37628,26.29254],[75.37704,26.29238],[75.3768,26.29076],[75.37582,26.29092],[75.37575,26.2907],[75.37534,26.29071]]]}},{"type":"Feature","bbox":[75.37531,26.28799,75.37705,26.29089],"properties":{"ward":18},"geometry":{"type":"Polygon","coordinates":[[[75.37554,26.29032],[75.37531,26.29068],[75.37576,26.29066],[75.37583,26.29089],[75.37699,26.29077],[75.37692,26.28995],[75.37705,26.2894],[75.37685,26.28799],[75.37655,26.28803],[75.37656,26.28857],[75.37576,26.2892],[75.37577,26.28971],[75.37554,26.29032]]]}},{"type":"Feature","bbox":[75.37373,26.2879,75.37573,26.29054],"properties":{"ward":19},"geometry":{"type":"Polygon","coordinates":[[[75.37518,26.29007],[75.37528,26.29054],[75.37573,26.28971],[75.37573,26.28919],[75.37541,26.28887],[75.37448,26.28852],[75.37452,26.28839],[75.37507,26.28825],[75.37487,26.2879],[75.37373,26.28833],[75.37373,26.28867],[75.37492,26.29001],[75.37518,26.29007]]]}},{"type":"Feature","bbox":[75.37452,26.28558,75.38193,26.28917],"properties":{"ward":20},"geometry":{"type":"Polygon","coordinates":[[[75.37565,26.28765],[75.37489,26.28786],[75.37512,26.28827],[75.37452,26.28852],[75.37543,26.28884],[75.37575,26.28917],[75.37652,26.28854],[75.37652,26.28801],[75.37687,26.28796],[75.37707,26.28753],[75.3777,26.2874],[75.37859,26.28664],[75.38027,26.28591],[75.38193,26.28608],[75.3816,26.28583],[75.38078,26.28581],[75.38027,26.28558],[75.37867,26.28629],[75.37808,26.28616],[75.37724,26.28676],[75.37699,26.28667],[75.37663,26.28687],[75.37565,26.28765]]]}},{"type":"Feature","bbox":[75.37509,26.28492,75.37762,26.28731],"properties":{"ward":21},"geometry":{"type":"Polygon","coordinates":[[[75.3752,26.28627],[75.37614,26.28731],[75.37707,26.28648],[75.37699,26.28625],[75.37668,26.28622],[75.37647,26.286],[75.37762,26.28536],[75.37635,26.28492],[75.3762,26.28511],[75.37648,26.2855],[75.37606,26.28558],[75.37568,26.28595],[75.37509,26.28579],[75.3752,26.28627]]]}},{"type":"Feature","bbox":[75.37509,26.28398,75.377,26.28592],"properties":{"ward":22},"geometry":{"type":"Polygon","coordinates":[[[75.37512,26.28445],[75.37509,26.28576],[75.37568,26.28592],[75.37606,26.28555],[75.37643,26.28548],[75.37617,26.28511],[75.377,26.28439],[75.3769,26.28413],[75.37636,26.28398],[75.37608,26.2842],[75.37512,26.28445]]]}},{"type":"Feature","bbox":[75.3765,26.28517,75.37866,26.28674],"properties":{"ward":23},"geometry":{"type":"Polygon","coordinates":[[[75.37702,26.28622],[75.37702,26.28666],[75.37724,26.28674],[75.37807,26.28613],[75.37866,26.28625],[75.37854,26.28538],[75.37829,26.28517],[75.37787,26.28573],[75.37765,26.28538],[75.3765,26.28599],[75.3767,26.28619],[75.37702,26.28622]]]}},{"type":"Feature","bbox":[75.3748,26.283,75.37892,26.2857],"properties":{"ward":24},"geometry":{"type":"Polygon","coordinates":[[[75.37829,26.28514],[75.37869,26.28539],[75.37864,26.285],[75.37892,26.28481],[75.37874,26.28456],[75.37832,26.2845],[75.37827,26.28406],[75.37802,26.2837],[75.37821,26.28345],[75.37824,26.283],[75.37734,26.28333],[75.37583,26.2835],[75.3748,26.28434],[75.37506,26.28452],[75.37634,26.28397],[75.37675,26.28397],[75.37703,26.2844],[75.37637,26.28489],[75.37768,26.28536],[75.37788,26.2857],[75.37829,26.28514]]]}},{"type":"Feature","bbox":[75.37503,26.27412,75.38596,26.28333],"properties":{"ward":25},"geometry":{"type":"Polygon","coordinates":[[[75.37864,26.27412],[75.37503,26.28178],[75.37535,26.28236],[75.3765,26.28306],[75.37665,26.28333],[75.3778,26.28318],[75.37929,26.28235],[75.38596,26.28235],[75.3815,26.27799],[75.37864,26.27412]]]}},{"type":"Feature","bbox":[75.37806,26.28239,75.38366,26.28494],"properties":{"ward":26},"geometry":{"type":"Polygon","coordinates":[[[75.3793,26.28239],[75.37828,26.28298],[75.37826,26.28343],[75.37806,26.28369],[75.37832,26.28406],[75.37836,26.28448],[75.37875,26.28454],[75.37931,26.28407],[75.37985,26.28491],[75.38047,26.28494],[75.38102,26.28435],[75.3819,26.28393],[75.38298,26.28312],[75.38366,26.28241],[75.3793,26.28239]]]}},{"type":"Feature","bbox":[75.37849,26.2824,75.39247,26.29259],"properties":{"ward":27},"geometry":{"type":"Polygon","coordinates":[[[75.38163,26.2858],[75.38199,26.28606],[75.38246,26.28699],[75.38259,26.28801],[75.38349,26.28923],[75.38517,26.2901],[75.38607,26.29093],[75.38706,26.29259],[75.39247,26.29091],[75.38614,26.2824],[75.38371,26.28245],[75.38304,26.2832],[75.38108,26.28439],[75.38047,26.28498],[75.37983,26.28495],[75.37932,26.28415],[75.37878,26.28457],[75.37894,26.2848],[75.37868,26.28501],[75.37873,26.28542],[75.37849,26.2855],[75.37869,26.28625],[75.38027,26.28555],[75.38078,26.28579],[75.38163,26.2858]]]}},{"type":"Feature","bbox":[75.3764,26.28593,75.39789,26.29898],"properties":{"ward":28},"geometry":{"type":"Polygon","coordinates":[[[75.384,26.29363],[75.38449,26.29344],[75.386,26.29405],[75.38561,26.29486],[75.38516,26.29495],[75.38549,26.29561],[75.38603,26.29545],[75.38642,26.29632],[75.38884,26.29541],[75.3898,26.29682],[75.39135,26.29831],[75.39254,26.29898],[75.39719,26.29863],[75.39789,26.29831],[75.39251,26.29098],[75.38704,26.29271],[75.38599,26.29094],[75.38516,26.29016],[75.38346,26.28929],[75.38254,26.28804],[75.38242,26.28701],[75.38197,26.28611],[75.3803,26.28593],[75.3786,26.28666],[75.37772,26.28743],[75.37708,26.28756],[75.37686,26.28838],[75.37709,26.28941],[75.37702,26.2908],[75.37682,26.29077],[75.3771,26.29237],[75.37651,26.29351],[75.3764,26.29407],[75.37838,26.29491],[75.37876,26.29486],[75.37892,26.29359],[75.38051,26.29357],[75.38285,26.29272],[75.384,26.29363]]]}},{"type":"Feature","bbox":[75.37568,26.29417,75.37906,26.29733],"properties":{"ward":29},"geometry":{"type":"Polygon","coordinates":[[[75.37577,26.29607],[75.37568,26.29733],[75.37901,26.29722],[75.37906,26.29623],[75.37862,26.29617],[75.37851,26.29498],[75.37637,26.29417],[75.37618,26.29458],[75.37609,26.29587],[75.37577,26.29607]]]}},{"type":"Feature","bbox":[75.37858,26.29337,75.38554,26.29775],"properties":{"ward":30},"geometry":{"type":"Polygon","coordinates":[[[75.37912,26.29618],[75.3791,26.29728],[75.38103,26.29731],[75.38306,26.29775],[75.38554,26.29673],[75.38512,26.29579],[75.38427,26.29606],[75.38352,26.29553],[75.38336,26.29433],[75.38119,26.29436],[75.38125,26.29337],[75.38057,26.29361],[75.37898,26.29366],[75.37894,26.29454],[75.37881,26.29491],[75.37858,26.29497],[75.37867,26.29614],[75.37912,26.29618]]]}},{"type":"Feature","bbox":[75.38125,26.29276,75.38641,26.29671],"properties":{"ward":31},"geometry":{"type":"Polygon","coordinates":[[[75.38514,26.29574],[75.38556,26.29671],[75.38641,26.29634],[75.386,26.29546],[75.38547,26.29562],[75.38514,26.29495],[75.38559,26.29485],[75.38595,26.29406],[75.38448,26.29349],[75.384,26.29366],[75.38283,26.29276],[75.38128,26.29333],[75.38125,26.29432],[75.38338,26.2943],[75.38358,26.29551],[75.38427,26.29599],[75.38514,26.29574]]]}},{"type":"Feature","bbox":[75.38771,26.29546,75.4002,26.30149],"properties":{"ward":32},"geometry":{"type":"Polygon","coordinates":[[[75.38882,26.29546],[75.38771,26.29588],[75.38952,26.29927],[75.39709,26.30108],[75.39975,26.30149],[75.4002,26.30127],[75.398,26.29831],[75.39718,26.29867],[75.39255,26.29901],[75.39129,26.29832],[75.38975,26.29682],[75.38882,26.29546]]]}},{"type":"Feature","bbox":[75.37904,26.29592,75.38947,26.30102],"properties":{"ward":33},"geometry":{"type":"Polygon","coordinates":[[[75.38068,26.30102],[75.38947,26.29931],[75.38766,26.29592],[75.38312,26.29781],[75.38102,26.29736],[75.37909,26.29737],[75.37904,26.29959],[75.38068,26.30102]]]}},{"type":"Feature","bbox":[75.37434,26.29202,75.38045,26.30097],"properties":{"ward":34},"geometry":{"type":"Polygon","coordinates":[[[75.37465,26.29734],[75.37434,26.30063],[75.38045,26.30097],[75.379,26.29963],[75.37904,26.29732],[75.37565,26.29738],[75.37572,26.29604],[75.37605,26.29585],[75.3761,26.29462],[75.37648,26.29342],[75.37704,26.29245],[75.37632,26.29261],[75.3759,26.29251],[75.37573,26.29202],[75.37545,26.29207],[75.37465,26.29734]]]}},{"type":"Feature","bbox":[75.36933,26.29323,75.3752,26.30062],"properties":{"ward":35},"geometry":{"type":"Polygon","coordinates":[[[75.37146,26.29565],[75.36933,26.29919],[75.37061,26.30035],[75.37427,26.30062],[75.37459,26.29723],[75.3752,26.29333],[75.37436,26.29323],[75.37345,26.29333],[75.37353,26.29381],[75.37396,26.29383],[75.37443,26.29552],[75.37421,26.29644],[75.37381,26.29635],[75.37381,26.29671],[75.37344,26.29723],[75.37146,26.29565]]]}}]}