{"type":"FeatureCollection","features":[{"type":"Feature","bbox":[75.11524,27.62405,75.13126,27.64501],"properties":{"ward":1},"geometry":{"type":"Polygon","coordinates":[[[75.11597,27.63994],[75.11524,27.64041],[75.11525,27.64092],[75.11541,27.641],[75.11683,27.6405],[75.11678,27.64205],[75.1174,27.64218],[75.11753,27.64326],[75.11874,27.64359],[75.11857,27.6445],[75.11922,27.64477],[75.11933,27.64501],[75.12013,27.64408],[75.12049,27.64303],[75.12114,27.6419],[75.12555,27.63717],[75.12932,27.63167],[75.13044,27.63022],[75.13114,27.62957],[75.13126,27.62918],[75.13039,27.62893],[75.13048,27.62864],[75.12982,27.62845],[75.13,27.62794],[75.12865,27.62747],[75.1298,27.62588],[75.12763,27.62536],[75.12761,27.62405],[75.12662,27.62405],[75.12544,27.62655],[75.12478,27.62749],[75.119,27.62613],[75.11864,27.62789],[75.11839,27.62839],[75.11682,27.62841],[75.11658,27.62896],[75.11722,27.62907],[75.11764,27.62975],[75.11687,27.63332],[75.11597,27.63994]]]}},{"type":"Feature","bbox":[75.12876,27.62267,75.1353,27.62915],"properties":{"ward":2},"geometry":{"type":"Polygon","coordinates":[[[75.13325,27.62339],[75.13197,27.62267],[75.12876,27.62744],[75.13003,27.62791],[75.12985,27.62842],[75.13053,27.62861],[75.13042,27.62891],[75.13128,27.62915],[75.13447,27.62576],[75.13492,27.6249],[75.1353,27.62399],[75.13325,27.62339]]]}},{"type":"Feature","bbox":[75.13124,27.62228,75.13967,27.62947],"properties":{"ward":3},"geometry":{"type":"Polygon","coordinates":[[[75.13592,27.62321],[75.13456,27.62583],[75.13241,27.62798],[75.13124,27.62947],[75.13215,27.62898],[75.13967,27.62637],[75.13917,27.6232],[75.13754,27.62298],[75.1376,27.62228],[75.13615,27.62232],[75.13592,27.62321]]]}},{"type":"Feature","bbox":[75.13939,27.62121,75.14541,27.62633],"properties":{"ward":4},"geometry":{"type":"Polygon","coordinates":[[[75.13987,27.62427],[75.13939,27.62428],[75.13975,27.62633],[75.14095,27.6257],[75.14541,27.62227],[75.14411,27.62157],[75.14226,27.62121],[75.14194,27.62336],[75.14067,27.62323],[75.14055,27.62343],[75.13988,27.62333],[75.13987,27.62427]]]}},{"type":"Feature","bbox":[75.13758,27.62055,75.14221,27.62422],"properties":{"ward":5},"geometry":{"type":"Polygon","coordinates":[[[75.13937,27.6219],[75.13765,27.6222],[75.1377,27.62277],[75.13758,27.62292],[75.13924,27.62313],[75.1394,27.62422],[75.13981,27.6242],[75.1398,27.62325],[75.14187,27.62329],[75.14221,27.62115],[75.14201,27.62078],[75.14143,27.62075],[75.14141,27.62061],[75.13991,27.62055],[75.13937,27.6219]]]}},{"type":"Feature","bbox":[75.14111,27.61868,75.14693,27.62219],"properties":{"ward":6},"geometry":{"type":"Polygon","coordinates":[[[75.1414,27.61961],[75.14146,27.62071],[75.14205,27.62073],[75.14229,27.62115],[75.14418,27.6215],[75.14542,27.62219],[75.14693,27.62067],[75.14318,27.61868],[75.14233,27.61973],[75.14197,27.61965],[75.14153,27.61908],[75.14121,27.61904],[75.14111,27.61954],[75.1414,27.61961]]]}},{"type":"Feature","bbox":[75.14563,27.61441,75.15321,27.62064],"properties":{"ward":7},"geometry":{"type":"Polygon","coordinates":[[[75.14625,27.61883],[75.14563,27.61996],[75.14705,27.62064],[75.14788,27.61979],[75.1487,27.61943],[75.15086,27.61961],[75.15282,27.61999],[75.15321,27.6168],[75.14884,27.61441],[75.14836,27.61519],[75.14766,27.61736],[75.14733,27.61725],[75.1466,27.61895],[75.14625,27.61883]]]}},{"type":"Feature","bbox":[75.14323,27.61414,75.14876,27.61992],"properties":{"ward":8},"geometry":{"type":"Polygon","coordinates":[[[75.1443,27.61736],[75.14323,27.61861],[75.14559,27.61992],[75.14622,27.61876],[75.14654,27.61887],[75.1473,27.61711],[75.1476,27.61723],[75.14825,27.61514],[75.14876,27.61434],[75.14845,27.61414],[75.14333,27.61448],[75.14328,27.61499],[75.14359,27.61503],[75.14372,27.61589],[75.1433,27.61689],[75.1443,27.61736]]]}},{"type":"Feature","bbox":[75.13665,27.61445,75.14415,27.61855],"properties":{"ward":9},"geometry":{"type":"Polygon","coordinates":[[[75.14324,27.61445],[75.13686,27.61482],[75.13665,27.61744],[75.13731,27.61737],[75.13803,27.61759],[75.13867,27.6176],[75.13934,27.6175],[75.13934,27.61684],[75.14068,27.61689],[75.14217,27.61754],[75.14244,27.61799],[75.14317,27.61855],[75.14415,27.6174],[75.14315,27.61691],[75.14366,27.61588],[75.14353,27.61504],[75.14322,27.61509],[75.14324,27.61445]]]}},{"type":"Feature","bbox":[75.1394,27.61691,75.1431,27.6197],"properties":{"ward":10},"geometry":{"type":"Polygon","coordinates":[[[75.1394,27.61691],[75.1394,27.61744],[75.13983,27.61743],[75.13988,27.61916],[75.14028,27.6191],[75.14033,27.6194],[75.14075,27.61969],[75.14091,27.6197],[75.14104,27.61947],[75.14118,27.61889],[75.14148,27.61893],[75.14227,27.61965],[75.1431,27.61862],[75.14205,27.61755],[75.14059,27.61695],[75.1394,27.61691]]]}},{"type":"Feature","bbox":[75.1376,27.61747,75.14142,27.62052],"properties":{"ward":11},"geometry":{"type":"Polygon","coordinates":[[[75.13978,27.61747],[75.13876,27.61766],[75.13802,27.61764],[75.13789,27.61791],[75.1376,27.61792],[75.13764,27.61843],[75.13841,27.61842],[75.13845,27.61901],[75.13875,27.61906],[75.13873,27.61941],[75.1392,27.61943],[75.13919,27.62036],[75.14142,27.62052],[75.14134,27.61962],[75.14066,27.61972],[75.1403,27.61947],[75.14024,27.61917],[75.13981,27.61918],[75.13978,27.61747]]]}},{"type":"Feature","bbox":[75.13614,27.61743,75.13985,27.62222],"properties":{"ward":12},"geometry":{"type":"Polygon","coordinates":[[[75.13664,27.61749],[75.13649,27.61843],[75.13655,27.6205],[75.13614,27.62222],[75.13749,27.62218],[75.13844,27.62204],[75.13856,27.62189],[75.13926,27.62187],[75.13985,27.62053],[75.13913,27.62041],[75.13914,27.61948],[75.13867,27.61944],[75.1387,27.61908],[75.13839,27.61907],[75.13834,27.61845],[75.13759,27.61848],[75.13757,27.61788],[75.13788,27.61786],[75.13797,27.61764],[75.13726,27.61743],[75.13664,27.61749]]]}},{"type":"Feature","bbox":[75.13201,27.61845,75.13645,27.62391],"properties":{"ward":13},"geometry":{"type":"Polygon","coordinates":[[[75.13643,27.61845],[75.13576,27.61863],[75.13461,27.61977],[75.13429,27.62029],[75.13304,27.6202],[75.13201,27.62264],[75.13359,27.62349],[75.13534,27.62391],[75.1359,27.62297],[75.13645,27.62046],[75.13643,27.61845]]]}},{"type":"Feature","bbox":[75.13456,27.6148,75.13679,27.61875],"properties":{"ward":14},"geometry":{"type":"Polygon","coordinates":[[[75.13644,27.61841],[75.13679,27.61582],[75.13679,27.6148],[75.13637,27.61496],[75.13639,27.61553],[75.13503,27.61547],[75.13503,27.61579],[75.13555,27.61583],[75.13549,27.6164],[75.13519,27.61688],[75.13475,27.61703],[75.13456,27.61775],[75.13456,27.61866],[75.13506,27.61875],[75.13514,27.61862],[75.13644,27.61841]]]}},{"type":"Feature","bbox":[75.13195,27.61348,75.13676,27.61695],"properties":{"ward":15},"geometry":{"type":"Polygon","coordinates":[[[75.13469,27.61695],[75.13519,27.61686],[75.13546,27.61637],[75.13551,27.61586],[75.13498,27.61581],[75.13498,27.61544],[75.13634,27.61547],[75.13631,27.61493],[75.13676,27.61468],[75.13543,27.61364],[75.13316,27.61365],[75.13243,27.61348],[75.13195,27.61458],[75.13217,27.61589],[75.13202,27.61659],[75.13264,27.61679],[75.13326,27.6164],[75.13368,27.61648],[75.13377,27.6168],[75.13469,27.61695]]]}},{"type":"Feature","bbox":[75.13041,27.61645,75.13566,27.62022],"properties":{"ward":16},"geometry":{"type":"Polygon","coordinates":[[[75.13204,27.61666],[75.13167,27.61778],[75.1306,27.61753],[75.13041,27.61867],[75.13388,27.61867],[75.13307,27.62014],[75.13427,27.62022],[75.13456,27.61972],[75.13566,27.61863],[75.13523,27.61865],[75.13509,27.61879],[75.1345,27.61868],[75.13447,27.61783],[75.13467,27.61701],[75.13372,27.61681],[75.13359,27.61648],[75.13313,27.61645],[75.13262,27.61684],[75.13204,27.61666]]]}},{"type":"Feature","bbox":[75.12664,27.61872,75.13382,27.62583],"properties":{"ward":17},"geometry":{"type":"Polygon","coordinates":[[[75.1301,27.61873],[75.12981,27.62037],[75.12863,27.62166],[75.12833,27.62159],[75.12776,27.62262],[75.12664,27.62401],[75.12767,27.62404],[75.12768,27.62532],[75.12979,27.62583],[75.13026,27.62488],[75.13111,27.62389],[75.13217,27.62228],[75.13298,27.62016],[75.13382,27.61872],[75.1301,27.61873]]]}},{"type":"Feature","bbox":[75.10707,27.61663,75.13055,27.62893],"properties":{"ward":18},"geometry":{"type":"Polygon","coordinates":[[[75.11563,27.62786],[75.11557,27.62891],[75.11655,27.62893],[75.11682,27.62837],[75.11838,27.62837],[75.119,27.62605],[75.12472,27.62742],[75.1254,27.62648],[75.12654,27.62407],[75.12824,27.62147],[75.12861,27.62151],[75.12969,27.62036],[75.13006,27.61863],[75.13036,27.61864],[75.13055,27.61755],[75.12946,27.61727],[75.12975,27.61663],[75.12771,27.61744],[75.1088,27.62584],[75.10707,27.62701],[75.10976,27.6271],[75.11563,27.62786]]]}},{"type":"Feature","bbox":[75.10286,27.61278,75.13237,27.62708],"properties":{"ward":19},"geometry":{"type":"Polygon","coordinates":[[[75.10541,27.62685],[75.1069,27.62698],[75.10874,27.62576],[75.12097,27.62017],[75.12984,27.6165],[75.12954,27.61724],[75.13164,27.61771],[75.13211,27.61589],[75.1319,27.6146],[75.13237,27.61346],[75.12835,27.61278],[75.12347,27.61367],[75.12127,27.61436],[75.10597,27.61744],[75.10355,27.61766],[75.10346,27.61918],[75.10305,27.62033],[75.10311,27.62313],[75.10286,27.62351],[75.10292,27.62467],[75.10315,27.62528],[75.10395,27.62549],[75.10422,27.62583],[75.10436,27.62708],[75.10541,27.62685]]]}},{"type":"Feature","bbox":[75.12923,27.61041,75.13424,27.61365],"properties":{"ward":20},"geometry":{"type":"Polygon","coordinates":[[[75.12923,27.61274],[75.13389,27.61365],[75.13424,27.61076],[75.13137,27.61041],[75.13099,27.61126],[75.12985,27.61103],[75.12923,27.61274]]]}},{"type":"Feature","bbox":[75.10356,27.6041,75.12978,27.61746],"properties":{"ward":21},"geometry":{"type":"Polygon","coordinates":[[[75.12829,27.61266],[75.12914,27.61275],[75.12945,27.61218],[75.12978,27.61102],[75.12926,27.61065],[75.12658,27.60957],[75.1258,27.6091],[75.12238,27.60818],[75.12112,27.60713],[75.11971,27.60631],[75.11808,27.6059],[75.11397,27.6041],[75.11074,27.6091],[75.10891,27.61065],[75.1087,27.61152],[75.10845,27.61175],[75.10447,27.61165],[75.10398,27.61351],[75.10405,27.61377],[75.10454,27.61403],[75.1045,27.61476],[75.10356,27.61746],[75.10591,27.61724],[75.12129,27.6142],[75.12315,27.61356],[75.12829,27.61266]]]}},{"type":"Feature","bbox":[75.1086,27.5899,75.12934,27.61038],"properties":{"ward":22},"geometry":{"type":"Polygon","coordinates":[[[75.1154,27.60169],[75.114,27.60395],[75.11812,27.60576],[75.12044,27.60653],[75.12249,27.60812],[75.12583,27.60899],[75.12662,27.60949],[75.12886,27.61038],[75.12934,27.60829],[75.12785,27.60792],[75.12801,27.60731],[75.12757,27.60718],[75.12823,27.60388],[75.12837,27.60367],[75.12874,27.60361],[75.11954,27.5939],[75.11586,27.59032],[75.11399,27.5899],[75.11282,27.59],[75.1127,27.59025],[75.11068,27.59126],[75.11,27.59121],[75.1098,27.5916],[75.10919,27.59147],[75.1086,27.59315],[75.10927,27.59339],[75.10915,27.59479],[75.11182,27.59551],[75.11394,27.59644],[75.11481,27.59788],[75.11448,27.59962],[75.11449,27.60043],[75.11489,27.6015],[75.1154,27.60169]]]}},{"type":"Feature","bbox":[75.1289,27.60798,75.13667,27.61205],"properties":{"ward":23},"geometry":{"type":"Polygon","coordinates":[[[75.12946,27.6083],[75.1289,27.61041],[75.12961,27.61087],[75.13096,27.61121],[75.13132,27.61035],[75.13448,27.61075],[75.13548,27.61205],[75.13625,27.61026],[75.13632,27.6096],[75.13656,27.60939],[75.13667,27.60838],[75.13473,27.60852],[75.13451,27.60818],[75.13343,27.60798],[75.13348,27.60913],[75.132,27.60877],[75.13084,27.60869],[75.12946,27.6083]]]}},{"type":"Feature","bbox":[75.12766,27.60368,75.13671,27.60905],"properties":{"ward":24},"geometry":{"type":"Polygon","coordinates":[[[75.1281,27.60728],[75.12793,27.6079],[75.13332,27.60905],[75.1334,27.60794],[75.13452,27.60815],[75.13478,27.60849],[75.13669,27.60834],[75.13671,27.6082],[75.13653,27.60699],[75.13521,27.60659],[75.13486,27.60635],[75.13282,27.60602],[75.13221,27.60696],[75.12882,27.60368],[75.12844,27.60373],[75.12828,27.60394],[75.12808,27.60475],[75.12766,27.60714],[75.1281,27.60728]]]}},{"type":"Feature","bbox":[75.12864,27.59883,75.1363,27.60689],"properties":{"ward":25},"geometry":{"type":"Polygon","coordinates":[[[75.13,27.60144],[75.12954,27.60434],[75.13226,27.60689],[75.13281,27.60596],[75.13481,27.60629],[75.1342,27.60543],[75.13389,27.60433],[75.13358,27.60388],[75.13588,27.60383],[75.1359,27.60368],[75.1363,27.60366],[75.1363,27.60349],[75.13574,27.60346],[75.13567,27.60257],[75.13531,27.60256],[75.13529,27.60216],[75.13473,27.60217],[75.13469,27.60191],[75.13276,27.60183],[75.13273,27.60003],[75.13073,27.59893],[75.13019,27.59883],[75.12984,27.59974],[75.12864,27.60059],[75.13,27.60144]]]}},{"type":"Feature","bbox":[75.11593,27.58553,75.13603,27.60429],"properties":{"ward":26},"geometry":{"type":"Polygon","coordinates":[[[75.11855,27.59059],[75.11593,27.59024],[75.11988,27.59402],[75.12951,27.60429],[75.12992,27.60147],[75.12857,27.6006],[75.12876,27.60034],[75.12977,27.59972],[75.13015,27.59875],[75.13077,27.59888],[75.1328,27.59991],[75.13301,27.59748],[75.13279,27.59659],[75.13298,27.59415],[75.13341,27.59247],[75.13473,27.58959],[75.1351,27.58807],[75.13603,27.58553],[75.13564,27.58575],[75.1355,27.58616],[75.13091,27.58573],[75.1308,27.58639],[75.1249,27.5862],[75.12462,27.58717],[75.1199,27.58651],[75.11855,27.59059]]]}},{"type":"Feature","bbox":[75.1328,27.57622,75.14963,27.60213],"properties":{"ward":27},"geometry":{"type":"Polygon","coordinates":[[[75.1328,27.60002],[75.13281,27.6018],[75.13472,27.60188],[75.13478,27.60213],[75.13585,27.60212],[75.13587,27.60054],[75.14096,27.60075],[75.14122,27.59865],[75.14211,27.59762],[75.1442,27.58914],[75.14828,27.57806],[75.14963,27.57622],[75.14866,27.57632],[75.14536,27.57854],[75.14288,27.57773],[75.14148,27.57744],[75.1405,27.58078],[75.13883,27.58085],[75.13773,27.58115],[75.1374,27.58235],[75.1374,27.58457],[75.13616,27.5854],[75.1348,27.58963],[75.13401,27.59127],[75.13325,27.59335],[75.1329,27.5957],[75.13311,27.59749],[75.1328,27.60002]]]}},{"type":"Feature","bbox":[75.13363,27.6006,75.13848,27.60695],"properties":{"ward":28},"geometry":{"type":"Polygon","coordinates":[[[75.13591,27.60387],[75.13363,27.60392],[75.13394,27.60429],[75.13446,27.60581],[75.13519,27.60652],[75.13653,27.60695],[75.13653,27.60671],[75.13746,27.60679],[75.13762,27.60661],[75.13848,27.60659],[75.13846,27.60527],[75.13745,27.60396],[75.13764,27.60063],[75.13593,27.6006],[75.1359,27.60214],[75.13534,27.60217],[75.13535,27.60251],[75.13573,27.60252],[75.13577,27.60343],[75.13634,27.60345],[75.13635,27.6037],[75.13598,27.6037],[75.13591,27.60387]]]}},{"type":"Feature","bbox":[75.13755,27.60063,75.14294,27.60602],"properties":{"ward":29},"geometry":{"type":"Polygon","coordinates":[[[75.13853,27.60522],[75.13851,27.60565],[75.13905,27.60565],[75.13915,27.60496],[75.13997,27.60497],[75.13988,27.60548],[75.14181,27.60602],[75.14205,27.60584],[75.14294,27.60447],[75.14175,27.60412],[75.14186,27.60275],[75.14226,27.60274],[75.14237,27.60216],[75.14026,27.60171],[75.14037,27.6008],[75.1377,27.60063],[75.13755,27.60391],[75.13853,27.60522]]]}},{"type":"Feature","bbox":[75.13657,27.60499,75.14177,27.61028],"properties":{"ward":30},"geometry":{"type":"Polygon","coordinates":[[[75.13745,27.60686],[75.13657,27.60675],[75.13677,27.60808],[75.13658,27.60944],[75.13992,27.60934],[75.1416,27.61028],[75.14173,27.60959],[75.14153,27.60892],[75.14162,27.60837],[75.14037,27.60809],[75.14177,27.60608],[75.1398,27.60551],[75.13989,27.60502],[75.13918,27.60499],[75.13905,27.60575],[75.13852,27.60574],[75.13855,27.60667],[75.13765,27.60667],[75.13745,27.60686]]]}},{"type":"Feature","bbox":[75.13393,27.60942,75.14146,27.61476],"properties":{"ward":31},"geometry":{"type":"Polygon","coordinates":[[[75.13549,27.61216],[75.1343,27.61076],[75.13393,27.61363],[75.13544,27.61357],[75.1367,27.6145],[75.13685,27.61476],[75.13806,27.6147],[75.13798,27.61233],[75.13973,27.61204],[75.14068,27.61218],[75.14112,27.61204],[75.14146,27.61109],[75.14043,27.61094],[75.14059,27.60982],[75.13991,27.60942],[75.13647,27.60951],[75.13634,27.61025],[75.13549,27.61216]]]}},{"type":"Feature","bbox":[75.13803,27.60987,75.14832,27.61471],"properties":{"ward":32},"geometry":{"type":"Polygon","coordinates":[[[75.14346,27.6113],[75.14065,27.60987],[75.14047,27.61091],[75.14151,27.61107],[75.14119,27.61203],[75.14068,27.61223],[75.13974,27.61209],[75.13803,27.61235],[75.13812,27.61471],[75.14832,27.61409],[75.14346,27.6113]]]}},{"type":"Feature","bbox":[75.14406,27.60811,75.15674,27.61665],"properties":{"ward":33},"geometry":{"type":"Polygon","coordinates":[[[75.14425,27.61129],[75.14406,27.61153],[75.15325,27.61665],[75.15388,27.61234],[75.15445,27.61062],[75.15539,27.60924],[75.15674,27.60811],[75.15326,27.6089],[75.15157,27.60911],[75.15152,27.60959],[75.15028,27.60959],[75.1492,27.60987],[75.14833,27.60986],[75.1481,27.61086],[75.14615,27.61054],[75.14437,27.61047],[75.14425,27.61129]]]}},{"type":"Feature","bbox":[75.1482,27.60322,75.15147,27.60984],"properties":{"ward":34},"geometry":{"type":"Polygon","coordinates":[[[75.14836,27.60966],[75.14845,27.60982],[75.14906,27.60984],[75.15025,27.60954],[75.15147,27.60949],[75.15101,27.60322],[75.1492,27.60372],[75.14909,27.60457],[75.14884,27.60465],[75.14876,27.60522],[75.14848,27.60569],[75.14881,27.60583],[75.1482,27.60645],[75.14918,27.60704],[75.14925,27.60767],[75.14902,27.60824],[75.14875,27.60822],[75.14836,27.60966]]]}},{"type":"Feature","bbox":[75.14594,27.60685,75.14915,27.61077],"properties":{"ward":35},"geometry":{"type":"Polygon","coordinates":[[[75.14915,27.60705],[75.14856,27.60731],[75.14717,27.60753],[75.14679,27.60743],[75.14687,27.60711],[75.14594,27.60685],[75.14597,27.60817],[75.14653,27.60789],[75.14662,27.6081],[75.14703,27.60811],[75.14683,27.60909],[75.14705,27.60921],[75.14669,27.61054],[75.14807,27.61077],[75.14872,27.60817],[75.14899,27.6082],[75.14915,27.60777],[75.14915,27.60705]]]}},{"type":"Feature","bbox":[75.14284,27.60793,75.147,27.61152],"properties":{"ward":36},"geometry":{"type":"Polygon","coordinates":[[[75.14658,27.6081],[75.14651,27.60793],[75.1447,27.60871],[75.14467,27.60851],[75.14348,27.60825],[75.14346,27.60869],[75.14418,27.60892],[75.14296,27.61032],[75.14284,27.61089],[75.14401,27.61152],[75.14419,27.61127],[75.14433,27.61043],[75.14662,27.61053],[75.147,27.60923],[75.1468,27.60916],[75.14699,27.60814],[75.14658,27.6081]]]}},{"type":"Feature","bbox":[75.14156,27.60825,75.14413,27.61086],"properties":{"ward":37},"geometry":{"type":"Polygon","coordinates":[[[75.14184,27.60834],[75.14156,27.60863],[75.1418,27.60964],[75.14166,27.61029],[75.14279,27.61086],[75.14293,27.6103],[75.14413,27.60894],[75.14347,27.60875],[75.14344,27.60825],[75.14184,27.60834]]]}},{"type":"Feature","bbox":[75.14045,27.60496,75.14652,27.60835],"properties":{"ward":38},"geometry":{"type":"Polygon","coordinates":[[[75.14209,27.60589],[75.14045,27.60806],[75.14168,27.60835],[75.1424,27.60818],[75.1424,27.60789],[75.14304,27.6075],[75.14361,27.60633],[75.14504,27.60637],[75.14506,27.60619],[75.14605,27.60634],[75.14652,27.60545],[75.14569,27.60553],[75.14474,27.60496],[75.14209,27.60589]]]}},{"type":"Feature","bbox":[75.14244,27.60636,75.14593,27.60867],"properties":{"ward":39},"geometry":{"type":"Polygon","coordinates":[[[75.14244,27.6079],[75.14244,27.60818],[75.14385,27.60824],[75.14469,27.60849],[75.14474,27.60867],[75.14593,27.60819],[75.1459,27.60686],[75.14496,27.60665],[75.14502,27.60641],[75.14364,27.60636],[75.14308,27.60752],[75.14244,27.6079]]]}},{"type":"Feature","bbox":[75.14478,27.60373,75.14912,27.60749],"properties":{"ward":40},"geometry":{"type":"Polygon","coordinates":[[[75.14912,27.60373],[75.14478,27.60495],[75.1457,27.6055],[75.14657,27.6054],[75.14606,27.60638],[75.14509,27.60623],[75.145,27.60663],[75.14692,27.60709],[75.14683,27.6074],[75.14715,27.60749],[75.14908,27.60705],[75.14813,27.60646],[75.14874,27.60585],[75.14842,27.6057],[75.14872,27.6052],[75.14881,27.60461],[75.14905,27.60454],[75.14912,27.60373]]]}},{"type":"Feature","bbox":[75.14032,27.6008,75.14812,27.6058],"properties":{"ward":41},"geometry":{"type":"Polygon","coordinates":[[[75.1424,27.60212],[75.14233,27.60281],[75.14192,27.60281],[75.14181,27.60408],[75.143,27.60445],[75.14216,27.6058],[75.14654,27.6043],[75.14812,27.6039],[75.14717,27.60133],[75.14043,27.6008],[75.14032,27.60167],[75.1424,27.60212]]]}},{"type":"Feature","bbox":[75.14103,27.59007,75.14949,27.60111],"properties":{"ward":42},"geometry":{"type":"Polygon","coordinates":[[[75.14137,27.59868],[75.14103,27.60075],[75.14509,27.60111],[75.14553,27.60017],[75.14826,27.60039],[75.14834,27.59985],[75.14921,27.6],[75.14949,27.59901],[75.14792,27.59872],[75.14783,27.59917],[75.14629,27.59888],[75.14712,27.59767],[75.1476,27.59779],[75.14781,27.59707],[75.1473,27.59651],[75.14555,27.59552],[75.14649,27.59202],[75.14585,27.59091],[75.14589,27.59012],[75.14408,27.59007],[75.1422,27.59765],[75.14137,27.59868]]]}},{"type":"Feature","bbox":[75.14409,27.57616,75.162,27.5994],"properties":{"ward":43},"geometry":{"type":"Polygon","coordinates":[[[75.14846,27.57814],[75.14409,27.59001],[75.14596,27.59005],[75.14596,27.59094],[75.14659,27.59199],[75.14563,27.5955],[75.14735,27.59644],[75.14787,27.59705],[75.14763,27.59786],[75.14714,27.59773],[75.14639,27.59883],[75.14778,27.5991],[75.1479,27.59868],[75.15199,27.5994],[75.15218,27.59845],[75.15382,27.59857],[75.15433,27.5969],[75.15459,27.59689],[75.15469,27.59673],[75.15598,27.59082],[75.15647,27.58525],[75.15681,27.58432],[75.15739,27.5836],[75.15774,27.58102],[75.15984,27.58127],[75.16057,27.57903],[75.162,27.57684],[75.15916,27.57681],[75.15687,27.57631],[75.14979,27.57616],[75.14846,27.57814]]]}},{"type":"Feature","bbox":[75.14516,27.59675,75.15632,27.60389],"properties":{"ward":44},"geometry":{"type":"Polygon","coordinates":[[[75.14556,27.60025],[75.14516,27.60111],[75.1472,27.60127],[75.14818,27.60389],[75.15,27.60345],[75.15104,27.60313],[75.15165,27.60247],[75.15337,27.60124],[75.15563,27.60018],[75.15556,27.59984],[75.15599,27.59834],[75.15582,27.59826],[75.15632,27.59737],[75.15472,27.59675],[75.15461,27.59693],[75.15436,27.59694],[75.15385,27.59862],[75.15328,27.59869],[75.15219,27.59852],[75.15201,27.59943],[75.14957,27.59904],[75.14926,27.60008],[75.14839,27.59989],[75.1483,27.60043],[75.14556,27.60025]]]}},{"type":"Feature","bbox":[75.15471,27.57685,75.18253,27.60016],"properties":{"ward":45},"geometry":{"type":"Polygon","coordinates":[[[75.15611,27.59084],[75.15471,27.59671],[75.1558,27.59702],[75.15641,27.59736],[75.15587,27.59825],[75.15605,27.59831],[75.15562,27.59984],[75.15567,27.60016],[75.15996,27.59786],[75.17282,27.5904],[75.17867,27.58845],[75.18253,27.58614],[75.18178,27.58517],[75.18183,27.58484],[75.18143,27.58418],[75.18057,27.58393],[75.18051,27.58405],[75.17981,27.58395],[75.17875,27.58357],[75.17847,27.58375],[75.17754,27.5835],[75.17755,27.58298],[75.17737,27.58292],[75.17704,27.58334],[75.17613,27.58307],[75.17616,27.58224],[75.17535,27.58189],[75.1744,27.58255],[75.1726,27.58179],[75.17009,27.58137],[75.17015,27.57995],[75.16978,27.57986],[75.17,27.57854],[75.16615,27.57734],[75.16374,27.57694],[75.16212,27.57685],[75.16069,27.5791],[75.15989,27.58136],[75.15782,27.58111],[75.15751,27.5836],[75.15692,27.58436],[75.15658,27.58528],[75.15611,27.59084]]]}},{"type":"Feature","bbox":[75.16004,27.58564,75.19153,27.60607],"properties":{"ward":46},"geometry":{"type":"Polygon","coordinates":[[[75.17287,27.59053],[75.16004,27.59789],[75.1607,27.59907],[75.16076,27.60036],[75.1614,27.60149],[75.16338,27.60159],[75.16334,27.60205],[75.16403,27.60213],[75.16398,27.60395],[75.16469,27.60389],[75.16483,27.60463],[75.16568,27.60459],[75.16581,27.60539],[75.16604,27.60538],[75.16607,27.60588],[75.16835,27.60607],[75.17045,27.60591],[75.17182,27.60598],[75.17473,27.6051],[75.17475,27.60369],[75.17668,27.60336],[75.17809,27.59919],[75.17907,27.59892],[75.18069,27.59893],[75.18094,27.59825],[75.18354,27.59721],[75.18504,27.59747],[75.18561,27.59743],[75.18581,27.59734],[75.18638,27.59612],[75.18827,27.59537],[75.18913,27.59543],[75.19061,27.59589],[75.19074,27.59436],[75.19097,27.594],[75.19126,27.59114],[75.19153,27.59014],[75.18797,27.58952],[75.18809,27.58778],[75.18644,27.58686],[75.18504,27.58666],[75.18432,27.58599],[75.18356,27.58564],[75.17871,27.58858],[75.17287,27.59053]]]}},{"type":"Feature","bbox":[75.15112,27.59793,75.1612,27.60593],"properties":{"ward":47},"geometry":{"type":"Polygon","coordinates":[[[75.16061,27.59911],[75.15997,27.59793],[75.1534,27.60129],[75.15171,27.60251],[75.15112,27.60317],[75.15133,27.60593],[75.15408,27.60581],[75.15415,27.60551],[75.15539,27.60561],[75.15548,27.6049],[75.15887,27.60463],[75.15876,27.60355],[75.16105,27.60335],[75.1612,27.60134],[75.16066,27.60039],[75.16061,27.59911]]]}},{"type":"Feature","bbox":[75.15135,27.60146,75.16576,27.60901],"properties":{"ward":48},"geometry":{"type":"Polygon","coordinates":[[[75.15135,27.60602],[75.15149,27.60901],[75.15328,27.60883],[75.1554,27.60826],[75.15684,27.60808],[75.15784,27.60754],[75.1623,27.60578],[75.16576,27.60539],[75.16565,27.60462],[75.16479,27.60467],[75.16464,27.60394],[75.16393,27.60398],[75.16384,27.60322],[75.16398,27.60216],[75.16329,27.60208],[75.16331,27.60162],[75.16134,27.60156],[75.16128,27.60146],[75.1611,27.60341],[75.1588,27.6036],[75.15891,27.60468],[75.15554,27.60495],[75.15543,27.60566],[75.15416,27.60558],[75.15414,27.60586],[75.15135,27.60602]]]}},{"type":"Feature","bbox":[75.15945,27.60345,75.17665,27.61201],"properties":{"ward":49},"geometry":{"type":"Polygon","coordinates":[[[75.1623,27.60581],[75.15945,27.60692],[75.15957,27.60873],[75.16086,27.60911],[75.16324,27.60863],[75.16418,27.60893],[75.16435,27.60986],[75.1643,27.61176],[75.16798,27.61201],[75.168,27.61133],[75.17043,27.6102],[75.17174,27.60984],[75.17347,27.60981],[75.17435,27.60996],[75.17665,27.60345],[75.17485,27.60374],[75.17483,27.60516],[75.17187,27.60606],[75.17024,27.60598],[75.16832,27.60613],[75.16603,27.60593],[75.16599,27.60543],[75.1623,27.60581]]]}},{"type":"Feature","bbox":[75.15285,27.60693,75.1603,27.62071],"properties":{"ward":50},"geometry":{"type":"Polygon","coordinates":[[[75.15952,27.60876],[75.15943,27.60693],[75.15686,27.6081],[75.15579,27.60896],[75.15454,27.61063],[75.15411,27.61192],[75.15285,27.62],[75.15505,27.62039],[75.15573,27.62071],[75.15612,27.6185],[75.1556,27.6181],[75.15612,27.61503],[75.15419,27.61483],[75.15441,27.61363],[75.15563,27.61425],[75.1558,27.61356],[75.15799,27.61376],[75.15882,27.61338],[75.15885,27.61127],[75.15994,27.61098],[75.1603,27.61107],[75.16022,27.60905],[75.15952,27.60876]]]}},{"type":"Feature","bbox":[75.15889,27.60867,75.17435,27.61584],"properties":{"ward":51},"geometry":{"type":"Polygon","coordinates":[[[75.1589,27.61338],[75.168,27.61396],[75.17069,27.61468],[75.17133,27.6152],[75.17262,27.61584],[75.17277,27.61267],[75.17355,27.61256],[75.1736,27.6107],[75.17431,27.61077],[75.17435,27.61],[75.17176,27.6099],[75.17048,27.61025],[75.16806,27.61136],[75.16802,27.61209],[75.16423,27.61179],[75.16431,27.60984],[75.16416,27.60896],[75.16323,27.60867],[75.16085,27.60914],[75.16026,27.60906],[75.16034,27.61112],[75.15997,27.61101],[75.15889,27.61128],[75.1589,27.61338]]]}},{"type":"Feature","bbox":[75.15799,27.61343,75.17361,27.6199],"properties":{"ward":52},"geometry":{"type":"Polygon","coordinates":[[[75.1589,27.61343],[75.15825,27.61379],[75.15799,27.61569],[75.16042,27.61601],[75.16016,27.61736],[75.16309,27.61812],[75.16543,27.61893],[75.17034,27.61974],[75.17201,27.6199],[75.17205,27.61958],[75.17361,27.6191],[75.17339,27.61679],[75.17205,27.61642],[75.17228,27.61577],[75.17067,27.61476],[75.16799,27.61401],[75.1589,27.61343]]]}},{"type":"Feature","bbox":[75.15424,27.61362,75.16655,27.62153],"properties":{"ward":53},"geometry":{"type":"Polygon","coordinates":[[[75.15444,27.61371],[75.15424,27.61478],[75.15621,27.61496],[75.15567,27.61806],[75.15617,27.61846],[75.15701,27.6188],[75.15733,27.61911],[75.16045,27.62007],[75.16375,27.62076],[75.16588,27.62153],[75.16631,27.62043],[75.16655,27.6191],[75.16542,27.61898],[75.16301,27.61815],[75.16008,27.6174],[75.16039,27.61604],[75.15792,27.61573],[75.1582,27.6138],[75.15585,27.61362],[75.15567,27.61435],[75.15444,27.61371]]]}},{"type":"Feature","bbox":[75.15578,27.61853,75.17198,27.62525],"properties":{"ward":54},"geometry":{"type":"Polygon","coordinates":[[[75.15731,27.61915],[75.15617,27.61853],[75.15578,27.62075],[75.17031,27.62525],[75.17198,27.61995],[75.16661,27.61911],[75.16635,27.62044],[75.1659,27.6216],[75.16408,27.62092],[75.1601,27.62002],[75.15731,27.61915]]]}},{"type":"Feature","bbox":[75.15333,27.62014,75.17028,27.62818],"properties":{"ward":55},"geometry":{"type":"Polygon","coordinates":[[[75.15333,27.62014],[75.15644,27.62537],[75.15701,27.62512],[75.15757,27.62516],[75.15989,27.6258],[75.16001,27.6257],[75.16415,27.62707],[75.16822,27.62809],[75.16926,27.62818],[75.17028,27.62531],[75.16887,27.62497],[75.15503,27.62048],[75.15333,27.62014]]]}},{"type":"Feature","bbox":[75.15341,27.62515,75.16975,27.64023],"properties":{"ward":56},"geometry":{"type":"Polygon","coordinates":[[[75.15703,27.62515],[75.15646,27.62541],[75.16165,27.63409],[75.1609,27.63448],[75.15993,27.63533],[75.15535,27.6336],[75.15348,27.63338],[75.15341,27.63466],[75.15396,27.63638],[75.15486,27.63834],[75.15514,27.63953],[75.16052,27.64023],[75.16239,27.64005],[75.16248,27.63941],[75.16232,27.63861],[75.16308,27.63644],[75.16417,27.63652],[75.1644,27.63605],[75.16507,27.63605],[75.16513,27.6359],[75.16661,27.6359],[75.16722,27.63397],[75.16726,27.63222],[75.16748,27.63162],[75.16795,27.63092],[75.16861,27.63051],[75.16902,27.63055],[75.1693,27.62983],[75.16974,27.62981],[75.16975,27.62899],[75.16921,27.62869],[75.16925,27.62824],[75.16819,27.62812],[75.16409,27.62712],[75.16,27.62576],[75.15703,27.62515]]]}},{"type":"Feature","bbox":[75.15032,27.62008,75.16155,27.63948],"properties":{"ward":57},"geometry":{"type":"Polygon","coordinates":[[[75.15284,27.62008],[75.15042,27.63653],[75.15032,27.63813],[75.15506,27.63948],[75.15482,27.63839],[75.15431,27.63705],[75.15389,27.63639],[75.15331,27.63467],[75.15342,27.63332],[75.15536,27.63356],[75.1599,27.63527],[75.16084,27.63444],[75.16155,27.63407],[75.15326,27.62013],[75.15284,27.62008]]]}},{"type":"Feature","bbox":[75.13935,27.62723,75.1516,27.63811],"properties":{"ward":58},"geometry":{"type":"Polygon","coordinates":[[[75.14934,27.62723],[75.14339,27.63296],[75.13935,27.63658],[75.13948,27.6371],[75.1478,27.63765],[75.1502,27.63811],[75.15028,27.63671],[75.1516,27.62806],[75.14971,27.62767],[75.14934,27.62723]]]}},{"type":"Feature","bbox":[75.14549,27.61947,75.1528,27.62801],"properties":{"ward":59},"geometry":{"type":"Polygon","coordinates":[[[75.14778,27.61998],[75.14549,27.62225],[75.14672,27.62314],[75.14748,27.62339],[75.14758,27.62382],[75.1483,27.62439],[75.14813,27.6253],[75.14846,27.62542],[75.14832,27.62583],[75.1488,27.62602],[75.14881,27.62656],[75.14922,27.62672],[75.1491,27.62709],[75.14973,27.62763],[75.15161,27.62801],[75.1528,27.62008],[75.15048,27.61961],[75.14915,27.61947],[75.14838,27.61957],[75.14778,27.61998]]]}},{"type":"Feature","bbox":[75.14118,27.62233,75.14931,27.62822],"properties":{"ward":60},"geometry":{"type":"Polygon","coordinates":[[[75.14559,27.62233],[75.14118,27.62558],[75.14208,27.62583],[75.14207,27.62601],[75.14305,27.62618],[75.14308,27.62705],[75.14527,27.62734],[75.14518,27.62784],[75.14551,27.62789],[75.14558,27.6276],[75.14836,27.62822],[75.14931,27.62722],[75.14907,27.6271],[75.14918,27.62674],[75.14877,27.62658],[75.14878,27.62604],[75.14829,27.62585],[75.14842,27.62543],[75.14809,27.62532],[75.14825,27.62441],[75.14763,27.62396],[75.14745,27.62341],[75.14673,27.62318],[75.14559,27.62233]]]}},{"type":"Feature","bbox":[75.14341,27.62762,75.14833,27.63289],"properties":{"ward":61},"geometry":{"type":"Polygon","coordinates":[[[75.14553,27.62793],[75.14517,27.62787],[75.14486,27.629],[75.14407,27.62881],[75.14406,27.62939],[75.14386,27.6297],[75.14455,27.63001],[75.14449,27.63073],[75.14341,27.63289],[75.14833,27.62825],[75.1456,27.62762],[75.14553,27.62793]]]}},{"type":"Feature","bbox":[75.13763,27.62563,75.14523,27.63093],"properties":{"ward":62},"geometry":{"type":"Polygon","coordinates":[[[75.14112,27.62563],[75.14024,27.62621],[75.13763,27.62715],[75.13824,27.63033],[75.1393,27.63027],[75.13923,27.63079],[75.14006,27.63093],[75.14019,27.63079],[75.14013,27.6298],[75.14025,27.62935],[75.14116,27.62964],[75.14129,27.6293],[75.14257,27.62972],[75.14307,27.62966],[75.14448,27.63031],[75.14451,27.63004],[75.14382,27.62971],[75.14406,27.62923],[75.14405,27.62876],[75.14484,27.62897],[75.14523,27.62737],[75.14302,27.62708],[75.14301,27.62622],[75.14202,27.62604],[75.14203,27.62588],[75.14112,27.62563]]]}},{"type":"Feature","bbox":[75.13825,27.62935,75.14448,27.63651],"properties":{"ward":63},"geometry":{"type":"Polygon","coordinates":[[[75.13935,27.63651],[75.14333,27.63295],[75.14445,27.63073],[75.14448,27.63034],[75.14305,27.62968],[75.14256,27.62974],[75.1413,27.62935],[75.14116,27.62967],[75.14028,27.62939],[75.14024,27.63079],[75.14008,27.63098],[75.1392,27.63082],[75.13927,27.63031],[75.13825,27.63037],[75.13853,27.63308],[75.13895,27.63432],[75.13935,27.63651]]]}},{"type":"Feature","bbox":[75.13201,27.62841,75.13942,27.6428],"properties":{"ward":64},"geometry":{"type":"Polygon","coordinates":[[[75.13848,27.63306],[75.13789,27.62848],[75.1373,27.62841],[75.13717,27.62869],[75.13674,27.62862],[75.1365,27.62948],[75.13427,27.62936],[75.13291,27.63341],[75.13273,27.63426],[75.13261,27.63676],[75.13223,27.63682],[75.13205,27.6385],[75.13213,27.64261],[75.13201,27.6428],[75.13923,27.63709],[75.13942,27.63708],[75.13893,27.6344],[75.13848,27.63306]]]}},{"type":"Feature","bbox":[75.11936,27.62716,75.13788,27.6495],"properties":{"ward":65},"geometry":{"type":"Polygon","coordinates":[[[75.13758,27.62716],[75.13217,27.62903],[75.13116,27.62961],[75.12942,27.63165],[75.12554,27.63728],[75.12118,27.64195],[75.12017,27.64411],[75.11936,27.64505],[75.11952,27.64546],[75.12144,27.64579],[75.12162,27.64846],[75.12192,27.64883],[75.12303,27.64905],[75.123,27.64934],[75.12426,27.6495],[75.12948,27.64481],[75.13185,27.64292],[75.13207,27.6426],[75.13198,27.63853],[75.13218,27.63685],[75.13256,27.63671],[75.13281,27.63352],[75.13426,27.62933],[75.13647,27.62946],[75.13673,27.62858],[75.13715,27.62866],[75.1373,27.62838],[75.13788,27.62844],[75.13758,27.62716]]]}}]}