{"type":"FeatureCollection","features":[{"type":"Feature","bbox":[76.01033,25.91736,76.02494,25.93016],"properties":{"ward":1},"geometry":{"type":"Polygon","coordinates":[[[76.01813,25.92597],[76.01054,25.92915],[76.01033,25.93016],[76.01195,25.93012],[76.01777,25.92705],[76.0179,25.92736],[76.01892,25.9271],[76.01949,25.92865],[76.02359,25.92786],[76.02194,25.92544],[76.02151,25.92308],[76.02409,25.92247],[76.02375,25.92177],[76.02316,25.92104],[76.02291,25.92108],[76.02198,25.92028],[76.02199,25.91974],[76.0223,25.91971],[76.0223,25.91945],[76.02299,25.91915],[76.02448,25.91907],[76.02494,25.91772],[76.02349,25.91804],[76.02333,25.91736],[76.02241,25.91774],[76.02152,25.91925],[76.02045,25.92162],[76.01943,25.92484],[76.0189,25.9255],[76.01813,25.92597]]]}},{"type":"Feature","bbox":[76.01102,25.91522,76.0214,25.92875],"properties":{"ward":2},"geometry":{"type":"Polygon","coordinates":[[[76.01344,25.91522],[76.01314,25.91553],[76.0133,25.91623],[76.01438,25.91761],[76.01505,25.91888],[76.0165,25.91979],[76.01615,25.92032],[76.01626,25.92069],[76.01669,25.92085],[76.01724,25.92071],[76.01708,25.92257],[76.01861,25.92259],[76.01861,25.92433],[76.01785,25.92489],[76.01102,25.92725],[76.0115,25.92875],[76.01806,25.92595],[76.01883,25.92547],[76.01937,25.92478],[76.02022,25.92211],[76.0214,25.91932],[76.02039,25.91895],[76.01786,25.91974],[76.01344,25.91522]]]}},{"type":"Feature","bbox":[76.01347,25.91405,76.0241,25.9197],"properties":{"ward":3},"geometry":{"type":"Polygon","coordinates":[[[76.01347,25.91519],[76.01787,25.9197],[76.02041,25.91893],[76.02144,25.91931],[76.02239,25.91773],[76.02395,25.91686],[76.02384,25.9168],[76.0241,25.91629],[76.02377,25.91625],[76.0236,25.91578],[76.02311,25.91531],[76.02267,25.91523],[76.02245,25.91486],[76.02196,25.91474],[76.02167,25.91429],[76.02101,25.91405],[76.02068,25.9142],[76.02043,25.91464],[76.02111,25.91532],[76.02115,25.9173],[76.02084,25.91755],[76.01973,25.91774],[76.01947,25.91846],[76.01776,25.91921],[76.01659,25.91657],[76.01693,25.91643],[76.01534,25.91611],[76.01383,25.91497],[76.01347,25.91519]]]}},{"type":"Feature","bbox":[76.02045,25.9127,76.02432,25.91623],"properties":{"ward":4},"geometry":{"type":"Polygon","coordinates":[[[76.02379,25.91623],[76.02432,25.91614],[76.02421,25.91527],[76.02383,25.91536],[76.02371,25.91515],[76.02343,25.91508],[76.02239,25.91368],[76.02197,25.91336],[76.0217,25.91282],[76.02149,25.9127],[76.02045,25.91298],[76.02107,25.91403],[76.02169,25.91425],[76.02199,25.91472],[76.02247,25.91485],[76.0227,25.91519],[76.02314,25.91529],[76.02363,25.91576],[76.02379,25.91623]]]}},{"type":"Feature","bbox":[76.02387,25.91439,76.02496,25.91685],"properties":{"ward":5},"geometry":{"type":"Polygon","coordinates":[[[76.02387,25.9168],[76.02398,25.91685],[76.02496,25.91615],[76.02466,25.91469],[76.02439,25.91439],[76.02408,25.91452],[76.02434,25.91613],[76.0241,25.9163],[76.02387,25.9168]]]}},{"type":"Feature","bbox":[76.02245,25.91372,76.0244,25.91533],"properties":{"ward":6},"geometry":{"type":"Polygon","coordinates":[[[76.02407,25.9145],[76.0244,25.91437],[76.02245,25.91372],[76.02345,25.91508],[76.02374,25.91514],[76.02384,25.91533],[76.02419,25.91526],[76.02407,25.9145]]]}},{"type":"Feature","bbox":[76.0217,25.91274,76.02441,25.91435],"properties":{"ward":7},"geometry":{"type":"Polygon","coordinates":[[[76.02199,25.91334],[76.02441,25.91435],[76.02421,25.91274],[76.0217,25.9128],[76.02199,25.91334]]]}},{"type":"Feature","bbox":[76.02151,25.91209,76.02521,25.91403],"properties":{"ward":8},"geometry":{"type":"Polygon","coordinates":[[[76.02423,25.91272],[76.02445,25.91403],[76.02464,25.91398],[76.02442,25.9128],[76.02521,25.91282],[76.02506,25.91247],[76.02462,25.91249],[76.0233,25.91209],[76.02151,25.91268],[76.02169,25.91279],[76.02423,25.91272]]]}},{"type":"Feature","bbox":[76.02462,25.91446,76.02602,25.91612],"properties":{"ward":9},"geometry":{"type":"Polygon","coordinates":[[[76.02462,25.91448],[76.02499,25.91612],[76.02602,25.91581],[76.02583,25.91506],[76.02557,25.91507],[76.0254,25.91477],[76.02493,25.91446],[76.02462,25.91448]]]}},{"type":"Feature","bbox":[76.02443,25.91282,76.02638,25.9158],"properties":{"ward":10},"geometry":{"type":"Polygon","coordinates":[[[76.02584,25.91505],[76.02604,25.9158],[76.02638,25.91575],[76.02617,25.91535],[76.02631,25.91487],[76.02575,25.91419],[76.02527,25.91284],[76.02445,25.91282],[76.02466,25.91399],[76.02444,25.91405],[76.02443,25.91437],[76.02494,25.91445],[76.02541,25.91476],[76.02558,25.91506],[76.02584,25.91505]]]}},{"type":"Feature","bbox":[76.02531,25.91264,76.0273,25.91575],"properties":{"ward":11},"geometry":{"type":"Polygon","coordinates":[[[76.02619,25.91535],[76.02639,25.91575],[76.02661,25.91539],[76.02614,25.9142],[76.02652,25.91423],[76.02648,25.91326],[76.02703,25.91347],[76.0273,25.9134],[76.02629,25.91264],[76.02531,25.91281],[76.02577,25.9142],[76.02633,25.91487],[76.02619,25.91535]]]}},{"type":"Feature","bbox":[76.02508,25.91209,76.03002,25.91428],"properties":{"ward":12},"geometry":{"type":"Polygon","coordinates":[[[76.03002,25.91409],[76.0298,25.91359],[76.02988,25.91325],[76.02905,25.91271],[76.02833,25.91305],[76.02779,25.91311],[76.02726,25.91306],[76.02688,25.91227],[76.02617,25.91209],[76.02577,25.91212],[76.02508,25.91247],[76.02523,25.91279],[76.026,25.91263],[76.02658,25.91276],[76.02733,25.91339],[76.02731,25.91353],[76.028,25.91359],[76.02877,25.91344],[76.02894,25.91363],[76.0288,25.91428],[76.02971,25.91402],[76.03002,25.91409]]]}},{"type":"Feature","bbox":[76.02665,25.9134,76.02902,25.91555],"properties":{"ward":13},"geometry":{"type":"Polygon","coordinates":[[[76.02881,25.91431],[76.02891,25.91365],[76.02876,25.91346],[76.028,25.9136],[76.0273,25.91355],[76.02731,25.9134],[76.02701,25.91349],[76.02665,25.9154],[76.0268,25.91555],[76.02825,25.91539],[76.0281,25.91492],[76.02902,25.9149],[76.02881,25.91431]]]}},{"type":"Feature","bbox":[76.02617,25.91329,76.027,25.91535],"properties":{"ward":14},"geometry":{"type":"Polygon","coordinates":[[[76.02662,25.91535],[76.027,25.91348],[76.0265,25.91329],[76.02655,25.91424],[76.02617,25.91421],[76.02662,25.91535]]]}},{"type":"Feature","bbox":[76.02641,25.9154,76.02924,25.917],"properties":{"ward":15},"geometry":{"type":"Polygon","coordinates":[[[76.02663,25.9154],[76.02641,25.91576],[76.02677,25.91589],[76.02717,25.91684],[76.02741,25.917],[76.02896,25.91673],[76.02924,25.91684],[76.02875,25.91574],[76.02817,25.91594],[76.0278,25.91584],[76.02779,25.9155],[76.0268,25.91556],[76.02663,25.9154]]]}},{"type":"Feature","bbox":[76.02812,25.91404,76.03015,25.91567],"properties":{"ward":16},"geometry":{"type":"Polygon","coordinates":[[[76.02812,25.91493],[76.02828,25.91542],[76.02932,25.91541],[76.02957,25.91567],[76.03006,25.91557],[76.03015,25.91503],[76.03004,25.91411],[76.02968,25.91404],[76.02882,25.9143],[76.02902,25.91493],[76.02812,25.91493]]]}},{"type":"Feature","bbox":[76.02781,25.91509,76.03077,25.91684],"properties":{"ward":17},"geometry":{"type":"Polygon","coordinates":[[[76.02906,25.91657],[76.0293,25.91684],[76.03008,25.9166],[76.03077,25.91603],[76.03052,25.91509],[76.03019,25.91511],[76.03008,25.91559],[76.02888,25.9154],[76.02781,25.91549],[76.02781,25.91584],[76.02818,25.91593],[76.02875,25.91572],[76.02906,25.91657]]]}},{"type":"Feature","bbox":[76.0249,25.91496,76.03543,25.91885],"properties":{"ward":18},"geometry":{"type":"Polygon","coordinates":[[[76.02636,25.91741],[76.02663,25.91737],[76.02661,25.91881],[76.02811,25.91885],[76.02811,25.91763],[76.03014,25.91754],[76.03155,25.91654],[76.03305,25.91651],[76.03336,25.91739],[76.03479,25.91737],[76.03543,25.91615],[76.03442,25.91619],[76.03364,25.91563],[76.03258,25.91528],[76.03067,25.91496],[76.03054,25.91504],[76.03082,25.91602],[76.0301,25.91662],[76.02947,25.91684],[76.02896,25.91676],[76.02739,25.91702],[76.02714,25.91687],[76.02673,25.91591],[76.02638,25.91578],[76.0249,25.91621],[76.02515,25.91659],[76.02602,25.9163],[76.02623,25.91659],[76.02636,25.91741]]]}},{"type":"Feature","bbox":[76.02441,25.91624,76.02634,25.91773],"properties":{"ward":19},"geometry":{"type":"Polygon","coordinates":[[[76.02465,25.91734],[76.02469,25.91773],[76.02634,25.91744],[76.02621,25.91661],[76.026,25.91633],[76.02514,25.91661],[76.0249,25.91624],[76.02441,25.91654],[76.02466,25.91677],[76.02482,25.91727],[76.02465,25.91734]]]}},{"type":"Feature","bbox":[76.02335,25.91656,76.02479,25.91802],"properties":{"ward":20},"geometry":{"type":"Polygon","coordinates":[[[76.02335,25.91733],[76.0235,25.91802],[76.02467,25.91776],[76.02462,25.91733],[76.02479,25.91725],[76.02465,25.91677],[76.02439,25.91656],[76.02335,25.91733]]]}}]}