{"type":"FeatureCollection","features":[{"type":"Feature","bbox":[73.7962,27.05119,73.8233,27.09667],"properties":{"ward":1,"name":"Station Khajwana Road Sankhwas Phatak Area"},"geometry":{"type":"Polygon","coordinates":[[[73.82154,27.07617],[73.82303,27.0692],[73.82024,27.06747],[73.81998,27.0679],[73.81864,27.06769],[73.81941,27.06693],[73.81823,27.06601],[73.81685,27.06449],[73.81784,27.06241],[73.82002,27.06046],[73.81952,27.05665],[73.81988,27.05541],[73.81512,27.05361],[73.81435,27.05463],[73.81082,27.05222],[73.80973,27.05119],[73.80898,27.05861],[73.80704,27.06287],[73.80593,27.06777],[73.80314,27.07119],[73.80072,27.07487],[73.79944,27.07562],[73.7978,27.07714],[73.7962,27.08058],[73.79735,27.08507],[73.79929,27.08837],[73.80807,27.09416],[73.81298,27.09667],[73.81942,27.09653],[73.82264,27.09595],[73.82318,27.09417],[73.8233,27.09309],[73.82167,27.08731],[73.82154,27.07617]]]}},{"type":"Feature","bbox":[73.81685,27.06412,73.82159,27.06694],"properties":{"ward":2,"name":"Nagar Palika Hanuman Chowk Area"},"geometry":{"type":"Polygon","coordinates":[[[73.81686,27.06432],[73.81685,27.06449],[73.81823,27.06601],[73.81942,27.06694],[73.81964,27.0665],[73.81991,27.06657],[73.82009,27.06641],[73.82024,27.0658],[73.82083,27.06506],[73.82115,27.06515],[73.82142,27.06503],[73.82159,27.06414],[73.82124,27.06412],[73.82102,27.06431],[73.82007,27.06446],[73.81922,27.06482],[73.81686,27.06432]]]}},{"type":"Feature","bbox":[73.81686,27.06116,73.82202,27.06478],"properties":{"ward":3,"name":"Post Office Pipali Chowk Area"},"geometry":{"type":"Polygon","coordinates":[[[73.81686,27.06431],[73.81941,27.06478],[73.82007,27.06446],[73.82159,27.06414],[73.82173,27.06358],[73.82202,27.06322],[73.82021,27.06302],[73.8202,27.06116],[73.81911,27.0612],[73.81784,27.06241],[73.81686,27.06431]]]}},{"type":"Feature","bbox":[73.8202,27.06115,73.8228,27.06317],"properties":{"ward":4,"name":"Darji And Nai Mohalla"},"geometry":{"type":"Polygon","coordinates":[[[73.8202,27.06116],[73.82021,27.06301],[73.82173,27.06317],[73.82165,27.06263],[73.82193,27.06205],[73.82232,27.06224],[73.82246,27.0621],[73.82278,27.06219],[73.8228,27.06178],[73.82249,27.06129],[73.82154,27.06135],[73.82097,27.06115],[73.8202,27.06116]]]}},{"type":"Feature","bbox":[73.81911,27.05576,73.82262,27.06135],"properties":{"ward":5,"name":"Ramsneni Ramdwara Hospital Area"},"geometry":{"type":"Polygon","coordinates":[[[73.82002,27.06046],[73.81911,27.0612],[73.8202,27.06108],[73.82154,27.06135],[73.82249,27.06129],[73.82177,27.05893],[73.82184,27.05853],[73.82226,27.05826],[73.82188,27.05803],[73.82215,27.05759],[73.82257,27.05785],[73.82262,27.05775],[73.82237,27.05713],[73.82257,27.05679],[73.82165,27.05576],[73.82032,27.05585],[73.82003,27.05609],[73.81989,27.05665],[73.81952,27.05666],[73.81969,27.05857],[73.82002,27.0602],[73.82002,27.06046]]]}},{"type":"Feature","bbox":[73.82189,27.05956,73.82353,27.06223],"properties":{"ward":6,"name":"Kanheya Paliwal Chosla Chowk Area"},"geometry":{"type":"Polygon","coordinates":[[[73.82278,27.06219],[73.82324,27.06223],[73.82353,27.06097],[73.8233,27.0596],[73.82189,27.05956],[73.82227,27.0609],[73.8228,27.06179],[73.82278,27.06219]]]}},{"type":"Feature","bbox":[73.82165,27.06205,73.8233,27.06384],"properties":{"ward":7,"name":"Hanuman Guru Giriraj Pan Ki Dukan Area"},"geometry":{"type":"Polygon","coordinates":[[[73.82318,27.06233],[73.82245,27.06211],[73.82232,27.06224],[73.82193,27.06205],[73.82165,27.06263],[73.82173,27.06316],[73.82202,27.06322],[73.82166,27.06384],[73.82254,27.0633],[73.82318,27.06316],[73.8233,27.06273],[73.82318,27.06233]]]}},{"type":"Feature","bbox":[73.82164,27.06317,73.82367,27.06501],"properties":{"ward":8,"name":"Charbhuja Mandirsharda Bal School Area"},"geometry":{"type":"Polygon","coordinates":[[[73.82256,27.0633],[73.82164,27.06399],[73.82194,27.06416],[73.82199,27.06501],[73.82313,27.0648],[73.82315,27.06457],[73.82367,27.06463],[73.8235,27.06332],[73.82318,27.06317],[73.82256,27.0633]]]}},{"type":"Feature","bbox":[73.82296,27.06276,73.82426,27.06664],"properties":{"ward":9,"name":"Khejra Masjid Pirji Area"},"geometry":{"type":"Polygon","coordinates":[[[73.82319,27.06317],[73.82356,27.06351],[73.82368,27.06463],[73.82315,27.06458],[73.82296,27.06664],[73.82409,27.06639],[73.82412,27.0655],[73.82426,27.06525],[73.82411,27.06353],[73.82381,27.06286],[73.82329,27.06276],[73.82319,27.06317]]]}},{"type":"Feature","bbox":[73.82381,27.06221,73.82555,27.06527],"properties":{"ward":10,"name":"Ismail Luhar Sarda Bhawan Area"},"geometry":{"type":"Polygon","coordinates":[[[73.82411,27.06354],[73.82426,27.06525],[73.82445,27.06527],[73.82512,27.06521],[73.82517,27.06485],[73.82487,27.06485],[73.82477,27.06353],[73.825,27.06353],[73.82504,27.06321],[73.82555,27.06308],[73.82514,27.06221],[73.82427,27.0625],[73.82381,27.06286],[73.82411,27.06354]]]}},{"type":"Feature","bbox":[73.82318,27.06051,73.82556,27.06285],"properties":{"ward":11,"name":"Market Area"},"geometry":{"type":"Polygon","coordinates":[[[73.8233,27.06273],[73.82385,27.06285],[73.82427,27.0625],[73.82514,27.06221],[73.8251,27.06198],[73.82555,27.062],[73.82556,27.06079],[73.82528,27.06051],[73.82506,27.0608],[73.82497,27.06126],[73.82478,27.06129],[73.82488,27.06185],[73.82335,27.0615],[73.82318,27.06233],[73.8233,27.06273]]]}},{"type":"Feature","bbox":[73.82331,27.05958,73.82523,27.06185],"properties":{"ward":12,"name":"Meghawal Basti"},"geometry":{"type":"Polygon","coordinates":[[[73.82354,27.06088],[73.82335,27.0615],[73.82488,27.06185],[73.82478,27.06129],[73.82497,27.06126],[73.82523,27.06058],[73.82487,27.06057],[73.82452,27.06084],[73.82409,27.06057],[73.82372,27.05958],[73.82331,27.0596],[73.82354,27.06088]]]}},{"type":"Feature","bbox":[73.81952,27.05275,73.8293,27.05993],"properties":{"ward":13,"name":"Pathar Chowk Lakholav Nayak Basti Area"},"geometry":{"type":"Polygon","coordinates":[[[73.82345,27.05958],[73.82457,27.05934],[73.8257,27.05993],[73.82853,27.05949],[73.82861,27.05792],[73.8285,27.05701],[73.82813,27.05607],[73.8293,27.05303],[73.82212,27.05275],[73.82145,27.0529],[73.82127,27.05324],[73.8208,27.05322],[73.81952,27.05666],[73.81989,27.05665],[73.82003,27.05609],[73.82032,27.05585],[73.82165,27.05576],[73.82254,27.05668],[73.82258,27.05688],[73.82237,27.05713],[73.82265,27.05768],[73.82257,27.05785],[73.82215,27.05759],[73.82188,27.05803],[73.82226,27.05826],[73.82181,27.0586],[73.82189,27.05956],[73.82345,27.05958]]]}},{"type":"Feature","bbox":[73.80973,27.02119,73.82894,27.05541],"properties":{"ward":14,"name":"Tehsil Office Prabhuji Dhani Area"},"geometry":{"type":"Polygon","coordinates":[[[73.81066,27.04205],[73.80973,27.05119],[73.81082,27.05222],[73.81435,27.05462],[73.81512,27.05361],[73.81988,27.05541],[73.8208,27.05322],[73.82127,27.05324],[73.82145,27.0529],[73.82211,27.05275],[73.82572,27.05288],[73.82653,27.04684],[73.82639,27.04431],[73.82652,27.04188],[73.82679,27.04043],[73.82726,27.03913],[73.82719,27.03843],[73.82741,27.0368],[73.8273,27.03675],[73.82768,27.03563],[73.82746,27.03551],[73.82749,27.03498],[73.82791,27.03323],[73.82718,27.03293],[73.82781,27.03143],[73.82894,27.0278],[73.8223,27.02506],[73.81807,27.0228],[73.8135,27.02119],[73.81349,27.02279],[73.813,27.02416],[73.81247,27.02766],[73.81236,27.03295],[73.81155,27.03903],[73.81066,27.04205]]]}},{"type":"Feature","bbox":[73.82573,27.0278,73.85221,27.05949],"properties":{"ward":15,"name":"Paldi Jodha Road Kamnda Dhani Area"},"geometry":{"type":"Polygon","coordinates":[[[73.83254,27.02995],[73.82894,27.0278],[73.82782,27.03142],[73.82718,27.03293],[73.82791,27.03323],[73.8275,27.03498],[73.82747,27.03551],[73.82768,27.03563],[73.8273,27.03675],[73.82741,27.0368],[73.82719,27.03844],[73.82727,27.03913],[73.82679,27.04043],[73.82652,27.04189],[73.82639,27.04425],[73.82652,27.04685],[73.82573,27.05288],[73.8293,27.05303],[73.82813,27.05608],[73.8285,27.05699],[73.82862,27.05792],[73.82853,27.05949],[73.83354,27.05913],[73.84169,27.05806],[73.84924,27.05665],[73.85185,27.05575],[73.85175,27.05457],[73.85112,27.05397],[73.85183,27.05001],[73.85221,27.04683],[73.85201,27.0395],[73.85139,27.03653],[73.84898,27.0357],[73.84686,27.03528],[73.84515,27.03448],[73.84258,27.03415],[73.84081,27.03358],[73.83916,27.03271],[73.83734,27.03139],[73.83254,27.02995]]]}},{"type":"Feature","bbox":[73.82377,27.05934,73.82893,27.06315],"properties":{"ward":16,"name":"Gausala Harijan Basti Kuchera Road Area"},"geometry":{"type":"Polygon","coordinates":[[[73.82377,27.05956],[73.82409,27.06057],[73.82452,27.06084],[73.82475,27.06062],[73.82528,27.06051],[73.82556,27.06079],[73.82555,27.062],[73.82504,27.06201],[73.82555,27.06308],[73.82662,27.06315],[73.82776,27.06296],[73.82788,27.06215],[73.82812,27.06172],[73.82853,27.06141],[73.82863,27.06015],[73.82893,27.06017],[73.82892,27.05946],[73.8257,27.05993],[73.82457,27.05934],[73.82377,27.05956]]]}},{"type":"Feature","bbox":[73.82776,27.05831,73.83999,27.06513],"properties":{"ward":17,"name":"Chokidar Basti"},"geometry":{"type":"Polygon","coordinates":[[[73.828,27.06191],[73.82776,27.06296],[73.82827,27.06284],[73.82855,27.06346],[73.82946,27.06393],[73.83309,27.0637],[73.83549,27.06422],[73.83778,27.06513],[73.83958,27.06149],[73.83999,27.0593],[73.83994,27.05831],[73.83378,27.0591],[73.82892,27.05946],[73.82893,27.06017],[73.82863,27.06015],[73.82853,27.06141],[73.828,27.06191]]]}},{"type":"Feature","bbox":[73.82551,27.05623,73.85052,27.07436],"properties":{"ward":18,"name":"Pokandi Chowk Dakota Ka Bas Area"},"geometry":{"type":"Polygon","coordinates":[[[73.82597,27.06393],[73.82551,27.06553],[73.82633,27.06549],[73.82646,27.06605],[73.82689,27.06592],[73.82746,27.06713],[73.82822,27.06767],[73.82869,27.06829],[73.82956,27.07057],[73.83077,27.07175],[73.83184,27.0724],[73.83223,27.07298],[73.834,27.07283],[73.83465,27.07255],[73.83621,27.07138],[73.83765,27.07174],[73.83942,27.07257],[73.8434,27.07405],[73.84545,27.07434],[73.84796,27.07436],[73.84801,27.07271],[73.84858,27.06871],[73.85052,27.05623],[73.84918,27.05666],[73.84548,27.0574],[73.83994,27.05831],[73.83999,27.0593],[73.83958,27.06149],[73.83778,27.06513],[73.83548,27.06422],[73.83308,27.0637],[73.82946,27.06393],[73.82854,27.06346],[73.82827,27.06284],[73.82673,27.06314],[73.82579,27.06314],[73.82596,27.06341],[73.82597,27.06393]]]}},{"type":"Feature","bbox":[73.82477,27.06309,73.82597,27.06581],"properties":{"ward":19,"name":"Kmharo Ki Gali Pokandi Area"},"geometry":{"type":"Polygon","coordinates":[[[73.82517,27.06485],[73.82528,27.06581],[73.82551,27.06553],[73.82597,27.06393],[73.82596,27.0634],[73.8257,27.06309],[73.82504,27.06321],[73.825,27.06353],[73.82477,27.06353],[73.82487,27.06485],[73.82517,27.06485]]]}},{"type":"Feature","bbox":[73.82411,27.06521,73.82587,27.06657],"properties":{"ward":20,"name":"Animal Hospital"},"geometry":{"type":"Polygon","coordinates":[[[73.82411,27.0663],[73.82469,27.06657],[73.82587,27.06634],[73.82537,27.06573],[73.82523,27.06582],[73.82512,27.06521],[73.82416,27.06525],[73.82411,27.0663]]]}},{"type":"Feature","bbox":[73.82154,27.06549,73.84796,27.09596],"properties":{"ward":21,"name":"Panjabi Baba Chowk Nagaur Road Area"},"geometry":{"type":"Polygon","coordinates":[[[73.8247,27.06657],[73.82397,27.06649],[73.82386,27.06714],[73.82305,27.0685],[73.82303,27.0692],[73.82154,27.07618],[73.82167,27.08731],[73.82331,27.09309],[73.82318,27.09417],[73.82264,27.09596],[73.82483,27.0956],[73.82779,27.09455],[73.83227,27.09339],[73.84377,27.08875],[73.84531,27.08481],[73.84759,27.07682],[73.84796,27.07436],[73.84546,27.07434],[73.84341,27.07405],[73.83967,27.07268],[73.83764,27.07174],[73.83621,27.07138],[73.83465,27.07255],[73.834,27.07283],[73.83223,27.07299],[73.83184,27.0724],[73.83077,27.07176],[73.82956,27.07057],[73.82869,27.06829],[73.82823,27.06768],[73.82746,27.06713],[73.82689,27.06592],[73.82646,27.06605],[73.82633,27.06549],[73.82552,27.06554],[73.82537,27.06574],[73.82587,27.06634],[73.8247,27.06657]]]}},{"type":"Feature","bbox":[73.82285,27.06649,73.82397,27.0685],"properties":{"ward":22,"name":"Glr Bhanwru Ji Dukan Area"},"geometry":{"type":"Polygon","coordinates":[[[73.82302,27.06664],[73.82285,27.06771],[73.82305,27.0685],[73.82385,27.06713],[73.82397,27.06649],[73.82302,27.06664]]]}},{"type":"Feature","bbox":[73.82073,27.0648,73.82313,27.0692],"properties":{"ward":23,"name":"Banya Ji Thhan Panchda Ki Gali"},"geometry":{"type":"Polygon","coordinates":[[[73.82313,27.0648],[73.82199,27.06501],[73.82196,27.06529],[73.82145,27.06522],[73.82138,27.0657],[73.82189,27.06577],[73.82175,27.06683],[73.82107,27.06675],[73.82073,27.06777],[73.82303,27.0692],[73.82285,27.06751],[73.82313,27.0648]]]}},{"type":"Feature","bbox":[73.81993,27.06399,73.82195,27.06682],"properties":{"ward":24,"name":"Nagauri Falsa Dhobiyo Ki Gali Area"},"geometry":{"type":"Polygon","coordinates":[[[73.81993,27.06655],[73.82175,27.06682],[73.82189,27.06577],[73.82138,27.0657],[73.82145,27.06522],[73.82195,27.06529],[73.82193,27.06413],[73.82164,27.06399],[73.82143,27.06503],[73.82115,27.06515],[73.82083,27.06506],[73.82024,27.0658],[73.82017,27.0663],[73.81993,27.06655]]]}},{"type":"Feature","bbox":[73.81865,27.0665,73.82106,27.0679],"properties":{"ward":25,"name":"Kasai Gali Area"},"geometry":{"type":"Polygon","coordinates":[[[73.81941,27.06693],[73.81865,27.06769],[73.81998,27.0679],[73.82025,27.06747],[73.82073,27.06777],[73.82106,27.06675],[73.81964,27.0665],[73.81941,27.06693]]]}}]}