{"type":"FeatureCollection","features":[{"type":"Feature","bbox":[73.9517,26.99067,73.9802,27.00767],"properties":{"ward":1,"name":"Near Nibla Talab"},"geometry":{"type":"Polygon","coordinates":[[[73.9517,27.00282],[73.95254,27.00399],[73.95255,27.00467],[73.95697,27.00767],[73.96041,27.00311],[73.96495,27.00451],[73.96567,27.00235],[73.96994,27.00314],[73.97391,27.0031],[73.9751,27.00325],[73.97904,27.0019],[73.97917,27.00144],[73.9802,27.00138],[73.97656,26.99621],[73.97447,26.99382],[73.9736,26.99345],[73.97325,26.99067],[73.97098,26.99164],[73.97047,26.99172],[73.96943,26.99162],[73.96852,26.99113],[73.96835,26.99134],[73.96785,26.99132],[73.96696,26.99159],[73.96528,26.99241],[73.96401,26.99259],[73.9588,26.99659],[73.95578,26.99958],[73.9517,27.00282]]]}},{"type":"Feature","bbox":[73.94807,26.98487,73.96864,27.00281],"properties":{"ward":2,"name":"Bavariyo Ka Mohalla"},"geometry":{"type":"Polygon","coordinates":[[[73.96835,26.99134],[73.96864,26.99082],[73.96855,26.98957],[73.96702,26.98624],[73.96461,26.98658],[73.96362,26.98693],[73.96268,26.98664],[73.96112,26.98569],[73.95951,26.98518],[73.9526,26.98487],[73.95068,26.98492],[73.9485,26.98533],[73.94951,26.99066],[73.94807,26.99219],[73.9494,26.99594],[73.95007,27.00053],[73.9517,27.00281],[73.95567,26.99965],[73.95882,26.99657],[73.96391,26.99266],[73.96423,26.99248],[73.96535,26.99239],[73.96697,26.99159],[73.96785,26.99132],[73.96835,26.99134]]]}},{"type":"Feature","bbox":[73.94735,26.97522,73.96732,26.98692],"properties":{"ward":3,"name":"Kayamkhani Mohalla"},"geometry":{"type":"Polygon","coordinates":[[[73.96463,26.98658],[73.96702,26.98624],[73.96679,26.98523],[73.96728,26.984],[73.96732,26.98347],[73.96565,26.9815],[73.96311,26.98112],[73.96221,26.98083],[73.9474,26.97522],[73.94735,26.97535],[73.9487,26.97612],[73.94746,26.97932],[73.94742,26.98091],[73.94839,26.98217],[73.94851,26.98533],[73.95073,26.98491],[73.95262,26.98487],[73.95951,26.98517],[73.96114,26.98569],[73.96272,26.98665],[73.96362,26.98692],[73.96463,26.98658]]]}},{"type":"Feature","bbox":[73.94741,26.96529,73.96751,26.9815],"properties":{"ward":4,"name":"Near Khel Medan"},"geometry":{"type":"Polygon","coordinates":[[[73.96311,26.98111],[73.96564,26.9815],[73.96579,26.9811],[73.96751,26.97876],[73.96507,26.97485],[73.96439,26.97403],[73.96074,26.97092],[73.95887,26.96833],[73.95794,26.96665],[73.95755,26.96685],[73.95535,26.96529],[73.95458,26.96549],[73.95251,26.96778],[73.95188,26.96749],[73.9502,26.96848],[73.94741,26.97522],[73.96208,26.98076],[73.96311,26.98111]]]}},{"type":"Feature","bbox":[73.95795,26.96393,73.97046,26.97876],"properties":{"ward":5,"name":"Shiv Mandir"},"geometry":{"type":"Polygon","coordinates":[[[73.96507,26.97483],[73.96751,26.97876],[73.97028,26.97481],[73.97046,26.96959],[73.96991,26.96737],[73.9698,26.96467],[73.96962,26.96393],[73.96685,26.96422],[73.9628,26.965],[73.9625,26.9654],[73.95795,26.96666],[73.9597,26.96957],[73.96075,26.97093],[73.96422,26.97388],[73.96507,26.97483]]]}},{"type":"Feature","bbox":[73.96962,26.96198,73.97694,26.97543],"properties":{"ward":6,"name":"Hemanda Nada"},"geometry":{"type":"Polygon","coordinates":[[[73.97047,26.9696],[73.97028,26.97481],[73.97107,26.97374],[73.97264,26.97543],[73.97323,26.97457],[73.97417,26.97282],[73.97463,26.97139],[73.9756,26.96754],[73.97605,26.96406],[73.97694,26.96288],[73.97445,26.96198],[73.97399,26.96441],[73.96962,26.96393],[73.96981,26.96466],[73.96987,26.96708],[73.97047,26.9696]]]}},{"type":"Feature","bbox":[73.96751,26.97374,73.97389,26.98028],"properties":{"ward":7,"name":"Bhatipura Masjid Area"},"geometry":{"type":"Polygon","coordinates":[[[73.97107,26.97374],[73.96751,26.97876],[73.96786,26.97895],[73.97005,26.97892],[73.96997,26.97937],[73.97148,26.97974],[73.97261,26.98028],[73.97345,26.97991],[73.97385,26.97997],[73.97389,26.9772],[73.97291,26.97575],[73.97107,26.97374]]]}},{"type":"Feature","bbox":[73.96786,26.97892,73.97186,26.98139],"properties":{"ward":8,"name":"Bhatipura"},"geometry":{"type":"Polygon","coordinates":[[[73.97005,26.97892],[73.96786,26.97895],[73.9686,26.98056],[73.96852,26.98139],[73.96908,26.98112],[73.96953,26.98062],[73.97058,26.98068],[73.97186,26.97992],[73.96997,26.97937],[73.97005,26.97892]]]}},{"type":"Feature","bbox":[73.96565,26.97876,73.96965,26.98577],"properties":{"ward":9,"name":"Govt Sr Sec School"},"geometry":{"type":"Polygon","coordinates":[[[73.96732,26.98347],[73.96687,26.98505],[73.96736,26.98519],[73.96768,26.98561],[73.96893,26.98577],[73.96965,26.98568],[73.96881,26.98479],[73.96914,26.98313],[73.96859,26.98232],[73.9686,26.98057],[73.96786,26.97895],[73.96751,26.97876],[73.9658,26.98109],[73.96565,26.9815],[73.96732,26.98347]]]}},{"type":"Feature","bbox":[73.96681,26.98505,73.97023,26.98838],"properties":{"ward":10,"name":"Laxminarayan Mandir"},"geometry":{"type":"Polygon","coordinates":[[[73.96687,26.98505],[73.96681,26.98568],[73.968,26.98838],[73.9681,26.98723],[73.96888,26.98731],[73.96903,26.98798],[73.96989,26.98832],[73.97023,26.98726],[73.9699,26.98597],[73.96965,26.98568],[73.96893,26.98576],[73.96768,26.98561],[73.96736,26.98519],[73.96687,26.98505]]]}},{"type":"Feature","bbox":[73.968,26.98723,73.97081,26.99164],"properties":{"ward":11,"name":"Bheruji Ka Bas"},"geometry":{"type":"Polygon","coordinates":[[[73.97023,26.98726],[73.96989,26.98832],[73.96903,26.98798],[73.96888,26.98731],[73.9681,26.98723],[73.968,26.98838],[73.96856,26.98958],[73.96866,26.99065],[73.96853,26.99113],[73.96954,26.99164],[73.96953,26.98987],[73.96993,26.98927],[73.97006,26.98838],[73.97024,26.98823],[73.97059,26.98828],[73.97081,26.98776],[73.97081,26.98755],[73.97023,26.98726]]]}},{"type":"Feature","bbox":[73.96953,26.98713,73.97237,26.99172],"properties":{"ward":12,"name":"Jato Ki Mandi"},"geometry":{"type":"Polygon","coordinates":[[[73.97021,26.98713],[73.97042,26.98743],[73.97081,26.98755],[73.97081,26.98777],[73.97059,26.98829],[73.97024,26.98823],[73.97006,26.9884],[73.96993,26.98927],[73.96953,26.98988],[73.96955,26.99164],[73.97047,26.99172],[73.97099,26.99163],[73.97237,26.991],[73.9723,26.99044],[73.97193,26.98975],[73.97152,26.98916],[73.97131,26.98914],[73.97223,26.98857],[73.9719,26.98765],[73.97118,26.98727],[73.97021,26.98713]]]}},{"type":"Feature","bbox":[73.96998,26.98609,73.97198,26.98766],"properties":{"ward":13,"name":"Asthal Chowk"},"geometry":{"type":"Polygon","coordinates":[[[73.97158,26.98626],[73.97112,26.98609],[73.96998,26.98622],[73.97021,26.98713],[73.97116,26.98726],[73.97191,26.98766],[73.97198,26.98733],[73.97158,26.98626]]]}},{"type":"Feature","bbox":[73.97155,26.98518,73.97312,26.98878],"properties":{"ward":14,"name":"Meghwal Mohalla"},"geometry":{"type":"Polygon","coordinates":[[[73.97221,26.9885],[73.97283,26.98878],[73.97312,26.98823],[73.97312,26.98769],[73.9729,26.98685],[73.97244,26.98599],[73.97237,26.98523],[73.97204,26.98518],[73.97187,26.98575],[73.97155,26.98615],[73.97185,26.9868],[73.97191,26.98766],[73.97221,26.9885]]]}},{"type":"Feature","bbox":[73.96852,26.97991,73.97385,26.98622],"properties":{"ward":15,"name":"Ganesh Mandir"},"geometry":{"type":"Polygon","coordinates":[[[73.96998,26.98622],[73.97155,26.98615],[73.97193,26.9856],[73.97202,26.98459],[73.97246,26.98291],[73.97385,26.97997],[73.97345,26.97991],[73.97261,26.98028],[73.97186,26.97992],[73.97058,26.98069],[73.96953,26.98063],[73.96908,26.98113],[73.96852,26.98139],[73.96867,26.98256],[73.96913,26.98303],[73.96882,26.98478],[73.96998,26.98622]]]}},{"type":"Feature","bbox":[73.97203,26.98004,73.97494,26.98524],"properties":{"ward":16,"name":"Sabji Mandi"},"geometry":{"type":"Polygon","coordinates":[[[73.97205,26.9851],[73.97237,26.98524],[73.97419,26.98493],[73.97427,26.9827],[73.97494,26.98056],[73.9739,26.98004],[73.97246,26.9829],[73.97203,26.98459],[73.97205,26.9851]]]}},{"type":"Feature","bbox":[73.97419,26.98056,73.97697,26.98493],"properties":{"ward":17,"name":"Harijan Basti"},"geometry":{"type":"Polygon","coordinates":[[[73.97427,26.9827],[73.97419,26.98493],[73.97559,26.98478],[73.97664,26.98386],[73.97697,26.98269],[73.97696,26.98146],[73.97568,26.98113],[73.97494,26.98056],[73.97427,26.9827]]]}},{"type":"Feature","bbox":[73.97265,26.96288,73.98658,26.98139],"properties":{"ward":18,"name":"Nath Ji Ka Dhuna"},"geometry":{"type":"Polygon","coordinates":[[[73.97386,26.97983],[73.974,26.98011],[73.97499,26.98058],[73.97549,26.98103],[73.97675,26.98139],[73.97699,26.97924],[73.97739,26.97768],[73.98174,26.97271],[73.98355,26.97012],[73.98479,26.96893],[73.98481,26.96833],[73.98658,26.96696],[73.98347,26.96524],[73.98155,26.9639],[73.9803,26.9636],[73.97857,26.96347],[73.97695,26.96288],[73.97602,26.96417],[73.97559,26.96763],[73.97418,26.97282],[73.97265,26.97544],[73.97389,26.9772],[73.97386,26.97983]]]}},{"type":"Feature","bbox":[73.97675,26.96893,73.99399,26.98149],"properties":{"ward":19,"name":"Indira Colony"},"geometry":{"type":"Polygon","coordinates":[[[73.97698,26.97935],[73.97675,26.98139],[73.97744,26.98149],[73.97899,26.98146],[73.97963,26.9813],[73.98101,26.9805],[73.98283,26.97983],[73.99008,26.97565],[73.99375,26.97422],[73.99399,26.97354],[73.99348,26.97212],[73.99283,26.97168],[73.99018,26.97142],[73.98479,26.96893],[73.98356,26.97011],[73.98157,26.97293],[73.97747,26.97758],[73.97698,26.97935]]]}},{"type":"Feature","bbox":[73.97559,26.97422,73.99405,26.98728],"properties":{"ward":20,"name":"Bharmadi Bhadala"},"geometry":{"type":"Polygon","coordinates":[[[73.97682,26.98356],[73.97559,26.98478],[73.97724,26.98499],[73.97871,26.98591],[73.98016,26.98636],[73.9882,26.98667],[73.99147,26.98728],[73.99154,26.98092],[73.99244,26.97983],[73.99241,26.97903],[73.99283,26.97829],[73.99366,26.97805],[73.99405,26.9772],[73.99375,26.97422],[73.99008,26.97565],[73.98288,26.9798],[73.98101,26.98051],[73.97964,26.98129],[73.97907,26.98145],[73.97696,26.98146],[73.97682,26.98356]]]}},{"type":"Feature","bbox":[73.97322,26.98479,73.9804,26.98799],"properties":{"ward":21,"name":"Shani Mandir"},"geometry":{"type":"Polygon","coordinates":[[[73.97328,26.98748],[73.9745,26.98771],[73.98015,26.98799],[73.98035,26.98752],[73.9804,26.9864],[73.97871,26.98591],[73.97703,26.98492],[73.97552,26.98479],[73.97446,26.98613],[73.9737,26.9866],[73.97322,26.98725],[73.97328,26.98748]]]}},{"type":"Feature","bbox":[73.97237,26.9848,73.97546,26.98784],"properties":{"ward":22,"name":"Chhimpa Masjid"},"geometry":{"type":"Polygon","coordinates":[[[73.9729,26.98684],[73.97315,26.98784],[73.97328,26.98758],[73.97322,26.98725],[73.9737,26.9866],[73.97446,26.98612],[73.97546,26.9848],[73.97237,26.98524],[73.97244,26.98599],[73.9729,26.98684]]]}},{"type":"Feature","bbox":[73.97283,26.98756,73.98015,26.98976],"properties":{"ward":23,"name":"Holi Neem"},"geometry":{"type":"Polygon","coordinates":[[[73.97328,26.98756],[73.97283,26.9887],[73.97523,26.98976],[73.97778,26.98923],[73.97982,26.98924],[73.98015,26.98799],[73.97328,26.98756]]]}},{"type":"Feature","bbox":[73.97982,26.9864,73.99543,26.99142],"properties":{"ward":24,"name":"Lunsara Road"},"geometry":{"type":"Polygon","coordinates":[[[73.9816,26.98936],[73.99408,26.99141],[73.99494,26.99142],[73.99529,26.98979],[73.99543,26.98776],[73.99427,26.98768],[73.99284,26.98731],[73.99091,26.98724],[73.98993,26.98692],[73.98821,26.98667],[73.9804,26.9864],[73.98032,26.98769],[73.97999,26.98824],[73.97982,26.98924],[73.9816,26.98936]]]}},{"type":"Feature","bbox":[73.97132,26.98855,73.98975,27.00258],"properties":{"ward":25,"name":"Mirdha Bas"},"geometry":{"type":"Polygon","coordinates":[[[73.97283,26.9887],[73.97226,26.98855],[73.97132,26.98914],[73.97152,26.98916],[73.97193,26.98976],[73.97231,26.99044],[73.97237,26.99105],[73.97326,26.99067],[73.9736,26.99345],[73.97448,26.99383],[73.97677,26.99647],[73.98076,27.00235],[73.98146,27.00258],[73.98264,27.0014],[73.98458,27.0006],[73.98832,27.00069],[73.98975,26.99975],[73.98582,26.99575],[73.9838,26.9939],[73.98308,26.99343],[73.98022,26.99183],[73.97645,26.99046],[73.97283,26.9887]]]}}]}