{"type":"FeatureCollection","features":[{"type":"Feature","bbox":[75.71195,27.17504,75.72035,27.18508],"properties":{"ward":1,"name":"Bagrio Ki Dani, Chandji Wali Dani, Tabro Ki Dani,"},"geometry":{"type":"Polygon","coordinates":[[[75.71764,27.18356],[75.71768,27.18187],[75.71836,27.17987],[75.71944,27.17729],[75.72035,27.1758],[75.7196,27.17573],[75.71823,27.17601],[75.71754,27.17504],[75.71518,27.17656],[75.71404,27.17708],[75.71195,27.17869],[75.71358,27.18392],[75.71555,27.18351],[75.71568,27.18508],[75.71623,27.18501],[75.71648,27.18433],[75.71698,27.18367],[75.71764,27.18356]]]}},{"type":"Feature","bbox":[75.70071,27.17869,75.71563,27.18902],"properties":{"ward":2,"name":"Rupa Malan Ki Dani, Kumawato Ki Dani, Panchaya Ki"},"geometry":{"type":"Polygon","coordinates":[[[75.71563,27.18442],[75.71555,27.18351],[75.71358,27.18392],[75.71195,27.17869],[75.7107,27.1791],[75.70814,27.18096],[75.70434,27.18091],[75.7038,27.18112],[75.70221,27.18111],[75.70071,27.18053],[75.70144,27.18205],[75.70388,27.18606],[75.70408,27.18902],[75.70814,27.18867],[75.70816,27.1878],[75.71089,27.18717],[75.71106,27.1859],[75.71098,27.18508],[75.71123,27.1849],[75.71305,27.18459],[75.71563,27.18442]]]}},{"type":"Feature","bbox":[75.69615,27.16809,75.71393,27.18112],"properties":{"ward":3,"name":"Bohara Wali Dani, Ahiro Ki Dani, Labo Ki Dani"},"geometry":{"type":"Polygon","coordinates":[[[75.71119,27.17894],[75.71091,27.17824],[75.71147,27.17807],[75.71081,27.17552],[75.71393,27.17438],[75.71281,27.17126],[75.70943,27.17208],[75.70901,27.17038],[75.70972,27.17001],[75.70953,27.16917],[75.70987,27.16914],[75.70989,27.16809],[75.70883,27.16838],[75.70531,27.1687],[75.70347,27.16942],[75.70022,27.17186],[75.69615,27.17396],[75.69734,27.17419],[75.70071,27.18053],[75.70221,27.18111],[75.7038,27.18112],[75.70434,27.18091],[75.70814,27.18096],[75.7107,27.1791],[75.71119,27.17894]]]}},{"type":"Feature","bbox":[75.6923,27.16659,75.70047,27.17436],"properties":{"ward":4,"name":"Labo Ki Dani, Kalaliyo Ki Dani, Maliyo Ki Dani"},"geometry":{"type":"Polygon","coordinates":[[[75.69917,27.17241],[75.70047,27.16699],[75.6993,27.16659],[75.69908,27.16882],[75.69768,27.16908],[75.69738,27.16706],[75.69288,27.16803],[75.6923,27.17331],[75.69255,27.17436],[75.69552,27.17384],[75.69615,27.17396],[75.69917,27.17241]]]}},{"type":"Feature","bbox":[75.69288,27.16165,75.70156,27.16908],"properties":{"ward":5,"name":"Brightmoon School Shyam Nagar Mirchi Wali Dani"},"geometry":{"type":"Polygon","coordinates":[[[75.70047,27.16699],[75.70156,27.16165],[75.69888,27.16201],[75.6989,27.16344],[75.698,27.16387],[75.69638,27.16396],[75.69579,27.16452],[75.69505,27.16459],[75.69485,27.16224],[75.69338,27.16243],[75.69321,27.16265],[75.69288,27.16803],[75.69738,27.16706],[75.69768,27.16908],[75.69908,27.16882],[75.6993,27.16659],[75.70047,27.16699]]]}},{"type":"Feature","bbox":[75.69334,27.15845,75.70175,27.16459],"properties":{"ward":6,"name":"Ravan Gate, Ragunathdasji Ki Bagichi"},"geometry":{"type":"Polygon","coordinates":[[[75.70156,27.16165],[75.70175,27.16071],[75.69586,27.1597],[75.69593,27.15937],[75.69523,27.15882],[75.69334,27.15845],[75.69338,27.16243],[75.69485,27.16224],[75.69505,27.16459],[75.69579,27.16452],[75.69638,27.16396],[75.698,27.16387],[75.6989,27.16344],[75.69888,27.16201],[75.70156,27.16165]]]}},{"type":"Feature","bbox":[75.69301,27.14994,75.70358,27.16071],"properties":{"ward":7,"name":"Nayko Ka Mohlla, Harijan Mohlla, Dulasingh Ki Dani"},"geometry":{"type":"Polygon","coordinates":[[[75.70358,27.14994],[75.69335,27.15255],[75.69301,27.15311],[75.69334,27.15845],[75.69523,27.15882],[75.69593,27.15937],[75.69586,27.1597],[75.70175,27.16071],[75.70325,27.15247],[75.70358,27.14994]]]}},{"type":"Feature","bbox":[75.70175,27.15798,75.71139,27.16333],"properties":{"ward":8,"name":"Renwal Road Power House, Keshav Nagar"},"geometry":{"type":"Polygon","coordinates":[[[75.71139,27.16127],[75.70835,27.15828],[75.70628,27.15834],[75.70223,27.15798],[75.70175,27.16071],[75.70474,27.16156],[75.70909,27.16333],[75.71139,27.16127]]]}},{"type":"Feature","bbox":[75.70909,27.16127,75.71628,27.16717],"properties":{"ward":9,"name":"Chodani Vikas Nagar, Giwali Koti Barowalo Ki Dani"},"geometry":{"type":"Polygon","coordinates":[[[75.71139,27.16127],[75.70909,27.16333],[75.71285,27.1649],[75.71331,27.16717],[75.716,27.16625],[75.71628,27.16558],[75.71139,27.16127]]]}},{"type":"Feature","bbox":[75.69917,27.16071,75.71331,27.17241],"properties":{"ward":10,"name":"Khatiko Ka Mohlla , Ragro Ka Mohlla Ragunathdas Ji"},"geometry":{"type":"Polygon","coordinates":[[[75.70883,27.16838],[75.7104,27.16782],[75.71331,27.16717],[75.71285,27.1649],[75.70474,27.16156],[75.70175,27.16071],[75.70047,27.16699],[75.69917,27.17241],[75.70022,27.17186],[75.70347,27.16942],[75.70531,27.1687],[75.70883,27.16838]]]}},{"type":"Feature","bbox":[75.70988,27.16644,75.71688,27.16934],"properties":{"ward":11,"name":"Govt. Girls School, Chopad, Jaypol"},"geometry":{"type":"Polygon","coordinates":[[[75.71555,27.16644],[75.71331,27.16717],[75.7104,27.16782],[75.70989,27.16809],[75.70988,27.16868],[75.71003,27.16876],[75.71009,27.16913],[75.71247,27.16932],[75.71688,27.16934],[75.71603,27.16816],[75.71558,27.16707],[75.71555,27.16644]]]}},{"type":"Feature","bbox":[75.70901,27.16868,75.71742,27.17208],"properties":{"ward":12,"name":"Sindhi Coloney, Bajrang Pol, Trilok Narsingh Home"},"geometry":{"type":"Polygon","coordinates":[[[75.71289,27.17146],[75.71742,27.17057],[75.71688,27.16934],[75.71247,27.16932],[75.71009,27.16913],[75.71003,27.16876],[75.70988,27.16868],[75.70987,27.16914],[75.70953,27.16917],[75.70972,27.17001],[75.70901,27.17038],[75.70943,27.17208],[75.71281,27.17126],[75.71289,27.17146]]]}},{"type":"Feature","bbox":[75.71081,27.17057,75.71936,27.17894],"properties":{"ward":13,"name":"Kotwali Chabutro, Satsang Bhawan Govt. Sr,Sec Sch"},"geometry":{"type":"Polygon","coordinates":[[[75.71821,27.17462],[75.71803,27.17319],[75.71826,27.17308],[75.7181,27.17261],[75.7189,27.17214],[75.71894,27.1719],[75.71936,27.1716],[75.71932,27.17139],[75.71825,27.17126],[75.71746,27.17086],[75.71742,27.17057],[75.71289,27.17146],[75.71393,27.17438],[75.71081,27.17552],[75.71147,27.17807],[75.71091,27.17824],[75.71119,27.17894],[75.71195,27.17869],[75.71404,27.17708],[75.71518,27.17656],[75.71821,27.17462]]]}},{"type":"Feature","bbox":[75.71073,27.15992,75.71919,27.16601],"properties":{"ward":14,"name":"New Market, Bihari Ka Mandir Khari Koti Mohlla"},"geometry":{"type":"Polygon","coordinates":[[[75.71919,27.16561],[75.71874,27.16362],[75.71734,27.16396],[75.71694,27.16283],[75.71589,27.16311],[75.71487,27.15992],[75.71073,27.16069],[75.71678,27.16601],[75.71919,27.16561]]]}},{"type":"Feature","bbox":[75.71694,27.16206,75.72302,27.16561],"properties":{"ward":15,"name":"Dholi Mandi, Indra Coloney Thana Chorha"},"geometry":{"type":"Polygon","coordinates":[[[75.72302,27.16446],[75.72269,27.16294],[75.72115,27.16316],[75.72085,27.16206],[75.71694,27.16283],[75.71734,27.16396],[75.71874,27.16362],[75.71919,27.16561],[75.72195,27.1651],[75.72195,27.16461],[75.72302,27.16446]]]}},{"type":"Feature","bbox":[75.70223,27.15404,75.72085,27.16311],"properties":{"ward":16,"name":"Aurvadik Hospital, Duputy Distt, Edcucation Office"},"geometry":{"type":"Polygon","coordinates":[[[75.71589,27.16311],[75.72085,27.16206],[75.72057,27.16045],[75.71957,27.16029],[75.71912,27.15966],[75.71602,27.16035],[75.71521,27.15858],[75.71392,27.1589],[75.71391,27.15919],[75.7128,27.15903],[75.71043,27.15902],[75.70915,27.15671],[75.70751,27.15683],[75.70701,27.15416],[75.70424,27.15441],[75.70296,27.15404],[75.70223,27.15798],[75.70628,27.15834],[75.70835,27.15828],[75.71073,27.16069],[75.71487,27.15992],[75.71589,27.16311]]]}},{"type":"Feature","bbox":[75.70296,27.14892,75.71491,27.15919],"properties":{"ward":17,"name":"Ashok Vihar Gora Ki Dani Todawato Ki Dani Jaipur R"},"geometry":{"type":"Polygon","coordinates":[[[75.71491,27.15863],[75.71418,27.15599],[75.71142,27.15195],[75.71204,27.15169],[75.71131,27.14965],[75.70789,27.15038],[75.70757,27.14892],[75.70358,27.14994],[75.70296,27.15404],[75.70424,27.15441],[75.70701,27.15416],[75.70751,27.15683],[75.70915,27.15671],[75.71043,27.15902],[75.7128,27.15903],[75.71391,27.15919],[75.71392,27.1589],[75.71491,27.15863]]]}},{"type":"Feature","bbox":[75.70703,27.14453,75.72124,27.16035],"properties":{"ward":18,"name":"Gora Ki Dani Radhaswami Bhag Kacholiya"},"geometry":{"type":"Polygon","coordinates":[[[75.71912,27.15966],[75.72124,27.15874],[75.72105,27.15841],[75.72064,27.1582],[75.71994,27.15666],[75.71945,27.15466],[75.71892,27.15382],[75.71871,27.15222],[75.71896,27.15206],[75.71701,27.14574],[75.71665,27.1452],[75.71598,27.1452],[75.71569,27.14453],[75.70703,27.1459],[75.70789,27.15038],[75.71131,27.14965],[75.71204,27.15169],[75.71142,27.15195],[75.71418,27.15599],[75.71491,27.15863],[75.71521,27.15858],[75.71602,27.16035],[75.71912,27.15966]]]}},{"type":"Feature","bbox":[75.70524,27.13442,75.72866,27.15184],"properties":{"ward":19,"name":"Arya Hospital, Bhomka Ki Dani Jadmo Ki Dani Karo K"},"geometry":{"type":"Polygon","coordinates":[[[75.72866,27.1411],[75.72831,27.14086],[75.72721,27.14081],[75.72704,27.14048],[75.72611,27.14063],[75.72611,27.1409],[75.72489,27.14107],[75.72483,27.14016],[75.72234,27.14031],[75.72094,27.13647],[75.71873,27.13668],[75.71797,27.13442],[75.7129,27.13557],[75.70524,27.13823],[75.70562,27.13937],[75.70703,27.1459],[75.71569,27.14453],[75.71598,27.1452],[75.71665,27.1452],[75.71701,27.14574],[75.71888,27.15184],[75.72238,27.15128],[75.7222,27.15],[75.72608,27.14962],[75.72741,27.14971],[75.72854,27.14506],[75.72866,27.1411]]]}},{"type":"Feature","bbox":[75.71871,27.14962,75.72741,27.1562],"properties":{"ward":20,"name":"Phed Office, Sdm Office, Sabji Mandi, Anaj Mandi"},"geometry":{"type":"Polygon","coordinates":[[[75.726,27.15373],[75.72741,27.14971],[75.72725,27.14967],[75.72608,27.14962],[75.7222,27.15],[75.72238,27.15128],[75.71888,27.15184],[75.71896,27.15206],[75.71871,27.15222],[75.71892,27.15382],[75.71945,27.15466],[75.71971,27.15556],[75.72209,27.15531],[75.72349,27.15564],[75.72351,27.15613],[75.72564,27.1562],[75.726,27.15373]]]}},{"type":"Feature","bbox":[75.71912,27.15531,75.72564,27.16316],"properties":{"ward":21,"name":"Madina Coloney, Kakiran Mohlla, Balol Kha Clolney"},"geometry":{"type":"Polygon","coordinates":[[[75.72269,27.16294],[75.72425,27.16174],[75.72482,27.159],[75.72564,27.1562],[75.72351,27.15613],[75.72349,27.15564],[75.72209,27.15531],[75.71971,27.15556],[75.71994,27.15666],[75.72064,27.1582],[75.72105,27.15841],[75.72124,27.15874],[75.71912,27.15966],[75.71957,27.16029],[75.72057,27.16045],[75.72115,27.16316],[75.72269,27.16294]]]}},{"type":"Feature","bbox":[75.72433,27.1411,75.73446,27.16292],"properties":{"ward":22,"name":"Obc Bank, Govt. School No 2, Sagar Hotal Jogi Mohl"},"geometry":{"type":"Polygon","coordinates":[[[75.73446,27.15564],[75.73216,27.14887],[75.73235,27.14877],[75.73021,27.1422],[75.72866,27.1411],[75.72854,27.14506],[75.72713,27.15075],[75.726,27.15373],[75.72564,27.1562],[75.72482,27.159],[75.72433,27.16144],[75.7244,27.16292],[75.72504,27.1628],[75.72504,27.1624],[75.7283,27.1617],[75.72848,27.16149],[75.72853,27.15923],[75.72871,27.15895],[75.73403,27.15677],[75.7338,27.15586],[75.73446,27.15564]]]}},{"type":"Feature","bbox":[75.73674,27.14768,75.74347,27.1539],"properties":{"ward":23,"name":"Guwariyo Ki Mori, Purohtion Ka Mohlla, Kumawat Moh"},"geometry":{"type":"Polygon","coordinates":[[[75.73674,27.14932],[75.73799,27.15242],[75.73922,27.1522],[75.73989,27.1539],[75.74299,27.15262],[75.74347,27.15216],[75.74347,27.15172],[75.74219,27.14811],[75.74145,27.14768],[75.7403,27.14807],[75.73974,27.14884],[75.73674,27.14932]]]}},{"type":"Feature","bbox":[75.71555,27.16605,75.71951,27.17086],"properties":{"ward":24,"name":"Meeno Ka Mohlla Luharo Ka Mohlla, Sanjay Printer"},"geometry":{"type":"Polygon","coordinates":[[[75.71614,27.16605],[75.71555,27.16644],[75.71558,27.16707],[75.71603,27.16816],[75.71716,27.16988],[75.71746,27.17086],[75.71951,27.16977],[75.71848,27.16817],[75.71635,27.16643],[75.71614,27.16605]]]}},{"type":"Feature","bbox":[75.71746,27.16959,75.72224,27.17182],"properties":{"ward":25,"name":"Patano Ka Mohlla, Laxminath Chowk Haji Coloney"},"geometry":{"type":"Polygon","coordinates":[[[75.72224,27.17177],[75.72208,27.16959],[75.71951,27.16977],[75.71746,27.17086],[75.71825,27.17126],[75.72117,27.17182],[75.72224,27.17177]]]}},{"type":"Feature","bbox":[75.71768,27.16663,75.72121,27.16977],"properties":{"ward":26,"name":"Badnpura Chowk, Shiv Coloney Maliyo Ka Mohlla"},"geometry":{"type":"Polygon","coordinates":[[[75.72121,27.16966],[75.72106,27.16867],[75.72055,27.16867],[75.72058,27.16821],[75.72073,27.1681],[75.72025,27.16663],[75.7184,27.16717],[75.71768,27.16755],[75.71848,27.16817],[75.71951,27.16977],[75.72121,27.16966]]]}},{"type":"Feature","bbox":[75.71614,27.16558,75.71981,27.16755],"properties":{"ward":27,"name":"Jato Ka Mohlla, Madhani Petrol Pump, Kumaro Ka Moh"},"geometry":{"type":"Polygon","coordinates":[[[75.71981,27.16677],[75.71965,27.16622],[75.7186,27.16649],[75.71813,27.16579],[75.71678,27.16601],[75.71628,27.16558],[75.71614,27.16605],[75.71635,27.16643],[75.71768,27.16755],[75.7184,27.16717],[75.71981,27.16677]]]}},{"type":"Feature","bbox":[75.72208,27.16903,75.72469,27.17201],"properties":{"ward":28,"name":"Saini Dharam Kanta Hathi Tibba, Shyam Coloney"},"geometry":{"type":"Polygon","coordinates":[[[75.72467,27.16958],[75.72433,27.16905],[75.72406,27.16903],[75.72208,27.16959],[75.72224,27.17177],[75.72423,27.17201],[75.7243,27.17134],[75.72469,27.17101],[75.72467,27.16958]]]}},{"type":"Feature","bbox":[75.71813,27.16538,75.72433,27.16966],"properties":{"ward":29,"name":"Power Hose Morija Road, Samod Road, Gidhawali Dani"},"geometry":{"type":"Polygon","coordinates":[[[75.72433,27.16905],[75.72376,27.16827],[75.72208,27.16886],[75.7218,27.16818],[75.72176,27.16755],[75.72067,27.16538],[75.71813,27.16579],[75.7186,27.16649],[75.71965,27.16622],[75.71981,27.16677],[75.72025,27.16663],[75.72073,27.1681],[75.72058,27.16821],[75.72055,27.16867],[75.72106,27.16867],[75.72121,27.16966],[75.72262,27.16951],[75.72433,27.16905]]]}},{"type":"Feature","bbox":[75.72067,27.16446,75.72376,27.16886],"properties":{"ward":30,"name":"Hanuman Ji Ka Rasta, Sanskrit School, Ranyo Ki Dan"},"geometry":{"type":"Polygon","coordinates":[[[75.72376,27.16827],[75.72302,27.16446],[75.72195,27.16461],[75.72195,27.1651],[75.72067,27.16538],[75.72176,27.16755],[75.7218,27.16818],[75.72208,27.16886],[75.72376,27.16827]]]}},{"type":"Feature","bbox":[75.72302,27.16404,75.72673,27.16768],"properties":{"ward":31,"name":"Sagar Hotal Vala Area"},"geometry":{"type":"Polygon","coordinates":[[[75.72302,27.16446],[75.72364,27.16768],[75.72402,27.1674],[75.72419,27.16631],[75.72493,27.16619],[75.72501,27.16672],[75.72673,27.16628],[75.72638,27.16549],[75.72606,27.16544],[75.7259,27.16521],[75.7256,27.16404],[75.72302,27.16446]]]}},{"type":"Feature","bbox":[75.72364,27.16541,75.7287,27.16958],"properties":{"ward":32,"name":"Mohammadi Masjid Vala Area"},"geometry":{"type":"Polygon","coordinates":[[[75.72638,27.16549],[75.72673,27.16628],[75.72501,27.16672],[75.72493,27.16619],[75.72419,27.16631],[75.72402,27.1674],[75.72364,27.16768],[75.72376,27.16827],[75.72467,27.16958],[75.72776,27.16845],[75.7287,27.1678],[75.72815,27.16653],[75.7272,27.16658],[75.72694,27.16541],[75.72638,27.16549]]]}},{"type":"Feature","bbox":[75.72269,27.16013,75.73045,27.1678],"properties":{"ward":33,"name":"Aasha Niketan School Vala Area"},"geometry":{"type":"Polygon","coordinates":[[[75.7285,27.16068],[75.72848,27.16149],[75.7283,27.1617],[75.72504,27.1624],[75.72504,27.1628],[75.7244,27.16292],[75.72433,27.16144],[75.72405,27.16201],[75.72269,27.16294],[75.72302,27.16446],[75.7256,27.16404],[75.72606,27.16544],[75.72694,27.16541],[75.7272,27.16658],[75.72815,27.16653],[75.7287,27.1678],[75.73045,27.16686],[75.72995,27.16588],[75.72983,27.16326],[75.72983,27.16105],[75.73041,27.16098],[75.73025,27.16013],[75.7285,27.16068]]]}},{"type":"Feature","bbox":[75.7285,27.15564,75.73745,27.16686],"properties":{"ward":34,"name":"Police Quarter Bhojlav Road Vala Area"},"geometry":{"type":"Polygon","coordinates":[[[75.73745,27.16422],[75.73579,27.16126],[75.73513,27.15901],[75.73446,27.15564],[75.7338,27.15586],[75.73403,27.15677],[75.72871,27.15895],[75.72853,27.15923],[75.7285,27.16068],[75.73025,27.16013],[75.73041,27.16098],[75.72983,27.16105],[75.72983,27.16326],[75.72995,27.16588],[75.73045,27.16686],[75.7355,27.16477],[75.73745,27.16422]]]}},{"type":"Feature","bbox":[75.7243,27.16747,75.73201,27.17281],"properties":{"ward":35,"name":"Ashok Plaza Vala Area"},"geometry":{"type":"Polygon","coordinates":[[[75.72933,27.16747],[75.72776,27.16845],[75.72467,27.16958],[75.72469,27.17101],[75.7243,27.17134],[75.72489,27.17122],[75.72583,27.17062],[75.72923,27.17281],[75.73196,27.17278],[75.73201,27.17104],[75.73119,27.17096],[75.73117,27.16814],[75.72932,27.16835],[75.72933,27.16747]]]}},{"type":"Feature","bbox":[75.72932,27.16422,75.73878,27.17278],"properties":{"ward":36,"name":"Morij Road Power House Vala Area"},"geometry":{"type":"Polygon","coordinates":[[[75.73878,27.17212],[75.73745,27.16422],[75.7355,27.16477],[75.73045,27.16686],[75.72933,27.16747],[75.72932,27.16835],[75.73117,27.16814],[75.73119,27.17096],[75.73201,27.17104],[75.73196,27.17278],[75.73517,27.17221],[75.73878,27.17212]]]}},{"type":"Feature","bbox":[75.71754,27.17231,75.72205,27.17601],"properties":{"ward":37,"name":"Raghunat Das Ji Ki Bagichi Vala Area"},"geometry":{"type":"Polygon","coordinates":[[[75.7215,27.17231],[75.71754,27.17504],[75.71823,27.17601],[75.7196,27.17573],[75.72035,27.1758],[75.72205,27.17362],[75.7215,27.17231]]]}},{"type":"Feature","bbox":[75.71803,27.17139,75.72196,27.17462],"properties":{"ward":38,"name":"Bachha Park Vala Area"},"geometry":{"type":"Polygon","coordinates":[[[75.71821,27.17462],[75.72196,27.17198],[75.72196,27.17178],[75.72117,27.17182],[75.71932,27.17139],[75.71936,27.1716],[75.71894,27.1719],[75.7189,27.17214],[75.7181,27.17261],[75.71826,27.17308],[75.71803,27.17319],[75.71821,27.17462]]]}},{"type":"Feature","bbox":[75.7209,27.17178,75.72441,27.1751],"properties":{"ward":39,"name":"Kalka Mata Mandir Ramdev Ji Ke Mandir Vala Area"},"geometry":{"type":"Polygon","coordinates":[[[75.72269,27.17182],[75.72196,27.17178],[75.72196,27.17198],[75.7215,27.17231],[75.72205,27.17362],[75.7209,27.1751],[75.72441,27.17447],[75.72388,27.17344],[75.72258,27.1735],[75.72227,27.17334],[75.72269,27.17182]]]}},{"type":"Feature","bbox":[75.72227,27.17144,75.72923,27.17447],"properties":{"ward":40,"name":"Imam Chok Vala Area"},"geometry":{"type":"Polygon","coordinates":[[[75.72923,27.17281],[75.72712,27.17144],[75.72703,27.17251],[75.72269,27.17182],[75.72227,27.17334],[75.72258,27.1735],[75.72388,27.17344],[75.72441,27.17447],[75.72872,27.17344],[75.72923,27.17281]]]}},{"type":"Feature","bbox":[75.72423,27.17062,75.72712,27.17251],"properties":{"ward":41,"name":"Imam Chok Bus Stand Vala Area"},"geometry":{"type":"Polygon","coordinates":[[[75.72712,27.17144],[75.72583,27.17062],[75.72489,27.17122],[75.7243,27.17134],[75.72423,27.17201],[75.72703,27.17251],[75.72712,27.17144]]]}},{"type":"Feature","bbox":[75.72468,27.17216,75.73814,27.17676],"properties":{"ward":42,"name":"Veer Hanuman Ji Mandir Vala Area"},"geometry":{"type":"Polygon","coordinates":[[[75.73776,27.17503],[75.73814,27.17216],[75.73517,27.17221],[75.73196,27.17278],[75.72923,27.17281],[75.72872,27.17344],[75.72468,27.17439],[75.72522,27.17589],[75.72545,27.17604],[75.72868,27.17507],[75.72924,27.17409],[75.73094,27.17501],[75.73721,27.17676],[75.73776,27.17503]]]}},{"type":"Feature","bbox":[75.72545,27.16983,75.746,27.18321],"properties":{"ward":43,"name":"Ganesh Garden Vala Area"},"geometry":{"type":"Polygon","coordinates":[[[75.72545,27.17604],[75.72892,27.1782],[75.7323,27.18142],[75.73578,27.18321],[75.74002,27.1815],[75.74091,27.18129],[75.74055,27.17996],[75.746,27.17901],[75.74512,27.17784],[75.74332,27.17753],[75.74018,27.17598],[75.74119,27.17329],[75.74096,27.17067],[75.74036,27.17036],[75.74032,27.17008],[75.73984,27.16983],[75.73968,27.17051],[75.73861,27.1707],[75.73878,27.17212],[75.73814,27.17216],[75.73776,27.17503],[75.73721,27.17676],[75.73094,27.17501],[75.72924,27.17409],[75.72868,27.17507],[75.72545,27.17604]]]}},{"type":"Feature","bbox":[75.72137,27.17439,75.73858,27.18991],"properties":{"ward":44,"name":"New Sanrayaj School Vala Area"},"geometry":{"type":"Polygon","coordinates":[[[75.72137,27.17506],[75.72197,27.17673],[75.72269,27.17625],[75.72326,27.1762],[75.72353,27.17656],[75.72371,27.17725],[75.72359,27.1794],[75.7239,27.18223],[75.72438,27.1845],[75.72411,27.18557],[75.72461,27.18899],[75.72638,27.1888],[75.72901,27.18991],[75.72886,27.18875],[75.73291,27.18829],[75.73717,27.18709],[75.73858,27.18648],[75.73645,27.18427],[75.73578,27.18321],[75.7323,27.18142],[75.72892,27.1782],[75.72522,27.17589],[75.72468,27.17439],[75.72137,27.17506]]]}},{"type":"Feature","bbox":[75.71764,27.17506,75.72438,27.18557],"properties":{"ward":45,"name":"Aamliya Kabrishtan Vala Area"},"geometry":{"type":"Polygon","coordinates":[[[75.72137,27.17506],[75.7209,27.1751],[75.72035,27.1758],[75.71944,27.17729],[75.71863,27.17913],[75.71768,27.18187],[75.71764,27.18356],[75.72382,27.18364],[75.72411,27.18557],[75.72438,27.1845],[75.7239,27.18223],[75.72359,27.1794],[75.72371,27.17725],[75.72353,27.17656],[75.72326,27.1762],[75.72269,27.17625],[75.72197,27.17673],[75.72137,27.17506]]]}}]}