{"type":"FeatureCollection","features":[{"type":"Feature","bbox":[73.5257,26.38892,73.53397,26.40187],"properties":{"ward":1},"geometry":{"type":"Polygon","coordinates":[[[73.53397,26.39214],[73.52934,26.38892],[73.52806,26.39068],[73.52751,26.39287],[73.52692,26.39395],[73.52683,26.39607],[73.52705,26.39671],[73.52612,26.39886],[73.5257,26.40035],[73.53117,26.40187],[73.53191,26.40048],[73.53079,26.39925],[73.5311,26.39813],[73.53167,26.39715],[73.53191,26.39608],[73.53135,26.3957],[73.53205,26.3942],[73.53194,26.39346],[73.53267,26.39356],[73.53323,26.39269],[73.53397,26.39214]]]}},{"type":"Feature","bbox":[73.52467,26.38689,73.52923,26.39612],"properties":{"ward":2},"geometry":{"type":"Polygon","coordinates":[[[73.52923,26.38887],[73.52834,26.38837],[73.52735,26.38689],[73.52672,26.38804],[73.52537,26.38927],[73.5249,26.39032],[73.52467,26.39274],[73.52565,26.39407],[73.52684,26.39612],[73.52692,26.39395],[73.52751,26.39287],[73.52806,26.39068],[73.52923,26.38887]]]}},{"type":"Feature","bbox":[73.52566,26.38142,73.53578,26.39214],"properties":{"ward":3},"geometry":{"type":"Polygon","coordinates":[[[73.53382,26.38414],[73.5305,26.38316],[73.52839,26.38191],[73.52721,26.38142],[73.52584,26.38386],[73.52566,26.38519],[73.52735,26.38689],[73.52834,26.38837],[73.53397,26.39214],[73.53472,26.38854],[73.53578,26.38639],[73.53398,26.38514],[73.53451,26.38462],[73.53382,26.38414]]]}},{"type":"Feature","bbox":[73.52392,26.37988,73.53382,26.38519],"properties":{"ward":4},"geometry":{"type":"Polygon","coordinates":[[[73.52627,26.37988],[73.52392,26.38363],[73.52566,26.38519],[73.52584,26.38386],[73.52721,26.38142],[73.52839,26.38191],[73.5305,26.38316],[73.53382,26.38414],[73.53381,26.38322],[73.53269,26.38112],[73.53197,26.38145],[73.53135,26.38135],[73.52979,26.38192],[73.52627,26.37988]]]}},{"type":"Feature","bbox":[73.52627,26.37707,73.53292,26.38192],"properties":{"ward":5},"geometry":{"type":"Polygon","coordinates":[[[73.53269,26.38112],[73.53292,26.38029],[73.53291,26.37902],[73.52846,26.37707],[73.52627,26.37988],[73.52979,26.38192],[73.53135,26.38135],[73.53197,26.38145],[73.53269,26.38112]]]}},{"type":"Feature","bbox":[73.52846,26.37455,73.53486,26.37871],"properties":{"ward":6},"geometry":{"type":"Polygon","coordinates":[[[73.53486,26.37836],[73.53323,26.37593],[73.53161,26.37488],[73.53085,26.37455],[73.52846,26.37707],[73.53202,26.37862],[73.53291,26.37871],[73.53486,26.37836]]]}},{"type":"Feature","bbox":[73.51941,26.3427,73.53978,26.37586],"properties":{"ward":7},"geometry":{"type":"Polygon","coordinates":[[[73.53978,26.35464],[73.53693,26.35438],[73.53715,26.35144],[73.53775,26.35006],[73.5366,26.34562],[73.53524,26.3427],[73.53398,26.3432],[73.53205,26.3428],[73.53075,26.343],[73.53014,26.34273],[73.52947,26.34324],[73.52881,26.34422],[73.5278,26.3437],[73.52697,26.34405],[73.52576,26.3443],[73.52534,26.34312],[73.52403,26.34463],[73.52137,26.3466],[73.51941,26.34842],[73.5213,26.35072],[73.52203,26.35364],[73.5225,26.35618],[73.52254,26.35741],[73.52287,26.35844],[73.52822,26.36739],[73.53041,26.36679],[73.53095,26.36784],[73.52986,26.36851],[73.53153,26.36953],[73.53213,26.37051],[73.53253,26.3715],[73.53235,26.37215],[73.53085,26.37456],[73.53326,26.37586],[73.53365,26.37489],[73.53336,26.37352],[73.53373,26.37229],[73.533,26.37207],[73.53693,26.36527],[73.53978,26.35464]]]}},{"type":"Feature","bbox":[73.51532,26.35928,73.52956,26.37988],"properties":{"ward":8},"geometry":{"type":"Polygon","coordinates":[[[73.51917,26.35928],[73.51692,26.36003],[73.51676,26.35939],[73.51532,26.35999],[73.51672,26.36439],[73.51833,26.36564],[73.51966,26.36754],[73.51922,26.3682],[73.51593,26.36683],[73.51535,26.36943],[73.5161,26.3711],[73.51657,26.3716],[73.51789,26.37246],[73.51737,26.37307],[73.51803,26.37331],[73.51863,26.37378],[73.51913,26.37336],[73.5226,26.3773],[73.52418,26.37871],[73.52627,26.37988],[73.52769,26.37774],[73.52856,26.3739],[73.52949,26.37213],[73.52956,26.37121],[73.52905,26.37064],[73.52842,26.36899],[73.52569,26.3647],[73.52398,26.36152],[73.52036,26.36264],[73.51991,26.36203],[73.51926,26.36032],[73.51917,26.35928]]]}},{"type":"Feature","bbox":[73.51917,26.35851,73.53253,26.37778],"properties":{"ward":9},"geometry":{"type":"Polygon","coordinates":[[[73.52289,26.35851],[73.52056,26.35884],[73.51917,26.35928],[73.51926,26.36032],[73.51991,26.36203],[73.52036,26.36264],[73.52398,26.36152],[73.52569,26.3647],[73.52842,26.36899],[73.52905,26.37064],[73.52956,26.37121],[73.52949,26.37213],[73.52856,26.3739],[73.52778,26.37778],[73.53085,26.37455],[73.53235,26.37214],[73.53253,26.37149],[73.53153,26.36952],[73.52986,26.3685],[73.53095,26.36783],[73.53041,26.36678],[73.52822,26.36738],[73.52289,26.35851]]]}},{"type":"Feature","bbox":[73.53269,26.37836,73.53599,26.38317],"properties":{"ward":10},"geometry":{"type":"Polygon","coordinates":[[[73.53486,26.37836],[73.53291,26.37871],[73.53292,26.38029],[73.53269,26.38112],[73.53396,26.38317],[73.53505,26.38271],[73.5359,26.3808],[73.53599,26.37955],[73.53486,26.37836]]]}},{"type":"Feature","bbox":[73.53505,26.3808,73.53684,26.38309],"properties":{"ward":11},"geometry":{"type":"Polygon","coordinates":[[[73.53684,26.38268],[73.53644,26.38166],[73.5359,26.3808],[73.53505,26.38283],[73.53568,26.38309],[73.53684,26.38268]]]}},{"type":"Feature","bbox":[73.53402,26.38268,73.5375,26.38398],"properties":{"ward":12},"geometry":{"type":"Polygon","coordinates":[[[73.5375,26.38297],[73.53684,26.38268],[73.53568,26.38309],[73.53505,26.38283],[73.53402,26.38326],[73.536,26.38398],[73.53696,26.38371],[73.5375,26.38297]]]}},{"type":"Feature","bbox":[73.53599,26.37686,73.53993,26.38276],"properties":{"ward":13},"geometry":{"type":"Polygon","coordinates":[[[73.53993,26.38175],[73.53847,26.37915],[73.53831,26.37753],[73.53756,26.37686],[73.53599,26.37955],[73.53614,26.38076],[73.53644,26.38166],[73.53693,26.38244],[73.53749,26.38276],[73.53824,26.38268],[73.53926,26.38226],[73.53993,26.38175]]]}},{"type":"Feature","bbox":[73.53323,26.37351,73.53675,26.37836],"properties":{"ward":14},"geometry":{"type":"Polygon","coordinates":[[[73.53323,26.37593],[73.53486,26.37836],[73.5354,26.3778],[73.53633,26.37737],[73.53675,26.37629],[73.53593,26.37539],[73.53477,26.37459],[73.53418,26.37355],[73.53336,26.37351],[73.53365,26.37488],[73.53323,26.37593]]]}},{"type":"Feature","bbox":[73.533,26.35464,73.54364,26.37942],"properties":{"ward":15},"geometry":{"type":"Polygon","coordinates":[[[73.54364,26.35677],[73.5407,26.35639],[73.53978,26.35464],[73.53693,26.36526],[73.533,26.37206],[73.53373,26.37228],[73.53336,26.37351],[73.53418,26.37355],[73.53477,26.37459],[73.53593,26.37539],[73.53675,26.37629],[73.53633,26.37737],[73.5354,26.3778],[73.53491,26.37823],[73.53556,26.37903],[73.53618,26.37942],[73.53751,26.377],[73.53858,26.37418],[73.5391,26.37348],[73.54068,26.37051],[73.54186,26.36591],[73.54237,26.36446],[73.54289,26.36353],[73.54323,26.36212],[73.54348,26.36068],[73.54336,26.35835],[73.54364,26.35677]]]}},{"type":"Feature","bbox":[73.53831,26.37456,73.5451,26.38104],"properties":{"ward":16},"geometry":{"type":"Polygon","coordinates":[[[73.54092,26.38104],[73.54325,26.38019],[73.54374,26.37907],[73.54474,26.37747],[73.5451,26.37642],[73.54146,26.37492],[73.53946,26.37456],[73.53831,26.37753],[73.53847,26.37915],[73.539,26.38017],[73.53987,26.38075],[73.54092,26.38104]]]}},{"type":"Feature","bbox":[73.53756,26.3456,73.55254,26.37748],"properties":{"ward":17},"geometry":{"type":"Polygon","coordinates":[[[73.54928,26.35737],[73.55022,26.35115],[73.55098,26.34971],[73.55254,26.34797],[73.55219,26.34589],[73.55143,26.34567],[73.55131,26.3464],[73.54919,26.34605],[73.54845,26.34563],[73.54745,26.3456],[73.5475,26.34627],[73.54627,26.3497],[73.5448,26.34954],[73.54383,26.35242],[73.5439,26.35546],[73.54336,26.35835],[73.54348,26.36068],[73.54323,26.36212],[73.54289,26.36353],[73.54237,26.36446],[73.54186,26.36591],[73.54068,26.37051],[73.5391,26.37348],[73.53858,26.37418],[73.53756,26.37686],[73.53826,26.37748],[73.53946,26.37456],[73.54146,26.37492],[73.54241,26.37541],[73.54397,26.37265],[73.54426,26.37081],[73.54702,26.36392],[73.54743,26.36158],[73.54793,26.36004],[73.54928,26.35737]]]}},{"type":"Feature","bbox":[73.54241,26.3523,73.55723,26.37766],"properties":{"ward":18},"geometry":{"type":"Polygon","coordinates":[[[73.55353,26.3733],[73.55396,26.37259],[73.55596,26.37111],[73.55614,26.37051],[73.55686,26.36406],[73.55602,26.3641],[73.55515,26.36464],[73.55417,26.36399],[73.55508,26.36252],[73.55542,26.35858],[73.55723,26.35312],[73.55013,26.3523],[73.54928,26.35737],[73.54793,26.36004],[73.54743,26.36158],[73.54702,26.36392],[73.54426,26.37081],[73.54397,26.37265],[73.54241,26.37541],[73.54369,26.37578],[73.5451,26.37642],[73.54474,26.37747],[73.54631,26.37766],[73.5469,26.37659],[73.54776,26.37702],[73.54866,26.37552],[73.54978,26.3743],[73.55109,26.37521],[73.55353,26.3733]]]}},{"type":"Feature","bbox":[73.5376,26.38022,73.5418,26.38504],"properties":{"ward":19},"geometry":{"type":"Polygon","coordinates":[[[73.5376,26.38321],[73.53817,26.38466],[73.54026,26.38504],[73.54067,26.38451],[73.54089,26.38368],[73.5415,26.38245],[73.54146,26.38159],[73.5418,26.38076],[73.54092,26.38104],[73.53987,26.38075],[73.53909,26.38022],[73.53993,26.38175],[73.53926,26.38226],[73.53824,26.38268],[73.5376,26.38321]]]}},{"type":"Feature","bbox":[73.536,26.38321,73.53817,26.385],"properties":{"ward":20},"geometry":{"type":"Polygon","coordinates":[[[73.53817,26.38466],[73.5376,26.38321],[73.53696,26.38371],[73.536,26.38398],[73.53623,26.38482],[73.53695,26.385],[73.53817,26.38466]]]}},{"type":"Feature","bbox":[73.53382,26.38326,73.53623,26.38482],"properties":{"ward":21},"geometry":{"type":"Polygon","coordinates":[[[73.53402,26.38326],[73.53382,26.38414],[73.53458,26.38457],[73.53623,26.38482],[73.536,26.38398],[73.53402,26.38326]]]}},{"type":"Feature","bbox":[73.53398,26.38457,73.53654,26.38573],"properties":{"ward":22},"geometry":{"type":"Polygon","coordinates":[[[73.53458,26.38457],[73.53398,26.38514],[73.53496,26.38573],[73.53577,26.38554],[73.53654,26.38506],[73.53458,26.38457]]]}},{"type":"Feature","bbox":[73.53496,26.38514,73.53744,26.3869],"properties":{"ward":23},"geometry":{"type":"Polygon","coordinates":[[[73.53727,26.38673],[73.53744,26.38566],[73.53667,26.38514],[73.53496,26.38573],[73.53642,26.3869],[73.53727,26.38673]]]}},{"type":"Feature","bbox":[73.53397,26.38639,73.54157,26.39353],"properties":{"ward":24},"geometry":{"type":"Polygon","coordinates":[[[73.54157,26.38707],[73.5402,26.38679],[73.53828,26.38703],[73.53716,26.38701],[73.53642,26.3869],[73.53578,26.38639],[73.53472,26.38854],[73.53397,26.39214],[73.5401,26.39353],[73.53958,26.3925],[73.53886,26.39029],[73.5396,26.38976],[73.54052,26.38938],[73.54054,26.38854],[73.54023,26.38771],[73.5413,26.38774],[73.54157,26.38707]]]}},{"type":"Feature","bbox":[73.53695,26.38479,73.53888,26.38703],"properties":{"ward":25},"geometry":{"type":"Polygon","coordinates":[[[73.53695,26.385],[73.53744,26.38566],[73.53727,26.38673],[73.53839,26.38703],[73.53831,26.3863],[73.53845,26.38564],[73.53888,26.38486],[73.53807,26.38479],[73.53695,26.385]]]}},{"type":"Feature","bbox":[73.53831,26.38475,73.53996,26.38703],"properties":{"ward":26},"geometry":{"type":"Polygon","coordinates":[[[73.53956,26.38666],[73.53996,26.38495],[73.53902,26.38475],[73.53845,26.38564],[73.53831,26.3863],[73.53839,26.38703],[73.53956,26.38666]]]}},{"type":"Feature","bbox":[73.54325,26.37336,73.55764,26.38055],"properties":{"ward":27},"geometry":{"type":"Polygon","coordinates":[[[73.55764,26.37604],[73.55348,26.37336],[73.55109,26.37521],[73.54978,26.3743],[73.54866,26.37552],[73.54776,26.37702],[73.5469,26.37659],[73.54631,26.37766],[73.54474,26.37747],[73.54374,26.37907],[73.54325,26.38019],[73.5462,26.38055],[73.55157,26.37946],[73.55764,26.37604]]]}},{"type":"Feature","bbox":[73.54026,26.38019,73.5462,26.38515],"properties":{"ward":28},"geometry":{"type":"Polygon","coordinates":[[[73.54325,26.38019],[73.5418,26.38076],[73.54146,26.38159],[73.5415,26.38245],[73.54089,26.38368],[73.54067,26.38451],[73.54026,26.38504],[73.54252,26.38515],[73.54313,26.38413],[73.54386,26.38391],[73.54482,26.38398],[73.5455,26.3835],[73.5462,26.38055],[73.54325,26.38019]]]}},{"type":"Feature","bbox":[73.53956,26.38504,73.54294,26.38707],"properties":{"ward":29},"geometry":{"type":"Polygon","coordinates":[[[73.54252,26.38515],[73.54026,26.38504],[73.53974,26.3858],[73.53956,26.38666],[73.54157,26.38707],[73.54294,26.38707],[73.54288,26.38616],[73.54252,26.38515]]]}},{"type":"Feature","bbox":[73.54282,26.3835,73.54817,26.38815],"properties":{"ward":30},"geometry":{"type":"Polygon","coordinates":[[[73.5455,26.3835],[73.54482,26.38398],[73.54386,26.38391],[73.54313,26.38413],[73.54282,26.38516],[73.54294,26.38707],[73.54385,26.38702],[73.54533,26.38759],[73.54814,26.38815],[73.54817,26.38727],[73.54735,26.38531],[73.5455,26.3835]]]}},{"type":"Feature","bbox":[73.54735,26.38284,73.56355,26.39137],"properties":{"ward":31},"geometry":{"type":"Polygon","coordinates":[[[73.56355,26.38496],[73.56065,26.38481],[73.55896,26.38455],[73.55698,26.38405],[73.55253,26.38327],[73.55153,26.38284],[73.55043,26.38286],[73.54984,26.38411],[73.54913,26.38451],[73.54839,26.3846],[73.54804,26.38531],[73.54735,26.38531],[73.54817,26.38727],[73.54814,26.38815],[73.55622,26.38995],[73.5587,26.3901],[73.56273,26.39137],[73.56332,26.3892],[73.56275,26.38879],[73.56355,26.38496]]]}},{"type":"Feature","bbox":[73.5455,26.37224,73.566,26.38531],"properties":{"ward":32},"geometry":{"type":"Polygon","coordinates":[[[73.5462,26.38055],[73.5455,26.3835],[73.54735,26.38531],[73.54804,26.38531],[73.54839,26.3846],[73.54913,26.38451],[73.54984,26.38411],[73.55043,26.38286],[73.55153,26.38284],[73.55253,26.38327],[73.55698,26.38405],[73.55896,26.38455],[73.56065,26.38481],[73.56355,26.38496],[73.5628,26.38106],[73.56287,26.37851],[73.56318,26.3773],[73.56384,26.37612],[73.56445,26.37538],[73.566,26.37491],[73.56495,26.37224],[73.55754,26.3761],[73.55157,26.37946],[73.5462,26.38055]]]}},{"type":"Feature","bbox":[73.53886,26.38702,73.56288,26.41151],"properties":{"ward":33},"geometry":{"type":"Polygon","coordinates":[[[73.56288,26.39144],[73.5587,26.3901],[73.55622,26.38995],[73.55329,26.38938],[73.5499,26.3885],[73.54533,26.38759],[73.54385,26.38702],[73.54187,26.38713],[73.5413,26.38774],[73.54023,26.38771],[73.54054,26.38854],[73.54052,26.38938],[73.5396,26.38976],[73.53886,26.39029],[73.53958,26.3925],[73.54046,26.39441],[73.5406,26.39609],[73.5433,26.39683],[73.54327,26.39861],[73.54439,26.39941],[73.54411,26.40032],[73.54667,26.40211],[73.54846,26.40261],[73.54932,26.40301],[73.55085,26.40331],[73.55148,26.40635],[73.55053,26.40832],[73.54967,26.41151],[73.55139,26.41122],[73.55297,26.41124],[73.5526,26.41017],[73.55325,26.4063],[73.55707,26.40625],[73.55706,26.4049],[73.55613,26.40434],[73.55674,26.40266],[73.55649,26.40134],[73.55739,26.40081],[73.55667,26.40048],[73.55721,26.39836],[73.55709,26.39612],[73.55809,26.39589],[73.56069,26.39618],[73.56108,26.39381],[73.56161,26.39223],[73.5626,26.39205],[73.56288,26.39144]]]}},{"type":"Feature","bbox":[73.5406,26.39609,73.55148,26.41304],"properties":{"ward":34},"geometry":{"type":"Polygon","coordinates":[[[73.54967,26.41151],[73.55053,26.40832],[73.55148,26.40635],[73.55085,26.40331],[73.54932,26.40301],[73.54846,26.40261],[73.54667,26.40211],[73.54411,26.40032],[73.54439,26.39941],[73.54327,26.39861],[73.5433,26.39683],[73.5406,26.39609],[73.54156,26.40142],[73.54225,26.40363],[73.54287,26.40477],[73.54179,26.40483],[73.54178,26.40554],[73.54272,26.40749],[73.54293,26.40823],[73.54288,26.40907],[73.54361,26.40947],[73.54412,26.41109],[73.5462,26.41077],[73.54841,26.41304],[73.54964,26.41298],[73.54967,26.41151]]]}},{"type":"Feature","bbox":[73.53079,26.39214,73.54287,26.4084],"properties":{"ward":35},"geometry":{"type":"Polygon","coordinates":[[[73.5401,26.39353],[73.53397,26.39214],[73.53323,26.39269],[73.53267,26.39356],[73.53194,26.39346],[73.53205,26.3942],[73.53135,26.3957],[73.53191,26.39608],[73.53167,26.39715],[73.5311,26.39813],[73.53079,26.39925],[73.53191,26.40048],[73.53117,26.40187],[73.5324,26.40222],[73.53407,26.40296],[73.53521,26.40401],[73.53506,26.40504],[73.53591,26.40521],[73.53916,26.4084],[73.5406,26.40494],[73.54287,26.40477],[73.54225,26.40363],[73.54156,26.40142],[73.54075,26.39747],[73.54046,26.39441],[73.5401,26.39353]]]}}]}