{"type":"FeatureCollection","features":[{"type":"Feature","bbox":[77.00777,26.50199,77.02704,26.51537],"properties":{"ward":1},"geometry":{"type":"Polygon","coordinates":[[[77.01422,26.51517],[77.01392,26.51448],[77.01451,26.5136],[77.01481,26.51348],[77.01459,26.51246],[77.01481,26.51176],[77.01624,26.5111],[77.01634,26.51052],[77.01595,26.50938],[77.01616,26.50866],[77.02059,26.50788],[77.02136,26.50737],[77.02145,26.50645],[77.02199,26.50638],[77.02207,26.50657],[77.02331,26.50638],[77.02362,26.50592],[77.02492,26.50592],[77.02635,26.50664],[77.02681,26.50577],[77.02704,26.50354],[77.02196,26.50304],[77.0209,26.50262],[77.02009,26.50199],[77.01928,26.50328],[77.01949,26.50523],[77.01652,26.50617],[77.01566,26.50561],[77.01542,26.50521],[77.015,26.50529],[77.01515,26.50574],[77.01482,26.50583],[77.01484,26.50607],[77.01326,26.50639],[77.01346,26.50682],[77.0109,26.50756],[77.00993,26.50744],[77.00876,26.50762],[77.0084,26.50823],[77.00777,26.50875],[77.0081,26.51068],[77.00857,26.51107],[77.00906,26.5119],[77.0102,26.51319],[77.01051,26.51422],[77.0123,26.5148],[77.01329,26.51534],[77.01392,26.51537],[77.01422,26.51517]]]}},{"type":"Feature","bbox":[77.02342,26.49889,77.02708,26.50354],"properties":{"ward":2},"geometry":{"type":"Polygon","coordinates":[[[77.02704,26.50354],[77.02708,26.50152],[77.02635,26.4995],[77.02635,26.49889],[77.02543,26.49948],[77.02448,26.50054],[77.02342,26.50109],[77.0242,26.50213],[77.02429,26.50326],[77.02704,26.50354]]]}},{"type":"Feature","bbox":[77.00205,26.50035,77.02009,26.50875],"properties":{"ward":3},"geometry":{"type":"Polygon","coordinates":[[[77.00777,26.50875],[77.0084,26.50823],[77.00876,26.50762],[77.00993,26.50744],[77.0109,26.50756],[77.01346,26.50682],[77.01326,26.50639],[77.01484,26.50607],[77.01482,26.50583],[77.01515,26.50574],[77.015,26.50529],[77.01542,26.50521],[77.01566,26.50561],[77.01652,26.50617],[77.01949,26.50523],[77.01928,26.50328],[77.02009,26.50199],[77.01843,26.50035],[77.0164,26.50082],[77.01504,26.50082],[77.01084,26.50249],[77.00928,26.50233],[77.00894,26.50245],[77.00896,26.50275],[77.00729,26.5036],[77.00694,26.50355],[77.00466,26.50425],[77.00433,26.50479],[77.00328,26.50494],[77.00205,26.50446],[77.00262,26.50574],[77.00349,26.50712],[77.00589,26.50746],[77.00664,26.50774],[77.00777,26.50875]]]}},{"type":"Feature","bbox":[76.99341,26.49322,77.01843,26.50494],"properties":{"ward":4},"geometry":{"type":"Polygon","coordinates":[[[77.00328,26.50494],[77.00433,26.50479],[77.00466,26.50425],[77.00578,26.50385],[77.00694,26.50355],[77.00729,26.5036],[77.00896,26.50275],[77.00894,26.50245],[77.00928,26.50233],[77.01084,26.50249],[77.01504,26.50082],[77.0164,26.50082],[77.01843,26.50035],[77.0177,26.49967],[77.01665,26.49807],[77.01668,26.49533],[77.01603,26.49517],[77.01586,26.49499],[77.01574,26.49322],[77.01302,26.49344],[77.01305,26.49397],[77.0121,26.49407],[77.0098,26.49481],[77.00917,26.49475],[77.00847,26.495],[77.00842,26.4955],[77.00508,26.49725],[77.00268,26.49819],[77.00236,26.49858],[77.00158,26.49853],[77.0006,26.49884],[76.99965,26.49891],[76.99866,26.4984],[76.99658,26.49848],[76.99634,26.49838],[76.99341,26.49904],[76.99359,26.50044],[76.99403,26.50067],[76.99432,26.50063],[76.99577,26.49952],[76.99622,26.49937],[76.99651,26.49947],[76.99755,26.50017],[76.99809,26.50129],[76.99978,26.50206],[77.00205,26.50446],[77.00328,26.50494]]]}},{"type":"Feature","bbox":[76.99302,26.49013,77.01305,26.49904],"properties":{"ward":5,"name":"Murlipura Karauli"},"geometry":{"type":"Polygon","coordinates":[[[76.99341,26.49904],[76.99533,26.49851],[76.99634,26.49838],[76.99658,26.49848],[76.99866,26.4984],[76.99965,26.49891],[77.0006,26.49884],[77.00158,26.49853],[77.00236,26.49858],[77.00268,26.49819],[77.00508,26.49725],[77.00842,26.4955],[77.00847,26.495],[77.00917,26.49475],[77.0098,26.49481],[77.0121,26.49407],[77.01305,26.49397],[77.01302,26.49344],[77.01286,26.49345],[77.01279,26.493],[77.01066,26.49266],[77.01028,26.49128],[77.00588,26.49079],[77.0053,26.49094],[77.00468,26.49013],[77.00404,26.49044],[77.00362,26.49015],[77.00256,26.49055],[77.00142,26.4903],[77.00085,26.4906],[76.99789,26.49063],[76.99732,26.49169],[76.99731,26.49225],[76.99756,26.49242],[76.99849,26.49204],[76.99996,26.49172],[77.00101,26.49221],[77.00188,26.49309],[77.00239,26.49669],[77.00227,26.49703],[77.00209,26.49734],[77.00118,26.49776],[77.00072,26.49757],[76.99689,26.49699],[76.9948,26.49646],[76.9936,26.49657],[76.99315,26.49672],[76.99302,26.49729],[76.99326,26.49875],[76.99341,26.49904]]]}},{"type":"Feature","bbox":[77.01028,26.48839,77.01574,26.49345],"properties":{"ward":6},"geometry":{"type":"Polygon","coordinates":[[[77.01286,26.49345],[77.01574,26.49322],[77.01518,26.49125],[77.01393,26.48839],[77.01214,26.48913],[77.01198,26.48938],[77.01262,26.49096],[77.01176,26.49129],[77.01028,26.49128],[77.01066,26.49266],[77.01279,26.493],[77.01286,26.49345]]]}},{"type":"Feature","bbox":[76.99789,26.4842,77.01393,26.49129],"properties":{"ward":7},"geometry":{"type":"Polygon","coordinates":[[[77.01176,26.49129],[77.01262,26.49096],[77.01198,26.48938],[77.01214,26.48913],[77.01393,26.48839],[77.01364,26.48658],[77.01265,26.48718],[77.0122,26.48714],[77.01152,26.48608],[77.00955,26.48722],[77.00894,26.4864],[77.00739,26.4869],[77.0073,26.48679],[77.00681,26.48708],[77.00639,26.48669],[77.00637,26.48639],[77.00398,26.4848],[77.0035,26.4842],[77.00183,26.48434],[77.0016,26.4842],[77.00023,26.48465],[77.00044,26.48532],[77.00186,26.48668],[77.00249,26.48797],[77.00231,26.48835],[77.00149,26.48918],[77.00065,26.48954],[76.99968,26.48921],[76.99886,26.48926],[76.99789,26.49063],[77.00085,26.4906],[77.00142,26.4903],[77.00256,26.49055],[77.00362,26.49015],[77.00404,26.49044],[77.00468,26.49013],[77.0053,26.49094],[77.00588,26.49079],[77.01028,26.49128],[77.01176,26.49129]]]}},{"type":"Feature","bbox":[76.99673,26.4763,77.01364,26.48722],"properties":{"ward":8},"geometry":{"type":"Polygon","coordinates":[[[77.00955,26.48722],[77.01152,26.48608],[77.0122,26.48714],[77.01265,26.48718],[77.01364,26.48658],[77.01289,26.4852],[77.01237,26.48263],[77.01188,26.48129],[77.01114,26.48015],[77.00956,26.47805],[77.00675,26.47648],[77.00511,26.4763],[77.00308,26.47658],[77.00105,26.47757],[77.00143,26.47793],[77.00218,26.47935],[77.00203,26.47995],[77.00115,26.48061],[77.00044,26.48086],[76.99902,26.481],[76.99758,26.48066],[76.99685,26.48078],[76.99673,26.48108],[76.99679,26.48177],[76.9973,26.48227],[76.99975,26.48353],[77.00023,26.48465],[77.0016,26.4842],[77.00183,26.48434],[77.0035,26.4842],[77.00398,26.4848],[77.00637,26.48639],[77.00639,26.48669],[77.00681,26.48708],[77.0073,26.48679],[77.00739,26.4869],[77.00894,26.4864],[77.00955,26.48722]]]}},{"type":"Feature","bbox":[77.01596,26.47468,77.02553,26.48406],"properties":{"ward":9},"geometry":{"type":"Polygon","coordinates":[[[77.02214,26.48293],[77.02281,26.4832],[77.02548,26.48251],[77.02553,26.48198],[77.02184,26.47658],[77.02108,26.47468],[77.01695,26.47712],[77.01614,26.47737],[77.01596,26.4792],[77.01973,26.48406],[77.02214,26.48293]]]}},{"type":"Feature","bbox":[76.99873,26.46565,77.01614,26.48143],"properties":{"ward":10},"geometry":{"type":"Polygon","coordinates":[[[77.01244,26.48116],[77.01189,26.48036],[77.01264,26.47971],[77.01272,26.47944],[77.01327,26.47921],[77.01348,26.47934],[77.01434,26.4788],[77.01443,26.47828],[77.01492,26.47775],[77.0154,26.47755],[77.01611,26.47754],[77.01614,26.47737],[77.01512,26.47617],[77.01481,26.476],[77.01448,26.47617],[77.01362,26.47498],[77.0121,26.47368],[77.01193,26.473],[77.01111,26.47231],[77.01098,26.47202],[77.00953,26.47115],[77.01011,26.47025],[77.00929,26.47016],[77.00874,26.46964],[77.00871,26.46851],[77.00821,26.46736],[77.00745,26.46683],[77.0065,26.46565],[77.00594,26.46629],[77.00494,26.46697],[77.00437,26.46699],[77.00289,26.46573],[77.00247,26.46571],[77.00175,26.46612],[77.0017,26.46706],[77.00327,26.46897],[77.00294,26.46981],[77.00169,26.47009],[77.00024,26.47007],[76.99873,26.47085],[76.99879,26.47159],[77.00029,26.47394],[77.00035,26.47465],[77.00007,26.47579],[77.00056,26.47714],[77.00105,26.47757],[77.00308,26.47658],[77.00511,26.4763],[77.00675,26.47648],[77.00956,26.47805],[77.01188,26.48129],[77.01213,26.48143],[77.01244,26.48116]]]}},{"type":"Feature","bbox":[77.01188,26.47754,77.01611,26.48658],"properties":{"ward":11},"geometry":{"type":"Polygon","coordinates":[[[77.01382,26.4855],[77.01489,26.48321],[77.01596,26.4792],[77.01611,26.47754],[77.0154,26.47755],[77.01492,26.47775],[77.01443,26.47828],[77.01434,26.4788],[77.01348,26.47934],[77.01327,26.47921],[77.01272,26.47944],[77.01264,26.47971],[77.01189,26.48036],[77.01244,26.48116],[77.01213,26.48143],[77.01188,26.48129],[77.01237,26.48263],[77.01289,26.4852],[77.01364,26.48658],[77.01382,26.4855]]]}},{"type":"Feature","bbox":[77.01973,26.4772,77.03128,26.48967],"properties":{"ward":12},"geometry":{"type":"Polygon","coordinates":[[[77.02629,26.48967],[77.02784,26.48885],[77.02913,26.4884],[77.02928,26.48803],[77.02975,26.48761],[77.02974,26.48658],[77.02945,26.48602],[77.02927,26.48495],[77.02936,26.48467],[77.03002,26.48419],[77.03015,26.48335],[77.03049,26.48264],[77.03096,26.48086],[77.03128,26.47777],[77.03024,26.47742],[77.02932,26.4772],[77.02862,26.47739],[77.02854,26.47756],[77.02435,26.47789],[77.02309,26.47824],[77.02553,26.48198],[77.02548,26.48251],[77.02281,26.4832],[77.02214,26.48293],[77.01973,26.48406],[77.02353,26.48892],[77.02344,26.48936],[77.0239,26.48919],[77.0251,26.48912],[77.02587,26.48922],[77.02629,26.48967]]]}},{"type":"Feature","bbox":[77.02087,26.49083,77.02609,26.49321],"properties":{"ward":13},"geometry":{"type":"Polygon","coordinates":[[[77.02412,26.49321],[77.02609,26.49179],[77.02552,26.49133],[77.02541,26.49157],[77.02459,26.49207],[77.02438,26.49202],[77.02443,26.49173],[77.02397,26.49083],[77.02187,26.49116],[77.02109,26.49167],[77.02087,26.49202],[77.02088,26.49236],[77.02243,26.49277],[77.02261,26.49296],[77.02412,26.49321]]]}},{"type":"Feature","bbox":[77.02344,26.48913,77.02713,26.49207],"properties":{"ward":14},"geometry":{"type":"Polygon","coordinates":[[[77.02459,26.49207],[77.02541,26.49157],[77.02542,26.49134],[77.02577,26.49143],[77.02618,26.49179],[77.02713,26.49111],[77.02587,26.48922],[77.02434,26.48913],[77.02344,26.48936],[77.02443,26.49173],[77.02438,26.49202],[77.02459,26.49207]]]}},{"type":"Feature","bbox":[77.01929,26.48936,77.02412,26.4966],"properties":{"ward":15},"geometry":{"type":"Polygon","coordinates":[[[77.02295,26.4966],[77.02278,26.49591],[77.02337,26.49392],[77.02412,26.49321],[77.02261,26.49296],[77.02243,26.49277],[77.02133,26.49254],[77.02088,26.49236],[77.02087,26.49202],[77.02109,26.49167],[77.02187,26.49116],[77.02397,26.49083],[77.02344,26.48936],[77.01929,26.49051],[77.01977,26.49216],[77.01989,26.49231],[77.02033,26.49229],[77.02085,26.49282],[77.0204,26.49363],[77.02086,26.49462],[77.0205,26.49529],[77.02133,26.4951],[77.02198,26.49514],[77.02248,26.49571],[77.02265,26.49634],[77.02295,26.4966]]]}},{"type":"Feature","bbox":[77.01389,26.4792,77.01887,26.48522],"properties":{"ward":16},"geometry":{"type":"Polygon","coordinates":[[[77.01467,26.48503],[77.01483,26.48521],[77.01617,26.48444],[77.0167,26.48481],[77.01726,26.48402],[77.01785,26.4835],[77.01887,26.48295],[77.01596,26.4792],[77.01489,26.48321],[77.01389,26.48522],[77.01467,26.48503]]]}},{"type":"Feature","bbox":[77.01527,26.48295,77.02353,26.49053],"properties":{"ward":17},"geometry":{"type":"Polygon","coordinates":[[[77.01929,26.49051],[77.02344,26.48936],[77.02353,26.48892],[77.01887,26.48295],[77.01785,26.4835],[77.01726,26.48402],[77.0167,26.48481],[77.01617,26.48444],[77.01527,26.48492],[77.0155,26.4853],[77.01542,26.48547],[77.01687,26.48762],[77.01707,26.48842],[77.01846,26.49053],[77.01929,26.49051]]]}},{"type":"Feature","bbox":[77.01504,26.49051,77.02086,26.49531],"properties":{"ward":18},"geometry":{"type":"Polygon","coordinates":[[[77.0171,26.49526],[77.01821,26.49474],[77.01967,26.4953],[77.0205,26.49529],[77.02086,26.49462],[77.0204,26.49363],[77.02085,26.49282],[77.02033,26.49229],[77.01989,26.49231],[77.01977,26.49216],[77.01929,26.49051],[77.01504,26.49088],[77.01574,26.49322],[77.01586,26.49499],[77.01645,26.49531],[77.0171,26.49526]]]}},{"type":"Feature","bbox":[77.01364,26.48492,77.01846,26.49088],"properties":{"ward":19},"geometry":{"type":"Polygon","coordinates":[[[77.01504,26.49088],[77.01846,26.49053],[77.01707,26.48842],[77.01687,26.48762],[77.01542,26.48547],[77.0155,26.4853],[77.01527,26.48492],[77.01483,26.48521],[77.01467,26.48503],[77.01389,26.48522],[77.01364,26.48658],[77.01393,26.48839],[77.01504,26.49088]]]}},{"type":"Feature","bbox":[77.01665,26.49474,77.02265,26.50233],"properties":{"ward":20,"name":"Tambe Ki Tori Chatpada Karauli"},"geometry":{"type":"Polygon","coordinates":[[[77.02053,26.50233],[77.02126,26.50137],[77.02113,26.49971],[77.02091,26.49883],[77.02021,26.49767],[77.02022,26.49727],[77.02048,26.49692],[77.02108,26.497],[77.0222,26.49635],[77.02236,26.49646],[77.02265,26.49634],[77.02248,26.49571],[77.02198,26.49514],[77.01967,26.4953],[77.01821,26.49474],[77.01668,26.49533],[77.01665,26.49807],[77.0177,26.49967],[77.02009,26.50199],[77.02053,26.50233]]]}},{"type":"Feature","bbox":[77.02053,26.49799,77.0265,26.50326],"properties":{"ward":21},"geometry":{"type":"Polygon","coordinates":[[[77.02432,26.50261],[77.02389,26.50159],[77.02356,26.50143],[77.02342,26.50109],[77.02448,26.50054],[77.02543,26.49948],[77.02635,26.49889],[77.0265,26.49839],[77.02544,26.49816],[77.02456,26.49838],[77.02404,26.49799],[77.02328,26.49824],[77.02271,26.49875],[77.02217,26.49885],[77.02202,26.49911],[77.02098,26.49927],[77.02126,26.50137],[77.02113,26.50171],[77.02053,26.50233],[77.02196,26.50304],[77.02429,26.50326],[77.02432,26.50261]]]}},{"type":"Feature","bbox":[77.02021,26.49634,77.02404,26.49927],"properties":{"ward":22},"geometry":{"type":"Polygon","coordinates":[[[77.02098,26.49927],[77.02202,26.49911],[77.02217,26.49885],[77.02271,26.49875],[77.02328,26.49824],[77.02404,26.49799],[77.0233,26.49767],[77.02295,26.4966],[77.02265,26.49634],[77.02236,26.49646],[77.0222,26.49635],[77.02108,26.497],[77.02048,26.49692],[77.02022,26.49727],[77.02021,26.49767],[77.02091,26.49883],[77.02098,26.49927]]]}},{"type":"Feature","bbox":[77.02635,26.49796,77.03494,26.50169],"properties":{"ward":23},"geometry":{"type":"Polygon","coordinates":[[[77.03014,26.50169],[77.03065,26.50131],[77.03311,26.50133],[77.03307,26.50062],[77.03352,26.50012],[77.03354,26.49983],[77.03419,26.4996],[77.03491,26.49895],[77.03494,26.49796],[77.03357,26.49803],[77.03357,26.49815],[77.03252,26.49811],[77.03097,26.4987],[77.03101,26.49904],[77.02849,26.49916],[77.02762,26.49894],[77.02729,26.49853],[77.0265,26.49839],[77.02635,26.4995],[77.02683,26.5009],[77.02819,26.50078],[77.02821,26.50022],[77.0285,26.50021],[77.02909,26.50051],[77.02972,26.50044],[77.03,26.5008],[77.02997,26.50164],[77.03014,26.50169]]]}},{"type":"Feature","bbox":[77.02683,26.50021,77.03372,26.50377],"properties":{"ward":24},"geometry":{"type":"Polygon","coordinates":[[[77.03194,26.50377],[77.03367,26.50341],[77.03372,26.50313],[77.03327,26.50229],[77.03311,26.50133],[77.03065,26.50131],[77.02999,26.5017],[77.03,26.5008],[77.02972,26.50044],[77.02909,26.50051],[77.0285,26.50021],[77.02821,26.50022],[77.02819,26.50078],[77.02683,26.5009],[77.02708,26.50152],[77.02712,26.50222],[77.02817,26.50217],[77.02922,26.50296],[77.03056,26.50292],[77.03088,26.50304],[77.03123,26.50354],[77.03194,26.50377]]]}},{"type":"Feature","bbox":[77.02296,26.49642,77.02657,26.49839],"properties":{"ward":25},"geometry":{"type":"Polygon","coordinates":[[[77.02657,26.49767],[77.02609,26.49778],[77.0252,26.49771],[77.025,26.49686],[77.02296,26.49642],[77.0233,26.49767],[77.02456,26.49838],[77.02544,26.49816],[77.0265,26.49839],[77.02657,26.49767]]]}},{"type":"Feature","bbox":[77.02278,26.49328,77.02449,26.49663],"properties":{"ward":26,"name":"Chatikna Bazar Karauli"},"geometry":{"type":"Polygon","coordinates":[[[77.02433,26.49663],[77.02403,26.49627],[77.02436,26.4958],[77.02432,26.49542],[77.02449,26.49523],[77.02369,26.49442],[77.02371,26.49397],[77.02423,26.49341],[77.02412,26.49328],[77.02337,26.49392],[77.02278,26.49591],[77.02296,26.49642],[77.02433,26.49663]]]}},{"type":"Feature","bbox":[77.02369,26.49179,77.02616,26.49518],"properties":{"ward":27},"geometry":{"type":"Polygon","coordinates":[[[77.02454,26.49518],[77.0251,26.49449],[77.02521,26.49341],[77.02616,26.49274],[77.02609,26.49179],[77.02412,26.49321],[77.02423,26.49341],[77.02371,26.49397],[77.02369,26.49442],[77.02454,26.49518]]]}},{"type":"Feature","bbox":[77.02432,26.49449,77.02659,26.49689],"properties":{"ward":28},"geometry":{"type":"Polygon","coordinates":[[[77.0255,26.49689],[77.02659,26.49643],[77.0261,26.49579],[77.02583,26.49573],[77.0251,26.49449],[77.02432,26.49542],[77.02436,26.4958],[77.0255,26.49689]]]}},{"type":"Feature","bbox":[77.0251,26.49274,77.02717,26.49643],"properties":{"ward":29,"name":"Dholi Khar Karauli"},"geometry":{"type":"Polygon","coordinates":[[[77.02717,26.49621],[77.02684,26.49537],[77.02617,26.49435],[77.02616,26.49274],[77.02521,26.49341],[77.0251,26.49449],[77.02583,26.49573],[77.0261,26.49579],[77.02659,26.49643],[77.02717,26.49621]]]}},{"type":"Feature","bbox":[77.02403,26.49581,77.02722,26.49778],"properties":{"ward":30},"geometry":{"type":"Polygon","coordinates":[[[77.02609,26.49778],[77.02657,26.49767],[77.02676,26.49745],[77.02722,26.49627],[77.0255,26.49689],[77.02429,26.49581],[77.02403,26.49627],[77.02433,26.49663],[77.025,26.49686],[77.0252,26.49771],[77.02609,26.49778]]]}},{"type":"Feature","bbox":[77.0265,26.49579,77.02871,26.49916],"properties":{"ward":31},"geometry":{"type":"Polygon","coordinates":[[[77.02849,26.49916],[77.02796,26.49784],[77.02859,26.49761],[77.02871,26.49738],[77.02852,26.49673],[77.02864,26.49616],[77.02834,26.49579],[77.02722,26.49627],[77.02708,26.49684],[77.02657,26.49767],[77.0265,26.49839],[77.02729,26.49853],[77.02762,26.49894],[77.02849,26.49916]]]}},{"type":"Feature","bbox":[77.02796,26.4968,77.03357,26.49916],"properties":{"ward":32},"geometry":{"type":"Polygon","coordinates":[[[77.03101,26.49904],[77.03097,26.4987],[77.03252,26.49811],[77.03357,26.49815],[77.03357,26.49803],[77.03207,26.49785],[77.03157,26.49792],[77.03145,26.49725],[77.03161,26.4968],[77.0313,26.49681],[77.0312,26.49719],[77.03016,26.49763],[77.02914,26.49785],[77.02842,26.4976],[77.02796,26.49784],[77.02849,26.49916],[77.03101,26.49904]]]}},{"type":"Feature","bbox":[77.02851,26.49592,77.0313,26.49785],"properties":{"ward":33},"geometry":{"type":"Polygon","coordinates":[[[77.02914,26.49785],[77.0312,26.49719],[77.0313,26.49681],[77.03088,26.49672],[77.03047,26.49592],[77.02864,26.49616],[77.02866,26.49641],[77.02851,26.4965],[77.02871,26.49738],[77.02859,26.49761],[77.02914,26.49785]]]}},{"type":"Feature","bbox":[77.02823,26.49341,77.03087,26.49615],"properties":{"ward":34},"geometry":{"type":"Polygon","coordinates":[[[77.03087,26.49611],[77.03065,26.495],[77.03023,26.49438],[77.03076,26.49389],[77.03051,26.49355],[77.02937,26.49341],[77.02869,26.4936],[77.02872,26.49403],[77.02902,26.49451],[77.02859,26.49472],[77.02823,26.4952],[77.02853,26.49611],[77.03047,26.49592],[77.03054,26.49615],[77.03087,26.49611]]]}},{"type":"Feature","bbox":[77.02628,26.4936,77.02902,26.49621],"properties":{"ward":35,"name":"Behind Of Stadium, Karauli"},"geometry":{"type":"Polygon","coordinates":[[[77.02717,26.49621],[77.02834,26.49579],[77.02823,26.4952],[77.02859,26.49472],[77.02902,26.49451],[77.02872,26.49403],[77.02869,26.4936],[77.02751,26.49404],[77.02689,26.49447],[77.02628,26.49454],[77.02684,26.49537],[77.02717,26.49621]]]}},{"type":"Feature","bbox":[77.02616,26.49147,77.02938,26.49454],"properties":{"ward":36},"geometry":{"type":"Polygon","coordinates":[[[77.02628,26.49454],[77.02689,26.49447],[77.02751,26.49404],[77.02884,26.49355],[77.02896,26.49298],[77.02938,26.49252],[77.02873,26.49169],[77.0282,26.49147],[77.02757,26.49181],[77.0266,26.49274],[77.02616,26.49274],[77.02617,26.49435],[77.02628,26.49454]]]}},{"type":"Feature","bbox":[77.0282,26.49131,77.03023,26.49355],"properties":{"ward":37},"geometry":{"type":"Polygon","coordinates":[[[77.02884,26.49355],[77.02994,26.49342],[77.03023,26.49308],[77.03011,26.49247],[77.0299,26.49236],[77.02967,26.49176],[77.02972,26.49131],[77.0282,26.49147],[77.02873,26.49169],[77.02938,26.49252],[77.02896,26.49298],[77.02884,26.49355]]]}},{"type":"Feature","bbox":[77.02609,26.4896,77.03089,26.49274],"properties":{"ward":38},"geometry":{"type":"Polygon","coordinates":[[[77.0266,26.49274],[77.02795,26.49158],[77.02873,26.49132],[77.02972,26.49131],[77.03089,26.49036],[77.02933,26.4896],[77.0273,26.48996],[77.02758,26.49075],[77.02609,26.49179],[77.02616,26.49274],[77.0266,26.49274]]]}},{"type":"Feature","bbox":[77.02967,26.49036,77.03268,26.49278],"properties":{"ward":39},"geometry":{"type":"Polygon","coordinates":[[[77.03223,26.49243],[77.0318,26.49144],[77.03089,26.49036],[77.02972,26.49131],[77.02967,26.49176],[77.0299,26.49236],[77.03011,26.49247],[77.0319,26.49259],[77.03268,26.49278],[77.03223,26.49243]]]}},{"type":"Feature","bbox":[77.02994,26.49247,77.03314,26.49419],"properties":{"ward":40},"geometry":{"type":"Polygon","coordinates":[[[77.03235,26.49406],[77.03228,26.49394],[77.03314,26.49319],[77.03268,26.49278],[77.0319,26.49259],[77.03011,26.49247],[77.03023,26.49308],[77.02994,26.49342],[77.03051,26.49355],[77.03076,26.49389],[77.03111,26.494],[77.03188,26.49419],[77.03235,26.49406]]]}},{"type":"Feature","bbox":[77.03023,26.49389,77.03357,26.49803],"properties":{"ward":41},"geometry":{"type":"Polygon","coordinates":[[[77.03357,26.49803],[77.03317,26.49586],[77.03235,26.49406],[77.03188,26.49419],[77.03076,26.49389],[77.03023,26.49438],[77.03065,26.495],[77.03079,26.49618],[77.03123,26.49567],[77.03152,26.49567],[77.03137,26.4953],[77.03157,26.49496],[77.0322,26.49521],[77.03234,26.4956],[77.03199,26.49618],[77.03239,26.49693],[77.03278,26.49679],[77.03316,26.49728],[77.03292,26.49801],[77.03357,26.49803]]]}},{"type":"Feature","bbox":[77.0306,26.49496,77.03309,26.49801],"properties":{"ward":42},"geometry":{"type":"Polygon","coordinates":[[[77.03309,26.49775],[77.03306,26.49709],[77.03278,26.49679],[77.03239,26.49693],[77.03199,26.49618],[77.03234,26.4956],[77.0322,26.49521],[77.03157,26.49496],[77.03137,26.4953],[77.03152,26.49567],[77.03123,26.49567],[77.03097,26.49611],[77.0306,26.49618],[77.03088,26.49672],[77.03161,26.4968],[77.03145,26.49725],[77.03157,26.49792],[77.03207,26.49785],[77.03292,26.49801],[77.03309,26.49775]]]}},{"type":"Feature","bbox":[77.03023,26.49389,77.03357,26.49803],"properties":{"ward":43},"geometry":{"type":"Polygon","coordinates":[[[77.03357,26.49803],[77.03317,26.49586],[77.03235,26.49406],[77.03188,26.49419],[77.03076,26.49389],[77.03023,26.49438],[77.03065,26.495],[77.03079,26.49618],[77.03123,26.49567],[77.03152,26.49567],[77.03137,26.4953],[77.03157,26.49496],[77.0322,26.49521],[77.03234,26.4956],[77.03199,26.49618],[77.03239,26.49693],[77.03278,26.49679],[77.03316,26.49728],[77.03292,26.49801],[77.03357,26.49803]]]}},{"type":"Feature","bbox":[77.02629,26.48111,77.04283,26.49111],"properties":{"ward":44},"geometry":{"type":"Polygon","coordinates":[[[77.02758,26.49075],[77.0273,26.48996],[77.02933,26.4896],[77.03089,26.49036],[77.03106,26.48971],[77.03189,26.48957],[77.03239,26.4893],[77.03307,26.4888],[77.03309,26.4884],[77.03351,26.48797],[77.03462,26.48722],[77.0362,26.48673],[77.03833,26.48712],[77.04115,26.48549],[77.04257,26.48449],[77.04283,26.48253],[77.04245,26.482],[77.0424,26.48125],[77.04214,26.48111],[77.04159,26.48124],[77.04,26.48204],[77.04005,26.48218],[77.03749,26.48463],[77.03763,26.48503],[77.0372,26.48555],[77.03664,26.48577],[77.03568,26.48577],[77.03542,26.4855],[77.03499,26.48603],[77.03326,26.48731],[77.03277,26.48694],[77.03161,26.48749],[77.03082,26.48745],[77.0297,26.48823],[77.02865,26.48849],[77.02629,26.48967],[77.02713,26.49111],[77.02758,26.49075]]]}},{"type":"Feature","bbox":[77.03089,26.48449,77.0433,26.49803],"properties":{"ward":45},"geometry":{"type":"Polygon","coordinates":[[[77.03494,26.49796],[77.03429,26.49684],[77.03415,26.49589],[77.03322,26.49432],[77.03368,26.49368],[77.03469,26.49317],[77.03614,26.49138],[77.03761,26.49102],[77.03843,26.49153],[77.03937,26.49183],[77.0433,26.49073],[77.04255,26.48703],[77.0424,26.48567],[77.04268,26.48525],[77.04257,26.48449],[77.03994,26.48624],[77.03833,26.48712],[77.0362,26.48673],[77.03462,26.48722],[77.03351,26.48797],[77.03309,26.4884],[77.03307,26.4888],[77.03239,26.4893],[77.03189,26.48957],[77.03106,26.48971],[77.03089,26.49036],[77.0318,26.49144],[77.03223,26.49243],[77.03314,26.49319],[77.03228,26.49394],[77.03317,26.49586],[77.03357,26.49803],[77.03494,26.49796]]]}},{"type":"Feature","bbox":[77.00555,26.44727,77.02853,26.47737],"properties":{"ward":46},"geometry":{"type":"Polygon","coordinates":[[[77.01695,26.47712],[77.02139,26.47443],[77.01973,26.47138],[77.01901,26.46969],[77.01903,26.46836],[77.01973,26.4683],[77.01985,26.46883],[77.02018,26.46892],[77.02082,26.46821],[77.02283,26.46681],[77.02322,26.46689],[77.02356,26.4667],[77.02383,26.46629],[77.02412,26.46519],[77.02458,26.465],[77.02471,26.46466],[77.02544,26.46414],[77.02644,26.46383],[77.02641,26.46247],[77.02595,26.46208],[77.02541,26.46122],[77.0267,26.46054],[77.02797,26.46028],[77.02853,26.45994],[77.02821,26.45784],[77.02588,26.45636],[77.02489,26.4555],[77.02452,26.45327],[77.0241,26.45222],[77.02313,26.45086],[77.02298,26.44988],[77.02223,26.44919],[77.02005,26.4486],[77.0194,26.44802],[77.01844,26.44751],[77.0175,26.44727],[77.01493,26.44966],[77.01391,26.4499],[77.01273,26.44994],[77.0108,26.45271],[77.01093,26.45373],[77.01084,26.45421],[77.00958,26.45568],[77.00924,26.45585],[77.00906,26.45621],[77.00908,26.45746],[77.00864,26.45844],[77.00767,26.45856],[77.00664,26.45807],[77.00636,26.45827],[77.00654,26.45944],[77.00555,26.46081],[77.00591,26.46178],[77.00722,26.46333],[77.00739,26.464],[77.0065,26.46565],[77.00745,26.46683],[77.00821,26.46736],[77.00871,26.46851],[77.00874,26.46964],[77.00929,26.47016],[77.01011,26.47025],[77.00953,26.47115],[77.01098,26.47202],[77.01111,26.47231],[77.01193,26.473],[77.0121,26.47368],[77.01362,26.47498],[77.01448,26.47617],[77.01481,26.476],[77.01512,26.47617],[77.01614,26.47737],[77.01695,26.47712]]]}},{"type":"Feature","bbox":[77.01894,26.44841,77.04223,26.4884],"properties":{"ward":47},"geometry":{"type":"Polygon","coordinates":[[[77.0297,26.48823],[77.03082,26.48745],[77.03161,26.48749],[77.03277,26.48694],[77.03326,26.48731],[77.03499,26.48603],[77.03542,26.4855],[77.03568,26.48577],[77.03664,26.48577],[77.0372,26.48555],[77.03763,26.48503],[77.03749,26.48463],[77.04005,26.48218],[77.04,26.48204],[77.04214,26.48111],[77.04202,26.48059],[77.04223,26.48009],[77.04131,26.47879],[77.04169,26.47753],[77.04111,26.47693],[77.0415,26.47595],[77.04156,26.47491],[77.04117,26.47428],[77.0397,26.47351],[77.03943,26.47215],[77.03857,26.46975],[77.03893,26.46527],[77.04038,26.46067],[77.04183,26.45968],[77.04161,26.45817],[77.03936,26.45596],[77.03779,26.45572],[77.03703,26.45406],[77.03541,26.45164],[77.03131,26.4487],[77.02671,26.44841],[77.02223,26.44919],[77.02298,26.44988],[77.02313,26.45086],[77.0241,26.45222],[77.02452,26.45327],[77.02489,26.4555],[77.02588,26.45636],[77.02821,26.45784],[77.02853,26.45994],[77.02797,26.46028],[77.0267,26.46054],[77.02541,26.46122],[77.02595,26.46208],[77.02641,26.46247],[77.02644,26.46383],[77.02544,26.46414],[77.02471,26.46466],[77.02458,26.465],[77.02412,26.46519],[77.02383,26.46629],[77.02356,26.4667],[77.02322,26.46689],[77.02283,26.46681],[77.02082,26.46821],[77.02018,26.46892],[77.01985,26.46883],[77.01973,26.4683],[77.01903,26.46836],[77.01894,26.46914],[77.01901,26.46969],[77.01973,26.47138],[77.02139,26.47443],[77.02108,26.47468],[77.02184,26.47658],[77.02309,26.47824],[77.02435,26.47789],[77.02854,26.47756],[77.02862,26.47739],[77.02932,26.4772],[77.03128,26.47777],[77.03096,26.48086],[77.03049,26.48264],[77.03015,26.48335],[77.03002,26.48419],[77.02936,26.48467],[77.02927,26.48495],[77.02945,26.48602],[77.02974,26.48658],[77.02975,26.48761],[77.02928,26.48803],[77.02913,26.4884],[77.0297,26.48823]]]}},{"type":"Feature","bbox":[77.0235,26.51041,77.04237,26.52638],"properties":{"ward":48},"geometry":{"type":"Polygon","coordinates":[[[77.03202,26.52593],[77.03384,26.52302],[77.03693,26.51987],[77.04069,26.51934],[77.03958,26.51735],[77.04024,26.51653],[77.04088,26.51643],[77.04061,26.51515],[77.04222,26.51467],[77.04198,26.51374],[77.04237,26.51272],[77.04207,26.5112],[77.04215,26.51041],[77.04148,26.51049],[77.04101,26.51073],[77.03957,26.51245],[77.03894,26.5122],[77.03868,26.51178],[77.03824,26.51172],[77.0378,26.51187],[77.0376,26.51141],[77.03713,26.511],[77.03661,26.511],[77.03563,26.5119],[77.03492,26.5123],[77.035,26.51321],[77.03412,26.51364],[77.03375,26.51488],[77.03233,26.51575],[77.0307,26.51514],[77.02987,26.51527],[77.02871,26.51594],[77.0291,26.51789],[77.02894,26.5183],[77.02812,26.51906],[77.02507,26.51911],[77.0242,26.51947],[77.02373,26.52131],[77.02379,26.52204],[77.0235,26.52358],[77.02471,26.52452],[77.02705,26.52566],[77.03024,26.52638],[77.03202,26.52593]]]}},{"type":"Feature","bbox":[77.03195,26.49073,77.0442,26.51245],"properties":{"ward":49},"geometry":{"type":"Polygon","coordinates":[[[77.03957,26.51245],[77.04101,26.51073],[77.04148,26.51049],[77.04215,26.51041],[77.04286,26.50937],[77.04233,26.5064],[77.04278,26.50548],[77.04259,26.50383],[77.04418,26.50242],[77.0442,26.49732],[77.04347,26.49395],[77.0433,26.49073],[77.03937,26.49183],[77.03843,26.49153],[77.03761,26.49102],[77.03676,26.49113],[77.03614,26.49138],[77.03469,26.49317],[77.03368,26.49368],[77.03322,26.49432],[77.03415,26.49589],[77.03429,26.49684],[77.03494,26.49796],[77.03498,26.49858],[77.03491,26.49895],[77.03461,26.49928],[77.03386,26.49978],[77.03354,26.49983],[77.03352,26.50012],[77.03307,26.50062],[77.03327,26.50229],[77.03372,26.50313],[77.03374,26.50383],[77.03411,26.50454],[77.0354,26.50563],[77.03602,26.50678],[77.03635,26.50779],[77.03606,26.50809],[77.03445,26.50845],[77.0333,26.50814],[77.03212,26.50857],[77.03195,26.50878],[77.032,26.5097],[77.03315,26.51002],[77.03368,26.51138],[77.03447,26.51145],[77.0349,26.51182],[77.03492,26.5123],[77.03563,26.5119],[77.03661,26.511],[77.03713,26.511],[77.0376,26.51141],[77.0378,26.51187],[77.03824,26.51172],[77.03868,26.51178],[77.03894,26.5122],[77.03957,26.51245]]]}},{"type":"Feature","bbox":[77.02694,26.50217,77.03634,26.50845],"properties":{"ward":50},"geometry":{"type":"Polygon","coordinates":[[[77.03445,26.50845],[77.03624,26.50802],[77.03634,26.50752],[77.0354,26.50563],[77.03411,26.50454],[77.03367,26.50341],[77.03168,26.50373],[77.03123,26.50354],[77.03088,26.50304],[77.03056,26.50292],[77.02922,26.50296],[77.02817,26.50217],[77.02712,26.50222],[77.02694,26.50517],[77.02787,26.50527],[77.02878,26.50664],[77.03101,26.50582],[77.03161,26.50679],[77.03284,26.50723],[77.03302,26.50818],[77.03445,26.50845]]]}},{"type":"Feature","bbox":[77.02536,26.50517,77.03338,26.51075],"properties":{"ward":51},"geometry":{"type":"Polygon","coordinates":[[[77.03154,26.51075],[77.03215,26.51041],[77.03338,26.51043],[77.03315,26.51002],[77.032,26.5097],[77.03195,26.50878],[77.03302,26.50818],[77.03284,26.50723],[77.03161,26.50679],[77.03101,26.50582],[77.02878,26.50664],[77.02787,26.50527],[77.02694,26.50517],[77.02635,26.50664],[77.02536,26.50806],[77.02844,26.5096],[77.02869,26.50913],[77.0292,26.50906],[77.03034,26.51057],[77.03154,26.51075]]]}},{"type":"Feature","bbox":[77.01814,26.51104,77.02936,26.52395],"properties":{"ward":52},"geometry":{"type":"Polygon","coordinates":[[[77.0235,26.52358],[77.02379,26.52204],[77.02373,26.52131],[77.0242,26.51947],[77.02507,26.51911],[77.02812,26.51906],[77.02894,26.5183],[77.0291,26.51789],[77.02871,26.51594],[77.02936,26.51554],[77.02752,26.51404],[77.02702,26.5139],[77.02691,26.51355],[77.02649,26.5133],[77.02572,26.51342],[77.02511,26.51323],[77.0252,26.51244],[77.02591,26.51218],[77.02584,26.51181],[77.02559,26.51136],[77.02445,26.51161],[77.0244,26.51105],[77.02394,26.51104],[77.0236,26.51143],[77.02322,26.51134],[77.02305,26.51173],[77.02204,26.51282],[77.02071,26.51608],[77.01814,26.52359],[77.02159,26.52395],[77.0235,26.52358]]]}},{"type":"Feature","bbox":[77.02322,26.50806,77.035,26.51575],"properties":{"ward":53},"geometry":{"type":"Polygon","coordinates":[[[77.03375,26.51488],[77.03412,26.51364],[77.035,26.51321],[77.0349,26.51182],[77.03447,26.51145],[77.03368,26.51138],[77.03338,26.51043],[77.03215,26.51041],[77.03154,26.51075],[77.03034,26.51057],[77.0292,26.50906],[77.02869,26.50913],[77.02844,26.5096],[77.02536,26.50806],[77.02423,26.50953],[77.02322,26.51134],[77.0236,26.51143],[77.02394,26.51104],[77.0244,26.51105],[77.02445,26.51161],[77.02559,26.51136],[77.02591,26.51218],[77.0252,26.51244],[77.02511,26.51323],[77.02572,26.51342],[77.02649,26.5133],[77.02691,26.51355],[77.02702,26.5139],[77.02752,26.51404],[77.02936,26.51554],[77.02987,26.51527],[77.0307,26.51514],[77.03233,26.51575],[77.03375,26.51488]]]}},{"type":"Feature","bbox":[77.01392,26.50818,77.02423,26.52172],"properties":{"ward":54},"geometry":{"type":"Polygon","coordinates":[[[77.01875,26.52172],[77.02071,26.51608],[77.02204,26.51282],[77.02305,26.51173],[77.02423,26.50953],[77.02339,26.50907],[77.02108,26.50839],[77.01985,26.50843],[77.01934,26.50818],[77.017,26.50841],[77.01616,26.50866],[77.01595,26.50938],[77.01634,26.51052],[77.01624,26.5111],[77.01481,26.51176],[77.01459,26.51246],[77.01481,26.51348],[77.01451,26.5136],[77.01392,26.51448],[77.01422,26.51517],[77.0155,26.51435],[77.01594,26.51433],[77.01622,26.51447],[77.01685,26.51564],[77.01674,26.51625],[77.01419,26.51955],[77.01433,26.52046],[77.01558,26.52112],[77.01668,26.52124],[77.01802,26.52103],[77.01837,26.52111],[77.01875,26.52172]]]}},{"type":"Feature","bbox":[77.01934,26.50592,77.02635,26.50953],"properties":{"ward":55},"geometry":{"type":"Polygon","coordinates":[[[77.02423,26.50953],[77.02635,26.50664],[77.02492,26.50592],[77.02362,26.50592],[77.02331,26.50638],[77.02207,26.50657],[77.02199,26.50638],[77.02145,26.50645],[77.02136,26.50737],[77.02114,26.5076],[77.01934,26.50818],[77.01985,26.50843],[77.02108,26.50839],[77.02339,26.50907],[77.02423,26.50953]]]}}]}