{"type":"FeatureCollection","features":[{"type":"Feature","bbox":[77.55015,29.34201,77.55332,29.34865],"properties":{"ward":1,"name":"Nakkalan Gadriyan"},"geometry":{"type":"Polygon","coordinates":[[[77.55046,29.34865],[77.55223,29.34838],[77.55332,29.34774],[77.55296,29.34708],[77.55317,29.34696],[77.55305,29.34408],[77.55226,29.34201],[77.55015,29.34282],[77.55129,29.34543],[77.55125,29.34584],[77.55157,29.34582],[77.55212,29.34705],[77.55131,29.34743],[77.55153,29.34772],[77.55097,29.34789],[77.55028,29.3484],[77.55046,29.34865]]]}},{"type":"Feature","bbox":[77.54123,29.34998,77.54633,29.35535],"properties":{"ward":2,"name":"Goaklpur Manglapuri Mandi West"},"geometry":{"type":"Polygon","coordinates":[[[77.54466,29.34998],[77.54123,29.35173],[77.54218,29.35348],[77.54244,29.35535],[77.54633,29.3531],[77.54575,29.35254],[77.54627,29.35227],[77.54578,29.35178],[77.54466,29.34998]]]}},{"type":"Feature","bbox":[77.54792,29.34282,77.55212,29.34955],"properties":{"ward":3,"name":"Saniyaan East"},"geometry":{"type":"Polygon","coordinates":[[[77.54985,29.34955],[77.55108,29.34907],[77.55028,29.3484],[77.55097,29.34789],[77.55153,29.34772],[77.55131,29.34743],[77.55212,29.34705],[77.55157,29.34582],[77.55125,29.34584],[77.55129,29.34543],[77.55015,29.34282],[77.54792,29.34381],[77.54899,29.3458],[77.54895,29.34684],[77.5495,29.34766],[77.54925,29.34853],[77.54955,29.3491],[77.5498,29.34912],[77.54985,29.34955]]]}},{"type":"Feature","bbox":[77.54897,29.35144,77.56021,29.36096],"properties":{"ward":4,"name":"Kassabaan North"},"geometry":{"type":"Polygon","coordinates":[[[77.55929,29.35178],[77.55899,29.35169],[77.55805,29.35184],[77.55719,29.35144],[77.55643,29.35185],[77.5562,29.35163],[77.55588,29.35173],[77.55315,29.35286],[77.55311,29.35238],[77.55158,29.35291],[77.55098,29.352],[77.55061,29.3522],[77.54979,29.35155],[77.54897,29.352],[77.55044,29.35289],[77.55857,29.36096],[77.55905,29.36054],[77.55871,29.36022],[77.56021,29.35949],[77.55949,29.35819],[77.56013,29.35787],[77.559,29.35656],[77.55782,29.35454],[77.55929,29.35178]]]}},{"type":"Feature","bbox":[77.55226,29.34077,77.55601,29.34865],"properties":{"ward":5,"name":"Gadriyaan South"},"geometry":{"type":"Polygon","coordinates":[[[77.55415,29.34849],[77.55552,29.34789],[77.55585,29.34722],[77.55601,29.3462],[77.55518,29.34369],[77.55487,29.34226],[77.55477,29.34077],[77.55226,29.34201],[77.55305,29.34408],[77.55317,29.34696],[77.55296,29.34708],[77.55332,29.34774],[77.55239,29.3482],[77.55333,29.34865],[77.55415,29.34849]]]}},{"type":"Feature","bbox":[77.5392,29.34603,77.54832,29.3531],"properties":{"ward":6,"name":"Manglapuri Mandi Middle"},"geometry":{"type":"Polygon","coordinates":[[[77.54466,29.34998],[77.54578,29.35178],[77.54627,29.35227],[77.54575,29.35254],[77.54633,29.3531],[77.54832,29.3517],[77.54757,29.35133],[77.54715,29.35093],[77.54392,29.34603],[77.53965,29.34819],[77.5392,29.34856],[77.54123,29.35173],[77.54466,29.34998]]]}},{"type":"Feature","bbox":[77.54392,29.34381,77.54992,29.35111],"properties":{"ward":7,"name":"Saniyyan West"},"geometry":{"type":"Polygon","coordinates":[[[77.54957,29.35009],[77.54945,29.34973],[77.54985,29.34955],[77.5498,29.34912],[77.54955,29.3491],[77.54925,29.34853],[77.5495,29.34766],[77.54895,29.34684],[77.54899,29.3458],[77.54792,29.34381],[77.54392,29.34603],[77.54691,29.35057],[77.54813,29.34997],[77.54831,29.35025],[77.54886,29.34993],[77.5495,29.35111],[77.54992,29.3509],[77.5494,29.35019],[77.54957,29.35009]]]}},{"type":"Feature","bbox":[77.55064,29.35003,77.55314,29.35209],"properties":{"ward":8,"name":"Kassabaan East"},"geometry":{"type":"Polygon","coordinates":[[[77.55193,29.35031],[77.55141,29.35003],[77.55064,29.3505],[77.55129,29.35115],[77.55173,29.3511],[77.55237,29.35209],[77.55314,29.35178],[77.55281,29.35124],[77.55259,29.35134],[77.55193,29.35031]]]}},{"type":"Feature","bbox":[77.55191,29.3456,77.56155,29.35261],"properties":{"ward":9,"name":"Bazar East Noorbafaan"},"geometry":{"type":"Polygon","coordinates":[[[77.554,29.35261],[77.5562,29.35163],[77.55643,29.35185],[77.55719,29.35144],[77.55805,29.35184],[77.55899,29.35169],[77.55929,29.35178],[77.56011,29.35032],[77.56155,29.34893],[77.5587,29.34666],[77.55791,29.3456],[77.55599,29.34645],[77.55579,29.34739],[77.55552,29.34789],[77.55516,29.34812],[77.55372,29.34866],[77.55245,29.34828],[77.55191,29.3484],[77.55247,29.34944],[77.55291,29.34922],[77.55311,29.34962],[77.55193,29.35031],[77.55259,29.35134],[77.55281,29.35124],[77.55363,29.35256],[77.554,29.35261]]]}},{"type":"Feature","bbox":[77.55046,29.3484,77.55311,29.35031],"properties":{"ward":10,"name":"Thatheran"},"geometry":{"type":"Polygon","coordinates":[[[77.55143,29.34859],[77.55046,29.34865],[77.55102,29.34891],[77.55161,29.34992],[77.55141,29.35003],[77.55154,29.35016],[77.55193,29.35031],[77.55311,29.34962],[77.55291,29.34922],[77.55247,29.34944],[77.55191,29.3484],[77.55143,29.34859]]]}},{"type":"Feature","bbox":[77.5432,29.34993,77.55676,29.36027],"properties":{"ward":11,"name":"Bazar West Manglapuri Mandi Kassaban West"},"geometry":{"type":"Polygon","coordinates":[[[77.55676,29.35916],[77.55044,29.35289],[77.54897,29.352],[77.54979,29.35155],[77.55061,29.3522],[77.55087,29.35205],[77.55026,29.35129],[77.55049,29.35105],[77.55104,29.35096],[77.55064,29.3505],[77.5495,29.35111],[77.54886,29.34993],[77.54831,29.35025],[77.54813,29.34997],[77.54691,29.35057],[77.54743,29.35122],[77.54832,29.3517],[77.54587,29.35342],[77.5432,29.3549],[77.54385,29.35582],[77.54634,29.35457],[77.54653,29.35499],[77.54922,29.35775],[77.5502,29.35728],[77.55057,29.35776],[77.55127,29.35774],[77.55215,29.3591],[77.55279,29.35922],[77.55321,29.35864],[77.55446,29.36027],[77.55551,29.35972],[77.55562,29.35983],[77.55676,29.35916]]]}},{"type":"Feature","bbox":[77.55026,29.35096,77.55371,29.35291],"properties":{"ward":12,"name":"Kassabaan Middle"},"geometry":{"type":"Polygon","coordinates":[[[77.55371,29.35261],[77.55314,29.35178],[77.55237,29.35209],[77.55173,29.3511],[77.55129,29.35115],[77.55104,29.35096],[77.55049,29.35105],[77.55026,29.35129],[77.55087,29.35205],[77.55098,29.352],[77.55158,29.35291],[77.55301,29.35239],[77.55315,29.35286],[77.55371,29.35261]]]}},{"type":"Feature","bbox":[77.5494,29.34907,77.55161,29.3509],"properties":{"ward":13,"name":"Mhajanan Bazar Middle"},"geometry":{"type":"Polygon","coordinates":[[[77.54992,29.3509],[77.55161,29.34992],[77.55108,29.34907],[77.54945,29.34973],[77.54957,29.35009],[77.5494,29.35019],[77.54992,29.3509]]]}}]}