{"type":"FeatureCollection","features":[{"type":"Feature","bbox":[78.22925,28.91754,78.23442,28.9222],"properties":{"ward":1,"name":"Kanoongoyan poorvi"},"geometry":{"type":"Polygon","coordinates":[[[78.23442,28.9222],[78.23395,28.921],[78.23098,28.91754],[78.22925,28.91884],[78.23268,28.92211],[78.23442,28.9222]]]}},{"type":"Feature","bbox":[78.22456,28.92399,78.22939,28.92884],"properties":{"ward":2,"name":"Peshthana Paschimi"},"geometry":{"type":"Polygon","coordinates":[[[78.22456,28.9243],[78.22493,28.92884],[78.22939,28.92704],[78.2284,28.92604],[78.228,28.92629],[78.22754,28.92583],[78.22734,28.92555],[78.22768,28.92527],[78.22722,28.92437],[78.22642,28.92421],[78.2261,28.92399],[78.22456,28.9243]]]}},{"type":"Feature","bbox":[78.23454,28.9263,78.23602,28.92784],"properties":{"ward":3,"name":"Bakabad Dakshini"},"geometry":{"type":"Polygon","coordinates":[[[78.23541,28.9263],[78.23454,28.9271],[78.23459,28.92774],[78.23492,28.92784],[78.23501,28.92746],[78.23602,28.9269],[78.2359,28.92647],[78.23565,28.92634],[78.23541,28.9263]]]}},{"type":"Feature","bbox":[78.22805,28.92711,78.23617,28.93342],"properties":{"ward":4,"name":"Bakabad Pashchimi"},"geometry":{"type":"Polygon","coordinates":[[[78.23417,28.92783],[78.23224,28.92843],[78.23139,28.92832],[78.2303,28.9291],[78.22805,28.93145],[78.23124,28.93201],[78.23174,28.93342],[78.23617,28.93031],[78.23437,28.928],[78.23453,28.92774],[78.23453,28.92711],[78.23422,28.92733],[78.23417,28.92783]]]}},{"type":"Feature","bbox":[78.23898,28.91295,78.25554,28.92784],"properties":{"ward":5,"name":"Peerzadgan Poorvi"},"geometry":{"type":"Polygon","coordinates":[[[78.24078,28.92784],[78.25554,28.927],[78.25215,28.91295],[78.23928,28.91477],[78.23898,28.91727],[78.23936,28.92073],[78.24028,28.92221],[78.24066,28.92523],[78.24006,28.92563],[78.24078,28.92784]]]}},{"type":"Feature","bbox":[78.23194,28.91584,78.23589,28.92232],"properties":{"ward":6,"name":"Chaudhiyan Dakshini"},"geometry":{"type":"Polygon","coordinates":[[[78.23548,28.92232],[78.23589,28.92211],[78.23425,28.91584],[78.23194,28.91693],[78.23416,28.92093],[78.23548,28.92232]]]}},{"type":"Feature","bbox":[78.22498,28.92475,78.23299,28.93031],"properties":{"ward":7,"name":"Peshthana uttari"},"geometry":{"type":"Polygon","coordinates":[[[78.23299,28.92475],[78.23122,28.92575],[78.23079,28.92622],[78.23104,28.92666],[78.23096,28.92674],[78.22997,28.92685],[78.22498,28.92895],[78.22542,28.92892],[78.2266,28.93031],[78.22957,28.92859],[78.23232,28.92548],[78.23296,28.92523],[78.23299,28.92475]]]}},{"type":"Feature","bbox":[78.23163,28.92594,78.23391,28.92758],"properties":{"ward":8,"name":"Shekhzadgan Madhya"},"geometry":{"type":"Polygon","coordinates":[[[78.23391,28.92594],[78.23163,28.92665],[78.23223,28.92758],[78.2334,28.9269],[78.23326,28.92663],[78.23373,28.92644],[78.23391,28.92594]]]}},{"type":"Feature","bbox":[78.22699,28.91892,78.23477,28.92344],"properties":{"ward":9,"name":"Kanoongoyan Madhya"},"geometry":{"type":"Polygon","coordinates":[[[78.22699,28.92018],[78.22976,28.92212],[78.23213,28.92328],[78.23355,28.92344],[78.23477,28.92283],[78.23442,28.92227],[78.23261,28.92218],[78.22919,28.91892],[78.22699,28.92018]]]}},{"type":"Feature","bbox":[78.23505,28.92647,78.23765,28.92925],"properties":{"ward":10,"name":"Bakabad Poorvi"},"geometry":{"type":"Polygon","coordinates":[[[78.23607,28.92647],[78.23603,28.92696],[78.23505,28.92749],[78.23695,28.92925],[78.23765,28.92856],[78.23697,28.92651],[78.23607,28.92647]]]}},{"type":"Feature","bbox":[78.22456,28.92117,78.23159,28.92582],"properties":{"ward":11,"name":"Peshthana Dakshini"},"geometry":{"type":"Polygon","coordinates":[[[78.22456,28.92427],[78.22612,28.92397],[78.22642,28.92417],[78.22726,28.92433],[78.22772,28.92529],[78.22743,28.92554],[78.22756,28.92582],[78.23159,28.92398],[78.22626,28.92117],[78.22456,28.92427]]]}},{"type":"Feature","bbox":[78.23085,28.92668,78.23411,28.9284],"properties":{"ward":12,"name":"shekhzadgan Uttari"},"geometry":{"type":"Polygon","coordinates":[[[78.23337,28.92696],[78.23223,28.92762],[78.23159,28.92668],[78.23085,28.92774],[78.23167,28.9284],[78.23267,28.92827],[78.23411,28.92779],[78.23337,28.92696]]]}},{"type":"Feature","bbox":[78.23096,28.91697,78.23544,28.92281],"properties":{"ward":13,"name":"Chaudhiriyan Pashchimi"},"geometry":{"type":"Polygon","coordinates":[[[78.23544,28.92233],[78.23402,28.92076],[78.23191,28.91697],[78.23096,28.91745],[78.23403,28.921],[78.23483,28.92281],[78.23544,28.92233]]]}},{"type":"Feature","bbox":[78.22759,28.924,78.23212,28.92701],"properties":{"ward":14,"name":"Peshthana Madhya"},"geometry":{"type":"Polygon","coordinates":[[[78.23159,28.924],[78.22759,28.92583],[78.22801,28.92625],[78.22841,28.92601],[78.22942,28.92701],[78.23095,28.92671],[78.23071,28.92621],[78.23212,28.92512],[78.23159,28.924]]]}},{"type":"Feature","bbox":[78.2344,28.92758,78.2369,28.93029],"properties":{"ward":15,"name":"Bakabad Uttri"},"geometry":{"type":"Polygon","coordinates":[[[78.2362,28.93029],[78.2369,28.92926],[78.2351,28.92758],[78.23493,28.92787],[78.23457,28.92776],[78.2344,28.92799],[78.2362,28.93029]]]}},{"type":"Feature","bbox":[78.22663,28.92551,78.23261,28.93138],"properties":{"ward":16,"name":"Shekhzadgan Paschim"},"geometry":{"type":"Polygon","coordinates":[[[78.23136,28.92821],[78.23078,28.92778],[78.23082,28.92755],[78.23159,28.9266],[78.23261,28.92623],[78.23231,28.92551],[78.22963,28.9286],[78.22663,28.93034],[78.22794,28.93138],[78.23027,28.92901],[78.23136,28.92821]]]}},{"type":"Feature","bbox":[78.2343,28.91479,78.23917,28.92202],"properties":{"ward":17,"name":"Chaudhriyan Poorvi"},"geometry":{"type":"Polygon","coordinates":[[[78.23591,28.92202],[78.23917,28.92057],[78.23881,28.91782],[78.23912,28.91479],[78.2343,28.91582],[78.23591,28.92202]]]}},{"type":"Feature","bbox":[78.22626,28.92022,78.23516,28.92511],"properties":{"ward":18,"name":"Kanoongoyan pashchimi"},"geometry":{"type":"Polygon","coordinates":[[[78.22626,28.92112],[78.23146,28.92377],[78.23187,28.92431],[78.23215,28.92511],[78.2334,28.92457],[78.23347,28.92428],[78.23516,28.92364],[78.23481,28.92283],[78.2335,28.92348],[78.23212,28.9234],[78.22945,28.92209],[78.22693,28.92022],[78.22626,28.92112]]]}},{"type":"Feature","bbox":[78.23331,28.92594,78.23525,28.92767],"properties":{"ward":19,"name":"Shekhzadgan poorvi"},"geometry":{"type":"Polygon","coordinates":[[[78.23331,28.92665],[78.23362,28.92732],[78.23406,28.92767],[78.23418,28.92732],[78.23525,28.92636],[78.23466,28.92637],[78.23444,28.92605],[78.23393,28.92594],[78.23376,28.92645],[78.23331,28.92665]]]}},{"type":"Feature","bbox":[78.23234,28.92456,78.23535,28.92633],"properties":{"ward":20,"name":"Shekhzadgan Dakshini"},"geometry":{"type":"Polygon","coordinates":[[[78.23299,28.92525],[78.23234,28.9255],[78.23263,28.9262],[78.23395,28.9259],[78.23448,28.92604],[78.23466,28.92633],[78.23535,28.92627],[78.23465,28.92546],[78.2342,28.92519],[78.23407,28.92487],[78.23348,28.92456],[78.23302,28.92475],[78.23299,28.92525]]]}},{"type":"Feature","bbox":[78.23517,28.92069,78.23999,28.92375],"properties":{"ward":21,"name":"Chaudhriyan Uttri"},"geometry":{"type":"Polygon","coordinates":[[[78.2359,28.92309],[78.23517,28.9235],[78.23531,28.92375],[78.23999,28.92214],[78.23917,28.92069],[78.23592,28.92214],[78.2359,28.92309]]]}},{"type":"Feature","bbox":[78.23491,28.92219,78.23586,28.92344],"properties":{"ward":22,"name":"Chaudhriyan Madhya"},"geometry":{"type":"Polygon","coordinates":[[[78.23491,28.92278],[78.23515,28.92344],[78.23578,28.92317],[78.23586,28.92219],[78.23491,28.92278]]]}},{"type":"Feature","bbox":[78.23532,28.92222,78.24022,28.92493],"properties":{"ward":23,"name":"Peerzadgan Dakshin"},"geometry":{"type":"Polygon","coordinates":[[[78.23532,28.92381],[78.23546,28.92399],[78.23541,28.92493],[78.24022,28.92324],[78.23998,28.92222],[78.23532,28.92381]]]}},{"type":"Feature","bbox":[78.23534,28.92328,78.24039,28.92639],"properties":{"ward":24,"name":"Peerzadgan Madhya"},"geometry":{"type":"Polygon","coordinates":[[[78.2402,28.92328],[78.23537,28.92497],[78.23534,28.92535],[78.23598,28.92633],[78.2367,28.92639],[78.23759,28.92627],[78.23965,28.9253],[78.24029,28.92524],[78.24039,28.9244],[78.2402,28.92328]]]}},{"type":"Feature","bbox":[78.23346,28.92367,78.24048,28.9288],"properties":{"ward":25,"name":"Peerzadgan paschimi"},"geometry":{"type":"Polygon","coordinates":[[[78.23349,28.92433],[78.23346,28.92451],[78.23426,28.92492],[78.23428,28.92519],[78.23467,28.9254],[78.23541,28.92625],[78.23599,28.92643],[78.23703,28.92649],[78.23771,28.92852],[78.23834,28.9288],[78.24048,28.92794],[78.23964,28.92549],[78.23928,28.92551],[78.23764,28.92629],[78.23596,28.92637],[78.23529,28.92536],[78.23539,28.92401],[78.23519,28.92367],[78.23349,28.92433]]]}}]}