{"type":"FeatureCollection","features":[{"type":"Feature","bbox":[78.2073,29.4981,78.21379,29.50537],"properties":{"ward":1,"name":"Chajjupura"},"geometry":{"type":"Polygon","coordinates":[[[78.2073,29.50423],[78.20781,29.50473],[78.20793,29.50537],[78.20882,29.50492],[78.20907,29.50511],[78.20988,29.50512],[78.21027,29.50504],[78.21379,29.50323],[78.21375,29.50063],[78.21345,29.4981],[78.21117,29.50045],[78.21182,29.50134],[78.2073,29.50423]]]}},{"type":"Feature","bbox":[78.19323,29.49725,78.19667,29.50151],"properties":{"ward":2,"name":"Ambedkar Nagar"},"geometry":{"type":"Polygon","coordinates":[[[78.1966,29.50028],[78.19656,29.49983],[78.1963,29.49941],[78.19667,29.49902],[78.19619,29.49801],[78.19626,29.4975],[78.19614,29.49725],[78.19598,29.49726],[78.19513,29.49747],[78.19467,29.49787],[78.19327,29.50033],[78.19323,29.50094],[78.19344,29.5015],[78.19377,29.50151],[78.19552,29.50043],[78.1966,29.50028]]]}},{"type":"Feature","bbox":[78.19834,29.50094,78.20179,29.50339],"properties":{"ward":3,"name":"Balmiki Basti"},"geometry":{"type":"Polygon","coordinates":[[[78.20093,29.50339],[78.20034,29.50241],[78.20179,29.50182],[78.20163,29.50166],[78.20046,29.50105],[78.19993,29.50094],[78.19884,29.50147],[78.19847,29.50126],[78.19859,29.5018],[78.19834,29.50217],[78.19883,29.50321],[78.20093,29.50339]]]}},{"type":"Feature","bbox":[78.20679,29.50528,78.21436,29.51375],"properties":{"ward":4,"name":"Bhuddi"},"geometry":{"type":"Polygon","coordinates":[[[78.20822,29.50906],[78.20865,29.50871],[78.20905,29.50967],[78.2112,29.51235],[78.21225,29.51322],[78.21318,29.51375],[78.21385,29.51317],[78.21428,29.51238],[78.21436,29.51148],[78.21397,29.50528],[78.20828,29.5077],[78.20771,29.50786],[78.20735,29.50765],[78.20679,29.50789],[78.20728,29.50848],[78.20822,29.50906]]]}},{"type":"Feature","bbox":[78.19837,29.49432,78.20772,29.50249],"properties":{"ward":5,"name":"Chamaran"},"geometry":{"type":"Polygon","coordinates":[[[78.20772,29.49873],[78.20569,29.49803],[78.20485,29.49744],[78.20444,29.49685],[78.20402,29.49537],[78.20359,29.49482],[78.20274,29.49433],[78.20123,29.49432],[78.20013,29.49473],[78.19837,29.49569],[78.19921,29.49714],[78.20129,29.49939],[78.20285,29.50213],[78.20341,29.50249],[78.20435,29.50243],[78.20513,29.50203],[78.20708,29.49982],[78.20772,29.49873]]]}},{"type":"Feature","bbox":[78.19836,29.49809,78.20361,29.50339],"properties":{"ward":6,"name":"Valipura"},"geometry":{"type":"Polygon","coordinates":[[[78.20361,29.50321],[78.20129,29.49939],[78.20017,29.49809],[78.19982,29.49859],[78.19968,29.49918],[78.20032,29.49958],[78.19896,29.50031],[78.19924,29.50062],[78.19836,29.50111],[78.19884,29.50147],[78.19993,29.50094],[78.20046,29.50105],[78.20163,29.50166],[78.20179,29.50182],[78.20034,29.50241],[78.20093,29.50339],[78.20361,29.50321]]]}},{"type":"Feature","bbox":[78.20138,29.50872,78.20959,29.51597],"properties":{"ward":7,"name":"Mirzapura"},"geometry":{"type":"Polygon","coordinates":[[[78.20465,29.51585],[78.20484,29.51597],[78.20549,29.51566],[78.20595,29.51479],[78.20676,29.51405],[78.20959,29.51207],[78.20807,29.51136],[78.20679,29.51208],[78.20695,29.5123],[78.20689,29.5127],[78.20654,29.51309],[78.20583,29.51325],[78.20556,29.51313],[78.20523,29.5119],[78.20672,29.51139],[78.20644,29.51087],[78.20552,29.51127],[78.20432,29.50968],[78.20261,29.50872],[78.20219,29.50888],[78.20316,29.51026],[78.20416,29.51124],[78.20342,29.5116],[78.20216,29.51266],[78.20138,29.51293],[78.2036,29.51378],[78.20407,29.51439],[78.20465,29.51585]]]}},{"type":"Feature","bbox":[78.19614,29.49569,78.20017,29.49918],"properties":{"ward":8,"name":"Navada"},"geometry":{"type":"Polygon","coordinates":[[[78.19837,29.49569],[78.19764,29.49606],[78.19738,29.49667],[78.19614,29.49725],[78.19629,29.49776],[78.19619,29.49801],[78.19665,29.49907],[78.19729,29.49905],[78.19806,29.49847],[78.19915,29.4991],[78.19968,29.49918],[78.19982,29.49859],[78.20017,29.49809],[78.19921,29.49714],[78.19837,29.49569]]]}},{"type":"Feature","bbox":[78.19607,29.50484,78.20104,29.50785],"properties":{"ward":9,"name":"Ladpura"},"geometry":{"type":"Polygon","coordinates":[[[78.19799,29.50594],[78.19852,29.50785],[78.20036,29.507],[78.20104,29.50652],[78.201,29.50609],[78.20053,29.50529],[78.20059,29.50484],[78.19847,29.5049],[78.19748,29.50517],[78.1972,29.50492],[78.19607,29.50522],[78.19698,29.50634],[78.19799,29.50594]]]}},{"type":"Feature","bbox":[78.1963,29.49847,78.20032,29.50154],"properties":{"ward":10,"name":"Kaziyan"},"geometry":{"type":"Polygon","coordinates":[[[78.19646,29.49915],[78.1963,29.49941],[78.19656,29.49983],[78.19662,29.50071],[78.19723,29.50154],[78.19765,29.50124],[78.19882,29.50089],[78.19924,29.50062],[78.19896,29.50031],[78.20032,29.49958],[78.19806,29.49847],[78.19729,29.49905],[78.19646,29.49915]]]}},{"type":"Feature","bbox":[78.20513,29.49873,78.21182,29.50473],"properties":{"ward":11,"name":"Hasanpura"},"geometry":{"type":"Polygon","coordinates":[[[78.21117,29.50045],[78.21016,29.49981],[78.20772,29.49873],[78.20708,29.49982],[78.20513,29.50203],[78.2054,29.50234],[78.20569,29.5038],[78.20581,29.50378],[78.20646,29.50473],[78.20707,29.5044],[78.21182,29.50134],[78.21117,29.50045]]]}},{"type":"Feature","bbox":[78.20009,29.50321,78.20438,29.50451],"properties":{"ward":12,"name":"Bagbanan"},"geometry":{"type":"Polygon","coordinates":[[[78.20009,29.50333],[78.20043,29.50422],[78.20132,29.5037],[78.2019,29.5043],[78.20358,29.50404],[78.20399,29.50451],[78.20438,29.50428],[78.20361,29.50321],[78.20009,29.50333]]]}},{"type":"Feature","bbox":[78.2005,29.50389,78.2045,29.5067],"properties":{"ward":13,"name":"Kila"},"geometry":{"type":"Polygon","coordinates":[[[78.2005,29.50454],[78.20053,29.50529],[78.201,29.50609],[78.20115,29.5067],[78.2027,29.50587],[78.20314,29.50576],[78.20332,29.50587],[78.20414,29.50559],[78.2045,29.50502],[78.20418,29.5044],[78.20392,29.50448],[78.20358,29.50404],[78.2019,29.5043],[78.20147,29.50389],[78.2005,29.50454]]]}},{"type":"Feature","bbox":[78.20523,29.50871,78.21062,29.51325],"properties":{"ward":14,"name":"Sheshgran"},"geometry":{"type":"Polygon","coordinates":[[[78.20807,29.51136],[78.20959,29.51207],[78.21062,29.5116],[78.20905,29.50967],[78.20865,29.50871],[78.20822,29.50906],[78.20851,29.50935],[78.20799,29.50972],[78.20787,29.51003],[78.20823,29.51087],[78.20523,29.5119],[78.20556,29.51313],[78.20583,29.51325],[78.20654,29.51309],[78.20689,29.5127],[78.20695,29.5123],[78.20679,29.51208],[78.20807,29.51136]]]}},{"type":"Feature","bbox":[78.20637,29.50323,78.21397,29.50783],"properties":{"ward":15,"name":"Chahronak"},"geometry":{"type":"Polygon","coordinates":[[[78.20783,29.50783],[78.21397,29.50528],[78.21379,29.50323],[78.21027,29.50504],[78.20907,29.50511],[78.20882,29.50492],[78.20793,29.50537],[78.20648,29.50669],[78.20656,29.50686],[78.20637,29.50702],[78.20682,29.50748],[78.20712,29.50733],[78.20749,29.50777],[78.20783,29.50783]]]}},{"type":"Feature","bbox":[78.20468,29.5092,78.20697,29.51139],"properties":{"ward":16,"name":"Milkiyan"},"geometry":{"type":"Polygon","coordinates":[[[78.20647,29.5092],[78.20468,29.51024],[78.20552,29.51127],[78.20644,29.51087],[78.20672,29.51139],[78.20697,29.5113],[78.20669,29.51077],[78.20689,29.50979],[78.20647,29.5092]]]}},{"type":"Feature","bbox":[78.20036,29.50595,78.20595,29.51024],"properties":{"ward":17,"name":"Mahajanan"},"geometry":{"type":"Polygon","coordinates":[[[78.20432,29.50968],[78.20468,29.51024],[78.20595,29.50961],[78.20576,29.50912],[78.20512,29.5084],[78.20454,29.50878],[78.20424,29.50838],[78.20384,29.50859],[78.20343,29.50789],[78.20417,29.50755],[78.20387,29.50693],[78.20322,29.50619],[78.20296,29.50642],[78.20256,29.50595],[78.20135,29.50664],[78.20087,29.50657],[78.20036,29.507],[78.20096,29.50753],[78.20146,29.50703],[78.20208,29.50773],[78.20261,29.50872],[78.20432,29.50968]]]}},{"type":"Feature","bbox":[78.20256,29.50569,78.20649,29.50961],"properties":{"ward":18,"name":"Budhupara"},"geometry":{"type":"Polygon","coordinates":[[[78.2062,29.50779],[78.20649,29.50759],[78.20506,29.50622],[78.20426,29.50649],[78.20375,29.50569],[78.20256,29.50595],[78.20296,29.50642],[78.20322,29.50619],[78.20399,29.50712],[78.20416,29.50758],[78.20343,29.50789],[78.20384,29.50859],[78.20424,29.50838],[78.20454,29.50878],[78.20512,29.5084],[78.20576,29.50912],[78.20595,29.50961],[78.20647,29.5092],[78.20633,29.50848],[78.20649,29.5084],[78.20641,29.5082],[78.20609,29.50816],[78.2062,29.50779]]]}},{"type":"Feature","bbox":[78.20298,29.50203,78.20793,29.50761],"properties":{"ward":19,"name":"Jhanda"},"geometry":{"type":"Polygon","coordinates":[[[78.20649,29.50761],[78.20682,29.50748],[78.20637,29.50702],[78.20656,29.50686],[78.20648,29.50669],[78.20793,29.50537],[78.20781,29.50473],[78.2073,29.50423],[78.20646,29.50473],[78.20581,29.50378],[78.20569,29.5038],[78.2054,29.50234],[78.20513,29.50203],[78.20435,29.50243],[78.20341,29.50249],[78.20298,29.5023],[78.20438,29.50428],[78.20418,29.5044],[78.20447,29.50486],[78.20441,29.50525],[78.20414,29.50559],[78.20375,29.50569],[78.20426,29.50649],[78.20506,29.50622],[78.20649,29.50761]]]}},{"type":"Feature","bbox":[78.20609,29.50733,78.20851,29.5113],"properties":{"ward":20,"name":"Afganan"},"geometry":{"type":"Polygon","coordinates":[[[78.20697,29.5113],[78.20823,29.51087],[78.20787,29.51003],[78.20799,29.50972],[78.20851,29.50935],[78.20728,29.50848],[78.20679,29.50789],[78.20733,29.5077],[78.20712,29.50733],[78.2062,29.50779],[78.20609,29.50803],[78.20615,29.50824],[78.20641,29.5082],[78.20638,29.50892],[78.20689,29.50979],[78.20669,29.51077],[78.20697,29.5113]]]}},{"type":"Feature","bbox":[78.19698,29.50594,78.2026,29.51128],"properties":{"ward":21,"name":"Ansariya"},"geometry":{"type":"Polygon","coordinates":[[[78.19926,29.51128],[78.19957,29.511],[78.19979,29.51039],[78.20071,29.50969],[78.20079,29.50916],[78.20105,29.50883],[78.2015,29.50856],[78.20219,29.50888],[78.2026,29.50866],[78.20208,29.50773],[78.20146,29.50703],[78.20096,29.50753],[78.20036,29.507],[78.19852,29.50785],[78.19799,29.50594],[78.19698,29.50634],[78.19745,29.50718],[78.19774,29.50829],[78.19829,29.5095],[78.19827,29.50976],[78.19926,29.51128]]]}},{"type":"Feature","bbox":[78.19926,29.50856,78.20416,29.51293],"properties":{"ward":22,"name":"Ahmad Khail"},"geometry":{"type":"Polygon","coordinates":[[[78.20015,29.51217],[78.20138,29.51293],[78.20216,29.51266],[78.20342,29.5116],[78.20416,29.51124],[78.20316,29.51026],[78.20219,29.50888],[78.2015,29.50856],[78.20087,29.50897],[78.20071,29.50969],[78.19979,29.51039],[78.19957,29.511],[78.19926,29.51128],[78.20015,29.51217]]]}},{"type":"Feature","bbox":[78.19459,29.50278,78.20147,29.50522],"properties":{"ward":23,"name":"Chauhanan"},"geometry":{"type":"Polygon","coordinates":[[[78.20059,29.50484],[78.2005,29.50454],[78.20147,29.50389],[78.20132,29.5037],[78.20043,29.50422],[78.20009,29.50333],[78.19459,29.50278],[78.19569,29.50438],[78.19607,29.50522],[78.1972,29.50492],[78.19748,29.50517],[78.19847,29.5049],[78.20059,29.50484]]]}},{"type":"Feature","bbox":[78.19344,29.50028,78.19723,29.50295],"properties":{"ward":24,"name":"Lukman Pura"},"geometry":{"type":"Polygon","coordinates":[[[78.19635,29.50295],[78.19652,29.50249],[78.19723,29.50154],[78.19662,29.50071],[78.1966,29.50028],[78.19569,29.50036],[78.19377,29.50151],[78.19344,29.5015],[78.19372,29.50197],[78.19414,29.50219],[78.19459,29.50278],[78.19635,29.50295]]]}},{"type":"Feature","bbox":[78.19635,29.50111,78.19883,29.50321],"properties":{"ward":25,"name":"Mitha Shaheed"},"geometry":{"type":"Polygon","coordinates":[[[78.19836,29.50111],[78.19765,29.50124],[78.19723,29.50154],[78.19652,29.50249],[78.19635,29.50295],[78.19883,29.50321],[78.19834,29.50217],[78.19859,29.5018],[78.19836,29.50111]]]}}]}