{"type":"FeatureCollection","features":[{"type":"Feature","bbox":[74.77089,24.03903,74.77705,24.04775],"properties":{"ward":1},"geometry":{"type":"Polygon","coordinates":[[[74.77454,24.03919],[74.77089,24.04574],[74.77245,24.04615],[74.77219,24.04769],[74.77388,24.04775],[74.77416,24.04716],[74.77469,24.04687],[74.77494,24.04598],[74.77573,24.04573],[74.77653,24.04282],[74.77705,24.03929],[74.7749,24.03903],[74.77454,24.03919]]]}},{"type":"Feature","bbox":[74.76171,24.04577,74.77243,24.05277],"properties":{"ward":2},"geometry":{"type":"Polygon","coordinates":[[[74.7709,24.04577],[74.77003,24.0472],[74.76787,24.04831],[74.76761,24.04881],[74.76621,24.04875],[74.76471,24.04934],[74.76171,24.04991],[74.76188,24.05018],[74.76374,24.05086],[74.76595,24.05146],[74.76667,24.05145],[74.76689,24.05266],[74.76895,24.05277],[74.76908,24.05128],[74.77123,24.0504],[74.77221,24.04774],[74.77243,24.04616],[74.7709,24.04577]]]}},{"type":"Feature","bbox":[74.73966,24.03946,74.77364,24.057],"properties":{"ward":3},"geometry":{"type":"Polygon","coordinates":[[[74.77364,24.04044],[74.75408,24.03946],[74.7517,24.04208],[74.75106,24.04328],[74.74753,24.04638],[74.73966,24.04923],[74.73969,24.05194],[74.73997,24.05351],[74.74128,24.05543],[74.74484,24.057],[74.74954,24.05429],[74.7526,24.05229],[74.75492,24.05153],[74.76052,24.05009],[74.76485,24.04928],[74.76622,24.04871],[74.76754,24.04878],[74.76775,24.04831],[74.76998,24.04712],[74.77364,24.04044]]]}},{"type":"Feature","bbox":[74.75336,24.03343,74.77656,24.04035],"properties":{"ward":4},"geometry":{"type":"Polygon","coordinates":[[[74.77656,24.03507],[74.77546,24.03398],[74.7746,24.03343],[74.77405,24.03517],[74.77357,24.0352],[74.77107,24.03631],[74.76722,24.03607],[74.76368,24.03639],[74.76173,24.03618],[74.76026,24.03649],[74.7578,24.03659],[74.755,24.03635],[74.75348,24.03642],[74.75336,24.03929],[74.77371,24.04035],[74.7746,24.03895],[74.77656,24.03507]]]}},{"type":"Feature","bbox":[74.76624,24.03092,74.7775,24.03624],"properties":{"ward":5},"geometry":{"type":"Polygon","coordinates":[[[74.7775,24.03352],[74.77597,24.03263],[74.77497,24.03264],[74.77478,24.03298],[74.7746,24.03299],[74.77427,24.03251],[74.77287,24.03194],[74.77284,24.03124],[74.77062,24.03092],[74.76933,24.03115],[74.76694,24.03092],[74.7665,24.03353],[74.76624,24.03429],[74.76629,24.03609],[74.76743,24.03602],[74.77105,24.03624],[74.77138,24.03614],[74.77407,24.03503],[74.7744,24.03358],[74.77463,24.03339],[74.77554,24.034],[74.77659,24.03503],[74.7775,24.03352]]]}},{"type":"Feature","bbox":[74.77293,24.03073,74.77439,24.03247],"properties":{"ward":6},"geometry":{"type":"Polygon","coordinates":[[[74.77439,24.03163],[74.77367,24.03143],[74.77376,24.03095],[74.77294,24.03073],[74.77293,24.03183],[74.77311,24.03206],[74.77432,24.03247],[74.77439,24.03163]]]}},{"type":"Feature","bbox":[74.77007,24.02562,74.77478,24.03155],"properties":{"ward":7},"geometry":{"type":"Polygon","coordinates":[[[74.77478,24.02902],[74.77337,24.02828],[74.7737,24.02704],[74.77296,24.02601],[74.77174,24.02563],[74.77056,24.02562],[74.77007,24.02585],[74.77047,24.02695],[74.77111,24.02725],[74.77092,24.02865],[74.77197,24.02929],[74.77282,24.02941],[74.77309,24.02963],[74.77296,24.03068],[74.77381,24.03094],[74.77372,24.03139],[74.77438,24.03155],[74.77433,24.02982],[74.77478,24.02902]]]}},{"type":"Feature","bbox":[74.76499,24.01747,74.77665,24.02852],"properties":{"ward":8},"geometry":{"type":"Polygon","coordinates":[[[74.76687,24.01882],[74.76569,24.02161],[74.76499,24.02395],[74.76697,24.02469],[74.76749,24.02455],[74.76876,24.02486],[74.76991,24.02561],[74.77101,24.02548],[74.77244,24.02566],[74.77327,24.02618],[74.77378,24.027],[74.7738,24.02738],[74.77472,24.02768],[74.77522,24.02834],[74.77665,24.02852],[74.77656,24.02821],[74.77622,24.02798],[74.77606,24.02742],[74.77394,24.02531],[74.77402,24.02505],[74.77556,24.02464],[74.77553,24.02321],[74.77501,24.02192],[74.77291,24.02032],[74.77303,24.01974],[74.77193,24.01894],[74.77249,24.01825],[74.77162,24.01769],[74.77075,24.01747],[74.76973,24.01786],[74.76929,24.01792],[74.76905,24.01776],[74.7681,24.01918],[74.76687,24.01882]]]}},{"type":"Feature","bbox":[74.77213,24.01512,74.77962,24.02887],"properties":{"ward":9},"geometry":{"type":"Polygon","coordinates":[[[74.77492,24.01512],[74.77213,24.01888],[74.77315,24.01968],[74.77306,24.02021],[74.77509,24.0218],[74.77561,24.02316],[74.7757,24.02465],[74.77404,24.0251],[74.77404,24.02534],[74.77603,24.02722],[74.77633,24.02804],[74.77677,24.02834],[74.7767,24.02858],[74.77891,24.02887],[74.77897,24.02344],[74.77962,24.02313],[74.77832,24.01933],[74.77583,24.01642],[74.77492,24.01512]]]}},{"type":"Feature","bbox":[74.77345,24.02744,74.77711,24.03001],"properties":{"ward":10},"geometry":{"type":"Polygon","coordinates":[[[74.77345,24.02821],[74.77505,24.02911],[74.77615,24.03001],[74.77637,24.02972],[74.77645,24.02912],[74.77701,24.02925],[74.77711,24.02875],[74.77519,24.0284],[74.77463,24.02769],[74.77415,24.0275],[74.77376,24.02744],[74.77345,24.02821]]]}},{"type":"Feature","bbox":[74.77439,24.02907,74.77553,24.03268],"properties":{"ward":11},"geometry":{"type":"Polygon","coordinates":[[[74.77453,24.03268],[74.77553,24.02958],[74.77483,24.02907],[74.77439,24.02988],[74.77439,24.03248],[74.77453,24.03268]]]}},{"type":"Feature","bbox":[74.77461,24.0296,74.7762,24.03288],"properties":{"ward":12},"geometry":{"type":"Polygon","coordinates":[[[74.77461,24.03277],[74.77471,24.03288],[74.77488,24.03268],[74.7762,24.03006],[74.77557,24.0296],[74.77461,24.03277]]]}},{"type":"Feature","bbox":[74.77496,24.03211,74.77839,24.03374],"properties":{"ward":13},"geometry":{"type":"Polygon","coordinates":[[[74.77496,24.0326],[74.77598,24.03262],[74.77716,24.03335],[74.77825,24.03374],[74.77839,24.03318],[74.77657,24.03254],[74.77519,24.03211],[74.77496,24.0326]]]}},{"type":"Feature","bbox":[74.77521,24.03016,74.77723,24.03242],"properties":{"ward":14},"geometry":{"type":"Polygon","coordinates":[[[74.77621,24.03016],[74.77521,24.03207],[74.7763,24.03242],[74.77667,24.03151],[74.77685,24.03157],[74.77723,24.03098],[74.77621,24.03016]]]}},{"type":"Feature","bbox":[74.77624,24.02914,74.77832,24.03145],"properties":{"ward":15},"geometry":{"type":"Polygon","coordinates":[[[74.77652,24.02914],[74.77624,24.03012],[74.77799,24.03145],[74.77818,24.03133],[74.77832,24.0309],[74.7769,24.03018],[74.77702,24.02927],[74.77652,24.02914]]]}},{"type":"Feature","bbox":[74.77695,24.02873,74.78061,24.03068],"properties":{"ward":16},"geometry":{"type":"Polygon","coordinates":[[[74.77695,24.03012],[74.77781,24.03068],[74.77823,24.02966],[74.78037,24.03008],[74.78061,24.02984],[74.77974,24.02928],[74.77911,24.02919],[74.7789,24.02892],[74.77717,24.02873],[74.77695,24.03012]]]}},{"type":"Feature","bbox":[74.77787,24.02972,74.77938,24.03151],"properties":{"ward":17},"geometry":{"type":"Polygon","coordinates":[[[74.77938,24.02991],[74.77823,24.02972],[74.77787,24.0307],[74.77839,24.03094],[74.77827,24.03131],[74.77936,24.03151],[74.77923,24.03071],[74.77938,24.02991]]]}},{"type":"Feature","bbox":[74.77632,24.03099,74.77816,24.03301],"properties":{"ward":18},"geometry":{"type":"Polygon","coordinates":[[[74.77632,24.03241],[74.77799,24.03301],[74.77816,24.03243],[74.77755,24.03212],[74.77796,24.03147],[74.77726,24.03099],[74.77687,24.0316],[74.77669,24.03153],[74.77632,24.03241]]]}},{"type":"Feature","bbox":[74.7776,24.03155,74.77959,24.03353],"properties":{"ward":19},"geometry":{"type":"Polygon","coordinates":[[[74.7776,24.03215],[74.77817,24.03239],[74.77802,24.03303],[74.77951,24.03353],[74.77943,24.0328],[74.77959,24.03245],[74.77796,24.03155],[74.7776,24.03215]]]}},{"type":"Feature","bbox":[74.77798,24.0299,74.78069,24.03266],"properties":{"ward":20},"geometry":{"type":"Polygon","coordinates":[[[74.77944,24.0299],[74.77927,24.03071],[74.77939,24.03153],[74.77826,24.03135],[74.77798,24.03152],[74.77879,24.03203],[74.78035,24.03266],[74.78037,24.03244],[74.7799,24.03227],[74.77991,24.03172],[74.78007,24.03179],[74.78069,24.03054],[74.7803,24.03014],[74.77944,24.0299]]]}},{"type":"Feature","bbox":[74.77993,24.0306,74.78109,24.0324],"properties":{"ward":21},"geometry":{"type":"Polygon","coordinates":[[[74.78072,24.0306],[74.78007,24.0318],[74.77993,24.03175],[74.78004,24.03236],[74.78038,24.0324],[74.78048,24.03156],[74.78101,24.03166],[74.78109,24.03153],[74.78072,24.0306]]]}},{"type":"Feature","bbox":[74.78036,24.02986,74.7813,24.03172],"properties":{"ward":22},"geometry":{"type":"Polygon","coordinates":[[[74.78036,24.03014],[74.78092,24.03086],[74.78105,24.03166],[74.7813,24.03172],[74.78123,24.03114],[74.78068,24.02986],[74.78036,24.03014]]]}},{"type":"Feature","bbox":[74.78039,24.0316,74.78148,24.03321],"properties":{"ward":23},"geometry":{"type":"Polygon","coordinates":[[[74.78101,24.03169],[74.78051,24.0316],[74.78039,24.03268],[74.78148,24.03321],[74.78146,24.03283],[74.781,24.03202],[74.78101,24.03169]]]}},{"type":"Feature","bbox":[74.77832,24.03248,74.78146,24.03446],"properties":{"ward":24},"geometry":{"type":"Polygon","coordinates":[[[74.7787,24.03446],[74.77978,24.03412],[74.78105,24.03404],[74.78141,24.03375],[74.78146,24.03329],[74.78066,24.03283],[74.77962,24.03248],[74.77948,24.03278],[74.77954,24.03359],[74.77843,24.0332],[74.77832,24.03374],[74.77862,24.03409],[74.7787,24.03446]]]}},{"type":"Feature","bbox":[74.77897,24.02326,74.78729,24.0336],"properties":{"ward":25},"geometry":{"type":"Polygon","coordinates":[[[74.77909,24.02346],[74.77897,24.02881],[74.77921,24.02914],[74.77983,24.02926],[74.78073,24.0299],[74.78135,24.0315],[74.7813,24.03176],[74.78105,24.03174],[74.78102,24.03192],[74.78155,24.03296],[74.78142,24.03356],[74.78164,24.0336],[74.78197,24.03299],[74.78406,24.03118],[74.78486,24.02991],[74.78608,24.02875],[74.78729,24.02724],[74.78635,24.02671],[74.78208,24.02497],[74.77979,24.02326],[74.77909,24.02346]]]}},{"type":"Feature","bbox":[74.77501,24.0118,74.78698,24.02673],"properties":{"ward":26},"geometry":{"type":"Polygon","coordinates":[[[74.77501,24.01495],[74.77571,24.01606],[74.77845,24.01927],[74.77976,24.02306],[74.78346,24.02546],[74.78691,24.02673],[74.78698,24.02661],[74.78651,24.02531],[74.78693,24.02306],[74.78567,24.01964],[74.78539,24.01826],[74.78551,24.01646],[74.78527,24.0118],[74.78366,24.01184],[74.77923,24.01294],[74.77501,24.01495]]]}},{"type":"Feature","bbox":[74.78549,24.01648,74.79365,24.02748],"properties":{"ward":27},"geometry":{"type":"Polygon","coordinates":[[[74.78706,24.02666],[74.78787,24.02738],[74.78846,24.02748],[74.7913,24.02711],[74.79178,24.02688],[74.7912,24.02522],[74.79277,24.02343],[74.79269,24.02262],[74.79223,24.02226],[74.79278,24.02107],[74.79273,24.01971],[74.79315,24.01947],[74.79361,24.01877],[74.79365,24.01704],[74.78566,24.01648],[74.78549,24.01812],[74.78566,24.01925],[74.78704,24.02326],[74.7866,24.02527],[74.78706,24.02666]]]}},{"type":"Feature","bbox":[74.79229,24.01658,74.79641,24.02346],"properties":{"ward":28},"geometry":{"type":"Polygon","coordinates":[[[74.79365,24.01693],[74.79365,24.01873],[74.79316,24.01951],[74.79278,24.01969],[74.79281,24.02108],[74.79229,24.02223],[74.79275,24.02263],[74.79286,24.02346],[74.79449,24.0229],[74.7956,24.02274],[74.7956,24.02151],[74.79641,24.02088],[74.79636,24.02049],[74.79588,24.02005],[74.79497,24.01988],[74.79533,24.01864],[74.7964,24.01728],[74.79634,24.01706],[74.79446,24.01658],[74.79395,24.01666],[74.79365,24.01693]]]}},{"type":"Feature","bbox":[74.7896,24.02282,74.79944,24.03073],"properties":{"ward":29},"geometry":{"type":"Polygon","coordinates":[[[74.79443,24.02302],[74.79254,24.02374],[74.79127,24.02523],[74.79192,24.02695],[74.79119,24.02729],[74.7896,24.02746],[74.79038,24.0299],[74.79046,24.03057],[74.79251,24.03073],[74.79473,24.03057],[74.79577,24.02804],[74.798,24.02831],[74.79858,24.02797],[74.79912,24.02676],[74.79944,24.02532],[74.79944,24.02422],[74.79907,24.02282],[74.79443,24.02302]]]}},{"type":"Feature","bbox":[74.78463,24.02735,74.79148,24.03335],"properties":{"ward":30},"geometry":{"type":"Polygon","coordinates":[[[74.78747,24.02735],[74.78463,24.03047],[74.78517,24.03068],[74.78524,24.03115],[74.78671,24.03086],[74.78705,24.03128],[74.78776,24.03157],[74.78826,24.03155],[74.78834,24.03239],[74.78946,24.03316],[74.79029,24.03335],[74.79117,24.03331],[74.79148,24.0328],[74.79087,24.0321],[74.79109,24.03139],[74.79016,24.0309],[74.79036,24.03058],[74.79029,24.0299],[74.78988,24.02895],[74.78953,24.02748],[74.78801,24.02759],[74.78747,24.02735]]]}},{"type":"Feature","bbox":[74.78185,24.03053,74.79127,24.03451],"properties":{"ward":31},"geometry":{"type":"Polygon","coordinates":[[[74.78185,24.03342],[74.78461,24.03362],[74.78835,24.03363],[74.79127,24.03451],[74.79116,24.03339],[74.79016,24.03336],[74.78909,24.033],[74.78821,24.03225],[74.78825,24.0316],[74.78765,24.03157],[74.78707,24.03133],[74.78671,24.03092],[74.78529,24.03122],[74.7851,24.03069],[74.78472,24.03053],[74.78458,24.03055],[74.78401,24.03145],[74.78248,24.03268],[74.78185,24.03342]]]}},{"type":"Feature","bbox":[74.78295,24.03362,74.79262,24.03796],"properties":{"ward":32},"geometry":{"type":"Polygon","coordinates":[[[74.78993,24.03785],[74.79182,24.03796],[74.79186,24.037],[74.79245,24.03597],[74.79262,24.03529],[74.79241,24.03498],[74.78819,24.03369],[74.78331,24.03362],[74.78295,24.03477],[74.78378,24.03492],[74.78491,24.03449],[74.78519,24.03508],[74.78554,24.03536],[74.7869,24.03544],[74.78853,24.03589],[74.78877,24.03689],[74.78993,24.03785]]]}},{"type":"Feature","bbox":[74.7838,24.03454,74.79023,24.03907],"properties":{"ward":33},"geometry":{"type":"Polygon","coordinates":[[[74.7838,24.03496],[74.78519,24.03579],[74.78692,24.03655],[74.78987,24.03907],[74.79023,24.03841],[74.78983,24.03778],[74.78873,24.03691],[74.78858,24.036],[74.7869,24.03547],[74.78544,24.03535],[74.78491,24.03454],[74.7838,24.03496]]]}},{"type":"Feature","bbox":[74.78332,24.03564,74.79078,24.04306],"properties":{"ward":34},"geometry":{"type":"Polygon","coordinates":[[[74.78476,24.03564],[74.78332,24.03811],[74.78391,24.03938],[74.78511,24.04306],[74.78687,24.04255],[74.78956,24.04117],[74.79078,24.04024],[74.78981,24.03915],[74.78736,24.03698],[74.78688,24.03662],[74.78476,24.03564]]]}},{"type":"Feature","bbox":[74.78151,24.03355,74.78474,24.03804],"properties":{"ward":35},"geometry":{"type":"Polygon","coordinates":[[[74.78185,24.03355],[74.78151,24.03401],[74.78191,24.03444],[74.78283,24.0372],[74.78332,24.03804],[74.78372,24.03758],[74.78474,24.03561],[74.78376,24.03498],[74.78289,24.03478],[74.78323,24.03364],[74.78185,24.03355]]]}},{"type":"Feature","bbox":[74.77881,24.03403,74.78504,24.0431],"properties":{"ward":36},"geometry":{"type":"Polygon","coordinates":[[[74.77881,24.03463],[74.77904,24.03597],[74.7798,24.03809],[74.77989,24.03965],[74.78048,24.03978],[74.7825,24.04113],[74.78504,24.0431],[74.78391,24.03959],[74.78286,24.0375],[74.78206,24.03492],[74.78169,24.03424],[74.78143,24.03403],[74.78098,24.03421],[74.77993,24.03422],[74.77881,24.03463]]]}},{"type":"Feature","bbox":[74.7766,24.03361,74.77981,24.03963],"properties":{"ward":37},"geometry":{"type":"Polygon","coordinates":[[[74.77753,24.03361],[74.7766,24.03519],[74.77725,24.03511],[74.77765,24.03699],[74.77825,24.03741],[74.77732,24.03927],[74.77981,24.03963],[74.77981,24.03837],[74.77921,24.03674],[74.77855,24.03405],[74.77839,24.03386],[74.77753,24.03361]]]}},{"type":"Feature","bbox":[74.77467,24.0352,74.77818,24.03928],"properties":{"ward":38},"geometry":{"type":"Polygon","coordinates":[[[74.77657,24.03526],[74.77529,24.03765],[74.77467,24.03894],[74.77724,24.03928],[74.77808,24.03768],[74.77818,24.03748],[74.77763,24.03703],[74.77721,24.0352],[74.77657,24.03526]]]}},{"type":"Feature","bbox":[74.78082,24.04016,74.78957,24.05237],"properties":{"ward":39},"geometry":{"type":"Polygon","coordinates":[[[74.78082,24.04016],[74.78143,24.04168],[74.78104,24.0438],[74.78269,24.04616],[74.78563,24.0488],[74.78662,24.05068],[74.78712,24.05237],[74.78957,24.05159],[74.78896,24.0496],[74.78668,24.04654],[74.78643,24.04563],[74.78509,24.04321],[74.78344,24.04182],[74.78082,24.04016]]]}},{"type":"Feature","bbox":[74.77387,24.03936,74.78668,24.05115],"properties":{"ward":40},"geometry":{"type":"Polygon","coordinates":[[[74.77714,24.03936],[74.77643,24.04352],[74.77573,24.04579],[74.77497,24.046],[74.77468,24.04694],[74.77415,24.04726],[74.77387,24.04784],[74.77572,24.04898],[74.77765,24.04966],[74.77957,24.05007],[74.7808,24.05017],[74.7833,24.05008],[74.78502,24.05075],[74.78668,24.05115],[74.78559,24.04887],[74.78255,24.04614],[74.781,24.04389],[74.78134,24.04173],[74.78068,24.04008],[74.78049,24.03988],[74.77714,24.03936]]]}}]}