{"type":"FeatureCollection","features":[{"type":"Feature","bbox":[77.40002,30.01243,77.40249,30.01533],"properties":{"ward":1,"name":"Afganan Purvi"},"geometry":{"type":"Polygon","coordinates":[[[77.40089,30.01243],[77.40002,30.01298],[77.40033,30.01409],[77.40134,30.01533],[77.40249,30.01476],[77.40244,30.01461],[77.40217,30.0147],[77.40205,30.01456],[77.40159,30.01452],[77.40214,30.01421],[77.40203,30.01293],[77.4014,30.01316],[77.40089,30.01243]]]}},{"type":"Feature","bbox":[77.40137,30.0149,77.40342,30.01707],"properties":{"ward":2,"name":"Afganan Purvi Middle"},"geometry":{"type":"Polygon","coordinates":[[[77.4023,30.0149],[77.40137,30.01537],[77.40254,30.01707],[77.40342,30.01683],[77.40327,30.01635],[77.40276,30.01583],[77.40302,30.01564],[77.40258,30.01515],[77.4023,30.0149]]]}},{"type":"Feature","bbox":[77.39776,30.01397,77.40024,30.01518],"properties":{"ward":3,"name":"Harijanan"},"geometry":{"type":"Polygon","coordinates":[[[77.39776,30.01475],[77.39891,30.01518],[77.40012,30.01497],[77.40024,30.01406],[77.39934,30.01451],[77.39923,30.01432],[77.39937,30.01397],[77.39876,30.01429],[77.39788,30.01424],[77.39776,30.01475]]]}},{"type":"Feature","bbox":[77.39482,30.00461,77.40021,30.01447],"properties":{"ward":4,"name":"Harijanan1"},"geometry":{"type":"Polygon","coordinates":[[[77.39939,30.01013],[77.39676,30.00461],[77.39482,30.00579],[77.39519,30.00694],[77.39529,30.00783],[77.39654,30.0108],[77.39691,30.01127],[77.39759,30.01159],[77.3982,30.01145],[77.39844,30.01216],[77.39804,30.01311],[77.39787,30.01421],[77.39871,30.01426],[77.39938,30.01394],[77.39926,30.01431],[77.39936,30.01447],[77.40021,30.01404],[77.39939,30.01013]]]}},{"type":"Feature","bbox":[77.40237,30.00992,77.40941,30.01678],"properties":{"ward":5,"name":"Affganan Purvi1"},"geometry":{"type":"Polygon","coordinates":[[[77.40646,30.01349],[77.40941,30.01231],[77.40887,30.01125],[77.40776,30.00992],[77.40679,30.01092],[77.40585,30.01153],[77.40659,30.01317],[77.40645,30.01338],[77.40376,30.01433],[77.40329,30.01371],[77.40307,30.01371],[77.40306,30.01399],[77.40286,30.01408],[77.40237,30.01489],[77.4031,30.01564],[77.40285,30.01584],[77.40344,30.01648],[77.40347,30.01673],[77.40364,30.01678],[77.40756,30.01595],[77.40772,30.01586],[77.40646,30.01349]]]}},{"type":"Feature","bbox":[77.39482,30.00461,77.40021,30.01447],"properties":{"ward":6,"name":"Affganan Purvi1"},"geometry":{"type":"Polygon","coordinates":[[[77.39939,30.01013],[77.39676,30.00461],[77.39482,30.00579],[77.39519,30.00694],[77.39529,30.00783],[77.39654,30.0108],[77.39691,30.01127],[77.39759,30.01159],[77.3982,30.01145],[77.39844,30.01216],[77.39804,30.01311],[77.39787,30.01421],[77.39871,30.01426],[77.39938,30.01394],[77.39926,30.01431],[77.39936,30.01447],[77.40021,30.01404],[77.39939,30.01013]]]}},{"type":"Feature","bbox":[77.39977,30.01404,77.40123,30.01601],"properties":{"ward":7,"name":"Affganan Pachmi"},"geometry":{"type":"Polygon","coordinates":[[[77.40004,30.0159],[77.40074,30.01601],[77.4006,30.01564],[77.40123,30.01532],[77.40026,30.01404],[77.40016,30.015],[77.39977,30.01509],[77.40004,30.0159]]]}},{"type":"Feature","bbox":[77.39349,30.0121,77.39836,30.01458],"properties":{"ward":8,"name":"Harijanan2"},"geometry":{"type":"Polygon","coordinates":[[[77.39402,30.01423],[77.39769,30.01458],[77.39789,30.01309],[77.39836,30.01224],[77.39758,30.01233],[77.3964,30.0121],[77.39518,30.01263],[77.39486,30.01303],[77.39467,30.01286],[77.39417,30.01318],[77.39349,30.01334],[77.39402,30.01423]]]}},{"type":"Feature","bbox":[77.40656,30.01235,77.41477,30.01803],"properties":{"ward":9,"name":"Bazar1"},"geometry":{"type":"Polygon","coordinates":[[[77.40788,30.01593],[77.40713,30.01616],[77.41137,30.01803],[77.41477,30.01616],[77.41448,30.01568],[77.41398,30.01594],[77.41376,30.01554],[77.4142,30.01525],[77.41265,30.01241],[77.41196,30.01274],[77.41178,30.01235],[77.40975,30.01298],[77.40942,30.01244],[77.40656,30.01348],[77.40788,30.01593]]]}},{"type":"Feature","bbox":[77.3994,30.01667,77.40376,30.02199],"properties":{"ward":10,"name":"Bazar2"},"geometry":{"type":"Polygon","coordinates":[[[77.3994,30.01926],[77.40061,30.02199],[77.40153,30.02174],[77.40212,30.02131],[77.40172,30.02054],[77.4029,30.01984],[77.40376,30.02075],[77.40305,30.0197],[77.40345,30.01946],[77.40323,30.01924],[77.40269,30.01955],[77.40248,30.0194],[77.40141,30.01756],[77.40161,30.01742],[77.4013,30.01667],[77.40045,30.01713],[77.40062,30.01795],[77.40022,30.01824],[77.3994,30.01926]]]}},{"type":"Feature","bbox":[77.4015,30.01714,77.40487,30.02102],"properties":{"ward":11,"name":"Bazar3"},"geometry":{"type":"Polygon","coordinates":[[[77.4015,30.01757],[77.40269,30.0195],[77.40325,30.01918],[77.40352,30.01946],[77.40312,30.01973],[77.4039,30.02091],[77.40405,30.02102],[77.40487,30.02072],[77.40414,30.01923],[77.40317,30.01819],[77.40265,30.01714],[77.4015,30.01757]]]}},{"type":"Feature","bbox":[77.39501,30.01845,77.40108,30.02386],"properties":{"ward":12,"name":"Kassavan"},"geometry":{"type":"Polygon","coordinates":[[[77.39933,30.01927],[77.39809,30.0206],[77.39781,30.02029],[77.39719,30.01845],[77.39501,30.01928],[77.39618,30.02106],[77.39572,30.02138],[77.39584,30.02189],[77.3968,30.02217],[77.39756,30.02267],[77.3984,30.02192],[77.39855,30.02249],[77.39835,30.02348],[77.39843,30.02386],[77.40017,30.02358],[77.40108,30.02315],[77.39933,30.01927]]]}},{"type":"Feature","bbox":[77.39875,30.0151,77.40004,30.01628],"properties":{"ward":13,"name":"Banjaran"},"geometry":{"type":"Polygon","coordinates":[[[77.40004,30.01604],[77.39971,30.0151],[77.39875,30.0152],[77.39915,30.01628],[77.40004,30.01604]]]}},{"type":"Feature","bbox":[77.40068,30.0154,77.40241,30.01738],"properties":{"ward":14,"name":"Bazar4"},"geometry":{"type":"Polygon","coordinates":[[[77.40241,30.01712],[77.40118,30.0154],[77.40068,30.01563],[77.4009,30.01613],[77.40135,30.01658],[77.40168,30.01738],[77.40241,30.01712]]]}},{"type":"Feature","bbox":[77.39217,30.01433,77.39744,30.01561],"properties":{"ward":15,"name":"Mirdhan"},"geometry":{"type":"Polygon","coordinates":[[[77.39732,30.01459],[77.39407,30.01433],[77.39309,30.01446],[77.39217,30.0148],[77.39241,30.01517],[77.39297,30.01481],[77.39385,30.01455],[77.39411,30.01455],[77.39439,30.01491],[77.3962,30.01479],[77.39656,30.01549],[77.39687,30.0154],[77.39711,30.01561],[77.39744,30.0152],[77.39732,30.01459]]]}},{"type":"Feature","bbox":[77.4028,30.01671,77.40806,30.02366],"properties":{"ward":16,"name":"Bazar5"},"geometry":{"type":"Polygon","coordinates":[[[77.40497,30.01671],[77.4028,30.01721],[77.40331,30.01817],[77.40419,30.01918],[77.40498,30.02076],[77.40506,30.02124],[77.40481,30.02239],[77.40505,30.0223],[77.40582,30.02344],[77.40704,30.02304],[77.40747,30.02366],[77.40806,30.02311],[77.40703,30.02172],[77.40446,30.01701],[77.40502,30.01687],[77.40497,30.01671]]]}},{"type":"Feature","bbox":[77.3981,30.01734,77.39994,30.0191],"properties":{"ward":17,"name":"Kassavan1"},"geometry":{"type":"Polygon","coordinates":[[[77.3981,30.01759],[77.39828,30.01792],[77.39884,30.01784],[77.39946,30.0191],[77.39994,30.01847],[77.39932,30.01734],[77.3981,30.01759]]]}},{"type":"Feature","bbox":[77.39656,30.01458,77.39823,30.01685],"properties":{"ward":18,"name":"Kajiyan"},"geometry":{"type":"Polygon","coordinates":[[[77.39735,30.01458],[77.39747,30.01521],[77.39723,30.01538],[77.39729,30.01563],[77.39685,30.01544],[77.39656,30.01553],[77.39705,30.01657],[77.39732,30.01647],[77.39752,30.01685],[77.39823,30.01657],[77.39766,30.01547],[77.39772,30.01476],[77.39735,30.01458]]]}},{"type":"Feature","bbox":[77.39754,30.01608,77.3991,30.01725],"properties":{"ward":19,"name":"Kanoongoyan"},"geometry":{"type":"Polygon","coordinates":[[[77.39896,30.01608],[77.39812,30.01638],[77.39829,30.01658],[77.39754,30.01689],[77.39764,30.01713],[77.39808,30.01699],[77.39816,30.01725],[77.39894,30.01685],[77.3991,30.0166],[77.39896,30.01608]]]}},{"type":"Feature","bbox":[77.3936,30.01653,77.39801,30.0197],"properties":{"ward":20,"name":"Hajara"},"geometry":{"type":"Polygon","coordinates":[[[77.39731,30.01653],[77.39538,30.01726],[77.39546,30.0177],[77.39503,30.01788],[77.39515,30.01811],[77.39495,30.01821],[77.39508,30.01849],[77.39447,30.01865],[77.3936,30.01918],[77.39385,30.0197],[77.39497,30.01919],[77.3963,30.01882],[77.39716,30.0184],[77.398,30.0177],[77.39801,30.01748],[77.39766,30.0174],[77.39731,30.01653]]]}},{"type":"Feature","bbox":[77.39773,30.01484,77.39892,30.01634],"properties":{"ward":21,"name":"Mirdhan"},"geometry":{"type":"Polygon","coordinates":[[[77.39784,30.01484],[77.39773,30.0156],[77.3981,30.01634],[77.39892,30.01606],[77.39869,30.01522],[77.39784,30.01484]]]}},{"type":"Feature","bbox":[77.39722,30.01773,77.39936,30.02048],"properties":{"ward":22,"name":"Kassavan2"},"geometry":{"type":"Polygon","coordinates":[[[77.39806,30.01773],[77.39722,30.01842],[77.39784,30.02024],[77.39807,30.02048],[77.39936,30.01909],[77.39879,30.0179],[77.39827,30.01797],[77.39806,30.01773]]]}},{"type":"Feature","bbox":[77.40461,30.01621,77.40826,30.01759],"properties":{"ward":23,"name":"Bazar6"},"geometry":{"type":"Polygon","coordinates":[[[77.40506,30.01668],[77.40513,30.0169],[77.40461,30.01704],[77.40494,30.01759],[77.40826,30.01674],[77.40701,30.01621],[77.40506,30.01668]]]}},{"type":"Feature","bbox":[77.39759,30.01623,77.40054,30.01837],"properties":{"ward":24,"name":"Kanoongoyan1"},"geometry":{"type":"Polygon","coordinates":[[[77.39806,30.01704],[77.39759,30.01717],[77.39769,30.01737],[77.39808,30.01752],[77.39934,30.01729],[77.39998,30.01837],[77.40054,30.01784],[77.40037,30.01713],[77.39997,30.01718],[77.39961,30.01623],[77.39915,30.01634],[77.39917,30.01661],[77.39897,30.01688],[77.39811,30.0173],[77.39806,30.01704]]]}},{"type":"Feature","bbox":[77.39964,30.01598,77.40129,30.01714],"properties":{"ward":25,"name":"Choudhriyan"},"geometry":{"type":"Polygon","coordinates":[[[77.40083,30.0161],[77.40027,30.01598],[77.39964,30.01623],[77.40005,30.01714],[77.401,30.01686],[77.40129,30.01663],[77.40083,30.0161]]]}}]}