{"type":"FeatureCollection","features":[{"type":"Feature","bbox":[74.05013,24.83791,74.08026,24.8509],"properties":{"ward":1,"name":"Gadri Mohalla"},"geometry":{"type":"Polygon","coordinates":[[[74.07698,24.84889],[74.07737,24.84431],[74.08026,24.84386],[74.07762,24.84214],[74.07708,24.84014],[74.07732,24.83982],[74.07836,24.83943],[74.07833,24.83884],[74.07744,24.83791],[74.07491,24.83809],[74.07205,24.83881],[74.07247,24.84032],[74.0662,24.8419],[74.0606,24.84201],[74.05923,24.84222],[74.05687,24.843],[74.05013,24.84323],[74.05219,24.84757],[74.05284,24.84858],[74.0594,24.84747],[74.06542,24.84921],[74.06667,24.84793],[74.06924,24.8478],[74.07048,24.84915],[74.07101,24.84947],[74.072,24.84926],[74.07244,24.84934],[74.07261,24.84955],[74.07252,24.84989],[74.07206,24.85012],[74.0718,24.85059],[74.07199,24.8509],[74.07698,24.84889]]]}},{"type":"Feature","bbox":[74.05946,24.83328,74.07836,24.84201],"properties":{"ward":2,"name":"Gajnand Ji Mandir"},"geometry":{"type":"Polygon","coordinates":[[[74.07727,24.83793],[74.07741,24.83699],[74.07836,24.83655],[74.07817,24.83592],[74.07729,24.83598],[74.07559,24.83681],[74.07244,24.83515],[74.07,24.83414],[74.06771,24.83375],[74.06375,24.83328],[74.06157,24.8335],[74.06079,24.83394],[74.05946,24.83544],[74.05988,24.83666],[74.06167,24.83683],[74.06279,24.84049],[74.06155,24.841],[74.0606,24.84201],[74.0662,24.8419],[74.07247,24.84032],[74.07205,24.83881],[74.07491,24.83809],[74.07727,24.83793]]]}},{"type":"Feature","bbox":[74.05674,24.82179,74.07894,24.83681],"properties":{"ward":3,"name":"Yadav Mohalla"},"geometry":{"type":"Polygon","coordinates":[[[74.07894,24.8341],[74.07849,24.83259],[74.07779,24.83271],[74.07731,24.83301],[74.07676,24.83303],[74.07627,24.83227],[74.07568,24.83181],[74.07522,24.83179],[74.0744,24.82866],[74.06976,24.82179],[74.06771,24.82266],[74.06545,24.82284],[74.06497,24.82182],[74.06416,24.82203],[74.06268,24.82275],[74.05965,24.82324],[74.05895,24.82459],[74.05744,24.82474],[74.05683,24.82503],[74.05674,24.826],[74.05718,24.82648],[74.05735,24.82865],[74.05887,24.82827],[74.05936,24.82855],[74.05976,24.8291],[74.06058,24.82922],[74.06154,24.83203],[74.06157,24.8335],[74.06375,24.83328],[74.07,24.83414],[74.07244,24.83515],[74.07559,24.83681],[74.07729,24.83598],[74.07821,24.83592],[74.07833,24.835],[74.07894,24.8341]]]}},{"type":"Feature","bbox":[74.0744,24.81958,74.0892,24.83756],"properties":{"ward":4,"name":"Bafna Ka Mohalla"},"geometry":{"type":"Polygon","coordinates":[[[74.0744,24.82866],[74.07522,24.83179],[74.07568,24.83181],[74.07627,24.83227],[74.07676,24.83303],[74.07731,24.83301],[74.07779,24.83271],[74.07849,24.83259],[74.07894,24.8341],[74.07955,24.83393],[74.08011,24.8342],[74.08062,24.83476],[74.08071,24.83515],[74.08011,24.83539],[74.08023,24.83693],[74.0805,24.83735],[74.08107,24.83708],[74.08136,24.83756],[74.08288,24.83711],[74.08294,24.83724],[74.08347,24.83438],[74.0849,24.82985],[74.0892,24.82302],[74.08214,24.81958],[74.08214,24.82105],[74.08133,24.82105],[74.08145,24.82397],[74.08071,24.82745],[74.07955,24.82756],[74.07949,24.8267],[74.07797,24.82474],[74.07622,24.82762],[74.0744,24.82866]]]}},{"type":"Feature","bbox":[74.0531,24.79929,74.08214,24.83424],"properties":{"ward":5,"name":"Bhil Mohalla"},"geometry":{"type":"Polygon","coordinates":[[[74.08092,24.8143],[74.07838,24.8137],[74.07503,24.81321],[74.07546,24.81039],[74.07553,24.80879],[74.07532,24.80625],[74.07571,24.804],[74.07646,24.80165],[74.07445,24.80174],[74.07286,24.8016],[74.06817,24.80072],[74.06674,24.8006],[74.0652,24.8007],[74.06296,24.79929],[74.06248,24.79954],[74.06236,24.8],[74.06288,24.80141],[74.06278,24.80232],[74.06211,24.80369],[74.06215,24.80428],[74.06286,24.80548],[74.06282,24.80596],[74.06105,24.80759],[74.06152,24.81013],[74.05863,24.81245],[74.05829,24.81329],[74.05643,24.81306],[74.05577,24.81313],[74.05534,24.81351],[74.05512,24.81468],[74.0541,24.81566],[74.05415,24.81646],[74.05543,24.81782],[74.0556,24.82306],[74.05448,24.82356],[74.05367,24.82629],[74.0541,24.82767],[74.05377,24.82919],[74.0531,24.82993],[74.0532,24.83041],[74.05391,24.83126],[74.05384,24.83379],[74.05403,24.8341],[74.05462,24.83424],[74.055,24.834],[74.05515,24.83372],[74.05519,24.83222],[74.05472,24.83126],[74.05519,24.83024],[74.05527,24.82946],[74.0555,24.82889],[74.05493,24.82789],[74.05479,24.82715],[74.055,24.82553],[74.0556,24.82534],[74.05636,24.82463],[74.05676,24.82301],[74.05726,24.82191],[74.05812,24.82175],[74.05836,24.82139],[74.05822,24.8207],[74.05831,24.81996],[74.05872,24.81961],[74.05941,24.81961],[74.05995,24.81987],[74.06062,24.82156],[74.06081,24.8216],[74.06076,24.81918],[74.06257,24.81849],[74.06248,24.81994],[74.06362,24.82113],[74.06416,24.82203],[74.06497,24.82182],[74.06545,24.82284],[74.06771,24.82266],[74.06976,24.82179],[74.0744,24.82866],[74.07622,24.82762],[74.07797,24.82474],[74.07949,24.8267],[74.07955,24.82756],[74.08071,24.82745],[74.08145,24.82397],[74.08133,24.82105],[74.08214,24.82105],[74.08214,24.81958],[74.08127,24.8184],[74.08113,24.81775],[74.0809,24.81606],[74.08092,24.8143]]]}},{"type":"Feature","bbox":[74.07503,24.80165,74.08272,24.8143],"properties":{"ward":6,"name":"Kumar Ka Mohalla"},"geometry":{"type":"Polygon","coordinates":[[[74.07646,24.80165],[74.07571,24.804],[74.07532,24.80625],[74.07553,24.80879],[74.07546,24.81039],[74.07503,24.81321],[74.07838,24.8137],[74.08092,24.8143],[74.08208,24.81066],[74.08223,24.80932],[74.08183,24.80818],[74.08272,24.80675],[74.08106,24.80622],[74.07933,24.80251],[74.07776,24.80182],[74.07646,24.80165]]]}},{"type":"Feature","bbox":[74.08087,24.80675,74.08832,24.81975],"properties":{"ward":7,"name":"Jinger Ka Mohalla"},"geometry":{"type":"Polygon","coordinates":[[[74.0881,24.81166],[74.08832,24.81098],[74.08416,24.80722],[74.08272,24.80675],[74.08183,24.80818],[74.08223,24.80932],[74.08208,24.81066],[74.08087,24.81443],[74.0809,24.81606],[74.08127,24.8184],[74.08214,24.81958],[74.08258,24.81975],[74.08381,24.81712],[74.08507,24.81558],[74.08545,24.81532],[74.08583,24.81365],[74.08674,24.81103],[74.0881,24.81166]]]}},{"type":"Feature","bbox":[74.08258,24.81564,74.09619,24.82385],"properties":{"ward":8,"name":"Bassi Ka Mohalla"},"geometry":{"type":"Polygon","coordinates":[[[74.09549,24.81812],[74.09052,24.81724],[74.08503,24.81564],[74.08338,24.81781],[74.08336,24.81827],[74.08258,24.81975],[74.08848,24.82271],[74.09114,24.82385],[74.09362,24.82379],[74.09357,24.82337],[74.09308,24.82262],[74.0945,24.82175],[74.09432,24.82135],[74.09619,24.82008],[74.09549,24.81812]]]}},{"type":"Feature","bbox":[74.08503,24.81103,74.09393,24.8176],"properties":{"ward":9,"name":"Khatik Mohalla"},"geometry":{"type":"Polygon","coordinates":[[[74.09393,24.81429],[74.08674,24.81103],[74.08583,24.81365],[74.08545,24.81532],[74.08503,24.81564],[74.09212,24.8176],[74.09239,24.81644],[74.09293,24.81594],[74.09393,24.81429]]]}},{"type":"Feature","bbox":[74.09212,24.81429,74.0955,24.81781],"properties":{"ward":10,"name":"Augra Ka Kheda"},"geometry":{"type":"Polygon","coordinates":[[[74.09212,24.8176],[74.09406,24.81781],[74.0955,24.81496],[74.09393,24.81429],[74.09293,24.81594],[74.09239,24.81644],[74.09212,24.8176]]]}},{"type":"Feature","bbox":[74.09406,24.81496,74.09861,24.81821],"properties":{"ward":11,"name":"Indira Colony"},"geometry":{"type":"Polygon","coordinates":[[[74.0982,24.815],[74.09687,24.8152],[74.0955,24.81496],[74.09406,24.81781],[74.09549,24.81812],[74.0985,24.81821],[74.09861,24.81596],[74.09849,24.8154],[74.0982,24.815]]]}},{"type":"Feature","bbox":[74.0881,24.80605,74.09598,24.81496],"properties":{"ward":12,"name":"Brahm Puri"},"geometry":{"type":"Polygon","coordinates":[[[74.09075,24.80605],[74.0881,24.81166],[74.0955,24.81496],[74.09598,24.81378],[74.09381,24.81283],[74.09329,24.81283],[74.09272,24.81136],[74.09154,24.8114],[74.09158,24.80959],[74.09231,24.8095],[74.09075,24.80605]]]}},{"type":"Feature","bbox":[74.08963,24.80213,74.09556,24.8135],"properties":{"ward":13,"name":"Ambesh Colony"},"geometry":{"type":"Polygon","coordinates":[[[74.09554,24.81275],[74.09556,24.80973],[74.09392,24.80916],[74.09394,24.80817],[74.09375,24.80746],[74.09299,24.80687],[74.09311,24.80213],[74.09215,24.80291],[74.08963,24.80353],[74.09231,24.8095],[74.09158,24.80959],[74.09154,24.8114],[74.09272,24.81136],[74.09329,24.81283],[74.09381,24.81283],[74.0954,24.8135],[74.09554,24.81275]]]}},{"type":"Feature","bbox":[74.09299,24.80013,74.103,24.81319],"properties":{"ward":14,"name":"Janta Colony"},"geometry":{"type":"Polygon","coordinates":[[[74.10244,24.8038],[74.103,24.80151],[74.10255,24.80139],[74.10205,24.80091],[74.09943,24.80063],[74.0991,24.80013],[74.09877,24.80022],[74.09901,24.8012],[74.0967,24.80141],[74.09579,24.80134],[74.09408,24.80163],[74.09365,24.80151],[74.09311,24.80213],[74.09299,24.80687],[74.09375,24.80746],[74.09394,24.80817],[74.09392,24.80916],[74.09556,24.80973],[74.09554,24.81275],[74.09695,24.81319],[74.09744,24.81207],[74.09862,24.81203],[74.09868,24.80971],[74.09931,24.80878],[74.10139,24.8039],[74.10244,24.8038]]]}},{"type":"Feature","bbox":[74.0954,24.81275,74.09758,24.8152],"properties":{"ward":15,"name":"Jatiya Mohalla"},"geometry":{"type":"Polygon","coordinates":[[[74.09554,24.81275],[74.0954,24.8135],[74.09598,24.81378],[74.0955,24.81496],[74.09687,24.8152],[74.09755,24.81451],[74.09758,24.81381],[74.09692,24.81318],[74.09554,24.81275]]]}},{"type":"Feature","bbox":[74.09687,24.8038,74.10491,24.8152],"properties":{"ward":16,"name":"Pipli Chok"},"geometry":{"type":"Polygon","coordinates":[[[74.10244,24.8038],[74.10139,24.8039],[74.09931,24.80878],[74.09868,24.80971],[74.09862,24.81203],[74.09744,24.81207],[74.09692,24.81318],[74.09741,24.81351],[74.09758,24.81416],[74.09738,24.8148],[74.09687,24.8152],[74.09782,24.81515],[74.10387,24.81256],[74.10491,24.81039],[74.10411,24.8067],[74.10244,24.8038]]]}},{"type":"Feature","bbox":[74.0982,24.81318,74.10356,24.8187],"properties":{"ward":17,"name":"Yadav Mohalla"},"geometry":{"type":"Polygon","coordinates":[[[74.10233,24.81318],[74.0982,24.815],[74.09849,24.8154],[74.09861,24.81596],[74.0985,24.81821],[74.10356,24.8187],[74.10328,24.81787],[74.10292,24.81469],[74.10233,24.81318]]]}},{"type":"Feature","bbox":[74.10233,24.81039,74.11339,24.81955],"properties":{"ward":18,"name":"Entali Chorya"},"geometry":{"type":"Polygon","coordinates":[[[74.10491,24.81039],[74.10387,24.81256],[74.10233,24.81318],[74.10292,24.81469],[74.10328,24.81787],[74.10356,24.8187],[74.11339,24.81955],[74.11272,24.81837],[74.11091,24.81675],[74.10958,24.81514],[74.10844,24.81333],[74.10711,24.81161],[74.10578,24.81073],[74.10491,24.81039]]]}},{"type":"Feature","bbox":[74.09308,24.81812,74.11396,24.82917],"properties":{"ward":19,"name":"Roadways Bus Stand"},"geometry":{"type":"Polygon","coordinates":[[[74.11,24.82613],[74.11218,24.82427],[74.11268,24.82306],[74.11375,24.8217],[74.11396,24.82056],[74.11339,24.81955],[74.09891,24.81823],[74.09549,24.81812],[74.09619,24.82008],[74.09432,24.82135],[74.0945,24.82175],[74.09308,24.82262],[74.09357,24.82337],[74.09362,24.82379],[74.09496,24.82364],[74.09723,24.82291],[74.10033,24.82164],[74.10331,24.82317],[74.10471,24.82591],[74.10513,24.82917],[74.10591,24.82887],[74.11,24.82613]]]}},{"type":"Feature","bbox":[74.08294,24.82164,74.10591,24.84006],"properties":{"ward":20,"name":"Heerawas"},"geometry":{"type":"Polygon","coordinates":[[[74.10445,24.83681],[74.10591,24.82887],[74.10513,24.82917],[74.10471,24.82591],[74.10331,24.82317],[74.10033,24.82164],[74.09723,24.82291],[74.09496,24.82364],[74.09311,24.82385],[74.09114,24.82385],[74.0892,24.82302],[74.0849,24.82985],[74.08347,24.83438],[74.08294,24.83724],[74.08315,24.83765],[74.08577,24.83741],[74.08592,24.8386],[74.08788,24.83821],[74.09201,24.83797],[74.09433,24.83848],[74.0963,24.83964],[74.09862,24.84006],[74.09912,24.83988],[74.09963,24.83943],[74.10013,24.83866],[74.10004,24.83756],[74.09906,24.83723],[74.099,24.83646],[74.10355,24.83649],[74.10445,24.83681]]]}},{"type":"Feature","bbox":[74.07698,24.83646,74.10679,24.86101],"properties":{"ward":21,"name":"Prema Nagar"},"geometry":{"type":"Polygon","coordinates":[[[74.10445,24.83681],[74.10355,24.83649],[74.099,24.83646],[74.09906,24.83723],[74.10004,24.83756],[74.10013,24.83866],[74.09963,24.83943],[74.09912,24.83988],[74.09862,24.84006],[74.0963,24.83964],[74.09433,24.83848],[74.09201,24.83797],[74.08788,24.83821],[74.08592,24.8386],[74.08577,24.83741],[74.08315,24.83765],[74.08288,24.83711],[74.08136,24.83756],[74.08107,24.83708],[74.0805,24.83735],[74.08071,24.838],[74.08044,24.83869],[74.08238,24.84232],[74.08083,24.84377],[74.07737,24.84431],[74.07698,24.84889],[74.08133,24.84888],[74.08527,24.85075],[74.08605,24.85177],[74.08622,24.85273],[74.08611,24.85315],[74.08364,24.85473],[74.08179,24.85554],[74.08114,24.85623],[74.08116,24.85813],[74.08661,24.85977],[74.09137,24.86091],[74.09422,24.86101],[74.09508,24.86006],[74.09756,24.86063],[74.10289,24.85815],[74.1027,24.85654],[74.10422,24.85568],[74.10565,24.85073],[74.10679,24.8494],[74.1065,24.84721],[74.10479,24.84407],[74.10445,24.83681]]]}},{"type":"Feature","bbox":[74.07708,24.83839,74.08238,24.84386],"properties":{"ward":22,"name":"Adarsh Colony"},"geometry":{"type":"Polygon","coordinates":[[[74.08044,24.83869],[74.07919,24.83839],[74.07822,24.83873],[74.07836,24.83943],[74.07732,24.83982],[74.07708,24.84014],[74.07762,24.84214],[74.08026,24.84386],[74.08083,24.84377],[74.08238,24.84232],[74.08044,24.83869]]]}},{"type":"Feature","bbox":[74.07727,24.83655,74.07919,24.83873],"properties":{"ward":23,"name":"Sanjay Basti"},"geometry":{"type":"Polygon","coordinates":[[[74.07919,24.83839],[74.07917,24.83755],[74.07891,24.83694],[74.07836,24.83655],[74.07741,24.83699],[74.07727,24.83793],[74.07744,24.83791],[74.07822,24.83873],[74.07919,24.83839]]]}},{"type":"Feature","bbox":[74.07892,24.83693,74.08071,24.83869],"properties":{"ward":24,"name":"Nanesh Colony"},"geometry":{"type":"Polygon","coordinates":[[[74.08023,24.83693],[74.07892,24.83696],[74.07917,24.83755],[74.07919,24.83839],[74.08044,24.83869],[74.08071,24.838],[74.08023,24.83693]]]}},{"type":"Feature","bbox":[74.07817,24.83393,74.08071,24.83696],"properties":{"ward":25,"name":"Kalki Magri"},"geometry":{"type":"Polygon","coordinates":[[[74.08023,24.83693],[74.08011,24.83539],[74.08071,24.83515],[74.08062,24.83476],[74.08011,24.8342],[74.07955,24.83393],[74.07892,24.83411],[74.07833,24.835],[74.07817,24.83592],[74.07836,24.83655],[74.07892,24.83696],[74.08023,24.83693]]]}}]}