{"type":"FeatureCollection","features":[{"type":"Feature","bbox":[77.29293,29.27777,77.29536,29.28051],"properties":{"ward":1,"name":"01 Area"},"geometry":{"type":"Polygon","coordinates":[[[77.29293,29.27844],[77.29307,29.27892],[77.29393,29.27993],[77.2942,29.28012],[77.29471,29.2801],[77.29483,29.28051],[77.29536,29.28038],[77.295,29.27926],[77.29502,29.2789],[77.29523,29.27878],[77.29469,29.27777],[77.29293,29.27844]]]}},{"type":"Feature","bbox":[77.29507,29.27748,77.29779,29.28112],"properties":{"ward":2},"geometry":{"type":"Polygon","coordinates":[[[77.29779,29.28024],[77.29695,29.27907],[77.29658,29.2779],[77.29633,29.278],[77.29587,29.27748],[77.29534,29.27781],[77.29597,29.279],[77.29507,29.27936],[77.29539,29.28052],[77.29556,29.28033],[77.296,29.28026],[77.29617,29.28112],[77.29779,29.28024]]]}},{"type":"Feature","bbox":[77.28882,29.27138,77.29208,29.27674],"properties":{"ward":3},"geometry":{"type":"Polygon","coordinates":[[[77.28887,29.27601],[77.29208,29.27674],[77.292,29.27169],[77.29101,29.27138],[77.29065,29.27172],[77.29086,29.27185],[77.29051,29.27212],[77.29072,29.27231],[77.29031,29.27256],[77.2907,29.27292],[77.2904,29.27331],[77.28977,29.27357],[77.29064,29.27459],[77.28961,29.27502],[77.28948,29.27467],[77.28885,29.27481],[77.28903,29.27565],[77.28882,29.2757],[77.28887,29.27601]]]}},{"type":"Feature","bbox":[77.29653,29.27699,77.29941,29.28052],"properties":{"ward":4},"geometry":{"type":"Polygon","coordinates":[[[77.29898,29.27891],[77.29839,29.27699],[77.29756,29.2775],[77.29745,29.27734],[77.29721,29.27746],[77.29698,29.27719],[77.29659,29.27732],[77.29666,29.27774],[77.29653,29.27786],[77.29695,29.27907],[77.29806,29.28042],[77.29839,29.28025],[77.29869,29.28052],[77.29941,29.2803],[77.29893,29.27937],[77.29921,29.27921],[77.29898,29.27891]]]}},{"type":"Feature","bbox":[77.29551,29.2759,77.29923,29.27832],"properties":{"ward":5},"geometry":{"type":"Polygon","coordinates":[[[77.29885,29.27832],[77.29923,29.27818],[77.29905,29.27803],[77.29874,29.27687],[77.29907,29.27654],[77.2989,29.27622],[77.29812,29.27658],[77.29801,29.27642],[77.29763,29.27658],[77.29726,29.2759],[77.29644,29.27626],[77.29599,29.27602],[77.29551,29.27628],[77.29576,29.27684],[77.29625,29.27732],[77.29587,29.27748],[77.29633,29.278],[77.29666,29.27774],[77.29659,29.27732],[77.29698,29.27719],[77.29721,29.27746],[77.29745,29.27734],[77.29756,29.2775],[77.29839,29.27699],[77.29885,29.27832]]]}},{"type":"Feature","bbox":[77.29201,29.27364,77.29368,29.27615],"properties":{"ward":6},"geometry":{"type":"Polygon","coordinates":[[[77.29275,29.27396],[77.29201,29.27364],[77.29204,29.27547],[77.29265,29.27577],[77.29276,29.27569],[77.29304,29.27615],[77.29329,29.27612],[77.29368,29.27577],[77.29317,29.27493],[77.2934,29.2748],[77.29264,29.27408],[77.29275,29.27396]]]}},{"type":"Feature","bbox":[77.29264,29.27388,77.29625,29.27781],"properties":{"ward":7},"geometry":{"type":"Polygon","coordinates":[[[77.29576,29.27684],[77.29483,29.27479],[77.29436,29.27415],[77.29417,29.27425],[77.29383,29.27388],[77.29345,29.27409],[77.29272,29.27399],[77.29264,29.27408],[77.2934,29.2748],[77.29317,29.27493],[77.29368,29.27577],[77.29442,29.27539],[77.29459,29.27558],[77.29452,29.27593],[77.29468,29.27644],[77.29456,29.27661],[77.29534,29.27781],[77.29625,29.27732],[77.29576,29.27684]]]}},{"type":"Feature","bbox":[77.292,29.27071,77.29881,29.27658],"properties":{"ward":8},"geometry":{"type":"Polygon","coordinates":[[[77.29363,29.27104],[77.2925,29.27188],[77.292,29.27169],[77.29201,29.27364],[77.29317,29.27408],[77.29383,29.27388],[77.29417,29.27425],[77.29436,29.27415],[77.29483,29.27479],[77.29551,29.27628],[77.29599,29.27602],[77.29644,29.27626],[77.29726,29.2759],[77.29763,29.27658],[77.29801,29.27642],[77.29812,29.27658],[77.29881,29.27624],[77.29844,29.27579],[77.29833,29.27517],[77.29877,29.275],[77.29819,29.27427],[77.2969,29.27323],[77.2958,29.27277],[77.29556,29.27297],[77.29543,29.27269],[77.29529,29.27275],[77.29479,29.27173],[77.29531,29.27157],[77.29499,29.27071],[77.29363,29.27104]]]}},{"type":"Feature","bbox":[77.29208,29.27783,77.29491,29.28209],"properties":{"ward":9},"geometry":{"type":"Polygon","coordinates":[[[77.29491,29.28085],[77.29471,29.2801],[77.2942,29.28012],[77.29357,29.27964],[77.29305,29.27887],[77.29284,29.27807],[77.2925,29.27802],[77.29244,29.27783],[77.29208,29.27789],[77.29213,29.28197],[77.29245,29.28209],[77.29292,29.2817],[77.29349,29.28209],[77.29404,29.28167],[77.2936,29.28118],[77.29374,29.28084],[77.29429,29.28038],[77.29435,29.28087],[77.29491,29.28085]]]}},{"type":"Feature","bbox":[77.28887,29.27601,77.29213,29.28306],"properties":{"ward":10},"geometry":{"type":"Polygon","coordinates":[[[77.29208,29.27674],[77.28887,29.27601],[77.28919,29.2766],[77.29013,29.27636],[77.29073,29.27738],[77.29033,29.2776],[77.2904,29.27772],[77.29012,29.27779],[77.29015,29.2779],[77.28931,29.27811],[77.28966,29.27865],[77.29042,29.2785],[77.29115,29.2796],[77.29054,29.27983],[77.29077,29.28019],[77.2902,29.28047],[77.29058,29.28121],[77.29082,29.28109],[77.29118,29.2816],[77.29081,29.28183],[77.29121,29.28239],[77.29095,29.28263],[77.29136,29.28298],[77.29183,29.28306],[77.29195,29.28196],[77.29213,29.28197],[77.29208,29.27674]]]}},{"type":"Feature","bbox":[77.29331,29.27539,77.29597,29.27936],"properties":{"ward":11},"geometry":{"type":"Polygon","coordinates":[[[77.29597,29.279],[77.29456,29.27661],[77.29468,29.27644],[77.29452,29.27593],[77.29459,29.27558],[77.29442,29.27539],[77.29331,29.27601],[77.29393,29.27661],[77.2949,29.27808],[77.29523,29.27878],[77.29502,29.2789],[77.29507,29.27936],[77.29597,29.279]]]}},{"type":"Feature","bbox":[77.29204,29.27547,77.29469,29.27844],"properties":{"ward":12},"geometry":{"type":"Polygon","coordinates":[[[77.29336,29.27608],[77.29304,29.27615],[77.29276,29.27569],[77.29265,29.27577],[77.29204,29.27547],[77.29208,29.27789],[77.29244,29.27783],[77.2925,29.27802],[77.29284,29.27807],[77.29293,29.27844],[77.29469,29.27777],[77.29393,29.27661],[77.29336,29.27608]]]}}]}