{"type":"FeatureCollection","features":[{"type":"Feature","bbox":[77.44682,29.79787,77.45317,29.80252],"properties":{"ward":1,"name":"Ikram South"},"geometry":{"type":"Polygon","coordinates":[[[77.4505,29.79787],[77.44682,29.80017],[77.44783,29.80156],[77.44863,29.80236],[77.45128,29.80187],[77.4515,29.80252],[77.45317,29.80226],[77.4505,29.79787]]]}},{"type":"Feature","bbox":[77.4455,29.80027,77.45146,29.80517],"properties":{"ward":2,"name":"Ikram North"},"geometry":{"type":"Polygon","coordinates":[[[77.44864,29.80247],[77.44674,29.80027],[77.4455,29.80142],[77.44723,29.80351],[77.44803,29.80405],[77.44933,29.80381],[77.45013,29.80497],[77.45067,29.80517],[77.45025,29.8034],[77.45146,29.80261],[77.45126,29.80196],[77.44864,29.80247]]]}},{"type":"Feature","bbox":[77.44746,29.81142,77.45355,29.81489],"properties":{"ward":3,"name":"Sarai North"},"geometry":{"type":"Polygon","coordinates":[[[77.44954,29.81263],[77.44746,29.81364],[77.44881,29.81489],[77.45355,29.81238],[77.45311,29.81142],[77.44954,29.81263]]]}},{"type":"Feature","bbox":[77.45263,29.80805,77.45899,29.81238],"properties":{"ward":4,"name":"Gangaram North"},"geometry":{"type":"Polygon","coordinates":[[[77.45899,29.8097],[77.4562,29.80981],[77.45428,29.8101],[77.45298,29.80862],[77.45305,29.80805],[77.45263,29.80813],[77.45263,29.80851],[77.45298,29.8092],[77.45277,29.81025],[77.45374,29.81238],[77.45899,29.8097]]]}},{"type":"Feature","bbox":[77.44608,29.80939,77.45317,29.81357],"properties":{"ward":5,"name":"Sarai South"},"geometry":{"type":"Polygon","coordinates":[[[77.44998,29.80994],[77.45004,29.80939],[77.44844,29.81055],[77.44608,29.81187],[77.44739,29.81357],[77.44949,29.81249],[77.45317,29.81134],[77.45253,29.81028],[77.45141,29.8104],[77.45068,29.81079],[77.44998,29.80994]]]}},{"type":"Feature","bbox":[77.45062,29.79657,77.45875,29.80625],"properties":{"ward":6,"name":"Kajiyaan"},"geometry":{"type":"Polygon","coordinates":[[[77.45875,29.8048],[77.45775,29.80221],[77.45644,29.79966],[77.45528,29.79657],[77.45346,29.79687],[77.45062,29.79779],[77.4532,29.80205],[77.45469,29.80267],[77.45309,29.80446],[77.45391,29.80579],[77.45443,29.80625],[77.45457,29.80598],[77.45506,29.8058],[77.45581,29.80617],[77.45875,29.8048]]]}},{"type":"Feature","bbox":[77.45432,29.80484,77.45925,29.80969],"properties":{"ward":7,"name":"Banjaran"},"geometry":{"type":"Polygon","coordinates":[[[77.45902,29.8096],[77.45925,29.80733],[77.45877,29.80484],[77.45582,29.80623],[77.45505,29.80587],[77.45459,29.80606],[77.45432,29.80676],[77.45507,29.80724],[77.45511,29.80915],[77.45581,29.80878],[77.45603,29.80969],[77.45902,29.8096]]]}},{"type":"Feature","bbox":[77.44385,29.80504,77.45168,29.81043],"properties":{"ward":8,"name":"Mahaajanaan"},"geometry":{"type":"Polygon","coordinates":[[[77.44385,29.80885],[77.44486,29.81043],[77.45136,29.80664],[77.45154,29.80641],[77.45168,29.80558],[77.45021,29.80504],[77.44962,29.80571],[77.44955,29.80649],[77.4487,29.8069],[77.44594,29.80769],[77.44475,29.80818],[77.44385,29.80885]]]}},{"type":"Feature","bbox":[77.44279,29.80151,77.45014,29.80881],"properties":{"ward":9,"name":"Kaysthan"},"geometry":{"type":"Polygon","coordinates":[[[77.44543,29.80151],[77.44452,29.80189],[77.44356,29.80293],[77.44279,29.80484],[77.4434,29.80617],[77.44337,29.80852],[77.44381,29.80881],[77.44466,29.80809],[77.44949,29.80644],[77.44957,29.80565],[77.45014,29.80504],[77.4493,29.80387],[77.44804,29.80413],[77.44726,29.80363],[77.44543,29.80151]]]}},{"type":"Feature","bbox":[77.45007,29.8082,77.45292,29.81068],"properties":{"ward":10,"name":"Gangaram South"},"geometry":{"type":"Polygon","coordinates":[[[77.45271,29.81014],[77.45292,29.80928],[77.45259,29.80865],[77.45255,29.8082],[77.4519,29.80862],[77.45047,29.80908],[77.45007,29.80986],[77.45069,29.81068],[77.45143,29.81032],[77.45271,29.81014]]]}},{"type":"Feature","bbox":[77.45069,29.80225,77.45459,29.80439],"properties":{"ward":11,"name":"Pipaltala"},"geometry":{"type":"Polygon","coordinates":[[[77.45156,29.8026],[77.45069,29.80322],[77.4509,29.80354],[77.45131,29.80331],[77.45169,29.80368],[77.45172,29.80327],[77.45209,29.80305],[77.45262,29.80428],[77.45308,29.80439],[77.45459,29.80269],[77.45346,29.80225],[77.45156,29.8026]]]}},{"type":"Feature","bbox":[77.44935,29.8052,77.45383,29.8095],"properties":{"ward":12,"name":"Bazar Kalan"},"geometry":{"type":"Polygon","coordinates":[[[77.4516,29.80645],[77.44935,29.80798],[77.45016,29.8095],[77.45036,29.80906],[77.4531,29.80795],[77.45383,29.80711],[77.45346,29.80694],[77.4531,29.80602],[77.45244,29.80605],[77.45214,29.8052],[77.45174,29.80565],[77.4516,29.80645]]]}},{"type":"Feature","bbox":[77.44488,29.80802,77.44996,29.81181],"properties":{"ward":13,"name":"Mahal"},"geometry":{"type":"Polygon","coordinates":[[[77.44488,29.81055],[77.44606,29.81181],[77.44772,29.81089],[77.4489,29.80989],[77.44996,29.80933],[77.44931,29.80802],[77.44488,29.81055]]]}},{"type":"Feature","bbox":[77.45313,29.80679,77.45596,29.80997],"properties":{"ward":14,"name":"Maniharan"},"geometry":{"type":"Polygon","coordinates":[[[77.45502,29.80729],[77.45424,29.80679],[77.45315,29.80798],[77.45313,29.8086],[77.4543,29.80997],[77.45596,29.80973],[77.45574,29.80891],[77.45501,29.80927],[77.45502,29.80729]]]}},{"type":"Feature","bbox":[77.45031,29.80312,77.4544,29.80703],"properties":{"ward":15,"name":"Peerzadgan"},"geometry":{"type":"Polygon","coordinates":[[[77.45031,29.80343],[77.45062,29.80422],[77.45074,29.80518],[77.4518,29.80551],[77.45217,29.8051],[77.45247,29.80599],[77.45317,29.80597],[77.45352,29.80689],[77.4539,29.80703],[77.4544,29.80633],[77.45383,29.80581],[77.45301,29.80443],[77.45258,29.80433],[77.45207,29.80312],[77.45177,29.8033],[77.45173,29.80375],[77.45145,29.80368],[77.45129,29.80338],[77.45089,29.8036],[77.4506,29.80322],[77.45031,29.80343]]]}}]}