{"type":"FeatureCollection","features":[{"type":"Feature","bbox":[77.30968,29.44995,77.31288,29.45742],"properties":{"ward":1},"geometry":{"type":"Polygon","coordinates":[[[77.31245,29.45579],[77.31257,29.45508],[77.31251,29.45254],[77.31288,29.4515],[77.31269,29.44995],[77.31145,29.45087],[77.31047,29.45117],[77.30984,29.4517],[77.3107,29.45294],[77.31106,29.45433],[77.31071,29.45505],[77.30968,29.45572],[77.31146,29.45742],[77.31179,29.45721],[77.31245,29.45579]]]}},{"type":"Feature","bbox":[77.30282,29.44994,77.30894,29.455],"properties":{"ward":2},"geometry":{"type":"Polygon","coordinates":[[[77.30665,29.45403],[77.30894,29.45339],[77.30755,29.45158],[77.30851,29.45114],[77.308,29.45051],[77.30789,29.45058],[77.30702,29.44994],[77.30665,29.45048],[77.30592,29.45103],[77.30576,29.45144],[77.30282,29.45305],[77.30422,29.4532],[77.30502,29.45357],[77.30536,29.45406],[77.30543,29.455],[77.30665,29.45403]]]}},{"type":"Feature","bbox":[77.31033,29.44811,77.31293,29.45092],"properties":{"ward":3},"geometry":{"type":"Polygon","coordinates":[[[77.31207,29.44811],[77.31033,29.44903],[77.31129,29.45092],[77.31268,29.44999],[77.31293,29.4492],[77.31288,29.44886],[77.31207,29.44811]]]}},{"type":"Feature","bbox":[77.30395,29.44783,77.30702,29.45115],"properties":{"ward":4},"geometry":{"type":"Polygon","coordinates":[[[77.30587,29.45115],[77.30702,29.44994],[77.30553,29.44783],[77.30509,29.44784],[77.30395,29.44846],[77.30493,29.45039],[77.30587,29.45115]]]}},{"type":"Feature","bbox":[77.30745,29.43774,77.31633,29.44618],"properties":{"ward":5},"geometry":{"type":"Polygon","coordinates":[[[77.31633,29.44408],[77.31483,29.43774],[77.30745,29.44389],[77.30858,29.44479],[77.3096,29.44436],[77.31034,29.44373],[77.31207,29.44618],[77.31327,29.44568],[77.31489,29.44449],[77.31633,29.44408]]]}},{"type":"Feature","bbox":[77.30553,29.44662,77.30964,29.44974],"properties":{"ward":6},"geometry":{"type":"Polygon","coordinates":[[[77.30553,29.44783],[77.3069,29.44974],[77.30964,29.4481],[77.30922,29.44735],[77.3085,29.44662],[77.30553,29.44783]]]}},{"type":"Feature","bbox":[77.30327,29.43636,77.30914,29.44389],"properties":{"ward":7},"geometry":{"type":"Polygon","coordinates":[[[77.30914,29.44248],[77.30845,29.44127],[77.30825,29.44103],[77.30802,29.4411],[77.30728,29.44028],[77.30441,29.43636],[77.30327,29.43704],[77.30329,29.43825],[77.30386,29.43967],[77.30525,29.44187],[77.30745,29.44389],[77.30914,29.44248]]]}},{"type":"Feature","bbox":[77.31146,29.45246,77.3191,29.46213],"properties":{"ward":8},"geometry":{"type":"Polygon","coordinates":[[[77.31245,29.45579],[77.31179,29.45721],[77.31146,29.45742],[77.31335,29.45993],[77.31379,29.45955],[77.31488,29.46102],[77.31642,29.46213],[77.31805,29.46078],[77.31906,29.45888],[77.3191,29.45679],[77.31506,29.45346],[77.31412,29.4535],[77.31421,29.45312],[77.31364,29.45309],[77.31338,29.45256],[77.31252,29.45246],[77.31257,29.45508],[77.31245,29.45579]]]}},{"type":"Feature","bbox":[77.31804,29.44361,77.32811,29.4539],"properties":{"ward":9},"geometry":{"type":"Polygon","coordinates":[[[77.32613,29.44361],[77.32321,29.44504],[77.32311,29.44493],[77.32118,29.44579],[77.31962,29.44666],[77.3188,29.44676],[77.31804,29.44707],[77.31868,29.45019],[77.32046,29.45108],[77.32207,29.45154],[77.32396,29.45245],[77.3254,29.45333],[77.32564,29.4539],[77.32775,29.45059],[77.32811,29.44691],[77.32613,29.44361]]]}},{"type":"Feature","bbox":[77.31207,29.44788,77.31429,29.45312],"properties":{"ward":10},"geometry":{"type":"Polygon","coordinates":[[[77.31429,29.44887],[77.31245,29.44788],[77.31207,29.44811],[77.31288,29.44886],[77.31293,29.44915],[77.31269,29.44995],[77.31288,29.4515],[77.31252,29.45246],[77.31338,29.45256],[77.31364,29.45309],[77.31421,29.45312],[77.31429,29.44887]]]}},{"type":"Feature","bbox":[77.31407,29.43436,77.32613,29.44718],"properties":{"ward":11},"geometry":{"type":"Polygon","coordinates":[[[77.31772,29.44718],[77.3188,29.44676],[77.31962,29.44666],[77.32118,29.44579],[77.32311,29.44493],[77.32321,29.44504],[77.32613,29.44361],[77.32431,29.44055],[77.31741,29.43501],[77.31407,29.43436],[77.31688,29.44685],[77.31754,29.4468],[77.31772,29.44718]]]}},{"type":"Feature","bbox":[77.30858,29.44373,77.31686,29.44816],"properties":{"ward":12},"geometry":{"type":"Polygon","coordinates":[[[77.30858,29.44479],[77.31207,29.44811],[77.31245,29.44788],[77.31284,29.44816],[77.31686,29.44664],[77.31633,29.44408],[77.31489,29.44449],[77.31327,29.44568],[77.31207,29.44618],[77.31034,29.44373],[77.3096,29.44436],[77.30858,29.44479]]]}},{"type":"Feature","bbox":[77.30613,29.45564,77.31642,29.46539],"properties":{"ward":13},"geometry":{"type":"Polygon","coordinates":[[[77.31379,29.45955],[77.31335,29.45993],[77.31146,29.45742],[77.30963,29.45564],[77.30865,29.45614],[77.30623,29.4581],[77.30646,29.46037],[77.30613,29.46138],[77.30731,29.46393],[77.30849,29.46505],[77.31013,29.46539],[77.31176,29.46505],[77.31431,29.46375],[77.31642,29.46213],[77.31488,29.46102],[77.31379,29.45955]]]}},{"type":"Feature","bbox":[77.30465,29.45208,77.31106,29.4581],"properties":{"ward":14},"geometry":{"type":"Polygon","coordinates":[[[77.31011,29.45208],[77.30856,29.45284],[77.30894,29.45339],[77.30833,29.45345],[77.30665,29.45403],[77.30465,29.45569],[77.30471,29.45608],[77.30586,29.45738],[77.30623,29.4581],[77.30865,29.45614],[77.31036,29.45538],[77.31071,29.45505],[77.31106,29.45433],[77.311,29.45391],[77.3107,29.45294],[77.31011,29.45208]]]}},{"type":"Feature","bbox":[77.29976,29.44923,77.30588,29.45305],"properties":{"ward":15},"geometry":{"type":"Polygon","coordinates":[[[77.30427,29.44923],[77.30254,29.44984],[77.30107,29.45084],[77.30015,29.45118],[77.29976,29.45163],[77.30282,29.45305],[77.30543,29.45165],[77.30576,29.45144],[77.30588,29.45116],[77.30513,29.45067],[77.30427,29.44923]]]}},{"type":"Feature","bbox":[77.30441,29.43436,77.31483,29.44248],"properties":{"ward":16},"geometry":{"type":"Polygon","coordinates":[[[77.30441,29.43636],[77.30728,29.44028],[77.30802,29.4411],[77.30825,29.44103],[77.30845,29.44127],[77.30914,29.44248],[77.31483,29.43774],[77.31407,29.43436],[77.30869,29.43494],[77.30441,29.43636]]]}},{"type":"Feature","bbox":[77.29697,29.43704,77.30695,29.4469],"properties":{"ward":17},"geometry":{"type":"Polygon","coordinates":[[[77.30391,29.4446],[77.30467,29.44428],[77.30487,29.44459],[77.30567,29.44431],[77.30695,29.44344],[77.30525,29.44187],[77.30386,29.43967],[77.30329,29.43825],[77.30327,29.43704],[77.30122,29.43914],[77.29697,29.44244],[77.29796,29.44334],[77.3013,29.44576],[77.30251,29.4469],[77.30446,29.44588],[77.30391,29.4446]]]}},{"type":"Feature","bbox":[77.30755,29.45089,77.31011,29.45284],"properties":{"ward":18},"geometry":{"type":"Polygon","coordinates":[[[77.31011,29.45208],[77.30918,29.45089],[77.30755,29.45158],[77.30856,29.45284],[77.31011,29.45208]]]}},{"type":"Feature","bbox":[77.30391,29.44344,77.30987,29.44783],"properties":{"ward":19},"geometry":{"type":"Polygon","coordinates":[[[77.30858,29.44479],[77.30695,29.44344],[77.30567,29.44431],[77.30487,29.44459],[77.30467,29.44428],[77.30391,29.4446],[77.30553,29.44783],[77.30987,29.44611],[77.30858,29.44479]]]}},{"type":"Feature","bbox":[77.29519,29.44244,77.30251,29.44939],"properties":{"ward":20},"geometry":{"type":"Polygon","coordinates":[[[77.29925,29.44819],[77.30123,29.44806],[77.30251,29.4469],[77.3013,29.44576],[77.29796,29.44334],[77.29697,29.44244],[77.29519,29.44391],[77.29578,29.44635],[77.29599,29.44819],[77.2965,29.44939],[77.29925,29.44819]]]}},{"type":"Feature","bbox":[77.31412,29.44997,77.32564,29.45679],"properties":{"ward":21},"geometry":{"type":"Polygon","coordinates":[[[77.31938,29.45442],[77.31959,29.45417],[77.32071,29.45501],[77.3206,29.45383],[77.3216,29.45406],[77.32288,29.45477],[77.32393,29.45509],[77.32479,29.45465],[77.32564,29.4539],[77.3254,29.45333],[77.32396,29.45245],[77.32207,29.45154],[77.32046,29.45108],[77.31823,29.44997],[77.31711,29.45019],[77.31508,29.45246],[77.31427,29.45272],[77.31412,29.4535],[77.31506,29.45346],[77.3191,29.45679],[77.31917,29.45589],[77.31947,29.45527],[77.31938,29.45442]]]}},{"type":"Feature","bbox":[77.2965,29.44588,77.30553,29.45163],"properties":{"ward":22},"geometry":{"type":"Polygon","coordinates":[[[77.30236,29.447],[77.30123,29.44806],[77.29925,29.44819],[77.2965,29.44939],[77.2976,29.4506],[77.29976,29.45163],[77.30015,29.45118],[77.30107,29.45084],[77.30254,29.44984],[77.30425,29.44918],[77.30395,29.44846],[77.30509,29.44784],[77.30553,29.44783],[77.30446,29.44588],[77.30236,29.447]]]}},{"type":"Feature","bbox":[77.3069,29.44866,77.31041,29.4517],"properties":{"ward":23},"geometry":{"type":"Polygon","coordinates":[[[77.31041,29.4512],[77.30982,29.45012],[77.30871,29.44866],[77.3069,29.44974],[77.30789,29.45058],[77.308,29.45051],[77.30851,29.45114],[77.30918,29.45089],[77.30984,29.4517],[77.31041,29.4512]]]}},{"type":"Feature","bbox":[77.31284,29.44664,77.31868,29.45272],"properties":{"ward":24},"geometry":{"type":"Polygon","coordinates":[[[77.31429,29.44887],[77.31427,29.45272],[77.31508,29.45246],[77.31711,29.45019],[77.31789,29.44995],[77.31868,29.45019],[77.31804,29.44707],[77.31772,29.44718],[77.31754,29.4468],[77.31688,29.44685],[77.31686,29.44664],[77.31284,29.44816],[77.31429,29.44887]]]}},{"type":"Feature","bbox":[77.3085,29.44611,77.31205,29.4512],"properties":{"ward":25},"geometry":{"type":"Polygon","coordinates":[[[77.31205,29.44808],[77.30987,29.44611],[77.3085,29.44662],[77.30922,29.44735],[77.30964,29.4481],[77.30871,29.44866],[77.30982,29.45012],[77.31001,29.45073],[77.31041,29.4512],[77.31129,29.45092],[77.31033,29.44903],[77.31205,29.44808]]]}}]}