{"type":"FeatureCollection","features":[{"type":"Feature","bbox":[77.43588,27.79117,77.43777,27.7923],"properties":{"ward":1,"name":"Taangda Khera"},"geometry":{"type":"Polygon","coordinates":[[[77.43741,27.79117],[77.43696,27.79145],[77.43654,27.7914],[77.43588,27.79175],[77.43607,27.7921],[77.43638,27.79198],[77.43695,27.7923],[77.43777,27.7919],[77.43741,27.79117]]]}},{"type":"Feature","bbox":[77.427,27.79148,77.43314,27.79873],"properties":{"ward":2,"name":"Taalabshahi"},"geometry":{"type":"Polygon","coordinates":[[[77.43126,27.79212],[77.42981,27.79148],[77.42964,27.79168],[77.42844,27.79198],[77.42753,27.793],[77.42743,27.79319],[77.42753,27.79365],[77.42708,27.79384],[77.42863,27.79654],[77.427,27.79737],[77.42725,27.79781],[77.42754,27.79767],[77.42855,27.79873],[77.42928,27.79832],[77.42928,27.79805],[77.42984,27.79772],[77.43197,27.79554],[77.43132,27.79509],[77.43145,27.7939],[77.43229,27.79451],[77.43245,27.79369],[77.43314,27.79318],[77.43121,27.79223],[77.43126,27.79212]]]}},{"type":"Feature","bbox":[77.43058,27.78725,77.43563,27.79318],"properties":{"ward":3,"name":"Gomati Kund"},"geometry":{"type":"Polygon","coordinates":[[[77.43314,27.79318],[77.43371,27.79216],[77.43426,27.79198],[77.43459,27.79159],[77.43422,27.79134],[77.43443,27.7907],[77.43529,27.79055],[77.43563,27.79029],[77.43519,27.78985],[77.43464,27.78884],[77.43417,27.78892],[77.4325,27.78725],[77.43107,27.78886],[77.43137,27.78948],[77.43058,27.7907],[77.43169,27.79115],[77.43121,27.79223],[77.43314,27.79318]]]}},{"type":"Feature","bbox":[77.43741,27.79317,77.44002,27.79622],"properties":{"ward":4,"name":"Hardevganj"},"geometry":{"type":"Polygon","coordinates":[[[77.44002,27.79435],[77.43889,27.79317],[77.43741,27.79447],[77.43826,27.79551],[77.43868,27.79577],[77.4388,27.79622],[77.43923,27.79602],[77.44002,27.79435]]]}},{"type":"Feature","bbox":[77.43736,27.77962,77.44626,27.78712],"properties":{"ward":5,"name":"Maniramvas Bahari Kshetra"},"geometry":{"type":"Polygon","coordinates":[[[77.44626,27.78276],[77.44605,27.78001],[77.44497,27.78023],[77.44473,27.77962],[77.44178,27.78025],[77.44089,27.78272],[77.43898,27.78597],[77.43755,27.78542],[77.43736,27.78623],[77.43795,27.78657],[77.43782,27.78676],[77.43789,27.78712],[77.44342,27.78596],[77.44269,27.78528],[77.44366,27.78457],[77.44381,27.78442],[77.44359,27.78421],[77.44381,27.78411],[77.44381,27.7839],[77.44448,27.7836],[77.44463,27.78332],[77.44549,27.78332],[77.44626,27.78276]]]}},{"type":"Feature","bbox":[77.42928,27.79545,77.43461,27.80526],"properties":{"ward":6,"name":"Rathaur Nagar"},"geometry":{"type":"Polygon","coordinates":[[[77.43113,27.80525],[77.43142,27.80526],[77.43196,27.80338],[77.43315,27.8012],[77.43461,27.7975],[77.43412,27.79686],[77.43207,27.79545],[77.43131,27.79608],[77.42984,27.79772],[77.42928,27.79805],[77.42959,27.79993],[77.43113,27.80525]]]}},{"type":"Feature","bbox":[77.44059,27.79368,77.44331,27.79702],"properties":{"ward":7,"name":"Hardevganj Lalaram Marg"},"geometry":{"type":"Polygon","coordinates":[[[77.44171,27.79702],[77.44275,27.79581],[77.44331,27.79466],[77.44287,27.79449],[77.44199,27.79368],[77.44149,27.7941],[77.44166,27.79425],[77.44064,27.79506],[77.44116,27.79562],[77.44059,27.79606],[77.44171,27.79702]]]}},{"type":"Feature","bbox":[77.43613,27.79509,77.43801,27.79758],"properties":{"ward":8,"name":"Naaduvas"},"geometry":{"type":"Polygon","coordinates":[[[77.43613,27.7953],[77.43683,27.79636],[77.43788,27.79758],[77.43801,27.79736],[77.43641,27.79509],[77.43613,27.7953]]]}},{"type":"Feature","bbox":[77.4325,27.78511,77.43984,27.79249],"properties":{"ward":9,"name":"Maniramvas Bhaatu Colony"},"geometry":{"type":"Polygon","coordinates":[[[77.43736,27.78623],[77.43761,27.78511],[77.43276,27.787],[77.4325,27.78725],[77.43417,27.78892],[77.43464,27.78884],[77.43519,27.78985],[77.43563,27.79029],[77.43606,27.79029],[77.437,27.79066],[77.43809,27.79236],[77.4385,27.79249],[77.43879,27.79189],[77.43879,27.79104],[77.43984,27.79044],[77.43823,27.78755],[77.43794,27.78742],[77.43782,27.78676],[77.43795,27.78657],[77.43736,27.78623]]]}},{"type":"Feature","bbox":[77.43422,27.79029,77.43741,27.79216],"properties":{"ward":10,"name":"Taangda"},"geometry":{"type":"Polygon","coordinates":[[[77.43563,27.79029],[77.43529,27.79055],[77.43443,27.7907],[77.43422,27.79134],[77.43459,27.79159],[77.43426,27.79198],[77.43481,27.79216],[77.43555,27.79192],[77.4355,27.79173],[77.43565,27.79156],[77.4359,27.79172],[77.43654,27.7914],[77.43696,27.79145],[77.43741,27.79117],[77.43693,27.79061],[77.43606,27.79029],[77.43563,27.79029]]]}},{"type":"Feature","bbox":[77.43687,27.79435,77.44064,27.79689],"properties":{"ward":11,"name":"Ramnagar Kaalimandir"},"geometry":{"type":"Polygon","coordinates":[[[77.43687,27.79481],[77.43706,27.79509],[77.43738,27.79491],[77.43816,27.7959],[77.43781,27.7962],[77.43806,27.79659],[77.43871,27.79624],[77.43931,27.79689],[77.44011,27.79649],[77.44001,27.79636],[77.44016,27.79627],[77.43979,27.79578],[77.44064,27.79506],[77.44002,27.79435],[77.43923,27.79602],[77.4388,27.79622],[77.43868,27.79577],[77.43826,27.79551],[77.43741,27.79447],[77.43687,27.79481]]]}},{"type":"Feature","bbox":[77.43132,27.79201,77.4353,27.79613],"properties":{"ward":12,"name":"Gaangwan"},"geometry":{"type":"Polygon","coordinates":[[[77.43197,27.79554],[77.43207,27.79545],[77.43298,27.79613],[77.43383,27.79521],[77.43407,27.7953],[77.43511,27.79391],[77.43487,27.79369],[77.4353,27.79285],[77.43495,27.79243],[77.4345,27.79242],[77.43417,27.79201],[77.43371,27.79216],[77.43314,27.79318],[77.43245,27.79369],[77.43229,27.79451],[77.43145,27.7939],[77.43132,27.79509],[77.43197,27.79554]]]}},{"type":"Feature","bbox":[77.43924,27.78022,77.4495,27.79466],"properties":{"ward":13,"name":"Maniramvas Railway Area"},"geometry":{"type":"Polygon","coordinates":[[[77.43924,27.79288],[77.44013,27.79355],[77.44116,27.79285],[77.44287,27.79449],[77.44331,27.79466],[77.44518,27.7909],[77.44869,27.78187],[77.4495,27.78033],[77.44912,27.78022],[77.44838,27.78061],[77.44709,27.78098],[77.44717,27.78132],[77.44617,27.78152],[77.44645,27.78583],[77.4463,27.7862],[77.44611,27.7865],[77.44475,27.78746],[77.44179,27.79062],[77.43924,27.79288]]]}},{"type":"Feature","bbox":[77.43789,27.7861,77.44475,27.79126],"properties":{"ward":14,"name":"Maniramvas Arya Nagar"},"geometry":{"type":"Polygon","coordinates":[[[77.44106,27.79126],[77.44475,27.78746],[77.44341,27.78843],[77.44325,27.7884],[77.44268,27.7861],[77.43789,27.78712],[77.43794,27.78742],[77.43823,27.78755],[77.43984,27.79044],[77.44011,27.79079],[77.44046,27.79061],[77.44106,27.79126]]]}},{"type":"Feature","bbox":[77.4337,27.79294,77.43814,27.79627],"properties":{"ward":15,"name":"Kharautdwar"},"geometry":{"type":"Polygon","coordinates":[[[77.43814,27.79391],[77.43782,27.79364],[77.43803,27.79308],[77.43791,27.79294],[77.43692,27.79389],[77.43634,27.79385],[77.43556,27.79483],[77.43502,27.79455],[77.43527,27.79402],[77.43511,27.79391],[77.43407,27.7953],[77.43383,27.79521],[77.4337,27.79532],[77.43416,27.79538],[77.43463,27.79509],[77.43537,27.79557],[77.43509,27.79622],[77.43521,27.79627],[77.4362,27.79523],[77.43814,27.79391]]]}},{"type":"Feature","bbox":[77.43748,27.79044,77.44106,27.79391],"properties":{"ward":16,"name":"Mandikhaam"},"geometry":{"type":"Polygon","coordinates":[[[77.43752,27.79202],[77.43771,27.79236],[77.43748,27.79261],[77.43803,27.79308],[77.43782,27.79364],[77.43814,27.79391],[77.44106,27.79126],[77.44046,27.79061],[77.44011,27.79079],[77.43984,27.79044],[77.43879,27.79104],[77.43879,27.79189],[77.4385,27.79249],[77.43809,27.79236],[77.43777,27.7919],[77.43752,27.79202]]]}},{"type":"Feature","bbox":[77.4351,27.7953,77.43788,27.79871],"properties":{"ward":17,"name":"Saathawadiya Vas"},"geometry":{"type":"Polygon","coordinates":[[[77.43788,27.79758],[77.43613,27.7953],[77.4351,27.79644],[77.43655,27.79783],[77.43711,27.79871],[77.43788,27.79758]]]}},{"type":"Feature","bbox":[77.43889,27.79285,77.44199,27.79506],"properties":{"ward":18,"name":"Maniram Vas Krishna Nagar"},"geometry":{"type":"Polygon","coordinates":[[[77.44199,27.79368],[77.44116,27.79285],[77.44013,27.79355],[77.43924,27.79288],[77.43889,27.79317],[77.44064,27.79506],[77.44166,27.79425],[77.44149,27.7941],[77.44199,27.79368]]]}},{"type":"Feature","bbox":[77.44268,27.78276,77.44644,27.78843],"properties":{"ward":19,"name":"Maniramvas Punjabi Colony"},"geometry":{"type":"Polygon","coordinates":[[[77.44341,27.78843],[77.44611,27.7865],[77.44644,27.78591],[77.44626,27.78276],[77.44549,27.78332],[77.44463,27.78332],[77.44448,27.7836],[77.44381,27.7839],[77.44381,27.78411],[77.44359,27.78421],[77.44381,27.78442],[77.44366,27.78457],[77.44269,27.78528],[77.44342,27.78596],[77.44268,27.7861],[77.44325,27.7884],[77.44341,27.78843]]]}},{"type":"Feature","bbox":[77.43711,27.79506,77.44171,27.80104],"properties":{"ward":20,"name":"Gopal Nagar"},"geometry":{"type":"Polygon","coordinates":[[[77.43779,27.80104],[77.44171,27.79702],[77.44059,27.79606],[77.44116,27.79562],[77.44064,27.79506],[77.43979,27.79578],[77.44016,27.79627],[77.44001,27.79636],[77.44011,27.79649],[77.43931,27.79689],[77.43871,27.79624],[77.43763,27.79679],[77.43801,27.79736],[77.43711,27.79871],[77.43742,27.8008],[77.43779,27.80104]]]}},{"type":"Feature","bbox":[77.43487,27.79202,77.43791,27.79483],"properties":{"ward":21,"name":"Brahmanpuri"},"geometry":{"type":"Polygon","coordinates":[[[77.43791,27.79294],[77.43748,27.79261],[77.43771,27.79236],[77.43752,27.79202],[77.43623,27.79271],[77.43575,27.79241],[77.43524,27.7929],[77.43487,27.79369],[77.43527,27.79402],[77.43502,27.79455],[77.43556,27.79483],[77.43634,27.79385],[77.43692,27.79389],[77.43791,27.79294]]]}},{"type":"Feature","bbox":[77.42899,27.79652,77.43779,27.81146],"properties":{"ward":22,"name":"Saray Nikas"},"geometry":{"type":"Polygon","coordinates":[[[77.42957,27.81146],[77.43058,27.80931],[77.43249,27.80648],[77.43779,27.80104],[77.43742,27.8008],[77.43711,27.79871],[77.43655,27.79783],[77.43554,27.79677],[77.43507,27.79652],[77.43315,27.8012],[77.43196,27.80338],[77.43142,27.80526],[77.43113,27.80525],[77.43102,27.80662],[77.42899,27.81123],[77.42957,27.81146]]]}},{"type":"Feature","bbox":[77.43641,27.79481,77.43816,27.79679],"properties":{"ward":23,"name":"Baldevganj"},"geometry":{"type":"Polygon","coordinates":[[[77.43806,27.79659],[77.43781,27.7962],[77.43816,27.7959],[77.43738,27.79491],[77.43706,27.79509],[77.43687,27.79481],[77.43641,27.79509],[77.43763,27.79679],[77.43806,27.79659]]]}},{"type":"Feature","bbox":[77.43417,27.79156,77.43695,27.79285],"properties":{"ward":24,"name":"Shekhan"},"geometry":{"type":"Polygon","coordinates":[[[77.43695,27.7923],[77.43638,27.79198],[77.43607,27.7921],[77.43565,27.79156],[77.4355,27.79173],[77.43555,27.79192],[77.43539,27.792],[77.43481,27.79216],[77.43417,27.79201],[77.4345,27.79242],[77.43495,27.79243],[77.4353,27.79285],[77.43575,27.79241],[77.43623,27.79271],[77.43695,27.7923]]]}},{"type":"Feature","bbox":[77.43298,27.79509,77.43537,27.7975],"properties":{"ward":25,"name":"Karimul Lawas"},"geometry":{"type":"Polygon","coordinates":[[[77.43298,27.79613],[77.43433,27.79702],[77.43461,27.7975],[77.43521,27.79627],[77.43509,27.79622],[77.43537,27.79557],[77.43463,27.79509],[77.43416,27.79538],[77.4337,27.79532],[77.43298,27.79613]]]}}]}