{"type":"FeatureCollection","features":[{"type":"Feature","bbox":[77.94001,27.57455,77.94532,27.57753],"properties":{"ward":1,"name":"Harijanan"},"geometry":{"type":"Polygon","coordinates":[[[77.94075,27.5759],[77.94063,27.5761],[77.94098,27.57636],[77.94127,27.57632],[77.94157,27.57597],[77.94308,27.57679],[77.94324,27.57692],[77.94284,27.57722],[77.94327,27.57753],[77.94366,27.57721],[77.94368,27.57703],[77.94346,27.57681],[77.94494,27.57581],[77.94532,27.57534],[77.94055,27.57455],[77.94001,27.5754],[77.94075,27.5759]]]}},{"type":"Feature","bbox":[77.94089,27.57797,77.94415,27.58087],"properties":{"ward":2,"name":"Masjidan"},"geometry":{"type":"Polygon","coordinates":[[[77.94127,27.57838],[77.94089,27.57871],[77.94163,27.57933],[77.94141,27.57961],[77.94273,27.58087],[77.94305,27.58075],[77.94392,27.57985],[77.94361,27.57954],[77.94415,27.57896],[77.94327,27.57841],[77.94331,27.57818],[77.94301,27.57797],[77.94274,27.5781],[77.9426,27.578],[77.94197,27.57848],[77.94184,27.57833],[77.9415,27.57862],[77.94127,27.57838]]]}},{"type":"Feature","bbox":[77.93859,27.57872,77.94274,27.58178],"properties":{"ward":3,"name":"Gadriyan"},"geometry":{"type":"Polygon","coordinates":[[[77.94089,27.57872],[77.94018,27.57931],[77.93859,27.5801],[77.94034,27.58178],[77.94101,27.58178],[77.9419,27.58146],[77.94274,27.58087],[77.9414,27.57961],[77.94162,27.57933],[77.94089,27.57872]]]}},{"type":"Feature","bbox":[77.94191,27.57533,77.94574,27.57896],"properties":{"ward":4,"name":"Kasaiyan"},"geometry":{"type":"Polygon","coordinates":[[[77.94536,27.57533],[77.94492,27.57585],[77.94347,27.57682],[77.94368,27.57703],[77.94349,27.57738],[77.94327,27.57754],[77.94283,27.57723],[77.94191,27.57791],[77.94228,27.57822],[77.94259,27.57799],[77.94273,27.57809],[77.94301,27.57796],[77.94331,27.57818],[77.94328,27.57841],[77.94415,27.57896],[77.94461,27.57842],[77.94435,27.57832],[77.94445,27.57807],[77.94547,27.57662],[77.9451,27.5765],[77.94574,27.57543],[77.94536,27.57533]]]}},{"type":"Feature","bbox":[77.93688,27.57583,77.93991,27.58009],"properties":{"ward":5,"name":"Rangrejan"},"geometry":{"type":"Polygon","coordinates":[[[77.93991,27.57736],[77.93829,27.57583],[77.93771,27.57644],[77.93688,27.57666],[77.93825,27.57798],[77.93736,27.5787],[77.93858,27.58009],[77.93933,27.57972],[77.93916,27.57949],[77.93934,27.57935],[77.93933,27.57899],[77.93862,27.57828],[77.93891,27.57805],[77.93957,27.57868],[77.93988,27.57842],[77.9394,27.57786],[77.93991,27.57736]]]}},{"type":"Feature","bbox":[77.93379,27.56754,77.94661,27.57523],"properties":{"ward":6,"name":"Brahman Madhiya"},"geometry":{"type":"Polygon","coordinates":[[[77.93595,27.56968],[77.93641,27.57083],[77.93593,27.57203],[77.93597,27.57261],[77.93549,27.57304],[77.93465,27.5732],[77.93379,27.57363],[77.94546,27.57523],[77.94661,27.57436],[77.94519,27.57313],[77.94573,27.57274],[77.94588,27.57198],[77.9455,27.57139],[77.94551,27.57065],[77.94397,27.56978],[77.94252,27.56855],[77.9425,27.56764],[77.94054,27.56754],[77.93858,27.56864],[77.93595,27.56968]]]}},{"type":"Feature","bbox":[77.94023,27.57599,77.94323,27.57791],"properties":{"ward":7,"name":"Bohran"},"geometry":{"type":"Polygon","coordinates":[[[77.94165,27.57762],[77.9419,27.57791],[77.94323,27.57692],[77.94158,27.57599],[77.94127,27.57633],[77.94099,27.57637],[77.94063,27.57611],[77.94023,27.57649],[77.94124,27.57735],[77.94114,27.57743],[77.94126,27.57754],[77.94158,27.57727],[77.94179,27.57748],[77.94165,27.57762]]]}},{"type":"Feature","bbox":[77.93196,27.57356,77.94054,27.57868],"properties":{"ward":8,"name":"Nai Basti"},"geometry":{"type":"Polygon","coordinates":[[[77.94054,27.57455],[77.932,27.57356],[77.93196,27.57367],[77.93236,27.57542],[77.93334,27.57718],[77.93578,27.5769],[77.93666,27.5778],[77.9363,27.57811],[77.93735,27.57868],[77.93825,27.57798],[77.93685,27.57665],[77.93766,27.57646],[77.93828,27.57582],[77.93913,27.57656],[77.94054,27.57455]]]}},{"type":"Feature","bbox":[77.93162,27.56849,77.93639,27.57363],"properties":{"ward":9,"name":"Thakuran Kila"},"geometry":{"type":"Polygon","coordinates":[[[77.93201,27.57349],[77.93375,27.57363],[77.93464,27.57319],[77.93528,27.57311],[77.93596,27.5726],[77.93591,27.57203],[77.93639,27.57083],[77.93632,27.57056],[77.93575,27.56922],[77.93485,27.56849],[77.93366,27.56856],[77.93333,27.56912],[77.93201,27.57035],[77.9317,27.57096],[77.93162,27.57219],[77.93201,27.57349]]]}},{"type":"Feature","bbox":[77.93914,27.57541,77.94228,27.57862],"properties":{"ward":10,"name":"Vaishyan"},"geometry":{"type":"Polygon","coordinates":[[[77.94001,27.57541],[77.93914,27.57657],[77.94149,27.57862],[77.94184,27.57832],[77.94197,27.57847],[77.94228,27.57823],[77.94167,27.57768],[77.94178,27.57747],[77.94158,27.57727],[77.94126,27.57754],[77.94114,27.57743],[77.94123,27.57736],[77.94023,27.57649],[77.94073,27.5759],[77.94001,27.57541]]]}},{"type":"Feature","bbox":[77.93863,27.57736,77.94125,27.5797],"properties":{"ward":11,"name":"Chhipeti Vaishyan"},"geometry":{"type":"Polygon","coordinates":[[[77.93993,27.57736],[77.93941,27.57786],[77.93989,27.57842],[77.93958,27.57869],[77.93891,27.57806],[77.93863,27.57828],[77.93933,27.57899],[77.93935,27.57935],[77.93916,27.57949],[77.93933,27.5797],[77.94039,27.57916],[77.94125,27.57839],[77.93993,27.57736]]]}}]}