{"type":"FeatureCollection","features":[{"type":"Feature","bbox":[78.05385,28.62372,78.05843,28.62647],"properties":{"ward":1,"name":"Patti Harnam Singh-First"},"geometry":{"type":"Polygon","coordinates":[[[78.05736,28.62487],[78.05691,28.62389],[78.05545,28.62411],[78.05385,28.62372],[78.05616,28.6253],[78.05747,28.62647],[78.05843,28.62598],[78.05786,28.62486],[78.05736,28.62487]]]}},{"type":"Feature","bbox":[78.04745,28.62164,78.054,28.62757],"properties":{"ward":2,"name":"Patti Musalmanan-First"},"geometry":{"type":"Polygon","coordinates":[[[78.05146,28.62391],[78.04914,28.62164],[78.04745,28.62383],[78.04813,28.62426],[78.04932,28.62544],[78.05024,28.62693],[78.05045,28.62757],[78.05342,28.62684],[78.054,28.62605],[78.05326,28.62522],[78.05146,28.62391]]]}},{"type":"Feature","bbox":[78.05928,28.6233,78.06055,28.62471],"properties":{"ward":3,"name":"Patti Harnam Singh-Second"},"geometry":{"type":"Polygon","coordinates":[[[78.05928,28.6239],[78.05951,28.62429],[78.0598,28.62403],[78.05989,28.62417],[78.0596,28.62436],[78.05978,28.62471],[78.06055,28.62425],[78.06043,28.62354],[78.05993,28.62366],[78.05989,28.6233],[78.05939,28.62334],[78.05959,28.62376],[78.05928,28.6239]]]}},{"type":"Feature","bbox":[78.05328,28.63059,78.0604,28.63423],"properties":{"ward":4,"name":"Patti Dahar-First"},"geometry":{"type":"Polygon","coordinates":[[[78.0604,28.6333],[78.05949,28.63145],[78.05859,28.63189],[78.05822,28.63115],[78.05766,28.63059],[78.05666,28.63106],[78.055,28.6324],[78.05328,28.6333],[78.05405,28.63418],[78.05641,28.63423],[78.05879,28.63415],[78.05968,28.63387],[78.0604,28.6333]]]}},{"type":"Feature","bbox":[78.05075,28.62844,78.05766,28.6333],"properties":{"ward":5,"name":"Patti Rajaram-First"},"geometry":{"type":"Polygon","coordinates":[[[78.05626,28.62844],[78.05401,28.6296],[78.05367,28.62915],[78.0534,28.62932],[78.05328,28.629],[78.05083,28.62921],[78.05075,28.63007],[78.05141,28.63127],[78.05238,28.63272],[78.05328,28.6333],[78.055,28.6324],[78.05666,28.63106],[78.05766,28.63059],[78.05721,28.6302],[78.05741,28.63004],[78.05723,28.62967],[78.05626,28.62844]]]}},{"type":"Feature","bbox":[78.06255,28.62681,78.06714,28.63471],"properties":{"ward":6,"name":"Patti Hajari Singh"},"geometry":{"type":"Polygon","coordinates":[[[78.06503,28.63335],[78.06625,28.63471],[78.06714,28.63264],[78.06637,28.63159],[78.0645,28.63014],[78.06545,28.62695],[78.06414,28.62681],[78.06377,28.62907],[78.06305,28.63041],[78.06255,28.63093],[78.06354,28.63206],[78.06503,28.63335]]]}},{"type":"Feature","bbox":[78.06236,28.62674,78.06414,28.63],"properties":{"ward":7,"name":"Patti Hulasrai-First"},"geometry":{"type":"Polygon","coordinates":[[[78.06414,28.62681],[78.06322,28.62674],[78.06325,28.62714],[78.06236,28.62731],[78.06274,28.62894],[78.06326,28.63],[78.06399,28.62836],[78.06414,28.62681]]]}},{"type":"Feature","bbox":[78.05626,28.62754,78.05996,28.63189],"properties":{"ward":8,"name":"Patti Dahar-Second"},"geometry":{"type":"Polygon","coordinates":[[[78.05949,28.63145],[78.05892,28.62936],[78.0592,28.62924],[78.05995,28.62846],[78.05996,28.62797],[78.05976,28.62754],[78.05899,28.62808],[78.05874,28.62794],[78.05804,28.62837],[78.05787,28.62802],[78.05739,28.62777],[78.05626,28.62844],[78.05723,28.62967],[78.05741,28.63004],[78.05721,28.6302],[78.05822,28.63115],[78.05859,28.63189],[78.05949,28.63145]]]}},{"type":"Feature","bbox":[78.05694,28.62588,78.05976,28.62808],"properties":{"ward":9,"name":"Patti Musalmanan- Fourth"},"geometry":{"type":"Polygon","coordinates":[[[78.05976,28.62754],[78.05938,28.62699],[78.05886,28.62716],[78.05839,28.62659],[78.05829,28.62632],[78.05867,28.6263],[78.05882,28.62609],[78.05866,28.62609],[78.05857,28.62588],[78.05747,28.62647],[78.05724,28.62631],[78.05694,28.62645],[78.05697,28.627],[78.05727,28.62758],[78.05772,28.62736],[78.05858,28.62802],[78.05885,28.62795],[78.05899,28.62808],[78.05976,28.62754]]]}},{"type":"Feature","bbox":[78.06414,28.62489,78.06778,28.62703],"properties":{"ward":10,"name":"Patti Hulasrai-Second"},"geometry":{"type":"Polygon","coordinates":[[[78.06778,28.62591],[78.0677,28.62555],[78.06671,28.62564],[78.06664,28.62489],[78.06641,28.62492],[78.06423,28.62571],[78.06414,28.62681],[78.06639,28.62703],[78.06648,28.626],[78.06778,28.62591]]]}},{"type":"Feature","bbox":[78.06037,28.62279,78.06272,28.62425],"properties":{"ward":11,"name":"Patti Harnam Singh-Third"},"geometry":{"type":"Polygon","coordinates":[[[78.06037,28.62279],[78.06055,28.62425],[78.06157,28.62368],[78.06175,28.62361],[78.06203,28.62392],[78.06272,28.62347],[78.06129,28.62291],[78.06037,28.62279]]]}},{"type":"Feature","bbox":[78.06035,28.61896,78.06448,28.62557],"properties":{"ward":12,"name":"Patti Harnam Singh-Fourth"},"geometry":{"type":"Polygon","coordinates":[[[78.06207,28.62318],[78.06272,28.62347],[78.06187,28.62402],[78.06243,28.62458],[78.06215,28.62503],[78.06246,28.62539],[78.06234,28.62557],[78.06414,28.62495],[78.0638,28.6242],[78.06336,28.62385],[78.06421,28.62265],[78.06322,28.62116],[78.06448,28.6199],[78.06373,28.61896],[78.0622,28.61993],[78.06206,28.61963],[78.0605,28.62012],[78.06035,28.62279],[78.06207,28.62318]]]}},{"type":"Feature","bbox":[78.0645,28.62591,78.06898,28.63264],"properties":{"ward":13,"name":"Patti Hulasrai-Third"},"geometry":{"type":"Polygon","coordinates":[[[78.0645,28.63014],[78.06637,28.63159],[78.06714,28.63264],[78.06843,28.62912],[78.06898,28.62709],[78.06768,28.62706],[78.06778,28.62591],[78.06648,28.626],[78.06639,28.62703],[78.06545,28.62695],[78.0645,28.63014]]]}},{"type":"Feature","bbox":[78.04996,28.61647,78.06206,28.62411],"properties":{"ward":14,"name":"Patti Harnam Singh - Sixth"},"geometry":{"type":"Polygon","coordinates":[[[78.04996,28.62072],[78.05385,28.62372],[78.05545,28.62411],[78.05643,28.62404],[78.06035,28.62279],[78.0605,28.62012],[78.06206,28.61963],[78.06133,28.61703],[78.06099,28.61709],[78.06093,28.61742],[78.05726,28.61894],[78.05601,28.6197],[78.05323,28.61647],[78.04996,28.62072]]]}},{"type":"Feature","bbox":[78.04385,28.62383,78.05083,28.6308],"properties":{"ward":15,"name":"Patti Musalamanan- Second"},"geometry":{"type":"Polygon","coordinates":[[[78.04797,28.62412],[78.04745,28.62383],[78.04385,28.62837],[78.04471,28.62853],[78.04514,28.62927],[78.04591,28.62896],[78.04609,28.62915],[78.04728,28.62874],[78.04836,28.6308],[78.04998,28.63035],[78.04971,28.62967],[78.05083,28.62921],[78.05051,28.62844],[78.05069,28.62832],[78.05024,28.62693],[78.04932,28.62544],[78.04797,28.62412]]]}},{"type":"Feature","bbox":[78.06322,28.61913,78.067,28.62467],"properties":{"ward":16,"name":"Patti Harnam Singh- Fifth"},"geometry":{"type":"Polygon","coordinates":[[[78.06405,28.62467],[78.06572,28.62375],[78.06492,28.62228],[78.06647,28.6218],[78.067,28.62124],[78.06647,28.62025],[78.06555,28.61913],[78.06435,28.62],[78.06322,28.62116],[78.06421,28.62265],[78.06336,28.62385],[78.0638,28.6242],[78.06405,28.62467]]]}},{"type":"Feature","bbox":[78.06405,28.62124,78.06963,28.62709],"properties":{"ward":17,"name":"Patti Hulasrai- Fourth"},"geometry":{"type":"Polygon","coordinates":[[[78.06898,28.62709],[78.06963,28.62546],[78.06856,28.62427],[78.06853,28.62389],[78.0679,28.62311],[78.067,28.62124],[78.06647,28.6218],[78.06492,28.62228],[78.06572,28.62375],[78.06405,28.62467],[78.06423,28.62571],[78.06664,28.62489],[78.06671,28.62564],[78.0677,28.62555],[78.06768,28.62706],[78.06898,28.62709]]]}},{"type":"Feature","bbox":[78.05463,28.627,78.05858,28.62837],"properties":{"ward":18,"name":"Patti Rajaram- Second"},"geometry":{"type":"Polygon","coordinates":[[[78.05804,28.62837],[78.05858,28.62802],[78.05772,28.62736],[78.05727,28.62758],[78.05697,28.627],[78.05463,28.62744],[78.05482,28.62807],[78.0562,28.62754],[78.05668,28.62811],[78.0576,28.62777],[78.05804,28.62837]]]}},{"type":"Feature","bbox":[78.05725,28.62363,78.05989,28.62572],"properties":{"ward":19,"name":"Patti Harnam Singh-Seventh"},"geometry":{"type":"Polygon","coordinates":[[[78.05898,28.62363],[78.05725,28.62435],[78.05736,28.62487],[78.05786,28.62486],[78.05826,28.6257],[78.05894,28.62572],[78.05961,28.62546],[78.05953,28.62484],[78.05978,28.62471],[78.0596,28.62436],[78.05989,28.62417],[78.0598,28.62403],[78.05951,28.62429],[78.05919,28.62373],[78.05905,28.62379],[78.05898,28.62363]]]}},{"type":"Feature","bbox":[78.05045,28.62645,78.05697,28.6296],"properties":{"ward":20,"name":"Patti Musalmanan-Third"},"geometry":{"type":"Polygon","coordinates":[[[78.05463,28.62744],[78.05697,28.627],[78.05694,28.62645],[78.05641,28.62671],[78.05413,28.62709],[78.05256,28.62712],[78.05045,28.62757],[78.05069,28.62832],[78.05051,28.62844],[78.05083,28.62921],[78.05328,28.629],[78.0534,28.62932],[78.05367,28.62915],[78.05401,28.6296],[78.05611,28.62857],[78.05668,28.62811],[78.0562,28.62754],[78.05482,28.62807],[78.05463,28.62744]]]}},{"type":"Feature","bbox":[78.05829,28.62588,78.06326,28.6333],"properties":{"ward":21,"name":"Patti Dahar- Third"},"geometry":{"type":"Polygon","coordinates":[[[78.06098,28.6261],[78.05927,28.62603],[78.05829,28.62632],[78.05886,28.62716],[78.05938,28.62699],[78.05996,28.62797],[78.05995,28.62846],[78.0592,28.62924],[78.05892,28.62936],[78.05945,28.63134],[78.0604,28.6333],[78.06217,28.63178],[78.06255,28.63093],[78.06326,28.63],[78.06274,28.62894],[78.06236,28.62731],[78.062,28.6265],[78.06137,28.62588],[78.06098,28.6261]]]}},{"type":"Feature","bbox":[78.05691,28.62279,78.06043,28.62442],"properties":{"ward":22,"name":"Patti Harnam Singh-Eight"},"geometry":{"type":"Polygon","coordinates":[[[78.05711,28.62442],[78.05898,28.62363],[78.05928,28.6239],[78.05959,28.62376],[78.05939,28.62334],[78.05962,28.62327],[78.05989,28.6233],[78.05993,28.62366],[78.06043,28.62354],[78.06037,28.62279],[78.05691,28.62389],[78.05711,28.62442]]]}},{"type":"Feature","bbox":[78.04914,28.62072,78.05724,28.62712],"properties":{"ward":23,"name":"Patti Musalmanan- Fifth"},"geometry":{"type":"Polygon","coordinates":[[[78.04914,28.62164],[78.05146,28.62391],[78.05326,28.62522],[78.054,28.62605],[78.05342,28.62684],[78.05256,28.62712],[78.05413,28.62709],[78.05641,28.62671],[78.05724,28.62631],[78.05616,28.6253],[78.05279,28.62302],[78.04996,28.62072],[78.04914,28.62164]]]}},{"type":"Feature","bbox":[78.05826,28.62361,78.06246,28.6261],"properties":{"ward":24,"name":"Patti Harnam Singh- Nineth"},"geometry":{"type":"Polygon","coordinates":[[[78.0589,28.6257],[78.05826,28.6257],[78.05866,28.62609],[78.06098,28.6261],[78.06137,28.62588],[78.06144,28.62599],[78.06246,28.62539],[78.06215,28.62503],[78.06243,28.62458],[78.06187,28.62402],[78.06203,28.62392],[78.06175,28.62361],[78.05953,28.62484],[78.05961,28.62546],[78.0589,28.6257]]]}},{"type":"Feature","bbox":[78.06144,28.62495,78.06425,28.62731],"properties":{"ward":25,"name":"Patti Hulasrai- Fifth"},"geometry":{"type":"Polygon","coordinates":[[[78.06414,28.62681],[78.06425,28.62595],[78.06414,28.62495],[78.06144,28.62599],[78.062,28.6265],[78.06236,28.62731],[78.06325,28.62714],[78.06322,28.62674],[78.06414,28.62681]]]}}]}