{"type":"FeatureCollection","features":[{"type":"Feature","bbox":[77.50066,27.7193,77.50641,27.72486],"properties":{"ward":1,"name":"Jatav Jatan"},"geometry":{"type":"Polygon","coordinates":[[[77.5043,27.72486],[77.50511,27.72431],[77.50511,27.72406],[77.50461,27.72351],[77.50641,27.72238],[77.50601,27.72185],[77.50577,27.72179],[77.50331,27.7193],[77.50255,27.72055],[77.50139,27.72189],[77.50083,27.72325],[77.50066,27.72418],[77.50149,27.72469],[77.50211,27.72477],[77.5043,27.72486]]]}},{"type":"Feature","bbox":[77.50541,27.72673,77.51546,27.73259],"properties":{"ward":2,"name":"Shergarh Road"},"geometry":{"type":"Polygon","coordinates":[[[77.50715,27.72673],[77.50541,27.72813],[77.50572,27.72829],[77.50593,27.72812],[77.50734,27.72869],[77.50854,27.73216],[77.5093,27.73259],[77.51546,27.73181],[77.51313,27.72963],[77.51127,27.72754],[77.5091,27.72942],[77.50764,27.72697],[77.50715,27.72673]]]}},{"type":"Feature","bbox":[77.50879,27.72371,77.51351,27.72702],"properties":{"ward":3,"name":"Chandupura Kathmaliya"},"geometry":{"type":"Polygon","coordinates":[[[77.50879,27.7247],[77.51094,27.7262],[77.51182,27.72702],[77.51351,27.72382],[77.51183,27.72403],[77.51138,27.72445],[77.51113,27.72445],[77.51094,27.72436],[77.51064,27.72371],[77.51002,27.72416],[77.50919,27.72433],[77.50879,27.7247]]]}},{"type":"Feature","bbox":[77.49995,27.72418,77.50578,27.72787],"properties":{"ward":4,"name":"Shiv Colony"},"geometry":{"type":"Polygon","coordinates":[[[77.50137,27.72461],[77.50066,27.72418],[77.49995,27.72668],[77.50185,27.72787],[77.50274,27.72679],[77.50375,27.72747],[77.50449,27.72666],[77.50515,27.72532],[77.50557,27.72531],[77.50578,27.72499],[77.50515,27.72435],[77.50476,27.72447],[77.5043,27.72486],[77.50211,27.72477],[77.50137,27.72461]]]}},{"type":"Feature","bbox":[77.50724,27.71926,77.51186,27.72366],"properties":{"ward":5,"name":"Aavkari"},"geometry":{"type":"Polygon","coordinates":[[[77.50956,27.72295],[77.50968,27.72287],[77.5103,27.72366],[77.51147,27.72297],[77.51186,27.72251],[77.51138,27.72212],[77.51049,27.72208],[77.50963,27.72171],[77.51,27.72033],[77.50742,27.71926],[77.50775,27.72081],[77.50724,27.72133],[77.50761,27.72165],[77.50806,27.72152],[77.50956,27.72295]]]}},{"type":"Feature","bbox":[77.50715,27.7261,77.51068,27.72942],"properties":{"ward":6,"name":"Seengu Thok"},"geometry":{"type":"Polygon","coordinates":[[[77.50791,27.7261],[77.50715,27.72673],[77.50764,27.72697],[77.5091,27.72942],[77.51068,27.72806],[77.50923,27.72667],[77.50791,27.7261]]]}},{"type":"Feature","bbox":[77.49818,27.71394,77.50523,27.72104],"properties":{"ward":7,"name":"Nagla Thok"},"geometry":{"type":"Polygon","coordinates":[[[77.50523,27.7171],[77.50344,27.71521],[77.50112,27.71394],[77.50057,27.71507],[77.49818,27.71828],[77.49901,27.71873],[77.50207,27.72104],[77.50255,27.72055],[77.50353,27.71894],[77.50523,27.7171]]]}},{"type":"Feature","bbox":[77.49388,27.71828,77.50207,27.72613],"properties":{"ward":8,"name":"Saraysahi"},"geometry":{"type":"Polygon","coordinates":[[[77.49388,27.7247],[77.49494,27.72549],[77.49551,27.72613],[77.49904,27.72517],[77.50053,27.72494],[77.50083,27.72325],[77.50139,27.72189],[77.50207,27.72104],[77.49901,27.71873],[77.49818,27.71828],[77.49536,27.72249],[77.49474,27.72367],[77.49388,27.7247]]]}},{"type":"Feature","bbox":[77.50963,27.71805,77.51393,27.72251],"properties":{"ward":9,"name":"Chaturbhuji"},"geometry":{"type":"Polygon","coordinates":[[[77.51393,27.7216],[77.51392,27.72115],[77.51071,27.71805],[77.51033,27.71815],[77.51032,27.71902],[77.50963,27.72171],[77.51049,27.72208],[77.51138,27.72212],[77.51186,27.72251],[77.51299,27.72155],[77.51393,27.7216]]]}},{"type":"Feature","bbox":[77.51064,27.72155,77.51812,27.73181],"properties":{"ward":10,"name":"Kasaipada"},"geometry":{"type":"Polygon","coordinates":[[[77.51094,27.72436],[77.51138,27.72445],[77.51183,27.72403],[77.51351,27.72382],[77.51189,27.72695],[77.5113,27.72758],[77.51313,27.72963],[77.51546,27.73181],[77.51711,27.72823],[77.51812,27.72664],[77.51767,27.72652],[77.51465,27.72185],[77.51425,27.72162],[77.51299,27.72155],[77.51064,27.72355],[77.51094,27.72436]]]}},{"type":"Feature","bbox":[77.50112,27.70979,77.51102,27.72033],"properties":{"ward":12,"name":"Hameer Thok"},"geometry":{"type":"Polygon","coordinates":[[[77.50344,27.71521],[77.50513,27.71702],[77.50647,27.7181],[77.50742,27.71926],[77.51,27.72033],[77.51032,27.71902],[77.51033,27.71815],[77.51102,27.71557],[77.50873,27.71457],[77.50769,27.71431],[77.50727,27.71397],[77.50647,27.71368],[77.5057,27.71308],[77.50519,27.71052],[77.50404,27.70979],[77.50112,27.71394],[77.50344,27.71521]]]}},{"type":"Feature","bbox":[77.50645,27.72385,77.51182,27.72806],"properties":{"ward":13,"name":"Telipada"},"geometry":{"type":"Polygon","coordinates":[[[77.50645,27.72466],[77.50714,27.72528],[77.50689,27.72563],[77.50748,27.72586],[77.50768,27.72622],[77.50805,27.72609],[77.50923,27.72667],[77.51068,27.72806],[77.51182,27.72702],[77.51094,27.7262],[77.50911,27.72504],[77.50879,27.7247],[77.50919,27.72433],[77.50885,27.72429],[77.50872,27.72449],[77.50837,27.72458],[77.5077,27.72385],[77.50645,27.72466]]]}},{"type":"Feature","bbox":[77.50461,27.72133,77.51064,27.72499],"properties":{"ward":14,"name":"Baniyapada"},"geometry":{"type":"Polygon","coordinates":[[[77.5095,27.72299],[77.50806,27.72152],[77.50761,27.72165],[77.50724,27.72133],[77.50577,27.72179],[77.50601,27.72185],[77.50641,27.72238],[77.50461,27.72351],[77.50511,27.72406],[77.50511,27.72431],[77.50476,27.72447],[77.50515,27.72435],[77.50578,27.72499],[77.5077,27.72385],[77.50844,27.7246],[77.50885,27.72429],[77.51002,27.72416],[77.51055,27.72382],[77.51064,27.72355],[77.5102,27.72364],[77.50968,27.72287],[77.5095,27.72299]]]}},{"type":"Feature","bbox":[77.50375,27.72466,77.50768,27.72864],"properties":{"ward":15,"name":"Beech Ka Thok"},"geometry":{"type":"Polygon","coordinates":[[[77.50375,27.72747],[77.50481,27.72864],[77.50768,27.72622],[77.50748,27.72586],[77.50689,27.72563],[77.50714,27.72528],[77.50645,27.72466],[77.50578,27.72499],[77.50557,27.72531],[77.50515,27.72532],[77.50449,27.72666],[77.50375,27.72747]]]}}]}