{"type":"FeatureCollection","features":[{"type":"Feature","bbox":[77.44822,27.47507,77.45549,27.47925],"properties":{"ward":1,"name":"Indra Colony"},"geometry":{"type":"Polygon","coordinates":[[[77.45428,27.47635],[77.45404,27.47644],[77.45293,27.47578],[77.45184,27.47614],[77.45106,27.47553],[77.44944,27.47507],[77.44822,27.47635],[77.44921,27.47744],[77.45021,27.47925],[77.45078,27.47887],[77.45233,27.47831],[77.45229,27.47806],[77.45317,27.47757],[77.45549,27.47684],[77.4552,27.47639],[77.45445,27.47663],[77.45428,27.47635]]]}},{"type":"Feature","bbox":[77.45021,27.47684,77.45946,27.48522],"properties":{"ward":2,"name":"Jatwan Koriyan"},"geometry":{"type":"Polygon","coordinates":[[[77.45021,27.47925],[77.45133,27.48081],[77.45119,27.48105],[77.45203,27.48236],[77.45207,27.48286],[77.4537,27.48455],[77.45389,27.48522],[77.4553,27.48459],[77.4555,27.48479],[77.45618,27.4846],[77.45619,27.48443],[77.45663,27.4843],[77.45669,27.48398],[77.45596,27.48295],[77.45699,27.48281],[77.4577,27.48213],[77.45756,27.48186],[77.45692,27.48184],[77.4572,27.48109],[77.45671,27.48118],[77.45657,27.47988],[77.45702,27.47934],[77.45771,27.4792],[77.45946,27.47842],[77.45911,27.47776],[77.45597,27.479],[77.45555,27.47769],[77.45589,27.47748],[77.45549,27.47684],[77.45317,27.47757],[77.45229,27.47806],[77.45233,27.47831],[77.45078,27.47887],[77.45021,27.47925]]]}},{"type":"Feature","bbox":[77.45657,27.4767,77.46804,27.48389],"properties":{"ward":3,"name":"Hathi Darwaja"},"geometry":{"type":"Polygon","coordinates":[[[77.46804,27.48324],[77.46527,27.48104],[77.46405,27.47893],[77.46242,27.47699],[77.46138,27.4767],[77.46073,27.47693],[77.46104,27.47739],[77.4607,27.47749],[77.46114,27.47829],[77.46026,27.47848],[77.46011,27.47824],[77.45946,27.47842],[77.45771,27.4792],[77.45702,27.47934],[77.45657,27.47988],[77.45671,27.48118],[77.4572,27.48109],[77.45692,27.48184],[77.45756,27.48186],[77.4577,27.48213],[77.45828,27.48143],[77.46212,27.4832],[77.46238,27.48389],[77.46321,27.48386],[77.46424,27.48327],[77.4659,27.48267],[77.46606,27.48267],[77.46635,27.48337],[77.46804,27.48324]]]}},{"type":"Feature","bbox":[77.44199,27.47174,77.45389,27.48553],"properties":{"ward":4,"name":"Maliyan Tavelan"},"geometry":{"type":"Polygon","coordinates":[[[77.44859,27.47668],[77.4481,27.47709],[77.44642,27.47648],[77.44352,27.47295],[77.44239,27.47182],[77.44199,27.47174],[77.44235,27.47322],[77.44343,27.47405],[77.4454,27.47634],[77.44625,27.47699],[77.44656,27.4775],[77.44748,27.47806],[77.44979,27.48143],[77.45103,27.48259],[77.4527,27.48475],[77.45277,27.48553],[77.45366,27.48549],[77.45389,27.48522],[77.4537,27.48455],[77.45207,27.48286],[77.45203,27.48236],[77.45119,27.48105],[77.45133,27.48081],[77.44859,27.47668]]]}},{"type":"Feature","bbox":[77.43069,27.4607,77.44888,27.4808],"properties":{"ward":5,"name":"Thakura Haweli"},"geometry":{"type":"Polygon","coordinates":[[[77.43071,27.46287],[77.43291,27.46473],[77.43252,27.46482],[77.43347,27.46579],[77.43333,27.46594],[77.43382,27.46689],[77.43351,27.46698],[77.43388,27.46793],[77.4342,27.46783],[77.43449,27.46837],[77.43421,27.46849],[77.43459,27.4692],[77.43526,27.4703],[77.43569,27.47049],[77.43742,27.47366],[77.4382,27.47338],[77.44008,27.47746],[77.44052,27.47717],[77.44495,27.4808],[77.44847,27.48059],[77.44888,27.48019],[77.44748,27.47806],[77.44656,27.4775],[77.44625,27.47699],[77.4454,27.47634],[77.44343,27.47405],[77.44235,27.47322],[77.44217,27.47283],[77.4421,27.47187],[77.44157,27.47093],[77.44171,27.47179],[77.4416,27.47203],[77.44135,27.47219],[77.44046,27.47223],[77.43658,27.47133],[77.4364,27.47113],[77.43614,27.47043],[77.43624,27.46894],[77.43556,27.46846],[77.43536,27.46797],[77.43562,27.46781],[77.43609,27.46799],[77.43739,27.46774],[77.43953,27.46837],[77.43894,27.46717],[77.43797,27.46607],[77.43617,27.46486],[77.43574,27.46377],[77.43563,27.463],[77.43276,27.4607],[77.43181,27.46127],[77.43069,27.46242],[77.43071,27.46287]]]}},{"type":"Feature","bbox":[77.45535,27.49455,77.47037,27.50399],"properties":{"ward":6,"name":"Mahal Hansarani"},"geometry":{"type":"Polygon","coordinates":[[[77.4583,27.50346],[77.45954,27.50281],[77.46088,27.50246],[77.4624,27.50091],[77.46349,27.5005],[77.46386,27.5002],[77.46431,27.4994],[77.46509,27.49922],[77.46614,27.49845],[77.46705,27.49801],[77.46739,27.49837],[77.46784,27.49823],[77.46835,27.49891],[77.46886,27.49835],[77.47037,27.49791],[77.46956,27.49717],[77.469,27.49728],[77.4688,27.49687],[77.46818,27.49697],[77.46775,27.49617],[77.46807,27.49609],[77.46772,27.49539],[77.46816,27.49516],[77.4677,27.49455],[77.46445,27.49623],[77.46421,27.49668],[77.4639,27.49682],[77.46282,27.49679],[77.4621,27.49739],[77.45829,27.49958],[77.45575,27.50212],[77.45653,27.50225],[77.45535,27.50329],[77.45757,27.50399],[77.4579,27.5029],[77.4583,27.50346]]]}},{"type":"Feature","bbox":[77.44868,27.488,77.45738,27.4935],"properties":{"ward":7,"name":"Bada Bazar Kasai Pada"},"geometry":{"type":"Polygon","coordinates":[[[77.44868,27.48969],[77.44961,27.4935],[77.44998,27.49349],[77.45099,27.49329],[77.455,27.49175],[77.45576,27.49125],[77.4551,27.49059],[77.45453,27.49032],[77.45558,27.48955],[77.45643,27.48925],[77.45738,27.48925],[77.45616,27.48827],[77.45302,27.488],[77.45303,27.48817],[77.45257,27.48834],[77.45276,27.48896],[77.44971,27.48891],[77.44877,27.48933],[77.44868,27.48969]]]}},{"type":"Feature","bbox":[77.4583,27.49801,77.47514,27.50849],"properties":{"ward":8,"name":"Tamsar Kunj Bajariyan"},"geometry":{"type":"Polygon","coordinates":[[[77.46891,27.49838],[77.46835,27.49891],[77.46784,27.49823],[77.46739,27.49837],[77.46705,27.49801],[77.46614,27.49845],[77.46509,27.49922],[77.46431,27.4994],[77.46386,27.5002],[77.46349,27.5005],[77.4624,27.50091],[77.46088,27.50246],[77.45954,27.50281],[77.4583,27.50346],[77.46072,27.50684],[77.46289,27.50589],[77.46376,27.5062],[77.46471,27.5058],[77.46519,27.50602],[77.46663,27.50596],[77.46686,27.50649],[77.46592,27.50752],[77.46666,27.50835],[77.46801,27.50803],[77.46808,27.50848],[77.46829,27.50849],[77.46927,27.50801],[77.46956,27.50826],[77.47046,27.50795],[77.46988,27.50718],[77.46825,27.50679],[77.46758,27.50437],[77.47084,27.50198],[77.47108,27.50186],[77.47124,27.502],[77.47204,27.50155],[77.47228,27.50195],[77.47264,27.50184],[77.47342,27.50286],[77.47387,27.50283],[77.47392,27.50318],[77.47418,27.50314],[77.47426,27.50364],[77.47466,27.50352],[77.47503,27.50432],[77.47514,27.50422],[77.47509,27.50283],[77.47436,27.50116],[77.46891,27.49838]]]}},{"type":"Feature","bbox":[77.46758,27.50155,77.47563,27.50795],"properties":{"ward":9,"name":"Mandir Laxmi Narayan"},"geometry":{"type":"Polygon","coordinates":[[[77.47503,27.50432],[77.47466,27.50352],[77.47426,27.50364],[77.47418,27.50314],[77.47392,27.50318],[77.47387,27.50283],[77.47342,27.50286],[77.47264,27.50184],[77.47228,27.50195],[77.47204,27.50155],[77.47124,27.502],[77.47108,27.50186],[77.47084,27.50198],[77.46758,27.50437],[77.46825,27.50679],[77.46988,27.50718],[77.47046,27.50795],[77.4742,27.50715],[77.47563,27.50422],[77.47503,27.50432]]]}},{"type":"Feature","bbox":[77.45669,27.48267,77.46891,27.49092],"properties":{"ward":10,"name":"Nagla Gopal"},"geometry":{"type":"Polygon","coordinates":[[[77.46732,27.48567],[77.46882,27.48559],[77.46891,27.48359],[77.46804,27.48324],[77.46635,27.48337],[77.46606,27.48267],[77.4659,27.48267],[77.46424,27.48327],[77.46321,27.48386],[77.46238,27.48389],[77.46252,27.48426],[77.46101,27.48546],[77.45797,27.48584],[77.45767,27.48793],[77.45669,27.48821],[77.45869,27.49026],[77.45912,27.49045],[77.46005,27.4906],[77.46087,27.49045],[77.46268,27.49062],[77.46371,27.49092],[77.46521,27.49072],[77.46586,27.49048],[77.46602,27.48996],[77.46562,27.48951],[77.46552,27.48851],[77.46714,27.48832],[77.46732,27.48567]]]}},{"type":"Feature","bbox":[77.44137,27.48019,77.45277,27.49013],"properties":{"ward":11,"name":"Koriyan Thakuran"},"geometry":{"type":"Polygon","coordinates":[[[77.44888,27.48019],[77.44847,27.48059],[77.4474,27.48057],[77.44466,27.48088],[77.44137,27.48223],[77.44357,27.48619],[77.44474,27.48586],[77.44506,27.48663],[77.44406,27.48691],[77.44585,27.49013],[77.44877,27.48933],[77.44971,27.48891],[77.44983,27.48826],[77.44955,27.48805],[77.4497,27.48728],[77.45022,27.48608],[77.45085,27.48608],[77.45082,27.4853],[77.45192,27.48523],[77.45235,27.48559],[77.45277,27.48553],[77.4527,27.48475],[77.45154,27.4832],[77.44979,27.48143],[77.44888,27.48019]]]}},{"type":"Feature","bbox":[77.44562,27.46805,77.45477,27.47644],"properties":{"ward":12,"name":"Mahal Hansarani Sabji Mandi"},"geometry":{"type":"Polygon","coordinates":[[[77.44789,27.46805],[77.44724,27.47057],[77.44656,27.47082],[77.44597,27.47057],[77.44562,27.47106],[77.44592,27.47394],[77.44725,27.47504],[77.44822,27.47635],[77.44944,27.47507],[77.45106,27.47553],[77.45184,27.47614],[77.45293,27.47578],[77.45404,27.47644],[77.45428,27.47635],[77.45343,27.47495],[77.45477,27.47429],[77.45345,27.47334],[77.45388,27.47233],[77.45217,27.47164],[77.44902,27.46824],[77.44806,27.46866],[77.44789,27.46805]]]}},{"type":"Feature","bbox":[77.44307,27.48925,77.46779,27.50212],"properties":{"ward":13,"name":"Sakshi Gopal Chakleshwar, Khatwar"},"geometry":{"type":"Polygon","coordinates":[[[77.44961,27.4935],[77.44868,27.48969],[77.44877,27.48933],[77.44307,27.4907],[77.44324,27.49131],[77.44385,27.4912],[77.44401,27.49164],[77.44613,27.49131],[77.44684,27.49256],[77.44542,27.49297],[77.44612,27.4947],[77.44547,27.49497],[77.44661,27.49634],[77.44829,27.49631],[77.44874,27.49662],[77.44906,27.49641],[77.45077,27.49602],[77.45128,27.49568],[77.45133,27.4959],[77.45235,27.49559],[77.45247,27.49586],[77.45346,27.49554],[77.45359,27.49589],[77.45395,27.49577],[77.45315,27.49924],[77.45378,27.49903],[77.45448,27.50017],[77.45489,27.49994],[77.45517,27.50037],[77.45472,27.50064],[77.45575,27.50212],[77.45829,27.49958],[77.45918,27.49901],[77.4621,27.49739],[77.46282,27.49679],[77.4639,27.49682],[77.46421,27.49668],[77.46445,27.49623],[77.46583,27.49561],[77.46481,27.49427],[77.46527,27.49406],[77.4651,27.49377],[77.46582,27.49346],[77.46573,27.49317],[77.46622,27.49296],[77.46609,27.49269],[77.46536,27.49286],[77.46531,27.4927],[77.46779,27.49199],[77.46745,27.4913],[77.46424,27.49252],[77.46397,27.49171],[77.46288,27.49214],[77.46241,27.49153],[77.46371,27.49092],[77.46268,27.49062],[77.46087,27.49045],[77.45966,27.49058],[77.45869,27.49026],[77.45738,27.48925],[77.45643,27.48925],[77.45558,27.48955],[77.45453,27.49032],[77.4551,27.49059],[77.45576,27.49125],[77.455,27.49175],[77.45099,27.49329],[77.44961,27.4935]]]}},{"type":"Feature","bbox":[77.44955,27.4843,77.45672,27.48896],"properties":{"ward":14,"name":"Harish Chandra Ka Bada"},"geometry":{"type":"Polygon","coordinates":[[[77.44971,27.48891],[77.45276,27.48896],[77.45257,27.48834],[77.45303,27.48817],[77.45302,27.488],[77.45616,27.48827],[77.45599,27.48788],[77.45633,27.48767],[77.45622,27.48747],[77.45508,27.48772],[77.45482,27.48763],[77.45564,27.48724],[77.45516,27.48679],[77.45572,27.48638],[77.45594,27.48583],[77.45627,27.48566],[77.45635,27.48499],[77.45672,27.4848],[77.45663,27.4843],[77.45619,27.48443],[77.45618,27.4846],[77.4555,27.48479],[77.4553,27.48459],[77.45389,27.48522],[77.45366,27.48549],[77.45319,27.48544],[77.4526,27.48561],[77.45192,27.48523],[77.45082,27.4853],[77.45085,27.48608],[77.45022,27.48608],[77.4497,27.48728],[77.44955,27.48805],[77.44983,27.48826],[77.44971,27.48891]]]}},{"type":"Feature","bbox":[77.45482,27.48143,77.46252,27.48985],"properties":{"ward":15,"name":"Bajariyaan"},"geometry":{"type":"Polygon","coordinates":[[[77.45828,27.48143],[77.45699,27.48281],[77.45596,27.48295],[77.45669,27.48398],[77.45672,27.4848],[77.45635,27.48499],[77.45627,27.48566],[77.4558,27.48599],[77.45572,27.48638],[77.45516,27.48679],[77.45564,27.48724],[77.45482,27.48763],[77.45508,27.48772],[77.45622,27.48747],[77.45633,27.48767],[77.45599,27.48788],[77.45616,27.48827],[77.45825,27.48985],[77.45669,27.48821],[77.45767,27.48793],[77.45797,27.48584],[77.46101,27.48546],[77.46252,27.48426],[77.46212,27.4832],[77.45828,27.48143]]]}},{"type":"Feature","bbox":[77.43536,27.45917,77.44803,27.47394],"properties":{"ward":16,"name":"Vijay Hanuman Mandir"},"geometry":{"type":"Polygon","coordinates":[[[77.44766,27.46565],[77.44672,27.46551],[77.44656,27.46502],[77.44759,27.46414],[77.44649,27.46331],[77.44268,27.46118],[77.44059,27.46044],[77.43861,27.45917],[77.43649,27.45945],[77.43536,27.45979],[77.43615,27.46017],[77.43708,27.46132],[77.4383,27.4638],[77.43813,27.46451],[77.43861,27.46553],[77.43976,27.46669],[77.44068,27.4673],[77.44114,27.46877],[77.4424,27.47058],[77.44592,27.47394],[77.44562,27.47106],[77.44597,27.47057],[77.44656,27.47082],[77.44724,27.47057],[77.44789,27.46805],[77.44754,27.46683],[77.44803,27.46623],[77.44766,27.46565]]]}},{"type":"Feature","bbox":[77.43276,27.45979,77.44859,27.47709],"properties":{"ward":17,"name":"Sankarshan Kund"},"geometry":{"type":"Polygon","coordinates":[[[77.43615,27.46017],[77.43536,27.45979],[77.43276,27.4607],[77.43563,27.463],[77.43574,27.46377],[77.43617,27.46486],[77.43797,27.46607],[77.43894,27.46717],[77.43969,27.46868],[77.44137,27.47048],[77.44197,27.47172],[77.44239,27.47182],[77.44352,27.47295],[77.44642,27.47648],[77.4481,27.47709],[77.44859,27.47668],[77.44725,27.47504],[77.44277,27.471],[77.44114,27.46877],[77.44068,27.4673],[77.43976,27.46669],[77.43861,27.46553],[77.43813,27.46451],[77.4383,27.4638],[77.43708,27.46132],[77.43615,27.46017]]]}},{"type":"Feature","bbox":[77.43536,27.46774,77.44171,27.47223],"properties":{"ward":18,"name":"Aanyor"},"geometry":{"type":"Polygon","coordinates":[[[77.44157,27.47093],[77.44089,27.46987],[77.43953,27.46837],[77.43739,27.46774],[77.43609,27.46799],[77.43562,27.46781],[77.43536,27.46797],[77.43556,27.46846],[77.43624,27.46894],[77.43614,27.47043],[77.43658,27.47133],[77.44046,27.47223],[77.44135,27.47219],[77.44171,27.47179],[77.44157,27.47093]]]}}]}