{"type":"FeatureCollection","features":[{"type":"Feature","bbox":[77.79214,27.55599,77.80039,27.55982],"properties":{"ward":1,"name":"Bholeshwar Colony"},"geometry":{"type":"Polygon","coordinates":[[[77.80029,27.55857],[77.79679,27.55737],[77.7968,27.55719],[77.79535,27.55643],[77.79511,27.55667],[77.79281,27.55599],[77.79241,27.55726],[77.79214,27.55762],[77.79406,27.55982],[77.79424,27.55973],[77.79411,27.55954],[77.7946,27.5593],[77.79668,27.55942],[77.7987,27.55982],[77.79962,27.55951],[77.80039,27.5596],[77.80029,27.55857]]]}},{"type":"Feature","bbox":[77.78731,27.54741,77.79018,27.55434],"properties":{"ward":2,"name":"Shivpuri-Ii"},"geometry":{"type":"Polygon","coordinates":[[[77.78761,27.54886],[77.78792,27.54996],[77.78746,27.55018],[77.78755,27.55044],[77.78731,27.5506],[77.78784,27.55103],[77.788,27.55099],[77.78869,27.55254],[77.78891,27.5527],[77.7882,27.55342],[77.78958,27.55434],[77.79017,27.54893],[77.79018,27.54741],[77.78761,27.54886]]]}},{"type":"Feature","bbox":[77.78319,27.55141,77.78758,27.55565],"properties":{"ward":3,"name":"Sultanganj"},"geometry":{"type":"Polygon","coordinates":[[[77.78758,27.5548],[77.78693,27.554],[77.78701,27.55391],[77.78683,27.55365],[77.78515,27.55241],[77.78524,27.55238],[77.78472,27.55171],[77.78474,27.55141],[77.78437,27.55153],[77.78319,27.55264],[77.78408,27.55565],[77.7872,27.55475],[77.78758,27.5548]]]}},{"type":"Feature","bbox":[77.78316,27.54671,77.78891,27.55342],"properties":{"ward":4,"name":"Shivpuri-I"},"geometry":{"type":"Polygon","coordinates":[[[77.78792,27.54996],[77.78743,27.54857],[77.78629,27.54909],[77.78603,27.54871],[77.78568,27.54891],[77.78316,27.54671],[77.78317,27.54924],[77.7882,27.55342],[77.78891,27.5527],[77.78869,27.55254],[77.788,27.55099],[77.78784,27.55103],[77.78731,27.5506],[77.78755,27.55044],[77.78746,27.55018],[77.78792,27.54996]]]}},{"type":"Feature","bbox":[77.78975,27.55762,77.79543,27.56485],"properties":{"ward":5,"name":"Mohalla Hanumanmadi"},"geometry":{"type":"Polygon","coordinates":[[[77.78975,27.56035],[77.78987,27.56124],[77.79061,27.56333],[77.79076,27.56485],[77.79237,27.56435],[77.79543,27.56217],[77.79406,27.55982],[77.79214,27.55762],[77.79086,27.55864],[77.78975,27.56035]]]}},{"type":"Feature","bbox":[77.78958,27.54745,77.79934,27.55434],"properties":{"ward":6,"name":"Gupta Cololy"},"geometry":{"type":"Polygon","coordinates":[[[77.79017,27.54893],[77.78958,27.55434],[77.79177,27.55343],[77.79358,27.55207],[77.79788,27.54964],[77.79934,27.54862],[77.79895,27.5479],[77.79798,27.54863],[77.79786,27.54837],[77.798,27.54817],[77.79755,27.54758],[77.79708,27.54745],[77.79624,27.54767],[77.79722,27.54891],[77.79614,27.54969],[77.79584,27.54952],[77.79494,27.5504],[77.7939,27.54932],[77.79375,27.54934],[77.79219,27.55044],[77.79251,27.55113],[77.792,27.55144],[77.79206,27.55171],[77.79109,27.5525],[77.79079,27.55218],[77.7908,27.55084],[77.79046,27.55083],[77.79033,27.55041],[77.79049,27.55034],[77.79046,27.5498],[77.79124,27.5494],[77.79093,27.54875],[77.79017,27.54893]]]}},{"type":"Feature","bbox":[77.78758,27.55434,77.79168,27.55738],"properties":{"ward":7,"name":"Mohalla Katra Bazar"},"geometry":{"type":"Polygon","coordinates":[[[77.78958,27.55434],[77.78952,27.55457],[77.78907,27.55486],[77.78819,27.55447],[77.78758,27.5548],[77.78849,27.55522],[77.78892,27.5557],[77.78951,27.55698],[77.78955,27.55738],[77.7896,27.5572],[77.79056,27.55696],[77.79032,27.5566],[77.79082,27.55606],[77.79095,27.55615],[77.79168,27.55557],[77.79031,27.55495],[77.78958,27.55434]]]}},{"type":"Feature","bbox":[77.78472,27.551,77.78958,27.55486],"properties":{"ward":8,"name":"Mohalla Vihariji Pathanpada"},"geometry":{"type":"Polygon","coordinates":[[[77.78958,27.55434],[77.78842,27.55362],[77.78531,27.551],[77.78494,27.5514],[77.78474,27.55141],[77.78472,27.55171],[77.78524,27.55238],[77.78515,27.55241],[77.78683,27.55365],[77.78701,27.55391],[77.78693,27.554],[77.78758,27.5548],[77.78819,27.55447],[77.78907,27.55486],[77.78952,27.55457],[77.78958,27.55434]]]}},{"type":"Feature","bbox":[77.78955,27.55696,77.79108,27.55868],"properties":{"ward":9,"name":"Gali Shivdatt"},"geometry":{"type":"Polygon","coordinates":[[[77.79108,27.55841],[77.7907,27.55787],[77.79056,27.55696],[77.7896,27.5572],[77.78955,27.55738],[77.79018,27.55837],[77.79081,27.55868],[77.79108,27.55841]]]}},{"type":"Feature","bbox":[77.79032,27.55557,77.79274,27.55841],"properties":{"ward":10,"name":"Mohalla Maveshiyan"},"geometry":{"type":"Polygon","coordinates":[[[77.79108,27.55841],[77.79241,27.55726],[77.79274,27.55605],[77.79168,27.55557],[77.79095,27.55615],[77.79082,27.55606],[77.79032,27.5566],[77.7907,27.55726],[77.79057,27.55748],[77.7907,27.55787],[77.79108,27.55841]]]}},{"type":"Feature","bbox":[77.78958,27.54862,77.8,27.55761],"properties":{"ward":11,"name":"Mohalla Teachers Colony"},"geometry":{"type":"Polygon","coordinates":[[[77.79934,27.54862],[77.79788,27.54964],[77.79358,27.55207],[77.79177,27.55343],[77.78958,27.55434],[77.79031,27.55495],[77.79274,27.55605],[77.79511,27.55667],[77.79535,27.55643],[77.7968,27.55719],[77.79679,27.55737],[77.79754,27.55761],[77.79781,27.55737],[77.79744,27.55685],[77.79843,27.5565],[77.79782,27.55517],[77.79688,27.5556],[77.79666,27.5554],[77.79632,27.55557],[77.79606,27.55517],[77.79524,27.55552],[77.79499,27.55523],[77.79464,27.55542],[77.79407,27.55482],[77.79417,27.55469],[77.79391,27.55447],[77.7939,27.55427],[77.79496,27.5536],[77.79492,27.55345],[77.79513,27.55329],[77.7949,27.55288],[77.79557,27.55244],[77.79534,27.55213],[77.79595,27.55174],[77.7962,27.55196],[77.79698,27.55099],[77.79691,27.55082],[77.79718,27.55073],[77.79737,27.55103],[77.79761,27.55089],[77.79765,27.55105],[77.79841,27.5506],[77.79905,27.55044],[77.79891,27.55025],[77.8,27.54953],[77.79934,27.54862]]]}},{"type":"Feature","bbox":[77.78755,27.55483,77.79086,27.56035],"properties":{"ward":12,"name":"Mohalla Buchiram"},"geometry":{"type":"Polygon","coordinates":[[[77.79086,27.55864],[77.79018,27.55837],[77.78995,27.55802],[77.78955,27.55738],[77.78951,27.55698],[77.78892,27.5557],[77.78849,27.55522],[77.78755,27.55483],[77.78862,27.55709],[77.78947,27.55844],[77.7895,27.5596],[77.78975,27.56035],[77.79086,27.55864]]]}},{"type":"Feature","bbox":[77.78408,27.55504,77.78798,27.55857],"properties":{"ward":13,"name":"Mohalla Vyapariyan"},"geometry":{"type":"Polygon","coordinates":[[[77.78627,27.55504],[77.78408,27.55565],[77.78453,27.55665],[77.7851,27.55651],[77.7864,27.55846],[77.78674,27.55833],[77.78698,27.55857],[77.78762,27.55792],[77.78798,27.55783],[77.78761,27.55712],[77.78737,27.55704],[77.78683,27.55627],[77.78627,27.55504]]]}},{"type":"Feature","bbox":[77.78544,27.55475,77.79076,27.56554],"properties":{"ward":14,"name":"Mohalla Shekhan"},"geometry":{"type":"Polygon","coordinates":[[[77.79076,27.56485],[77.79061,27.56333],[77.78957,27.56003],[77.78947,27.55844],[77.78862,27.55709],[77.78758,27.5548],[77.7872,27.55475],[77.78627,27.55504],[77.78683,27.55627],[77.78737,27.55704],[77.78761,27.55712],[77.78798,27.55783],[77.78762,27.55792],[77.78717,27.55846],[77.78736,27.55879],[77.78791,27.55869],[77.78807,27.55898],[77.78774,27.55924],[77.78801,27.55966],[77.78707,27.5601],[77.78748,27.56089],[77.78597,27.56187],[77.78675,27.56301],[77.7866,27.56311],[77.78666,27.56336],[77.78544,27.56405],[77.78627,27.56554],[77.78859,27.5655],[77.78824,27.56479],[77.78933,27.56437],[77.78962,27.56526],[77.79076,27.56485]]]}}]}