{"type":"FeatureCollection","features":[{"type":"Feature","bbox":[77.70316,29.11477,77.7047,29.11664],"properties":{"ward":1,"name":"Indrapuri"},"geometry":{"type":"Polygon","coordinates":[[[77.70403,29.11664],[77.70444,29.11553],[77.7047,29.11536],[77.70446,29.11477],[77.70316,29.11493],[77.70377,29.11638],[77.70403,29.11664]]]}},{"type":"Feature","bbox":[77.70172,29.11325,77.70408,29.11479],"properties":{"ward":2,"name":"Bhagwanpuri"},"geometry":{"type":"Polygon","coordinates":[[[77.70192,29.11382],[77.70212,29.11424],[77.70172,29.11449],[77.70178,29.11479],[77.70408,29.11479],[77.70377,29.11427],[77.70404,29.11396],[77.70376,29.11339],[77.7033,29.11325],[77.70256,29.11375],[77.70244,29.11363],[77.70192,29.11382]]]}},{"type":"Feature","bbox":[77.70182,29.11484,77.7045,29.12085],"properties":{"ward":3,"name":"Jagannathpuri"},"geometry":{"type":"Polygon","coordinates":[[[77.7045,29.12039],[77.70434,29.11955],[77.70363,29.11788],[77.70369,29.11735],[77.704,29.11666],[77.70373,29.11637],[77.70312,29.1149],[77.70182,29.11484],[77.70289,29.11741],[77.70239,29.11783],[77.70241,29.11913],[77.70337,29.12085],[77.7045,29.12039]]]}},{"type":"Feature","bbox":[77.69244,29.11324,77.70332,29.12788],"properties":{"ward":4,"name":"Raidashpuri"},"geometry":{"type":"Polygon","coordinates":[[[77.70332,29.12097],[77.70239,29.11915],[77.70237,29.11782],[77.70284,29.11739],[77.70174,29.11484],[77.70168,29.11449],[77.70206,29.11427],[77.70188,29.11381],[77.70049,29.11452],[77.70016,29.1141],[77.69987,29.11324],[77.69775,29.1141],[77.69898,29.11531],[77.69801,29.11569],[77.69787,29.11604],[77.69395,29.11902],[77.69267,29.12498],[77.69244,29.12678],[77.69321,29.12788],[77.70332,29.12097]]]}},{"type":"Feature","bbox":[77.70755,29.12073,77.71302,29.1292],"properties":{"ward":5,"name":"Aadarshpuri"},"geometry":{"type":"Polygon","coordinates":[[[77.71034,29.12827],[77.71061,29.1292],[77.71302,29.12899],[77.71287,29.12679],[77.71179,29.12736],[77.71036,29.12476],[77.71029,29.12459],[77.7105,29.12452],[77.71022,29.12078],[77.70755,29.12073],[77.70877,29.12651],[77.70896,29.12821],[77.71034,29.12827]]]}},{"type":"Feature","bbox":[77.71143,29.09749,77.72164,29.12816],"properties":{"ward":6,"name":"Rampuri"},"geometry":{"type":"Polygon","coordinates":[[[77.71143,29.09749],[77.71323,29.12816],[77.71493,29.12745],[77.71582,29.12677],[77.71527,29.12595],[77.71614,29.12537],[77.7179,29.12467],[77.71995,29.12346],[77.72164,29.12115],[77.72009,29.1184],[77.72012,29.11817],[77.72092,29.11782],[77.72024,29.11691],[77.71988,29.11593],[77.71777,29.11199],[77.71573,29.10701],[77.71528,29.10556],[77.71263,29.09942],[77.71241,29.09842],[77.71143,29.09749]]]}},{"type":"Feature","bbox":[77.70471,29.09752,77.71239,29.12081],"properties":{"ward":7,"name":"Saipuri"},"geometry":{"type":"Polygon","coordinates":[[[77.71239,29.12081],[77.71097,29.09752],[77.70979,29.09778],[77.70471,29.10093],[77.70753,29.12046],[77.71024,29.12052],[77.71239,29.12081]]]}},{"type":"Feature","bbox":[77.71028,29.12083,77.71287,29.12728],"properties":{"ward":8,"name":"Shivpuri"},"geometry":{"type":"Polygon","coordinates":[[[77.7104,29.1246],[77.71166,29.12718],[77.71185,29.12728],[77.71287,29.12676],[77.71255,29.12433],[77.71249,29.12149],[77.71216,29.12107],[77.71175,29.12089],[77.71028,29.12083],[77.7106,29.12454],[77.7104,29.1246]]]}},{"type":"Feature","bbox":[77.70364,29.11381,77.70731,29.12047],"properties":{"ward":9,"name":"Manoharpuri"},"geometry":{"type":"Polygon","coordinates":[[[77.70635,29.11382],[77.70544,29.11381],[77.705,29.11409],[77.70485,29.11463],[77.70449,29.11472],[77.70475,29.11537],[77.7045,29.11549],[77.70364,29.11775],[77.70413,29.11884],[77.70453,29.12031],[77.7047,29.12037],[77.70731,29.12047],[77.70635,29.11382]]]}},{"type":"Feature","bbox":[77.69455,29.10506,77.70188,29.11412],"properties":{"ward":10,"name":"Subashpuri"},"geometry":{"type":"MultiPolygon","coordinates":[[[[77.69632,29.10603],[77.69455,29.11214],[77.69585,29.11267],[77.69766,29.11412],[77.6992,29.1134],[77.70067,29.11306],[77.70069,29.11274],[77.70123,29.11227],[77.70142,29.11189],[77.70125,29.11139],[77.70188,29.11094],[77.69737,29.10697],[77.69756,29.10719],[77.69632,29.10603]]],[[[77.69632,29.10602],[77.69632,29.106],[77.69632,29.10599],[77.69632,29.10602]]],[[[77.69632,29.106],[77.69696,29.10661],[77.69737,29.10697],[77.6966,29.10506],[77.69632,29.106]]]]}},{"type":"Feature","bbox":[77.69536,29.12052,77.70835,29.13136],"properties":{"ward":11,"name":"Dwarkapuri"},"geometry":{"type":"Polygon","coordinates":[[[77.70588,29.12805],[77.70835,29.12818],[77.70732,29.12068],[77.70465,29.12052],[77.70383,29.12083],[77.69536,29.12667],[77.69779,29.1283],[77.69869,29.12916],[77.70045,29.13136],[77.70588,29.12805]],[[77.70598,29.128],[77.70597,29.128],[77.70603,29.12798],[77.70598,29.128]]]}},{"type":"Feature","bbox":[77.69669,29.10133,77.70573,29.11261],"properties":{"ward":12,"name":"Dayanandpuri"},"geometry":{"type":"Polygon","coordinates":[[[77.703,29.11261],[77.70534,29.11166],[77.70505,29.11106],[77.70573,29.11083],[77.70539,29.10759],[77.70429,29.10133],[77.70043,29.10354],[77.69669,29.10515],[77.69692,29.10603],[77.69805,29.10736],[77.69977,29.10862],[77.70088,29.10994],[77.70205,29.11091],[77.70248,29.11188],[77.703,29.11261]]]}},{"type":"Feature","bbox":[77.69992,29.11092,77.7033,29.11448],"properties":{"ward":13,"name":"Braham puri"},"geometry":{"type":"Polygon","coordinates":[[[77.70198,29.11092],[77.70127,29.1114],[77.70144,29.11187],[77.70123,29.1123],[77.70072,29.11274],[77.70072,29.11306],[77.69992,29.11324],[77.70024,29.11418],[77.70049,29.11448],[77.70187,29.1138],[77.70241,29.1136],[77.70262,29.1137],[77.7033,29.11321],[77.70198,29.11092]]]}},{"type":"Feature","bbox":[77.70309,29.11086,77.70622,29.11475],"properties":{"ward":14,"name":"Manoharpuri Sec"},"geometry":{"type":"Polygon","coordinates":[[[77.70574,29.11086],[77.70508,29.11111],[77.70542,29.11171],[77.70309,29.11263],[77.70335,29.11325],[77.70379,29.11337],[77.70408,29.114],[77.7038,29.11423],[77.70407,29.11475],[77.70484,29.11459],[77.7049,29.11412],[77.70546,29.11379],[77.70622,29.11371],[77.70574,29.11086]]]}}]}