{"type":"FeatureCollection","features":[{"type":"Feature","bbox":[78.1445,28.6088,78.14969,28.61616],"properties":{"ward":1,"name":"Bhoodwala"},"geometry":{"type":"Polygon","coordinates":[[[78.1445,28.61124],[78.1463,28.61616],[78.14833,28.61509],[78.14755,28.61398],[78.14693,28.6134],[78.14825,28.61203],[78.14906,28.61182],[78.14908,28.61146],[78.14969,28.61039],[78.14853,28.60895],[78.14838,28.6088],[78.1476,28.60945],[78.1445,28.61124]]]}},{"type":"Feature","bbox":[78.14289,28.60411,78.14855,28.60915],"properties":{"ward":2,"name":"Belwala"},"geometry":{"type":"Polygon","coordinates":[[[78.1445,28.60915],[78.14631,28.60777],[78.14855,28.6065],[78.14666,28.60614],[78.1459,28.60531],[78.1452,28.605],[78.14399,28.60411],[78.14289,28.60508],[78.1435,28.60595],[78.14291,28.60632],[78.14357,28.60717],[78.14393,28.60709],[78.14479,28.6084],[78.14415,28.60873],[78.1445,28.60915]]]}},{"type":"Feature","bbox":[78.14183,28.60633,78.14477,28.60979],"properties":{"ward":3,"name":"Rogangran"},"geometry":{"type":"Polygon","coordinates":[[[78.1445,28.60916],[78.14415,28.60873],[78.14477,28.60839],[78.14416,28.60742],[78.14389,28.60706],[78.14356,28.60719],[78.1429,28.60633],[78.14256,28.60651],[78.14314,28.6074],[78.14213,28.60808],[78.14183,28.6086],[78.14298,28.60919],[78.14372,28.60979],[78.1445,28.60916]]]}},{"type":"Feature","bbox":[78.14418,28.60811,78.14857,28.61123],"properties":{"ward":4,"name":"Mandirwala"},"geometry":{"type":"Polygon","coordinates":[[[78.14449,28.61123],[78.14769,28.60938],[78.14836,28.6088],[78.14857,28.60811],[78.14536,28.61],[78.14512,28.60971],[78.14418,28.61017],[78.14449,28.61123]]]}},{"type":"Feature","bbox":[78.14197,28.61074,78.14562,28.61508],"properties":{"ward":5,"name":"Padiyowala"},"geometry":{"type":"Polygon","coordinates":[[[78.14197,28.61205],[78.14214,28.61256],[78.14212,28.61341],[78.14281,28.61312],[78.14436,28.61508],[78.14562,28.61419],[78.14491,28.61264],[78.14429,28.61074],[78.14197,28.61205]]]}},{"type":"Feature","bbox":[78.14451,28.6065,78.14893,28.60999],"properties":{"ward":6,"name":"Takiyawala"},"geometry":{"type":"Polygon","coordinates":[[[78.14536,28.60999],[78.14857,28.6081],[78.14893,28.60699],[78.14856,28.6065],[78.14627,28.60781],[78.14451,28.60916],[78.14536,28.60999]]]}},{"type":"Feature","bbox":[78.13643,28.61257,78.14434,28.61649],"properties":{"ward":7,"name":"Mangalwala"},"geometry":{"type":"Polygon","coordinates":[[[78.13661,28.61435],[78.13724,28.61407],[78.13724,28.61389],[78.13747,28.6138],[78.13756,28.61393],[78.13839,28.61359],[78.13879,28.61332],[78.13871,28.61309],[78.13886,28.61303],[78.13911,28.61296],[78.13928,28.6133],[78.14057,28.61304],[78.14083,28.61365],[78.14119,28.61399],[78.1418,28.61441],[78.14211,28.61429],[78.14252,28.6154],[78.14242,28.61649],[78.14355,28.61581],[78.14381,28.61581],[78.14419,28.61551],[78.14397,28.61536],[78.14434,28.61507],[78.14281,28.61313],[78.14211,28.61343],[78.14202,28.61386],[78.14083,28.61257],[78.13989,28.61262],[78.13818,28.61317],[78.13643,28.61402],[78.13661,28.61435]]]}},{"type":"Feature","bbox":[78.14078,28.61125,78.14211,28.61384],"properties":{"ward":8,"name":"Vyapariyan"},"geometry":{"type":"Polygon","coordinates":[[[78.14087,28.61258],[78.14099,28.61288],[78.14206,28.61384],[78.14211,28.61244],[78.14149,28.61125],[78.14078,28.61155],[78.14135,28.61237],[78.14087,28.61258]]]}},{"type":"Feature","bbox":[78.1415,28.60917,78.14511,28.612],"properties":{"ward":9,"name":"Kotgarhi"},"geometry":{"type":"Polygon","coordinates":[[[78.14339,28.60951],[78.14299,28.60964],[78.14266,28.60998],[78.14293,28.61042],[78.14279,28.61064],[78.1415,28.61125],[78.14182,28.612],[78.14207,28.61199],[78.14424,28.61077],[78.14417,28.61017],[78.14511,28.6097],[78.14451,28.60917],[78.14374,28.6098],[78.14339,28.60951]]]}},{"type":"Feature","bbox":[78.13988,28.6086,78.14333,28.61253],"properties":{"ward":10,"name":"Husain Khel"},"geometry":{"type":"Polygon","coordinates":[[[78.14087,28.61253],[78.14134,28.61236],[78.14077,28.61155],[78.14275,28.61067],[78.14293,28.61042],[78.14265,28.60998],[78.14333,28.60945],[78.14183,28.6086],[78.14163,28.60895],[78.14093,28.60918],[78.14114,28.60962],[78.14087,28.60976],[78.14096,28.61007],[78.13988,28.61106],[78.14002,28.61127],[78.13994,28.61136],[78.14087,28.61253]]]}},{"type":"Feature","bbox":[78.13684,28.60619,78.14236,28.61102],"properties":{"ward":11,"name":"Kankadwala"},"geometry":{"type":"Polygon","coordinates":[[[78.13986,28.61102],[78.14095,28.61007],[78.14086,28.60976],[78.14113,28.60962],[78.14091,28.60918],[78.14169,28.6089],[78.14202,28.60821],[78.14236,28.60789],[78.14151,28.60649],[78.14057,28.60647],[78.14019,28.60619],[78.13851,28.60702],[78.1397,28.60856],[78.13797,28.60998],[78.13739,28.6094],[78.13684,28.60975],[78.13806,28.61088],[78.13875,28.61082],[78.13996,28.60992],[78.14021,28.61031],[78.1397,28.61072],[78.13986,28.61102]]]}},{"type":"Feature","bbox":[78.13559,28.60976,78.14081,28.61383],"properties":{"ward":12,"name":"Beriwala"},"geometry":{"type":"Polygon","coordinates":[[[78.14081,28.61257],[78.1407,28.61219],[78.13993,28.61136],[78.14001,28.61127],[78.13969,28.61072],[78.1402,28.6103],[78.13995,28.60993],[78.13875,28.61083],[78.13805,28.61089],[78.13684,28.60976],[78.13658,28.60993],[78.13679,28.6108],[78.13623,28.61113],[78.13559,28.61183],[78.13595,28.61219],[78.13569,28.61245],[78.13684,28.61383],[78.13902,28.61284],[78.14081,28.61257]]]}}]}