{"type":"FeatureCollection","features":[{"type":"Feature","bbox":[77.28336,28.86559,77.28586,28.86762],"properties":{"ward":1,"name":"Redash Puri"},"geometry":{"type":"Polygon","coordinates":[[[77.28422,28.86762],[77.28548,28.86719],[77.28586,28.8666],[77.28573,28.86588],[77.28509,28.866],[77.28491,28.86563],[77.28473,28.86571],[77.28466,28.86559],[77.28398,28.86574],[77.2836,28.86604],[77.28336,28.86601],[77.28344,28.86615],[77.28374,28.86611],[77.2837,28.86626],[77.28406,28.86676],[77.28422,28.86666],[77.28449,28.86718],[77.28468,28.86723],[77.28427,28.86739],[77.28422,28.86762]]]}},{"type":"Feature","bbox":[77.28418,28.86724,77.28746,28.87165],"properties":{"ward":2,"name":"Aajad Nagar"},"geometry":{"type":"Polygon","coordinates":[[[77.28418,28.86772],[77.28502,28.8689],[77.28539,28.86995],[77.28515,28.87001],[77.2859,28.87165],[77.28676,28.87136],[77.28684,28.87154],[77.28746,28.87129],[77.2855,28.86724],[77.28418,28.86772]]]}},{"type":"Feature","bbox":[77.28555,28.86665,77.28798,28.87128],"properties":{"ward":3,"name":"Vijay Nagar"},"geometry":{"type":"Polygon","coordinates":[[[77.28748,28.87128],[77.28798,28.87109],[77.28763,28.87049],[77.28761,28.87012],[77.28782,28.86989],[77.2875,28.86895],[77.28727,28.86902],[77.28676,28.86777],[77.28711,28.86757],[77.28679,28.86694],[77.28661,28.86708],[77.28643,28.86685],[77.28601,28.86708],[77.28594,28.86665],[77.28555,28.86725],[77.28748,28.87128]]]}},{"type":"Feature","bbox":[77.27967,28.85538,77.29007,28.86292],"properties":{"ward":4,"name":"Laxmi Nagar"},"geometry":{"type":"Polygon","coordinates":[[[77.28811,28.85833],[77.28728,28.85737],[77.28629,28.85801],[77.28557,28.85766],[77.28519,28.85767],[77.28509,28.85803],[77.28473,28.85808],[77.28478,28.85879],[77.28287,28.85959],[77.28259,28.85941],[77.28221,28.85961],[77.28204,28.85938],[77.28153,28.85958],[77.28059,28.85627],[77.28004,28.85538],[77.27967,28.85548],[77.28056,28.85859],[77.28203,28.86169],[77.28184,28.86184],[77.28214,28.86225],[77.28172,28.86252],[77.28211,28.86292],[77.28253,28.86284],[77.28259,28.86254],[77.28209,28.86117],[77.28227,28.8611],[77.28203,28.86048],[77.28238,28.86039],[77.28232,28.86002],[77.28273,28.85992],[77.28285,28.86055],[77.28348,28.86042],[77.28358,28.86074],[77.28439,28.86036],[77.28458,28.86109],[77.28493,28.86109],[77.28691,28.8601],[77.29007,28.85792],[77.28981,28.8576],[77.28993,28.85751],[77.28961,28.85729],[77.28811,28.85833]]]}},{"type":"Feature","bbox":[77.28103,28.86388,77.28598,28.86715],"properties":{"ward":5,"name":"Seema Puri"},"geometry":{"type":"Polygon","coordinates":[[[77.28598,28.86473],[77.28526,28.86388],[77.28351,28.86489],[77.28266,28.86575],[77.28225,28.8659],[77.282,28.86624],[77.28103,28.86687],[77.28135,28.86715],[77.2822,28.86669],[77.28231,28.86624],[77.28248,28.86639],[77.28311,28.86623],[77.2832,28.86601],[77.28292,28.86597],[77.28305,28.86593],[77.28292,28.86549],[77.28305,28.86537],[77.28332,28.86598],[77.28359,28.86603],[77.28427,28.86545],[77.28508,28.86504],[77.28507,28.86491],[77.28598,28.86473]]]}},{"type":"Feature","bbox":[77.29014,28.85998,77.29438,28.86844],"properties":{"ward":6,"name":"Uttam Nagar"},"geometry":{"type":"Polygon","coordinates":[[[77.29014,28.86755],[77.29438,28.86844],[77.29424,28.86752],[77.29321,28.86743],[77.29314,28.86674],[77.29234,28.86675],[77.29218,28.86572],[77.29197,28.86571],[77.29189,28.86511],[77.29256,28.86497],[77.29249,28.86463],[77.29339,28.8644],[77.29275,28.86284],[77.29309,28.86263],[77.29275,28.86182],[77.29412,28.86107],[77.29377,28.85998],[77.29135,28.8611],[77.29014,28.86755]]]}},{"type":"Feature","bbox":[77.25484,28.86177,77.2785,28.86758],"properties":{"ward":7,"name":"Pathsala Road"},"geometry":{"type":"Polygon","coordinates":[[[77.25602,28.86236],[77.25484,28.86518],[77.25659,28.86525],[77.25679,28.86568],[77.25756,28.86542],[77.25796,28.86632],[77.26009,28.86545],[77.2613,28.86554],[77.26137,28.86567],[77.26189,28.86554],[77.26312,28.86565],[77.26377,28.86721],[77.26557,28.86661],[77.26538,28.86617],[77.26712,28.86594],[77.26721,28.8662],[77.26796,28.86613],[77.26807,28.8664],[77.2685,28.86634],[77.26839,28.86607],[77.26988,28.86585],[77.27016,28.86671],[77.27085,28.86636],[77.27106,28.86695],[77.27144,28.86688],[77.27132,28.86656],[77.27265,28.86639],[77.2728,28.867],[77.27307,28.867],[77.27304,28.86723],[77.27331,28.86758],[77.27413,28.86738],[77.27416,28.86751],[77.27472,28.86742],[77.27443,28.86646],[77.27408,28.86653],[77.27401,28.8656],[77.27473,28.8658],[77.2785,28.86486],[77.27841,28.86462],[77.27804,28.86468],[77.27774,28.86377],[77.27615,28.86436],[77.27595,28.86439],[77.27589,28.86416],[77.27394,28.86445],[77.27287,28.86326],[77.27254,28.86334],[77.27308,28.86428],[77.2712,28.86428],[77.27016,28.86461],[77.27008,28.86384],[77.26959,28.86387],[77.26963,28.86425],[77.26926,28.86428],[77.26921,28.86396],[77.26829,28.86414],[77.26831,28.8637],[77.26743,28.8637],[77.26741,28.86183],[77.26211,28.86177],[77.25835,28.86258],[77.25826,28.86205],[77.25602,28.86236]]]}},{"type":"Feature","bbox":[77.28398,28.86477,77.29454,28.87475],"properties":{"ward":8,"name":"Kamla Nagar"},"geometry":{"type":"Polygon","coordinates":[[[77.29454,28.86857],[77.29247,28.86803],[77.2893,28.86752],[77.28969,28.86704],[77.28991,28.86601],[77.28796,28.8663],[77.28781,28.86596],[77.28698,28.86639],[77.28633,28.86577],[77.28597,28.86477],[77.28542,28.86489],[77.28398,28.86573],[77.28466,28.86558],[77.28473,28.8657],[77.28491,28.86562],[77.2851,28.86599],[77.28573,28.86588],[77.28601,28.86707],[77.28643,28.86685],[77.2866,28.86707],[77.28679,28.86694],[77.28714,28.86758],[77.28676,28.86774],[77.28728,28.86901],[77.2875,28.86894],[77.28784,28.8699],[77.28762,28.87013],[77.28764,28.8705],[77.28799,28.8711],[77.28685,28.87156],[77.28766,28.87294],[77.28647,28.87347],[77.28704,28.87475],[77.28761,28.8746],[77.28787,28.87321],[77.28882,28.87333],[77.28897,28.87274],[77.29079,28.8719],[77.29301,28.8706],[77.29442,28.86912],[77.29454,28.86857]]]}},{"type":"Feature","bbox":[77.28044,28.86774,77.28719,28.87306],"properties":{"ward":9,"name":"Shankar Nagar"},"geometry":{"type":"Polygon","coordinates":[[[77.28719,28.87265],[77.28665,28.87145],[77.28585,28.8717],[77.28513,28.87002],[77.28536,28.86995],[77.28495,28.86891],[77.28415,28.86774],[77.28044,28.8688],[77.28065,28.86924],[77.28125,28.86901],[77.28134,28.86921],[77.28172,28.86886],[77.28226,28.86866],[77.28212,28.86967],[77.2827,28.86954],[77.28298,28.87093],[77.28416,28.87306],[77.28589,28.87238],[77.28634,28.87287],[77.28719,28.87265]]]}},{"type":"Feature","bbox":[77.28535,28.86348,77.2903,28.86631],"properties":{"ward":10,"name":"Gandhi Ganj"},"geometry":{"type":"Polygon","coordinates":[[[77.28535,28.86385],[77.286,28.86465],[77.28642,28.86579],[77.28704,28.86631],[77.28785,28.86591],[77.28797,28.86626],[77.28949,28.86598],[77.28995,28.86596],[77.29015,28.8661],[77.2903,28.86483],[77.28948,28.8649],[77.28934,28.86412],[77.28871,28.86424],[77.28851,28.86373],[77.28737,28.86405],[77.28709,28.86349],[77.28655,28.86374],[77.28641,28.86348],[77.28595,28.86372],[77.28604,28.8639],[77.28584,28.864],[77.28565,28.86401],[77.28549,28.86376],[77.28535,28.86385]]]}},{"type":"Feature","bbox":[77.28142,28.86603,77.28466,28.86825],"properties":{"ward":11,"name":"Sewa Nagar"},"geometry":{"type":"Polygon","coordinates":[[[77.28223,28.86825],[77.28408,28.86773],[77.28426,28.86739],[77.28466,28.86722],[77.28448,28.86718],[77.28422,28.86667],[77.28405,28.86677],[77.28374,28.86612],[77.28343,28.86616],[77.28335,28.86603],[77.28248,28.8664],[77.28232,28.86625],[77.28222,28.8667],[77.28142,28.86712],[77.28223,28.86825]]]}},{"type":"Feature","bbox":[77.27932,28.86691,77.28208,28.86943],"properties":{"ward":12,"name":"Surya Nagar"},"geometry":{"type":"Polygon","coordinates":[[[77.27932,28.86943],[77.2804,28.86874],[77.28208,28.8683],[77.28165,28.86754],[77.28098,28.86691],[77.27997,28.86767],[77.27957,28.86816],[77.27932,28.86943]]]}},{"type":"Feature","bbox":[77.28906,28.85655,77.29571,28.86148],"properties":{"ward":13,"name":"Prem Puri"},"geometry":{"type":"Polygon","coordinates":[[[77.29228,28.85655],[77.29203,28.85796],[77.28906,28.86018],[77.28959,28.86088],[77.28988,28.86113],[77.29001,28.86085],[77.29046,28.86148],[77.29336,28.86008],[77.29571,28.85942],[77.2955,28.85879],[77.29482,28.85905],[77.29462,28.85869],[77.2935,28.85925],[77.29287,28.8571],[77.29285,28.85657],[77.29228,28.85655]]]}},{"type":"Feature","bbox":[77.2855,28.86049,77.29124,28.86488],"properties":{"ward":14,"name":"Hari Nagar"},"geometry":{"type":"Polygon","coordinates":[[[77.28584,28.86342],[77.2855,28.86377],[77.28565,28.86401],[77.28603,28.8639],[77.28594,28.86372],[77.28641,28.86348],[77.28655,28.86374],[77.28709,28.86349],[77.28736,28.86405],[77.28854,28.86372],[77.28871,28.8642],[77.28938,28.86409],[77.2895,28.86488],[77.29032,28.8648],[77.29054,28.86469],[77.29124,28.86118],[77.29051,28.86151],[77.29001,28.86085],[77.28987,28.86112],[77.28924,28.86049],[77.28909,28.86058],[77.28942,28.86095],[77.28861,28.86148],[77.28815,28.86095],[77.28784,28.86117],[77.28806,28.86152],[77.28778,28.86177],[77.28788,28.86194],[77.28651,28.86261],[77.28626,28.86254],[77.2863,28.86279],[77.28604,28.86282],[77.2859,28.8626],[77.2855,28.8628],[77.28584,28.86342]]]}},{"type":"Feature","bbox":[77.27339,28.86485,77.28054,28.86963],"properties":{"ward":15,"name":"Kelash Puri"},"geometry":{"type":"Polygon","coordinates":[[[77.27339,28.86861],[77.27362,28.86904],[77.27383,28.86896],[77.27439,28.86963],[77.2747,28.86947],[77.27432,28.86883],[77.27566,28.86844],[77.27574,28.86858],[77.27628,28.86829],[77.2762,28.86817],[77.27661,28.86808],[77.2769,28.86864],[77.27754,28.86838],[77.27686,28.8677],[77.27738,28.86754],[77.27774,28.86828],[77.27883,28.86801],[77.2787,28.86767],[77.28011,28.86701],[77.28003,28.86689],[77.28054,28.86659],[77.27983,28.86605],[77.27878,28.86485],[77.27483,28.86588],[77.27404,28.86576],[77.27413,28.86651],[77.27444,28.86644],[77.27506,28.8683],[77.27383,28.86888],[77.27362,28.86853],[77.27339,28.86861]]]}},{"type":"Feature","bbox":[77.28088,28.86287,77.2844,28.86644],"properties":{"ward":16,"name":"Krishna Nagar"},"geometry":{"type":"Polygon","coordinates":[[[77.28088,28.86355],[77.28163,28.86434],[77.28224,28.86461],[77.28259,28.86522],[77.28243,28.86527],[77.28255,28.86542],[77.2822,28.86559],[77.28226,28.86585],[77.28185,28.866],[77.28194,28.86615],[77.28151,28.86644],[77.28263,28.86574],[77.2831,28.86516],[77.2844,28.8643],[77.28419,28.86421],[77.28343,28.86451],[77.28223,28.86342],[77.28185,28.86287],[77.28127,28.86311],[77.28088,28.86355]]]}},{"type":"Feature","bbox":[77.28492,28.85797,77.29082,28.86233],"properties":{"ward":17,"name":"Kalyan Puri"},"geometry":{"type":"Polygon","coordinates":[[[77.28492,28.86111],[77.28534,28.86233],[77.28627,28.86201],[77.28791,28.86103],[77.29082,28.85877],[77.29005,28.85797],[77.28661,28.86031],[77.28492,28.86111]]]}},{"type":"Feature","bbox":[77.27551,28.86733,77.27988,28.87203],"properties":{"ward":18,"name":"Subash Nagar"},"geometry":{"type":"Polygon","coordinates":[[[77.27647,28.87203],[77.27794,28.87045],[77.27929,28.86945],[77.27925,28.86903],[77.27947,28.86828],[77.27988,28.86767],[77.27953,28.86733],[77.27875,28.86768],[77.27886,28.86802],[77.27774,28.86829],[77.27736,28.86756],[77.27706,28.86764],[77.27771,28.86835],[77.27685,28.86869],[77.27656,28.86818],[77.27577,28.86864],[77.27572,28.86885],[77.27617,28.86959],[77.27551,28.86986],[77.27603,28.87094],[77.27585,28.87111],[77.27623,28.87149],[77.27612,28.87168],[77.27647,28.87203]]]}},{"type":"Feature","bbox":[77.28206,28.86267,77.28527,28.8645],"properties":{"ward":19,"name":"Ram Nagar"},"geometry":{"type":"Polygon","coordinates":[[[77.28206,28.86298],[77.28221,28.86337],[77.28347,28.8645],[77.28415,28.86418],[77.28442,28.86425],[77.28527,28.86381],[77.28463,28.86275],[77.28354,28.86267],[77.28206,28.86298]]]}},{"type":"Feature","bbox":[77.27893,28.86356,77.28258,28.86574],"properties":{"ward":20,"name":"Indrapuri"},"geometry":{"type":"Polygon","coordinates":[[[77.27893,28.86491],[77.27915,28.8649],[77.27977,28.86574],[77.28131,28.8652],[77.2822,28.86558],[77.28253,28.86541],[77.28242,28.86527],[77.28258,28.86521],[77.28224,28.86463],[77.28163,28.86435],[77.28089,28.86356],[77.27893,28.86491]]]}},{"type":"Feature","bbox":[77.28205,28.85994,77.28542,28.86284],"properties":{"ward":21,"name":"Deve Nagar"},"geometry":{"type":"Polygon","coordinates":[[[77.28258,28.86284],[77.2834,28.86262],[77.28542,28.8627],[77.28488,28.86111],[77.28457,28.86112],[77.28439,28.86038],[77.28352,28.86077],[77.28348,28.86043],[77.28284,28.86056],[77.28272,28.85994],[77.2824,28.86002],[77.28246,28.86039],[77.28205,28.86048],[77.2823,28.86111],[77.28216,28.86127],[77.28263,28.86248],[77.28258,28.86284]]]}},{"type":"Feature","bbox":[77.27726,28.8687,77.28353,28.87236],"properties":{"ward":22,"name":"Adarsh Nagar"},"geometry":{"type":"Polygon","coordinates":[[[77.28294,28.87084],[77.28268,28.86955],[77.28208,28.86969],[77.28218,28.8687],[77.28134,28.86922],[77.28124,28.86902],[77.28064,28.86925],[77.28043,28.86882],[77.27905,28.8697],[77.27726,28.87136],[77.27743,28.87153],[77.27807,28.87089],[77.27823,28.87109],[77.27859,28.87084],[77.27906,28.8713],[77.27917,28.87123],[77.27936,28.87148],[77.27948,28.87139],[77.27983,28.87167],[77.28037,28.87232],[77.28105,28.87209],[77.28112,28.87227],[77.28244,28.87186],[77.28252,28.87203],[77.28285,28.87185],[77.28321,28.87236],[77.28353,28.87222],[77.28272,28.87101],[77.28294,28.87084]]]}},{"type":"Feature","bbox":[77.28467,28.86018,77.28942,28.86378],"properties":{"ward":23,"name":"Shiv Puri"},"geometry":{"type":"Polygon","coordinates":[[[77.2893,28.86045],[77.28906,28.86018],[77.28764,28.86126],[77.28541,28.86237],[77.28547,28.86271],[77.28467,28.86273],[77.28534,28.86378],[77.28581,28.86347],[77.2855,28.8628],[77.28594,28.86259],[77.28604,28.86282],[77.2863,28.86279],[77.28626,28.86255],[77.28668,28.86254],[77.28788,28.86194],[77.28778,28.86177],[77.28806,28.86152],[77.28784,28.86117],[77.28815,28.86095],[77.28861,28.86148],[77.28942,28.86095],[77.28909,28.86058],[77.2893,28.86045]]]}},{"type":"Feature","bbox":[77.27653,28.8574,77.28204,28.86487],"properties":{"ward":24,"name":"Saraswati Nagar"},"geometry":{"type":"Polygon","coordinates":[[[77.27768,28.85907],[77.27885,28.85984],[77.27846,28.86013],[77.27886,28.86074],[77.27855,28.86083],[77.27894,28.86121],[77.2787,28.86139],[77.27896,28.86172],[77.27869,28.8627],[77.277,28.86292],[77.27734,28.86368],[77.27653,28.86396],[77.2766,28.86412],[77.27777,28.86374],[77.27807,28.86464],[77.27845,28.86457],[77.27856,28.86487],[77.27891,28.86481],[77.28064,28.86376],[77.28096,28.8633],[77.28178,28.86269],[77.28161,28.86252],[77.28204,28.86224],[77.28175,28.86183],[77.28195,28.8617],[77.2804,28.85849],[77.2801,28.8574],[77.27981,28.8575],[77.27989,28.85785],[77.27768,28.85907]]]}},{"type":"Feature","bbox":[77.27901,28.86493,77.28225,28.8677],"properties":{"ward":25,"name":"Nehru Nagar"},"geometry":{"type":"Polygon","coordinates":[[[77.27954,28.86732],[77.27983,28.8677],[77.28193,28.86615],[77.28184,28.866],[77.28225,28.86584],[77.28218,28.86557],[77.28131,28.86524],[77.2798,28.86581],[77.27915,28.86493],[77.27901,28.86502],[77.27984,28.86599],[77.28059,28.86656],[77.28009,28.86691],[77.28016,28.86702],[77.27954,28.86732]]]}}]}