{"type":"FeatureCollection","features":[{"type":"Feature","bbox":[78.38666,27.91902,78.39767,27.9254],"properties":{"ward":1},"geometry":{"type":"Polygon","coordinates":[[[78.38716,27.92136],[78.38666,27.92226],[78.38758,27.92285],[78.38748,27.92304],[78.38798,27.92357],[78.38961,27.92401],[78.38938,27.92466],[78.39028,27.92536],[78.39158,27.9254],[78.39349,27.92497],[78.39383,27.92453],[78.39459,27.92497],[78.39551,27.924],[78.39484,27.92396],[78.39484,27.92384],[78.39527,27.92387],[78.39582,27.92335],[78.39684,27.9223],[78.39706,27.92151],[78.39767,27.92109],[78.39675,27.91999],[78.39248,27.92267],[78.39154,27.9221],[78.39023,27.92289],[78.38961,27.92202],[78.39197,27.92011],[78.39089,27.91902],[78.38995,27.91961],[78.38926,27.92039],[78.38898,27.92031],[78.38789,27.92172],[78.38716,27.92136]]]}},{"type":"Feature","bbox":[78.39541,27.91937,78.40097,27.92408],"properties":{"ward":2},"geometry":{"type":"Polygon","coordinates":[[[78.39541,27.92386],[78.39779,27.92408],[78.39822,27.92336],[78.39852,27.92366],[78.39905,27.92321],[78.39927,27.92326],[78.39933,27.92289],[78.3988,27.92226],[78.39985,27.92163],[78.39964,27.9214],[78.39971,27.92133],[78.40097,27.92055],[78.39995,27.91937],[78.39728,27.92146],[78.39692,27.9223],[78.39541,27.92386]]]}},{"type":"Feature","bbox":[78.3995,27.9245,78.40414,27.92729],"properties":{"ward":3},"geometry":{"type":"Polygon","coordinates":[[[78.40169,27.92729],[78.40286,27.92654],[78.40414,27.92482],[78.4005,27.9245],[78.3995,27.92531],[78.40053,27.92626],[78.40163,27.92698],[78.40169,27.92729]]]}},{"type":"Feature","bbox":[78.40228,27.91912,78.40538,27.92187],"properties":{"ward":4},"geometry":{"type":"Polygon","coordinates":[[[78.40538,27.91953],[78.4047,27.91916],[78.40445,27.91948],[78.40372,27.91912],[78.40228,27.92112],[78.40318,27.92157],[78.40313,27.92177],[78.40327,27.92187],[78.40498,27.92074],[78.40538,27.91953]]]}},{"type":"Feature","bbox":[78.39524,27.92636,78.406,27.93425],"properties":{"ward":5},"geometry":{"type":"Polygon","coordinates":[[[78.40328,27.92636],[78.40201,27.92731],[78.39872,27.92915],[78.39524,27.93359],[78.39661,27.93425],[78.39743,27.93315],[78.39814,27.93357],[78.39904,27.93237],[78.3999,27.93292],[78.40048,27.93281],[78.40228,27.93099],[78.40324,27.93161],[78.40354,27.93125],[78.40297,27.93091],[78.406,27.9278],[78.40328,27.92636]]]}},{"type":"Feature","bbox":[78.39788,27.92163,78.40097,27.92525],"properties":{"ward":6},"geometry":{"type":"Polygon","coordinates":[[[78.39942,27.92525],[78.40044,27.92444],[78.40093,27.92328],[78.40097,27.92286],[78.3999,27.92163],[78.39889,27.92227],[78.3994,27.92286],[78.39933,27.92331],[78.3991,27.92326],[78.39854,27.92377],[78.39821,27.92344],[78.39788,27.92409],[78.39867,27.92417],[78.39852,27.92456],[78.39942,27.92525]]]}},{"type":"Feature","bbox":[78.40206,27.91821,78.40814,27.92421],"properties":{"ward":7},"geometry":{"type":"Polygon","coordinates":[[[78.40442,27.92322],[78.40588,27.92362],[78.40597,27.9233],[78.40623,27.92335],[78.40662,27.92236],[78.40728,27.9225],[78.40814,27.91999],[78.40751,27.91961],[78.40604,27.91821],[78.40519,27.92072],[78.40369,27.92167],[78.40206,27.923],[78.40382,27.92421],[78.40432,27.92406],[78.40442,27.92322]]]}},{"type":"Feature","bbox":[78.40332,27.92335,78.41047,27.92774],"properties":{"ward":8},"geometry":{"type":"Polygon","coordinates":[[[78.41033,27.92587],[78.41047,27.92488],[78.40757,27.92438],[78.40667,27.92454],[78.40718,27.9241],[78.40656,27.9238],[78.4064,27.92398],[78.40465,27.92335],[78.40443,27.92465],[78.40332,27.92628],[78.40497,27.92714],[78.40548,27.92646],[78.40616,27.92683],[78.40563,27.9275],[78.4061,27.92774],[78.40703,27.92711],[78.40672,27.92658],[78.40727,27.926],[78.40789,27.92612],[78.40839,27.92568],[78.41033,27.92587]]]}},{"type":"Feature","bbox":[78.3927,27.9247,78.3969,27.92958],"properties":{"ward":9},"geometry":{"type":"Polygon","coordinates":[[[78.3969,27.92655],[78.39503,27.9247],[78.39417,27.92567],[78.39433,27.92603],[78.39353,27.92669],[78.39291,27.92689],[78.39271,27.9276],[78.3927,27.9287],[78.39312,27.92958],[78.39343,27.92943],[78.39417,27.92844],[78.39496,27.92798],[78.39633,27.92682],[78.3969,27.92655]]]}},{"type":"Feature","bbox":[78.40064,27.92305,78.40433,27.9247],"properties":{"ward":10},"geometry":{"type":"Polygon","coordinates":[[[78.40419,27.9247],[78.40433,27.92417],[78.40369,27.92426],[78.40198,27.92305],[78.40189,27.92317],[78.40272,27.92376],[78.40217,27.92435],[78.40122,27.92366],[78.40094,27.92366],[78.40064,27.92435],[78.40419,27.9247]]]}},{"type":"Feature","bbox":[78.39749,27.92417,78.39938,27.92619],"properties":{"ward":11},"geometry":{"type":"Polygon","coordinates":[[[78.39853,27.92619],[78.39938,27.92531],[78.39847,27.9246],[78.39856,27.92428],[78.39749,27.92417],[78.39783,27.9254],[78.39853,27.92619]]]}},{"type":"Feature","bbox":[78.40094,27.92116,78.40319,27.92426],"properties":{"ward":12},"geometry":{"type":"Polygon","coordinates":[[[78.40319,27.92193],[78.40298,27.92176],[78.40309,27.92165],[78.40273,27.92143],[78.40263,27.92151],[78.40219,27.92116],[78.40134,27.9223],[78.40094,27.92352],[78.40214,27.92426],[78.40263,27.92376],[78.40176,27.92314],[78.40319,27.92193]]]}},{"type":"Feature","bbox":[78.39882,27.92538,78.40156,27.92874],"properties":{"ward":13},"geometry":{"type":"Polygon","coordinates":[[[78.39888,27.92874],[78.40156,27.92734],[78.40153,27.92706],[78.39942,27.92538],[78.39899,27.92586],[78.39957,27.92657],[78.39948,27.92667],[78.39964,27.92686],[78.39882,27.92751],[78.39888,27.92874]]]}},{"type":"Feature","bbox":[78.39507,27.92402,78.39772,27.92652],"properties":{"ward":14},"geometry":{"type":"Polygon","coordinates":[[[78.39698,27.92652],[78.39756,27.92535],[78.39772,27.92539],[78.39741,27.92417],[78.39554,27.92402],[78.39507,27.92462],[78.39698,27.92652]]]}},{"type":"Feature","bbox":[78.39404,27.92542,78.39952,27.9317],"properties":{"ward":15},"geometry":{"type":"Polygon","coordinates":[[[78.39878,27.92891],[78.39869,27.92745],[78.39952,27.92686],[78.39943,27.92659],[78.39889,27.92597],[78.39852,27.92625],[78.39761,27.92542],[78.39736,27.9262],[78.39708,27.92652],[78.39498,27.92809],[78.39527,27.9283],[78.39498,27.92857],[78.39511,27.92876],[78.39404,27.92982],[78.39647,27.9317],[78.39878,27.92891]]]}}]}