{"type":"FeatureCollection","features":[{"type":"Feature","bbox":[77.59176,28.25059,77.59927,28.25467],"properties":{"ward":1,"name":"Ambedkarnagar"},"geometry":{"type":"Polygon","coordinates":[[[77.59927,28.2529],[77.59861,28.25156],[77.59777,28.25059],[77.59533,28.25108],[77.59176,28.25138],[77.59248,28.25467],[77.5949,28.2545],[77.59682,28.25467],[77.59867,28.25362],[77.59927,28.2529]]]}},{"type":"Feature","bbox":[77.59869,28.25199,77.60239,28.25371],"properties":{"ward":2,"name":"Gulista Colony"},"geometry":{"type":"Polygon","coordinates":[[[77.59869,28.2536],[77.59964,28.25337],[77.60085,28.25337],[77.60155,28.25315],[77.60197,28.25371],[77.60239,28.25321],[77.60155,28.25245],[77.60084,28.25252],[77.60054,28.25199],[77.59949,28.25269],[77.59869,28.2536]]]}},{"type":"Feature","bbox":[77.59176,28.2457,77.59922,28.25137],"properties":{"ward":3,"name":"Phool Vihar"},"geometry":{"type":"Polygon","coordinates":[[[77.59894,28.24927],[77.59836,28.24856],[77.59694,28.24719],[77.59578,28.24634],[77.59526,28.2457],[77.59213,28.24832],[77.59176,28.25137],[77.59531,28.25107],[77.59778,28.25058],[77.59818,28.2511],[77.59922,28.25088],[77.59842,28.24987],[77.59894,28.24927]]]}},{"type":"Feature","bbox":[77.60126,28.24607,77.60643,28.25109],"properties":{"ward":4,"name":"Laxmi Bai Nagar"},"geometry":{"type":"Polygon","coordinates":[[[77.60354,28.24607],[77.60126,28.24764],[77.60181,28.24921],[77.60247,28.24988],[77.6031,28.24958],[77.60328,28.25008],[77.60401,28.24991],[77.60423,28.25035],[77.60398,28.25052],[77.60418,28.25109],[77.60643,28.24985],[77.60354,28.24607]]]}},{"type":"Feature","bbox":[77.59819,28.25074,77.60157,28.25288],"properties":{"ward":5,"name":"Varshalii Nagar"},"geometry":{"type":"Polygon","coordinates":[[[77.59819,28.25111],[77.59862,28.25154],[77.59928,28.25288],[77.60054,28.25198],[77.60084,28.25251],[77.60157,28.25244],[77.60131,28.25176],[77.60038,28.25084],[77.60002,28.25074],[77.59963,28.25099],[77.599,28.25088],[77.59819,28.25111]]]}},{"type":"Feature","bbox":[77.6018,28.24923,77.6042,28.2516],"properties":{"ward":6,"name":"Gandhi Nagar"},"geometry":{"type":"Polygon","coordinates":[[[77.6018,28.24923],[77.60206,28.25113],[77.60225,28.25144],[77.6025,28.2516],[77.60321,28.25151],[77.60416,28.25108],[77.60396,28.25052],[77.6042,28.25034],[77.60399,28.24992],[77.60328,28.25011],[77.60309,28.24961],[77.60246,28.24991],[77.6018,28.24923]]]}},{"type":"Feature","bbox":[77.60002,28.24892,77.60257,28.25253],"properties":{"ward":7,"name":"Indra Nagar"},"geometry":{"type":"Polygon","coordinates":[[[77.60249,28.25161],[77.60204,28.25114],[77.60176,28.24892],[77.60043,28.24945],[77.60002,28.25072],[77.60053,28.25091],[77.60113,28.25152],[77.60157,28.25216],[77.60161,28.25253],[77.60257,28.25218],[77.60249,28.25161]]]}},{"type":"Feature","bbox":[77.60161,28.24987,77.61055,28.25802],"properties":{"ward":8,"name":"Shanti Nagar"},"geometry":{"type":"Polygon","coordinates":[[[77.60646,28.24987],[77.60401,28.25119],[77.6032,28.25154],[77.6027,28.25151],[77.6025,28.25163],[77.60258,28.25218],[77.60161,28.25253],[77.60241,28.25321],[77.60197,28.25373],[77.60229,28.25537],[77.60229,28.25622],[77.60391,28.25682],[77.61055,28.25802],[77.60866,28.25522],[77.60827,28.25231],[77.60646,28.24987]]]}},{"type":"Feature","bbox":[77.59907,28.24815,77.60176,28.24945],"properties":{"ward":9,"name":"Sadh Bhavna Nagar"},"geometry":{"type":"Polygon","coordinates":[[[77.60046,28.24945],[77.60176,28.2489],[77.60144,28.24815],[77.60078,28.24845],[77.60032,28.24838],[77.5998,28.24852],[77.59907,28.2492],[77.59985,28.24876],[77.60046,28.24945]]]}},{"type":"Feature","bbox":[77.59845,28.24879,77.60041,28.25099],"properties":{"ward":10,"name":"Shahid Nagar"},"geometry":{"type":"Polygon","coordinates":[[[77.59896,28.24928],[77.59845,28.24986],[77.59886,28.25022],[77.59924,28.25088],[77.5995,28.25099],[77.59989,28.25086],[77.60041,28.24943],[77.59985,28.24879],[77.59896,28.24928]]]}},{"type":"Feature","bbox":[77.59684,28.25316,77.60228,28.25622],"properties":{"ward":11,"name":"Azad Nagar"},"geometry":{"type":"Polygon","coordinates":[[[77.59684,28.25467],[77.59778,28.2548],[77.60228,28.25622],[77.60228,28.25538],[77.60194,28.25361],[77.60154,28.25316],[77.60085,28.25339],[77.59973,28.25337],[77.59868,28.25363],[77.59684,28.25467]]]}},{"type":"Feature","bbox":[77.59529,28.24304,77.60353,28.24926],"properties":{"ward":12,"name":"Raj Nagar"},"geometry":{"type":"Polygon","coordinates":[[[77.59896,28.24926],[77.59978,28.2485],[77.60032,28.24836],[77.60067,28.24846],[77.60143,28.24812],[77.60124,28.24764],[77.60353,28.24605],[77.60125,28.24304],[77.59529,28.24568],[77.59572,28.24622],[77.5969,28.24712],[77.59839,28.24855],[77.59896,28.24926]]]}}]}