{"type":"FeatureCollection","features":[{"type":"Feature","bbox":[77.36752,27.64391,77.37307,27.6482],"properties":{"ward":1,"name":"Jaatwaan"},"geometry":{"type":"Polygon","coordinates":[[[77.36752,27.64794],[77.36946,27.6478],[77.36936,27.64819],[77.36959,27.6482],[77.37028,27.6477],[77.37156,27.64715],[77.37307,27.64704],[77.37256,27.64598],[77.37142,27.64545],[77.37127,27.645],[77.37005,27.64427],[77.36968,27.64472],[77.3693,27.6443],[77.36928,27.64405],[77.36901,27.64391],[77.36793,27.64409],[77.36805,27.6457],[77.36771,27.64667],[77.36752,27.64794]]]}},{"type":"Feature","bbox":[77.36793,27.64266,77.37631,27.64598],"properties":{"ward":2,"name":"Jaatwaanharijanaan"},"geometry":{"type":"Polygon","coordinates":[[[77.37595,27.64373],[77.37546,27.64366],[77.37489,27.6432],[77.37346,27.64266],[77.37103,27.64346],[77.37009,27.64308],[77.36927,27.64311],[77.36843,27.64354],[77.36793,27.64409],[77.36901,27.64391],[77.36928,27.64405],[77.3693,27.6443],[77.36968,27.64472],[77.37005,27.64427],[77.37127,27.645],[77.37142,27.64545],[77.37281,27.64598],[77.37372,27.64594],[77.37584,27.64538],[77.37631,27.64434],[77.37595,27.64373]]]}},{"type":"Feature","bbox":[77.37455,27.64367,77.37942,27.64691],"properties":{"ward":3,"name":"Yadwaan"},"geometry":{"type":"Polygon","coordinates":[[[77.37942,27.64423],[77.37657,27.64367],[77.37595,27.64373],[77.37624,27.64405],[77.37626,27.64466],[77.37584,27.64538],[77.37467,27.64573],[77.37455,27.64677],[77.37617,27.6467],[77.37878,27.64691],[77.37871,27.6456],[77.37942,27.64423]]]}},{"type":"Feature","bbox":[77.36959,27.64573,77.37467,27.6482],"properties":{"ward":4,"name":"Chauna Thok"},"geometry":{"type":"Polygon","coordinates":[[[77.37341,27.64811],[77.37431,27.64802],[77.37467,27.64573],[77.37256,27.64598],[77.37307,27.64704],[77.37156,27.64715],[77.37028,27.6477],[77.36959,27.6482],[77.37159,27.64762],[77.37323,27.64765],[77.37341,27.64811]]]}},{"type":"Feature","bbox":[77.37431,27.6467,77.37907,27.64857],"properties":{"ward":5,"name":"Holi Tila"},"geometry":{"type":"Polygon","coordinates":[[[77.37455,27.64677],[77.37431,27.64802],[77.37504,27.64824],[77.3783,27.64857],[77.37859,27.64819],[77.37907,27.64813],[77.37903,27.64786],[77.37833,27.64783],[77.3783,27.64758],[77.37682,27.6474],[77.37682,27.64683],[77.37617,27.6467],[77.37455,27.64677]]]}},{"type":"Feature","bbox":[77.37341,27.64802,77.37929,27.65052],"properties":{"ward":6,"name":"Paschimi Katra Baghwala"},"geometry":{"type":"Polygon","coordinates":[[[77.37744,27.65041],[77.37726,27.64968],[77.37854,27.64949],[77.37929,27.64863],[77.37895,27.6486],[77.37907,27.64813],[77.37859,27.64819],[77.3783,27.64857],[77.3762,27.64843],[77.37431,27.64802],[77.37341,27.64811],[77.37358,27.64943],[77.37341,27.65052],[77.37597,27.65031],[77.37744,27.65041]]]}},{"type":"Feature","bbox":[77.36737,27.6478,77.37802,27.65216],"properties":{"ward":7,"name":"Sudama"},"geometry":{"type":"Polygon","coordinates":[[[77.37341,27.65052],[77.37358,27.64943],[77.37269,27.6493],[77.37221,27.64853],[77.37138,27.64837],[77.37136,27.64873],[77.37031,27.64824],[77.36936,27.64819],[77.36946,27.6478],[77.36752,27.64794],[77.36756,27.65021],[77.36737,27.65166],[77.37796,27.65216],[77.37802,27.65125],[77.37777,27.65063],[77.37744,27.65041],[77.37597,27.65031],[77.37341,27.65052]]]}},{"type":"Feature","bbox":[77.36973,27.64762,77.37358,27.64943],"properties":{"ward":8,"name":"Tatiya Bahboodiya"},"geometry":{"type":"Polygon","coordinates":[[[77.37358,27.64943],[77.37323,27.64765],[77.37159,27.64762],[77.36973,27.64821],[77.37031,27.64824],[77.37136,27.64873],[77.37138,27.64837],[77.37174,27.64836],[77.37221,27.64853],[77.37269,27.6493],[77.37358,27.64943]]]}},{"type":"Feature","bbox":[77.37726,27.64863,77.38226,27.65216],"properties":{"ward":9,"name":"Purwi Katra"},"geometry":{"type":"Polygon","coordinates":[[[77.38226,27.64963],[77.38196,27.64956],[77.38226,27.64868],[77.38196,27.64868],[77.38174,27.64933],[77.38117,27.64936],[77.38096,27.64886],[77.37929,27.64863],[77.37854,27.64949],[77.37726,27.64968],[77.37744,27.65041],[77.37777,27.65063],[77.37802,27.65125],[77.37796,27.65216],[77.37983,27.65212],[77.38089,27.65175],[77.38161,27.6511],[77.38226,27.64963]]]}},{"type":"Feature","bbox":[77.37682,27.64423,77.38287,27.64963],"properties":{"ward":10,"name":"Nai Colony Radhanagri"},"geometry":{"type":"Polygon","coordinates":[[[77.37942,27.64423],[77.37871,27.6456],[77.37878,27.64691],[77.37682,27.64683],[77.37682,27.6474],[77.3783,27.64758],[77.37833,27.64783],[77.37903,27.64786],[77.37895,27.6486],[77.38096,27.64886],[77.38117,27.64936],[77.38174,27.64933],[77.38196,27.64868],[77.38226,27.64868],[77.38196,27.64956],[77.38226,27.64963],[77.38287,27.6474],[77.38268,27.64601],[77.38206,27.64529],[77.38092,27.64456],[77.37942,27.64423]]]}}]}