{"type":"FeatureCollection","features":[{"type":"Feature","bbox":[78.65069,27.23341,78.65401,27.2358],"properties":{"ward":1,"name":"Kuncha, Jatwan &Amp; Potpuri(Anshik)"},"geometry":{"type":"Polygon","coordinates":[[[78.65401,27.2351],[78.65345,27.23446],[78.65375,27.23385],[78.6532,27.23341],[78.65196,27.23408],[78.65226,27.23437],[78.65202,27.2346],[78.6512,27.23407],[78.65069,27.23455],[78.65104,27.23506],[78.65143,27.23515],[78.65183,27.23484],[78.65205,27.23494],[78.6522,27.23482],[78.65199,27.23464],[78.65229,27.23443],[78.6528,27.23501],[78.65295,27.23548],[78.65287,27.2358],[78.65401,27.2351]]]}},{"type":"Feature","bbox":[78.65286,27.23515,78.65881,27.2377],"properties":{"ward":2,"name":"Gadiwan(Bhag-1)"},"geometry":{"type":"Polygon","coordinates":[[[78.65356,27.23549],[78.65385,27.23589],[78.65296,27.23645],[78.65309,27.23664],[78.65291,27.23676],[78.65286,27.23725],[78.6532,27.23759],[78.65387,27.23717],[78.65421,27.23752],[78.65448,27.2376],[78.65472,27.23743],[78.65494,27.2377],[78.65517,27.23761],[78.655,27.23732],[78.65518,27.23722],[78.65506,27.23692],[78.65474,27.23663],[78.65512,27.23629],[78.65539,27.23659],[78.65582,27.23635],[78.65675,27.23628],[78.65689,27.23578],[78.65853,27.23605],[78.65881,27.23592],[78.6543,27.23515],[78.65356,27.23549]]]}},{"type":"Feature","bbox":[78.65154,27.23255,78.65534,27.23451],"properties":{"ward":3,"name":"Tikatpura, Potpuri(Anshik)"},"geometry":{"type":"Polygon","coordinates":[[[78.65233,27.23318],[78.65154,27.23366],[78.65194,27.23405],[78.65323,27.23339],[78.65377,27.23381],[78.65348,27.23435],[78.65357,27.23451],[78.65507,27.23384],[78.65501,27.23367],[78.65529,27.23361],[78.65534,27.23343],[78.655,27.23298],[78.65511,27.23286],[78.65479,27.23302],[78.65437,27.23256],[78.6542,27.23255],[78.65376,27.23267],[78.65313,27.23321],[78.65233,27.23318]]]}},{"type":"Feature","bbox":[78.64184,27.22448,78.6513,27.24059],"properties":{"ward":4,"name":"Belampuri"},"geometry":{"type":"Polygon","coordinates":[[[78.64331,27.22448],[78.64187,27.22557],[78.6438,27.2274],[78.64436,27.22846],[78.6437,27.22905],[78.64481,27.23016],[78.64551,27.22947],[78.64714,27.23141],[78.64716,27.23182],[78.64888,27.23292],[78.64707,27.23478],[78.6474,27.23523],[78.64726,27.23548],[78.64756,27.23561],[78.64712,27.23659],[78.64651,27.23729],[78.64663,27.2374],[78.64589,27.23785],[78.64535,27.23749],[78.64517,27.23766],[78.6455,27.23791],[78.6448,27.2391],[78.64335,27.23812],[78.64298,27.23951],[78.64267,27.23999],[78.64184,27.24042],[78.64193,27.24059],[78.64855,27.23746],[78.65045,27.23676],[78.65044,27.23651],[78.65076,27.23624],[78.65086,27.23573],[78.65036,27.23542],[78.65079,27.23533],[78.651,27.23578],[78.6513,27.2356],[78.64331,27.22448]]]}},{"type":"Feature","bbox":[78.65197,27.2355,78.65384,27.23699],"properties":{"ward":5,"name":"Gadiwan(Bhag-2)"},"geometry":{"type":"Polygon","coordinates":[[[78.65354,27.2355],[78.65197,27.23642],[78.65238,27.23699],[78.65261,27.2368],[78.65288,27.23684],[78.65293,27.23644],[78.65384,27.23588],[78.65354,27.2355]]]}},{"type":"Feature","bbox":[78.65358,27.23396,78.65886,27.23572],"properties":{"ward":6,"name":"Majhaua"},"geometry":{"type":"Polygon","coordinates":[[[78.65411,27.2351],[78.65524,27.23512],[78.65886,27.23572],[78.65831,27.23484],[78.65705,27.23473],[78.65708,27.23456],[78.65671,27.23452],[78.65485,27.2346],[78.65479,27.23424],[78.6549,27.23419],[78.65477,27.23396],[78.65358,27.23453],[78.65411,27.2351]]]}},{"type":"Feature","bbox":[78.64469,27.22578,78.65442,27.2346],"properties":{"ward":7,"name":"Shishpuri &Amp; Bhatpuri"},"geometry":{"type":"Polygon","coordinates":[[[78.6531,27.23319],[78.65399,27.23253],[78.65442,27.23247],[78.6544,27.23212],[78.65413,27.23208],[78.65373,27.23171],[78.65341,27.23202],[78.65365,27.23255],[78.65311,27.23292],[78.65253,27.23247],[78.65215,27.23289],[78.65191,27.2328],[78.65166,27.23297],[78.6499,27.23037],[78.65025,27.23008],[78.64993,27.22928],[78.65005,27.2291],[78.6496,27.22883],[78.6501,27.22832],[78.6496,27.22774],[78.64922,27.2281],[78.64934,27.2282],[78.6492,27.22842],[78.64911,27.22835],[78.64827,27.22893],[78.64676,27.22717],[78.64716,27.22682],[78.6463,27.22595],[78.64554,27.22675],[78.64513,27.22616],[78.64533,27.22604],[78.64513,27.22578],[78.64469,27.22603],[78.65068,27.23454],[78.65121,27.23403],[78.65202,27.2346],[78.65224,27.2344],[78.65149,27.23354],[78.65247,27.2331],[78.6531,27.23319]]]}},{"type":"Feature","bbox":[78.64256,27.23651,78.65367,27.24243],"properties":{"ward":8,"name":"Pathakpura, Arelpura &Amp; Lodhpuraura"},"geometry":{"type":"Polygon","coordinates":[[[78.6515,27.23651],[78.64762,27.23803],[78.64256,27.24043],[78.64377,27.2414],[78.64458,27.24051],[78.64677,27.23884],[78.6496,27.23766],[78.65001,27.23869],[78.64981,27.23952],[78.64985,27.24014],[78.65064,27.2398],[78.65107,27.24063],[78.65177,27.24016],[78.65186,27.24027],[78.65217,27.24007],[78.65256,27.24059],[78.65222,27.24077],[78.65299,27.2418],[78.65194,27.2419],[78.65202,27.24243],[78.65367,27.24224],[78.6535,27.24124],[78.6527,27.23882],[78.65258,27.23741],[78.65238,27.23711],[78.65176,27.23756],[78.65154,27.23749],[78.65118,27.23698],[78.6515,27.23651]]]}},{"type":"Feature","bbox":[78.65105,27.23446,78.6528,27.23636],"properties":{"ward":9,"name":"Kothipura &Amp; Baniyat"},"geometry":{"type":"Polygon","coordinates":[[[78.65105,27.23507],[78.65193,27.23636],[78.6528,27.23584],[78.65273,27.23503],[78.65223,27.23446],[78.65205,27.23462],[78.65222,27.2348],[78.65205,27.23494],[78.65183,27.23484],[78.65142,27.23516],[78.65105,27.23507]]]}},{"type":"Feature","bbox":[78.65044,27.23537,78.65237,27.23753],"properties":{"ward":10,"name":"Kasyawan &Amp; Belampuri(Anshik)"},"geometry":{"type":"MultiPolygon","coordinates":[[[[78.65088,27.23575],[78.6508,27.23614],[78.65092,27.23627],[78.65051,27.23649],[78.65049,27.23675],[78.6515,27.23643],[78.65156,27.23662],[78.6512,27.23698],[78.65177,27.23753],[78.65237,27.23709],[78.65131,27.23562],[78.65088,27.23575]]],[[[78.65088,27.23575],[78.65095,27.23566],[78.6507,27.23537],[78.65044,27.23543],[78.65088,27.23575]]]]}},{"type":"Feature","bbox":[78.6524,27.23683,78.65493,27.24212],"properties":{"ward":11,"name":"Gadiwan(Bhag-3)"},"geometry":{"type":"Polygon","coordinates":[[[78.6524,27.23701],[78.65271,27.23746],[78.65288,27.23881],[78.65375,27.24103],[78.6539,27.24212],[78.65476,27.24196],[78.65461,27.24162],[78.65411,27.24177],[78.654,27.24166],[78.65389,27.24095],[78.6542,27.24078],[78.65451,27.24077],[78.6546,27.24092],[78.65482,27.24081],[78.65395,27.23915],[78.65454,27.23888],[78.65392,27.23803],[78.65442,27.23771],[78.65458,27.23793],[78.65493,27.23773],[78.65472,27.23746],[78.65449,27.23762],[78.65416,27.23753],[78.65387,27.2372],[78.65321,27.23763],[78.65281,27.23723],[78.65288,27.23686],[78.65259,27.23683],[78.6524,27.23701]]]}}]}