{"type":"FeatureCollection","features":[{"type":"Feature","bbox":[79.30858,28.72562,79.31168,28.72974],"properties":{"ward":1,"name":"Jatwan"},"geometry":{"type":"Polygon","coordinates":[[[79.31139,28.72602],[79.31104,28.72562],[79.30997,28.72638],[79.31007,28.72655],[79.30898,28.72713],[79.30919,28.7276],[79.30858,28.72792],[79.30988,28.72974],[79.31092,28.72927],[79.31106,28.72845],[79.31168,28.7277],[79.31139,28.72602]]]}},{"type":"Feature","bbox":[79.3034,28.72509,79.31098,28.73162],"properties":{"ward":2,"name":"Ansar Nagar"},"geometry":{"type":"Polygon","coordinates":[[[79.31098,28.72557],[79.31056,28.72509],[79.30739,28.72647],[79.3034,28.72852],[79.30614,28.73162],[79.30972,28.72989],[79.30847,28.72793],[79.30909,28.72755],[79.3089,28.72711],[79.30999,28.72654],[79.30993,28.72633],[79.31098,28.72557]]]}},{"type":"Feature","bbox":[79.31037,28.72388,79.31842,28.72826],"properties":{"ward":3,"name":"Garhi"},"geometry":{"type":"Polygon","coordinates":[[[79.31742,28.72388],[79.31639,28.72481],[79.3157,28.72498],[79.31469,28.72602],[79.31037,28.72416],[79.31065,28.72489],[79.31156,28.72592],[79.31313,28.72691],[79.31375,28.72643],[79.3147,28.72752],[79.31474,28.72786],[79.31498,28.72811],[79.31531,28.72806],[79.31541,28.72818],[79.31577,28.72804],[79.31598,28.72826],[79.31696,28.72785],[79.31688,28.72726],[79.31664,28.72736],[79.3161,28.72656],[79.3184,28.72516],[79.31842,28.72501],[79.31742,28.72388]]]}},{"type":"Feature","bbox":[79.31101,28.72608,79.31368,28.72966],"properties":{"ward":4,"name":"Ahlehageesh"},"geometry":{"type":"Polygon","coordinates":[[[79.31303,28.72695],[79.31152,28.72608],[79.31181,28.72773],[79.31106,28.72872],[79.31101,28.72925],[79.31125,28.72966],[79.31368,28.72775],[79.31303,28.72695]]]}},{"type":"Feature","bbox":[79.3132,28.72782,79.31563,28.73116],"properties":{"ward":5,"name":"Takiya"},"geometry":{"type":"Polygon","coordinates":[[[79.31457,28.72792],[79.31414,28.72782],[79.31391,28.728],[79.31397,28.72836],[79.31354,28.72881],[79.31347,28.72919],[79.31364,28.72955],[79.3132,28.72976],[79.31417,28.73116],[79.31495,28.73099],[79.31563,28.73062],[79.31553,28.72937],[79.31457,28.72792]]]}},{"type":"Feature","bbox":[79.31351,28.73074,79.31659,28.73427],"properties":{"ward":6,"name":"Takiya"},"geometry":{"type":"Polygon","coordinates":[[[79.31351,28.73196],[79.3153,28.73388],[79.31606,28.73427],[79.31659,28.73388],[79.31593,28.73203],[79.3158,28.73147],[79.31591,28.7311],[79.31571,28.73074],[79.31496,28.73114],[79.31426,28.73122],[79.31444,28.73144],[79.31351,28.73196]]]}},{"type":"Feature","bbox":[79.31464,28.73154,79.32131,28.73813],"properties":{"ward":7,"name":"Shehkupura"},"geometry":{"type":"Polygon","coordinates":[[[79.32131,28.73276],[79.32112,28.73241],[79.31818,28.73154],[79.3191,28.73302],[79.31611,28.73455],[79.31517,28.73405],[79.31464,28.73447],[79.3151,28.73636],[79.31866,28.73813],[79.32131,28.73276]]]}},{"type":"Feature","bbox":[79.30493,28.73194,79.31515,28.7375],"properties":{"ward":8,"name":"Kurshi Nagar"},"geometry":{"type":"Polygon","coordinates":[[[79.30493,28.73467],[79.30963,28.7375],[79.31484,28.73642],[79.31452,28.7344],[79.31515,28.73382],[79.31333,28.73194],[79.31319,28.73224],[79.31188,28.73261],[79.31062,28.73319],[79.31032,28.73294],[79.30908,28.73367],[79.30882,28.73353],[79.30806,28.73404],[79.30769,28.7334],[79.30493,28.73467]]]}},{"type":"Feature","bbox":[79.31011,28.73042,79.31325,28.7331],"properties":{"ward":9,"name":"Kanchan Kuana"},"geometry":{"type":"Polygon","coordinates":[[[79.31278,28.73172],[79.31203,28.73042],[79.31062,28.73111],[79.311,28.73172],[79.31011,28.73223],[79.31063,28.7331],[79.31313,28.73213],[79.31325,28.7319],[79.31278,28.73172]]]}},{"type":"Feature","bbox":[79.3121,28.72959,79.31435,28.73188],"properties":{"ward":10,"name":"Padav"},"geometry":{"type":"Polygon","coordinates":[[[79.31346,28.73188],[79.31435,28.73144],[79.3134,28.73022],[79.31314,28.72966],[79.31285,28.72959],[79.31233,28.72977],[79.3121,28.73038],[79.31245,28.73108],[79.31283,28.73164],[79.31346,28.73188]]]}},{"type":"Feature","bbox":[79.31223,28.72655,79.31466,28.72957],"properties":{"ward":11,"name":"Gaudi"},"geometry":{"type":"Polygon","coordinates":[[[79.31464,28.72755],[79.31372,28.72655],[79.31313,28.72703],[79.3138,28.72776],[79.31223,28.72905],[79.31288,28.72957],[79.31351,28.72947],[79.31336,28.72918],[79.31346,28.72879],[79.31359,28.72847],[79.3139,28.72827],[79.31374,28.72797],[79.31406,28.72771],[79.31466,28.72783],[79.31464,28.72755]]]}},{"type":"Feature","bbox":[79.30488,28.72913,79.31274,28.73455],"properties":{"ward":12,"name":"Agwada"},"geometry":{"type":"Polygon","coordinates":[[[79.31123,28.72971],[79.31095,28.72931],[79.30625,28.73174],[79.30488,28.73455],[79.30776,28.73328],[79.30807,28.73392],[79.30884,28.73341],[79.3091,28.73358],[79.31037,28.7328],[79.31001,28.73217],[79.3109,28.73167],[79.31048,28.73104],[79.31164,28.73055],[79.31213,28.73023],[79.31228,28.7297],[79.31254,28.72975],[79.31274,28.72959],[79.31221,28.72913],[79.31123,28.72971]]]}},{"type":"Feature","bbox":[79.31562,28.72901,79.31954,28.7338],"properties":{"ward":13,"name":"Shareef Nagar"},"geometry":{"type":"Polygon","coordinates":[[[79.31562,28.72931],[79.31572,28.73055],[79.31604,28.73111],[79.31593,28.73144],[79.31674,28.7338],[79.31852,28.73309],[79.31877,28.73282],[79.3178,28.73138],[79.31954,28.73135],[79.31939,28.73095],[79.31758,28.72901],[79.31562,28.72931]]]}},{"type":"Feature","bbox":[79.31506,28.72288,79.31963,28.72923],"properties":{"ward":14,"name":"Bahedi Bus Stand"},"geometry":{"type":"Polygon","coordinates":[[[79.31561,28.72923],[79.31757,28.72877],[79.31963,28.72568],[79.31928,28.72288],[79.31749,28.72384],[79.31851,28.72507],[79.31622,28.72659],[79.31665,28.72728],[79.3169,28.72718],[79.31705,28.72798],[79.31601,28.72833],[79.3158,28.72814],[79.31506,28.72822],[79.31561,28.72923]]]}},{"type":"Feature","bbox":[79.30623,28.71552,79.31924,28.72695],"properties":{"ward":15,"name":"Nawab Nagar"},"geometry":{"type":"Polygon","coordinates":[[[79.31042,28.72503],[79.31032,28.72404],[79.31464,28.72582],[79.31566,28.72486],[79.31643,28.72471],[79.31669,28.72416],[79.31924,28.7228],[79.31312,28.71781],[79.30651,28.71552],[79.30623,28.72695],[79.31042,28.72503]]]}}]}