{"type":"FeatureCollection","features":[{"type":"Feature","bbox":[80.90028,28.31249,80.90327,28.31685],"properties":{"ward":1,"name":"Paschim Chamraudha &Amp; Jhala"},"geometry":{"type":"Polygon","coordinates":[[[80.90028,28.31365],[80.90053,28.31414],[80.90045,28.31487],[80.90114,28.31593],[80.90327,28.31685],[80.90311,28.31422],[80.90228,28.31249],[80.90062,28.31321],[80.90089,28.31343],[80.90028,28.31365]]]}},{"type":"Feature","bbox":[80.88859,28.31306,80.89389,28.31719],"properties":{"ward":2,"name":"Bhedaura First"},"geometry":{"type":"Polygon","coordinates":[[[80.89135,28.31306],[80.88967,28.31427],[80.88859,28.31528],[80.88884,28.3155],[80.88909,28.31619],[80.89053,28.31563],[80.89123,28.31615],[80.89138,28.31658],[80.89189,28.31719],[80.89373,28.31651],[80.89389,28.31638],[80.89223,28.31385],[80.89135,28.31306]]]}},{"type":"Feature","bbox":[80.89937,28.30425,80.90475,28.30987],"properties":{"ward":3,"name":"Badhiyan Tola"},"geometry":{"type":"Polygon","coordinates":[[[80.90249,28.30987],[80.90475,28.30864],[80.90469,28.30768],[80.9045,28.3074],[80.904,28.30766],[80.90297,28.30677],[80.9027,28.3067],[80.90201,28.30557],[80.90129,28.30586],[80.90097,28.30583],[80.90076,28.30539],[80.90088,28.30471],[80.90065,28.30438],[80.90031,28.30425],[80.89937,28.305],[80.90125,28.30828],[80.90191,28.30891],[80.90249,28.30987]]]}},{"type":"Feature","bbox":[80.88659,28.31029,80.89124,28.31557],"properties":{"ward":4,"name":"Bhedaura Second"},"geometry":{"type":"Polygon","coordinates":[[[80.89124,28.313],[80.89062,28.31149],[80.89073,28.3104],[80.89014,28.31029],[80.88958,28.31046],[80.88911,28.31089],[80.88868,28.31088],[80.88741,28.31241],[80.88734,28.31306],[80.88659,28.31397],[80.88706,28.31454],[80.88769,28.31477],[80.88826,28.31557],[80.89124,28.313]]]}},{"type":"Feature","bbox":[80.89859,28.31102,80.90229,28.31364],"properties":{"ward":5,"name":"Chamraudha Paschim"},"geometry":{"type":"Polygon","coordinates":[[[80.89859,28.31156],[80.89873,28.31184],[80.89933,28.31193],[80.90027,28.31364],[80.90084,28.31343],[80.90062,28.31319],[80.90229,28.31246],[80.90174,28.31172],[80.90066,28.31199],[80.90004,28.31102],[80.89859,28.31156]]]}},{"type":"Feature","bbox":[80.90174,28.31021,80.90706,28.31495],"properties":{"ward":6,"name":"Purab Chamraudha &Amp; Bhatthi"},"geometry":{"type":"Polygon","coordinates":[[[80.90174,28.31172],[80.90231,28.31246],[80.90313,28.31414],[80.90316,28.31495],[80.90706,28.31334],[80.90433,28.31021],[80.90388,28.31045],[80.90344,28.31043],[80.90272,28.31118],[80.90174,28.31172]]]}},{"type":"Feature","bbox":[80.90104,28.31553,80.90733,28.31939],"properties":{"ward":7,"name":"Jhala"},"geometry":{"type":"Polygon","coordinates":[[[80.9033,28.3169],[80.90129,28.3161],[80.90106,28.31624],[80.90131,28.31638],[80.90104,28.31655],[80.90201,28.31771],[80.90202,28.31785],[80.90162,28.31814],[80.90246,28.31939],[80.90733,28.31692],[80.90652,28.31553],[80.90388,28.31668],[80.90346,28.31574],[80.90325,28.31582],[80.9033,28.3169]]]}},{"type":"Feature","bbox":[80.89063,28.30829,80.8951,28.31304],"properties":{"ward":8,"name":"Bhedaura Third"},"geometry":{"type":"Polygon","coordinates":[[[80.8951,28.31124],[80.89487,28.31058],[80.89353,28.30829],[80.89223,28.30889],[80.89101,28.31001],[80.8907,28.3105],[80.89083,28.31106],[80.89064,28.31113],[80.89063,28.31132],[80.89131,28.31304],[80.89345,28.31244],[80.89375,28.31189],[80.8951,28.31124]]]}},{"type":"Feature","bbox":[80.89736,28.30501,80.90248,28.31097],"properties":{"ward":9,"name":"Badhiyan Tola, Kaji House"},"geometry":{"type":"Polygon","coordinates":[[[80.90004,28.31097],[80.90248,28.3099],[80.90191,28.30893],[80.90096,28.30788],[80.89935,28.30501],[80.89927,28.30526],[80.89897,28.30542],[80.899,28.3057],[80.89736,28.30657],[80.89887,28.30912],[80.8996,28.30993],[80.90004,28.31097]]]}},{"type":"Feature","bbox":[80.89135,28.31101,80.90122,28.31784],"properties":{"ward":10,"name":"Chhawani, Bhedaura Bazar"},"geometry":{"type":"Polygon","coordinates":[[[80.89766,28.31784],[80.90122,28.31605],[80.90046,28.31492],[80.90051,28.31413],[80.89932,28.31195],[80.89872,28.31185],[80.89837,28.31121],[80.89731,28.31143],[80.8971,28.3112],[80.89635,28.31101],[80.89578,28.31108],[80.89376,28.31189],[80.89345,28.31246],[80.89135,28.31304],[80.8921,28.31366],[80.89392,28.31635],[80.89438,28.3162],[80.89525,28.31547],[80.89623,28.31697],[80.89672,28.31686],[80.89707,28.31738],[80.89736,28.31741],[80.89766,28.31784]]]}},{"type":"Feature","bbox":[80.89357,28.30617,80.90003,28.31154],"properties":{"ward":11,"name":"Bazar, Kaji House"},"geometry":{"type":"Polygon","coordinates":[[[80.89858,28.31154],[80.90003,28.311],[80.89957,28.30993],[80.89888,28.30918],[80.89733,28.30655],[80.89712,28.30663],[80.89677,28.30617],[80.89548,28.30658],[80.89551,28.30712],[80.89476,28.30744],[80.89446,28.30785],[80.89357,28.30825],[80.89519,28.31124],[80.89628,28.31098],[80.89711,28.31119],[80.89731,28.31142],[80.89838,28.31119],[80.89858,28.31154]]]}},{"type":"Feature","bbox":[80.90242,28.3086,80.90827,28.3137],"properties":{"ward":12,"name":"Purab Tola &Amp; Gaddin Tola"},"geometry":{"type":"Polygon","coordinates":[[[80.90342,28.31041],[80.90388,28.31042],[80.90434,28.31017],[80.90714,28.31337],[80.90752,28.3137],[80.90783,28.31354],[80.90755,28.31318],[80.90772,28.31293],[80.9072,28.31209],[80.90766,28.31175],[80.90688,28.31065],[80.90732,28.31026],[80.90735,28.30965],[80.90827,28.30922],[80.90779,28.3086],[80.90632,28.30926],[80.90517,28.30937],[80.90478,28.30926],[80.90478,28.30868],[80.90242,28.30997],[80.90297,28.31095],[80.90342,28.31041]]]}},{"type":"Feature","bbox":[80.90004,28.30997,80.90295,28.31198],"properties":{"ward":13,"name":"Maszid Gaddin Tola"},"geometry":{"type":"Polygon","coordinates":[[[80.9024,28.30997],[80.90004,28.31102],[80.90066,28.31198],[80.90174,28.3117],[80.90295,28.31096],[80.9024,28.30997]]]}}]}