{"type":"FeatureCollection","features":[{"type":"Feature","bbox":[79.94814,28.24549,79.95277,28.24883],"properties":{"ward":1,"name":"Jatav Pura"},"geometry":{"type":"Polygon","coordinates":[[[79.95271,28.24868],[79.95277,28.24853],[79.95219,28.247],[79.95247,28.24671],[79.95243,28.24576],[79.95148,28.24549],[79.95149,28.24641],[79.95084,28.24683],[79.95005,28.24687],[79.94964,28.24625],[79.94978,28.24603],[79.94957,28.24572],[79.94911,28.24611],[79.94843,28.24611],[79.94814,28.24655],[79.94817,28.2473],[79.94836,28.24772],[79.94897,28.24837],[79.95106,28.24883],[79.95271,28.24868]]]}},{"type":"Feature","bbox":[79.9398,28.23338,79.9477,28.24722],"properties":{"ward":2,"name":"Madan Mohan Colony"},"geometry":{"type":"Polygon","coordinates":[[[79.9477,28.24622],[79.9462,28.2436],[79.94739,28.24308],[79.94761,28.24273],[79.94768,28.24215],[79.94737,28.23354],[79.94696,28.23338],[79.94567,28.23341],[79.94488,28.23381],[79.94454,28.23529],[79.94445,28.23682],[79.94316,28.23991],[79.94218,28.24181],[79.9398,28.24565],[79.94013,28.24617],[79.94119,28.24659],[79.94259,28.24704],[79.94426,28.24722],[79.946,28.24717],[79.94751,28.24655],[79.9477,28.24622]]]}},{"type":"Feature","bbox":[79.9462,28.24295,79.95149,28.2469],"properties":{"ward":3,"name":"Hathi Khana Pakka Talab"},"geometry":{"type":"Polygon","coordinates":[[[79.95004,28.24406],[79.94908,28.24462],[79.94798,28.24295],[79.9462,28.2436],[79.9477,28.24622],[79.94763,28.24586],[79.94893,28.24613],[79.94966,28.24574],[79.94978,28.24603],[79.94964,28.24625],[79.94988,28.24672],[79.9502,28.2469],[79.95084,28.24683],[79.95149,28.24641],[79.95146,28.24544],[79.95142,28.24531],[79.95072,28.2455],[79.95065,28.24539],[79.95037,28.2456],[79.95004,28.24406]]]}},{"type":"Feature","bbox":[79.95124,28.24303,79.95381,28.24868],"properties":{"ward":4,"name":"Harijan Basti Noori Masjid"},"geometry":{"type":"Polygon","coordinates":[[[79.95372,28.24477],[79.95299,28.24305],[79.95257,28.24321],[79.95242,28.24303],[79.95161,28.2433],[79.95153,28.24438],[79.95124,28.245],[79.95148,28.24549],[79.95243,28.24576],[79.95247,28.24671],[79.95219,28.247],[79.95277,28.24853],[79.95271,28.24868],[79.95381,28.24806],[79.95372,28.24477]]]}},{"type":"Feature","bbox":[79.95072,28.24079,79.9525,28.244],"properties":{"ward":5,"name":"Kayasthan Anaj Mandi Purana Dakghar"},"geometry":{"type":"Polygon","coordinates":[[[79.95237,28.24079],[79.95212,28.24079],[79.95129,28.24128],[79.95072,28.24184],[79.95123,28.24389],[79.95153,28.244],[79.95166,28.24324],[79.95247,28.24302],[79.9525,28.24261],[79.95208,28.24165],[79.95232,28.24137],[79.95237,28.24079]]]}},{"type":"Feature","bbox":[79.95208,28.24079,79.95374,28.24315],"properties":{"ward":6,"name":"Jpadav"},"geometry":{"type":"Polygon","coordinates":[[[79.95297,28.24304],[79.95286,28.24275],[79.95374,28.2421],[79.95286,28.241],[79.95237,28.24079],[79.95232,28.24137],[79.95208,28.24165],[79.9525,28.24261],[79.95245,28.24315],[79.95297,28.24304]]]}},{"type":"Feature","bbox":[79.95231,28.23578,79.95747,28.2421],"properties":{"ward":7,"name":"Nai Pani Tanki"},"geometry":{"type":"Polygon","coordinates":[[[79.95747,28.24],[79.95535,28.23615],[79.95442,28.23578],[79.95358,28.23595],[79.95291,28.23734],[79.95361,28.238],[79.95231,28.24073],[79.95239,28.24082],[79.95286,28.241],[79.95374,28.2421],[79.95454,28.24149],[79.95499,28.24134],[79.95519,28.24171],[79.95747,28.24]]]}},{"type":"Feature","bbox":[79.94788,28.24184,79.95098,28.24462],"properties":{"ward":8,"name":"Old Hospital"},"geometry":{"type":"Polygon","coordinates":[[[79.94994,28.24411],[79.95029,28.24322],[79.95098,28.24276],[79.95072,28.24184],[79.95029,28.24214],[79.94788,28.24284],[79.94851,28.24359],[79.94908,28.24462],[79.94994,28.24411]]]}},{"type":"Feature","bbox":[79.94732,28.23407,79.95361,28.24306],"properties":{"ward":9,"name":"Ghasu Ganj"},"geometry":{"type":"Polygon","coordinates":[[[79.94793,28.24294],[79.94788,28.24284],[79.95029,28.24214],[79.95129,28.24128],[79.9524,28.24066],[79.95361,28.238],[79.95291,28.23734],[79.95358,28.23595],[79.95303,28.23602],[79.95244,28.23537],[79.95161,28.23492],[79.94732,28.23407],[79.94773,28.24122],[79.94761,28.24273],[79.94741,28.24306],[79.94793,28.24294]]]}},{"type":"Feature","bbox":[79.94994,28.24276,79.95153,28.2456],"properties":{"ward":10,"name":"Adarsh Nagar Dube Ji Satsang Bhavan"},"geometry":{"type":"Polygon","coordinates":[[[79.95142,28.24531],[79.95124,28.245],[79.95153,28.24438],[79.95153,28.244],[79.95123,28.24389],[79.95098,28.24276],[79.95084,28.24278],[79.95029,28.24322],[79.94994,28.24411],[79.95004,28.24406],[79.95037,28.2456],[79.95065,28.24539],[79.95072,28.2455],[79.95142,28.24531]]]}},{"type":"Feature","bbox":[79.95286,28.24134,79.95523,28.24344],"properties":{"ward":11,"name":"Jama Masjid"},"geometry":{"type":"Polygon","coordinates":[[[79.95519,28.24171],[79.95499,28.24134],[79.95454,28.24149],[79.95286,28.24275],[79.95309,28.24344],[79.95378,28.24315],[79.95427,28.24313],[79.95523,28.24262],[79.95494,28.24201],[79.95519,28.24171]]]}},{"type":"Feature","bbox":[79.95309,28.24,79.95877,28.24478],"properties":{"ward":12,"name":"Petrol Pump Islam Nagar"},"geometry":{"type":"Polygon","coordinates":[[[79.95309,28.24344],[79.95372,28.24477],[79.95463,28.24478],[79.95868,28.2425],[79.95824,28.24201],[79.95877,28.24121],[79.95747,28.24],[79.95519,28.24171],[79.95494,28.24201],[79.95523,28.24262],[79.95427,28.24313],[79.95378,28.24315],[79.95309,28.24344]]]}}]}