{"type":"FeatureCollection","features":[{"type":"Feature","bbox":[79.14354,28.26721,79.15508,28.27749],"properties":{"ward":1,"name":"01-Mo. Vilayatganj Bhurji Tola"},"geometry":{"type":"Polygon","coordinates":[[[79.1525,28.27398],[79.15473,28.27303],[79.15478,28.27203],[79.15435,28.2706],[79.15508,28.26979],[79.1538,28.26906],[79.15361,28.26913],[79.15276,28.26852],[79.15178,28.26721],[79.14706,28.26929],[79.14736,28.2696],[79.14538,28.27117],[79.14581,28.27181],[79.14354,28.27346],[79.14477,28.27654],[79.14727,28.27737],[79.14919,28.27727],[79.15107,28.27749],[79.15071,28.2768],[79.1526,28.27619],[79.15147,28.27425],[79.1525,28.27398]]]}},{"type":"Feature","bbox":[79.15539,28.27345,79.15885,28.27574],"properties":{"ward":2,"name":"02-Gher Annu Khan"},"geometry":{"type":"Polygon","coordinates":[[[79.15723,28.27521],[79.15755,28.27458],[79.15885,28.2742],[79.15878,28.27345],[79.15721,28.27392],[79.15669,28.27434],[79.15621,28.27389],[79.15539,28.27437],[79.15616,28.27574],[79.15723,28.27521]]]}},{"type":"Feature","bbox":[79.17279,28.27441,79.18205,28.28251],"properties":{"ward":3,"name":"03-Ganj Puraina Dhal"},"geometry":{"type":"Polygon","coordinates":[[[79.18067,28.27499],[79.17966,28.27509],[79.17843,28.27481],[79.17637,28.27504],[79.17541,28.2746],[79.17429,28.27441],[79.17354,28.27447],[79.17279,28.27485],[79.17314,28.27584],[79.17296,28.27782],[79.17462,28.28006],[79.17527,28.28024],[79.17671,28.28025],[79.17741,28.2804],[79.17967,28.28233],[79.18014,28.28251],[79.18044,28.28074],[79.18205,28.27862],[79.18205,28.27815],[79.18123,28.27669],[79.18067,28.27499]]]}},{"type":"Feature","bbox":[79.15473,28.27116,79.16109,28.27437],"properties":{"ward":4,"name":"04-Bag Bakhshi"},"geometry":{"type":"Polygon","coordinates":[[[79.15977,28.27332],[79.15991,28.27302],[79.1598,28.27269],[79.16109,28.27226],[79.16049,28.27119],[79.16004,28.27116],[79.1588,28.27177],[79.15718,28.272],[79.15473,28.27303],[79.15489,28.27368],[79.15539,28.27437],[79.15621,28.27389],[79.15669,28.27434],[79.15742,28.27384],[79.15977,28.27332]]]}},{"type":"Feature","bbox":[79.15707,28.27318,79.16549,28.28471],"properties":{"ward":5,"name":"05-Gher Pritam Rai Bhirji Tola"},"geometry":{"type":"Polygon","coordinates":[[[79.15998,28.28299],[79.16406,28.28031],[79.16531,28.27999],[79.16549,28.279],[79.16482,28.27891],[79.16303,28.27784],[79.16337,28.27772],[79.16217,28.27571],[79.16467,28.27458],[79.16397,28.27372],[79.16397,28.2734],[79.16303,28.27318],[79.16234,28.27365],[79.16136,28.27395],[79.16095,28.27452],[79.16032,28.27465],[79.16014,28.27495],[79.16017,28.27532],[79.15963,28.27506],[79.15954,28.27487],[79.1587,28.27493],[79.15886,28.27572],[79.15921,28.27628],[79.15961,28.27653],[79.16027,28.27764],[79.16023,28.27789],[79.15988,28.27808],[79.1601,28.27894],[79.15989,28.27952],[79.15904,28.28073],[79.1585,28.28057],[79.15756,28.28164],[79.15707,28.28249],[79.15848,28.28471],[79.16019,28.28313],[79.15998,28.28299]]]}},{"type":"Feature","bbox":[79.15412,28.26803,79.15858,28.27303],"properties":{"ward":6,"name":"06-Bajriya And Tadganj"},"geometry":{"type":"Polygon","coordinates":[[[79.15621,28.26803],[79.15412,28.2693],[79.15508,28.26979],[79.15435,28.2706],[79.15478,28.27203],[79.15473,28.27303],[79.15718,28.272],[79.15858,28.27179],[79.1581,28.27083],[79.15758,28.27097],[79.15768,28.27042],[79.15752,28.27041],[79.15621,28.26803]]]}},{"type":"Feature","bbox":[79.16817,28.26874,79.1805,28.27509],"properties":{"ward":7,"name":"07-Bhurji Tola Bag Bakhshi"},"geometry":{"type":"Polygon","coordinates":[[[79.18,28.2693],[79.17952,28.26874],[79.17656,28.27041],[79.17617,28.27047],[79.17435,28.27136],[79.17417,28.27111],[79.17136,28.27298],[79.16958,28.27095],[79.16817,28.27173],[79.16918,28.27232],[79.17097,28.27385],[79.1717,28.27333],[79.17241,28.27412],[79.17279,28.27485],[79.17354,28.27447],[79.17429,28.27441],[79.17541,28.2746],[79.17637,28.27504],[79.17843,28.27481],[79.17966,28.27509],[79.18018,28.27504],[79.1805,28.27097],[79.18,28.2693]]]}},{"type":"Feature","bbox":[79.16097,28.27012,79.16583,28.27298],"properties":{"ward":8,"name":"08-Bagh Bakhshi Dakchini Kachcha Katra"},"geometry":{"type":"Polygon","coordinates":[[[79.16546,28.2716],[79.16481,28.27107],[79.16486,28.27068],[79.16527,28.27033],[79.16503,28.27012],[79.16479,28.27013],[79.16442,28.27023],[79.16226,28.27173],[79.1619,28.27168],[79.16097,28.27195],[79.16109,28.27226],[79.16148,28.27229],[79.16172,28.27253],[79.16362,28.2713],[79.16488,28.27279],[79.16545,28.27298],[79.16583,28.27258],[79.1652,28.27186],[79.16546,28.2716]]]}},{"type":"Feature","bbox":[79.15621,28.26761,79.16055,28.27179],"properties":{"ward":9,"name":"09-Gausiya Chowk New Basti"},"geometry":{"type":"Polygon","coordinates":[[[79.15701,28.26761],[79.15621,28.26803],[79.15752,28.27041],[79.15768,28.27042],[79.15758,28.27097],[79.1581,28.27083],[79.15858,28.27179],[79.1595,28.27151],[79.15968,28.27135],[79.15939,28.27085],[79.16003,28.27051],[79.16055,28.26985],[79.16054,28.26964],[79.15994,28.26904],[79.1596,28.2693],[79.15899,28.26903],[79.15824,28.268],[79.15722,28.26787],[79.15701,28.26761]]]}},{"type":"Feature","bbox":[79.15872,28.26448,79.16738,28.27107],"properties":{"ward":10,"name":"10-Qila Saray Bajriya Tadganj"},"geometry":{"type":"Polygon","coordinates":[[[79.16503,28.27012],[79.16532,28.27029],[79.16738,28.26788],[79.16621,28.26448],[79.16341,28.26581],[79.16146,28.26648],[79.1614,28.26704],[79.15872,28.26866],[79.15899,28.26903],[79.1595,28.26927],[79.15994,28.26904],[79.16059,28.26975],[79.16114,28.26964],[79.16117,28.26949],[79.16163,28.26927],[79.16334,28.27107],[79.16442,28.27023],[79.16503,28.27012]]]}},{"type":"Feature","bbox":[79.15998,28.27639,79.17942,28.28664],"properties":{"ward":11,"name":"11-Gher Mo. Khan Kachcha Katra"},"geometry":{"type":"Polygon","coordinates":[[[79.17792,28.28357],[79.17942,28.28214],[79.17741,28.2804],[79.17671,28.28025],[79.17527,28.28024],[79.17462,28.28006],[79.17356,28.27878],[79.17294,28.27769],[79.1722,28.27791],[79.17152,28.27786],[79.17096,28.27707],[79.17085,28.27639],[79.17073,28.27646],[79.17079,28.27659],[79.17023,28.27697],[79.16864,28.27785],[79.16821,28.27835],[79.16746,28.27836],[79.16549,28.279],[79.16531,28.27999],[79.16406,28.28031],[79.15998,28.28299],[79.16107,28.2837],[79.16469,28.28664],[79.167,28.28643],[79.16888,28.28602],[79.17343,28.28489],[79.17792,28.28357]]]}},{"type":"Feature","bbox":[79.15939,28.26927,79.16334,28.27135],"properties":{"ward":12,"name":"12-Bajriya"},"geometry":{"type":"Polygon","coordinates":[[[79.16069,28.26976],[79.16003,28.27051],[79.15939,28.27085],[79.15968,28.27135],[79.16004,28.27116],[79.16334,28.27107],[79.16163,28.26927],[79.16117,28.26949],[79.16114,28.26964],[79.16069,28.26976]]]}},{"type":"Feature","bbox":[79.17009,28.27333,79.17307,28.27786],"properties":{"ward":13,"name":"13-Kherha Pashchimi"},"geometry":{"type":"Polygon","coordinates":[[[79.17152,28.27786],[79.17294,28.27769],[79.17307,28.27538],[79.17241,28.27412],[79.1717,28.27333],[79.17097,28.27385],[79.17111,28.27402],[79.17035,28.27475],[79.17057,28.27513],[79.17009,28.27569],[79.17078,28.27628],[79.17096,28.27707],[79.17152,28.27786]]]}},{"type":"Feature","bbox":[79.16633,28.27256,79.17111,28.27606],"properties":{"ward":14,"name":"14-Bajriya Qila New Basti"},"geometry":{"type":"Polygon","coordinates":[[[79.1696,28.27606],[79.17016,28.27576],[79.17023,28.27538],[79.17057,28.27513],[79.17035,28.27475],[79.17111,28.27402],[79.16946,28.27256],[79.16789,28.2735],[79.16746,28.27317],[79.16633,28.27326],[79.16654,28.27371],[79.16748,28.27448],[79.16852,28.27591],[79.16922,28.27561],[79.1696,28.27606]]]}},{"type":"Feature","bbox":[79.15216,28.27493,79.16027,28.28617],"properties":{"ward":15,"name":"15-Qila Anupura"},"geometry":{"type":"Polygon","coordinates":[[[79.15625,28.28617],[79.15733,28.28473],[79.15783,28.28379],[79.15707,28.28249],[79.15756,28.28164],[79.1585,28.28057],[79.15904,28.28073],[79.15989,28.27952],[79.1601,28.27894],[79.15988,28.27808],[79.16023,28.27789],[79.16027,28.27764],[79.15961,28.27653],[79.15921,28.27628],[79.15886,28.27572],[79.1587,28.27493],[79.15704,28.27521],[79.15616,28.27574],[79.15636,28.2768],[79.15831,28.27764],[79.1587,28.279],[79.15691,28.27914],[79.15489,28.28037],[79.15462,28.2802],[79.15442,28.27965],[79.1539,28.27897],[79.1532,28.27967],[79.15243,28.2813],[79.15216,28.28299],[79.15293,28.28362],[79.15469,28.28588],[79.15511,28.28567],[79.15625,28.28617]]]}},{"type":"Feature","bbox":[79.16217,28.27448,79.17079,28.279],"properties":{"ward":16,"name":"16-Gher Karam Khan"},"geometry":{"type":"Polygon","coordinates":[[[79.16748,28.27448],[79.16673,28.27498],[79.16685,28.27537],[79.16666,28.27571],[79.1656,28.27624],[79.16467,28.27458],[79.16217,28.27571],[79.16337,28.27772],[79.16303,28.27784],[79.16482,28.27891],[79.16549,28.279],[79.16746,28.27836],[79.16821,28.27835],[79.16896,28.27762],[79.17079,28.27659],[79.17078,28.27628],[79.17016,28.27576],[79.1696,28.27606],[79.16922,28.27561],[79.16852,28.27591],[79.16748,28.27448]]]}},{"type":"Feature","bbox":[79.16481,28.26403,79.17952,28.2735],"properties":{"ward":17,"name":"17-Futa Darwaja"},"geometry":{"type":"Polygon","coordinates":[[[79.16755,28.27319],[79.16789,28.2735],[79.1694,28.27255],[79.16817,28.27173],[79.16958,28.27095],[79.17136,28.27298],[79.17417,28.27111],[79.17435,28.27136],[79.17617,28.27047],[79.17656,28.27041],[79.17952,28.26874],[79.1788,28.26753],[79.17734,28.26615],[79.17661,28.26515],[79.17474,28.26403],[79.17136,28.26668],[79.16873,28.26764],[79.1676,28.26836],[79.16738,28.26788],[79.16709,28.26807],[79.16532,28.27029],[79.16486,28.27068],[79.16481,28.27107],[79.16516,28.2712],[79.16546,28.2716],[79.1652,28.27186],[79.16583,28.27258],[79.16545,28.27298],[79.16646,28.27328],[79.16755,28.27319]]]}},{"type":"Feature","bbox":[79.16049,28.27108,79.16319,28.27195],"properties":{"ward":18,"name":"18-Ganj Kureshiyan Tadganj"},"geometry":{"type":"Polygon","coordinates":[[[79.16215,28.27178],[79.16319,28.27108],[79.16049,28.27119],[79.16097,28.27195],[79.1619,28.27168],[79.16215,28.27178]]]}},{"type":"Feature","bbox":[79.15315,28.27303,79.15522,28.27489],"properties":{"ward":19,"name":"19-Pakka Katra Purvi"},"geometry":{"type":"Polygon","coordinates":[[[79.15522,28.2742],[79.15489,28.27368],[79.15473,28.27303],[79.15315,28.27377],[79.15365,28.27489],[79.15451,28.27438],[79.15484,28.27446],[79.15522,28.2742]]]}},{"type":"Feature","bbox":[79.15734,28.27331,79.16035,28.27532],"properties":{"ward":20,"name":"20-Kherha Uttari"},"geometry":{"type":"Polygon","coordinates":[[[79.16029,28.27488],[79.16035,28.27428],[79.15989,28.27331],[79.15878,28.27345],[79.15885,28.2742],[79.15745,28.27464],[79.15734,28.2752],[79.15847,28.27492],[79.15954,28.27487],[79.15963,28.27506],[79.16017,28.27532],[79.16014,28.27495],[79.16029,28.27488]]]}},{"type":"Feature","bbox":[79.15288,28.27417,79.1587,28.28037],"properties":{"ward":21,"name":"21-Gausiya Chowk"},"geometry":{"type":"Polygon","coordinates":[[[79.15288,28.27705],[79.15489,28.28037],[79.15691,28.27914],[79.1587,28.279],[79.15831,28.27764],[79.15636,28.2768],[79.15608,28.27551],[79.15526,28.27417],[79.15484,28.27446],[79.15451,28.27438],[79.15365,28.27489],[79.15376,28.27507],[79.15304,28.27565],[79.15386,28.27536],[79.1546,28.27657],[79.15288,28.27705]]]}},{"type":"Feature","bbox":[79.16391,28.27279,79.16747,28.27624],"properties":{"ward":22,"name":"22-Pakka Katra Uttri"},"geometry":{"type":"Polygon","coordinates":[[[79.16633,28.27326],[79.16488,28.27279],[79.16465,28.27341],[79.16391,28.27358],[79.16491,28.27489],[79.1656,28.27624],[79.16666,28.27571],[79.16685,28.27537],[79.16673,28.27498],[79.16747,28.27447],[79.16654,28.27371],[79.16633,28.27326]]]}},{"type":"Feature","bbox":[79.15989,28.27215,79.16488,28.27465],"properties":{"ward":23,"name":"23-Ganj Ratan Lal Qureshiyan"},"geometry":{"type":"Polygon","coordinates":[[[79.16132,28.27279],[79.15989,28.27331],[79.16035,28.27428],[79.16032,28.27465],[79.1606,28.27464],[79.16095,28.27452],[79.16136,28.27395],[79.16234,28.27365],[79.16303,28.27318],[79.16397,28.2734],[79.16399,28.27355],[79.16465,28.27341],[79.16488,28.27279],[79.16432,28.27215],[79.16354,28.27265],[79.16337,28.27253],[79.16311,28.27266],[79.16282,28.27216],[79.16177,28.27278],[79.16132,28.27279]]]}},{"type":"Feature","bbox":[79.1598,28.2713,79.16432,28.27331],"properties":{"ward":24,"name":"24-Ganj Lathetan"},"geometry":{"type":"Polygon","coordinates":[[[79.15989,28.27331],[79.16177,28.27278],[79.16282,28.27216],[79.16311,28.27266],[79.16337,28.27253],[79.16354,28.27265],[79.16432,28.27215],[79.16362,28.2713],[79.16172,28.27253],[79.16148,28.27229],[79.16109,28.27226],[79.1598,28.27269],[79.15989,28.27331]]]}},{"type":"Feature","bbox":[79.14371,28.27377,79.1546,28.28576],"properties":{"ward":25,"name":"25-Pakka Katra Pashchimi"},"geometry":{"type":"Polygon","coordinates":[[[79.15205,28.28322],[79.1523,28.2825],[79.15243,28.2813],[79.15276,28.28046],[79.1532,28.27967],[79.1539,28.27897],[79.15288,28.27705],[79.1546,28.27657],[79.15386,28.27536],[79.15304,28.27565],[79.15376,28.27507],[79.15315,28.27377],[79.15147,28.27425],[79.1526,28.27619],[79.15071,28.2768],[79.15107,28.27749],[79.14919,28.27727],[79.14727,28.27737],[79.14543,28.27682],[79.14477,28.27654],[79.14471,28.27636],[79.14371,28.27656],[79.14429,28.2782],[79.14607,28.28164],[79.14964,28.28576],[79.15134,28.28421],[79.15205,28.28322]]]}}]}