{"type":"FeatureCollection","features":[{"type":"Feature","bbox":[78.02247,27.16543,78.02425,27.16792],"properties":{"ward":1,"name":"Nai Basti"},"geometry":{"type":"Polygon","coordinates":[[[78.0239,27.1678],[78.02423,27.16773],[78.02401,27.16728],[78.02425,27.16681],[78.02425,27.16576],[78.02366,27.16584],[78.02357,27.16543],[78.02247,27.16701],[78.02255,27.16792],[78.02335,27.16752],[78.0239,27.1678]]]}},{"type":"Feature","bbox":[78.01157,27.1518,78.03317,27.16771],"properties":{"ward":2},"geometry":{"type":"Polygon","coordinates":[[[78.01204,27.16281],[78.01232,27.16636],[78.01378,27.16612],[78.01535,27.16625],[78.01774,27.16591],[78.01778,27.1666],[78.01858,27.16771],[78.01886,27.16672],[78.01954,27.16557],[78.01993,27.16306],[78.02928,27.16096],[78.03071,27.16089],[78.03247,27.16117],[78.03317,27.15196],[78.03256,27.1518],[78.0317,27.15184],[78.02781,27.15308],[78.02596,27.1534],[78.02604,27.15517],[78.02594,27.15547],[78.02636,27.15802],[78.01604,27.15844],[78.01446,27.15862],[78.01363,27.1589],[78.01369,27.15901],[78.01157,27.15925],[78.01204,27.16281]]]}},{"type":"Feature","bbox":[78.00807,27.15695,78.01353,27.15951],"properties":{"ward":3,"name":"Sadar Bazar"},"geometry":{"type":"Polygon","coordinates":[[[78.01256,27.15695],[78.00807,27.15763],[78.00835,27.15951],[78.01148,27.15915],[78.01132,27.15826],[78.01176,27.1582],[78.01171,27.15781],[78.01233,27.15771],[78.0126,27.15902],[78.01353,27.15891],[78.01256,27.15695]]]}},{"type":"Feature","bbox":[78.00936,27.14463,78.03317,27.1589],"properties":{"ward":4},"geometry":{"type":"Polygon","coordinates":[[[78.00936,27.14551],[78.01057,27.15091],[78.01262,27.15667],[78.01363,27.1589],[78.01446,27.15862],[78.01694,27.15838],[78.02636,27.15802],[78.02594,27.15547],[78.02604,27.15517],[78.02596,27.1534],[78.02781,27.15308],[78.0317,27.15184],[78.03256,27.1518],[78.03317,27.15196],[78.03295,27.14463],[78.00936,27.14551]]]}},{"type":"Feature","bbox":[77.99604,27.15753,78.00879,27.16819],"properties":{"ward":5},"geometry":{"type":"Polygon","coordinates":[[[78.00371,27.16344],[78.00552,27.16365],[78.00712,27.16438],[78.00879,27.16446],[78.00831,27.16049],[78.00808,27.15969],[78.00821,27.15951],[78.0078,27.15753],[78.00005,27.15843],[77.99692,27.1603],[77.99604,27.16108],[77.99788,27.16245],[77.99998,27.16355],[78.00239,27.16734],[78.00373,27.16819],[78.00614,27.16763],[78.00371,27.16344]]]}},{"type":"Feature","bbox":[77.99458,27.15778,78.00006,27.16108],"properties":{"ward":6},"geometry":{"type":"Polygon","coordinates":[[[77.99458,27.15827],[77.99502,27.15838],[77.99541,27.16057],[77.99604,27.16108],[77.99692,27.1603],[78.00006,27.15843],[77.9991,27.15834],[77.99719,27.15778],[77.99458,27.15827]]]}},{"type":"Feature","bbox":[77.99303,27.14933,78.00114,27.15824],"properties":{"ward":7},"geometry":{"type":"Polygon","coordinates":[[[77.99303,27.15071],[77.99357,27.15312],[77.99329,27.15381],[77.99372,27.15596],[77.99405,27.15592],[77.99445,27.15824],[77.99692,27.15778],[77.99751,27.15783],[77.99695,27.1569],[77.99624,27.15507],[77.9969,27.15486],[77.99673,27.15445],[77.99754,27.15413],[77.9978,27.15349],[77.99804,27.15368],[78.00114,27.15334],[77.99996,27.14933],[77.99303,27.15071]]]}},{"type":"Feature","bbox":[77.99164,27.14236,78.01262,27.15843],"properties":{"ward":8},"geometry":{"type":"Polygon","coordinates":[[[78.00389,27.14573],[78.00226,27.14236],[77.99892,27.14286],[77.99164,27.14447],[77.99303,27.15071],[77.99996,27.14933],[78.00007,27.14951],[78.00076,27.1524],[78.00114,27.15334],[77.99804,27.15368],[77.9978,27.15349],[77.99754,27.15413],[77.99673,27.15445],[77.9969,27.15486],[77.99624,27.15507],[77.99695,27.1569],[77.99751,27.15783],[77.9991,27.15834],[78.00012,27.15843],[78.0078,27.15753],[78.00782,27.15768],[78.01262,27.15698],[78.01167,27.15374],[78.01057,27.15091],[78.00936,27.14551],[78.00389,27.14573]]]}}]}