{"type":"FeatureCollection","features":[{"type":"Feature","bbox":[79.8061,28.4445,79.81364,28.45554],"properties":{"ward":1,"name":"Kundanpur 1St"},"geometry":{"type":"Polygon","coordinates":[[[79.80665,28.45554],[79.80842,28.45536],[79.80775,28.45425],[79.80842,28.454],[79.80884,28.45354],[79.80899,28.4515],[79.80991,28.45125],[79.81055,28.45125],[79.81174,28.45165],[79.81354,28.4512],[79.81364,28.44902],[79.81344,28.44735],[79.81324,28.44616],[79.81307,28.44608],[79.81211,28.44596],[79.81025,28.44516],[79.80818,28.44466],[79.8061,28.4445],[79.80676,28.45156],[79.80665,28.45554]]]}},{"type":"Feature","bbox":[79.8027,28.44792,79.80453,28.45277],"properties":{"ward":2,"name":"Harjanbasti"},"geometry":{"type":"Polygon","coordinates":[[[79.80447,28.44792],[79.8033,28.44841],[79.8028,28.44896],[79.8027,28.45232],[79.80325,28.45275],[79.80388,28.45277],[79.80378,28.45167],[79.80354,28.45159],[79.80362,28.45116],[79.80378,28.45114],[79.80403,28.45056],[79.80358,28.45061],[79.80359,28.45023],[79.80388,28.44903],[79.80453,28.44884],[79.80447,28.44792]]]}},{"type":"Feature","bbox":[79.80354,28.45068,79.80574,28.45441],"properties":{"ward":3,"name":"Thakurdwara"},"geometry":{"type":"Polygon","coordinates":[[[79.80574,28.45083],[79.80402,28.45068],[79.80378,28.45114],[79.80362,28.45116],[79.80354,28.45159],[79.80378,28.45167],[79.80404,28.45339],[79.80459,28.45441],[79.8051,28.45426],[79.805,28.45319],[79.80543,28.45314],[79.80522,28.45228],[79.80496,28.45212],[79.805,28.45173],[79.80476,28.45159],[79.80485,28.45113],[79.80574,28.45083]]]}},{"type":"Feature","bbox":[79.80775,28.45125,79.81522,28.45536],"properties":{"ward":4,"name":"Kundanpur 2Nd"},"geometry":{"type":"Polygon","coordinates":[[[79.80842,28.45536],[79.8127,28.45472],[79.81522,28.45459],[79.81408,28.4518],[79.81357,28.4514],[79.81305,28.45129],[79.81174,28.45165],[79.81055,28.45125],[79.80991,28.45125],[79.80895,28.45153],[79.80897,28.45315],[79.80884,28.45354],[79.80842,28.454],[79.80775,28.45425],[79.80842,28.45536]]]}},{"type":"Feature","bbox":[79.80476,28.45059,79.80679,28.45488],"properties":{"ward":5,"name":"Jama Masjid"},"geometry":{"type":"Polygon","coordinates":[[[79.80669,28.45059],[79.80485,28.45113],[79.80476,28.45159],[79.805,28.45173],[79.80496,28.45212],[79.80534,28.45258],[79.80575,28.4546],[79.80667,28.45488],[79.80679,28.4524],[79.80669,28.45059]]]}},{"type":"Feature","bbox":[79.80636,28.45546,79.80957,28.46032],"properties":{"ward":6,"name":"Nai Basti 1St"},"geometry":{"type":"Polygon","coordinates":[[[79.80957,28.45987],[79.80951,28.45908],[79.80873,28.45913],[79.80842,28.45817],[79.80753,28.45817],[79.80751,28.45746],[79.80728,28.45714],[79.8072,28.45646],[79.80754,28.45646],[79.80751,28.45546],[79.80665,28.45554],[79.80636,28.46032],[79.80786,28.46022],[79.80957,28.45987]]]}},{"type":"Feature","bbox":[79.80358,28.44434,79.80669,28.45083],"properties":{"ward":7,"name":"Kaharan"},"geometry":{"type":"Polygon","coordinates":[[[79.80402,28.45068],[79.80574,28.45083],[79.80669,28.45059],[79.80599,28.44434],[79.80528,28.44458],[79.8047,28.44526],[79.8044,28.44682],[79.80453,28.44884],[79.80388,28.44903],[79.80359,28.45023],[79.80358,28.45061],[79.80403,28.45056],[79.80402,28.45068]]]}},{"type":"Feature","bbox":[79.80828,28.45459,79.81537,28.45974],"properties":{"ward":8,"name":"Nai Basti 2Nd"},"geometry":{"type":"Polygon","coordinates":[[[79.81522,28.45459],[79.8127,28.45472],[79.80903,28.45525],[79.80913,28.45617],[79.80828,28.45619],[79.80832,28.45792],[79.80936,28.45811],[79.8096,28.45974],[79.81091,28.45933],[79.81316,28.45817],[79.81433,28.45736],[79.81514,28.45633],[79.81537,28.45488],[79.81522,28.45459]]]}},{"type":"Feature","bbox":[79.8031,28.45277,79.80667,28.46032],"properties":{"ward":9,"name":"Indriganj"},"geometry":{"type":"Polygon","coordinates":[[[79.80543,28.45314],[79.805,28.45319],[79.8051,28.45426],[79.80459,28.45441],[79.80404,28.45339],[79.80388,28.45277],[79.80319,28.45282],[79.8031,28.45363],[79.80364,28.45508],[79.8041,28.45708],[79.80406,28.45838],[79.80448,28.459],[79.80599,28.46021],[79.80636,28.46032],[79.80667,28.45488],[79.80575,28.4546],[79.80543,28.45314]]]}},{"type":"Feature","bbox":[79.8072,28.45525,79.80951,28.45913],"properties":{"ward":10,"name":"Nai Basti Third"},"geometry":{"type":"Polygon","coordinates":[[[79.80951,28.45908],[79.80936,28.45811],[79.80832,28.45792],[79.80828,28.45619],[79.80913,28.45617],[79.80903,28.45525],[79.80751,28.45546],[79.80754,28.45646],[79.8072,28.45646],[79.80728,28.45714],[79.80751,28.45746],[79.80753,28.45817],[79.80842,28.45817],[79.80873,28.45913],[79.80951,28.45908]]]}}]}