{"type":"FeatureCollection","features":[{"type":"Feature","bbox":[78.9623,27.39708,78.96861,27.4027],"properties":{"ward":1,"name":"01-Bhim Nagar"},"geometry":{"type":"Polygon","coordinates":[[[78.96445,27.39761],[78.9623,27.40203],[78.96378,27.40193],[78.96483,27.40207],[78.96677,27.4027],[78.96698,27.40234],[78.96687,27.40214],[78.96759,27.4014],[78.96806,27.40119],[78.96842,27.40137],[78.96851,27.40127],[78.96846,27.40037],[78.96861,27.40038],[78.96848,27.40018],[78.96793,27.39997],[78.9682,27.39956],[78.96809,27.39951],[78.96702,27.39966],[78.96652,27.39999],[78.96614,27.39952],[78.96719,27.39914],[78.96791,27.3982],[78.96682,27.39749],[78.96663,27.39708],[78.96574,27.39793],[78.96445,27.39761]]]}},{"type":"Feature","bbox":[78.96677,27.39889,78.97265,27.40309],"properties":{"ward":2,"name":"02-Bhanrajpur"},"geometry":{"type":"Polygon","coordinates":[[[78.97265,27.4012],[78.9717,27.40061],[78.97118,27.39945],[78.97055,27.39939],[78.97018,27.39889],[78.9692,27.39967],[78.969,27.40026],[78.96875,27.40048],[78.96846,27.40037],[78.96855,27.4011],[78.96842,27.40137],[78.96806,27.40119],[78.96759,27.4014],[78.96687,27.40214],[78.96698,27.40234],[78.96677,27.4027],[78.96827,27.40309],[78.97009,27.40301],[78.97118,27.40257],[78.97265,27.4012]]]}},{"type":"Feature","bbox":[78.96335,27.39148,78.96892,27.39629],"properties":{"ward":3,"name":"03-Fardkhana Dakshini"},"geometry":{"type":"Polygon","coordinates":[[[78.9661,27.39212],[78.9649,27.3918],[78.9646,27.39148],[78.96335,27.39251],[78.96659,27.39629],[78.96892,27.39503],[78.96828,27.39448],[78.96865,27.39422],[78.96805,27.39364],[78.96713,27.39315],[78.9661,27.39212]]]}},{"type":"Feature","bbox":[78.96614,27.39685,78.97018,27.40048],"properties":{"ward":4,"name":"04-Kanungoyan"},"geometry":{"type":"Polygon","coordinates":[[[78.9692,27.39967],[78.97018,27.39889],[78.96941,27.3976],[78.96981,27.39741],[78.96939,27.39689],[78.96906,27.39707],[78.96891,27.39685],[78.96839,27.39712],[78.96824,27.39752],[78.9684,27.39768],[78.9673,27.39905],[78.96614,27.39952],[78.96652,27.39999],[78.96702,27.39966],[78.96809,27.39951],[78.9682,27.39956],[78.96793,27.39997],[78.96848,27.40018],[78.96875,27.40048],[78.969,27.40026],[78.9692,27.39967]]]}},{"type":"Feature","bbox":[78.96869,27.38674,78.97392,27.39256],"properties":{"ward":5,"name":"05-Sujrai Purvi"},"geometry":{"type":"Polygon","coordinates":[[[78.97392,27.38815],[78.97209,27.38674],[78.96869,27.38958],[78.96905,27.39054],[78.96904,27.39129],[78.96989,27.39181],[78.96962,27.39206],[78.97013,27.39256],[78.97069,27.39222],[78.97048,27.39093],[78.97104,27.39067],[78.97182,27.38972],[78.97172,27.38964],[78.97312,27.38898],[78.9739,27.38837],[78.9738,27.38827],[78.97392,27.38815]]]}},{"type":"Feature","bbox":[78.95978,27.38987,78.96659,27.40154],"properties":{"ward":6,"name":"06-Mahesh Anand Nagar"},"geometry":{"type":"Polygon","coordinates":[[[78.96235,27.39676],[78.96305,27.39789],[78.96332,27.39881],[78.96097,27.40006],[78.96111,27.40047],[78.96146,27.40032],[78.96205,27.40132],[78.96254,27.40154],[78.96436,27.3977],[78.96659,27.39629],[78.96335,27.39251],[78.9646,27.39148],[78.96287,27.38987],[78.95978,27.39203],[78.96097,27.39353],[78.96079,27.39368],[78.96096,27.39386],[78.96175,27.39335],[78.96194,27.39344],[78.96269,27.39314],[78.96357,27.39436],[78.96387,27.39436],[78.96406,27.39458],[78.96318,27.39534],[78.96278,27.39589],[78.96261,27.39667],[78.96235,27.39676]]]}},{"type":"Feature","bbox":[78.96796,27.39426,78.97058,27.39707],"properties":{"ward":7,"name":"07-Fardkhana Uttari"},"geometry":{"type":"Polygon","coordinates":[[[78.96995,27.39634],[78.96941,27.39584],[78.97007,27.39539],[78.97058,27.39426],[78.96796,27.39547],[78.96906,27.39707],[78.96995,27.39634]]]}},{"type":"Feature","bbox":[78.97045,27.39709,78.97271,27.39916],"properties":{"ward":8,"name":"08-Kavatola"},"geometry":{"type":"Polygon","coordinates":[[[78.97045,27.39804],[78.97072,27.39847],[78.97095,27.3983],[78.97191,27.39916],[78.97271,27.39839],[78.97143,27.39709],[78.97045,27.39804]]]}},{"type":"Feature","bbox":[78.96003,27.39314,78.96406,27.39676],"properties":{"ward":9,"name":"09-Kunwarpur"},"geometry":{"type":"Polygon","coordinates":[[[78.96357,27.39436],[78.96269,27.39314],[78.96194,27.39344],[78.96175,27.39335],[78.96096,27.39386],[78.96079,27.39368],[78.96003,27.39445],[78.96235,27.39676],[78.96261,27.39667],[78.96278,27.39589],[78.96318,27.39534],[78.96406,27.39458],[78.96387,27.39436],[78.96357,27.39436]]]}},{"type":"Feature","bbox":[78.97007,27.38862,78.97733,27.39715],"properties":{"ward":10,"name":"10-Vedan Tola"},"geometry":{"type":"Polygon","coordinates":[[[78.97149,27.39715],[78.97237,27.39657],[78.97285,27.39672],[78.97388,27.3964],[78.9731,27.39555],[78.9734,27.39527],[78.9725,27.39458],[78.97389,27.39327],[78.97442,27.39246],[78.9751,27.39196],[78.97731,27.39093],[78.97733,27.39078],[78.97453,27.38862],[78.97307,27.39033],[78.97058,27.39426],[78.97007,27.39539],[78.97011,27.39569],[78.97088,27.39636],[78.97149,27.39715]]]}},{"type":"Feature","bbox":[78.9661,27.38815,78.97453,27.39503],"properties":{"ward":11,"name":"11-Sujrai Paschimi"},"geometry":{"type":"Polygon","coordinates":[[[78.97453,27.38862],[78.97392,27.38815],[78.9738,27.38827],[78.9739,27.38837],[78.97312,27.38898],[78.97172,27.38964],[78.97182,27.38972],[78.97104,27.39067],[78.97048,27.39093],[78.97069,27.39222],[78.97013,27.39256],[78.96962,27.39206],[78.96989,27.39181],[78.96904,27.39129],[78.96825,27.3919],[78.9678,27.39147],[78.96672,27.39205],[78.9661,27.39212],[78.96713,27.39315],[78.96805,27.39364],[78.96865,27.39422],[78.96828,27.39448],[78.96892,27.39503],[78.9698,27.39471],[78.97058,27.39426],[78.97345,27.38977],[78.97453,27.38862]]]}},{"type":"Feature","bbox":[78.96939,27.39539,78.97143,27.39823],"properties":{"ward":12,"name":"12-Vakkalan"},"geometry":{"type":"Polygon","coordinates":[[[78.97007,27.39539],[78.96941,27.39584],[78.96995,27.39634],[78.96939,27.39689],[78.96981,27.39741],[78.96941,27.3976],[78.96979,27.39823],[78.97045,27.39804],[78.97143,27.39709],[78.97088,27.39636],[78.97011,27.39569],[78.97007,27.39539]]]}},{"type":"Feature","bbox":[78.96445,27.39547,78.96891,27.3982],"properties":{"ward":13,"name":"13-Mahajanan"},"geometry":{"type":"Polygon","coordinates":[[[78.96445,27.39761],[78.96574,27.39793],[78.96663,27.39708],[78.96682,27.39749],[78.96791,27.3982],[78.9684,27.39768],[78.96824,27.39752],[78.96839,27.39712],[78.96891,27.39685],[78.96796,27.39547],[78.96445,27.39761]]]}},{"type":"Feature","bbox":[78.96971,27.39804,78.97198,27.39951],"properties":{"ward":14,"name":"14-Pathanan"},"geometry":{"type":"Polygon","coordinates":[[[78.97198,27.39917],[78.97095,27.3983],[78.97072,27.39847],[78.97045,27.39804],[78.96971,27.39828],[78.97055,27.39939],[78.9712,27.39951],[78.97198,27.39917]]]}},{"type":"Feature","bbox":[78.9712,27.39638,78.97584,27.4012],"properties":{"ward":15,"name":"15-Srai"},"geometry":{"type":"Polygon","coordinates":[[[78.97149,27.39715],[78.97271,27.39839],[78.97198,27.39917],[78.9712,27.39951],[78.9717,27.40061],[78.97265,27.4012],[78.97584,27.39836],[78.97439,27.39676],[78.97455,27.39664],[78.97441,27.39638],[78.97275,27.39673],[78.97237,27.39657],[78.97149,27.39715]]]}}]}