{"type":"FeatureCollection","features":[{"type":"Feature","bbox":[78.46557,27.32035,78.46973,27.32251],"properties":{"ward":1,"name":"Chamarpura"},"geometry":{"type":"Polygon","coordinates":[[[78.46871,27.32051],[78.46709,27.32035],[78.46557,27.32109],[78.46585,27.32159],[78.46675,27.32114],[78.4677,27.32251],[78.46888,27.32185],[78.46973,27.32096],[78.46871,27.32051]]]}},{"type":"Feature","bbox":[78.46323,27.31705,78.46944,27.32102],"properties":{"ward":2,"name":"Nagla Foujdar"},"geometry":{"type":"Polygon","coordinates":[[[78.46717,27.32026],[78.4691,27.32053],[78.46944,27.32028],[78.46903,27.31997],[78.46855,27.32022],[78.46802,27.31971],[78.46788,27.31982],[78.46459,27.31705],[78.46323,27.31819],[78.46404,27.3188],[78.46468,27.31836],[78.46604,27.31962],[78.46506,27.32047],[78.46552,27.32102],[78.46717,27.32026]]]}},{"type":"Feature","bbox":[78.46981,27.31195,78.47402,27.31836],"properties":{"ward":3,"name":"Surajpura"},"geometry":{"type":"Polygon","coordinates":[[[78.47149,27.31759],[78.47207,27.31729],[78.47228,27.3175],[78.47331,27.31692],[78.47341,27.31703],[78.47383,27.31664],[78.47402,27.31613],[78.473,27.31503],[78.47234,27.31525],[78.47211,27.31565],[78.47202,27.31558],[78.47148,27.31403],[78.47136,27.31195],[78.46989,27.31204],[78.47029,27.31461],[78.47074,27.31511],[78.47,27.31563],[78.47034,27.31604],[78.46981,27.31667],[78.47018,27.31759],[78.46999,27.31776],[78.47046,27.31834],[78.47066,27.31818],[78.47121,27.31836],[78.47149,27.31759]]]}},{"type":"Feature","bbox":[78.46885,27.32061,78.47269,27.32342],"properties":{"ward":4,"name":"Gangni Darwaja"},"geometry":{"type":"Polygon","coordinates":[[[78.47028,27.32061],[78.46988,27.32108],[78.46976,27.32098],[78.46887,27.32186],[78.46906,27.32207],[78.46885,27.32224],[78.46933,27.32289],[78.47026,27.32193],[78.47137,27.32273],[78.47125,27.32282],[78.47141,27.323],[78.47156,27.32286],[78.47221,27.32342],[78.47269,27.32297],[78.47221,27.32257],[78.47265,27.32215],[78.47233,27.32182],[78.47028,27.32061]]]}},{"type":"Feature","bbox":[78.47166,27.31556,78.47597,27.31881],"properties":{"ward":5,"name":"Ganeshpura"},"geometry":{"type":"Polygon","coordinates":[[[78.47291,27.31881],[78.47347,27.31842],[78.47399,27.31871],[78.47455,27.31862],[78.4748,27.31875],[78.47597,27.31827],[78.47537,27.31751],[78.47588,27.31727],[78.47561,27.31669],[78.47582,27.31659],[78.47498,27.31556],[78.47405,27.31603],[78.47384,27.31665],[78.4734,27.31707],[78.47329,27.31697],[78.47226,27.31753],[78.47206,27.31731],[78.47166,27.3176],[78.47291,27.31881]]]}},{"type":"Feature","bbox":[78.46992,27.31766,78.47368,27.32096],"properties":{"ward":6,"name":"Nai Basti"},"geometry":{"type":"Polygon","coordinates":[[[78.47074,27.31991],[78.4727,27.32096],[78.47368,27.31985],[78.47151,27.31766],[78.47129,27.31842],[78.47066,27.31823],[78.46992,27.31901],[78.47074,27.31991]]]}},{"type":"Feature","bbox":[78.46888,27.31903,78.47404,27.3224],"properties":{"ward":7,"name":"Rikshgang, Baniyat"},"geometry":{"type":"Polygon","coordinates":[[[78.47074,27.31993],[78.46988,27.31903],[78.46888,27.31973],[78.46948,27.32028],[78.46916,27.32054],[78.46986,27.32099],[78.47022,27.32055],[78.4723,27.32178],[78.47292,27.3224],[78.47364,27.32176],[78.47375,27.32132],[78.47404,27.32111],[78.47327,27.32033],[78.47269,27.32099],[78.47074,27.31993]]]}},{"type":"Feature","bbox":[78.47293,27.31732,78.48341,27.3218],"properties":{"ward":8,"name":"Kachiyana"},"geometry":{"type":"Polygon","coordinates":[[[78.47384,27.31978],[78.47326,27.3203],[78.47407,27.32113],[78.47377,27.32132],[78.47373,27.3218],[78.47507,27.32119],[78.47536,27.32131],[78.47551,27.32101],[78.47619,27.32109],[78.47658,27.32157],[78.47778,27.32156],[78.48336,27.32072],[78.48341,27.31976],[78.47811,27.32048],[78.47778,27.31978],[78.47828,27.31866],[78.47629,27.31732],[78.4755,27.31763],[78.476,27.31828],[78.47537,27.31861],[78.47474,27.31882],[78.47392,27.31874],[78.47348,27.31848],[78.47293,27.31884],[78.47384,27.31978]]]}},{"type":"Feature","bbox":[78.47225,27.32171,78.47554,27.32346],"properties":{"ward":9,"name":"Khidki Darwaja"},"geometry":{"type":"Polygon","coordinates":[[[78.47298,27.32346],[78.47365,27.3232],[78.474,27.32334],[78.47491,27.3233],[78.47522,27.32345],[78.47554,27.32259],[78.47534,27.32254],[78.47541,27.32219],[78.47527,27.3218],[78.47496,27.32171],[78.47503,27.32194],[78.47463,27.32203],[78.47471,27.32214],[78.47403,27.32258],[78.47363,27.32227],[78.47323,27.32263],[78.47292,27.32265],[78.4725,27.32233],[78.47225,27.3226],[78.47271,27.32297],[78.47298,27.32346]]]}},{"type":"Feature","bbox":[78.4725,27.32108,78.47656,27.32263],"properties":{"ward":10,"name":"Kachiyana"},"geometry":{"type":"Polygon","coordinates":[[[78.47551,27.32108],[78.4749,27.32139],[78.47487,27.32127],[78.47349,27.32183],[78.47292,27.32247],[78.4725,27.32232],[78.47292,27.32263],[78.47322,27.32262],[78.47362,27.32226],[78.47404,27.32256],[78.47469,27.32214],[78.47462,27.32203],[78.47501,27.32193],[78.47498,27.32168],[78.47575,27.32176],[78.47656,27.32157],[78.47623,27.32116],[78.47551,27.32108]]]}}]}