{"type":"FeatureCollection","features":[{"type":"Feature","bbox":[78.30424,27.02609,78.31066,27.03018],"properties":{"ward":1,"name":"Mohalla Jatwan Kalan"},"geometry":{"type":"Polygon","coordinates":[[[78.31032,27.02646],[78.30836,27.02609],[78.30424,27.02726],[78.30454,27.02808],[78.30514,27.02895],[78.30928,27.0297],[78.31059,27.03018],[78.31066,27.02974],[78.31008,27.02802],[78.31032,27.02646]]]}},{"type":"Feature","bbox":[78.30108,27.01739,78.30591,27.02592],"properties":{"ward":2,"name":"Mohalla Rajput"},"geometry":{"type":"Polygon","coordinates":[[[78.30284,27.02592],[78.30591,27.02331],[78.30438,27.02039],[78.30397,27.019],[78.30411,27.01739],[78.30108,27.01863],[78.30204,27.01995],[78.30291,27.02237],[78.30284,27.02353],[78.30327,27.02358],[78.30334,27.02501],[78.3031,27.02531],[78.3028,27.02537],[78.30284,27.02592]]]}},{"type":"Feature","bbox":[78.2988,27.02662,78.30351,27.03235],"properties":{"ward":3,"name":"Mata Ka Math"},"geometry":{"type":"Polygon","coordinates":[[[78.30351,27.03235],[78.30265,27.0278],[78.30192,27.02795],[78.30176,27.02662],[78.2988,27.02815],[78.29924,27.02974],[78.30048,27.03206],[78.30351,27.03235]]]}},{"type":"Feature","bbox":[78.30678,27.02362,78.31094,27.0266],"properties":{"ward":4,"name":"Mohalla Pathavari"},"geometry":{"type":"Polygon","coordinates":[[[78.30931,27.02362],[78.30691,27.02469],[78.30727,27.02526],[78.30678,27.02562],[78.30743,27.02592],[78.31079,27.0266],[78.31094,27.02499],[78.31063,27.02379],[78.30931,27.02362]]]}},{"type":"Feature","bbox":[78.30365,27.02562,78.30836,27.02726],"properties":{"ward":5,"name":"Mohalla Pathan"},"geometry":{"type":"Polygon","coordinates":[[[78.30836,27.02609],[78.30678,27.02562],[78.305,27.0259],[78.30368,27.02588],[78.30365,27.02665],[78.30393,27.02661],[78.30424,27.02726],[78.30836,27.02609]]]}},{"type":"Feature","bbox":[78.30397,27.01579,78.31095,27.02331],"properties":{"ward":6,"name":"Hanuman Nagar"},"geometry":{"type":"Polygon","coordinates":[[[78.30591,27.02331],[78.31095,27.01839],[78.30804,27.01579],[78.30411,27.01739],[78.30397,27.019],[78.30438,27.02039],[78.30591,27.02331]]]}},{"type":"Feature","bbox":[78.29219,27.02815,78.30048,27.03206],"properties":{"ward":7,"name":"Saheed Nagar"},"geometry":{"type":"Polygon","coordinates":[[[78.2988,27.02815],[78.29219,27.03126],[78.30048,27.03206],[78.29924,27.02974],[78.2988,27.02815]]]}},{"type":"Feature","bbox":[78.30176,27.02588,78.30514,27.02895],"properties":{"ward":8,"name":"Jamuna Gali"},"geometry":{"type":"Polygon","coordinates":[[[78.30454,27.02808],[78.30393,27.02661],[78.30365,27.02665],[78.30368,27.02588],[78.30284,27.02592],[78.30176,27.02662],[78.30192,27.02795],[78.30265,27.0278],[78.30281,27.02852],[78.30514,27.02895],[78.30454,27.02808]]]}},{"type":"Feature","bbox":[78.2932,27.02006,78.30284,27.02708],"properties":{"ward":9,"name":"Mo. Choraha"},"geometry":{"type":"Polygon","coordinates":[[[78.30053,27.02591],[78.29751,27.02006],[78.2932,27.02189],[78.29456,27.02457],[78.29328,27.02511],[78.29325,27.02554],[78.30093,27.02708],[78.30284,27.02592],[78.30053,27.02591]]]}},{"type":"Feature","bbox":[78.30496,27.0193,78.31002,27.02582],"properties":{"ward":10,"name":"Mo. Kali Nagar"},"geometry":{"type":"Polygon","coordinates":[[[78.30678,27.02562],[78.30727,27.02526],[78.30691,27.02469],[78.30931,27.02362],[78.30903,27.02169],[78.31002,27.0193],[78.30496,27.02412],[78.30558,27.02496],[78.30564,27.02582],[78.30678,27.02562]]]}},{"type":"Feature","bbox":[78.30284,27.02412,78.30564,27.02592],"properties":{"ward":11,"name":"Khatik Khana"},"geometry":{"type":"Polygon","coordinates":[[[78.30564,27.02582],[78.30558,27.02496],[78.30496,27.02412],[78.30284,27.02592],[78.30564,27.02582]]]}},{"type":"Feature","bbox":[78.29751,27.01863,78.30334,27.02592],"properties":{"ward":12,"name":"Mohalla Chauraha"},"geometry":{"type":"Polygon","coordinates":[[[78.30108,27.01863],[78.29751,27.02006],[78.30053,27.02591],[78.30284,27.02592],[78.3028,27.02537],[78.3031,27.02531],[78.30334,27.02501],[78.30327,27.02358],[78.30284,27.02353],[78.30291,27.02237],[78.30204,27.01995],[78.30108,27.01863]]]}},{"type":"Feature","bbox":[78.30281,27.02852,78.31059,27.03235],"properties":{"ward":13,"name":"Mallah Toola"},"geometry":{"type":"Polygon","coordinates":[[[78.31059,27.03018],[78.30928,27.0297],[78.30281,27.02852],[78.30351,27.03235],[78.30666,27.03179],[78.30916,27.03052],[78.31059,27.03018]]]}},{"type":"Feature","bbox":[78.28669,27.02489,78.30093,27.03126],"properties":{"ward":14,"name":"Mohalla Bagh Colony"},"geometry":{"type":"Polygon","coordinates":[[[78.29219,27.03126],[78.30093,27.02708],[78.29624,27.02622],[78.29068,27.02492],[78.28669,27.02489],[78.29219,27.03126]]]}}]}