{"type":"FeatureCollection","features":[{"type":"Feature","bbox":[79.23793,28.05204,79.24073,28.05449],"properties":{"ward":1,"name":"Adarsh Nagar"},"geometry":{"type":"Polygon","coordinates":[[[79.23793,28.05248],[79.23828,28.0529],[79.23822,28.05343],[79.2385,28.05314],[79.23909,28.05361],[79.23976,28.05449],[79.24073,28.05362],[79.23962,28.05298],[79.239,28.05213],[79.23869,28.05204],[79.23793,28.05248]]]}},{"type":"Feature","bbox":[79.23902,28.05061,79.24325,28.05432],"properties":{"ward":2,"name":"Bichpatti"},"geometry":{"type":"Polygon","coordinates":[[[79.2399,28.05137],[79.23902,28.05207],[79.23924,28.05247],[79.24073,28.05343],[79.24115,28.05408],[79.2415,28.05432],[79.24226,28.05412],[79.24325,28.053],[79.24235,28.0516],[79.24148,28.05061],[79.24071,28.05114],[79.2399,28.05137]]]}},{"type":"Feature","bbox":[79.23559,28.05253,79.24005,28.05501],"properties":{"ward":3,"name":"Pashchim Patti"},"geometry":{"type":"Polygon","coordinates":[[[79.23559,28.05501],[79.24005,28.05499],[79.23899,28.05358],[79.23844,28.05324],[79.23821,28.05348],[79.23811,28.05325],[79.23825,28.05294],[79.23786,28.05253],[79.23703,28.05317],[79.23559,28.05501]]]}},{"type":"Feature","bbox":[79.23978,28.04831,79.2438,28.05029],"properties":{"ward":4,"name":"Silara Patti"},"geometry":{"type":"Polygon","coordinates":[[[79.24112,28.05029],[79.2438,28.04831],[79.23999,28.04842],[79.23978,28.04913],[79.24035,28.05024],[79.24083,28.04996],[79.24112,28.05029]]]}},{"type":"Feature","bbox":[79.23341,28.05062,79.24046,28.05482],"properties":{"ward":5,"name":"Shivmandir"},"geometry":{"type":"Polygon","coordinates":[[[79.24046,28.05113],[79.2402,28.0508],[79.23997,28.05081],[79.2377,28.05175],[79.2372,28.0514],[79.23669,28.05062],[79.23592,28.05123],[79.23341,28.05191],[79.23401,28.05393],[79.23551,28.05482],[79.23703,28.05299],[79.23804,28.05223],[79.23882,28.05185],[79.23901,28.05201],[79.23981,28.05136],[79.24046,28.05113]]]}},{"type":"Feature","bbox":[79.24023,28.04979,79.24227,28.05106],"properties":{"ward":6,"name":"Kanya Pathshala"},"geometry":{"type":"Polygon","coordinates":[[[79.24023,28.05074],[79.24062,28.05106],[79.24182,28.05027],[79.24227,28.05031],[79.24227,28.05006],[79.24203,28.04979],[79.24083,28.05055],[79.24023,28.05074]]]}},{"type":"Feature","bbox":[79.24156,28.04844,79.24518,28.05244],"properties":{"ward":7,"name":"Sahora"},"geometry":{"type":"Polygon","coordinates":[[[79.24156,28.05058],[79.24306,28.05244],[79.24518,28.0504],[79.24387,28.04844],[79.2422,28.04968],[79.2424,28.05046],[79.24174,28.05039],[79.24156,28.05058]]]}},{"type":"Feature","bbox":[79.23342,28.04852,79.2394,28.05181],"properties":{"ward":8,"name":"Gangaonpatti"},"geometry":{"type":"Polygon","coordinates":[[[79.23539,28.04852],[79.23342,28.05181],[79.23588,28.05113],[79.23665,28.05045],[79.23748,28.05164],[79.23828,28.05145],[79.2394,28.05094],[79.23901,28.0506],[79.23837,28.04947],[79.23539,28.04852]]]}},{"type":"Feature","bbox":[79.23942,28.05012,79.24095,28.05097],"properties":{"ward":9,"name":"Patel Nagar"},"geometry":{"type":"Polygon","coordinates":[[[79.2395,28.05097],[79.24095,28.05038],[79.24078,28.05012],[79.24046,28.0504],[79.23992,28.05039],[79.23942,28.05086],[79.2395,28.05097]]]}},{"type":"Feature","bbox":[79.23552,28.04741,79.2403,28.05076],"properties":{"ward":10,"name":"Tanki Mohalla"},"geometry":{"type":"Polygon","coordinates":[[[79.23984,28.05032],[79.2403,28.05028],[79.23969,28.04913],[79.23987,28.04846],[79.23868,28.04741],[79.23611,28.04754],[79.23552,28.04836],[79.23846,28.04942],[79.23873,28.05004],[79.23938,28.05076],[79.23984,28.05032]]]}}]}