{"type":"FeatureCollection","features":[{"type":"Feature","bbox":[81.44951,26.02447,81.45277,26.02818],"properties":{"ward":1,"name":"Paigambarpur Paschimi"},"geometry":{"type":"Polygon","coordinates":[[[81.44965,26.02818],[81.45277,26.0267],[81.45262,26.02631],[81.45217,26.02616],[81.45146,26.02466],[81.45134,26.0247],[81.45124,26.02447],[81.45034,26.02487],[81.45048,26.02503],[81.45023,26.02622],[81.45053,26.0272],[81.45,26.02766],[81.44951,26.02784],[81.44965,26.02818]]]}},{"type":"Feature","bbox":[81.45271,26.02932,81.45571,26.03231],"properties":{"ward":2,"name":"Miyan Sahab Fatak"},"geometry":{"type":"Polygon","coordinates":[[[81.45503,26.03027],[81.45424,26.02932],[81.45277,26.02961],[81.45297,26.03011],[81.45271,26.03021],[81.4529,26.03099],[81.45365,26.03167],[81.45362,26.03231],[81.45536,26.03156],[81.45571,26.03113],[81.45499,26.03055],[81.4549,26.03044],[81.45503,26.03027]]]}},{"type":"Feature","bbox":[81.45427,26.02798,81.45713,26.03027],"properties":{"ward":3,"name":"Milkiyana Paschimi"},"geometry":{"type":"Polygon","coordinates":[[[81.45588,26.0297],[81.45713,26.02937],[81.45664,26.02889],[81.45613,26.02877],[81.4555,26.02798],[81.45465,26.02835],[81.45479,26.02914],[81.45427,26.02935],[81.45483,26.0302],[81.45503,26.03027],[81.45588,26.0297]]]}},{"type":"Feature","bbox":[81.4549,26.02935,81.45834,26.03113],"properties":{"ward":4,"name":"Gorahi"},"geometry":{"type":"Polygon","coordinates":[[[81.45825,26.02935],[81.45655,26.02947],[81.4557,26.02979],[81.4549,26.03044],[81.45571,26.03113],[81.45695,26.02988],[81.45705,26.03002],[81.45834,26.02957],[81.45825,26.02935]]]}},{"type":"Feature","bbox":[81.45523,26.02671,81.45825,26.02937],"properties":{"ward":5,"name":"Milkiyana Purbi"},"geometry":{"type":"Polygon","coordinates":[[[81.45825,26.02935],[81.4571,26.02671],[81.45523,26.02751],[81.45613,26.02877],[81.45664,26.02889],[81.45713,26.02937],[81.45825,26.02935]]]}},{"type":"Feature","bbox":[81.45213,26.02633,81.4555,26.02842],"properties":{"ward":6,"name":"Nayaganj"},"geometry":{"type":"Polygon","coordinates":[[[81.45465,26.02835],[81.4555,26.02798],[81.45523,26.02751],[81.45385,26.02758],[81.45388,26.02633],[81.45214,26.02693],[81.45213,26.02758],[81.45243,26.02834],[81.45281,26.02842],[81.45365,26.02825],[81.45386,26.02787],[81.45395,26.02834],[81.45465,26.02835]]]}},{"type":"Feature","bbox":[81.45433,26.02176,81.4583,26.02551],"properties":{"ward":7,"name":"Vikash Nagar"},"geometry":{"type":"Polygon","coordinates":[[[81.4583,26.02502],[81.4578,26.02226],[81.45745,26.02229],[81.45742,26.02205],[81.45639,26.02176],[81.45453,26.02213],[81.45454,26.02298],[81.45501,26.0234],[81.45521,26.02386],[81.45433,26.02401],[81.45521,26.02486],[81.45595,26.02433],[81.45639,26.02426],[81.45675,26.02551],[81.4583,26.02502]]]}},{"type":"Feature","bbox":[81.44965,26.02811,81.45365,26.03202],"properties":{"ward":8,"name":"Kachi Maszid"},"geometry":{"type":"Polygon","coordinates":[[[81.45365,26.03167],[81.453,26.03115],[81.45271,26.03021],[81.45221,26.02997],[81.45167,26.03006],[81.45155,26.02919],[81.45126,26.02885],[81.45107,26.02825],[81.45052,26.02811],[81.44965,26.02818],[81.44992,26.02879],[81.45044,26.0287],[81.45053,26.02891],[81.45069,26.03039],[81.45104,26.03158],[81.453,26.03167],[81.4536,26.03202],[81.45365,26.03167]]]}},{"type":"Feature","bbox":[81.45385,26.02548,81.4571,26.02758],"properties":{"ward":9,"name":"Nai Bazar"},"geometry":{"type":"Polygon","coordinates":[[[81.45385,26.02758],[81.45524,26.02751],[81.4571,26.02671],[81.45686,26.02548],[81.45388,26.02633],[81.45385,26.02758]]]}},{"type":"Feature","bbox":[81.44981,26.02693,81.45297,26.03021],"properties":{"ward":10,"name":"Chaudharana"},"geometry":{"type":"Polygon","coordinates":[[[81.45276,26.03021],[81.45297,26.03011],[81.45258,26.02922],[81.45236,26.02795],[81.45213,26.02758],[81.45214,26.02693],[81.44981,26.02809],[81.45101,26.0282],[81.45155,26.02919],[81.45167,26.03006],[81.45221,26.02997],[81.45276,26.03021]]]}},{"type":"Feature","bbox":[81.45243,26.02787,81.45479,26.02961],"properties":{"ward":11,"name":"Karimganj"},"geometry":{"type":"Polygon","coordinates":[[[81.45281,26.02961],[81.45479,26.02914],[81.45465,26.02835],[81.45395,26.02834],[81.45386,26.02787],[81.45365,26.02825],[81.45281,26.02842],[81.45243,26.02834],[81.45258,26.02922],[81.45281,26.02961]]]}},{"type":"Feature","bbox":[81.45262,26.0241,81.45675,26.0267],"properties":{"ward":12,"name":"Paigambarpur Purbi"},"geometry":{"type":"Polygon","coordinates":[[[81.45277,26.0267],[81.45675,26.02551],[81.45639,26.02426],[81.45595,26.02433],[81.45521,26.02486],[81.45446,26.02414],[81.45352,26.0241],[81.4535,26.02577],[81.45262,26.02631],[81.45277,26.0267]]]}}]}