{"type":"FeatureCollection","features":[{"type":"Feature","bbox":[80.6533,26.75535,80.65696,26.75812],"properties":{"ward":1,"name":"Ambedkar Nagar"},"geometry":{"type":"Polygon","coordinates":[[[80.6533,26.75606],[80.65438,26.75697],[80.65457,26.75765],[80.65443,26.75786],[80.65498,26.75812],[80.65548,26.75761],[80.65696,26.75675],[80.65679,26.75621],[80.65591,26.7555],[80.65431,26.75535],[80.65339,26.75563],[80.6533,26.75606]]]}},{"type":"Feature","bbox":[80.64878,26.75822,80.65292,26.76176],"properties":{"ward":2,"name":"Balmiki Nagar"},"geometry":{"type":"Polygon","coordinates":[[[80.64878,26.76045],[80.64938,26.76126],[80.65014,26.76176],[80.65127,26.76169],[80.65183,26.76132],[80.65259,26.7603],[80.65292,26.75948],[80.6529,26.75825],[80.65245,26.75822],[80.65222,26.75868],[80.65113,26.75904],[80.64984,26.76026],[80.6492,26.75988],[80.64878,26.76045]]]}},{"type":"Feature","bbox":[80.65098,26.75611,80.65996,26.75844],"properties":{"ward":3,"name":"Azad Nagar"},"geometry":{"type":"Polygon","coordinates":[[[80.65185,26.75816],[80.6543,26.75844],[80.65515,26.75829],[80.65524,26.75812],[80.65534,26.75838],[80.65707,26.7581],[80.65827,26.7581],[80.65851,26.75774],[80.65996,26.75717],[80.65939,26.75688],[80.65798,26.75672],[80.657,26.75679],[80.65581,26.75746],[80.65497,26.75818],[80.65435,26.75787],[80.65454,26.75764],[80.65435,26.75701],[80.65327,26.75611],[80.65301,26.75654],[80.65269,26.75668],[80.65121,26.75679],[80.65098,26.75732],[80.65131,26.75777],[80.65179,26.75772],[80.65185,26.75816]]]}},{"type":"Feature","bbox":[80.65491,26.75696,80.66195,26.76078],"properties":{"ward":4,"name":"Dayanand Nagar"},"geometry":{"type":"Polygon","coordinates":[[[80.65491,26.75838],[80.65591,26.75891],[80.65612,26.75869],[80.65718,26.75933],[80.65743,26.75917],[80.65753,26.75924],[80.65741,26.75959],[80.65778,26.75938],[80.65835,26.75939],[80.66013,26.76078],[80.66054,26.76059],[80.66158,26.75915],[80.66195,26.75784],[80.66155,26.75708],[80.66046,26.75696],[80.65854,26.75775],[80.65831,26.75813],[80.65691,26.75814],[80.65536,26.75841],[80.65522,26.75818],[80.65491,26.75838]]]}},{"type":"Feature","bbox":[80.65001,26.75309,80.65331,26.75682],"properties":{"ward":5,"name":"Adarsh Nagar"},"geometry":{"type":"Polygon","coordinates":[[[80.65077,26.75587],[80.6503,26.75628],[80.65138,26.75682],[80.65304,26.75649],[80.65331,26.75587],[80.65331,26.75508],[80.65209,26.75358],[80.65131,26.7531],[80.65075,26.75309],[80.65017,26.75355],[80.65001,26.75388],[80.65074,26.75465],[80.65077,26.75587]]]}},{"type":"Feature","bbox":[80.64504,26.75309,80.65018,26.75858],"properties":{"ward":6,"name":"Gandhi Nagar"},"geometry":{"type":"Polygon","coordinates":[[[80.64609,26.75814],[80.64718,26.75858],[80.64773,26.75849],[80.6482,26.75748],[80.64865,26.75707],[80.64891,26.7572],[80.64911,26.7571],[80.6494,26.75738],[80.64975,26.75719],[80.65018,26.75742],[80.6498,26.75648],[80.64916,26.75633],[80.64801,26.75552],[80.64865,26.75484],[80.64999,26.7539],[80.65002,26.75364],[80.64961,26.75309],[80.64874,26.75338],[80.64771,26.75347],[80.64637,26.75422],[80.64551,26.75498],[80.64512,26.7561],[80.64504,26.75697],[80.64522,26.75743],[80.64609,26.75814]]]}},{"type":"Feature","bbox":[80.64808,26.75392,80.65197,26.7584],"properties":{"ward":7,"name":"Jawahar Nagar"},"geometry":{"type":"Polygon","coordinates":[[[80.6485,26.75499],[80.64808,26.75552],[80.64919,26.75629],[80.64983,26.75644],[80.65015,26.75715],[80.65028,26.75805],[80.65111,26.7584],[80.65197,26.75826],[80.65175,26.75777],[80.65131,26.75781],[80.65095,26.75737],[80.65117,26.75681],[80.65025,26.75627],[80.65076,26.75577],[80.65074,26.75492],[80.65071,26.75467],[80.65002,26.75392],[80.6485,26.75499]]]}},{"type":"Feature","bbox":[80.65291,26.75829,80.66023,26.76274],"properties":{"ward":8,"name":"Shastri Nagar"},"geometry":{"type":"Polygon","coordinates":[[[80.65295,26.75953],[80.65601,26.76082],[80.65818,26.76273],[80.65874,26.76274],[80.6598,26.7622],[80.66023,26.76093],[80.6584,26.75945],[80.65782,26.7594],[80.65745,26.75962],[80.65743,26.75922],[80.65718,26.75937],[80.65616,26.75873],[80.65588,26.75893],[80.65477,26.75838],[80.65425,26.75846],[80.65291,26.75829],[80.65295,26.75953]]]}},{"type":"Feature","bbox":[80.64793,26.75806,80.65241,26.76023],"properties":{"ward":9,"name":"Keshav Nagar"},"geometry":{"type":"Polygon","coordinates":[[[80.64803,26.75952],[80.64793,26.7598],[80.64945,26.7599],[80.64981,26.76023],[80.65052,26.75972],[80.65096,26.75914],[80.65222,26.75868],[80.65241,26.75822],[80.65117,26.75842],[80.65022,26.75806],[80.64803,26.75952]]]}},{"type":"Feature","bbox":[80.64534,26.75713,80.65026,26.76224],"properties":{"ward":10,"name":"Indira Nagar"},"geometry":{"type":"Polygon","coordinates":[[[80.64775,26.75855],[80.64677,26.75875],[80.64564,26.76021],[80.64534,26.7613],[80.64556,26.76173],[80.64716,26.76224],[80.64874,26.7606],[80.64873,26.76034],[80.64913,26.75989],[80.64796,26.75984],[80.64797,26.75959],[80.64828,26.75923],[80.65026,26.75799],[80.65021,26.75766],[80.64991,26.75728],[80.64943,26.75742],[80.64909,26.75717],[80.64865,26.75713],[80.64823,26.75754],[80.64775,26.75855]]]}}]}