{"type":"FeatureCollection","features":[{"type":"Feature","bbox":[79.96257,27.2899,79.96675,27.29587],"properties":{"ward":1,"name":"Nawabganj North"},"geometry":{"type":"Polygon","coordinates":[[[79.96506,27.29587],[79.96625,27.29469],[79.96675,27.29347],[79.96567,27.2899],[79.96353,27.29039],[79.96257,27.29088],[79.96281,27.29147],[79.96378,27.29126],[79.96444,27.2926],[79.96315,27.29289],[79.96455,27.29537],[79.96506,27.29587]]]}},{"type":"Feature","bbox":[79.95449,27.28456,79.96396,27.28989],"properties":{"ward":2,"name":"Munshiganj East"},"geometry":{"type":"Polygon","coordinates":[[[79.9561,27.28506],[79.95729,27.28687],[79.9563,27.28732],[79.95738,27.28934],[79.95647,27.28959],[79.95652,27.28989],[79.95821,27.28965],[79.9594,27.28974],[79.96019,27.2886],[79.9606,27.28838],[79.96044,27.28809],[79.96078,27.28797],[79.96079,27.28762],[79.96396,27.28643],[79.96256,27.28497],[79.96162,27.28507],[79.95458,27.28456],[79.95449,27.28465],[79.95551,27.28478],[79.9561,27.28506]]]}},{"type":"Feature","bbox":[79.94981,27.28337,79.95458,27.28546],"properties":{"ward":3,"name":"Auladganj South"},"geometry":{"type":"Polygon","coordinates":[[[79.95088,27.28347],[79.94981,27.2848],[79.95046,27.28476],[79.95095,27.28509],[79.95204,27.28436],[79.9525,27.28424],[79.95255,27.28506],[79.95285,27.28483],[79.95343,27.28546],[79.95458,27.28456],[79.95243,27.2835],[79.95126,27.28337],[79.95088,27.28347]]]}},{"type":"Feature","bbox":[79.96106,27.29336,79.96506,27.29732],"properties":{"ward":4,"name":"Nawabganj North East"},"geometry":{"type":"Polygon","coordinates":[[[79.96201,27.29371],[79.9627,27.29438],[79.96213,27.29459],[79.96179,27.29425],[79.96164,27.29436],[79.96146,27.29456],[79.9615,27.29502],[79.96106,27.29531],[79.96151,27.29574],[79.96228,27.29732],[79.96506,27.29587],[79.96455,27.29537],[79.9634,27.29336],[79.96201,27.29371]]]}},{"type":"Feature","bbox":[79.96119,27.28805,79.96567,27.29103],"properties":{"ward":5,"name":"Nawabganj East North South"},"geometry":{"type":"Polygon","coordinates":[[[79.962,27.29103],[79.96353,27.29039],[79.96567,27.2899],[79.96511,27.28805],[79.96119,27.28964],[79.962,27.29103]]]}},{"type":"Feature","bbox":[79.9594,27.28643,79.96511,27.29164],"properties":{"ward":6,"name":"Nawabganj South East"},"geometry":{"type":"Polygon","coordinates":[[[79.96048,27.29078],[79.96123,27.29164],[79.96203,27.29108],[79.96119,27.28964],[79.96511,27.28805],[79.96471,27.2872],[79.96396,27.28643],[79.96079,27.28762],[79.96078,27.28797],[79.96044,27.28809],[79.9606,27.28838],[79.96019,27.2886],[79.9594,27.28971],[79.96043,27.29037],[79.96048,27.29078]]]}},{"type":"Feature","bbox":[79.94921,27.28736,79.95364,27.29034],"properties":{"ward":7,"name":"Bhatpuri Khalsa West"},"geometry":{"type":"Polygon","coordinates":[[[79.95085,27.28736],[79.94968,27.28789],[79.94921,27.28898],[79.95,27.28913],[79.95026,27.29015],[79.9514,27.28974],[79.95165,27.28917],[79.95234,27.2897],[79.95275,27.29034],[79.95354,27.29005],[79.95364,27.2899],[79.95277,27.28853],[79.952,27.28896],[79.95168,27.28845],[79.95129,27.28818],[79.95085,27.28736]]]}},{"type":"Feature","bbox":[79.95277,27.28732,79.95738,27.29003],"properties":{"ward":8,"name":"Munshiganj West"},"geometry":{"type":"Polygon","coordinates":[[[79.9563,27.28732],[79.95277,27.28853],[79.95364,27.2899],[79.9549,27.28943],[79.95549,27.29003],[79.95634,27.28992],[79.95652,27.28989],[79.95647,27.28959],[79.95738,27.28934],[79.9563,27.28732]]]}},{"type":"Feature","bbox":[79.95985,27.29178,79.9627,27.29459],"properties":{"ward":9,"name":"Salamullaganj East"},"geometry":{"type":"Polygon","coordinates":[[[79.96145,27.29392],[79.96213,27.29459],[79.9627,27.29438],[79.96164,27.29325],[79.96196,27.29295],[79.96135,27.29178],[79.95985,27.29282],[79.95991,27.29312],[79.96016,27.2933],[79.96145,27.29392]]]}},{"type":"Feature","bbox":[79.94855,27.28898,79.95109,27.29211],"properties":{"ward":10,"name":"Saiyyadwada Kajitola"},"geometry":{"type":"Polygon","coordinates":[[[79.94855,27.29175],[79.94978,27.29211],[79.95109,27.29187],[79.95105,27.29133],[79.95054,27.29075],[79.9503,27.29081],[79.95012,27.29047],[79.95039,27.29037],[79.94991,27.28906],[79.94921,27.28898],[79.94888,27.28972],[79.94884,27.29067],[79.94865,27.29095],[79.94855,27.29175]]]}},{"type":"Feature","bbox":[79.95255,27.28465,79.95729,27.28755],"properties":{"ward":11,"name":"Auladganj North"},"geometry":{"type":"Polygon","coordinates":[[[79.95571,27.28755],[79.95729,27.28687],[79.9561,27.28506],[79.95551,27.28478],[79.95449,27.28465],[79.95343,27.28546],[79.95285,27.28483],[79.95255,27.28506],[79.95277,27.28544],[79.95262,27.28564],[79.95298,27.28627],[79.95352,27.28681],[79.95378,27.28674],[79.95409,27.28699],[79.95434,27.28746],[79.95536,27.28713],[79.95571,27.28755]]]}},{"type":"Feature","bbox":[79.95263,27.29016,79.95909,27.29305],"properties":{"ward":12,"name":"Naushahara West"},"geometry":{"type":"Polygon","coordinates":[[[79.95273,27.29137],[79.95499,27.2925],[79.95671,27.29305],[79.95814,27.29216],[79.95867,27.29296],[79.95909,27.29295],[79.9582,27.29134],[79.95733,27.29168],[79.95461,27.29016],[79.95263,27.29112],[79.95273,27.29137]]]}},{"type":"Feature","bbox":[79.95141,27.28506,79.95285,27.28653],"properties":{"ward":13,"name":"Khidkiya Peerjada"},"geometry":{"type":"Polygon","coordinates":[[[79.95216,27.28528],[79.95195,27.28513],[79.95141,27.28516],[79.95147,27.28569],[79.95213,27.28653],[79.95285,27.28593],[79.95262,27.28564],[79.95277,27.28544],[79.95255,27.28506],[79.95216,27.28528]]]}},{"type":"Feature","bbox":[79.94844,27.28476,79.95095,27.28657],"properties":{"ward":14,"name":"Raytola"},"geometry":{"type":"Polygon","coordinates":[[[79.94899,27.28657],[79.94995,27.28591],[79.95095,27.28509],[79.95046,27.28476],[79.94981,27.28479],[79.94844,27.28621],[79.94899,27.28657]]]}},{"type":"Feature","bbox":[79.95908,27.28972,79.96135,27.29281],"properties":{"ward":15,"name":"Nawabganj South"},"geometry":{"type":"Polygon","coordinates":[[[79.95908,27.29019],[79.95937,27.29093],[79.95942,27.29189],[79.95986,27.29281],[79.96135,27.29178],[79.96042,27.29071],[79.96043,27.29037],[79.9594,27.28974],[79.9592,27.28972],[79.95908,27.29019]]]}},{"type":"Feature","bbox":[79.95215,27.28599,79.95561,27.28855],"properties":{"ward":16,"name":"Munshiganj Khalsa East"},"geometry":{"type":"Polygon","coordinates":[[[79.95249,27.28704],[79.95224,27.28719],[79.95266,27.28786],[79.95232,27.28807],[79.95273,27.28855],[79.95561,27.28758],[79.95536,27.28713],[79.95434,27.28746],[79.95409,27.28699],[79.95378,27.28674],[79.95352,27.28681],[79.95279,27.28599],[79.95215,27.28652],[79.95249,27.28704]]]}},{"type":"Feature","bbox":[79.96123,27.29088,79.96444,27.29373],"properties":{"ward":17,"name":"Nawabganj Bazar Area"},"geometry":{"type":"Polygon","coordinates":[[[79.9617,27.29226],[79.96196,27.29295],[79.96164,27.29325],[79.96207,27.29373],[79.9634,27.29336],[79.96315,27.29289],[79.96444,27.2926],[79.96378,27.29126],[79.96281,27.29147],[79.96257,27.29088],[79.962,27.29103],[79.96123,27.29164],[79.9617,27.29226]]]}},{"type":"Feature","bbox":[79.95012,27.28917,79.95394,27.29187],"properties":{"ward":18,"name":"Saiyyadwada"},"geometry":{"type":"Polygon","coordinates":[[[79.9511,27.29187],[79.95273,27.29137],[79.95263,27.29112],[79.95394,27.29051],[79.95385,27.29032],[79.9536,27.29035],[79.95354,27.29005],[79.95275,27.29034],[79.95234,27.2897],[79.95165,27.28917],[79.9514,27.28974],[79.95026,27.29015],[79.95039,27.29037],[79.95012,27.29047],[79.9503,27.29081],[79.95054,27.29075],[79.95105,27.29133],[79.9511,27.29187]]]}},{"type":"Feature","bbox":[79.9536,27.28943,79.95825,27.29168],"properties":{"ward":19,"name":"Naushahara North East"},"geometry":{"type":"Polygon","coordinates":[[[79.9549,27.28943],[79.95364,27.2899],[79.9536,27.29035],[79.95385,27.29032],[79.95394,27.29051],[79.95461,27.29016],[79.95733,27.29168],[79.9582,27.29134],[79.95792,27.2902],[79.95823,27.29013],[79.95825,27.28965],[79.95549,27.29003],[79.9549,27.28943]]]}},{"type":"Feature","bbox":[79.95906,27.29332,79.96179,27.29489],"properties":{"ward":20,"name":"Salamullganj"},"geometry":{"type":"Polygon","coordinates":[[[79.96099,27.29414],[79.96146,27.29464],[79.96179,27.29425],[79.96145,27.29392],[79.96019,27.29332],[79.95906,27.29392],[79.95967,27.29489],[79.96071,27.29452],[79.96099,27.29414]]]}},{"type":"Feature","bbox":[79.95085,27.28652,79.95273,27.28896],"properties":{"ward":21,"name":"Khalsa Madhya"},"geometry":{"type":"Polygon","coordinates":[[[79.95215,27.28652],[79.95085,27.28736],[79.95129,27.28818],[79.95168,27.28845],[79.952,27.28896],[79.95273,27.28855],[79.95232,27.28807],[79.95266,27.28786],[79.95224,27.28719],[79.95249,27.28704],[79.95215,27.28652]]]}},{"type":"Feature","bbox":[79.95671,27.28965,79.96019,27.29669],"properties":{"ward":22,"name":"Salamullaganj West South"},"geometry":{"type":"Polygon","coordinates":[[[79.95792,27.2902],[79.95835,27.29178],[79.95909,27.29295],[79.95867,27.29296],[79.95814,27.29216],[79.95671,27.29305],[79.95805,27.29346],[79.95849,27.29432],[79.95848,27.29502],[79.95763,27.29627],[79.95782,27.29669],[79.95961,27.29537],[79.95967,27.29489],[79.95906,27.29392],[79.96019,27.29332],[79.95991,27.29312],[79.95942,27.29189],[79.95937,27.29093],[79.95908,27.29019],[79.9592,27.28972],[79.95825,27.28965],[79.95823,27.29013],[79.95792,27.2902]]]}},{"type":"Feature","bbox":[79.94899,27.28424,79.95255,27.28779],"properties":{"ward":23,"name":"Raytola Khidkiya"},"geometry":{"type":"Polygon","coordinates":[[[79.95171,27.28689],[79.95213,27.28653],[79.95147,27.28569],[79.95141,27.28516],[79.95195,27.28513],[79.95216,27.28528],[79.95255,27.28506],[79.9525,27.28424],[79.95204,27.28436],[79.94899,27.28657],[79.94986,27.28741],[79.94983,27.28779],[79.95171,27.28689]]]}},{"type":"Feature","bbox":[79.95782,27.29414,79.96228,27.29814],"properties":{"ward":24,"name":"Salamullaganj West North"},"geometry":{"type":"Polygon","coordinates":[[[79.95967,27.29489],[79.95967,27.29525],[79.95923,27.29577],[79.95848,27.29607],[79.95782,27.29669],[79.95807,27.29729],[79.95866,27.29794],[79.95951,27.29814],[79.96004,27.29809],[79.96156,27.29767],[79.96228,27.29732],[79.96151,27.29574],[79.96106,27.29531],[79.96151,27.29497],[79.96146,27.29464],[79.96099,27.29414],[79.96071,27.29452],[79.95967,27.29489]]]}},{"type":"Feature","bbox":[79.94699,27.28621,79.94988,27.29175],"properties":{"ward":25,"name":"Raytola Unchateela"},"geometry":{"type":"Polygon","coordinates":[[[79.94785,27.28697],[79.94699,27.29023],[79.94706,27.29079],[79.94855,27.29175],[79.94865,27.29095],[79.94884,27.29067],[79.94888,27.28972],[79.94988,27.28745],[79.94892,27.28649],[79.94844,27.28621],[79.94785,27.28697]]]}}]}