{"type":"FeatureCollection","features":[{"type":"Feature","bbox":[79.91183,26.37142,79.93065,26.38483],"properties":{"ward":1,"name":"Pandit Deen Dayal Nagar"},"geometry":{"type":"Polygon","coordinates":[[[79.91183,26.37294],[79.91398,26.38483],[79.92026,26.3847],[79.93065,26.37956],[79.92845,26.37142],[79.91183,26.37294]]]}},{"type":"Feature","bbox":[79.94953,26.33871,79.95718,26.34507],"properties":{"ward":2,"name":"Manyawar Kanshiram Nagar"},"geometry":{"type":"Polygon","coordinates":[[[79.95067,26.33998],[79.94953,26.34292],[79.95324,26.34507],[79.95718,26.34452],[79.95475,26.33871],[79.95067,26.33998]]]}},{"type":"Feature","bbox":[79.90816,26.36421,79.94281,26.37304],"properties":{"ward":3,"name":"Shivaji Nagar"},"geometry":{"type":"Polygon","coordinates":[[[79.94046,26.37212],[79.94186,26.36682],[79.94281,26.36535],[79.94094,26.36433],[79.93923,26.36421],[79.9315,26.36846],[79.90816,26.36738],[79.91014,26.37304],[79.92601,26.37148],[79.94046,26.37212]]]}},{"type":"Feature","bbox":[79.94999,26.37826,79.95431,26.38168],"properties":{"ward":4,"name":"Naya Ganj"},"geometry":{"type":"Polygon","coordinates":[[[79.9531,26.38123],[79.95431,26.3802],[79.95265,26.37826],[79.94999,26.37827],[79.95028,26.37889],[79.95021,26.37959],[79.95048,26.37979],[79.95013,26.38007],[79.95073,26.38109],[79.95171,26.38119],[79.9519,26.38168],[79.9531,26.38123]]]}},{"type":"Feature","bbox":[79.94758,26.38368,79.95209,26.38749],"properties":{"ward":5,"name":"Shankar Dayal Nagar"},"geometry":{"type":"Polygon","coordinates":[[[79.95092,26.38749],[79.95209,26.38575],[79.95127,26.38508],[79.95019,26.38368],[79.94758,26.38488],[79.94763,26.38571],[79.94826,26.38714],[79.9494,26.38699],[79.95052,26.38709],[79.95092,26.38749]]]}},{"type":"Feature","bbox":[79.96245,26.33584,79.97289,26.34494],"properties":{"ward":6,"name":"Krishna Nagar"},"geometry":{"type":"Polygon","coordinates":[[[79.96558,26.34042],[79.97129,26.34494],[79.97289,26.34173],[79.97049,26.34006],[79.96912,26.34062],[79.96798,26.34075],[79.9678,26.34011],[79.96493,26.33689],[79.96345,26.33584],[79.96245,26.33705],[79.96401,26.33896],[79.96558,26.34042]]]}},{"type":"Feature","bbox":[79.94049,26.36542,79.96077,26.37892],"properties":{"ward":7,"name":"Ambedkar Nagar"},"geometry":{"type":"Polygon","coordinates":[[[79.94812,26.37428],[79.9551,26.37892],[79.96077,26.37343],[79.95981,26.37046],[79.95917,26.36992],[79.95854,26.36875],[79.9565,26.36828],[79.95601,26.36897],[79.95457,26.36805],[79.95272,26.36915],[79.9523,26.36969],[79.94955,26.37053],[79.94807,26.36999],[79.94694,26.36988],[79.94637,26.37022],[79.94586,26.37009],[79.94409,26.36903],[79.94284,26.36542],[79.94167,26.36719],[79.94049,26.37212],[79.94507,26.37301],[79.94812,26.37428]]]}},{"type":"Feature","bbox":[79.95446,26.32449,79.97086,26.35208],"properties":{"ward":8,"name":"Jaswant Nagar"},"geometry":{"type":"Polygon","coordinates":[[[79.96231,26.33703],[79.96339,26.33583],[79.96221,26.33318],[79.96093,26.3311],[79.95958,26.32988],[79.95762,26.32872],[79.95705,26.32796],[79.9571,26.32764],[79.9584,26.3266],[79.95975,26.32647],[79.96068,26.32611],[79.96102,26.32565],[79.96066,26.32487],[79.9597,26.32449],[79.9557,26.3285],[79.95468,26.32987],[79.95446,26.33451],[79.95532,26.33391],[79.95685,26.33462],[79.95844,26.33513],[79.96057,26.33875],[79.96047,26.34064],[79.95988,26.34293],[79.95905,26.34913],[79.96034,26.35208],[79.96839,26.34761],[79.97086,26.34509],[79.9638,26.33921],[79.96231,26.33703]],[[79.96207,26.33667],[79.96231,26.33703],[79.96227,26.33707],[79.96207,26.33667]]]}},{"type":"Feature","bbox":[79.9686,26.33986,79.98922,26.3615],"properties":{"ward":9,"name":"Subhash Nagar"},"geometry":{"type":"Polygon","coordinates":[[[79.97637,26.35496],[79.9736,26.3615],[79.97906,26.36045],[79.98922,26.35329],[79.98253,26.34151],[79.98113,26.33986],[79.97987,26.3399],[79.97708,26.34287],[79.97647,26.34248],[79.97466,26.34198],[79.97395,26.34083],[79.97341,26.34081],[79.97129,26.345],[79.97086,26.34513],[79.9686,26.34742],[79.97391,26.35223],[79.97462,26.35401],[79.97637,26.35496]]]}},{"type":"Feature","bbox":[79.96034,26.35452,79.97345,26.36424],"properties":{"ward":10,"name":"Lohiya Nagar"},"geometry":{"type":"Polygon","coordinates":[[[79.96034,26.36328],[79.96425,26.36424],[79.96784,26.36272],[79.97345,26.36113],[79.96691,26.35457],[79.96371,26.35452],[79.96213,26.3577],[79.96034,26.36328]]]}},{"type":"Feature","bbox":[79.95029,26.38006,79.97252,26.39154],"properties":{"ward":11,"name":"Gandhi Nagar"},"geometry":{"type":"Polygon","coordinates":[[[79.95108,26.38301],[79.95195,26.38401],[79.95154,26.38437],[79.9517,26.38482],[79.95126,26.38507],[79.95206,26.38574],[79.95029,26.38859],[79.95149,26.39067],[79.95218,26.39154],[79.96431,26.38458],[79.97252,26.38006],[79.96233,26.38055],[79.95899,26.38106],[79.95657,26.38212],[79.9553,26.38141],[79.95425,26.38026],[79.95305,26.38125],[79.95155,26.38172],[79.95083,26.38227],[79.95108,26.38301]]]}},{"type":"Feature","bbox":[79.91939,26.33393,79.97635,26.37337],"properties":{"ward":12,"name":"Bajrang Nagar"},"geometry":{"type":"Polygon","coordinates":[[[79.95983,26.37046],[79.96077,26.37337],[79.96269,26.37226],[79.96419,26.36422],[79.96036,26.36328],[79.96196,26.35825],[79.96371,26.35453],[79.96695,26.35464],[79.97356,26.36113],[79.97635,26.35495],[79.97463,26.354],[79.97391,26.35226],[79.96859,26.34744],[79.96035,26.35208],[79.95902,26.3491],[79.96051,26.33876],[79.95848,26.33516],[79.95536,26.33393],[79.95446,26.33462],[79.95472,26.33871],[79.95714,26.3445],[79.95317,26.34503],[79.95194,26.34432],[79.94819,26.35082],[79.94841,26.35504],[79.94469,26.3598],[79.93374,26.36381],[79.91939,26.36814],[79.93169,26.36833],[79.93955,26.36426],[79.94185,26.36443],[79.94287,26.36549],[79.94413,26.36906],[79.94589,26.3701],[79.94637,26.37018],[79.94694,26.36986],[79.94805,26.36996],[79.94956,26.37052],[79.95232,26.36967],[79.95274,26.3691],[79.95453,26.36806],[79.95599,26.36894],[79.95652,26.3683],[79.95855,26.36875],[79.95919,26.36989],[79.95983,26.37046]]]}},{"type":"Feature","bbox":[79.94761,26.37823,79.95055,26.38154],"properties":{"ward":13,"name":"Ashok Nagar"},"geometry":{"type":"Polygon","coordinates":[[[79.95,26.37828],[79.94809,26.37823],[79.94761,26.37854],[79.94819,26.37944],[79.94836,26.38004],[79.94817,26.38025],[79.94887,26.38154],[79.94937,26.38123],[79.94983,26.38124],[79.95055,26.38089],[79.95014,26.38007],[79.95048,26.37979],[79.95022,26.37958],[79.95027,26.37888],[79.95,26.37828]]]}},{"type":"Feature","bbox":[79.94255,26.37324,79.95912,26.38211],"properties":{"ward":14,"name":"Neharu Nagar"},"geometry":{"type":"Polygon","coordinates":[[[79.95533,26.3814],[79.95658,26.38211],[79.95837,26.38141],[79.95912,26.38095],[79.95759,26.38068],[79.95699,26.38041],[79.95046,26.37607],[79.94727,26.37419],[79.94442,26.37324],[79.94255,26.37412],[79.94462,26.3762],[79.94482,26.37915],[79.9456,26.3792],[79.9465,26.37867],[79.94761,26.37852],[79.94808,26.37823],[79.95266,26.37826],[79.95424,26.38026],[79.95533,26.3814]]]}},{"type":"Feature","bbox":[79.94886,26.38088,79.95194,26.38507],"properties":{"ward":15,"name":"Ayodhya Nagar"},"geometry":{"type":"Polygon","coordinates":[[[79.94937,26.38281],[79.95127,26.38507],[79.95169,26.38482],[79.95153,26.38436],[79.95194,26.38401],[79.95108,26.38302],[79.95082,26.38227],[79.95156,26.38172],[79.95189,26.38167],[79.95171,26.38119],[79.95073,26.38108],[79.95056,26.38088],[79.94984,26.38123],[79.94937,26.38123],[79.94886,26.38155],[79.94937,26.38281]]]}},{"type":"Feature","bbox":[79.95502,26.36273,79.97861,26.38078],"properties":{"ward":16,"name":"Kanhaiya Nagar"},"geometry":{"type":"Polygon","coordinates":[[[79.96407,26.38031],[79.97249,26.38003],[79.97861,26.37676],[79.96787,26.36273],[79.9642,26.36424],[79.96271,26.37221],[79.96079,26.37335],[79.95502,26.37904],[79.95724,26.38029],[79.9585,26.38067],[79.95987,26.38078],[79.96407,26.38031]]]}},{"type":"Feature","bbox":[79.94407,26.37852,79.94854,26.38261],"properties":{"ward":17,"name":"Ramganj"},"geometry":{"type":"Polygon","coordinates":[[[79.94821,26.37947],[79.94759,26.37852],[79.94646,26.37872],[79.94555,26.37923],[79.94478,26.3792],[79.94407,26.37937],[79.94473,26.38062],[79.94514,26.38098],[79.9461,26.38261],[79.94772,26.38192],[79.94788,26.38204],[79.94854,26.38111],[79.94815,26.38025],[79.94834,26.38004],[79.94821,26.37947]]]}},{"type":"Feature","bbox":[79.94494,26.3811,79.95007,26.38678],"properties":{"ward":18,"name":"Kaliganj"},"geometry":{"type":"Polygon","coordinates":[[[79.94888,26.38153],[79.94855,26.3811],[79.9479,26.38202],[79.94771,26.38192],[79.94593,26.38276],[79.9455,26.3835],[79.94579,26.3841],[79.94494,26.38513],[79.94561,26.38678],[79.94619,26.38615],[79.94617,26.3857],[79.9466,26.38568],[79.94649,26.38483],[79.94719,26.38446],[79.94761,26.38487],[79.95007,26.38365],[79.94935,26.38277],[79.94888,26.38153]]]}},{"type":"Feature","bbox":[79.93451,26.38446,79.95212,26.39992],"properties":{"ward":19,"name":"Mewati Mohal"},"geometry":{"type":"Polygon","coordinates":[[[79.93451,26.39639],[79.93837,26.39992],[79.94171,26.39823],[79.94272,26.39747],[79.94404,26.39575],[79.94444,26.39548],[79.94698,26.39647],[79.94745,26.39238],[79.9498,26.39304],[79.95212,26.39144],[79.95149,26.39066],[79.95032,26.38863],[79.9509,26.38749],[79.95051,26.3871],[79.94941,26.38699],[79.94827,26.38714],[79.94763,26.38571],[79.94759,26.38486],[79.9472,26.38446],[79.94649,26.38483],[79.9466,26.38567],[79.94618,26.3857],[79.94618,26.38615],[79.94562,26.38677],[79.9373,26.38951],[79.93451,26.39639]]]}}]}