{"type":"FeatureCollection","features":[{"type":"Feature","bbox":[80.74188,27.83473,80.74679,27.83832],"properties":{"ward":1,"name":"Chamraudha"},"geometry":{"type":"Polygon","coordinates":[[[80.74188,27.83531],[80.742,27.83813],[80.74316,27.83807],[80.74412,27.83832],[80.74479,27.83823],[80.74469,27.83799],[80.74602,27.83706],[80.7465,27.83697],[80.74628,27.83599],[80.74679,27.83586],[80.74675,27.83559],[80.745,27.8348],[80.74417,27.83473],[80.74283,27.83527],[80.74188,27.83531]]]}},{"type":"Feature","bbox":[80.73758,27.84401,80.74336,27.85202],"properties":{"ward":2,"name":"Muraun Tola"},"geometry":{"type":"Polygon","coordinates":[[[80.74325,27.84493],[80.74295,27.8447],[80.74336,27.84455],[80.74312,27.84425],[80.74289,27.84401],[80.74253,27.84413],[80.74246,27.84421],[80.7429,27.84473],[80.74136,27.84579],[80.7416,27.84599],[80.74151,27.8462],[80.74095,27.84649],[80.74085,27.8464],[80.73758,27.84862],[80.73799,27.85202],[80.74044,27.85142],[80.74184,27.85051],[80.74123,27.8494],[80.74039,27.84861],[80.74032,27.8483],[80.74105,27.84742],[80.74115,27.84695],[80.74247,27.84584],[80.7428,27.84599],[80.74314,27.84581],[80.74306,27.84542],[80.74277,27.84528],[80.74325,27.84493]]]}},{"type":"Feature","bbox":[80.74468,27.8356,80.74956,27.83887],"properties":{"ward":3,"name":"Jagatiya"},"geometry":{"type":"Polygon","coordinates":[[[80.74652,27.83693],[80.74595,27.83711],[80.74468,27.83802],[80.7448,27.83819],[80.74515,27.83808],[80.74655,27.83719],[80.74693,27.83715],[80.74705,27.83719],[80.74718,27.83784],[80.74752,27.838],[80.74813,27.83887],[80.74842,27.83881],[80.74956,27.83782],[80.74919,27.83729],[80.74677,27.8356],[80.74675,27.83587],[80.74626,27.83604],[80.74652,27.83693]]]}},{"type":"Feature","bbox":[80.74278,27.84454,80.74449,27.8465],"properties":{"ward":4,"name":"Ekta Nagar"},"geometry":{"type":"Polygon","coordinates":[[[80.7432,27.84575],[80.744,27.8465],[80.74449,27.84647],[80.74429,27.84562],[80.74338,27.84454],[80.74298,27.8447],[80.74326,27.84492],[80.74278,27.84527],[80.74303,27.84537],[80.7432,27.84575]]]}},{"type":"Feature","bbox":[80.74036,27.84578,80.74507,27.85051],"properties":{"ward":5,"name":"Julahan Tola"},"geometry":{"type":"Polygon","coordinates":[[[80.74243,27.84584],[80.74107,27.84707],[80.74109,27.84735],[80.74048,27.84802],[80.74036,27.84839],[80.74124,27.84938],[80.74187,27.85051],[80.74407,27.84943],[80.74507,27.84878],[80.74449,27.84645],[80.74402,27.84653],[80.74319,27.84578],[80.74287,27.84599],[80.74243,27.84584]]]}},{"type":"Feature","bbox":[80.74418,27.83715,80.74812,27.84003],"properties":{"ward":6,"name":"Bagiya"},"geometry":{"type":"Polygon","coordinates":[[[80.74684,27.83715],[80.74424,27.83832],[80.7444,27.83846],[80.74418,27.83947],[80.74489,27.84003],[80.74586,27.83969],[80.74723,27.8388],[80.74812,27.8389],[80.74751,27.83804],[80.74721,27.83786],[80.74705,27.83722],[80.74684,27.83715]]]}},{"type":"Feature","bbox":[80.74201,27.83811,80.74462,27.84077],"properties":{"ward":7,"name":"Mahavir"},"geometry":{"type":"Polygon","coordinates":[[[80.74207,27.84077],[80.74354,27.83986],[80.74462,27.8399],[80.74418,27.83943],[80.74437,27.83851],[80.74428,27.83839],[80.74333,27.83811],[80.74201,27.83817],[80.74207,27.84077]]]}},{"type":"Feature","bbox":[80.73723,27.84094,80.74377,27.84868],"properties":{"ward":8,"name":"Kabadiyan Tola"},"geometry":{"type":"Polygon","coordinates":[[[80.74214,27.84115],[80.74217,27.84334],[80.74064,27.84444],[80.73723,27.84605],[80.73756,27.84868],[80.74038,27.84676],[80.74155,27.84619],[80.74161,27.84603],[80.74136,27.84578],[80.74297,27.8447],[80.7425,27.84413],[80.7429,27.844],[80.74344,27.84461],[80.74377,27.84426],[80.74293,27.84345],[80.74251,27.84281],[80.74304,27.84235],[80.74324,27.84249],[80.74344,27.84234],[80.74346,27.84176],[80.74361,27.84166],[80.74297,27.84094],[80.74214,27.84115]]]}},{"type":"Feature","bbox":[80.74348,27.8376,80.75141,27.84595],"properties":{"ward":9,"name":"Shivala"},"geometry":{"type":"Polygon","coordinates":[[[80.74507,27.84004],[80.74548,27.84099],[80.74446,27.84162],[80.74404,27.84232],[80.74435,27.84319],[80.74348,27.84455],[80.74481,27.84595],[80.74622,27.84369],[80.74602,27.84318],[80.74642,27.8429],[80.74713,27.84277],[80.74713,27.84252],[80.74766,27.84245],[80.74827,27.84209],[80.74924,27.84087],[80.74994,27.84036],[80.75089,27.84034],[80.75141,27.83941],[80.75078,27.83826],[80.75047,27.83829],[80.7499,27.8376],[80.74839,27.83881],[80.74731,27.83878],[80.74507,27.84004]]]}},{"type":"Feature","bbox":[80.74247,27.84152,80.74432,27.84424],"properties":{"ward":10,"name":"Thatheran"},"geometry":{"type":"Polygon","coordinates":[[[80.74247,27.84281],[80.74369,27.84424],[80.74432,27.84325],[80.74404,27.84232],[80.74424,27.84208],[80.74389,27.84152],[80.74344,27.84179],[80.74344,27.84237],[80.74324,27.84247],[80.74298,27.84232],[80.74287,27.84264],[80.74247,27.84281]]]}},{"type":"Feature","bbox":[80.7421,27.83987,80.74547,27.84203],"properties":{"ward":11,"name":"Kotwali"},"geometry":{"type":"Polygon","coordinates":[[[80.7421,27.84075],[80.74214,27.84116],[80.74282,27.84091],[80.74364,27.84164],[80.74387,27.84153],[80.74424,27.84203],[80.74443,27.84166],[80.74547,27.84096],[80.74506,27.84004],[80.74444,27.83987],[80.74334,27.83995],[80.7421,27.84075]]]}}]}