{"type":"FeatureCollection","features":[{"type":"Feature","bbox":[80.34065,25.47953,80.34759,25.48839],"properties":{"ward":1},"geometry":{"type":"Polygon","coordinates":[[[80.34154,25.4881],[80.34253,25.48839],[80.34759,25.48783],[80.34583,25.48434],[80.34461,25.48288],[80.34493,25.48271],[80.34588,25.48321],[80.34628,25.48313],[80.34723,25.48232],[80.34348,25.47953],[80.34361,25.4804],[80.3435,25.4811],[80.34193,25.48472],[80.34065,25.48708],[80.34154,25.4881]]]}},{"type":"Feature","bbox":[80.33845,25.45803,80.34384,25.46708],"properties":{"ward":2},"geometry":{"type":"Polygon","coordinates":[[[80.34126,25.46708],[80.34292,25.46659],[80.34328,25.46617],[80.3434,25.46589],[80.34325,25.46527],[80.34256,25.46402],[80.34355,25.46353],[80.34384,25.46321],[80.34212,25.46143],[80.3412,25.46081],[80.34067,25.46063],[80.34088,25.45803],[80.34036,25.45826],[80.33891,25.45846],[80.33913,25.45964],[80.33845,25.45985],[80.33869,25.46108],[80.33966,25.46126],[80.34018,25.46172],[80.34021,25.46239],[80.33992,25.46357],[80.3401,25.46429],[80.34094,25.46552],[80.34192,25.46586],[80.34128,25.46662],[80.34126,25.46708]]]}},{"type":"Feature","bbox":[80.34325,25.46933,80.35562,25.48178],"properties":{"ward":3},"geometry":{"type":"Polygon","coordinates":[[[80.34325,25.47915],[80.34685,25.48166],[80.34758,25.481],[80.34883,25.48178],[80.35072,25.48082],[80.35172,25.48078],[80.35367,25.48006],[80.35069,25.47632],[80.35167,25.47675],[80.35292,25.47694],[80.35562,25.47665],[80.35556,25.47258],[80.35386,25.47096],[80.35217,25.46999],[80.35105,25.46948],[80.34974,25.46933],[80.348,25.47051],[80.34453,25.47241],[80.34522,25.47298],[80.3465,25.47311],[80.3471,25.47395],[80.34848,25.47493],[80.34849,25.47511],[80.34813,25.47514],[80.34725,25.47581],[80.34659,25.4774],[80.34566,25.47825],[80.34419,25.47894],[80.34325,25.47915]]]}},{"type":"Feature","bbox":[80.3252,25.46832,80.32975,25.47361],"properties":{"ward":4},"geometry":{"type":"Polygon","coordinates":[[[80.32687,25.47361],[80.32975,25.47227],[80.32921,25.47038],[80.32829,25.46832],[80.32681,25.46877],[80.32537,25.46962],[80.3252,25.46991],[80.32546,25.47084],[80.32687,25.47361]]]}},{"type":"Feature","bbox":[80.33412,25.47586,80.34341,25.48525],"properties":{"ward":5},"geometry":{"type":"Polygon","coordinates":[[[80.34143,25.48525],[80.34341,25.48063],[80.34329,25.47972],[80.34311,25.47925],[80.34183,25.47839],[80.34019,25.47687],[80.33855,25.47586],[80.33459,25.47875],[80.33412,25.47943],[80.33684,25.4798],[80.33999,25.48138],[80.3406,25.48375],[80.34143,25.48525]]]}},{"type":"Feature","bbox":[80.31604,25.48265,80.33035,25.49556],"properties":{"ward":6},"geometry":{"type":"Polygon","coordinates":[[[80.32639,25.48276],[80.32437,25.4858],[80.3218,25.48831],[80.32017,25.48888],[80.31742,25.48882],[80.31737,25.48915],[80.31665,25.48942],[80.31604,25.49056],[80.31917,25.49128],[80.32021,25.49231],[80.32236,25.49556],[80.33035,25.49373],[80.32996,25.49193],[80.33019,25.49021],[80.32997,25.48958],[80.3288,25.48747],[80.32769,25.4838],[80.32706,25.48265],[80.32639,25.48276]]]}},{"type":"Feature","bbox":[80.32247,25.49233,80.33703,25.50374],"properties":{"ward":7},"geometry":{"type":"Polygon","coordinates":[[[80.33703,25.49687],[80.33547,25.49399],[80.33438,25.49233],[80.33296,25.49326],[80.33206,25.49353],[80.32247,25.49572],[80.32395,25.49831],[80.32828,25.50374],[80.32803,25.50167],[80.32839,25.50124],[80.32834,25.5009],[80.32878,25.50061],[80.32936,25.4996],[80.32929,25.49945],[80.33006,25.49899],[80.32992,25.49869],[80.33017,25.49851],[80.33059,25.49896],[80.33703,25.49687]]]}},{"type":"Feature","bbox":[80.33191,25.47962,80.34135,25.49008],"properties":{"ward":8},"geometry":{"type":"Polygon","coordinates":[[[80.3365,25.49008],[80.33901,25.48855],[80.34064,25.48675],[80.34135,25.48557],[80.34124,25.4852],[80.3403,25.48385],[80.33974,25.48148],[80.3367,25.48005],[80.33408,25.47962],[80.33191,25.48057],[80.33204,25.48086],[80.33315,25.48179],[80.33552,25.4871],[80.3365,25.49008]]]}},{"type":"Feature","bbox":[80.34083,25.45669,80.34691,25.46305],"properties":{"ward":9},"geometry":{"type":"Polygon","coordinates":[[[80.34379,25.46305],[80.34465,25.46202],[80.34616,25.46132],[80.34624,25.46012],[80.34691,25.45722],[80.34564,25.45716],[80.34459,25.45669],[80.34392,25.45683],[80.34324,25.45669],[80.34292,25.45731],[80.34107,25.45803],[80.34083,25.46057],[80.34165,25.4609],[80.34259,25.46163],[80.34379,25.46305]]]}},{"type":"Feature","bbox":[80.33973,25.47258,80.3482,25.47902],"properties":{"ward":10},"geometry":{"type":"Polygon","coordinates":[[[80.34309,25.47902],[80.34459,25.47865],[80.34598,25.4778],[80.34682,25.47661],[80.34717,25.47561],[80.3482,25.47493],[80.34692,25.47405],[80.34639,25.47321],[80.34494,25.47307],[80.34436,25.47258],[80.34069,25.47454],[80.34091,25.47507],[80.33973,25.47625],[80.34309,25.47902]]]}},{"type":"Feature","bbox":[80.33123,25.46481,80.33415,25.47153],"properties":{"ward":11},"geometry":{"type":"Polygon","coordinates":[[[80.33298,25.47153],[80.33365,25.4713],[80.33415,25.47016],[80.33394,25.4698],[80.33405,25.46932],[80.33365,25.46817],[80.33352,25.46711],[80.333,25.46717],[80.33288,25.46701],[80.33274,25.46569],[80.33231,25.46539],[80.33213,25.4649],[80.33182,25.46481],[80.33146,25.46564],[80.33159,25.4667],[80.33123,25.46732],[80.33144,25.46877],[80.33175,25.46952],[80.33213,25.46981],[80.33298,25.47153]]]}},{"type":"Feature","bbox":[80.31614,25.46996,80.32916,25.48003],"properties":{"ward":12},"geometry":{"type":"Polygon","coordinates":[[[80.3164,25.47691],[80.31748,25.4778],[80.32251,25.47786],[80.32394,25.47878],[80.32585,25.479],[80.32658,25.47925],[80.32773,25.48003],[80.3287,25.47743],[80.32916,25.47673],[80.32768,25.47596],[80.3262,25.47492],[80.32669,25.4737],[80.32527,25.47092],[80.32505,25.46996],[80.32256,25.47124],[80.32284,25.47194],[80.32277,25.47223],[80.32187,25.47238],[80.32191,25.47329],[80.32071,25.47391],[80.31614,25.47476],[80.3164,25.47691]]]}},{"type":"Feature","bbox":[80.31378,25.47711,80.33174,25.49053],"properties":{"ward":13},"geometry":{"type":"Polygon","coordinates":[[[80.31378,25.49011],[80.3159,25.49053],[80.31659,25.48935],[80.31728,25.4891],[80.31731,25.48875],[80.32014,25.48881],[80.32171,25.4883],[80.32419,25.48589],[80.32634,25.48266],[80.32712,25.4825],[80.32764,25.48352],[80.3276,25.48288],[80.32801,25.48212],[80.33174,25.48084],[80.33144,25.47805],[80.33015,25.47949],[80.33006,25.4805],[80.32979,25.48067],[80.32758,25.48017],[80.32601,25.47916],[80.32434,25.47909],[80.32326,25.47864],[80.32249,25.47812],[80.31902,25.47788],[80.31738,25.47796],[80.31644,25.47711],[80.31665,25.47928],[80.31573,25.48141],[80.3156,25.48108],[80.3147,25.48346],[80.31378,25.49011]]]}},{"type":"Feature","bbox":[80.32773,25.48097,80.34005,25.49678],"properties":{"ward":14},"geometry":{"type":"Polygon","coordinates":[[[80.32773,25.48322],[80.32906,25.48739],[80.33029,25.48966],[80.33042,25.49025],[80.33021,25.49179],[80.33054,25.49365],[80.33281,25.49308],[80.33437,25.49205],[80.33566,25.49387],[80.33713,25.49678],[80.34005,25.49587],[80.33627,25.49028],[80.33468,25.48604],[80.33297,25.48203],[80.33258,25.48161],[80.33176,25.48097],[80.32813,25.48228],[80.32773,25.48322]]]}},{"type":"Feature","bbox":[80.33226,25.46022,80.3417,25.46723],"properties":{"ward":15},"geometry":{"type":"Polygon","coordinates":[[[80.33837,25.46022],[80.33586,25.46076],[80.33569,25.46051],[80.33543,25.46065],[80.33567,25.46177],[80.33399,25.46286],[80.33226,25.46487],[80.33241,25.46526],[80.33296,25.46566],[80.33307,25.46696],[80.33794,25.46665],[80.33966,25.46723],[80.34114,25.46716],[80.34125,25.46646],[80.3417,25.46586],[80.34082,25.46559],[80.33994,25.46437],[80.33977,25.46398],[80.34009,25.46187],[80.33966,25.46142],[80.33854,25.46123],[80.33837,25.46022]]]}},{"type":"Feature","bbox":[80.31641,25.49601,80.35394,25.54803],"properties":{"ward":16},"geometry":{"type":"Polygon","coordinates":[[[80.34004,25.49601],[80.33054,25.49904],[80.33015,25.49861],[80.33001,25.49871],[80.33018,25.49903],[80.32943,25.49948],[80.32887,25.5007],[80.32852,25.50094],[80.32859,25.50133],[80.32822,25.50174],[80.32858,25.50451],[80.32948,25.50561],[80.3286,25.50884],[80.32788,25.51076],[80.32686,25.5127],[80.32602,25.51343],[80.32449,25.5161],[80.32367,25.51952],[80.32361,25.52469],[80.32172,25.52528],[80.31924,25.52576],[80.31724,25.52641],[80.31641,25.52807],[80.32323,25.52765],[80.32203,25.53322],[80.32245,25.53668],[80.32335,25.53978],[80.32442,25.54803],[80.34175,25.54415],[80.34004,25.54013],[80.34227,25.53997],[80.34296,25.54106],[80.34519,25.54369],[80.34982,25.54245],[80.34708,25.53734],[80.34536,25.53486],[80.34742,25.53238],[80.34948,25.533],[80.35154,25.53548],[80.35394,25.53486],[80.35326,25.53246],[80.35171,25.52503],[80.35085,25.52355],[80.34871,25.52255],[80.34846,25.52053],[80.34829,25.51484],[80.34795,25.51344],[80.34575,25.50813],[80.34004,25.49601]]]}},{"type":"Feature","bbox":[80.31511,25.46776,80.32612,25.47448],"properties":{"ward":17},"geometry":{"type":"Polygon","coordinates":[[[80.31612,25.47448],[80.31991,25.4737],[80.32065,25.47367],[80.32163,25.47319],[80.32161,25.47216],[80.32262,25.47208],[80.32246,25.4711],[80.32494,25.46981],[80.32612,25.469],[80.32499,25.46776],[80.32309,25.46849],[80.32198,25.46807],[80.32108,25.46814],[80.32043,25.46907],[80.31511,25.47012],[80.31612,25.47448]]]}},{"type":"Feature","bbox":[80.32637,25.47237,80.33083,25.47663],"properties":{"ward":18},"geometry":{"type":"Polygon","coordinates":[[[80.32927,25.47663],[80.33083,25.47527],[80.33,25.47397],[80.32978,25.47237],[80.32672,25.47382],[80.32637,25.47484],[80.32777,25.47588],[80.32878,25.47623],[80.32927,25.47663]]]}},{"type":"Feature","bbox":[80.34162,25.41374,80.41004,25.49977],"properties":{"ward":19},"geometry":{"type":"Polygon","coordinates":[[[80.34648,25.49564],[80.34742,25.4952],[80.3478,25.49477],[80.34802,25.49311],[80.34901,25.4885],[80.34969,25.48726],[80.35132,25.48582],[80.36145,25.4933],[80.37008,25.49934],[80.37046,25.49977],[80.37145,25.49845],[80.37293,25.49551],[80.37447,25.49361],[80.3749,25.49287],[80.3752,25.4919],[80.37284,25.48567],[80.37171,25.47748],[80.37073,25.47159],[80.36901,25.46846],[80.36592,25.46381],[80.36455,25.459],[80.36729,25.45311],[80.38841,25.43668],[80.41004,25.41885],[80.4018,25.41668],[80.40231,25.41374],[80.38652,25.41606],[80.37896,25.41653],[80.37382,25.41792],[80.36952,25.41823],[80.36489,25.41947],[80.36283,25.42164],[80.36128,25.42738],[80.36043,25.43126],[80.36094,25.43405],[80.3606,25.43761],[80.35802,25.43839],[80.35613,25.43932],[80.3539,25.44164],[80.35253,25.4449],[80.35081,25.44815],[80.34884,25.44901],[80.34704,25.45087],[80.34601,25.45257],[80.34583,25.45381],[80.34506,25.45663],[80.34637,25.45702],[80.34685,25.45698],[80.34871,25.45674],[80.34875,25.45636],[80.34933,25.45605],[80.35039,25.45607],[80.35058,25.45731],[80.3518,25.45746],[80.35111,25.45992],[80.35032,25.46091],[80.35294,25.45907],[80.35354,25.45888],[80.35573,25.4601],[80.35641,25.46062],[80.35691,25.46126],[80.35721,25.46227],[80.35772,25.46616],[80.35772,25.46672],[80.35744,25.46767],[80.35675,25.46891],[80.35548,25.47017],[80.35506,25.47108],[80.35495,25.47172],[80.35587,25.47286],[80.35591,25.4769],[80.35284,25.47725],[80.35196,25.4771],[80.3513,25.47675],[80.35396,25.48016],[80.35176,25.48092],[80.35075,25.48094],[80.34884,25.48194],[80.34761,25.48114],[80.34678,25.48184],[80.34743,25.48235],[80.34629,25.48332],[80.34542,25.48319],[80.34492,25.48284],[80.34478,25.48295],[80.34601,25.48435],[80.34725,25.48661],[80.34775,25.48793],[80.34266,25.48847],[80.34162,25.48822],[80.34254,25.48968],[80.34251,25.49036],[80.34337,25.49139],[80.34456,25.49243],[80.34572,25.49467],[80.34594,25.49475],[80.34648,25.49564]]]}},{"type":"Feature","bbox":[80.34343,25.45901,80.35751,25.47157],"properties":{"ward":20},"geometry":{"type":"Polygon","coordinates":[[[80.34439,25.46735],[80.34343,25.46783],[80.34382,25.468],[80.34392,25.46829],[80.34684,25.46845],[80.34878,25.46882],[80.34955,25.46882],[80.34994,25.46907],[80.35148,25.46936],[80.35344,25.47035],[80.35483,25.47157],[80.35489,25.47056],[80.35691,25.46822],[80.3573,25.46754],[80.35745,25.46678],[80.35751,25.46599],[80.35732,25.46426],[80.35673,25.46128],[80.35625,25.46065],[80.35353,25.45901],[80.35297,25.45923],[80.3502,25.46114],[80.34806,25.46361],[80.34544,25.46601],[80.34439,25.46735]]]}},{"type":"Feature","bbox":[80.33417,25.47047,80.34065,25.47769],"properties":{"ward":21},"geometry":{"type":"Polygon","coordinates":[[[80.33561,25.47769],[80.33844,25.47568],[80.33949,25.47608],[80.34065,25.47506],[80.33996,25.47403],[80.33887,25.47347],[80.33966,25.47188],[80.33902,25.47112],[80.3388,25.47047],[80.33799,25.472],[80.33739,25.47275],[80.33417,25.47535],[80.33543,25.47647],[80.33496,25.47668],[80.33561,25.47769]]]}},{"type":"Feature","bbox":[80.31372,25.45665,80.33899,25.4694],"properties":{"ward":22},"geometry":{"type":"Polygon","coordinates":[[[80.31505,25.4694],[80.32007,25.46836],[80.32084,25.46762],[80.32221,25.4675],[80.32342,25.46785],[80.32505,25.46723],[80.32621,25.46642],[80.32694,25.46661],[80.32788,25.46657],[80.33114,25.46518],[80.33157,25.46444],[80.33247,25.46402],[80.33419,25.46192],[80.33513,25.4615],[80.33466,25.46026],[80.33548,25.45991],[80.33595,25.46026],[80.33732,25.45983],[80.33899,25.45964],[80.33878,25.45844],[80.33788,25.45836],[80.33724,25.45851],[80.33685,25.45882],[80.33582,25.45882],[80.33513,25.45863],[80.33136,25.45902],[80.33045,25.45871],[80.32942,25.45762],[80.32895,25.45665],[80.32513,25.45677],[80.31522,25.45929],[80.31479,25.46185],[80.31372,25.4644],[80.3144,25.46762],[80.31505,25.4694]]]}},{"type":"Feature","bbox":[80.32787,25.47533,80.33199,25.4805],"properties":{"ward":23},"geometry":{"type":"Polygon","coordinates":[[[80.32787,25.48004],[80.32983,25.4805],[80.32997,25.47947],[80.33143,25.47782],[80.33154,25.47719],[80.33199,25.4765],[80.3309,25.47533],[80.32895,25.47723],[80.32787,25.48004]]]}},{"type":"Feature","bbox":[80.33807,25.45629,80.35145,25.46817],"properties":{"ward":24},"geometry":{"type":"Polygon","coordinates":[[[80.34137,25.46711],[80.34122,25.46727],[80.33956,25.46735],[80.33807,25.46691],[80.33848,25.46817],[80.33927,25.46796],[80.34255,25.46785],[80.34318,25.4677],[80.34422,25.46714],[80.34574,25.46535],[80.3483,25.46295],[80.35018,25.4608],[80.35073,25.45995],[80.35115,25.45898],[80.35145,25.45763],[80.35021,25.45748],[80.35008,25.45629],[80.34948,25.4563],[80.34902,25.45658],[80.34902,25.45696],[80.34728,25.45712],[80.3465,25.46029],[80.34641,25.46151],[80.3448,25.46231],[80.34362,25.46364],[80.34276,25.46406],[80.34358,25.46586],[80.34292,25.46673],[80.34137,25.46711]]]}},{"type":"Feature","bbox":[80.33362,25.46682,80.33854,25.4701],"properties":{"ward":25},"geometry":{"type":"Polygon","coordinates":[[[80.3342,25.4701],[80.33561,25.46949],[80.33854,25.4692],[80.33795,25.46696],[80.33726,25.46682],[80.33362,25.46708],[80.33375,25.46816],[80.33414,25.46928],[80.33402,25.46978],[80.3342,25.4701]]]}},{"type":"Feature","bbox":[80.33084,25.47177,80.33554,25.48034],"properties":{"ward":26},"geometry":{"type":"Polygon","coordinates":[[[80.33185,25.48034],[80.3338,25.47943],[80.33433,25.47865],[80.33547,25.47788],[80.3347,25.47664],[80.33504,25.47646],[80.33378,25.47528],[80.33554,25.4739],[80.33395,25.47177],[80.33193,25.47361],[80.33084,25.47493],[80.33232,25.47656],[80.3317,25.47739],[80.33163,25.47782],[80.33187,25.47929],[80.33185,25.48034]]]}},{"type":"Feature","bbox":[80.32509,25.46565,80.33167,25.4701],"properties":{"ward":27},"geometry":{"type":"Polygon","coordinates":[[[80.33167,25.46957],[80.33131,25.46876],[80.33111,25.46733],[80.33147,25.46664],[80.33134,25.46565],[80.32752,25.46721],[80.32649,25.46704],[80.32509,25.4677],[80.32616,25.4689],[80.3284,25.46808],[80.32932,25.4701],[80.33091,25.46956],[80.33167,25.46957]]]}},{"type":"Feature","bbox":[80.33849,25.46785,80.34993,25.47445],"properties":{"ward":28},"geometry":{"type":"Polygon","coordinates":[[[80.33849,25.46829],[80.33891,25.46947],[80.33914,25.47088],[80.33994,25.47187],[80.33917,25.4734],[80.34,25.47375],[80.34059,25.47445],[80.34799,25.4704],[80.3493,25.46938],[80.34993,25.46921],[80.3495,25.46898],[80.3467,25.4686],[80.34395,25.46843],[80.34371,25.46802],[80.34321,25.46785],[80.34221,25.46802],[80.33921,25.4681],[80.33849,25.46829]]]}},{"type":"Feature","bbox":[80.33181,25.46938,80.33867,25.47386],"properties":{"ward":29},"geometry":{"type":"Polygon","coordinates":[[[80.33181,25.47362],[80.33397,25.4716],[80.33567,25.47386],[80.33723,25.47261],[80.33867,25.47017],[80.33859,25.46938],[80.33556,25.46957],[80.33447,25.46997],[80.33421,25.47021],[80.33375,25.47131],[80.33269,25.47173],[80.33206,25.47239],[80.33181,25.47362]]]}},{"type":"Feature","bbox":[80.32928,25.46968,80.3329,25.47482],"properties":{"ward":30},"geometry":{"type":"Polygon","coordinates":[[[80.33069,25.47482],[80.33167,25.47366],[80.33183,25.47267],[80.33215,25.47205],[80.3329,25.47154],[80.33194,25.46979],[80.33172,25.46968],[80.33088,25.46971],[80.32928,25.47026],[80.32983,25.47166],[80.33022,25.47408],[80.33069,25.47482]]]}},{"type":"Feature","bbox":[80.33652,25.48716,80.34646,25.50307],"properties":{"ward":31},"geometry":{"type":"Polygon","coordinates":[[[80.34059,25.48716],[80.33911,25.48875],[80.33652,25.4903],[80.33783,25.49196],[80.34074,25.49649],[80.34361,25.50307],[80.34506,25.49694],[80.34564,25.49625],[80.34646,25.49579],[80.34579,25.49477],[80.34564,25.49479],[80.34434,25.4924],[80.34341,25.49161],[80.3424,25.49041],[80.34233,25.48967],[80.34137,25.48805],[80.34059,25.48716]]]}}]}