{"type":"FeatureCollection","features":[{"type":"Feature","bbox":[82.08406,25.25834,82.09174,25.26159],"properties":{"ward":1,"name":"Ramkiyan Gandhinagar"},"geometry":{"type":"Polygon","coordinates":[[[82.08956,25.26052],[82.09174,25.25991],[82.09155,25.25919],[82.0907,25.2594],[82.09053,25.25914],[82.08914,25.25953],[82.08876,25.25837],[82.08806,25.25834],[82.08751,25.25857],[82.08705,25.25901],[82.08681,25.25899],[82.08641,25.25843],[82.08507,25.25928],[82.08406,25.25967],[82.08488,25.26159],[82.08631,25.26095],[82.08656,25.26125],[82.08693,25.26106],[82.08678,25.26062],[82.08716,25.26036],[82.08728,25.26063],[82.08934,25.2601],[82.08956,25.26052]]]}},{"type":"Feature","bbox":[82.08564,25.26355,82.09323,25.2663],"properties":{"ward":2,"name":"Balmukund Nagar"},"geometry":{"type":"Polygon","coordinates":[[[82.09193,25.2663],[82.09174,25.26502],[82.09323,25.26505],[82.09321,25.26367],[82.09186,25.26375],[82.09162,25.26355],[82.09008,25.26453],[82.08972,25.26418],[82.0898,25.26398],[82.08919,25.26367],[82.08769,25.26385],[82.08746,25.26356],[82.08655,25.26388],[82.086,25.26425],[82.08564,25.26476],[82.08569,25.26496],[82.0888,25.26606],[82.08889,25.26622],[82.08931,25.26571],[82.09193,25.2663]]]}},{"type":"Feature","bbox":[82.09465,25.25418,82.09815,25.26192],"properties":{"ward":3,"name":"Purajagannath"},"geometry":{"type":"Polygon","coordinates":[[[82.09815,25.26113],[82.09812,25.25451],[82.09506,25.25418],[82.09584,25.25667],[82.09567,25.25678],[82.09662,25.25917],[82.09679,25.26026],[82.09465,25.26082],[82.0948,25.26192],[82.09569,25.2619],[82.09815,25.26113]]]}},{"type":"Feature","bbox":[82.08818,25.26165,82.09212,25.26453],"properties":{"ward":4,"name":"Katra Ajeeb Beg"},"geometry":{"type":"Polygon","coordinates":[[[82.09162,25.26355],[82.09178,25.26319],[82.09177,25.26255],[82.09212,25.26165],[82.09048,25.26214],[82.08872,25.26294],[82.08818,25.26372],[82.08919,25.26367],[82.0898,25.26398],[82.08972,25.26418],[82.09008,25.26453],[82.09162,25.26355]]]}},{"type":"Feature","bbox":[82.09181,25.25231,82.09621,25.2585],"properties":{"ward":5,"name":"Munshiramswaroop Nagar"},"geometry":{"type":"Polygon","coordinates":[[[82.09611,25.25778],[82.09567,25.25678],[82.09584,25.25667],[82.09506,25.25418],[82.09621,25.25428],[82.09539,25.25234],[82.09386,25.25231],[82.0922,25.25272],[82.09181,25.25681],[82.09187,25.25787],[82.09326,25.25746],[82.09416,25.25781],[82.09457,25.2585],[82.09611,25.25778]]]}},{"type":"Feature","bbox":[82.09187,25.25746,82.09679,25.26376],"properties":{"ward":6,"name":"Katra Heeraram"},"geometry":{"type":"Polygon","coordinates":[[[82.09611,25.25778],[82.09457,25.2585],[82.09416,25.25781],[82.09326,25.25746],[82.09187,25.25787],[82.09282,25.26038],[82.09247,25.26217],[82.09249,25.26372],[82.09362,25.26376],[82.09405,25.26348],[82.09457,25.26347],[82.09466,25.26284],[82.09428,25.26249],[82.09423,25.26204],[82.0948,25.26192],[82.09465,25.26082],[82.09679,25.26026],[82.09662,25.25917],[82.09611,25.25778]]]}},{"type":"Feature","bbox":[82.0826,25.25101,82.09261,25.26009],"properties":{"ward":7,"name":"Kapsahai"},"geometry":{"type":"Polygon","coordinates":[[[82.09261,25.2599],[82.09181,25.25754],[82.0922,25.25272],[82.08979,25.25101],[82.08787,25.25171],[82.08532,25.25502],[82.0826,25.25642],[82.08406,25.25967],[82.08507,25.25928],[82.08641,25.25843],[82.08681,25.25899],[82.08705,25.25901],[82.08751,25.25857],[82.08806,25.25834],[82.08876,25.25837],[82.08914,25.25953],[82.09053,25.25914],[82.0907,25.2594],[82.09155,25.25919],[82.09181,25.26009],[82.09261,25.2599]]]}},{"type":"Feature","bbox":[82.09174,25.26113,82.09815,25.26677],"properties":{"ward":8,"name":"Babhanauti"},"geometry":{"type":"Polygon","coordinates":[[[82.09815,25.26113],[82.09569,25.2619],[82.09423,25.26204],[82.09428,25.26249],[82.09466,25.26284],[82.09457,25.26347],[82.09405,25.26348],[82.09362,25.26376],[82.09321,25.26367],[82.09323,25.26505],[82.09174,25.26502],[82.09193,25.2663],[82.09285,25.26611],[82.0937,25.26627],[82.0941,25.26606],[82.09501,25.26659],[82.09599,25.26643],[82.09712,25.26677],[82.09806,25.26616],[82.09815,25.26113]]]}},{"type":"Feature","bbox":[82.09161,25.26157,82.09263,25.26375],"properties":{"ward":9,"name":"Gudahatti"},"geometry":{"type":"Polygon","coordinates":[[[82.09249,25.26372],[82.09247,25.26217],[82.09263,25.26157],[82.09206,25.26177],[82.09177,25.26255],[82.09178,25.26319],[82.09161,25.26342],[82.09186,25.26375],[82.09249,25.26372]]]}},{"type":"Feature","bbox":[82.09134,25.25991,82.09282,25.26169],"properties":{"ward":10,"name":"Mahuwakothi"},"geometry":{"type":"Polygon","coordinates":[[[82.09263,25.26157],[82.09282,25.26055],[82.09265,25.25992],[82.09181,25.26009],[82.09174,25.25991],[82.09134,25.26005],[82.09214,25.26169],[82.09263,25.26157]]]}},{"type":"Feature","bbox":[82.08488,25.26005,82.09211,25.26407],"properties":{"ward":11,"name":"Krishnanagar"},"geometry":{"type":"Polygon","coordinates":[[[82.08818,25.26372],[82.08872,25.26294],[82.09048,25.26214],[82.09211,25.26165],[82.09134,25.26005],[82.08956,25.26052],[82.08934,25.2601],[82.08728,25.26063],[82.08716,25.26036],[82.08678,25.26062],[82.08693,25.26106],[82.08656,25.26125],[82.08631,25.26095],[82.08488,25.26159],[82.08498,25.26198],[82.08626,25.26407],[82.08746,25.26356],[82.0876,25.26384],[82.08818,25.26372]]]}}]}