{"type":"FeatureCollection","features":[{"type":"Feature","bbox":[82.27468,25.10675,82.28385,25.11232],"properties":{"ward":1,"name":"Ambedkar Nagar"},"geometry":{"type":"Polygon","coordinates":[[[82.27592,25.11153],[82.27696,25.11048],[82.27739,25.11127],[82.2779,25.11106],[82.27803,25.11204],[82.2782,25.11208],[82.2822,25.11138],[82.28366,25.11109],[82.28385,25.1093],[82.28355,25.10862],[82.28219,25.1076],[82.27931,25.10675],[82.27746,25.107],[82.27642,25.1072],[82.27681,25.11022],[82.27659,25.10997],[82.27594,25.11001],[82.27468,25.11091],[82.27573,25.11232],[82.27592,25.11153]]]}},{"type":"Feature","bbox":[82.2666,25.11643,82.27335,25.12611],"properties":{"ward":2,"name":"Katara Uttari"},"geometry":{"type":"Polygon","coordinates":[[[82.27293,25.11643],[82.2707,25.11736],[82.26899,25.11836],[82.2666,25.11923],[82.26956,25.12611],[82.27141,25.12531],[82.27164,25.12501],[82.27335,25.11757],[82.27293,25.11643]]]}},{"type":"Feature","bbox":[82.27232,25.11229,82.27551,25.11584],"properties":{"ward":3,"name":"Nai Bazar"},"geometry":{"type":"Polygon","coordinates":[[[82.27455,25.11584],[82.27551,25.11542],[82.27549,25.11465],[82.27503,25.11384],[82.27503,25.11357],[82.27427,25.11268],[82.27428,25.11229],[82.2735,25.11232],[82.27279,25.11256],[82.27323,25.11344],[82.27232,25.11448],[82.27274,25.11477],[82.27287,25.11509],[82.2734,25.11523],[82.27333,25.11564],[82.27435,25.11545],[82.27455,25.11584]]]}},{"type":"Feature","bbox":[82.27761,25.11278,82.28517,25.12033],"properties":{"ward":4,"name":"Kadam Rasool"},"geometry":{"type":"Polygon","coordinates":[[[82.28361,25.11278],[82.27848,25.11425],[82.27761,25.11478],[82.27817,25.11507],[82.27873,25.11586],[82.27947,25.11527],[82.28014,25.11642],[82.28071,25.11681],[82.28073,25.11919],[82.28193,25.11992],[82.28303,25.12033],[82.28367,25.12031],[82.28457,25.11993],[82.28517,25.11923],[82.28493,25.11753],[82.28361,25.11278]]]}},{"type":"Feature","bbox":[82.27146,25.11256,82.27323,25.11466],"properties":{"ward":5,"name":"Gadiwan"},"geometry":{"type":"Polygon","coordinates":[[[82.27234,25.11446],[82.27323,25.11344],[82.27279,25.11256],[82.27172,25.11306],[82.2718,25.11326],[82.27146,25.11432],[82.27155,25.11466],[82.27234,25.11446]]]}},{"type":"Feature","bbox":[82.26789,25.1072,82.27681,25.11506],"properties":{"ward":6,"name":"Mangalwari Bazar"},"geometry":{"type":"Polygon","coordinates":[[[82.27058,25.11479],[82.27094,25.11447],[82.2715,25.11431],[82.2718,25.11326],[82.27172,25.11306],[82.27334,25.11236],[82.27398,25.11225],[82.27403,25.1119],[82.27362,25.11146],[82.27377,25.11124],[82.27457,25.11097],[82.27594,25.11001],[82.27659,25.10997],[82.27681,25.11022],[82.27642,25.1072],[82.26789,25.11165],[82.26859,25.11301],[82.2687,25.11402],[82.26889,25.11438],[82.26959,25.11506],[82.27058,25.11479]]]}},{"type":"Feature","bbox":[82.27518,25.11484,82.28073,25.12028],"properties":{"ward":7,"name":"Chikan"},"geometry":{"type":"Polygon","coordinates":[[[82.27751,25.11484],[82.27747,25.11577],[82.27528,25.11636],[82.27518,25.1167],[82.27711,25.11852],[82.27754,25.11918],[82.27793,25.12028],[82.27908,25.11946],[82.28015,25.11914],[82.28073,25.11919],[82.28071,25.11681],[82.28014,25.11642],[82.27947,25.11527],[82.27873,25.11586],[82.27817,25.11507],[82.27751,25.11484]]]}},{"type":"Feature","bbox":[82.26956,25.11468,82.27793,25.12734],"properties":{"ward":8,"name":"Tilhan Tola"},"geometry":{"type":"Polygon","coordinates":[[[82.27747,25.11577],[82.27751,25.11484],[82.27702,25.11495],[82.27694,25.11468],[82.27578,25.11535],[82.27331,25.11613],[82.27293,25.11643],[82.27335,25.11757],[82.27192,25.12412],[82.27141,25.12531],[82.26956,25.12611],[82.26974,25.12666],[82.2701,25.12704],[82.27108,25.12734],[82.27228,25.12718],[82.27317,25.12679],[82.27427,25.12559],[82.27526,25.12251],[82.27657,25.1212],[82.27793,25.12028],[82.27754,25.11918],[82.27711,25.11852],[82.27518,25.1167],[82.27528,25.11636],[82.27747,25.11577]]]}},{"type":"Feature","bbox":[82.26379,25.11165,82.27194,25.11923],"properties":{"ward":9,"name":"Katara Daxini"},"geometry":{"type":"Polygon","coordinates":[[[82.27194,25.11687],[82.2714,25.11631],[82.27143,25.11561],[82.27117,25.1151],[82.27076,25.11505],[82.27059,25.11478],[82.26959,25.11506],[82.26875,25.11421],[82.26859,25.11301],[82.26789,25.11165],[82.26431,25.11323],[82.26387,25.11355],[82.26379,25.11456],[82.2653,25.11646],[82.2666,25.11923],[82.26899,25.11836],[82.2707,25.11736],[82.27194,25.11687]]]}},{"type":"Feature","bbox":[82.27058,25.11432,82.27455,25.11687],"properties":{"ward":10,"name":"Shukrawari Bazar"},"geometry":{"type":"Polygon","coordinates":[[[82.27194,25.11687],[82.27331,25.11613],[82.27455,25.11584],[82.27444,25.11556],[82.27435,25.11545],[82.27333,25.11564],[82.2734,25.11523],[82.27287,25.11509],[82.27274,25.11477],[82.27234,25.11446],[82.27169,25.11471],[82.27155,25.11466],[82.27146,25.11432],[82.27094,25.11447],[82.27058,25.11479],[82.27076,25.11505],[82.27132,25.11524],[82.27146,25.1158],[82.2714,25.11631],[82.27194,25.11687]]]}},{"type":"Feature","bbox":[82.27644,25.11048,82.28366,25.11495],"properties":{"ward":11,"name":"Juber Nagar"},"geometry":{"type":"Polygon","coordinates":[[[82.27702,25.11495],[82.27848,25.11425],[82.28361,25.11278],[82.28366,25.11109],[82.2782,25.11208],[82.27803,25.11204],[82.2779,25.11106],[82.27739,25.11127],[82.27696,25.11048],[82.27644,25.11095],[82.27672,25.11164],[82.27646,25.11178],[82.27678,25.11287],[82.27644,25.11322],[82.27702,25.11495]]]}},{"type":"Feature","bbox":[82.27362,25.11091,82.27647,25.11542],"properties":{"ward":12,"name":"Mohd Ali Road Paschimi"},"geometry":{"type":"Polygon","coordinates":[[[82.27561,25.1122],[82.27468,25.11091],[82.27377,25.11124],[82.27362,25.11146],[82.27403,25.1119],[82.27398,25.11224],[82.27428,25.11229],[82.27427,25.11268],[82.27503,25.11357],[82.27503,25.11384],[82.27549,25.11465],[82.27551,25.11542],[82.27647,25.11494],[82.2758,25.11338],[82.27516,25.1124],[82.27561,25.1122]]]}},{"type":"Feature","bbox":[82.27516,25.11095,82.27694,25.11494],"properties":{"ward":13,"name":"Mohd Ali Road Purvi"},"geometry":{"type":"Polygon","coordinates":[[[82.27644,25.11095],[82.27592,25.11153],[82.27573,25.11232],[82.27561,25.1122],[82.27516,25.1124],[82.2758,25.11338],[82.27647,25.11494],[82.27694,25.11468],[82.27644,25.11322],[82.27678,25.11287],[82.27646,25.11178],[82.27672,25.11164],[82.27644,25.11095]]]}}]}