{"type":"FeatureCollection","features":[{"type":"Feature","bbox":[78.91869,25.24102,78.92633,25.2459],"properties":{"ward":1,"name":"Tauriyapura"},"geometry":{"type":"Polygon","coordinates":[[[78.92476,25.2456],[78.92633,25.2452],[78.92594,25.24378],[78.92618,25.24186],[78.92543,25.24104],[78.92522,25.24102],[78.92311,25.24244],[78.92041,25.24305],[78.92047,25.24359],[78.91873,25.24485],[78.91869,25.24517],[78.92078,25.2459],[78.92476,25.2456]]]}},{"type":"Feature","bbox":[78.91205,25.23133,78.92454,25.23883],"properties":{"ward":2,"name":"Suraipura"},"geometry":{"type":"Polygon","coordinates":[[[78.91205,25.23883],[78.91537,25.23847],[78.91701,25.23809],[78.91769,25.23722],[78.91946,25.23571],[78.9209,25.23515],[78.92288,25.23562],[78.92454,25.23537],[78.92447,25.23434],[78.92426,25.23373],[78.92207,25.23135],[78.91926,25.23133],[78.91713,25.23182],[78.91577,25.23242],[78.91397,25.23401],[78.91261,25.23608],[78.91269,25.23678],[78.91205,25.23883]]]}},{"type":"Feature","bbox":[78.91964,25.23519,78.92479,25.24032],"properties":{"ward":3,"name":"Taalpura"},"geometry":{"type":"Polygon","coordinates":[[[78.92295,25.23914],[78.92321,25.238],[78.92479,25.23783],[78.92358,25.23674],[78.92267,25.23563],[78.9209,25.23519],[78.91964,25.23569],[78.91984,25.23595],[78.92006,25.23701],[78.91998,25.2374],[78.92097,25.23955],[78.92171,25.23975],[78.92213,25.24018],[78.92251,25.24032],[78.92308,25.2394],[78.92295,25.23914]]]}},{"type":"Feature","bbox":[78.92532,25.23889,78.93306,25.24862],"properties":{"ward":4,"name":"Dalbadal"},"geometry":{"type":"Polygon","coordinates":[[[78.92555,25.24104],[78.92623,25.24181],[78.92598,25.24345],[78.92641,25.24517],[78.92675,25.24553],[78.92838,25.24655],[78.93154,25.24812],[78.93306,25.24862],[78.93273,25.24789],[78.93055,25.24523],[78.93182,25.24386],[78.93218,25.24211],[78.93278,25.24165],[78.93297,25.24124],[78.93223,25.24162],[78.92989,25.24127],[78.92875,25.2401],[78.92776,25.23934],[78.92532,25.23889],[78.92555,25.24104]]]}},{"type":"Feature","bbox":[78.91158,25.2382,78.9221,25.2419],"properties":{"ward":5,"name":"Medekapura"},"geometry":{"type":"Polygon","coordinates":[[[78.91158,25.23967],[78.91173,25.23997],[78.91261,25.24021],[78.91319,25.2409],[78.91407,25.2416],[78.91572,25.2419],[78.91732,25.24153],[78.91899,25.24071],[78.91989,25.24065],[78.92066,25.24089],[78.9221,25.24024],[78.92168,25.23979],[78.92089,25.23963],[78.91897,25.23834],[78.91798,25.2382],[78.91756,25.23857],[78.91684,25.23878],[78.91526,25.23855],[78.91204,25.23893],[78.91158,25.23967]]]}},{"type":"Feature","bbox":[78.92282,25.23413,78.93301,25.23782],"properties":{"ward":6,"name":"Nai Basti"},"geometry":{"type":"Polygon","coordinates":[[[78.92282,25.23571],[78.92362,25.2367],[78.92488,25.23782],[78.92858,25.23756],[78.93124,25.23655],[78.93186,25.23612],[78.93301,25.23433],[78.93285,25.23413],[78.9322,25.23427],[78.92843,25.23582],[78.92661,25.23605],[78.92486,25.23604],[78.92457,25.23545],[78.92282,25.23571]]]}},{"type":"Feature","bbox":[78.9231,25.23627,78.93299,25.24155],"properties":{"ward":7,"name":"Gadipura"},"geometry":{"type":"Polygon","coordinates":[[[78.92321,25.23808],[78.9231,25.23836],[78.92371,25.23866],[78.92424,25.23857],[78.9278,25.23928],[78.92987,25.24118],[78.93222,25.24155],[78.93299,25.24111],[78.93289,25.23978],[78.93247,25.23818],[78.93194,25.23752],[78.93184,25.23627],[78.93118,25.23665],[78.92855,25.23764],[78.92321,25.23808]]]}},{"type":"Feature","bbox":[78.91541,25.2357,78.92092,25.23958],"properties":{"ward":8,"name":"Jhadiyapura"},"geometry":{"type":"Polygon","coordinates":[[[78.91541,25.23851],[78.91684,25.23874],[78.91752,25.23853],[78.91796,25.23814],[78.91903,25.2383],[78.92092,25.23958],[78.91993,25.23742],[78.92001,25.23704],[78.91979,25.23595],[78.91959,25.2357],[78.9177,25.23729],[78.91704,25.23811],[78.91541,25.23851]]]}},{"type":"Feature","bbox":[78.91745,25.24025,78.92276,25.24298],"properties":{"ward":9,"name":"Nai Basti"},"geometry":{"type":"Polygon","coordinates":[[[78.91745,25.24153],[78.91883,25.24147],[78.92009,25.24179],[78.92044,25.24298],[78.92175,25.24259],[78.92276,25.24246],[78.92228,25.24184],[78.92216,25.24025],[78.92068,25.24094],[78.9199,25.24071],[78.91901,25.24075],[78.91745,25.24153]]]}},{"type":"Feature","bbox":[78.92223,25.23842,78.92547,25.24241],"properties":{"ward":10,"name":"Purana Bazar"},"geometry":{"type":"Polygon","coordinates":[[[78.92315,25.23937],[78.92266,25.2403],[78.92223,25.24029],[78.92234,25.24181],[78.92282,25.24241],[78.9232,25.2423],[78.92482,25.2411],[78.92547,25.24096],[78.92525,25.23885],[78.92426,25.23862],[78.92373,25.23871],[78.92312,25.23842],[78.923,25.23913],[78.92315,25.23937]]]}}]}