{"type":"FeatureCollection","features":[{"type":"Feature","bbox":[80.57951,25.2831,80.5892,25.28897],"properties":{"ward":1},"geometry":{"type":"Polygon","coordinates":[[[80.58047,25.28897],[80.58476,25.28645],[80.5892,25.28394],[80.58894,25.28352],[80.58274,25.28464],[80.58251,25.28389],[80.58276,25.28382],[80.58251,25.2831],[80.57951,25.28488],[80.57968,25.28514],[80.58043,25.28488],[80.58053,25.2856],[80.58094,25.28655],[80.57957,25.28693],[80.57989,25.28762],[80.5797,25.28798],[80.58047,25.28897]]]}},{"type":"Feature","bbox":[80.58081,25.28802,80.59407,25.29274],"properties":{"ward":2},"geometry":{"type":"Polygon","coordinates":[[[80.58081,25.28938],[80.58182,25.29191],[80.5848,25.29096],[80.58559,25.29274],[80.58961,25.29145],[80.59364,25.2904],[80.59325,25.2897],[80.59386,25.28947],[80.59364,25.28881],[80.59407,25.28869],[80.5889,25.28821],[80.58358,25.28802],[80.58081,25.28938]]]}},{"type":"Feature","bbox":[80.55477,25.27259,80.56938,25.28268],"properties":{"ward":3},"geometry":{"type":"Polygon","coordinates":[[[80.5656,25.28268],[80.56938,25.28155],[80.56848,25.27853],[80.56914,25.27833],[80.56638,25.27259],[80.55968,25.27577],[80.55477,25.28045],[80.56063,25.27686],[80.5656,25.28268]]]}},{"type":"Feature","bbox":[80.55988,25.28921,80.5854,25.30125],"properties":{"ward":4},"geometry":{"type":"Polygon","coordinates":[[[80.55988,25.30125],[80.56832,25.29891],[80.57492,25.29619],[80.58201,25.29367],[80.5854,25.29281],[80.58467,25.29118],[80.58145,25.29219],[80.58125,25.29132],[80.58035,25.28921],[80.55988,25.30125]]]}},{"type":"Feature","bbox":[80.57479,25.26479,80.59109,25.28606],"properties":{"ward":5},"geometry":{"type":"Polygon","coordinates":[[[80.59109,25.27267],[80.58796,25.2703],[80.58526,25.26479],[80.57788,25.26782],[80.57839,25.27387],[80.57479,25.27659],[80.57573,25.27768],[80.57659,25.27931],[80.57659,25.28117],[80.57529,25.2836],[80.57494,25.28478],[80.57525,25.28606],[80.57653,25.28529],[80.57632,25.28496],[80.57696,25.28412],[80.57698,25.28368],[80.57664,25.28309],[80.57866,25.28216],[80.58276,25.27985],[80.58844,25.275],[80.59033,25.27314],[80.59109,25.27267]]]}},{"type":"Feature","bbox":[80.58054,25.28004,80.59883,25.28945],"properties":{"ward":6},"geometry":{"type":"Polygon","coordinates":[[[80.58081,25.28938],[80.58356,25.28779],[80.59193,25.28824],[80.59404,25.28849],[80.59711,25.28936],[80.5983,25.28945],[80.59766,25.28787],[80.59883,25.28747],[80.59663,25.28117],[80.59642,25.28004],[80.58054,25.28902],[80.58081,25.28938]]]}},{"type":"Feature","bbox":[80.56669,25.28525,80.56985,25.28862],"properties":{"ward":7},"geometry":{"type":"Polygon","coordinates":[[[80.56778,25.28862],[80.56985,25.28776],[80.56943,25.28686],[80.56839,25.28619],[80.56759,25.28525],[80.56705,25.28555],[80.56669,25.28626],[80.56738,25.28806],[80.56778,25.28862]]]}},{"type":"Feature","bbox":[80.55499,25.2772,80.56743,25.29046],"properties":{"ward":8},"geometry":{"type":"Polygon","coordinates":[[[80.56241,25.29046],[80.56737,25.28835],[80.56644,25.28613],[80.5667,25.28565],[80.56743,25.28516],[80.56048,25.2772],[80.55499,25.28055],[80.55743,25.28351],[80.55979,25.2884],[80.56241,25.29046]]]}},{"type":"Feature","bbox":[80.57255,25.28526,80.57656,25.28778],"properties":{"ward":9},"geometry":{"type":"Polygon","coordinates":[[[80.57283,25.28748],[80.57416,25.28778],[80.57656,25.28635],[80.57616,25.28572],[80.5752,25.28628],[80.57481,25.2857],[80.57476,25.28526],[80.57308,25.28544],[80.57255,25.28532],[80.5726,25.28668],[80.57283,25.28748]]]}},{"type":"Feature","bbox":[80.56651,25.27097,80.57322,25.28281],"properties":{"ward":10},"geometry":{"type":"Polygon","coordinates":[[[80.57122,25.28281],[80.57322,25.28223],[80.57189,25.27838],[80.57133,25.27724],[80.57195,25.27701],[80.57234,25.2772],[80.57311,25.27689],[80.5698,25.27097],[80.56651,25.27252],[80.5693,25.27846],[80.56869,25.27861],[80.56943,25.28135],[80.57004,25.28232],[80.57102,25.28205],[80.57122,25.28281]]]}},{"type":"Feature","bbox":[80.5759,25.28491,80.58084,25.28792],"properties":{"ward":11},"geometry":{"type":"Polygon","coordinates":[[[80.57966,25.28792],[80.57967,25.28769],[80.57982,25.28765],[80.57946,25.28692],[80.58084,25.28646],[80.58045,25.28559],[80.58035,25.28496],[80.57963,25.28521],[80.57943,25.28491],[80.5759,25.28694],[80.57621,25.28779],[80.57893,25.28775],[80.57966,25.28792]]]}},{"type":"Feature","bbox":[80.55526,25.29,80.57204,25.30106],"properties":{"ward":12},"geometry":{"type":"Polygon","coordinates":[[[80.57204,25.2938],[80.57119,25.29186],[80.57066,25.29],[80.55526,25.30044],[80.55848,25.30106],[80.55966,25.30097],[80.56655,25.29676],[80.57204,25.2938]]]}},{"type":"Feature","bbox":[80.55409,25.28611,80.56913,25.30033],"properties":{"ward":13},"geometry":{"type":"Polygon","coordinates":[[[80.56913,25.29081],[80.56867,25.29007],[80.56858,25.28908],[80.56765,25.28944],[80.56763,25.28932],[80.56803,25.28919],[80.56759,25.28858],[80.56619,25.289],[80.56523,25.2896],[80.56386,25.29004],[80.56201,25.29093],[80.55898,25.28832],[80.55804,25.28696],[80.5577,25.28611],[80.55409,25.29763],[80.55509,25.30033],[80.56913,25.29081]]]}},{"type":"Feature","bbox":[80.56567,25.28169,80.57145,25.28556],"properties":{"ward":14},"geometry":{"type":"Polygon","coordinates":[[[80.57145,25.28539],[80.57045,25.28326],[80.57112,25.28295],[80.57097,25.28214],[80.57,25.2824],[80.56951,25.28169],[80.56567,25.28281],[80.56802,25.28556],[80.56869,25.28526],[80.57025,25.28493],[80.57038,25.2851],[80.57081,25.28505],[80.57129,25.28547],[80.57145,25.28539]]]}},{"type":"Feature","bbox":[80.58257,25.27538,80.59777,25.28454],"properties":{"ward":15},"geometry":{"type":"Polygon","coordinates":[[[80.58932,25.28386],[80.59777,25.27906],[80.59738,25.27799],[80.59716,25.27805],[80.597,25.27777],[80.59657,25.27608],[80.59606,25.27538],[80.58257,25.28307],[80.58286,25.28384],[80.5826,25.28394],[80.58279,25.28454],[80.58898,25.28338],[80.58932,25.28386]]]}},{"type":"Feature","bbox":[80.57,25.26789,80.57819,25.28225],"properties":{"ward":16},"geometry":{"type":"Polygon","coordinates":[[[80.57428,25.27674],[80.57819,25.2738],[80.57753,25.26789],[80.57,25.27084],[80.57335,25.27697],[80.57232,25.27744],[80.57201,25.27727],[80.57167,25.27739],[80.57214,25.27828],[80.57343,25.28221],[80.5748,25.28201],[80.57557,25.28225],[80.576,25.28139],[80.57617,25.28019],[80.576,25.27918],[80.5754,25.27798],[80.57428,25.27674]]]}},{"type":"Feature","bbox":[80.56786,25.28782,80.57079,25.29075],"properties":{"ward":17},"geometry":{"type":"Polygon","coordinates":[[[80.5692,25.29075],[80.57079,25.28965],[80.56989,25.28782],[80.56786,25.28871],[80.56813,25.28913],[80.56867,25.28897],[80.56879,25.29007],[80.5692,25.29075]]]}},{"type":"Feature","bbox":[80.57292,25.2876,80.57548,25.28953],"properties":{"ward":18},"geometry":{"type":"Polygon","coordinates":[[[80.5741,25.28953],[80.57548,25.2887],[80.57467,25.2876],[80.5741,25.28794],[80.57403,25.28781],[80.57292,25.2876],[80.57315,25.28834],[80.57345,25.28817],[80.5741,25.28953]]]}},{"type":"Feature","bbox":[80.57478,25.28694,80.58035,25.29089],"properties":{"ward":19},"geometry":{"type":"Polygon","coordinates":[[[80.57709,25.29089],[80.58035,25.28902],[80.57942,25.28797],[80.57611,25.28795],[80.57579,25.28694],[80.57478,25.28754],[80.57709,25.29089]]]}},{"type":"Feature","bbox":[80.57054,25.28242,80.575,25.28659],"properties":{"ward":20},"geometry":{"type":"Polygon","coordinates":[[[80.57251,25.28659],[80.57248,25.28527],[80.5731,25.28537],[80.57474,25.2852],[80.5746,25.28472],[80.575,25.28354],[80.5747,25.28242],[80.57241,25.28259],[80.57054,25.28329],[80.57148,25.28532],[80.57251,25.28659]]]}},{"type":"Feature","bbox":[80.57622,25.27274,80.59592,25.28633],"properties":{"ward":21},"geometry":{"type":"Polygon","coordinates":[[[80.57668,25.28633],[80.59013,25.27855],[80.59592,25.27524],[80.59151,25.27274],[80.59035,25.2736],[80.58494,25.27841],[80.58276,25.28008],[80.58031,25.28155],[80.57687,25.28316],[80.57718,25.28366],[80.57712,25.28429],[80.57661,25.28511],[80.57679,25.2854],[80.57622,25.28565],[80.57668,25.28633]]]}},{"type":"Feature","bbox":[80.57414,25.28876,80.577,25.29208],"properties":{"ward":22},"geometry":{"type":"Polygon","coordinates":[[[80.5755,25.28876],[80.57414,25.28959],[80.57466,25.29046],[80.5743,25.29065],[80.575,25.29208],[80.577,25.29095],[80.5755,25.28876]]]}},{"type":"Feature","bbox":[80.56805,25.28502,80.57276,25.28747],"properties":{"ward":23},"geometry":{"type":"Polygon","coordinates":[[[80.56805,25.2856],[80.56868,25.28627],[80.56952,25.28677],[80.57276,25.28747],[80.57252,25.28668],[80.57199,25.28598],[80.57156,25.28548],[80.5712,25.2855],[80.57081,25.28512],[80.57039,25.28517],[80.57005,25.28502],[80.56805,25.2856]]]}},{"type":"Feature","bbox":[80.57071,25.28836,80.57495,25.29377],"properties":{"ward":24},"geometry":{"type":"Polygon","coordinates":[[[80.57342,25.28836],[80.57071,25.28991],[80.57126,25.29169],[80.57215,25.29377],[80.57495,25.29211],[80.57415,25.29064],[80.57455,25.29043],[80.57342,25.28836]]]}},{"type":"Feature","bbox":[80.5695,25.28689,80.57309,25.28966],"properties":{"ward":25},"geometry":{"type":"Polygon","coordinates":[[[80.5709,25.28966],[80.57309,25.28838],[80.57284,25.28759],[80.5695,25.28689],[80.5709,25.28966]]]}}]}