{"type":"FeatureCollection","features":[{"type":"Feature","bbox":[81.62924,25.43014,81.64441,25.44262],"properties":{"ward":1,"name":"Deeha Saraiya"},"geometry":{"type":"Polygon","coordinates":[[[81.62924,25.43696],[81.62965,25.43827],[81.63116,25.44082],[81.63199,25.44167],[81.63362,25.44262],[81.63445,25.44189],[81.6347,25.43955],[81.63533,25.43772],[81.63726,25.43659],[81.64008,25.43525],[81.64159,25.43547],[81.64406,25.43518],[81.64441,25.43402],[81.64367,25.43269],[81.64227,25.43242],[81.64152,25.43326],[81.64059,25.43393],[81.63771,25.43466],[81.63554,25.43486],[81.63458,25.43175],[81.63414,25.43113],[81.63286,25.43123],[81.63262,25.43037],[81.63184,25.43014],[81.62994,25.4307],[81.63016,25.43367],[81.63082,25.43408],[81.63112,25.43477],[81.63071,25.43611],[81.6301,25.43633],[81.63,25.43674],[81.62924,25.43696]]]}},{"type":"Feature","bbox":[81.62874,25.42866,81.63461,25.43694],"properties":{"ward":2,"name":"Naim Miya Ka Pura Purvi"},"geometry":{"type":"Polygon","coordinates":[[[81.62937,25.43613],[81.62874,25.4365],[81.6291,25.43694],[81.62983,25.43657],[81.63008,25.43609],[81.6307,25.43587],[81.63106,25.43493],[81.63084,25.43419],[81.63016,25.43378],[81.62987,25.43151],[81.62991,25.43067],[81.63106,25.43012],[81.63198,25.42996],[81.63278,25.43026],[81.63291,25.43118],[81.63434,25.43085],[81.63461,25.42927],[81.63425,25.42866],[81.63389,25.42881],[81.63378,25.42871],[81.63199,25.4289],[81.63132,25.42912],[81.6306,25.42909],[81.63015,25.42946],[81.62918,25.42968],[81.62962,25.43575],[81.62914,25.43577],[81.62937,25.43613]]]}},{"type":"Feature","bbox":[81.62905,25.42737,81.63434,25.42956],"properties":{"ward":3,"name":"Gandhinagar"},"geometry":{"type":"Polygon","coordinates":[[[81.62905,25.42914],[81.62918,25.42956],[81.63024,25.42932],[81.63041,25.42898],[81.63137,25.42906],[81.63314,25.42859],[81.63352,25.42877],[81.63365,25.42862],[81.63434,25.42859],[81.63413,25.42816],[81.63335,25.42766],[81.63281,25.42781],[81.63167,25.42759],[81.63163,25.42774],[81.63136,25.42737],[81.63052,25.42742],[81.63034,25.42795],[81.63013,25.42778],[81.62909,25.42811],[81.62905,25.42914]]]}},{"type":"Feature","bbox":[81.63104,25.42305,81.63422,25.42555],"properties":{"ward":4,"name":"Ambedkarnagar"},"geometry":{"type":"Polygon","coordinates":[[[81.63169,25.42432],[81.63186,25.42452],[81.6314,25.42468],[81.63137,25.42491],[81.63104,25.42489],[81.63106,25.42522],[81.63133,25.42555],[81.63254,25.42509],[81.63328,25.42509],[81.63346,25.42469],[81.6342,25.42405],[81.63422,25.42381],[81.63402,25.42352],[81.63273,25.42305],[81.63209,25.4232],[81.63169,25.42432]]]}},{"type":"Feature","bbox":[81.62826,25.42994,81.63401,25.44295],"properties":{"ward":5,"name":"Naim Miya Ka Poora Paschimi"},"geometry":{"type":"Polygon","coordinates":[[[81.62915,25.43001],[81.62893,25.42994],[81.62885,25.43014],[81.62874,25.43339],[81.62855,25.43494],[81.62826,25.43541],[81.62888,25.43796],[81.62944,25.43904],[81.63192,25.44242],[81.63248,25.44282],[81.63385,25.44295],[81.63401,25.44267],[81.63357,25.44278],[81.6331,25.44268],[81.63236,25.44202],[81.63193,25.44192],[81.63127,25.44124],[81.62862,25.43639],[81.62926,25.43619],[81.62905,25.43571],[81.62955,25.43565],[81.62937,25.43129],[81.62915,25.43001]]]}},{"type":"Feature","bbox":[81.63039,25.42517,81.63325,25.42682],"properties":{"ward":6,"name":"Azadnagar"},"geometry":{"type":"Polygon","coordinates":[[[81.63108,25.42517],[81.63039,25.42527],[81.6304,25.42543],[81.63066,25.42543],[81.63096,25.42585],[81.63115,25.42616],[81.63085,25.42626],[81.63093,25.42653],[81.63117,25.42648],[81.6313,25.42682],[81.63171,25.4268],[81.63195,25.42647],[81.63236,25.42632],[81.63295,25.42625],[81.63324,25.42581],[81.63325,25.42546],[81.63308,25.42525],[81.6323,25.42518],[81.6312,25.42552],[81.63108,25.42517]]]}},{"type":"Feature","bbox":[81.62783,25.42329,81.63188,25.42522],"properties":{"ward":7,"name":"Hazratganj"},"geometry":{"type":"Polygon","coordinates":[[[81.63188,25.42329],[81.62987,25.42338],[81.62783,25.42375],[81.62792,25.425],[81.62843,25.42493],[81.62843,25.42386],[81.62886,25.42393],[81.629,25.42445],[81.62869,25.42459],[81.62881,25.42485],[81.62965,25.42466],[81.63013,25.42472],[81.63036,25.42522],[81.63098,25.42515],[81.63098,25.42486],[81.6313,25.42481],[81.63128,25.42452],[81.63159,25.42454],[81.63188,25.42329]]]}},{"type":"Feature","bbox":[81.62844,25.42642,81.63308,25.42792],"properties":{"ward":8,"name":"Ashoknagar"},"geometry":{"type":"Polygon","coordinates":[[[81.63156,25.42684],[81.62844,25.42702],[81.62917,25.42792],[81.62983,25.42778],[81.63065,25.42719],[81.63139,25.42721],[81.63161,25.4275],[81.63197,25.42763],[81.63308,25.42762],[81.63234,25.42674],[81.63248,25.4266],[81.63233,25.42642],[81.63192,25.42676],[81.63156,25.42684]]]}},{"type":"Feature","bbox":[81.62774,25.42391,81.63123,25.42692],"properties":{"ward":9,"name":"Krishnanagar"},"geometry":{"type":"Polygon","coordinates":[[[81.62845,25.42692],[81.63042,25.42672],[81.63123,25.42682],[81.63115,25.42653],[81.63088,25.42658],[81.63072,25.42621],[81.63102,25.42616],[81.63047,25.42547],[81.63016,25.42535],[81.63006,25.42482],[81.62882,25.42495],[81.62864,25.42457],[81.62891,25.42444],[81.62876,25.42428],[81.62884,25.42397],[81.62848,25.42391],[81.62849,25.4249],[81.6282,25.42516],[81.62774,25.42498],[81.62786,25.42573],[81.62845,25.42692]]]}},{"type":"Feature","bbox":[81.62316,25.42375,81.62914,25.42992],"properties":{"ward":10,"name":"Azmatganj"},"geometry":{"type":"Polygon","coordinates":[[[81.6278,25.42375],[81.62569,25.42437],[81.62484,25.42526],[81.62328,25.42604],[81.62316,25.42646],[81.62324,25.42703],[81.62436,25.4269],[81.62479,25.42749],[81.62565,25.42739],[81.62575,25.42789],[81.6256,25.42821],[81.62652,25.42845],[81.62812,25.42844],[81.62868,25.42868],[81.62886,25.42992],[81.62914,25.42983],[81.62904,25.42782],[81.62851,25.42723],[81.62783,25.42575],[81.62774,25.42499],[81.62792,25.42435],[81.6278,25.42375]]]}}]}