{"type":"FeatureCollection","features":[{"type":"Feature","bbox":[79.8304,25.98502,79.84816,25.99293],"properties":{"ward":1,"name":"Islamabad"},"geometry":{"type":"Polygon","coordinates":[[[79.84709,25.98502],[79.84497,25.98539],[79.84114,25.98719],[79.83818,25.98897],[79.83596,25.99008],[79.83356,25.99079],[79.83134,25.99116],[79.8304,25.99166],[79.83129,25.99282],[79.83345,25.99247],[79.83531,25.99242],[79.8388,25.99293],[79.84318,25.99137],[79.84451,25.99193],[79.84524,25.99278],[79.84664,25.99263],[79.8478,25.99202],[79.84816,25.99084],[79.84771,25.98748],[79.84709,25.98502]]]}},{"type":"Feature","bbox":[79.82964,25.97819,79.84268,25.98343],"properties":{"ward":2,"name":"Bamhauri"},"geometry":{"type":"Polygon","coordinates":[[[79.82964,25.97847],[79.8308,25.97883],[79.83302,25.98121],[79.83463,25.98252],[79.83516,25.98343],[79.83706,25.98257],[79.83677,25.98199],[79.83707,25.98183],[79.84268,25.97956],[79.84239,25.97896],[79.83986,25.97956],[79.83723,25.97925],[79.83365,25.97842],[79.83175,25.97819],[79.82964,25.97847]]]}},{"type":"Feature","bbox":[79.83707,25.97961,79.84389,25.98567],"properties":{"ward":3,"name":"Purva"},"geometry":{"type":"Polygon","coordinates":[[[79.84088,25.98484],[79.841,25.98367],[79.84152,25.98275],[79.84389,25.98083],[79.84297,25.97999],[79.84277,25.97961],[79.83707,25.98188],[79.83791,25.98359],[79.83894,25.98358],[79.83909,25.98519],[79.83931,25.98549],[79.83958,25.98567],[79.83996,25.98519],[79.84088,25.98484]]]}},{"type":"Feature","bbox":[79.83825,25.98482,79.84162,25.98715],"properties":{"ward":4,"name":"Ambedkar Nagar"},"geometry":{"type":"Polygon","coordinates":[[[79.83825,25.98524],[79.83917,25.98704],[79.84007,25.9864],[79.84111,25.98715],[79.84162,25.98687],[79.8409,25.98487],[79.83998,25.98521],[79.83961,25.98571],[79.83906,25.98522],[79.83899,25.98482],[79.83825,25.98524]]]}},{"type":"Feature","bbox":[79.84091,25.98087,79.84707,25.98688],"properties":{"ward":5,"name":"Siddharth Nagar"},"geometry":{"type":"Polygon","coordinates":[[[79.84707,25.98498],[79.84396,25.98087],[79.84156,25.9828],[79.84107,25.98367],[79.84091,25.9847],[79.84165,25.98688],[79.84496,25.98535],[79.84707,25.98498]]]}},{"type":"Feature","bbox":[79.82823,25.97849,79.83805,25.98758],"properties":{"ward":6,"name":"Kaltra Astbal"},"geometry":{"type":"Polygon","coordinates":[[[79.82955,25.97849],[79.82823,25.98674],[79.83109,25.98616],[79.83122,25.98641],[79.83217,25.9863],[79.83278,25.98737],[79.83345,25.98758],[79.83414,25.98731],[79.83427,25.98706],[79.835,25.98659],[79.83586,25.98623],[79.83628,25.98613],[79.83651,25.98641],[79.83678,25.98622],[79.8367,25.98575],[79.83735,25.98566],[79.83805,25.98533],[79.83729,25.9844],[79.83725,25.98483],[79.83703,25.98507],[79.83666,25.98523],[79.83634,25.98515],[79.83574,25.9841],[79.83542,25.98392],[79.83528,25.98413],[79.83446,25.98451],[79.83465,25.98285],[79.83455,25.98257],[79.83304,25.98135],[79.83077,25.97889],[79.82955,25.97849]]]}},{"type":"Feature","bbox":[79.83451,25.98278,79.83725,25.98505],"properties":{"ward":7,"name":"Bazar"},"geometry":{"type":"Polygon","coordinates":[[[79.83451,25.98442],[79.83523,25.98407],[79.83539,25.98381],[79.83581,25.98404],[79.8364,25.98505],[79.83698,25.98504],[79.83725,25.98445],[79.83719,25.98382],[79.83676,25.98278],[79.83519,25.98348],[79.83472,25.98287],[79.83451,25.98442]]]}},{"type":"Feature","bbox":[79.83133,25.98643,79.8411,25.9911],"properties":{"ward":8,"name":"Vyaspura"},"geometry":{"type":"Polygon","coordinates":[[[79.83763,25.98725],[79.83791,25.98783],[79.83751,25.98802],[79.83734,25.98778],[79.83351,25.98966],[79.83153,25.99036],[79.83133,25.9911],[79.83357,25.99075],[79.83572,25.99014],[79.83817,25.98894],[79.8411,25.98717],[79.84007,25.98643],[79.83918,25.9871],[79.8391,25.98693],[79.83842,25.98722],[79.83763,25.98725]]]}},{"type":"Feature","bbox":[79.8368,25.98188,79.83899,25.98532],"properties":{"ward":9,"name":"Chilpura Farraskhana"},"geometry":{"type":"Polygon","coordinates":[[[79.8368,25.98273],[79.83726,25.98432],[79.8381,25.98532],[79.83899,25.9848],[79.83891,25.98362],[79.83789,25.98364],[79.83704,25.98188],[79.83681,25.982],[79.8371,25.98257],[79.8368,25.98273]]]}},{"type":"Feature","bbox":[79.83419,25.98568,79.83786,25.98881],"properties":{"ward":10,"name":"Purana Bazar"},"geometry":{"type":"Polygon","coordinates":[[[79.83786,25.98782],[79.83695,25.98568],[79.83674,25.98576],[79.83682,25.98626],[79.83649,25.98647],[79.83627,25.98618],[79.83585,25.98627],[79.83504,25.9866],[79.83428,25.98709],[79.83419,25.98731],[79.83526,25.98881],[79.83736,25.98774],[79.83751,25.98796],[79.83786,25.98782]]]}},{"type":"Feature","bbox":[79.83699,25.98526,79.83908,25.98723],"properties":{"ward":11,"name":"Haveli"},"geometry":{"type":"Polygon","coordinates":[[[79.83824,25.98526],[79.83745,25.98566],[79.83699,25.98568],[79.83759,25.98723],[79.83788,25.98711],[79.83842,25.98719],[79.83908,25.9869],[79.83824,25.98526]]]}},{"type":"Feature","bbox":[79.82827,25.9862,79.83521,25.99157],"properties":{"ward":12,"name":"Islamabad Pashchimi"},"geometry":{"type":"Polygon","coordinates":[[[79.82827,25.9877],[79.83037,25.99157],[79.83128,25.99109],[79.83151,25.99034],[79.83521,25.98883],[79.83417,25.98735],[79.83344,25.98763],[79.83275,25.9874],[79.83217,25.98636],[79.83118,25.98648],[79.83106,25.9862],[79.82827,25.98679],[79.82827,25.9877]]]}}]}