{"type":"FeatureCollection","features":[{"type":"Feature","bbox":[81.38838,25.78465,81.40782,25.80534],"properties":{"ward":1,"name":"Chaurahi"},"geometry":{"type":"Polygon","coordinates":[[[81.39999,25.78645],[81.39179,25.78496],[81.38849,25.78465],[81.38838,25.78613],[81.38872,25.78864],[81.39019,25.79233],[81.39043,25.79534],[81.39134,25.79675],[81.39099,25.79917],[81.39061,25.80059],[81.38889,25.8043],[81.38919,25.80454],[81.3909,25.80534],[81.39109,25.80528],[81.39557,25.80243],[81.40039,25.80155],[81.40381,25.79993],[81.40702,25.79876],[81.40736,25.79847],[81.40782,25.79485],[81.39999,25.78645]]]}},{"type":"Feature","bbox":[81.4,25.78173,81.41431,25.79481],"properties":{"ward":2,"name":"Bajahabheet"},"geometry":{"type":"Polygon","coordinates":[[[81.40439,25.78257],[81.4,25.78639],[81.40791,25.79481],[81.40891,25.79354],[81.41048,25.7935],[81.4122,25.79303],[81.41287,25.79235],[81.41431,25.79032],[81.40882,25.78173],[81.40439,25.78257]]]}},{"type":"Feature","bbox":[81.403,25.7761,81.42373,25.79031],"properties":{"ward":3,"name":"Bhola Ka Purwa"},"geometry":{"type":"Polygon","coordinates":[[[81.42373,25.78239],[81.4142,25.77958],[81.41061,25.78122],[81.41033,25.78102],[81.40992,25.77992],[81.40745,25.7761],[81.403,25.77665],[81.40437,25.7825],[81.40882,25.78167],[81.40931,25.78224],[81.41435,25.79031],[81.41575,25.78801],[81.42143,25.78463],[81.42373,25.78239]]]}},{"type":"Feature","bbox":[81.40737,25.77281,81.41411,25.78114],"properties":{"ward":4,"name":"Mirgadwa"},"geometry":{"type":"Polygon","coordinates":[[[81.40737,25.77593],[81.40937,25.77911],[81.41005,25.77993],[81.41009,25.78034],[81.41048,25.78105],[81.41068,25.78114],[81.41411,25.77946],[81.41403,25.77755],[81.41266,25.77788],[81.41209,25.77779],[81.4096,25.77319],[81.40952,25.77281],[81.40847,25.77371],[81.40762,25.7733],[81.4075,25.7734],[81.40737,25.77593]]]}},{"type":"Feature","bbox":[81.4135,25.75957,81.4245,25.77509],"properties":{"ward":5,"name":"Adalpur"},"geometry":{"type":"Polygon","coordinates":[[[81.4198,25.75957],[81.4135,25.76332],[81.41464,25.76433],[81.41567,25.76597],[81.41735,25.76751],[81.41482,25.76883],[81.4154,25.7702],[81.41693,25.77292],[81.41725,25.77414],[81.41947,25.77509],[81.4245,25.77446],[81.42336,25.76991],[81.42072,25.76091],[81.4198,25.75957]]]}},{"type":"Feature","bbox":[81.41409,25.76867,81.44133,25.78267],"properties":{"ward":6,"name":"Hulaas Rai Ka Purwa"},"geometry":{"type":"Polygon","coordinates":[[[81.41645,25.77403],[81.41753,25.77667],[81.41409,25.77749],[81.4142,25.7795],[81.42383,25.78236],[81.42636,25.78098],[81.42748,25.78204],[81.42953,25.78267],[81.42981,25.78262],[81.42992,25.78242],[81.43022,25.78122],[81.42949,25.78082],[81.42935,25.78054],[81.42962,25.77978],[81.43182,25.77933],[81.43194,25.77902],[81.43143,25.77802],[81.43164,25.77779],[81.4326,25.77727],[81.43338,25.77758],[81.43479,25.77736],[81.43531,25.77765],[81.43596,25.77758],[81.43647,25.77781],[81.43741,25.7774],[81.43802,25.77774],[81.43827,25.77765],[81.43834,25.77734],[81.43748,25.77681],[81.43741,25.77631],[81.43707,25.77576],[81.44126,25.77316],[81.44133,25.77264],[81.44115,25.77082],[81.4408,25.7695],[81.44037,25.76867],[81.42991,25.77172],[81.42471,25.77446],[81.41949,25.77517],[81.41724,25.77418],[81.41645,25.77403]]]}},{"type":"Feature","bbox":[81.41979,25.75376,81.44039,25.77442],"properties":{"ward":7,"name":"Lattara"},"geometry":{"type":"Polygon","coordinates":[[[81.42919,25.75389],[81.41979,25.75944],[81.42098,25.76118],[81.42461,25.77442],[81.42941,25.77184],[81.44039,25.76863],[81.43944,25.76544],[81.43724,25.76431],[81.43631,25.76429],[81.43449,25.76358],[81.43396,25.76237],[81.43407,25.762],[81.43476,25.76126],[81.43614,25.76013],[81.43632,25.75914],[81.43614,25.7588],[81.4356,25.75838],[81.43498,25.75811],[81.43355,25.7579],[81.43383,25.75681],[81.43726,25.75538],[81.43751,25.75519],[81.43738,25.75495],[81.43702,25.75476],[81.43521,25.75482],[81.43218,25.75548],[81.43172,25.75439],[81.43117,25.75376],[81.42919,25.75389]]]}},{"type":"Feature","bbox":[81.41148,25.76334,81.41724,25.76987],"properties":{"ward":8,"name":"Ranapatti"},"geometry":{"type":"Polygon","coordinates":[[[81.41255,25.76732],[81.41148,25.76751],[81.41182,25.76941],[81.41206,25.76979],[81.41245,25.76987],[81.41267,25.76987],[81.41724,25.7675],[81.41562,25.76604],[81.41455,25.76435],[81.41344,25.76334],[81.41214,25.76407],[81.41231,25.7661],[81.41263,25.76675],[81.41255,25.76732]]]}},{"type":"Feature","bbox":[81.40749,25.75218,81.43116,25.76405],"properties":{"ward":9,"name":"Babhanpur"},"geometry":{"type":"Polygon","coordinates":[[[81.41418,25.75319],[81.40749,25.75748],[81.40872,25.76045],[81.4085,25.76167],[81.4112,25.76361],[81.41206,25.76405],[81.42919,25.75383],[81.43116,25.75374],[81.43087,25.75305],[81.43023,25.75226],[81.42989,25.75218],[81.42599,25.7524],[81.4219,25.75324],[81.4191,25.75404],[81.41797,25.75305],[81.41533,25.75325],[81.41418,25.75319]]]}},{"type":"Feature","bbox":[81.40049,25.73891,81.41439,25.75745],"properties":{"ward":10,"name":"Chaukaparpur"},"geometry":{"type":"Polygon","coordinates":[[[81.40049,25.73967],[81.4026,25.74573],[81.4026,25.74695],[81.40293,25.74863],[81.40362,25.75551],[81.40747,25.75745],[81.4143,25.75303],[81.41439,25.75267],[81.41146,25.74185],[81.41139,25.74123],[81.41163,25.74001],[81.41079,25.73916],[81.40974,25.73891],[81.40723,25.73895],[81.40356,25.73934],[81.40216,25.73969],[81.40091,25.73934],[81.40049,25.73967]]]}},{"type":"Feature","bbox":[81.40212,25.75569,81.40869,25.76415],"properties":{"ward":11,"name":"Manihari Tola"},"geometry":{"type":"Polygon","coordinates":[[[81.40357,25.75945],[81.40212,25.7633],[81.40359,25.7637],[81.40524,25.76308],[81.40598,25.76298],[81.4064,25.76319],[81.40703,25.76396],[81.40765,25.76415],[81.40869,25.76057],[81.4073,25.75748],[81.40365,25.75569],[81.40357,25.75945]]]}},{"type":"Feature","bbox":[81.40356,25.76303,81.40969,25.77077],"properties":{"ward":12,"name":"Khankah"},"geometry":{"type":"Polygon","coordinates":[[[81.40791,25.77077],[81.40969,25.77069],[81.40933,25.76913],[81.40896,25.76828],[81.40923,25.76737],[81.4076,25.76487],[81.40762,25.76426],[81.40698,25.76396],[81.40637,25.76322],[81.40599,25.76303],[81.4053,25.76309],[81.40356,25.76374],[81.40514,25.76591],[81.40522,25.76672],[81.40505,25.76747],[81.40791,25.77077]]]}},{"type":"Feature","bbox":[81.40755,25.76175,81.41257,25.76747],"properties":{"ward":13,"name":"Kachhi Patti"},"geometry":{"type":"Polygon","coordinates":[[[81.40755,25.7645],[81.40938,25.76747],[81.41121,25.76745],[81.4125,25.76723],[81.41257,25.76674],[81.41226,25.76613],[81.41205,25.76412],[81.4085,25.76175],[81.40755,25.7645]]]}},{"type":"Feature","bbox":[81.41079,25.76893,81.41715,25.77412],"properties":{"ward":14,"name":"Sultanpur"},"geometry":{"type":"Polygon","coordinates":[[[81.4147,25.76893],[81.41262,25.76995],[81.41215,25.76992],[81.41107,25.77113],[81.41086,25.77172],[81.41079,25.77262],[81.41097,25.77293],[81.41236,25.77343],[81.41568,25.77323],[81.41594,25.77351],[81.41639,25.77365],[81.41648,25.77398],[81.41715,25.77412],[81.417,25.77333],[81.4147,25.76893]]]}},{"type":"Feature","bbox":[81.40902,25.76743,81.41747,25.77778],"properties":{"ward":15,"name":"Maa Jwaladevi"},"geometry":{"type":"Polygon","coordinates":[[[81.40928,25.7675],[81.40902,25.76825],[81.40976,25.7706],[81.40965,25.77154],[81.41003,25.77217],[81.40954,25.77265],[81.4096,25.77295],[81.41215,25.77775],[81.41269,25.77778],[81.41747,25.77665],[81.41631,25.77366],[81.41579,25.77357],[81.41559,25.77329],[81.41418,25.77328],[81.41257,25.77357],[81.41091,25.77295],[81.41072,25.77264],[81.41101,25.77116],[81.41207,25.77],[81.41155,25.7686],[81.41143,25.76743],[81.40928,25.7675]]]}},{"type":"Feature","bbox":[81.40055,25.76339,81.40999,25.77661],"properties":{"ward":16,"name":"Manikpur"},"geometry":{"type":"Polygon","coordinates":[[[81.40055,25.76655],[81.40179,25.76932],[81.40347,25.77001],[81.40268,25.77174],[81.40197,25.77283],[81.4028,25.77661],[81.40729,25.77607],[81.40741,25.77535],[81.40734,25.77367],[81.40757,25.77322],[81.40843,25.77366],[81.40999,25.77216],[81.4096,25.77156],[81.40964,25.77075],[81.40796,25.77088],[81.40499,25.76749],[81.40516,25.76657],[81.40508,25.76589],[81.40354,25.76376],[81.40228,25.76339],[81.40192,25.76343],[81.40141,25.76495],[81.40055,25.76655]]]}},{"type":"Feature","bbox":[81.3835,25.76654,81.4043,25.78636],"properties":{"ward":17,"name":"Shahabad"},"geometry":{"type":"Polygon","coordinates":[[[81.38838,25.78395],[81.38847,25.7846],[81.39215,25.78497],[81.39995,25.78636],[81.4043,25.78257],[81.40308,25.77724],[81.4027,25.77645],[81.40192,25.77283],[81.40267,25.77168],[81.40342,25.77003],[81.40177,25.76935],[81.40048,25.76654],[81.39979,25.76776],[81.3982,25.76951],[81.39688,25.77069],[81.39496,25.77195],[81.3929,25.77295],[81.38882,25.77401],[81.38735,25.774],[81.3835,25.77509],[81.38534,25.77794],[81.38639,25.77918],[81.38705,25.78041],[81.38838,25.78395]]]}}]}