{"type":"FeatureCollection","features":[{"type":"Feature","bbox":[80.82592,25.90139,80.87133,25.95152],"properties":{"ward":1,"name":"Ajgawan"},"geometry":{"type":"Polygon","coordinates":[[[80.85811,25.94862],[80.85956,25.94803],[80.8677,25.94308],[80.86799,25.94302],[80.86822,25.94331],[80.86822,25.94371],[80.86797,25.94387],[80.86794,25.94412],[80.86823,25.94447],[80.86855,25.94444],[80.86912,25.94401],[80.86958,25.94324],[80.86903,25.94258],[80.86835,25.94224],[80.86835,25.9418],[80.86899,25.94149],[80.87129,25.94098],[80.87133,25.93974],[80.87119,25.93911],[80.86779,25.933],[80.86781,25.93258],[80.86761,25.93242],[80.8668,25.93261],[80.86676,25.93219],[80.8671,25.93111],[80.8667,25.93066],[80.86207,25.92902],[80.86029,25.92792],[80.85897,25.92657],[80.85787,25.92464],[80.85428,25.92395],[80.85492,25.9216],[80.85477,25.92033],[80.85264,25.91537],[80.84919,25.908],[80.84647,25.90293],[80.84654,25.90139],[80.82804,25.91937],[80.82592,25.9216],[80.82834,25.92358],[80.83283,25.93328],[80.83143,25.93849],[80.82839,25.93926],[80.84966,25.95152],[80.85135,25.95061],[80.85353,25.95016],[80.85721,25.94835],[80.85755,25.94834],[80.85777,25.94858],[80.85811,25.94862]]]}},{"type":"Feature","bbox":[80.80174,25.92957,80.81048,25.94014],"properties":{"ward":2,"name":"Awas Vikas"},"geometry":{"type":"Polygon","coordinates":[[[80.80916,25.93788],[80.81048,25.93473],[80.8088,25.93292],[80.8071,25.92993],[80.80663,25.92957],[80.80382,25.92975],[80.80174,25.93039],[80.80322,25.93377],[80.80519,25.9395],[80.80511,25.93997],[80.80521,25.94014],[80.80916,25.93788]]]}},{"type":"Feature","bbox":[80.79291,25.89814,80.80055,25.91019],"properties":{"ward":3,"name":"Bakspur"},"geometry":{"type":"Polygon","coordinates":[[[80.79593,25.89814],[80.79291,25.89957],[80.79402,25.90413],[80.79406,25.91019],[80.79776,25.90836],[80.79814,25.90868],[80.79847,25.9085],[80.7992,25.90676],[80.79958,25.90658],[80.79925,25.90603],[80.79947,25.90572],[80.79929,25.90514],[80.80054,25.90361],[80.80055,25.90338],[80.79932,25.90315],[80.79858,25.90283],[80.79795,25.90209],[80.79593,25.89814]]]}},{"type":"Feature","bbox":[80.76871,25.89759,80.80097,25.92035],"properties":{"ward":4,"name":"Khambhapur"},"geometry":{"type":"Polygon","coordinates":[[[80.79777,25.90833],[80.79406,25.91019],[80.79396,25.90393],[80.79234,25.90208],[80.79095,25.90079],[80.78923,25.89986],[80.78707,25.89929],[80.77797,25.89765],[80.76915,25.89759],[80.76871,25.90133],[80.77062,25.90422],[80.77123,25.90473],[80.77151,25.90613],[80.77254,25.9078],[80.77336,25.90996],[80.77462,25.91207],[80.77426,25.9125],[80.77344,25.91287],[80.77331,25.91317],[80.77338,25.91371],[80.77368,25.9139],[80.77435,25.91555],[80.77427,25.91603],[80.77458,25.91643],[80.77491,25.9175],[80.77577,25.91863],[80.77611,25.91887],[80.77699,25.91873],[80.77747,25.91896],[80.77833,25.91845],[80.77891,25.92035],[80.79115,25.91787],[80.79432,25.91772],[80.7963,25.91682],[80.79686,25.91695],[80.79821,25.91861],[80.80097,25.91707],[80.80075,25.91644],[80.79818,25.91415],[80.80001,25.91052],[80.79777,25.90833]]]}},{"type":"Feature","bbox":[80.81177,25.91789,80.82407,25.92342],"properties":{"ward":5,"name":"Gadiva"},"geometry":{"type":"Polygon","coordinates":[[[80.82407,25.92011],[80.82132,25.91789],[80.81271,25.92076],[80.81177,25.92155],[80.81284,25.92228],[80.81423,25.92268],[80.81525,25.92342],[80.81595,25.92292],[80.81683,25.92274],[80.81793,25.92267],[80.81825,25.92314],[80.82,25.9222],[80.82178,25.92177],[80.82407,25.92011]]]}},{"type":"Feature","bbox":[80.79039,25.88073,80.81426,25.89951],"properties":{"ward":6,"name":"Andauli"},"geometry":{"type":"Polygon","coordinates":[[[80.79296,25.89951],[80.79911,25.89656],[80.80011,25.89578],[80.80362,25.89147],[80.80974,25.89395],[80.81222,25.89198],[80.81426,25.89102],[80.81313,25.88925],[80.81426,25.88717],[80.81407,25.88167],[80.81334,25.88073],[80.8084,25.88386],[80.80686,25.88456],[80.8064,25.88457],[80.80595,25.88324],[80.80478,25.88218],[80.8044,25.88214],[80.80332,25.88284],[80.8028,25.88284],[80.80162,25.88334],[80.79981,25.88557],[80.79999,25.88654],[80.79965,25.8871],[80.79864,25.88739],[80.79692,25.88729],[80.79663,25.88693],[80.79558,25.88643],[80.79531,25.88597],[80.79417,25.88571],[80.79293,25.88593],[80.79216,25.88641],[80.79039,25.88705],[80.79109,25.89144],[80.79296,25.89951]]]}},{"type":"Feature","bbox":[80.79947,25.912,80.81165,25.92081],"properties":{"ward":7,"name":"Hariharganj"},"geometry":{"type":"Polygon","coordinates":[[[80.81119,25.912],[80.80097,25.91707],[80.80126,25.91758],[80.79947,25.92081],[80.79998,25.92077],[80.80166,25.92009],[80.80384,25.91885],[80.80428,25.91923],[80.80526,25.91864],[80.805,25.91825],[80.8069,25.91722],[80.8066,25.91693],[80.81114,25.91466],[80.81127,25.91419],[80.81161,25.91418],[80.81165,25.91366],[80.81119,25.912]]]}},{"type":"Feature","bbox":[80.79593,25.87142,80.84031,25.91521],"properties":{"ward":8,"name":"Jhaupur"},"geometry":{"type":"Polygon","coordinates":[[[80.79847,25.9085],[80.79814,25.90868],[80.80477,25.91521],[80.82707,25.90388],[80.83966,25.89711],[80.83949,25.89672],[80.8401,25.89585],[80.84031,25.89442],[80.8397,25.89368],[80.8383,25.89308],[80.83776,25.89246],[80.83668,25.8918],[80.83589,25.89097],[80.83492,25.88936],[80.83375,25.88873],[80.83361,25.88722],[80.8256,25.87142],[80.81254,25.87854],[80.81334,25.88073],[80.81407,25.88167],[80.81426,25.88717],[80.81313,25.88925],[80.81426,25.89102],[80.81222,25.89198],[80.80974,25.89395],[80.80362,25.89147],[80.80011,25.89578],[80.79911,25.89656],[80.79593,25.89814],[80.79795,25.90209],[80.79841,25.90263],[80.79932,25.90315],[80.80055,25.90338],[80.80032,25.90398],[80.79929,25.90514],[80.79947,25.90572],[80.79925,25.90603],[80.79958,25.90658],[80.7992,25.90676],[80.79847,25.9085]]]}},{"type":"Feature","bbox":[80.81223,25.93564,80.84966,25.9662],"properties":{"ward":9,"name":"Ramganj Pakka Talab"},"geometry":{"type":"Polygon","coordinates":[[[80.84966,25.95152],[80.82192,25.93564],[80.82065,25.9362],[80.82105,25.93687],[80.82095,25.93724],[80.82034,25.93786],[80.82037,25.93814],[80.82074,25.93859],[80.8189,25.93975],[80.81807,25.93963],[80.81678,25.94001],[80.81675,25.94103],[80.81646,25.94135],[80.81726,25.94305],[80.81758,25.94491],[80.8175,25.94535],[80.81914,25.94889],[80.81223,25.95037],[80.81339,25.95451],[80.81284,25.95474],[80.81322,25.95525],[80.81502,25.95602],[80.8154,25.95719],[80.81542,25.95829],[80.81505,25.9587],[80.81415,25.9592],[80.81437,25.95984],[80.81425,25.96006],[80.8146,25.96091],[80.81507,25.96121],[80.81573,25.96236],[80.81613,25.96256],[80.81538,25.96321],[80.81525,25.96356],[80.81618,25.9662],[80.81922,25.96505],[80.8205,25.96344],[80.82121,25.96305],[80.82147,25.9637],[80.82174,25.96388],[80.82348,25.96288],[80.82401,25.96295],[80.82464,25.96417],[80.82536,25.96424],[80.82612,25.96516],[80.82668,25.96544],[80.82806,25.96516],[80.82887,25.96587],[80.83067,25.96608],[80.83151,25.96549],[80.83226,25.96536],[80.83254,25.96493],[80.83231,25.96332],[80.83142,25.96288],[80.83085,25.96245],[80.83082,25.96218],[80.8337,25.96003],[80.83558,25.95919],[80.83681,25.95844],[80.83718,25.95779],[80.83816,25.95804],[80.8391,25.95783],[80.84068,25.95702],[80.84386,25.95597],[80.84661,25.95461],[80.84966,25.95152]]]}},{"type":"Feature","bbox":[80.81716,25.92563,80.82155,25.92838],"properties":{"ward":10,"name":"Arabpur"},"geometry":{"type":"Polygon","coordinates":[[[80.81884,25.92563],[80.81791,25.92657],[80.81746,25.92674],[80.8174,25.92737],[80.81716,25.92758],[80.81737,25.92838],[80.82021,25.92819],[80.82155,25.92784],[80.82109,25.92706],[80.82025,25.92637],[80.81884,25.92563]]]}},{"type":"Feature","bbox":[80.79418,25.92144,80.79821,25.92905],"properties":{"ward":11,"name":"Nasirpur"},"geometry":{"type":"Polygon","coordinates":[[[80.79418,25.92224],[80.7952,25.92471],[80.79529,25.92525],[80.79531,25.92624],[80.79482,25.92905],[80.79821,25.92791],[80.7975,25.92656],[80.7976,25.92534],[80.79807,25.92421],[80.79714,25.92144],[80.79418,25.92224]]]}},{"type":"Feature","bbox":[80.77355,25.88705,80.79396,25.90393],"properties":{"ward":12,"name":"Radhanagar"},"geometry":{"type":"Polygon","coordinates":[[[80.7736,25.89574],[80.77355,25.89602],[80.7747,25.89676],[80.77495,25.89715],[80.7749,25.89754],[80.77797,25.89765],[80.78707,25.89929],[80.78923,25.89986],[80.79095,25.90079],[80.79234,25.90208],[80.79396,25.90393],[80.79109,25.89144],[80.79039,25.88705],[80.79004,25.88846],[80.78882,25.88903],[80.7884,25.88966],[80.78545,25.8909],[80.78529,25.89066],[80.78458,25.89074],[80.7843,25.89093],[80.78415,25.89128],[80.78363,25.89147],[80.78206,25.89124],[80.77695,25.89448],[80.77666,25.89449],[80.77607,25.89415],[80.7736,25.89574]]]}},{"type":"Feature","bbox":[80.79279,25.93695,80.81914,25.97135],"properties":{"ward":13,"name":"Redaiya"},"geometry":{"type":"Polygon","coordinates":[[[80.8158,25.96511],[80.81525,25.96356],[80.81538,25.96321],[80.81613,25.96256],[80.81573,25.96236],[80.81507,25.96121],[80.8146,25.96091],[80.81425,25.96006],[80.81437,25.95984],[80.81415,25.9592],[80.81542,25.95829],[80.8154,25.95719],[80.81502,25.95602],[80.81322,25.95525],[80.81284,25.95474],[80.81339,25.95451],[80.81223,25.95037],[80.81914,25.94889],[80.8175,25.94535],[80.81758,25.94491],[80.81726,25.94305],[80.81646,25.94135],[80.81675,25.94103],[80.81678,25.94001],[80.81621,25.93997],[80.81565,25.93902],[80.81516,25.93875],[80.81488,25.93939],[80.81362,25.94012],[80.8129,25.9391],[80.81254,25.93927],[80.81193,25.93834],[80.81235,25.93809],[80.81117,25.93695],[80.81038,25.93709],[80.80493,25.94039],[80.79564,25.95667],[80.79279,25.9596],[80.79399,25.96207],[80.7939,25.96325],[80.79603,25.96713],[80.798,25.97031],[80.80017,25.96981],[80.80124,25.97116],[80.80341,25.97135],[80.80397,25.9712],[80.80424,25.97071],[80.80439,25.96965],[80.80708,25.96815],[80.80794,25.9674],[80.80866,25.96821],[80.8112,25.96753],[80.81256,25.96749],[80.81244,25.96689],[80.81318,25.9666],[80.81304,25.96631],[80.8158,25.96511]]]}},{"type":"Feature","bbox":[80.78475,25.93039,80.80521,25.95672],"properties":{"ward":14,"name":"Aboonagar"},"geometry":{"type":"Polygon","coordinates":[[[80.79558,25.95672],[80.80493,25.94039],[80.80521,25.94014],[80.80511,25.93997],[80.80519,25.9395],[80.80322,25.93377],[80.80174,25.93039],[80.79726,25.93186],[80.78475,25.93427],[80.78972,25.93924],[80.7909,25.94216],[80.78968,25.94317],[80.79222,25.94695],[80.79692,25.94388],[80.79623,25.94877],[80.7947,25.95352],[80.79479,25.95426],[80.79558,25.95672]]]}},{"type":"Feature","bbox":[80.81817,25.9286,80.83283,25.93926],"properties":{"ward":15,"name":"Maswani"},"geometry":{"type":"Polygon","coordinates":[[[80.82283,25.93111],[80.82137,25.93117],[80.82019,25.93057],[80.81994,25.93174],[80.81968,25.93225],[80.81817,25.93286],[80.8196,25.93489],[80.82022,25.93524],[80.82192,25.93564],[80.82839,25.93926],[80.83143,25.93849],[80.83283,25.93328],[80.83062,25.9286],[80.82849,25.92927],[80.82754,25.92897],[80.82283,25.93111]]]}},{"type":"Feature","bbox":[80.78082,25.9211,80.79531,25.93461],"properties":{"ward":16,"name":"Asti"},"geometry":{"type":"Polygon","coordinates":[[[80.7944,25.93239],[80.79531,25.92624],[80.79529,25.92525],[80.7952,25.92471],[80.79418,25.92224],[80.79353,25.9211],[80.78959,25.92329],[80.78532,25.92608],[80.78291,25.92791],[80.78082,25.92975],[80.7818,25.93315],[80.78222,25.93408],[80.78286,25.93461],[80.7944,25.93239]]]}},{"type":"Feature","bbox":[80.81916,25.9216,80.82956,25.9282],"properties":{"ward":17,"name":"Jwalaganj"},"geometry":{"type":"Polygon","coordinates":[[[80.82239,25.92751],[80.82681,25.92599],[80.82711,25.92664],[80.82766,25.92702],[80.82956,25.92638],[80.82834,25.92358],[80.82592,25.9216],[80.82393,25.92369],[80.82297,25.92443],[80.82249,25.92454],[80.82242,25.92424],[80.82083,25.92439],[80.81916,25.92579],[80.82025,25.92637],[80.82109,25.92706],[80.82175,25.9282],[80.82239,25.92751]]]}},{"type":"Feature","bbox":[80.81117,25.93286,80.82192,25.94012],"properties":{"ward":18,"name":"Bakarganj"},"geometry":{"type":"Polygon","coordinates":[[[80.81565,25.93902],[80.81634,25.94003],[80.81807,25.93963],[80.8189,25.93975],[80.82074,25.93859],[80.82037,25.93814],[80.82034,25.93786],[80.82095,25.93724],[80.82105,25.93687],[80.82065,25.9362],[80.82192,25.93564],[80.82018,25.93522],[80.8196,25.93489],[80.81817,25.93286],[80.81753,25.93287],[80.8165,25.93316],[80.81546,25.93425],[80.81286,25.93561],[80.81159,25.93682],[80.81117,25.93695],[80.81235,25.93809],[80.81193,25.93834],[80.81254,25.93927],[80.8129,25.9391],[80.81362,25.94012],[80.81488,25.93939],[80.81516,25.93875],[80.81565,25.93902]]]}},{"type":"Feature","bbox":[80.80151,25.92261,80.81125,25.92957],"properties":{"ward":19,"name":"Muraintola"},"geometry":{"type":"Polygon","coordinates":[[[80.80929,25.92479],[80.80846,25.92261],[80.80151,25.92471],[80.80244,25.92534],[80.80351,25.92702],[80.80502,25.92881],[80.80663,25.92957],[80.80925,25.92933],[80.81125,25.92873],[80.81018,25.92612],[80.80929,25.92479]]]}},{"type":"Feature","bbox":[80.80801,25.92838,80.8177,25.93473],"properties":{"ward":20,"name":"Saiyyadwada"},"geometry":{"type":"Polygon","coordinates":[[[80.8177,25.93145],[80.81737,25.92838],[80.81552,25.92856],[80.8157,25.93037],[80.81428,25.93045],[80.81349,25.93027],[80.81337,25.92955],[80.81276,25.9292],[80.81021,25.93019],[80.80801,25.9315],[80.8088,25.93292],[80.81048,25.93473],[80.81184,25.9347],[80.81307,25.93365],[80.8138,25.93325],[80.81417,25.93258],[80.81751,25.93166],[80.8177,25.93145]]]}},{"type":"Feature","bbox":[80.78655,25.91682,80.80126,25.92438],"properties":{"ward":21,"name":"Shadipur"},"geometry":{"type":"Polygon","coordinates":[[[80.78698,25.91874],[80.78655,25.92139],[80.78789,25.92438],[80.79353,25.9211],[80.79418,25.92224],[80.79947,25.92081],[80.80126,25.91758],[80.80097,25.91707],[80.79821,25.91861],[80.79686,25.91695],[80.7963,25.91682],[80.79432,25.91772],[80.79115,25.91787],[80.78877,25.91828],[80.78698,25.91874]]]}},{"type":"Feature","bbox":[80.81316,25.89672,80.84654,25.9216],"properties":{"ward":22,"name":"Isainpurwa"},"geometry":{"type":"Polygon","coordinates":[[[80.84327,25.8992],[80.8417,25.89841],[80.84087,25.89763],[80.83994,25.89724],[80.83949,25.89672],[80.83966,25.89711],[80.82707,25.90388],[80.81316,25.91103],[80.81698,25.91925],[80.82132,25.91789],[80.82592,25.9216],[80.82804,25.91937],[80.84654,25.90139],[80.84645,25.90032],[80.84613,25.8997],[80.84327,25.8992]]]}},{"type":"Feature","bbox":[80.79816,25.91052,80.80477,25.91707],"properties":{"ward":23,"name":"Deviganj"},"geometry":{"type":"Polygon","coordinates":[[[80.80075,25.91644],[80.80097,25.91707],[80.80477,25.91521],[80.80001,25.91052],[80.79816,25.91407],[80.79862,25.91465],[80.80075,25.91644]]]}},{"type":"Feature","bbox":[80.79947,25.91885,80.8145,25.92664],"properties":{"ward":24,"name":"Amarjai"},"geometry":{"type":"Polygon","coordinates":[[[80.80672,25.92153],[80.80384,25.91885],[80.80166,25.92009],[80.79998,25.92077],[80.79947,25.92081],[80.80151,25.92471],[80.80846,25.92261],[80.80929,25.92479],[80.81037,25.92664],[80.81149,25.92628],[80.81309,25.92613],[80.8143,25.92558],[80.8142,25.92505],[80.8145,25.92483],[80.81382,25.92421],[80.81284,25.92228],[80.81177,25.92155],[80.8085,25.92253],[80.80672,25.92153]]]}},{"type":"Feature","bbox":[80.81028,25.92613,80.81543,25.92882],"properties":{"ward":25,"name":"Chaudhrana"},"geometry":{"type":"Polygon","coordinates":[[[80.81055,25.92721],[80.81125,25.92873],[80.81206,25.92882],[80.81437,25.92829],[80.81543,25.92857],[80.81526,25.92793],[80.81463,25.92682],[80.81418,25.92669],[80.81332,25.92683],[80.81309,25.92613],[80.81149,25.92628],[80.81037,25.92664],[80.81028,25.9264],[80.81055,25.92721]]]}},{"type":"Feature","bbox":[80.81284,25.92228,80.81884,25.92758],"properties":{"ward":26,"name":"Peeranpur"},"geometry":{"type":"Polygon","coordinates":[[[80.81382,25.92421],[80.81509,25.92535],[80.81568,25.92557],[80.81601,25.92629],[80.81678,25.92697],[80.81716,25.92758],[80.8174,25.92737],[80.81746,25.92674],[80.81791,25.92657],[80.81884,25.92563],[80.81825,25.92541],[80.81423,25.92268],[80.81284,25.92228],[80.81382,25.92421]]]}},{"type":"Feature","bbox":[80.80425,25.91103,80.81698,25.92253],"properties":{"ward":27,"name":"Collectorganj"},"geometry":{"type":"Polygon","coordinates":[[[80.81698,25.91925],[80.81316,25.91103],[80.81119,25.912],[80.81165,25.91366],[80.81161,25.91418],[80.81127,25.91419],[80.81114,25.91466],[80.8066,25.91693],[80.8069,25.91722],[80.805,25.91825],[80.80526,25.91864],[80.80425,25.91926],[80.80672,25.92153],[80.8085,25.92253],[80.81177,25.92155],[80.81271,25.92076],[80.81698,25.91925]]]}},{"type":"Feature","bbox":[80.80663,25.92829,80.8157,25.9315],"properties":{"ward":28,"name":"Mahajari"},"geometry":{"type":"Polygon","coordinates":[[[80.80946,25.93059],[80.81276,25.9292],[80.81337,25.92955],[80.81349,25.93027],[80.81428,25.93045],[80.8157,25.93037],[80.81552,25.92856],[80.81498,25.92854],[80.81437,25.92829],[80.81206,25.92882],[80.81125,25.92873],[80.80925,25.92933],[80.80663,25.92957],[80.8071,25.92993],[80.80801,25.9315],[80.80856,25.93129],[80.80946,25.93059]]]}},{"type":"Feature","bbox":[80.8153,25.92011,80.82592,25.92579],"properties":{"ward":29,"name":"Krishna Bihari Nagar"},"geometry":{"type":"Polygon","coordinates":[[[80.8153,25.92338],[80.81848,25.92555],[80.81916,25.92579],[80.82083,25.92439],[80.82242,25.92424],[80.82249,25.92454],[80.82297,25.92443],[80.82393,25.92369],[80.82592,25.9216],[80.82407,25.92011],[80.82178,25.92177],[80.82,25.9222],[80.81825,25.92314],[80.81793,25.92267],[80.81683,25.92274],[80.81595,25.92292],[80.8153,25.92338]]]}},{"type":"Feature","bbox":[80.80916,25.93163,80.81817,25.93788],"properties":{"ward":30,"name":"Kheldar"},"geometry":{"type":"Polygon","coordinates":[[[80.81038,25.93709],[80.81159,25.93682],[80.81286,25.93561],[80.81546,25.93425],[80.8165,25.93316],[80.81753,25.93287],[80.81817,25.93286],[80.81753,25.93163],[80.81417,25.93258],[80.8138,25.93325],[80.81307,25.93365],[80.81184,25.9347],[80.81046,25.93473],[80.80916,25.93788],[80.81038,25.93709]]]}},{"type":"Feature","bbox":[80.81737,25.92784,80.82175,25.93286],"properties":{"ward":31,"name":"Chandiyana"},"geometry":{"type":"Polygon","coordinates":[[[80.81817,25.93286],[80.81947,25.93242],[80.81978,25.93214],[80.8202,25.93055],[80.82175,25.9282],[80.82155,25.92784],[80.82021,25.92819],[80.81737,25.92838],[80.81775,25.93118],[80.81753,25.93163],[80.81817,25.93286]]]}},{"type":"Feature","bbox":[80.81309,25.92483,80.81737,25.92857],"properties":{"ward":32,"name":"Pani"},"geometry":{"type":"Polygon","coordinates":[[[80.81543,25.92857],[80.81737,25.92838],[80.81731,25.92793],[80.81678,25.92697],[80.81601,25.92629],[80.81575,25.92564],[80.81509,25.92535],[80.8145,25.92483],[80.8142,25.92505],[80.8143,25.92558],[80.81309,25.92613],[80.81332,25.92683],[80.81418,25.92669],[80.81463,25.92682],[80.81526,25.92793],[80.81543,25.92857]]]}},{"type":"Feature","bbox":[80.7944,25.92081,80.80663,25.93239],"properties":{"ward":33,"name":"Civil Line"},"geometry":{"type":"Polygon","coordinates":[[[80.80244,25.92534],[80.80151,25.92471],[80.79947,25.92081],[80.79714,25.92144],[80.79807,25.92421],[80.7976,25.92534],[80.7975,25.92656],[80.79821,25.92791],[80.79482,25.92905],[80.7944,25.93239],[80.79726,25.93186],[80.80382,25.92975],[80.80663,25.92957],[80.80569,25.92919],[80.80471,25.92853],[80.80244,25.92534]]]}},{"type":"Feature","bbox":[80.82019,25.92599,80.83062,25.9312],"properties":{"ward":34,"name":"Ahmadganj"},"geometry":{"type":"Polygon","coordinates":[[[80.8214,25.92861],[80.82019,25.93057],[80.82085,25.93102],[80.82177,25.9312],[80.82283,25.93111],[80.82754,25.92897],[80.82849,25.92927],[80.83062,25.9286],[80.82956,25.92638],[80.82766,25.92702],[80.82711,25.92664],[80.82681,25.92599],[80.82239,25.92751],[80.8214,25.92861]]]}}]}