{"type":"FeatureCollection","features":[{"type":"Feature","bbox":[81.53678,27.16234,81.53981,27.16593],"properties":{"ward":1,"name":"Saranya"},"geometry":{"type":"Polygon","coordinates":[[[81.53925,27.16452],[81.53872,27.16413],[81.53844,27.16339],[81.53727,27.16234],[81.53678,27.16384],[81.53698,27.16476],[81.53868,27.16593],[81.53981,27.16529],[81.53925,27.16452]]]}},{"type":"Feature","bbox":[81.53617,27.16578,81.54145,27.17293],"properties":{"ward":2,"name":"Ahmadshah Naagr"},"geometry":{"type":"Polygon","coordinates":[[[81.54145,27.17094],[81.54016,27.16762],[81.53958,27.16678],[81.53847,27.16578],[81.53722,27.16699],[81.53656,27.16737],[81.53617,27.16807],[81.53685,27.16904],[81.537,27.1691],[81.53766,27.16876],[81.53811,27.17194],[81.53839,27.17293],[81.54145,27.17094]]]}},{"type":"Feature","bbox":[81.53372,27.16876,81.53815,27.17329],"properties":{"ward":3,"name":"Madarsa Tola"},"geometry":{"type":"Polygon","coordinates":[[[81.53685,27.16904],[81.53588,27.16994],[81.53598,27.17008],[81.53448,27.17113],[81.53372,27.17191],[81.5342,27.17252],[81.5348,27.1722],[81.5357,27.17329],[81.53815,27.17212],[81.53766,27.16876],[81.537,27.1691],[81.53685,27.16904]]]}},{"type":"Feature","bbox":[81.53999,27.15866,81.54347,27.16293],"properties":{"ward":4,"name":"Bazdari"},"geometry":{"type":"Polygon","coordinates":[[[81.54328,27.16133],[81.543,27.16109],[81.54308,27.16088],[81.54347,27.16069],[81.54328,27.1599],[81.54209,27.15866],[81.53999,27.16059],[81.54076,27.16178],[81.54181,27.16245],[81.54192,27.16238],[81.54256,27.16293],[81.54264,27.16277],[81.54214,27.16227],[81.54209,27.16201],[81.54328,27.16133]]]}},{"type":"Feature","bbox":[81.53868,27.1636,81.54323,27.16861],"properties":{"ward":5,"name":"Vairan Kazi"},"geometry":{"type":"Polygon","coordinates":[[[81.54199,27.16449],[81.5412,27.1636],[81.53999,27.16409],[81.53925,27.16452],[81.53981,27.16529],[81.53868,27.16593],[81.5399,27.16721],[81.54056,27.16861],[81.54218,27.16745],[81.54323,27.16695],[81.54153,27.16501],[81.54147,27.16475],[81.54199,27.16449]]]}},{"type":"Feature","bbox":[81.54209,27.15784,81.54454,27.16072],"properties":{"ward":6,"name":"Agrawal"},"geometry":{"type":"Polygon","coordinates":[[[81.54451,27.16022],[81.5443,27.15972],[81.54454,27.15951],[81.54391,27.15869],[81.5442,27.15847],[81.54367,27.15784],[81.54209,27.15866],[81.54328,27.1599],[81.54344,27.16072],[81.54379,27.16071],[81.54451,27.16022]]]}},{"type":"Feature","bbox":[81.53789,27.16194,81.54087,27.16455],"properties":{"ward":7,"name":"Chowk"},"geometry":{"type":"Polygon","coordinates":[[[81.54087,27.16375],[81.53981,27.16262],[81.53967,27.16266],[81.53879,27.16194],[81.53789,27.16291],[81.53859,27.16358],[81.53872,27.16413],[81.53916,27.16455],[81.54087,27.16375]]]}},{"type":"Feature","bbox":[81.543,27.16022,81.54506,27.16199],"properties":{"ward":8,"name":"Krishna Nagar"},"geometry":{"type":"Polygon","coordinates":[[[81.54451,27.16022],[81.54379,27.16071],[81.54344,27.16072],[81.543,27.16097],[81.54311,27.16121],[81.54417,27.16199],[81.54506,27.16091],[81.54451,27.16022]]]}},{"type":"Feature","bbox":[81.53045,27.16432,81.53847,27.1693],"properties":{"ward":9,"name":"Katra Dakshini"},"geometry":{"type":"Polygon","coordinates":[[[81.53574,27.16889],[81.53628,27.16827],[81.53617,27.16807],[81.53656,27.16737],[81.53722,27.16699],[81.53847,27.16578],[81.53627,27.16432],[81.5338,27.16559],[81.53178,27.16633],[81.53045,27.16718],[81.5313,27.16838],[81.53219,27.16839],[81.53308,27.16865],[81.53385,27.1683],[81.5349,27.1693],[81.53561,27.16884],[81.53574,27.16889]]]}},{"type":"Feature","bbox":[81.53879,27.16059,81.54256,27.16375],"properties":{"ward":10,"name":"Takiya"},"geometry":{"type":"Polygon","coordinates":[[[81.54256,27.16293],[81.54192,27.16238],[81.54181,27.16245],[81.54076,27.16178],[81.53999,27.16059],[81.53879,27.16194],[81.53967,27.16266],[81.53981,27.16262],[81.54087,27.16375],[81.54134,27.1635],[81.54157,27.16362],[81.54256,27.16293]]]}},{"type":"Feature","bbox":[81.5412,27.16133,81.54417,27.16449],"properties":{"ward":11,"name":"Zama Masjid"},"geometry":{"type":"Polygon","coordinates":[[[81.5412,27.1636],[81.54199,27.16449],[81.5425,27.16407],[81.54417,27.16199],[81.54328,27.16133],[81.54209,27.16201],[81.54263,27.16286],[81.54157,27.16362],[81.54134,27.1635],[81.5412,27.1636]]]}},{"type":"Feature","bbox":[81.54352,27.15474,81.54874,27.16091],"properties":{"ward":12,"name":"Rani Taal"},"geometry":{"type":"Polygon","coordinates":[[[81.54367,27.15784],[81.5442,27.15847],[81.54391,27.15869],[81.54454,27.15951],[81.5443,27.15972],[81.54467,27.16055],[81.54506,27.16091],[81.54874,27.1593],[81.54732,27.15728],[81.5451,27.15474],[81.5449,27.15534],[81.54352,27.15698],[81.54367,27.15784]]]}},{"type":"Feature","bbox":[81.53112,27.16827,81.53685,27.17191],"properties":{"ward":13,"name":"Katra Uttari"},"geometry":{"type":"Polygon","coordinates":[[[81.53685,27.16904],[81.53628,27.16827],[81.53574,27.16889],[81.53561,27.16884],[81.5349,27.1693],[81.53385,27.1683],[81.53308,27.16865],[81.53219,27.16839],[81.53112,27.1684],[81.53316,27.1708],[81.53312,27.17113],[81.53372,27.17191],[81.53448,27.17113],[81.53598,27.17008],[81.53588,27.16994],[81.53685,27.16904]]]}}]}