{"type":"FeatureCollection","features":[{"type":"Feature","bbox":[81.49175,27.85782,81.49752,27.86441],"properties":{"ward":1,"name":"01-Chamaran Tola"},"geometry":{"type":"Polygon","coordinates":[[[81.49717,27.85855],[81.4962,27.85782],[81.49175,27.86211],[81.49423,27.86441],[81.49602,27.86358],[81.49732,27.86271],[81.4968,27.86203],[81.497,27.8619],[81.49724,27.86122],[81.49752,27.85973],[81.49717,27.85855]]]}},{"type":"Feature","bbox":[81.4985,27.86071,81.50164,27.86331],"properties":{"ward":2,"name":"02-Mehtar Tola"},"geometry":{"type":"Polygon","coordinates":[[[81.50164,27.86251],[81.49959,27.86071],[81.49913,27.86114],[81.49922,27.86127],[81.4985,27.86158],[81.50024,27.86331],[81.50164,27.86251]]]}},{"type":"Feature","bbox":[81.50694,27.85739,81.51205,27.86145],"properties":{"ward":3,"name":"03-Jubaliganj Purvi"},"geometry":{"type":"Polygon","coordinates":[[[81.51167,27.85739],[81.51148,27.85814],[81.50777,27.86046],[81.50694,27.86145],[81.51159,27.86001],[81.51205,27.85814],[81.512,27.85757],[81.51167,27.85739]]]}},{"type":"Feature","bbox":[81.50414,27.85424,81.51167,27.86236],"properties":{"ward":4,"name":"04-Jubaliganj Dakshini"},"geometry":{"type":"Polygon","coordinates":[[[81.50694,27.86145],[81.50777,27.86046],[81.51148,27.85814],[81.51167,27.85739],[81.51014,27.8571],[81.50977,27.85682],[81.51007,27.85638],[81.51111,27.85553],[81.51026,27.85512],[81.51061,27.8545],[81.50935,27.85424],[81.50414,27.86236],[81.50694,27.86145]]]}},{"type":"Feature","bbox":[81.4968,27.85855,81.49959,27.86253],"properties":{"ward":5,"name":"05-Kayasth Tola"},"geometry":{"type":"Polygon","coordinates":[[[81.49779,27.86192],[81.49922,27.86127],[81.49913,27.86114],[81.49959,27.86071],[81.49717,27.85855],[81.49752,27.85973],[81.49724,27.86122],[81.497,27.8619],[81.4968,27.86203],[81.49719,27.86253],[81.49779,27.86192]]]}},{"type":"Feature","bbox":[81.49717,27.85563,81.50226,27.86081],"properties":{"ward":6,"name":"06-Radhan Tola Purvi"},"geometry":{"type":"Polygon","coordinates":[[[81.50226,27.85872],[81.50072,27.85702],[81.5004,27.85728],[81.49857,27.85563],[81.49728,27.85676],[81.49717,27.85855],[81.4997,27.86081],[81.50023,27.86019],[81.50226,27.85872]]]}},{"type":"Feature","bbox":[81.49719,27.86158,81.50024,27.86435],"properties":{"ward":7,"name":"07-Baverchi Tola"},"geometry":{"type":"Polygon","coordinates":[[[81.50024,27.86331],[81.4985,27.86158],[81.49779,27.86192],[81.49719,27.86253],[81.49862,27.86435],[81.50024,27.86331]]]}},{"type":"Feature","bbox":[81.50414,27.86001,81.51231,27.86407],"properties":{"ward":8,"name":"08-Jubaliganj Paschimi"},"geometry":{"type":"Polygon","coordinates":[[[81.51159,27.86001],[81.51054,27.86028],[81.50414,27.86236],[81.50503,27.8628],[81.50587,27.86249],[81.50616,27.8626],[81.507,27.86253],[81.50824,27.86407],[81.5096,27.86333],[81.51017,27.86319],[81.51162,27.86346],[81.51231,27.8601],[81.51159,27.86001]]]}},{"type":"Feature","bbox":[81.49674,27.8631,81.50015,27.86685],"properties":{"ward":9,"name":"09-Purani Bazar Purvi"},"geometry":{"type":"Polygon","coordinates":[[[81.50015,27.86613],[81.49766,27.8631],[81.49674,27.86369],[81.49936,27.86685],[81.49999,27.86648],[81.50015,27.86613]]]}},{"type":"Feature","bbox":[81.49539,27.86552,81.49861,27.86848],"properties":{"ward":10,"name":"10-Kasai Tola Uttari"},"geometry":{"type":"Polygon","coordinates":[[[81.49688,27.86552],[81.49642,27.86596],[81.49539,27.86651],[81.49721,27.86848],[81.49861,27.86777],[81.49792,27.86694],[81.49787,27.86664],[81.49688,27.86552]]]}},{"type":"Feature","bbox":[81.4997,27.85641,81.50641,27.86485],"properties":{"ward":11,"name":"11-Padav"},"geometry":{"type":"Polygon","coordinates":[[[81.50256,27.86485],[81.50641,27.85884],[81.50409,27.85641],[81.50181,27.85817],[81.50226,27.85872],[81.50023,27.86019],[81.4997,27.86081],[81.50254,27.8633],[81.50261,27.86404],[81.50198,27.86465],[81.50256,27.86485]]]}},{"type":"Feature","bbox":[81.49398,27.86391,81.49702,27.86616],"properties":{"ward":12,"name":"12-Kasai Tola Dakshini"},"geometry":{"type":"Polygon","coordinates":[[[81.49595,27.86616],[81.49702,27.86541],[81.49654,27.86485],[81.49612,27.86506],[81.49585,27.86449],[81.4953,27.86391],[81.49423,27.86441],[81.49398,27.8648],[81.49595,27.86616]]]}},{"type":"Feature","bbox":[81.49688,27.86488,81.49936,27.86777],"properties":{"ward":13,"name":"13-Kasai Tola"},"geometry":{"type":"Polygon","coordinates":[[[81.49879,27.8677],[81.49859,27.86715],[81.49936,27.86685],[81.49777,27.86488],[81.49688,27.86552],[81.49787,27.86664],[81.49827,27.8674],[81.49861,27.86777],[81.49879,27.8677]]]}},{"type":"Feature","bbox":[81.49859,27.86682,81.50209,27.86911],"properties":{"ward":14,"name":"14-Purani Bazar Uttari"},"geometry":{"type":"Polygon","coordinates":[[[81.50105,27.86721],[81.50077,27.86682],[81.49974,27.86723],[81.49936,27.86685],[81.49859,27.86715],[81.49879,27.8677],[81.49989,27.86741],[81.50034,27.86774],[81.50069,27.86818],[81.50086,27.86911],[81.50209,27.8684],[81.50087,27.86756],[81.50105,27.86721]]]}},{"type":"Feature","bbox":[81.49862,27.86395,81.50118,27.86558],"properties":{"ward":15,"name":"15-Chikwa Tola"},"geometry":{"type":"Polygon","coordinates":[[[81.50118,27.8645],[81.49924,27.86395],[81.49862,27.86435],[81.49971,27.86558],[81.50056,27.86509],[81.50057,27.86473],[81.50118,27.8645]]]}},{"type":"Feature","bbox":[81.50031,27.86832,81.50554,27.87428],"properties":{"ward":16,"name":"16-Bhisti Tola"},"geometry":{"type":"Polygon","coordinates":[[[81.50288,27.87428],[81.50554,27.87145],[81.50494,27.87066],[81.50424,27.8701],[81.50436,27.87001],[81.50253,27.86832],[81.50215,27.86874],[81.50348,27.86988],[81.50291,27.87039],[81.50349,27.87107],[81.50222,27.87179],[81.50112,27.87003],[81.50098,27.87115],[81.50031,27.87276],[81.50135,27.87409],[81.50206,27.8735],[81.50288,27.87428]]]}},{"type":"Feature","bbox":[81.50238,27.86249,81.50832,27.8673],"properties":{"ward":17,"name":"17-Topkhana"},"geometry":{"type":"Polygon","coordinates":[[[81.50832,27.86421],[81.507,27.86253],[81.50616,27.8626],[81.50587,27.86249],[81.50503,27.8628],[81.50425,27.8638],[81.50433,27.86401],[81.50238,27.86561],[81.50377,27.86713],[81.50454,27.86676],[81.50524,27.8673],[81.50552,27.86725],[81.50721,27.86552],[81.50832,27.86421]]]}},{"type":"Feature","bbox":[81.50218,27.86236,81.50503,27.86561],"properties":{"ward":18,"name":"18-Kabadya Tola"},"geometry":{"type":"Polygon","coordinates":[[[81.50503,27.8628],[81.50414,27.86236],[81.50218,27.86543],[81.50238,27.86561],[81.50433,27.86401],[81.50425,27.8638],[81.50503,27.8628]]]}},{"type":"Feature","bbox":[81.50086,27.86583,81.50349,27.87179],"properties":{"ward":19,"name":"19-Qila Dakshini"},"geometry":{"type":"Polygon","coordinates":[[[81.50348,27.86988],[81.50215,27.86874],[81.50231,27.86845],[81.50253,27.86832],[81.50267,27.86843],[81.50336,27.86788],[81.50344,27.86731],[81.50293,27.86669],[81.5023,27.86637],[81.50187,27.86583],[81.50087,27.86756],[81.50209,27.8684],[81.50086,27.86911],[81.50112,27.87003],[81.50222,27.87179],[81.50349,27.87107],[81.50291,27.87039],[81.50348,27.86988]]]}},{"type":"Feature","bbox":[81.49605,27.86741,81.50103,27.87339],"properties":{"ward":20,"name":"20-Beldaran"},"geometry":{"type":"Polygon","coordinates":[[[81.50103,27.8698],[81.50069,27.86818],[81.49989,27.86741],[81.49861,27.86777],[81.49605,27.86915],[81.49744,27.87086],[81.49725,27.87095],[81.49836,27.87227],[81.49996,27.87339],[81.50098,27.87115],[81.50103,27.8698]]]}},{"type":"Feature","bbox":[81.4953,27.86271,81.49777,27.86541],"properties":{"ward":21,"name":"21-Purani Bazar Paschimi"},"geometry":{"type":"Polygon","coordinates":[[[81.49777,27.86488],[81.49674,27.86369],[81.49766,27.8631],[81.49732,27.86271],[81.4953,27.86391],[81.49585,27.86449],[81.49612,27.86506],[81.49649,27.8648],[81.49702,27.86541],[81.49777,27.86488]]]}},{"type":"Feature","bbox":[81.50187,27.86543,81.50573,27.86931],"properties":{"ward":22,"name":"22-Qila Purvi"},"geometry":{"type":"Polygon","coordinates":[[[81.50552,27.86725],[81.50524,27.8673],[81.50454,27.86676],[81.50377,27.86713],[81.50218,27.86543],[81.50187,27.86583],[81.5023,27.86637],[81.50293,27.86669],[81.50344,27.86731],[81.50336,27.86788],[81.50267,27.86843],[81.50356,27.86931],[81.50392,27.86901],[81.50483,27.86878],[81.50573,27.86812],[81.50532,27.86758],[81.50552,27.86725]]]}},{"type":"Feature","bbox":[81.50356,27.86319,81.51162,27.87145],"properties":{"ward":23,"name":"23-Miryasi Tola"},"geometry":{"type":"Polygon","coordinates":[[[81.51162,27.86346],[81.51017,27.86319],[81.5096,27.86333],[81.50824,27.86407],[81.50832,27.86421],[81.50721,27.86552],[81.50552,27.86725],[81.50532,27.86758],[81.50573,27.86812],[81.50483,27.86878],[81.50392,27.86901],[81.50356,27.86931],[81.50436,27.87001],[81.50424,27.8701],[81.50494,27.87066],[81.50554,27.87145],[81.50626,27.87071],[81.50671,27.86956],[81.50694,27.86973],[81.50733,27.86965],[81.50875,27.86854],[81.50839,27.86819],[81.50888,27.86743],[81.50885,27.86716],[81.50836,27.86662],[81.50844,27.86649],[81.50816,27.86605],[81.5102,27.86457],[81.51131,27.86397],[81.51162,27.86346]]]}},{"type":"Feature","bbox":[81.49924,27.86251,81.50265,27.86465],"properties":{"ward":24,"name":"24-Ghosi Tola"},"geometry":{"type":"Polygon","coordinates":[[[81.50164,27.86251],[81.50024,27.86331],[81.49924,27.86395],[81.50198,27.86465],[81.50265,27.86386],[81.50254,27.8633],[81.50164,27.86251]]]}},{"type":"Feature","bbox":[81.49936,27.8645,81.50256,27.86723],"properties":{"ward":25,"name":"25-Akab Nai Bazar"},"geometry":{"type":"Polygon","coordinates":[[[81.50105,27.86721],[81.50198,27.86562],[81.50256,27.86485],[81.50118,27.8645],[81.50057,27.86473],[81.50056,27.86509],[81.49971,27.86558],[81.50015,27.86613],[81.49999,27.86648],[81.49936,27.86685],[81.49974,27.86723],[81.50077,27.86682],[81.50105,27.86721]]]}}]}