{"type":"FeatureCollection","features":[{"type":"Feature","bbox":[83.53311,26.11058,83.53845,26.11631],"properties":{"ward":1,"name":"Kasba Khas Western"},"geometry":{"type":"Polygon","coordinates":[[[83.53707,26.11617],[83.53812,26.11555],[83.5384,26.1152],[83.53845,26.11328],[83.53762,26.11058],[83.53646,26.11101],[83.53493,26.11256],[83.53373,26.11242],[83.53311,26.11291],[83.53327,26.11631],[83.53707,26.11617]]]}},{"type":"Feature","bbox":[83.54669,26.12483,83.55298,26.1278],"properties":{"ward":2,"name":"Bada Gaon Eastern"},"geometry":{"type":"Polygon","coordinates":[[[83.54806,26.12521],[83.54819,26.126],[83.548,26.12617],[83.5474,26.12618],[83.54681,26.1259],[83.54669,26.12607],[83.54723,26.12743],[83.54937,26.12755],[83.5499,26.12778],[83.55082,26.1278],[83.55154,26.12751],[83.55298,26.12495],[83.55198,26.12502],[83.55124,26.12483],[83.54806,26.12521]]]}},{"type":"Feature","bbox":[83.5394,26.12865,83.54711,26.13326],"properties":{"ward":3,"name":"Bada Gaon Northern"},"geometry":{"type":"Polygon","coordinates":[[[83.53975,26.1331],[83.54197,26.13326],[83.54711,26.13073],[83.54697,26.12865],[83.54299,26.12932],[83.54226,26.12956],[83.54191,26.13011],[83.53989,26.13002],[83.5394,26.13226],[83.53975,26.1331]]]}},{"type":"Feature","bbox":[83.53937,26.10388,83.54876,26.11035],"properties":{"ward":4,"name":"Kasba Khas Eastern"},"geometry":{"type":"Polygon","coordinates":[[[83.54741,26.10388],[83.54626,26.10396],[83.5438,26.10454],[83.54365,26.10574],[83.54271,26.10589],[83.54129,26.10674],[83.54075,26.10686],[83.53937,26.10615],[83.53966,26.10711],[83.53952,26.10807],[83.53983,26.11035],[83.54174,26.10962],[83.54432,26.10916],[83.54413,26.10827],[83.54727,26.10753],[83.54876,26.10739],[83.54875,26.10705],[83.54752,26.10473],[83.54741,26.10388]]]}},{"type":"Feature","bbox":[83.53432,26.10479,83.53983,26.11101],"properties":{"ward":5,"name":"Patti Mohd.Urf Qazipura"},"geometry":{"type":"Polygon","coordinates":[[[83.53647,26.11101],[83.53762,26.11057],[83.53983,26.11035],[83.53957,26.10903],[83.53958,26.10668],[83.53937,26.10615],[83.53876,26.10578],[83.53778,26.10574],[83.53726,26.10554],[83.53633,26.10571],[83.53561,26.10547],[83.5347,26.10479],[83.53432,26.10497],[83.53452,26.10594],[83.53625,26.10681],[83.53702,26.10807],[83.53763,26.10846],[83.53769,26.10945],[83.53742,26.11022],[83.53647,26.11101]]]}},{"type":"Feature","bbox":[83.53867,26.10162,83.54441,26.10686],"properties":{"ward":6,"name":"Mirja Jamalpur Eastern"},"geometry":{"type":"Polygon","coordinates":[[[83.53881,26.1058],[83.54075,26.10686],[83.54129,26.10673],[83.54271,26.10589],[83.54365,26.10574],[83.5438,26.10454],[83.54441,26.10217],[83.54219,26.10162],[83.54197,26.10231],[83.54064,26.10358],[83.53867,26.10438],[83.53904,26.10482],[83.53881,26.1058]]]}},{"type":"Feature","bbox":[83.54677,26.12101,83.55313,26.12517],"properties":{"ward":7,"name":"Karimuddinpur Bagh"},"geometry":{"type":"Polygon","coordinates":[[[83.5484,26.12517],[83.55124,26.12483],[83.55198,26.12501],[83.55298,26.12495],[83.55313,26.12358],[83.55224,26.12125],[83.55035,26.12149],[83.55019,26.12101],[83.54962,26.12104],[83.54886,26.12137],[83.5496,26.12208],[83.54677,26.12201],[83.54679,26.12285],[83.54728,26.12273],[83.54731,26.1234],[83.54749,26.12338],[83.54751,26.12354],[83.54794,26.12351],[83.5482,26.12407],[83.5484,26.12517]]]}},{"type":"Feature","bbox":[83.54052,26.11543,83.55224,26.12208],"properties":{"ward":8,"name":"Karimuddinpur Southern"},"geometry":{"type":"Polygon","coordinates":[[[83.55224,26.12125],[83.55182,26.11945],[83.55038,26.11543],[83.54654,26.11609],[83.54585,26.11651],[83.54515,26.11719],[83.54498,26.11674],[83.54448,26.11622],[83.54346,26.12011],[83.54052,26.12035],[83.54102,26.12198],[83.54317,26.12163],[83.54324,26.12137],[83.54502,26.1219],[83.5496,26.12208],[83.54886,26.12137],[83.54962,26.12104],[83.55019,26.12101],[83.55035,26.12149],[83.55224,26.12125]]]}},{"type":"Feature","bbox":[83.53626,26.1152,83.54459,26.12072],"properties":{"ward":9,"name":"Madapur Northern"},"geometry":{"type":"Polygon","coordinates":[[[83.53717,26.12072],[83.54346,26.12011],[83.54459,26.1159],[83.54348,26.11597],[83.54126,26.11536],[83.5384,26.1152],[83.53813,26.11555],[83.53708,26.11617],[83.53813,26.11798],[83.53807,26.11827],[83.53626,26.11856],[83.5366,26.11991],[83.53696,26.11992],[83.53717,26.12072]]]}},{"type":"Feature","bbox":[83.5347,26.1012,83.54218,26.1058],"properties":{"ward":10,"name":"Malik Tola"},"geometry":{"type":"Polygon","coordinates":[[[83.54218,26.10162],[83.54057,26.1012],[83.53819,26.10223],[83.53721,26.1031],[83.53605,26.10374],[83.5347,26.10478],[83.53561,26.10547],[83.53633,26.10571],[83.53726,26.10554],[83.53778,26.10574],[83.53881,26.1058],[83.53904,26.10482],[83.53866,26.10438],[83.54064,26.10358],[83.54197,26.1023],[83.54218,26.10162]]]}},{"type":"Feature","bbox":[83.54081,26.12607,83.54723,26.13011],"properties":{"ward":11,"name":"Neem Tale"},"geometry":{"type":"Polygon","coordinates":[[[83.54669,26.12607],[83.54409,26.12682],[83.54404,26.12669],[83.54206,26.1269],[83.54081,26.13006],[83.54191,26.13011],[83.54226,26.12956],[83.54299,26.12932],[83.54697,26.12865],[83.54723,26.12744],[83.54669,26.12607]]]}},{"type":"Feature","bbox":[83.54172,26.10739,83.5499,26.11336],"properties":{"ward":12,"name":"Madapur Eastern"},"geometry":{"type":"Polygon","coordinates":[[[83.54876,26.10739],[83.54727,26.10753],[83.54413,26.10827],[83.54432,26.10916],[83.54204,26.10959],[83.54229,26.11137],[83.54172,26.11164],[83.54224,26.11209],[83.54308,26.11321],[83.54351,26.11314],[83.54382,26.11332],[83.54378,26.11284],[83.54498,26.1128],[83.54495,26.11234],[83.54515,26.1123],[83.54617,26.11257],[83.54635,26.11329],[83.54673,26.11336],[83.54724,26.11323],[83.54778,26.11279],[83.5499,26.11292],[83.54895,26.1097],[83.54876,26.10739]]]}},{"type":"Feature","bbox":[83.53757,26.12137,83.54415,26.12714],"properties":{"ward":13,"name":"Bada Gaon Western"},"geometry":{"type":"Polygon","coordinates":[[[83.54091,26.12178],[83.53789,26.12237],[83.53802,26.12284],[83.53757,26.12292],[83.53804,26.1249],[83.53882,26.12485],[83.53916,26.12517],[83.54039,26.12515],[83.54118,26.12494],[83.54157,26.12699],[83.54196,26.12714],[83.54235,26.12543],[83.54289,26.12543],[83.54415,26.12165],[83.54324,26.12137],[83.54317,26.12163],[83.54102,26.12198],[83.54091,26.12178]]]}},{"type":"Feature","bbox":[83.5429,26.12165,83.5484,26.12556],"properties":{"ward":14,"name":"Bada Gaon Khas"},"geometry":{"type":"Polygon","coordinates":[[[83.54794,26.12351],[83.54623,26.12381],[83.54607,26.12331],[83.54565,26.12341],[83.54558,26.12311],[83.54516,26.12319],[83.54502,26.1219],[83.54416,26.12165],[83.5429,26.12543],[83.54372,26.12549],[83.54401,26.12538],[83.54446,26.12556],[83.54528,26.12554],[83.54561,26.12522],[83.54546,26.12454],[83.54627,26.12439],[83.5464,26.12506],[83.54782,26.12485],[83.54798,26.12489],[83.54806,26.12521],[83.5484,26.12518],[83.5482,26.12407],[83.54794,26.12351]]]}},{"type":"Feature","bbox":[83.54206,26.12439,83.54819,26.1269],"properties":{"ward":15,"name":"Sadar Bazar"},"geometry":{"type":"Polygon","coordinates":[[[83.54627,26.12439],[83.54546,26.12454],[83.54561,26.12522],[83.54528,26.12554],[83.54446,26.12556],[83.54401,26.12538],[83.54372,26.12549],[83.54235,26.12543],[83.54206,26.1269],[83.5444,26.12675],[83.54669,26.12607],[83.5468,26.1259],[83.54741,26.12618],[83.548,26.12617],[83.54819,26.126],[83.54798,26.12489],[83.5464,26.12506],[83.54627,26.12439]]]}},{"type":"Feature","bbox":[83.54502,26.1219,83.54751,26.12381],"properties":{"ward":16,"name":"Karimuddinpur Northern"},"geometry":{"type":"Polygon","coordinates":[[[83.54502,26.1219],[83.54516,26.12319],[83.54558,26.12311],[83.54565,26.12341],[83.54607,26.12331],[83.54623,26.12381],[83.54751,26.12354],[83.54725,26.12319],[83.54728,26.12273],[83.54679,26.12285],[83.54677,26.12201],[83.54502,26.1219]]]}},{"type":"Feature","bbox":[83.54107,26.1123,83.55038,26.11719],"properties":{"ward":17,"name":"Madapur Khas"},"geometry":{"type":"Polygon","coordinates":[[[83.54127,26.11536],[83.54347,26.11597],[83.5446,26.1159],[83.54448,26.11621],[83.54475,26.1164],[83.54515,26.11719],[83.54584,26.11651],[83.54654,26.11609],[83.55038,26.11542],[83.5499,26.11292],[83.54778,26.1128],[83.54724,26.11323],[83.54673,26.11336],[83.54635,26.11329],[83.54617,26.11257],[83.54515,26.1123],[83.54495,26.11234],[83.54499,26.1128],[83.54379,26.11284],[83.54382,26.11332],[83.54351,26.11314],[83.54308,26.11322],[83.54285,26.1129],[83.5411,26.11344],[83.54126,26.11392],[83.54107,26.11402],[83.54133,26.11482],[83.54127,26.11536]]]}},{"type":"Feature","bbox":[83.53762,26.10959,83.54285,26.11536],"properties":{"ward":18,"name":"Baiswara"},"geometry":{"type":"Polygon","coordinates":[[[83.5384,26.1152],[83.54126,26.11536],[83.54133,26.11482],[83.54107,26.11402],[83.54126,26.11392],[83.5411,26.11344],[83.54285,26.1129],[83.54171,26.11164],[83.54229,26.11137],[83.54203,26.10959],[83.53983,26.11036],[83.53762,26.11058],[83.53845,26.11328],[83.5384,26.1152]]]}}]}