{"type":"FeatureCollection","features":[{"type":"Feature","bbox":[81.96982,27.53171,81.97397,27.53674],"properties":{"ward":1,"name":"Ambedkar Nagar"},"geometry":{"type":"Polygon","coordinates":[[[81.97376,27.53674],[81.97397,27.53637],[81.97335,27.5343],[81.97251,27.53338],[81.97174,27.53321],[81.97129,27.53293],[81.97117,27.53171],[81.97094,27.53192],[81.96982,27.53228],[81.97151,27.53523],[81.97376,27.53674]]]}},{"type":"Feature","bbox":[81.96403,27.53167,81.96753,27.53885],"properties":{"ward":2,"name":"Bechu Baba"},"geometry":{"type":"Polygon","coordinates":[[[81.96454,27.53215],[81.96485,27.53282],[81.96453,27.53497],[81.96403,27.53644],[81.9654,27.53885],[81.96688,27.5379],[81.96638,27.53731],[81.96753,27.53667],[81.96723,27.53167],[81.96454,27.53215]]]}},{"type":"Feature","bbox":[81.96925,27.52981,81.97173,27.53228],"properties":{"ward":3,"name":"Mahaveer Nagar"},"geometry":{"type":"Polygon","coordinates":[[[81.97094,27.53192],[81.97123,27.53141],[81.97173,27.53079],[81.97119,27.52981],[81.96956,27.53059],[81.96925,27.53093],[81.96967,27.53157],[81.96943,27.53173],[81.96982,27.53228],[81.97094,27.53192]]]}},{"type":"Feature","bbox":[81.97119,27.52862,81.97363,27.53143],"properties":{"ward":4,"name":"Gautam Nagar"},"geometry":{"type":"Polygon","coordinates":[[[81.97182,27.52942],[81.97119,27.52981],[81.97168,27.53075],[81.9723,27.53068],[81.97257,27.53107],[81.97363,27.53143],[81.97342,27.53076],[81.97209,27.52938],[81.97183,27.52862],[81.97172,27.52888],[81.97182,27.52942]]]}},{"type":"Feature","bbox":[81.96377,27.526,81.97183,27.52877],"properties":{"ward":5,"name":"Lajpat Nagar"},"geometry":{"type":"Polygon","coordinates":[[[81.97025,27.52616],[81.96476,27.526],[81.96377,27.5267],[81.96555,27.52811],[81.96616,27.5283],[81.97059,27.52877],[81.97183,27.52862],[81.97141,27.52734],[81.97025,27.52616]]]}},{"type":"Feature","bbox":[81.9681,27.53226,81.97376,27.53722],"properties":{"ward":6,"name":"Shastri Nagar"},"geometry":{"type":"Polygon","coordinates":[[[81.97376,27.53674],[81.97139,27.53507],[81.96981,27.53226],[81.9695,27.53242],[81.96961,27.53256],[81.96886,27.53363],[81.96815,27.5341],[81.96838,27.53433],[81.96816,27.53435],[81.96825,27.53452],[81.9681,27.53462],[81.96846,27.53507],[81.96831,27.53519],[81.96846,27.5367],[81.96958,27.53683],[81.97005,27.53711],[81.97098,27.53722],[81.97292,27.53702],[81.97376,27.53674]]]}},{"type":"Feature","bbox":[81.96367,27.52893,81.9672,27.53221],"properties":{"ward":7,"name":"Mubarak Nagar"},"geometry":{"type":"Polygon","coordinates":[[[81.9672,27.53166],[81.96707,27.52993],[81.96607,27.52893],[81.965,27.5293],[81.96469,27.5298],[81.96469,27.53025],[81.96367,27.53066],[81.96378,27.5309],[81.96367,27.5314],[81.9642,27.53221],[81.9672,27.53166]]]}},{"type":"Feature","bbox":[81.96875,27.52864,81.97182,27.53123],"properties":{"ward":8,"name":"Patel Nagar"},"geometry":{"type":"Polygon","coordinates":[[[81.96935,27.53107],[81.96925,27.53093],[81.96956,27.53059],[81.97182,27.52942],[81.97174,27.52864],[81.97107,27.52875],[81.97074,27.52944],[81.96945,27.53011],[81.96875,27.53068],[81.96902,27.53123],[81.96935,27.53107]]]}},{"type":"Feature","bbox":[81.96289,27.5267,81.96607,27.53066],"properties":{"ward":9,"name":"Azad Nagar"},"geometry":{"type":"Polygon","coordinates":[[[81.96607,27.52893],[81.96568,27.52852],[81.96555,27.52811],[81.96377,27.5267],[81.96319,27.52729],[81.96289,27.52855],[81.96321,27.5296],[81.963,27.53005],[81.96367,27.53066],[81.96469,27.53025],[81.96469,27.5298],[81.965,27.5293],[81.96607,27.52893]]]}},{"type":"Feature","bbox":[81.96638,27.53162,81.96981,27.5379],"properties":{"ward":10,"name":"Chouk"},"geometry":{"type":"Polygon","coordinates":[[[81.96753,27.53667],[81.96638,27.53731],[81.96688,27.5379],[81.96846,27.5367],[81.96831,27.53519],[81.96846,27.53507],[81.9681,27.53462],[81.96825,27.53452],[81.96816,27.53435],[81.96838,27.53433],[81.96815,27.5341],[81.96886,27.53363],[81.96961,27.53256],[81.9695,27.53242],[81.96981,27.53226],[81.9694,27.53169],[81.96888,27.53162],[81.96731,27.53351],[81.96753,27.53667]]]}},{"type":"Feature","bbox":[81.96555,27.52811,81.96967,27.53351],"properties":{"ward":11,"name":"Tilak Nagar"},"geometry":{"type":"Polygon","coordinates":[[[81.96902,27.53123],[81.96875,27.53068],[81.96904,27.53052],[81.96862,27.5302],[81.96782,27.52852],[81.96555,27.52811],[81.96568,27.52852],[81.96707,27.52993],[81.96731,27.53351],[81.96888,27.53162],[81.96943,27.53173],[81.96967,27.53157],[81.96935,27.53107],[81.96902,27.53123]]]}},{"type":"Feature","bbox":[81.96782,27.52852,81.97111,27.53052],"properties":{"ward":12,"name":"Kabeer Nagar"},"geometry":{"type":"Polygon","coordinates":[[[81.96782,27.52852],[81.96862,27.5302],[81.96904,27.53052],[81.96945,27.53011],[81.97074,27.52944],[81.97077,27.5292],[81.97111,27.5289],[81.97107,27.52875],[81.96782,27.52852]]]}}]}