{"type":"FeatureCollection","features":[{"type":"Feature","bbox":[83.29397,26.08803,83.30178,26.09568],"properties":{"ward":1},"geometry":{"type":"Polygon","coordinates":[[[83.29879,26.09455],[83.29909,26.09212],[83.30178,26.09131],[83.30057,26.08856],[83.29945,26.0888],[83.29915,26.08803],[83.2982,26.08841],[83.29397,26.08935],[83.29426,26.09033],[83.29409,26.09041],[83.29419,26.09073],[83.29501,26.09045],[83.29543,26.0913],[83.2958,26.09121],[83.29551,26.09199],[83.29444,26.09236],[83.29514,26.09369],[83.29498,26.09376],[83.29571,26.09568],[83.29879,26.09455]]]}},{"type":"Feature","bbox":[83.29115,26.07996,83.29483,26.08514],"properties":{"ward":2},"geometry":{"type":"Polygon","coordinates":[[[83.29147,26.07996],[83.29115,26.08006],[83.29145,26.08223],[83.29149,26.08388],[83.29194,26.08514],[83.2923,26.08485],[83.29354,26.08446],[83.29343,26.08379],[83.29404,26.08368],[83.29417,26.08381],[83.29483,26.08359],[83.29436,26.08258],[83.29383,26.08187],[83.29215,26.08149],[83.29147,26.07996]]]}},{"type":"Feature","bbox":[83.30714,26.08945,83.31827,26.09733],"properties":{"ward":3},"geometry":{"type":"Polygon","coordinates":[[[83.31017,26.09733],[83.31255,26.09624],[83.31787,26.0942],[83.31712,26.09219],[83.3182,26.09016],[83.31827,26.08988],[83.31811,26.08945],[83.31217,26.09127],[83.31225,26.09156],[83.31113,26.09195],[83.31047,26.09183],[83.3099,26.09196],[83.30858,26.09265],[83.30735,26.09293],[83.30732,26.09349],[83.30714,26.09358],[83.30757,26.09517],[83.30877,26.0964],[83.30899,26.09687],[83.31017,26.09733]]]}},{"type":"Feature","bbox":[83.29883,26.08895,83.30846,26.09438],"properties":{"ward":4},"geometry":{"type":"Polygon","coordinates":[[[83.30597,26.09392],[83.30732,26.09349],[83.30742,26.09282],[83.30726,26.09206],[83.30846,26.09144],[83.30819,26.09104],[83.30772,26.09122],[83.30684,26.09002],[83.30612,26.08977],[83.30542,26.08895],[83.3026,26.08915],[83.30098,26.08962],[83.30178,26.09131],[83.29909,26.09212],[83.29883,26.09396],[83.29932,26.09399],[83.30159,26.09347],[83.30191,26.09381],[83.30254,26.09355],[83.30269,26.09381],[83.30318,26.09392],[83.30348,26.09381],[83.30602,26.09438],[83.30597,26.09392]]]}},{"type":"Feature","bbox":[83.28576,26.09203,83.29055,26.09558],"properties":{"ward":5},"geometry":{"type":"Polygon","coordinates":[[[83.28699,26.09558],[83.28814,26.09557],[83.29055,26.09483],[83.28993,26.09339],[83.28994,26.09256],[83.28975,26.09203],[83.28894,26.09228],[83.28887,26.09218],[83.28869,26.09236],[83.28595,26.09325],[83.28634,26.09415],[83.28576,26.0944],[83.28658,26.0947],[83.28699,26.09558]]]}},{"type":"Feature","bbox":[83.3115,26.08167,83.31811,26.09056],"properties":{"ward":6},"geometry":{"type":"Polygon","coordinates":[[[83.31811,26.08945],[83.31571,26.08167],[83.3115,26.08244],[83.31209,26.08377],[83.31244,26.08509],[83.31297,26.08607],[83.31295,26.08624],[83.31259,26.08639],[83.31263,26.0866],[83.3135,26.08809],[83.31451,26.09056],[83.31811,26.08945]]]}},{"type":"Feature","bbox":[83.29154,26.08262,83.3012,26.08708],"properties":{"ward":7},"geometry":{"type":"Polygon","coordinates":[[[83.2941,26.08708],[83.29468,26.08681],[83.29479,26.08701],[83.29551,26.08654],[83.2955,26.0864],[83.29601,26.08643],[83.29636,26.08607],[83.29763,26.0857],[83.29761,26.0851],[83.29777,26.08504],[83.29817,26.08599],[83.29952,26.08505],[83.3012,26.08415],[83.30054,26.08262],[83.29829,26.08335],[83.29684,26.08404],[83.29503,26.08447],[83.29489,26.08426],[83.29441,26.08407],[83.29416,26.08414],[83.29392,26.08446],[83.29332,26.08451],[83.29212,26.08493],[83.29194,26.08514],[83.29224,26.08592],[83.29154,26.0862],[83.29194,26.08697],[83.29351,26.08635],[83.29387,26.08656],[83.2941,26.08708]]]}},{"type":"Feature","bbox":[83.29147,26.07996,83.29731,26.08447],"properties":{"ward":8},"geometry":{"type":"Polygon","coordinates":[[[83.29503,26.08447],[83.29731,26.08386],[83.29678,26.0828],[83.29626,26.08235],[83.29325,26.08104],[83.29147,26.07996],[83.29215,26.08149],[83.29383,26.08187],[83.29436,26.08258],[83.29483,26.08359],[83.29417,26.08381],[83.29404,26.08368],[83.29336,26.08384],[83.29354,26.08446],[83.29392,26.08446],[83.29416,26.08414],[83.29441,26.08407],[83.29489,26.08426],[83.29503,26.08447]]]}},{"type":"Feature","bbox":[83.30684,26.08244,83.31451,26.09187],"properties":{"ward":9},"geometry":{"type":"Polygon","coordinates":[[[83.31209,26.08377],[83.3115,26.08244],[83.30933,26.08339],[83.30841,26.08354],[83.307,26.08327],[83.30684,26.0835],[83.30707,26.08397],[83.30784,26.08444],[83.30968,26.08647],[83.31005,26.08699],[83.31016,26.08752],[83.31055,26.08764],[83.31062,26.0879],[83.31084,26.08796],[83.31127,26.09067],[83.31113,26.09132],[83.31121,26.09187],[83.31225,26.09156],[83.31217,26.09127],[83.31451,26.09056],[83.3135,26.08809],[83.31263,26.0866],[83.31259,26.08639],[83.31295,26.08624],[83.31297,26.08607],[83.31244,26.08509],[83.31209,26.08377]]]}},{"type":"Feature","bbox":[83.28483,26.08433,83.28904,26.08819],"properties":{"ward":10},"geometry":{"type":"Polygon","coordinates":[[[83.28703,26.08433],[83.28483,26.08523],[83.28585,26.08781],[83.28684,26.08796],[83.28699,26.08819],[83.28815,26.08766],[83.28904,26.08779],[83.28882,26.08705],[83.28872,26.08689],[83.2885,26.08692],[83.28703,26.08433]]]}},{"type":"Feature","bbox":[83.29026,26.07465,83.31571,26.08386],"properties":{"ward":11},"geometry":{"type":"Polygon","coordinates":[[[83.30061,26.08259],[83.30271,26.08233],[83.3057,26.08281],[83.30706,26.08329],[83.30841,26.08354],[83.30933,26.08339],[83.31093,26.0826],[83.31189,26.08233],[83.31571,26.08167],[83.31526,26.08011],[83.30936,26.08168],[83.30877,26.08034],[83.30421,26.08171],[83.30363,26.0806],[83.3022,26.08099],[83.3016,26.08071],[83.30135,26.08033],[83.30035,26.08053],[83.2997,26.07903],[83.29993,26.07856],[83.29945,26.07812],[83.29847,26.07624],[83.29638,26.0764],[83.29626,26.07574],[83.29567,26.07465],[83.29345,26.07562],[83.29309,26.07592],[83.29321,26.07612],[83.29236,26.0766],[83.29125,26.07669],[83.29026,26.07698],[83.29101,26.07955],[83.29134,26.07987],[83.29279,26.08082],[83.29626,26.08235],[83.29678,26.0828],[83.29731,26.08386],[83.29829,26.08335],[83.30061,26.08259]]]}},{"type":"Feature","bbox":[83.29817,26.08233,83.30877,26.08803],"properties":{"ward":12},"geometry":{"type":"Polygon","coordinates":[[[83.30877,26.08553],[83.30784,26.08444],[83.30701,26.08389],[83.30684,26.0835],[83.307,26.08327],[83.3057,26.08281],[83.30271,26.08233],[83.30054,26.08262],[83.3012,26.08415],[83.29952,26.08505],[83.29817,26.08599],[83.29915,26.08803],[83.30076,26.08734],[83.30094,26.08766],[83.30212,26.08729],[83.30227,26.08741],[83.30284,26.08726],[83.30305,26.0875],[83.30409,26.087],[83.30457,26.08696],[83.30625,26.08636],[83.30754,26.08616],[83.30877,26.08553]]]}},{"type":"Feature","bbox":[83.28603,26.08213,83.29194,26.08779],"properties":{"ward":13},"geometry":{"type":"Polygon","coordinates":[[[83.29154,26.0862],[83.29076,26.08595],[83.2906,26.08536],[83.29002,26.08477],[83.28838,26.08213],[83.2877,26.08266],[83.28603,26.08325],[83.28738,26.0848],[83.2885,26.08692],[83.28872,26.08689],[83.28882,26.08705],[83.28904,26.08779],[83.29004,26.08771],[83.29186,26.08706],[83.29194,26.08697],[83.29154,26.0862]]]}},{"type":"Feature","bbox":[83.28838,26.08006,83.29224,26.0862],"properties":{"ward":14},"geometry":{"type":"Polygon","coordinates":[[[83.29115,26.08006],[83.29022,26.08028],[83.28944,26.08073],[83.28838,26.08213],[83.29002,26.08477],[83.2906,26.08536],[83.29076,26.08595],[83.29154,26.0862],[83.29224,26.08592],[83.29152,26.0841],[83.29115,26.08006]]]}},{"type":"Feature","bbox":[83.28201,26.08781,83.28767,26.09148],"properties":{"ward":15},"geometry":{"type":"Polygon","coordinates":[[[83.28385,26.09148],[83.28767,26.08988],[83.28763,26.0897],[83.28684,26.0884],[83.28706,26.08827],[83.28684,26.08796],[83.28585,26.08781],[83.28201,26.08855],[83.28289,26.09058],[83.28336,26.09052],[83.28385,26.09148]]]}},{"type":"Feature","bbox":[83.30498,26.08553,83.31127,26.09293],"properties":{"ward":16},"geometry":{"type":"Polygon","coordinates":[[[83.30498,26.0868],[83.30603,26.0886],[83.3057,26.08862],[83.30574,26.08874],[83.30544,26.08885],[83.30562,26.08925],[83.30612,26.08977],[83.30684,26.09002],[83.30772,26.09122],[83.30819,26.09104],[83.30846,26.09144],[83.30726,26.09206],[83.30735,26.09293],[83.30858,26.09265],[83.3099,26.09196],[83.31121,26.09187],[83.31113,26.09132],[83.31127,26.09067],[83.31096,26.0882],[83.31055,26.08764],[83.31016,26.08752],[83.30992,26.08677],[83.30877,26.08553],[83.30754,26.08616],[83.30625,26.08636],[83.30498,26.0868]]]}},{"type":"Feature","bbox":[83.28385,26.08975,83.28967,26.09325],"properties":{"ward":17},"geometry":{"type":"Polygon","coordinates":[[[83.28835,26.09238],[83.28967,26.09207],[83.28913,26.09106],[83.28836,26.09121],[83.28855,26.091],[83.28856,26.09028],[83.28805,26.08975],[83.28385,26.09148],[83.28448,26.0928],[83.2849,26.09272],[83.28542,26.09218],[83.28595,26.09325],[83.28835,26.09238]]]}},{"type":"Feature","bbox":[83.29167,26.08935,83.2958,26.09636],"properties":{"ward":18},"geometry":{"type":"Polygon","coordinates":[[[83.29571,26.09568],[83.29498,26.09376],[83.29514,26.09369],[83.29444,26.09236],[83.29551,26.09199],[83.2958,26.09121],[83.29543,26.0913],[83.29501,26.09045],[83.29419,26.09073],[83.29409,26.09041],[83.29426,26.09033],[83.29397,26.08935],[83.29211,26.08993],[83.29167,26.0905],[83.29218,26.0913],[83.29228,26.09231],[83.29279,26.09312],[83.29285,26.0936],[83.29336,26.09473],[83.29317,26.09501],[83.29334,26.09588],[83.29363,26.09576],[83.29397,26.09636],[83.29571,26.09568]]]}},{"type":"Feature","bbox":[83.28071,26.08317,83.28703,26.08845],"properties":{"ward":19},"geometry":{"type":"Polygon","coordinates":[[[83.28071,26.08443],[83.28071,26.0849],[83.28095,26.08558],[83.28234,26.08845],[83.28585,26.08781],[83.28483,26.08523],[83.28703,26.08433],[83.28603,26.08325],[83.28524,26.08335],[83.28442,26.08317],[83.28441,26.08398],[83.28377,26.08412],[83.28259,26.08401],[83.28131,26.08414],[83.28071,26.08443]]]}},{"type":"Feature","bbox":[83.29915,26.0868,83.30603,26.08962],"properties":{"ward":20},"geometry":{"type":"Polygon","coordinates":[[[83.3057,26.08862],[83.30603,26.0886],[83.30498,26.0868],[83.30409,26.087],[83.30305,26.0875],[83.30284,26.08726],[83.30227,26.08741],[83.30212,26.08729],[83.30094,26.08766],[83.30076,26.08734],[83.29915,26.08803],[83.29945,26.0888],[83.30057,26.08856],[83.30098,26.08962],[83.3026,26.08915],[83.30542,26.08895],[83.30574,26.08874],[83.3057,26.08862]]]}},{"type":"Feature","bbox":[83.28684,26.08766,83.29055,26.09121],"properties":{"ward":21},"geometry":{"type":"Polygon","coordinates":[[[83.29055,26.09024],[83.29036,26.08977],[83.29055,26.08977],[83.29023,26.08913],[83.28991,26.08923],[83.28948,26.08784],[83.28815,26.08766],[83.28699,26.08819],[83.28706,26.08827],[83.28684,26.0884],[83.28767,26.08988],[83.28805,26.08975],[83.28856,26.09028],[83.28855,26.091],[83.28836,26.09121],[83.28913,26.09106],[83.28982,26.09064],[83.28972,26.0905],[83.29055,26.09024]]]}},{"type":"Feature","bbox":[83.28913,26.08706,83.29376,26.09207],"properties":{"ward":22},"geometry":{"type":"Polygon","coordinates":[[[83.2906,26.09157],[83.29112,26.09093],[83.29175,26.09067],[83.29167,26.0905],[83.29211,26.08993],[83.29376,26.08941],[83.29312,26.08849],[83.2929,26.08744],[83.29215,26.08783],[83.29186,26.08706],[83.28948,26.08784],[83.28991,26.08923],[83.29023,26.08913],[83.29055,26.08977],[83.29036,26.08977],[83.29055,26.09024],[83.28972,26.0905],[83.28982,26.09064],[83.28913,26.09106],[83.28967,26.09207],[83.2906,26.09157]]]}},{"type":"Feature","bbox":[83.28975,26.09067,83.29305,26.09483],"properties":{"ward":23},"geometry":{"type":"Polygon","coordinates":[[[83.29305,26.09408],[83.29279,26.09312],[83.29228,26.09231],[83.29218,26.0913],[83.29175,26.09067],[83.29112,26.09093],[83.29114,26.09116],[83.28975,26.09203],[83.28994,26.09256],[83.28993,26.09339],[83.29055,26.09483],[83.29176,26.09437],[83.29185,26.09458],[83.29305,26.09408]]]}},{"type":"Feature","bbox":[83.28667,26.09408,83.29379,26.09869],"properties":{"ward":24},"geometry":{"type":"Polygon","coordinates":[[[83.29379,26.09602],[83.29363,26.09576],[83.29334,26.09588],[83.29317,26.09501],[83.29336,26.09473],[83.29305,26.09408],[83.29185,26.09458],[83.29176,26.09437],[83.28955,26.09522],[83.28814,26.09557],[83.28727,26.09549],[83.28667,26.09573],[83.28715,26.09762],[83.28767,26.09768],[83.28788,26.09794],[83.28774,26.09869],[83.29379,26.09602]]]}},{"type":"Feature","bbox":[83.29186,26.08504,83.29915,26.08941],"properties":{"ward":25},"geometry":{"type":"Polygon","coordinates":[[[83.29376,26.08941],[83.29915,26.08803],[83.29777,26.08504],[83.29761,26.0851],[83.29763,26.0857],[83.29636,26.08607],[83.29601,26.08643],[83.2955,26.0864],[83.29551,26.08654],[83.29479,26.08701],[83.29468,26.08681],[83.2941,26.08708],[83.29387,26.08656],[83.29351,26.08635],[83.29186,26.08706],[83.29215,26.08783],[83.2929,26.08744],[83.29312,26.08849],[83.29376,26.08941]]]}}]}