{"type":"FeatureCollection","features":[{"type":"Feature","bbox":[83.862,27.17196,83.87056,27.1798],"properties":{"ward":1,"name":"Ambedkar Nagar"},"geometry":{"type":"Polygon","coordinates":[[[83.86751,27.17729],[83.86751,27.17653],[83.86841,27.17647],[83.86845,27.17574],[83.86885,27.1757],[83.86992,27.1749],[83.86995,27.17464],[83.87056,27.17409],[83.87028,27.17355],[83.86933,27.17339],[83.86919,27.17307],[83.8688,27.17315],[83.8686,27.17268],[83.86844,27.17269],[83.86832,27.17212],[83.86801,27.17217],[83.86796,27.17196],[83.86733,27.17214],[83.86738,27.17288],[83.86751,27.17318],[83.86776,27.17322],[83.8675,27.1734],[83.86773,27.17338],[83.8678,27.17385],[83.86753,27.17409],[83.86674,27.17635],[83.86612,27.17671],[83.86614,27.1771],[83.86563,27.17722],[83.86568,27.17743],[83.86462,27.17766],[83.86458,27.1779],[83.86429,27.17796],[83.86439,27.17847],[83.86377,27.17861],[83.86378,27.1788],[83.862,27.17917],[83.86217,27.1798],[83.86621,27.17889],[83.86833,27.17874],[83.86827,27.17809],[83.86846,27.17759],[83.86751,27.17729]]]}},{"type":"Feature","bbox":[83.86777,27.17891,83.87193,27.1828],"properties":{"ward":2,"name":"Gandhi Nagar"},"geometry":{"type":"Polygon","coordinates":[[[83.87193,27.18199],[83.87093,27.1796],[83.87037,27.17903],[83.86978,27.17891],[83.86884,27.17956],[83.86819,27.17978],[83.86836,27.18089],[83.86777,27.18114],[83.86818,27.1828],[83.87193,27.18199]]]}},{"type":"Feature","bbox":[83.87378,27.18009,83.88062,27.18825],"properties":{"ward":3,"name":"Lohiya Nagar"},"geometry":{"type":"Polygon","coordinates":[[[83.87378,27.18825],[83.87484,27.18798],[83.87649,27.18703],[83.87754,27.1853],[83.87795,27.18399],[83.87817,27.18264],[83.87902,27.18165],[83.88062,27.18073],[83.88051,27.18009],[83.87466,27.1814],[83.87511,27.18205],[83.87645,27.18248],[83.87666,27.18358],[83.87584,27.18506],[83.87453,27.18621],[83.87395,27.1874],[83.87378,27.18825]]]}},{"type":"Feature","bbox":[83.86751,27.17647,83.86971,27.17978],"properties":{"ward":4,"name":"Aazad Nagar"},"geometry":{"type":"Polygon","coordinates":[[[83.86971,27.17903],[83.86941,27.1787],[83.86909,27.17694],[83.86859,27.17674],[83.86841,27.17647],[83.86751,27.17653],[83.86751,27.17729],[83.86846,27.17759],[83.86827,27.17809],[83.86834,27.17881],[83.86819,27.17978],[83.86884,27.17956],[83.86971,27.17903]]]}},{"type":"Feature","bbox":[83.87048,27.17893,83.87466,27.18199],"properties":{"ward":5,"name":"Subhash Nagar"},"geometry":{"type":"Polygon","coordinates":[[[83.87304,27.17893],[83.87048,27.1791],[83.87116,27.18001],[83.87193,27.18199],[83.87466,27.1814],[83.87396,27.1795],[83.87355,27.17942],[83.87304,27.17893]]]}},{"type":"Feature","bbox":[83.86217,27.17874,83.86836,27.18389],"properties":{"ward":6,"name":"Civil Line"},"geometry":{"type":"Polygon","coordinates":[[[83.86621,27.17889],[83.86217,27.1798],[83.86316,27.18389],[83.86818,27.1828],[83.86777,27.18114],[83.86836,27.18089],[83.86815,27.17972],[83.86833,27.17874],[83.86621,27.17889]]]}},{"type":"Feature","bbox":[83.86316,27.1814,83.8766,27.18832],"properties":{"ward":7,"name":"Patel Nagar"},"geometry":{"type":"Polygon","coordinates":[[[83.8685,27.18604],[83.87108,27.1875],[83.87345,27.18832],[83.87378,27.18825],[83.87395,27.1874],[83.87453,27.18621],[83.87565,27.18528],[83.8766,27.18381],[83.87653,27.18258],[83.87625,27.18237],[83.87511,27.18205],[83.87466,27.1814],[83.86316,27.18389],[83.86319,27.18401],[83.86624,27.18506],[83.8685,27.18604]]]}},{"type":"Feature","bbox":[83.86901,27.17655,83.8712,27.17889],"properties":{"ward":8,"name":"Indira Nagar"},"geometry":{"type":"Polygon","coordinates":[[[83.87075,27.17725],[83.8712,27.17716],[83.87067,27.17655],[83.87045,27.17668],[83.86933,27.17657],[83.86901,27.17688],[83.8692,27.17713],[83.86941,27.1787],[83.86962,27.17889],[83.8711,27.17831],[83.87075,27.17725]]]}},{"type":"Feature","bbox":[83.86978,27.17811,83.87396,27.1795],"properties":{"ward":9,"name":"Shivaji Nagar"},"geometry":{"type":"Polygon","coordinates":[[[83.86978,27.17891],[83.87141,27.17911],[83.87277,27.17887],[83.87316,27.17901],[83.87355,27.17942],[83.87396,27.1795],[83.87346,27.17811],[83.87088,27.17837],[83.86978,27.17891]]]}},{"type":"Feature","bbox":[83.87067,27.17624,83.87346,27.17831],"properties":{"ward":10,"name":"Shastri Nagar"},"geometry":{"type":"Polygon","coordinates":[[[83.8711,27.17831],[83.87346,27.17811],[83.87279,27.17624],[83.87148,27.17657],[83.87105,27.17636],[83.87067,27.17655],[83.8712,27.17716],[83.87071,27.17731],[83.8711,27.17831]]]}},{"type":"Feature","bbox":[83.87148,27.17435,83.88051,27.1814],"properties":{"ward":11,"name":"Neharu Nagar"},"geometry":{"type":"Polygon","coordinates":[[[83.88051,27.18009],[83.87961,27.17671],[83.87918,27.17665],[83.87773,27.17582],[83.87766,27.17553],[83.87725,27.17556],[83.87487,27.17449],[83.87452,27.17455],[83.87442,27.17435],[83.87247,27.17501],[83.87213,27.17451],[83.87176,27.17467],[83.87148,27.17505],[83.8726,27.17571],[83.87466,27.1814],[83.88051,27.18009]]]}},{"type":"Feature","bbox":[83.86841,27.17399,83.87279,27.17688],"properties":{"ward":12,"name":"Swami Vivakanand Nagar"},"geometry":{"type":"Polygon","coordinates":[[[83.87023,27.17667],[83.87105,27.17636],[83.87148,27.17657],[83.87279,27.17624],[83.8726,27.17571],[83.87148,27.17505],[83.87176,27.17467],[83.87213,27.17451],[83.87207,27.17411],[83.87147,27.17423],[83.87143,27.17408],[83.87103,27.17414],[83.87099,27.17399],[83.87056,27.17409],[83.86995,27.17464],[83.86992,27.1749],[83.86885,27.1757],[83.86845,27.17574],[83.86841,27.17647],[83.86859,27.17674],[83.86901,27.17688],[83.86933,27.17657],[83.87023,27.17667]]]}}]}