{"type":"FeatureCollection","features":[{"type":"Feature","bbox":[83.93935,26.75204,83.97575,26.78308],"properties":{"ward":1},"geometry":{"type":"Polygon","coordinates":[[[83.96481,26.78308],[83.97055,26.78165],[83.97109,26.78003],[83.97366,26.77409],[83.97515,26.77113],[83.97567,26.7698],[83.97575,26.76889],[83.96917,26.76796],[83.96861,26.76563],[83.9656,26.76568],[83.9638,26.76542],[83.96303,26.76435],[83.96299,26.76376],[83.96268,26.76293],[83.96091,26.76326],[83.95995,26.76322],[83.95951,26.76281],[83.95897,26.76117],[83.95899,26.75765],[83.958,26.75562],[83.95765,26.75544],[83.95498,26.7544],[83.94642,26.75308],[83.94626,26.75204],[83.94421,26.75218],[83.94405,26.75332],[83.94074,26.75402],[83.93935,26.75409],[83.93941,26.75453],[83.94063,26.75708],[83.94741,26.75661],[83.95451,26.75941],[83.95405,26.75991],[83.95352,26.76192],[83.95403,26.76349],[83.95488,26.76481],[83.95516,26.76638],[83.9549,26.76877],[83.95393,26.77242],[83.95347,26.77312],[83.95649,26.77358],[83.95809,26.77358],[83.95917,26.77403],[83.9598,26.77515],[83.96032,26.77673],[83.96149,26.78299],[83.96402,26.78247],[83.96481,26.78308]]]}},{"type":"Feature","bbox":[83.96315,26.71264,84.00277,26.7319],"properties":{"ward":2},"geometry":{"type":"Polygon","coordinates":[[[83.99831,26.72522],[83.99863,26.72468],[83.99754,26.72313],[83.99764,26.72247],[83.9986,26.72179],[83.99966,26.72141],[84.0002,26.72072],[84.00012,26.72],[84.00119,26.71897],[84.00145,26.71907],[84.00141,26.71964],[84.00182,26.72004],[84.00237,26.72034],[84.00276,26.72025],[84.00277,26.7185],[83.98995,26.71507],[83.98902,26.71457],[83.98724,26.71503],[83.9841,26.71614],[83.97835,26.71918],[83.97408,26.7166],[83.96935,26.71478],[83.96824,26.71264],[83.96315,26.71568],[83.96336,26.71614],[83.96509,26.71559],[83.96606,26.71611],[83.96681,26.7169],[83.96696,26.71808],[83.96775,26.71891],[83.96923,26.71972],[83.97029,26.72064],[83.97161,26.72098],[83.97223,26.72142],[83.97265,26.72234],[83.97293,26.72389],[83.97288,26.72433],[83.97315,26.72512],[83.9751,26.72473],[83.97538,26.72477],[83.97589,26.72527],[83.97827,26.72489],[83.9795,26.72498],[83.98042,26.72716],[83.98,26.72809],[83.97999,26.7285],[83.98085,26.73075],[83.98337,26.73163],[83.9864,26.7319],[83.98842,26.7319],[83.99577,26.73041],[83.99757,26.72956],[83.99804,26.7288],[83.99796,26.72785],[83.99745,26.72731],[83.99734,26.72687],[83.99749,26.72591],[83.99831,26.72522]]]}},{"type":"Feature","bbox":[83.96198,26.7382,83.98492,26.75939],"properties":{"ward":3},"geometry":{"type":"Polygon","coordinates":[[[83.96198,26.74954],[83.96417,26.75704],[83.96782,26.75823],[83.97024,26.75823],[83.97382,26.75781],[83.97731,26.75719],[83.9812,26.75939],[83.98182,26.75859],[83.98346,26.75749],[83.98492,26.75507],[83.97682,26.7382],[83.97458,26.73993],[83.97253,26.74111],[83.96753,26.74462],[83.96198,26.74954]]]}},{"type":"Feature","bbox":[83.91924,26.73094,83.96052,26.75441],"properties":{"ward":4},"geometry":{"type":"Polygon","coordinates":[[[83.95332,26.75253],[83.95391,26.75091],[83.95682,26.74773],[83.95718,26.74677],[83.95837,26.74571],[83.96052,26.74454],[83.95967,26.74401],[83.95897,26.74301],[83.95703,26.73806],[83.94979,26.73749],[83.94621,26.73751],[83.94534,26.73524],[83.94416,26.73323],[83.94336,26.73099],[83.94323,26.73094],[83.93966,26.73327],[83.93711,26.73529],[83.92822,26.73922],[83.92542,26.7396],[83.91924,26.73857],[83.91973,26.73994],[83.91964,26.74046],[83.92015,26.74263],[83.92058,26.74247],[83.92208,26.74891],[83.92371,26.74863],[83.92407,26.75103],[83.93513,26.75343],[83.93887,26.75408],[83.94074,26.75402],[83.94405,26.75332],[83.94421,26.75218],[83.94626,26.75204],[83.94642,26.75308],[83.95498,26.75441],[83.95332,26.75253]]]}},{"type":"Feature","bbox":[83.92025,26.77196,83.94026,26.79816],"properties":{"ward":5},"geometry":{"type":"Polygon","coordinates":[[[83.93707,26.78096],[83.93373,26.77196],[83.92503,26.77519],[83.92238,26.77599],[83.92025,26.77644],[83.92108,26.78194],[83.92298,26.79121],[83.92165,26.79276],[83.92134,26.79484],[83.92115,26.79816],[83.92348,26.79777],[83.92536,26.79365],[83.92839,26.7893],[83.93095,26.78824],[83.93374,26.78739],[83.94026,26.7872],[83.93707,26.78096]]]}},{"type":"Feature","bbox":[83.84848,26.73487,83.88053,26.75523],"properties":{"ward":6},"geometry":{"type":"Polygon","coordinates":[[[83.86825,26.73774],[83.86974,26.74281],[83.86825,26.74388],[83.865,26.74742],[83.86416,26.74662],[83.85846,26.74785],[83.85729,26.75069],[83.84944,26.75069],[83.84848,26.75227],[83.85692,26.75523],[83.86548,26.75513],[83.87606,26.75026],[83.87538,26.74871],[83.87954,26.74721],[83.88032,26.74717],[83.88053,26.74669],[83.8803,26.7462],[83.88046,26.74607],[83.88005,26.74457],[83.88008,26.74396],[83.87967,26.7435],[83.87949,26.74279],[83.8757,26.74169],[83.87467,26.74159],[83.8744,26.74091],[83.87466,26.74039],[83.87534,26.73997],[83.87567,26.73951],[83.8782,26.73773],[83.87795,26.73719],[83.87848,26.7367],[83.8786,26.73618],[83.87848,26.7356],[83.87816,26.73514],[83.87786,26.73508],[83.87774,26.73487],[83.86866,26.73679],[83.86825,26.73774]]]}},{"type":"Feature","bbox":[83.96824,26.69932,84.00394,26.71918],"properties":{"ward":7},"geometry":{"type":"Polygon","coordinates":[[[83.98724,26.71503],[83.98902,26.71457],[83.98995,26.71507],[84.00273,26.7185],[84.00279,26.71769],[84.00142,26.71711],[84.00125,26.71631],[84.00171,26.71592],[84.00224,26.71587],[84.00338,26.7161],[84.00394,26.71561],[84.00385,26.7152],[84.00305,26.71461],[84.00285,26.7141],[84.00327,26.7132],[84.0032,26.71284],[84.0024,26.71314],[84.00187,26.713],[84.00176,26.71247],[84.00191,26.71191],[84.00235,26.71182],[84.00281,26.71119],[84.00212,26.71062],[84.00173,26.71],[84.00195,26.70948],[84.00187,26.70854],[84.00101,26.70709],[83.99889,26.70709],[83.99784,26.70737],[83.99736,26.70655],[83.99614,26.70602],[83.99506,26.70596],[83.99455,26.70544],[83.99387,26.70261],[83.99371,26.7012],[83.99297,26.7003],[83.99182,26.70005],[83.98958,26.70099],[83.98824,26.69977],[83.98697,26.69932],[83.98446,26.70003],[83.98234,26.69943],[83.97281,26.70731],[83.97375,26.70881],[83.97109,26.71079],[83.96824,26.71264],[83.96935,26.71478],[83.97408,26.7166],[83.97835,26.71918],[83.9841,26.71614],[83.98724,26.71503]]]}},{"type":"Feature","bbox":[83.95329,26.74454,83.98092,26.76889],"properties":{"ward":8},"geometry":{"type":"Polygon","coordinates":[[[83.97763,26.76719],[83.97838,26.7655],[83.9803,26.7643],[83.98092,26.75923],[83.97731,26.75719],[83.97382,26.75781],[83.97024,26.75823],[83.96782,26.75823],[83.96417,26.75704],[83.96052,26.74454],[83.95837,26.74571],[83.95718,26.74677],[83.95682,26.74773],[83.95391,26.75091],[83.95329,26.75262],[83.95498,26.7544],[83.958,26.75562],[83.95899,26.75765],[83.95897,26.76117],[83.95951,26.76281],[83.95995,26.76322],[83.96091,26.76326],[83.96268,26.76293],[83.96299,26.76376],[83.96303,26.76435],[83.9638,26.76542],[83.9656,26.76568],[83.96861,26.76563],[83.96917,26.76796],[83.97575,26.76889],[83.97763,26.76719]]]}},{"type":"Feature","bbox":[83.89271,26.75173,83.9104,26.76972],"properties":{"ward":9},"geometry":{"type":"Polygon","coordinates":[[[83.89721,26.76705],[83.90143,26.76543],[83.90403,26.76469],[83.90524,26.76378],[83.90664,26.7643],[83.9061,26.76266],[83.90625,26.76181],[83.90978,26.76105],[83.9104,26.75967],[83.90851,26.76032],[83.90795,26.75827],[83.90649,26.75858],[83.9062,26.75819],[83.90577,26.75701],[83.90487,26.75703],[83.90458,26.75647],[83.9021,26.7566],[83.9014,26.7545],[83.90114,26.75184],[83.8987,26.75237],[83.8979,26.75173],[83.89546,26.75222],[83.89541,26.7602],[83.89271,26.76754],[83.89279,26.76972],[83.89721,26.76705]]]}},{"type":"Feature","bbox":[83.94299,26.69756,83.98234,26.73811],"properties":{"ward":10},"geometry":{"type":"Polygon","coordinates":[[[83.96315,26.71568],[83.97109,26.71079],[83.97375,26.70881],[83.97281,26.70731],[83.98234,26.69943],[83.9804,26.69756],[83.97968,26.69776],[83.97088,26.70353],[83.96949,26.70398],[83.9661,26.7056],[83.96283,26.70645],[83.96304,26.7082],[83.96279,26.70912],[83.95942,26.70937],[83.95814,26.70904],[83.95648,26.70955],[83.95609,26.70898],[83.95545,26.709],[83.95452,26.70873],[83.9477,26.71033],[83.94765,26.71091],[83.94805,26.71218],[83.94916,26.71324],[83.95117,26.7163],[83.94568,26.71849],[83.94299,26.7192],[83.94363,26.72248],[83.94481,26.72544],[83.94535,26.72926],[83.9434,26.73108],[83.94416,26.73323],[83.94534,26.73524],[83.94621,26.73751],[83.94979,26.73749],[83.95675,26.73811],[83.9573,26.73802],[83.96183,26.73632],[83.96222,26.73594],[83.96329,26.73577],[83.96366,26.7351],[83.96447,26.73504],[83.96534,26.73384],[83.9654,26.73351],[83.96508,26.73304],[83.96512,26.73256],[83.96585,26.73226],[83.96606,26.73189],[83.96709,26.73129],[83.96731,26.73123],[83.96772,26.73143],[83.96793,26.73074],[83.96842,26.73091],[83.97017,26.73083],[83.97067,26.73121],[83.97149,26.73112],[83.97253,26.72997],[83.97268,26.72938],[83.97226,26.72837],[83.97248,26.72734],[83.9724,26.72657],[83.97261,26.72593],[83.97316,26.72517],[83.97288,26.72433],[83.97293,26.72389],[83.97245,26.72167],[83.97161,26.72098],[83.97029,26.72064],[83.96923,26.71972],[83.96775,26.71891],[83.96696,26.71808],[83.96681,26.7169],[83.96606,26.71611],[83.96509,26.71559],[83.96336,26.71614],[83.96315,26.71568]]]}},{"type":"Feature","bbox":[83.90596,26.6974,83.93883,26.72729],"properties":{"ward":11},"geometry":{"type":"Polygon","coordinates":[[[83.93812,26.7161],[83.93656,26.7139],[83.93602,26.71251],[83.9352,26.71222],[83.93413,26.71065],[83.93378,26.70896],[83.93027,26.70943],[83.92972,26.70826],[83.92759,26.70875],[83.92686,26.70366],[83.92609,26.70063],[83.92365,26.70068],[83.92104,26.70095],[83.91574,26.70291],[83.91399,26.70305],[83.91302,26.70233],[83.91249,26.7012],[83.91049,26.70046],[83.91039,26.70008],[83.90941,26.70009],[83.90866,26.69877],[83.90833,26.6974],[83.90641,26.69799],[83.90598,26.70396],[83.90623,26.70747],[83.90596,26.70991],[83.91676,26.71613],[83.91777,26.7161],[83.92083,26.71661],[83.92624,26.71686],[83.92628,26.7233],[83.92559,26.72512],[83.92554,26.72579],[83.92584,26.72648],[83.92541,26.72729],[83.92865,26.72601],[83.92977,26.725],[83.93285,26.72089],[83.93883,26.71941],[83.93849,26.71824],[83.93876,26.71798],[83.93812,26.7161]]]}},{"type":"Feature","bbox":[83.89721,26.7528,83.91767,26.77094],"properties":{"ward":12},"geometry":{"type":"Polygon","coordinates":[[[83.91741,26.76579],[83.91579,26.76309],[83.91533,26.76087],[83.91496,26.75744],[83.91108,26.75816],[83.91238,26.75421],[83.90905,26.75446],[83.9088,26.75479],[83.90723,26.75514],[83.9069,26.7528],[83.9021,26.7566],[83.90458,26.75647],[83.90487,26.75703],[83.90577,26.75701],[83.9062,26.75819],[83.90649,26.75858],[83.90795,26.75827],[83.90851,26.76032],[83.9104,26.75967],[83.90978,26.76105],[83.90625,26.76181],[83.9061,26.76266],[83.90664,26.7643],[83.90524,26.76378],[83.90403,26.76469],[83.90143,26.76543],[83.89721,26.76705],[83.89727,26.77094],[83.90318,26.77076],[83.90955,26.76857],[83.91767,26.76663],[83.91741,26.76579]]]}},{"type":"Feature","bbox":[83.89585,26.73947,83.91697,26.74715],"properties":{"ward":13},"geometry":{"type":"Polygon","coordinates":[[[83.91365,26.74669],[83.91594,26.74655],[83.91697,26.74459],[83.91682,26.74397],[83.91487,26.73947],[83.8967,26.74538],[83.89659,26.74587],[83.89616,26.74604],[83.89585,26.7464],[83.90978,26.74489],[83.91006,26.74604],[83.91066,26.74594],[83.91086,26.74675],[83.91179,26.7466],[83.91195,26.74715],[83.91365,26.74669]]]}},{"type":"Feature","bbox":[83.88895,26.7745,83.90841,26.79124],"properties":{"ward":14},"geometry":{"type":"Polygon","coordinates":[[[83.90841,26.78636],[83.90317,26.78134],[83.90072,26.7745],[83.89929,26.77497],[83.89937,26.77532],[83.89653,26.77582],[83.89655,26.77593],[83.89437,26.77667],[83.89302,26.7769],[83.8929,26.77712],[83.89186,26.77732],[83.89186,26.77706],[83.89022,26.77763],[83.89019,26.77753],[83.88966,26.77769],[83.88974,26.77782],[83.88895,26.77804],[83.88951,26.77947],[83.88974,26.78211],[83.89188,26.78132],[83.8918,26.78226],[83.89243,26.78294],[83.89408,26.78363],[83.89402,26.78372],[83.89495,26.78327],[83.89565,26.78363],[83.89595,26.78438],[83.89627,26.78472],[83.89761,26.79124],[83.90841,26.78636]]]}},{"type":"Feature","bbox":[83.8967,26.7242,83.93369,26.74538],"properties":{"ward":15},"geometry":{"type":"Polygon","coordinates":[[[83.91239,26.72718],[83.91007,26.72716],[83.90889,26.73434],[83.90638,26.7353],[83.90426,26.73697],[83.90393,26.73777],[83.90426,26.73916],[83.90388,26.73947],[83.90396,26.73998],[83.90429,26.74037],[83.90415,26.74105],[83.90381,26.74133],[83.9029,26.7414],[83.90231,26.74173],[83.90097,26.74199],[83.8994,26.74311],[83.89837,26.74326],[83.89771,26.74377],[83.8977,26.74421],[83.89691,26.74465],[83.8967,26.74538],[83.91724,26.73873],[83.91872,26.73855],[83.91993,26.73859],[83.92542,26.7396],[83.92822,26.73922],[83.93369,26.73681],[83.9335,26.73562],[83.93071,26.73287],[83.92821,26.73307],[83.92518,26.73388],[83.92483,26.73283],[83.92575,26.73257],[83.92497,26.73034],[83.91975,26.73158],[83.91983,26.73088],[83.91801,26.72912],[83.91798,26.72864],[83.91632,26.72898],[83.91594,26.72742],[83.9158,26.72451],[83.91533,26.7242],[83.91347,26.72458],[83.91173,26.7245],[83.91202,26.72559],[83.91183,26.72633],[83.91253,26.72663],[83.91258,26.72691],[83.91239,26.72718]]]}},{"type":"Feature","bbox":[83.92402,26.71039,83.95117,26.73681],"properties":{"ward":16},"geometry":{"type":"Polygon","coordinates":[[[83.93966,26.73327],[83.94323,26.73094],[83.9434,26.73108],[83.94535,26.72926],[83.94481,26.72544],[83.94363,26.72248],[83.94299,26.7192],[83.94568,26.71849],[83.95117,26.7163],[83.94916,26.71324],[83.94805,26.71218],[83.94759,26.71039],[83.93647,26.71361],[83.93812,26.7161],[83.93857,26.71714],[83.93876,26.71798],[83.93849,26.71824],[83.93883,26.71941],[83.93285,26.72089],[83.92977,26.725],[83.92865,26.72601],[83.92541,26.72729],[83.92402,26.73051],[83.92497,26.73034],[83.92575,26.73257],[83.92483,26.73283],[83.92518,26.73388],[83.92821,26.73307],[83.93071,26.73287],[83.9335,26.73562],[83.93369,26.73681],[83.93711,26.73529],[83.93966,26.73327]]]}},{"type":"Feature","bbox":[83.91769,26.75667,83.96149,26.78756],"properties":{"ward":17},"geometry":{"type":"Polygon","coordinates":[[[83.9474,26.75667],[83.94662,26.76123],[83.9361,26.7607],[83.9274,26.76003],[83.92734,26.76358],[83.92612,26.76376],[83.9254,26.76172],[83.92014,26.76308],[83.92027,26.76437],[83.91955,26.76487],[83.91948,26.76608],[83.91815,26.7667],[83.91769,26.76668],[83.92025,26.77644],[83.92238,26.77599],[83.92503,26.77519],[83.93373,26.77196],[83.93707,26.78096],[83.94026,26.7872],[83.94311,26.78756],[83.95125,26.78623],[83.95443,26.78445],[83.96149,26.78299],[83.96032,26.77673],[83.9598,26.77515],[83.95917,26.77403],[83.95809,26.77358],[83.95649,26.77358],[83.95347,26.77312],[83.95393,26.77242],[83.9549,26.76877],[83.95516,26.76638],[83.95488,26.76481],[83.95403,26.76349],[83.95352,26.76192],[83.95405,26.75991],[83.95451,26.75941],[83.9474,26.75667]]]}},{"type":"Feature","bbox":[83.91377,26.74863,83.9474,26.7667],"properties":{"ward":18},"geometry":{"type":"Polygon","coordinates":[[[83.9474,26.75667],[83.94063,26.75708],[83.93941,26.75453],[83.93935,26.75409],[83.93513,26.75343],[83.92407,26.75103],[83.92371,26.74863],[83.92208,26.74891],[83.92211,26.74908],[83.92068,26.74922],[83.92056,26.75061],[83.91442,26.74991],[83.91424,26.75178],[83.91475,26.75552],[83.91377,26.75565],[83.91424,26.75699],[83.9149,26.75689],[83.91533,26.76087],[83.91579,26.76309],[83.91741,26.76579],[83.91769,26.76668],[83.91815,26.7667],[83.91948,26.76608],[83.91955,26.76487],[83.92027,26.76437],[83.92014,26.76308],[83.9254,26.76172],[83.92612,26.76376],[83.92734,26.76358],[83.9274,26.76003],[83.9361,26.7607],[83.94662,26.76123],[83.9474,26.75667]]]}},{"type":"Feature","bbox":[83.87299,26.71901,83.90147,26.74236],"properties":{"ward":19},"geometry":{"type":"Polygon","coordinates":[[[83.87983,26.74166],[83.88059,26.74161],[83.88025,26.74125],[83.88131,26.7408],[83.88259,26.74061],[83.88277,26.74072],[83.88348,26.74048],[83.88476,26.74154],[83.88811,26.73525],[83.89223,26.73225],[83.89318,26.73135],[83.89348,26.73038],[83.89311,26.72887],[83.89322,26.72599],[83.89791,26.7255],[83.90116,26.72551],[83.90147,26.72449],[83.90133,26.7233],[83.90095,26.72208],[83.90035,26.72209],[83.89943,26.72167],[83.89845,26.72084],[83.89797,26.72017],[83.89827,26.71901],[83.88476,26.71968],[83.87927,26.72054],[83.87736,26.71976],[83.87551,26.71941],[83.87477,26.7196],[83.87418,26.72015],[83.87323,26.72161],[83.87299,26.72257],[83.87317,26.72496],[83.87581,26.73056],[83.87606,26.73157],[83.87754,26.73363],[83.87778,26.73503],[83.87822,26.73521],[83.8786,26.73618],[83.87848,26.7367],[83.87795,26.73719],[83.8782,26.73773],[83.87567,26.73951],[83.87534,26.73997],[83.87466,26.74039],[83.8744,26.74091],[83.87467,26.74159],[83.8757,26.74169],[83.878,26.74236],[83.87983,26.74166]]]}},{"type":"Feature","bbox":[83.88512,26.71904,83.91032,26.74084],"properties":{"ward":20},"geometry":{"type":"Polygon","coordinates":[[[83.91032,26.72717],[83.90826,26.72167],[83.89836,26.71904],[83.89797,26.72017],[83.89845,26.72084],[83.89943,26.72167],[83.90035,26.72209],[83.90095,26.72208],[83.90133,26.7233],[83.90147,26.72449],[83.90116,26.72551],[83.89791,26.7255],[83.89322,26.72599],[83.89311,26.72887],[83.89348,26.73038],[83.89318,26.73135],[83.89223,26.73225],[83.88811,26.73525],[83.88512,26.74084],[83.88638,26.74015],[83.88849,26.73938],[83.88818,26.73786],[83.8887,26.73761],[83.89339,26.73782],[83.9035,26.73639],[83.90429,26.73695],[83.90638,26.7353],[83.90889,26.73434],[83.91007,26.72716],[83.91032,26.72717]]]}},{"type":"Feature","bbox":[83.87538,26.73639,83.90429,26.7553],"properties":{"ward":21},"geometry":{"type":"Polygon","coordinates":[[[83.88103,26.7553],[83.88193,26.755],[83.8827,26.75515],[83.88318,26.75491],[83.88435,26.7548],[83.88551,26.75448],[83.88622,26.75364],[83.88689,26.75334],[83.88794,26.75317],[83.89121,26.75113],[83.89398,26.75129],[83.89549,26.75222],[83.89801,26.75171],[83.89737,26.74955],[83.89684,26.74667],[83.89584,26.74641],[83.89616,26.74604],[83.89659,26.74587],[83.89691,26.74465],[83.8977,26.74421],[83.89771,26.74377],[83.89802,26.74347],[83.89837,26.74326],[83.8994,26.74311],[83.90097,26.74199],[83.90231,26.74173],[83.9029,26.7414],[83.90381,26.74133],[83.90415,26.74105],[83.90429,26.74037],[83.90396,26.73998],[83.90388,26.73947],[83.90426,26.73916],[83.90393,26.73777],[83.90429,26.73695],[83.9035,26.73639],[83.89339,26.73782],[83.8887,26.73761],[83.88818,26.73786],[83.88849,26.73938],[83.88638,26.74015],[83.8852,26.7408],[83.88476,26.74154],[83.88348,26.74048],[83.88277,26.74072],[83.88259,26.74061],[83.88131,26.7408],[83.88025,26.74125],[83.88059,26.74161],[83.87979,26.74166],[83.87805,26.7423],[83.87949,26.74279],[83.87967,26.7435],[83.88008,26.74396],[83.88005,26.74457],[83.88033,26.74531],[83.88046,26.74607],[83.8803,26.7462],[83.88048,26.74686],[83.88032,26.74717],[83.87954,26.74721],[83.87538,26.74871],[83.87591,26.75003],[83.87662,26.75125],[83.87673,26.75167],[83.87653,26.75215],[83.87684,26.75256],[83.87744,26.75249],[83.87829,26.7536],[83.87939,26.7538],[83.88103,26.7553]]]}},{"type":"Feature","bbox":[83.89543,26.70525,83.92628,26.73158],"properties":{"ward":22},"geometry":{"type":"Polygon","coordinates":[[[83.92402,26.73051],[83.92584,26.72648],[83.92554,26.72579],[83.92559,26.72512],[83.92628,26.7233],[83.92624,26.71686],[83.92083,26.71661],[83.91777,26.7161],[83.91676,26.71613],[83.90596,26.70991],[83.90623,26.70747],[83.90605,26.70525],[83.89994,26.7059],[83.89543,26.70874],[83.89727,26.71089],[83.89758,26.71458],[83.89838,26.71912],[83.90826,26.72167],[83.91032,26.72713],[83.91239,26.72718],[83.91258,26.72691],[83.91253,26.72663],[83.91183,26.72633],[83.91202,26.72559],[83.91173,26.7245],[83.91347,26.72458],[83.91533,26.7242],[83.9158,26.72451],[83.91594,26.72742],[83.91632,26.72898],[83.91798,26.72864],[83.91801,26.72912],[83.91983,26.73088],[83.91975,26.73158],[83.92402,26.73051]]]}},{"type":"Feature","bbox":[83.87684,26.75113,83.89549,26.77048],"properties":{"ward":23},"geometry":{"type":"Polygon","coordinates":[[[83.88096,26.77048],[83.89082,26.76813],[83.88997,26.76744],[83.8935,26.76541],[83.89541,26.7602],[83.89549,26.75222],[83.89398,26.75129],[83.89121,26.75113],[83.88794,26.75317],[83.88689,26.75334],[83.88622,26.75364],[83.88551,26.75448],[83.88435,26.7548],[83.88318,26.75491],[83.8827,26.75515],[83.88193,26.755],[83.88103,26.7553],[83.87939,26.7538],[83.87829,26.7536],[83.87744,26.75249],[83.87684,26.75256],[83.87715,26.75307],[83.87812,26.75637],[83.87858,26.75696],[83.87951,26.75881],[83.87961,26.76134],[83.87985,26.76265],[83.87978,26.76313],[83.87919,26.76419],[83.87747,26.76454],[83.87729,26.76698],[83.87762,26.76875],[83.88009,26.76848],[83.88044,26.7691],[83.88068,26.77017],[83.88096,26.77048]]]}},{"type":"Feature","bbox":[83.91442,26.73857,83.92211,26.75061],"properties":{"ward":24},"geometry":{"type":"Polygon","coordinates":[[[83.92211,26.74908],[83.92058,26.74247],[83.92015,26.74263],[83.91964,26.74046],[83.91973,26.73994],[83.91924,26.73857],[83.91724,26.73873],[83.91487,26.73947],[83.91682,26.74397],[83.91697,26.74459],[83.91442,26.74991],[83.92056,26.75061],[83.92068,26.74922],[83.92211,26.74908]]]}},{"type":"Feature","bbox":[83.90057,26.76663,83.92105,26.78636],"properties":{"ward":25},"geometry":{"type":"Polygon","coordinates":[[[83.92025,26.77644],[83.91767,26.76663],[83.91219,26.76793],[83.91236,26.76951],[83.90832,26.77097],[83.90674,26.77134],[83.90689,26.77221],[83.90057,26.77451],[83.90072,26.7745],[83.90317,26.78134],[83.90841,26.78636],[83.91539,26.78427],[83.92105,26.78151],[83.92025,26.77644]]]}},{"type":"Feature","bbox":[83.89684,26.74667,83.91496,26.75816],"properties":{"ward":26},"geometry":{"type":"Polygon","coordinates":[[[83.91496,26.75744],[83.9149,26.75689],[83.91424,26.75699],[83.91377,26.75565],[83.91475,26.75552],[83.91424,26.75178],[83.91442,26.74991],[83.9119,26.75019],[83.91066,26.75013],[83.90504,26.74913],[83.90339,26.74877],[83.89684,26.74667],[83.89737,26.74955],[83.89801,26.75171],[83.8979,26.75173],[83.8987,26.75237],[83.90114,26.75184],[83.9014,26.7545],[83.9021,26.7566],[83.9069,26.7528],[83.90723,26.75514],[83.9088,26.75479],[83.90905,26.75446],[83.91238,26.75421],[83.91108,26.75816],[83.91496,26.75744]]]}},{"type":"Feature","bbox":[83.89584,26.74489,83.91594,26.75018],"properties":{"ward":27},"geometry":{"type":"Polygon","coordinates":[[[83.91194,26.75018],[83.91439,26.74996],[83.91594,26.74655],[83.91483,26.74669],[83.91415,26.7466],[83.91195,26.74715],[83.91179,26.7466],[83.91086,26.74675],[83.91066,26.74594],[83.91006,26.74604],[83.90978,26.74489],[83.89584,26.74641],[83.9038,26.74887],[83.91066,26.75013],[83.91194,26.75018]]]}}]}