{"type":"FeatureCollection","features":[{"type":"Feature","bbox":[83.02989,25.00501,83.03562,25.00924],"properties":{"ward":1,"name":"Pattikala-1"},"geometry":{"type":"Polygon","coordinates":[[[83.03185,25.00924],[83.03562,25.00856],[83.03488,25.00797],[83.03364,25.00777],[83.03254,25.00718],[83.03154,25.0062],[83.02989,25.00501],[83.03022,25.00919],[83.03185,25.00924]]]}},{"type":"Feature","bbox":[83.02353,25.0039,83.03022,25.00925],"properties":{"ward":2,"name":"Budhadei Paschimi"},"geometry":{"type":"Polygon","coordinates":[[[83.02724,25.00903],[83.03022,25.00919],[83.02989,25.00501],[83.0277,25.00443],[83.02652,25.0039],[83.02566,25.00397],[83.02457,25.00464],[83.02373,25.00568],[83.02353,25.00658],[83.02376,25.00925],[83.02724,25.00903]]]}},{"type":"Feature","bbox":[83.03037,25.00897,83.03407,25.01207],"properties":{"ward":3,"name":"Pattikala-2"},"geometry":{"type":"Polygon","coordinates":[[[83.03049,25.00922],[83.03037,25.00993],[83.03047,25.01133],[83.03097,25.01193],[83.03128,25.01207],[83.03185,25.01204],[83.0319,25.01171],[83.03213,25.01157],[83.03323,25.01145],[83.03407,25.01114],[83.03392,25.0099],[83.03337,25.00897],[83.03185,25.00924],[83.03049,25.00922]]]}},{"type":"Feature","bbox":[83.02362,25.01585,83.02816,25.02211],"properties":{"ward":4,"name":"Kajakpur"},"geometry":{"type":"Polygon","coordinates":[[[83.02692,25.01866],[83.02697,25.01688],[83.02716,25.01607],[83.02697,25.01595],[83.024,25.01585],[83.02376,25.01616],[83.02382,25.01635],[83.02413,25.01646],[83.02413,25.01682],[83.02386,25.01776],[83.02362,25.01807],[83.0237,25.01833],[83.02397,25.01843],[83.02403,25.01892],[83.0244,25.01889],[83.02441,25.01904],[83.02374,25.0192],[83.02371,25.01937],[83.02398,25.02118],[83.02576,25.02092],[83.02816,25.02211],[83.02692,25.01866]]]}},{"type":"Feature","bbox":[83.02724,25.00903,83.03049,25.01136],"properties":{"ward":5,"name":"Mishra Pokhara"},"geometry":{"type":"Polygon","coordinates":[[[83.03037,25.00993],[83.03049,25.00922],[83.02724,25.00903],[83.0273,25.01118],[83.02845,25.01136],[83.02945,25.01028],[83.03037,25.00993]]]}},{"type":"Feature","bbox":[83.03596,25.01629,83.03862,25.02467],"properties":{"ward":6,"name":"Gola Pandeyjee"},"geometry":{"type":"Polygon","coordinates":[[[83.03596,25.02109],[83.0367,25.02121],[83.03675,25.02144],[83.03656,25.02173],[83.03639,25.02287],[83.03649,25.02458],[83.03808,25.02467],[83.03789,25.02407],[83.03816,25.02359],[83.03783,25.02334],[83.03776,25.02167],[83.03778,25.02144],[83.03824,25.02132],[83.03835,25.02089],[83.03838,25.01933],[83.03862,25.01819],[83.03837,25.01629],[83.03713,25.01673],[83.03665,25.01707],[83.03596,25.02109]]]}},{"type":"Feature","bbox":[83.02376,25.00903,83.0273,25.01131],"properties":{"ward":7,"name":"Gola Sahuin"},"geometry":{"type":"Polygon","coordinates":[[[83.0273,25.01118],[83.02724,25.00903],[83.02376,25.00925],[83.02396,25.01131],[83.0273,25.01118]]]}},{"type":"Feature","bbox":[83.02396,25.01118,83.02731,25.016],"properties":{"ward":8,"name":"Budhadei Purvi"},"geometry":{"type":"Polygon","coordinates":[[[83.02731,25.0141],[83.0273,25.01118],[83.02396,25.01131],[83.02419,25.01502],[83.02396,25.01552],[83.024,25.01585],[83.02706,25.016],[83.02731,25.0141]]]}},{"type":"Feature","bbox":[83.0273,25.00993,83.03185,25.01527],"properties":{"ward":9,"name":"Ghamaha Pur"},"geometry":{"type":"Polygon","coordinates":[[[83.03132,25.01345],[83.03185,25.01204],[83.03128,25.01207],[83.03059,25.01159],[83.03037,25.00993],[83.02945,25.01028],[83.02845,25.01136],[83.0273,25.01118],[83.02731,25.0141],[83.02835,25.01423],[83.02977,25.01527],[83.03028,25.01445],[83.03132,25.01345]]]}},{"type":"Feature","bbox":[83.03132,25.01114,83.03432,25.01506],"properties":{"ward":10,"name":"Menhadipur"},"geometry":{"type":"Polygon","coordinates":[[[83.03407,25.01114],[83.0319,25.01171],[83.03132,25.01345],[83.0318,25.01419],[83.03208,25.01506],[83.03425,25.01421],[83.03432,25.01295],[83.03407,25.01114]]]}},{"type":"Feature","bbox":[83.02977,25.01345,83.03208,25.0154],"properties":{"ward":11,"name":"Satyanganj"},"geometry":{"type":"Polygon","coordinates":[[[83.03208,25.01506],[83.0318,25.01419],[83.03132,25.01345],[83.03028,25.01445],[83.02977,25.01527],[83.0308,25.0154],[83.03208,25.01506]]]}},{"type":"Feature","bbox":[83.03208,25.00856,83.03837,25.01932],"properties":{"ward":12,"name":"Pattikhurd"},"geometry":{"type":"Polygon","coordinates":[[[83.03837,25.01629],[83.03829,25.01385],[83.03795,25.01336],[83.03744,25.01306],[83.03745,25.01267],[83.03791,25.01189],[83.03748,25.01106],[83.03737,25.00987],[83.03711,25.00941],[83.03661,25.00911],[83.03608,25.00901],[83.03562,25.00856],[83.03337,25.00897],[83.03392,25.0099],[83.03432,25.01371],[83.03425,25.01421],[83.03208,25.01506],[83.03242,25.01642],[83.03318,25.01642],[83.0352,25.01704],[83.03523,25.01871],[83.03544,25.01883],[83.03558,25.01928],[83.03623,25.01932],[83.03665,25.01707],[83.03713,25.01673],[83.03837,25.01629]]]}},{"type":"Feature","bbox":[83.02692,25.0141,83.02988,25.0188],"properties":{"ward":13,"name":"Pokhara Sahuain"},"geometry":{"type":"Polygon","coordinates":[[[83.02988,25.01535],[83.02835,25.01423],[83.02731,25.0141],[83.02697,25.01688],[83.02692,25.01866],[83.02804,25.01856],[83.0293,25.0188],[83.02966,25.01597],[83.02988,25.01535]]]}},{"type":"Feature","bbox":[83.02692,25.01856,83.02995,25.02299],"properties":{"ward":14,"name":"Pattikala-3"},"geometry":{"type":"Polygon","coordinates":[[[83.02995,25.0225],[83.02964,25.0213],[83.0293,25.0188],[83.02804,25.01856],[83.02692,25.01866],[83.02815,25.02212],[83.02921,25.02299],[83.02968,25.0229],[83.02995,25.0225]]]}},{"type":"Feature","bbox":[83.0293,25.01506,83.03261,25.01961],"properties":{"ward":15,"name":"Gola Lala"},"geometry":{"type":"Polygon","coordinates":[[[83.03237,25.01961],[83.03237,25.01726],[83.03261,25.01643],[83.03242,25.01642],[83.03208,25.01506],[83.0308,25.0154],[83.02988,25.01535],[83.02966,25.01597],[83.0293,25.0188],[83.0318,25.01935],[83.03237,25.01961]]]}},{"type":"Feature","bbox":[83.0293,25.0188,83.03278,25.0225],"properties":{"ward":16,"name":"Nai Bazar"},"geometry":{"type":"Polygon","coordinates":[[[83.03109,25.02146],[83.03194,25.02187],[83.03259,25.02182],[83.03278,25.02165],[83.03242,25.01971],[83.0318,25.01935],[83.0293,25.0188],[83.02964,25.0213],[83.02995,25.0225],[83.03054,25.02104],[83.03078,25.02097],[83.03109,25.02146]]]}},{"type":"Feature","bbox":[83.03254,25.01642,83.03537,25.01879],"properties":{"ward":17,"name":"Katara"},"geometry":{"type":"Polygon","coordinates":[[[83.03537,25.01879],[83.03523,25.01871],[83.0352,25.01704],[83.03318,25.01642],[83.03261,25.01643],[83.03254,25.01673],[83.03375,25.01711],[83.03394,25.01849],[83.03439,25.01878],[83.03537,25.01879]]]}},{"type":"Feature","bbox":[83.03231,25.01673,83.03455,25.01926],"properties":{"ward":18,"name":"Chauk Bazar Dakchhini"},"geometry":{"type":"Polygon","coordinates":[[[83.03455,25.0188],[83.03394,25.01849],[83.03375,25.01711],[83.03254,25.01673],[83.03237,25.01726],[83.03231,25.01906],[83.03454,25.01926],[83.03455,25.0188]]]}},{"type":"Feature","bbox":[83.0281,25.02097,83.03259,25.02487],"properties":{"ward":19,"name":"Koiran Bazar"},"geometry":{"type":"Polygon","coordinates":[[[83.03081,25.02444],[83.03147,25.02423],[83.03237,25.02428],[83.0323,25.02266],[83.03259,25.02182],[83.03194,25.02187],[83.03109,25.02146],[83.03078,25.02097],[83.03054,25.02104],[83.03009,25.0223],[83.02968,25.0229],[83.02942,25.02299],[83.02909,25.02292],[83.0281,25.02209],[83.02892,25.0244],[83.02975,25.02439],[83.03047,25.02487],[83.03081,25.02444]]]}},{"type":"Feature","bbox":[83.0323,25.02109,83.03857,25.02707],"properties":{"ward":20,"name":"Patawa Tola"},"geometry":{"type":"Polygon","coordinates":[[[83.03259,25.02182],[83.0323,25.02266],[83.0323,25.02318],[83.0324,25.02454],[83.03268,25.02528],[83.03281,25.02707],[83.03855,25.02697],[83.03857,25.02653],[83.0383,25.02625],[83.03836,25.02591],[83.03808,25.02467],[83.03649,25.02458],[83.03639,25.02287],[83.0367,25.02121],[83.03596,25.02109],[83.03375,25.02121],[83.0332,25.02137],[83.03259,25.02182]]]}},{"type":"Feature","bbox":[83.02398,25.02092,83.02892,25.02478],"properties":{"ward":21,"name":"Tikara Kharanja"},"geometry":{"type":"Polygon","coordinates":[[[83.02892,25.0244],[83.0281,25.02209],[83.02576,25.02092],[83.02398,25.02118],[83.02436,25.02373],[83.02498,25.02433],[83.02508,25.02478],[83.02783,25.02466],[83.02892,25.0244]]]}},{"type":"Feature","bbox":[83.02508,25.02435,83.03109,25.02616],"properties":{"ward":22,"name":"Mallahi Tola"},"geometry":{"type":"Polygon","coordinates":[[[83.0306,25.02486],[83.02945,25.02435],[83.02783,25.02466],[83.02508,25.02478],[83.02539,25.02543],[83.02613,25.02577],[83.02959,25.02616],[83.03109,25.02599],[83.03099,25.02535],[83.0306,25.02486]]]}},{"type":"Feature","bbox":[83.02613,25.02423,83.03281,25.02757],"properties":{"ward":23,"name":"Gola Kanhaiyalal"},"geometry":{"type":"Polygon","coordinates":[[[83.03281,25.02707],[83.03268,25.02528],[83.03237,25.02428],[83.03147,25.02423],[83.03081,25.02444],[83.03056,25.02482],[83.03109,25.02566],[83.03109,25.02599],[83.03087,25.02608],[83.02852,25.02608],[83.02613,25.02577],[83.02688,25.02649],[83.02765,25.02623],[83.02967,25.02665],[83.03063,25.02749],[83.03079,25.02706],[83.03134,25.02716],[83.03211,25.02757],[83.03281,25.02707]]]}},{"type":"Feature","bbox":[83.03231,25.01906,83.03454,25.02165],"properties":{"ward":24,"name":"Dih"},"geometry":{"type":"Polygon","coordinates":[[[83.03385,25.0212],[83.03444,25.02006],[83.03454,25.01926],[83.03231,25.01906],[83.03278,25.02165],[83.03385,25.0212]]]}},{"type":"Feature","bbox":[83.03385,25.01879,83.03623,25.0212],"properties":{"ward":25,"name":"Chauk Bazar Ganj"},"geometry":{"type":"Polygon","coordinates":[[[83.03455,25.0188],[83.03444,25.02006],[83.03385,25.0212],[83.03594,25.02118],[83.03623,25.01932],[83.03558,25.01928],[83.03537,25.01879],[83.03455,25.0188]]]}}]}