{"type":"FeatureCollection","features":[{"type":"Feature","bbox":[78.82923,27.79781,78.83507,27.8031],"properties":{"ward":1,"name":"Jatwan"},"geometry":{"type":"Polygon","coordinates":[[[78.83507,27.80174],[78.83498,27.80138],[78.83469,27.80122],[78.83437,27.80064],[78.83397,27.79959],[78.83369,27.79864],[78.8341,27.79843],[78.83387,27.79803],[78.83254,27.79825],[78.83192,27.79781],[78.83075,27.79826],[78.83042,27.79957],[78.82923,27.80082],[78.83093,27.8031],[78.83507,27.80174]]]}},{"type":"Feature","bbox":[78.82849,27.7847,78.83854,27.79254],"properties":{"ward":2,"name":"Mori Eastern"},"geometry":{"type":"Polygon","coordinates":[[[78.83854,27.78859],[78.83774,27.78638],[78.83647,27.7847],[78.83423,27.78649],[78.83351,27.78655],[78.82928,27.78897],[78.82849,27.78982],[78.83009,27.7912],[78.83102,27.79041],[78.83347,27.79254],[78.83346,27.79196],[78.83399,27.79172],[78.83414,27.7918],[78.83526,27.79073],[78.83854,27.78859]]]}},{"type":"Feature","bbox":[78.83503,27.78975,78.84126,27.80078],"properties":{"ward":3,"name":"Qazi"},"geometry":{"type":"Polygon","coordinates":[[[78.83925,27.78975],[78.8365,27.7921],[78.83588,27.79288],[78.83565,27.79365],[78.83539,27.79388],[78.83553,27.79425],[78.83506,27.79639],[78.83503,27.798],[78.83871,27.80078],[78.8407,27.79829],[78.84126,27.79658],[78.84109,27.79452],[78.84069,27.79264],[78.84087,27.79203],[78.84078,27.79145],[78.83925,27.78975]]]}},{"type":"Feature","bbox":[78.83346,27.78859,78.83925,27.79388],"properties":{"ward":4,"name":"Station Road"},"geometry":{"type":"Polygon","coordinates":[[[78.83854,27.78859],[78.83526,27.79073],[78.83414,27.7918],[78.83399,27.79172],[78.83346,27.79196],[78.83347,27.79254],[78.83539,27.79388],[78.83565,27.79365],[78.83588,27.79288],[78.8365,27.7921],[78.83925,27.78975],[78.83854,27.78859]]]}},{"type":"Feature","bbox":[78.83112,27.7945,78.83464,27.79596],"properties":{"ward":5,"name":"New Basti"},"geometry":{"type":"Polygon","coordinates":[[[78.83112,27.7955],[78.83173,27.7953],[78.83217,27.79596],[78.83316,27.79562],[78.83464,27.79455],[78.8341,27.79475],[78.83368,27.79452],[78.83332,27.79455],[78.83251,27.79491],[78.83219,27.79452],[78.832,27.79473],[78.83163,27.79452],[78.83154,27.79472],[78.83123,27.7945],[78.83112,27.7955]]]}},{"type":"Feature","bbox":[78.82958,27.79041,78.83343,27.79491],"properties":{"ward":6,"name":"Mugal Choak Bulnd"},"geometry":{"type":"Polygon","coordinates":[[[78.83332,27.79455],[78.83294,27.79374],[78.83343,27.79251],[78.83102,27.79041],[78.82958,27.79167],[78.8302,27.79203],[78.83072,27.79262],[78.83129,27.79279],[78.83122,27.79346],[78.83219,27.79407],[78.83214,27.79445],[78.83251,27.79491],[78.83332,27.79455]]]}},{"type":"Feature","bbox":[78.82842,27.79625,78.83387,27.80082],"properties":{"ward":7,"name":"Jhandapir Eastern"},"geometry":{"type":"Polygon","coordinates":[[[78.83387,27.79803],[78.83354,27.79792],[78.83292,27.79733],[78.83243,27.79741],[78.83213,27.79715],[78.83179,27.7973],[78.8315,27.79683],[78.83067,27.79715],[78.83038,27.79663],[78.8301,27.79672],[78.82842,27.79625],[78.82845,27.79725],[78.82923,27.80082],[78.83042,27.79957],[78.83075,27.79826],[78.83192,27.79781],[78.83254,27.79825],[78.83387,27.79803]]]}},{"type":"Feature","bbox":[78.83294,27.79251,78.83539,27.79475],"properties":{"ward":8,"name":"Jhandapir Western"},"geometry":{"type":"Polygon","coordinates":[[[78.83343,27.79251],[78.83294,27.79374],[78.83332,27.79455],[78.83368,27.79452],[78.8341,27.79475],[78.83445,27.79464],[78.83539,27.79388],[78.83343,27.79251]]]}},{"type":"Feature","bbox":[78.83369,27.79767,78.83871,27.80178],"properties":{"ward":9,"name":"Koocha Panditan"},"geometry":{"type":"Polygon","coordinates":[[[78.83871,27.80078],[78.83518,27.79808],[78.8344,27.79767],[78.83387,27.79803],[78.8341,27.79843],[78.83369,27.79864],[78.83397,27.79959],[78.83437,27.80064],[78.83469,27.80122],[78.83498,27.80138],[78.83507,27.80174],[78.83594,27.8016],[78.83727,27.80178],[78.83809,27.80135],[78.83871,27.80078]]]}},{"type":"Feature","bbox":[78.83213,27.7967,78.8344,27.79803],"properties":{"ward":10,"name":"Mori Western"},"geometry":{"type":"Polygon","coordinates":[[[78.83347,27.7967],[78.83213,27.79715],[78.83243,27.79741],[78.83312,27.7974],[78.83354,27.79792],[78.83387,27.79803],[78.8344,27.79767],[78.83403,27.79754],[78.83361,27.79711],[78.83373,27.79704],[78.83347,27.7967]]]}},{"type":"Feature","bbox":[78.83241,27.79388,78.83553,27.798],"properties":{"ward":11,"name":"Gali Dipti Saahab"},"geometry":{"type":"Polygon","coordinates":[[[78.83241,27.79588],[78.83282,27.7965],[78.83365,27.79687],[78.83373,27.79704],[78.83361,27.79711],[78.83403,27.79754],[78.83419,27.79751],[78.83503,27.798],[78.83506,27.79639],[78.83553,27.79425],[78.83539,27.79388],[78.83462,27.79467],[78.83316,27.79562],[78.83241,27.79588]]]}},{"type":"Feature","bbox":[78.83038,27.7953,78.83316,27.7973],"properties":{"ward":12,"name":"Chaudhariyan"},"geometry":{"type":"Polygon","coordinates":[[[78.83179,27.7973],[78.83316,27.7967],[78.83282,27.7965],[78.83241,27.79588],[78.83217,27.79596],[78.83173,27.7953],[78.83112,27.7955],[78.83126,27.79627],[78.83038,27.79663],[78.83067,27.79715],[78.8315,27.79683],[78.83179,27.7973]]]}},{"type":"Feature","bbox":[78.82842,27.7948,78.83126,27.79672],"properties":{"ward":13,"name":"Kassawan Eastern"},"geometry":{"type":"Polygon","coordinates":[[[78.83108,27.795],[78.83086,27.7948],[78.83041,27.79507],[78.83027,27.79494],[78.82842,27.79625],[78.8301,27.79672],[78.83126,27.79627],[78.83108,27.795]]]}},{"type":"Feature","bbox":[78.82841,27.79167,78.83219,27.79473],"properties":{"ward":14,"name":"Kassawan Western"},"geometry":{"type":"Polygon","coordinates":[[[78.83219,27.79452],[78.83219,27.79407],[78.83122,27.79346],[78.83129,27.79279],[78.83072,27.79262],[78.8302,27.79203],[78.82958,27.79167],[78.82841,27.79273],[78.83043,27.7945],[78.83065,27.79424],[78.83154,27.79472],[78.83163,27.79452],[78.832,27.79473],[78.83219,27.79452]]]}},{"type":"Feature","bbox":[78.82524,27.79273,78.83122,27.79625],"properties":{"ward":15,"name":"Kassawan South"},"geometry":{"type":"Polygon","coordinates":[[[78.83108,27.795],[78.83122,27.79457],[78.83065,27.79424],[78.83043,27.7945],[78.82841,27.79273],[78.82524,27.7961],[78.82842,27.79625],[78.83027,27.79494],[78.83041,27.79507],[78.83086,27.7948],[78.83108,27.795]]]}}]}