{"type":"FeatureCollection","features":[{"type":"Feature","bbox":[83.03724,24.20385,83.0413,24.20597],"properties":{"ward":1,"name":"Gandhi Nagar"},"geometry":{"type":"Polygon","coordinates":[[[83.03727,24.20395],[83.03724,24.20583],[83.03774,24.20597],[83.03987,24.20564],[83.04015,24.20552],[83.04015,24.20502],[83.0413,24.20474],[83.04119,24.20385],[83.04074,24.20399],[83.0379,24.20412],[83.03727,24.20395]]]}},{"type":"Feature","bbox":[83.03551,24.22337,83.0374,24.22649],"properties":{"ward":2,"name":"Chandra Shekhar Ajad Nagar"},"geometry":{"type":"Polygon","coordinates":[[[83.0374,24.2242],[83.03652,24.22337],[83.03551,24.22501],[83.03594,24.22551],[83.03578,24.22615],[83.03654,24.22649],[83.03698,24.22498],[83.0374,24.2242]]]}},{"type":"Feature","bbox":[83.03858,24.22128,83.04051,24.22563],"properties":{"ward":3,"name":"Haridas Nagar"},"geometry":{"type":"Polygon","coordinates":[[[83.03909,24.22563],[83.03927,24.22518],[83.03958,24.22527],[83.03982,24.22508],[83.04051,24.22347],[83.04017,24.22312],[83.04036,24.22248],[83.04004,24.22128],[83.03954,24.22158],[83.03915,24.22213],[83.03858,24.22365],[83.0393,24.22365],[83.04025,24.22392],[83.03997,24.22445],[83.03982,24.22421],[83.03889,24.22459],[83.03898,24.22558],[83.03909,24.22563]]]}},{"type":"Feature","bbox":[83.03336,24.22025,83.03565,24.22366],"properties":{"ward":4,"name":"Shiva Park"},"geometry":{"type":"Polygon","coordinates":[[[83.03565,24.22212],[83.03533,24.22141],[83.03515,24.22025],[83.03336,24.22156],[83.0343,24.22366],[83.03565,24.22212]]]}},{"type":"Feature","bbox":[83.03084,24.20386,83.0382,24.20779],"properties":{"ward":5,"name":"Gadge Nagar"},"geometry":{"type":"Polygon","coordinates":[[[83.03719,24.20653],[83.03727,24.20395],[83.03668,24.20386],[83.03625,24.20403],[83.03493,24.20405],[83.03314,24.20458],[83.03216,24.20522],[83.03084,24.20534],[83.03085,24.2062],[83.03187,24.20609],[83.03218,24.20662],[83.03678,24.20621],[83.03681,24.20779],[83.03813,24.2077],[83.0382,24.20671],[83.03738,24.20667],[83.03719,24.20653]]]}},{"type":"Feature","bbox":[83.0343,24.22212,83.03652,24.22501],"properties":{"ward":6,"name":"Rani Lakshmibai Nagar"},"geometry":{"type":"Polygon","coordinates":[[[83.03652,24.22337],[83.03607,24.22295],[83.03565,24.22212],[83.0343,24.22366],[83.03456,24.22424],[83.03551,24.22501],[83.03652,24.22337]]]}},{"type":"Feature","bbox":[83.033,24.2189,83.03515,24.22156],"properties":{"ward":7,"name":"Sardar Patel Nagar"},"geometry":{"type":"Polygon","coordinates":[[[83.03515,24.22025],[83.03509,24.21967],[83.03482,24.21977],[83.03453,24.2189],[83.03323,24.21978],[83.03328,24.22029],[83.033,24.22059],[83.03336,24.22156],[83.03515,24.22025]]]}},{"type":"Feature","bbox":[83.03159,24.21162,83.03453,24.21978],"properties":{"ward":8,"name":"Shahid Bhagat"},"geometry":{"type":"Polygon","coordinates":[[[83.03453,24.2189],[83.03415,24.217],[83.0339,24.21709],[83.03244,24.21162],[83.03159,24.21227],[83.03241,24.21604],[83.03283,24.21701],[83.03277,24.21766],[83.03323,24.21978],[83.03453,24.2189]]]}},{"type":"Feature","bbox":[83.03083,24.20609,83.03244,24.21227],"properties":{"ward":9,"name":"Jharna Basti"},"geometry":{"type":"Polygon","coordinates":[[[83.03244,24.21162],[83.03201,24.20992],[83.03214,24.2098],[83.03183,24.2081],[83.03202,24.208],[83.03187,24.20609],[83.03085,24.2062],[83.03083,24.20737],[83.0313,24.21006],[83.03116,24.21021],[83.03159,24.21227],[83.03244,24.21162]]]}},{"type":"Feature","bbox":[83.03723,24.22061,83.03954,24.22367],"properties":{"ward":10,"name":"Subhashchandra Bose Nagar"},"geometry":{"type":"Polygon","coordinates":[[[83.03858,24.22365],[83.039,24.2224],[83.03954,24.22158],[83.039,24.22061],[83.03783,24.22253],[83.03768,24.22225],[83.03723,24.22247],[83.0377,24.22352],[83.03802,24.22367],[83.03858,24.22365]]]}},{"type":"Feature","bbox":[83.03654,24.2242,83.03909,24.22679],"properties":{"ward":11,"name":"Chacha Lal Bahadur"},"geometry":{"type":"Polygon","coordinates":[[[83.0374,24.2242],[83.03698,24.22498],[83.03654,24.22649],[83.03715,24.22664],[83.03753,24.22646],[83.0382,24.22679],[83.0387,24.22671],[83.03909,24.22563],[83.03889,24.22459],[83.03826,24.22464],[83.0374,24.2242]]]}}]}