{"type":"FeatureCollection","features":[{"type":"Feature","bbox":[84.05376,26.04656,84.05939,26.05637],"properties":{"ward":1,"name":"Baddha"},"geometry":{"type":"Polygon","coordinates":[[[84.05907,26.05213],[84.05874,26.05077],[84.05889,26.05056],[84.05886,26.05022],[84.05848,26.04961],[84.05805,26.0496],[84.0574,26.04885],[84.05691,26.04735],[84.05638,26.04656],[84.05514,26.04671],[84.05489,26.04694],[84.05485,26.04681],[84.05417,26.04687],[84.05423,26.04918],[84.05376,26.04955],[84.05388,26.05019],[84.05397,26.05013],[84.05407,26.05033],[84.05484,26.05435],[84.05503,26.05637],[84.05939,26.05614],[84.05898,26.0518],[84.05907,26.05213]]]}},{"type":"Feature","bbox":[84.04796,26.04565,84.05512,26.06122],"properties":{"ward":2,"name":"Rahilapali"},"geometry":{"type":"Polygon","coordinates":[[[84.05416,26.04631],[84.05387,26.04634],[84.05387,26.04572],[84.05229,26.04587],[84.05226,26.04565],[84.05025,26.04699],[84.04876,26.04686],[84.04809,26.04706],[84.0481,26.04785],[84.04884,26.05155],[84.04926,26.05277],[84.048,26.05591],[84.04796,26.0612],[84.05512,26.06122],[84.05486,26.05451],[84.05407,26.05033],[84.05397,26.05013],[84.05388,26.05019],[84.05376,26.04955],[84.05423,26.04918],[84.05416,26.04631]]]}},{"type":"Feature","bbox":[84.04807,26.04015,84.05239,26.04285],"properties":{"ward":3,"name":"Milki Uttari"},"geometry":{"type":"Polygon","coordinates":[[[84.05003,26.04285],[84.05239,26.04239],[84.05188,26.04047],[84.05137,26.0407],[84.05126,26.04107],[84.05087,26.04112],[84.0506,26.04015],[84.04866,26.04035],[84.04807,26.04171],[84.04913,26.04209],[84.04958,26.04261],[84.05003,26.04285]]]}},{"type":"Feature","bbox":[84.05416,26.04577,84.06487,26.05213],"properties":{"ward":4,"name":"Manapur"},"geometry":{"type":"Polygon","coordinates":[[[84.06487,26.04716],[84.06162,26.04639],[84.05957,26.04641],[84.05791,26.04608],[84.0568,26.04612],[84.05657,26.04584],[84.05603,26.04577],[84.05423,26.04598],[84.05416,26.04631],[84.05417,26.04687],[84.05485,26.04681],[84.05489,26.04694],[84.05514,26.04671],[84.05638,26.04656],[84.05691,26.04735],[84.0574,26.04885],[84.05805,26.0496],[84.05848,26.04961],[84.05886,26.05022],[84.05889,26.05056],[84.05874,26.05077],[84.05907,26.05213],[84.05976,26.05208],[84.06003,26.05046],[84.06103,26.04998],[84.06338,26.04754],[84.06486,26.0474],[84.06487,26.04716]]]}},{"type":"Feature","bbox":[84.05436,26.03466,84.06154,26.04409],"properties":{"ward":5,"name":"Kila Kohana"},"geometry":{"type":"Polygon","coordinates":[[[84.0557,26.03536],[84.05586,26.03558],[84.05563,26.03567],[84.05499,26.03758],[84.055,26.03878],[84.05472,26.04009],[84.05473,26.0411],[84.05469,26.04127],[84.05443,26.04137],[84.05436,26.04182],[84.05449,26.04262],[84.05581,26.04251],[84.05637,26.04288],[84.05666,26.04289],[84.05863,26.04262],[84.05899,26.04329],[84.05937,26.04347],[84.06017,26.04351],[84.06031,26.04409],[84.06154,26.044],[84.06049,26.0424],[84.05915,26.04263],[84.0589,26.04239],[84.05769,26.04258],[84.05765,26.04224],[84.05708,26.04227],[84.05704,26.04135],[84.05731,26.04128],[84.05721,26.0409],[84.05738,26.04086],[84.05749,26.04054],[84.05797,26.04036],[84.05815,26.04131],[84.05837,26.04124],[84.05832,26.04087],[84.05848,26.04063],[84.05806,26.04058],[84.05796,26.04029],[84.05926,26.03989],[84.05914,26.03948],[84.05828,26.03864],[84.05709,26.03549],[84.05736,26.03546],[84.05752,26.03583],[84.05857,26.03553],[84.05874,26.03582],[84.0596,26.03545],[84.05968,26.03581],[84.05999,26.03575],[84.05992,26.03533],[84.06045,26.03521],[84.06037,26.03493],[84.06067,26.03486],[84.06054,26.03466],[84.05988,26.03515],[84.05924,26.0353],[84.0557,26.03536]]]}},{"type":"Feature","bbox":[84.05427,26.04251,84.06326,26.04669],"properties":{"ward":6,"name":"Bhikhpura Purvi"},"geometry":{"type":"Polygon","coordinates":[[[84.06155,26.04403],[84.06031,26.04409],[84.06017,26.04351],[84.05937,26.04347],[84.05899,26.04329],[84.05863,26.04262],[84.05637,26.04288],[84.05581,26.04251],[84.05449,26.04262],[84.05445,26.04352],[84.05427,26.04393],[84.05449,26.0441],[84.05494,26.04384],[84.05521,26.04387],[84.05606,26.04528],[84.05598,26.04578],[84.05657,26.04584],[84.0568,26.04612],[84.05791,26.04608],[84.05957,26.04641],[84.06162,26.04639],[84.06326,26.04669],[84.06155,26.04403]],[[84.06146,26.04405],[84.06146,26.04404],[84.06146,26.04405],[84.06146,26.04405]]]}},{"type":"Feature","bbox":[84.04751,26.0439,84.05226,26.04704],"properties":{"ward":7,"name":"Domanpura Panitanki"},"geometry":{"type":"Polygon","coordinates":[[[84.05201,26.04518],[84.05132,26.04391],[84.05114,26.0439],[84.04751,26.04497],[84.04818,26.04693],[84.04876,26.04686],[84.04988,26.04704],[84.05076,26.04677],[84.05132,26.04619],[84.05226,26.04565],[84.05206,26.04567],[84.05201,26.04518]]]}},{"type":"Feature","bbox":[84.05365,26.04387,84.05606,26.04598],"properties":{"ward":8,"name":"Bhikhpura Paschimi"},"geometry":{"type":"Polygon","coordinates":[[[84.05598,26.04578],[84.05606,26.04528],[84.05521,26.04387],[84.0537,26.04424],[84.05365,26.04514],[84.05422,26.04598],[84.05598,26.04578]]]}},{"type":"Feature","bbox":[84.04785,26.03724,84.05186,26.04171],"properties":{"ward":9,"name":"Bus Station Paschimi"},"geometry":{"type":"Polygon","coordinates":[[[84.05186,26.04047],[84.05096,26.03894],[84.05082,26.03839],[84.05095,26.03834],[84.05092,26.0375],[84.05025,26.03778],[84.05005,26.03724],[84.0479,26.03911],[84.04823,26.0407],[84.04785,26.04168],[84.04807,26.04171],[84.04866,26.04035],[84.0506,26.04015],[84.05087,26.04112],[84.05126,26.04107],[84.05137,26.0407],[84.05186,26.04047]]]}},{"type":"Feature","bbox":[84.05015,26.03533,84.05586,26.04058],"properties":{"ward":10,"name":"Milki Purvi"},"geometry":{"type":"Polygon","coordinates":[[[84.05497,26.0389],[84.05502,26.03744],[84.05564,26.03564],[84.05586,26.03558],[84.05554,26.03533],[84.05362,26.03541],[84.05241,26.03564],[84.05157,26.03604],[84.05015,26.03717],[84.05025,26.03778],[84.05092,26.0375],[84.05095,26.03834],[84.05082,26.03839],[84.05105,26.03919],[84.05196,26.04057],[84.05219,26.04058],[84.05229,26.04008],[84.05268,26.03997],[84.0525,26.03924],[84.0527,26.03899],[84.05316,26.03886],[84.05324,26.03908],[84.05362,26.03912],[84.05497,26.0389]]]}},{"type":"Feature","bbox":[84.04406,26.03914,84.05136,26.04493],"properties":{"ward":11,"name":"Nouranga"},"geometry":{"type":"Polygon","coordinates":[[[84.04763,26.04493],[84.04882,26.04451],[84.0512,26.04394],[84.05136,26.04371],[84.05107,26.0427],[84.05003,26.04285],[84.04892,26.04197],[84.04785,26.04168],[84.04823,26.0407],[84.04787,26.03914],[84.04406,26.04186],[84.04423,26.04303],[84.0454,26.0428],[84.04563,26.04328],[84.04578,26.04324],[84.04582,26.04378],[84.04618,26.04369],[84.04614,26.04394],[84.04664,26.04394],[84.04686,26.04411],[84.04693,26.04445],[84.04763,26.04493]]]}},{"type":"Feature","bbox":[84.05107,26.04225,84.05328,26.04456],"properties":{"ward":12,"name":"Milki Dakschhini"},"geometry":{"type":"Polygon","coordinates":[[[84.0516,26.04449],[84.05198,26.04441],[84.05208,26.04456],[84.05296,26.0443],[84.05288,26.04355],[84.05292,26.04342],[84.05326,26.04339],[84.05328,26.04323],[84.05316,26.04225],[84.05107,26.0427],[84.0513,26.04391],[84.0516,26.04449]]]}},{"type":"Feature","bbox":[84.0516,26.04427,84.05423,26.04634],"properties":{"ward":13,"name":"Domanpura Purvi"},"geometry":{"type":"Polygon","coordinates":[[[84.05367,26.04427],[84.05208,26.04456],[84.05198,26.04441],[84.0516,26.04449],[84.05201,26.04518],[84.05206,26.04567],[84.05226,26.04565],[84.05229,26.04587],[84.05387,26.04572],[84.05387,26.04634],[84.05416,26.04631],[84.05423,26.04598],[84.05365,26.04514],[84.05367,26.04427]]]}},{"type":"Feature","bbox":[84.05196,26.03886,84.05497,26.04239],"properties":{"ward":14,"name":"Chandni Chauk"},"geometry":{"type":"Polygon","coordinates":[[[84.05239,26.04239],[84.05436,26.04182],[84.05443,26.04137],[84.05469,26.04127],[84.05472,26.04009],[84.05497,26.0389],[84.05362,26.03912],[84.05324,26.03908],[84.05316,26.03886],[84.05256,26.03908],[84.05268,26.03997],[84.05229,26.04008],[84.05219,26.04058],[84.05196,26.04057],[84.05239,26.04239]]]}},{"type":"Feature","bbox":[84.05287,26.04179,84.05449,26.0443],"properties":{"ward":15,"name":"Gandhi"},"geometry":{"type":"Polygon","coordinates":[[[84.05431,26.04408],[84.05449,26.04262],[84.05428,26.04179],[84.05316,26.04225],[84.05326,26.04339],[84.05292,26.04342],[84.05287,26.04361],[84.05296,26.0443],[84.05431,26.04408]]]}}]}