{"type":"FeatureCollection","features":[{"type":"Feature","bbox":[83.99254,25.73755,84.00291,25.74779],"properties":{"ward":1,"name":"Rajendra Nagar"},"geometry":{"type":"Polygon","coordinates":[[[84.00286,25.74552],[83.99721,25.74413],[83.99786,25.74171],[83.99747,25.74003],[83.99779,25.73949],[83.99761,25.73856],[83.99696,25.73755],[83.99681,25.73798],[83.99582,25.73861],[83.9957,25.73903],[83.99394,25.73939],[83.99378,25.73958],[83.99358,25.7405],[83.99254,25.74254],[83.99487,25.74397],[83.99949,25.74779],[84.00078,25.74722],[84.00088,25.74731],[84.00181,25.74712],[84.0017,25.74648],[84.00291,25.74614],[84.00286,25.74552]]]}},{"type":"Feature","bbox":[84.00572,25.74702,84.00943,25.75105],"properties":{"ward":2,"name":"Shubash Nagar"},"geometry":{"type":"Polygon","coordinates":[[[84.00598,25.74927],[84.00619,25.74995],[84.00642,25.74992],[84.00651,25.75064],[84.0067,25.7506],[84.00679,25.75105],[84.00799,25.75094],[84.00936,25.7478],[84.00943,25.74707],[84.00926,25.74702],[84.00927,25.74745],[84.0076,25.74777],[84.00585,25.74841],[84.00593,25.7488],[84.00572,25.74927],[84.00598,25.74927]]]}},{"type":"Feature","bbox":[84.00479,25.74841,84.006,25.7521],"properties":{"ward":3,"name":"Ambedkar Nagar"},"geometry":{"type":"Polygon","coordinates":[[[84.00536,25.7521],[84.006,25.75193],[84.00566,25.7504],[84.00572,25.74928],[84.00593,25.7488],[84.00585,25.74841],[84.00479,25.74884],[84.00512,25.75143],[84.00536,25.7521]]]}},{"type":"Feature","bbox":[83.99698,25.73471,84.01261,25.74552],"properties":{"ward":4,"name":"Malviy Nagar"},"geometry":{"type":"Polygon","coordinates":[[[83.99698,25.73749],[83.99708,25.73791],[83.99761,25.73856],[83.99779,25.7395],[83.99747,25.74003],[83.99787,25.74171],[83.99721,25.74413],[84.00286,25.74552],[84.00321,25.74486],[84.00552,25.7453],[84.0057,25.74471],[84.00609,25.74448],[84.00595,25.74375],[84.00578,25.74374],[84.00571,25.74341],[84.00566,25.74245],[84.00943,25.74368],[84.01241,25.74486],[84.01261,25.74425],[84.01202,25.74303],[84.01186,25.74215],[84.01165,25.74196],[84.0112,25.74198],[84.00996,25.74165],[84.00932,25.74127],[84.00853,25.74141],[84.00744,25.73839],[84.00721,25.73835],[84.0065,25.73717],[84.00592,25.73664],[84.00499,25.73489],[84.0044,25.73471],[84.00231,25.73577],[83.99698,25.73749]]]}},{"type":"Feature","bbox":[84.00449,25.74245,84.01023,25.74869],"properties":{"ward":5,"name":"Brahmi Baba Nagar"},"geometry":{"type":"Polygon","coordinates":[[[84.00943,25.74707],[84.01023,25.744],[84.00566,25.74245],[84.00571,25.7434],[84.00578,25.74374],[84.00595,25.74375],[84.00609,25.74448],[84.0057,25.74471],[84.00553,25.74509],[84.00547,25.74625],[84.00457,25.74636],[84.00449,25.74681],[84.00506,25.74869],[84.0076,25.74776],[84.00927,25.74745],[84.00926,25.74702],[84.00943,25.74707]]]}},{"type":"Feature","bbox":[84.00789,25.744,84.01382,25.75297],"properties":{"ward":6,"name":"Patel Nagar"},"geometry":{"type":"Polygon","coordinates":[[[84.01241,25.74487],[84.01023,25.744],[84.00936,25.7478],[84.00832,25.75028],[84.00806,25.75058],[84.00789,25.75126],[84.0079,25.75171],[84.00824,25.75179],[84.00835,25.75201],[84.00888,25.75206],[84.00912,25.75297],[84.01057,25.75285],[84.01048,25.75245],[84.01238,25.75218],[84.01274,25.75166],[84.01382,25.75144],[84.01339,25.75105],[84.01239,25.74762],[84.0123,25.74569],[84.01241,25.74487]]]}},{"type":"Feature","bbox":[84.00692,25.75144,84.01432,25.75482],"properties":{"ward":7,"name":"Chiteswar Nagar"},"geometry":{"type":"Polygon","coordinates":[[[84.00698,25.75275],[84.00733,25.75276],[84.00728,25.7537],[84.00808,25.75411],[84.01193,25.75482],[84.0123,25.75472],[84.01244,25.75365],[84.01432,25.7528],[84.01382,25.75144],[84.01274,25.75167],[84.01238,25.75218],[84.01049,25.75245],[84.01058,25.75286],[84.00912,25.75297],[84.00891,25.75337],[84.00801,25.75334],[84.00782,25.75251],[84.00692,25.75256],[84.00698,25.75275]]]}},{"type":"Feature","bbox":[84.00368,25.74884,84.00508,25.75189],"properties":{"ward":8,"name":"Indra Nagar"},"geometry":{"type":"Polygon","coordinates":[[[84.00508,25.75123],[84.00502,25.75007],[84.00479,25.74884],[84.00368,25.74942],[84.00461,25.75185],[84.00505,25.75189],[84.00489,25.75127],[84.00508,25.75123]]]}},{"type":"Feature","bbox":[83.99949,25.74712,84.00212,25.74854],"properties":{"ward":9,"name":"Gokhale Nagar"},"geometry":{"type":"Polygon","coordinates":[[[84.00181,25.74712],[84.00078,25.74722],[83.99949,25.7478],[84.00026,25.74854],[84.00111,25.74808],[84.00123,25.74836],[84.00145,25.74834],[84.00212,25.74814],[84.00181,25.74712]]]}},{"type":"Feature","bbox":[84.00026,25.74783,84.00506,25.75021],"properties":{"ward":10,"name":"Abdul Kalam Nagar"},"geometry":{"type":"Polygon","coordinates":[[[84.00026,25.74855],[84.00081,25.74933],[84.00202,25.75021],[84.00296,25.74988],[84.00506,25.74869],[84.00486,25.74832],[84.00436,25.74835],[84.00334,25.74783],[84.00217,25.74829],[84.00212,25.74815],[84.00123,25.74836],[84.00111,25.74808],[84.00026,25.74855]]]}},{"type":"Feature","bbox":[84.00203,25.74943,84.00461,25.75192],"properties":{"ward":11,"name":"Jawahar Nagar"},"geometry":{"type":"Polygon","coordinates":[[[84.00386,25.75192],[84.00461,25.75185],[84.00368,25.74943],[84.00296,25.74988],[84.00203,25.75021],[84.00284,25.75123],[84.00386,25.75192]]]}},{"type":"Feature","bbox":[84.00566,25.74927,84.008,25.75212],"properties":{"ward":12,"name":"Azad Nagar"},"geometry":{"type":"Polygon","coordinates":[[[84.00787,25.75164],[84.008,25.75095],[84.00679,25.75105],[84.00669,25.75061],[84.00651,25.75064],[84.00642,25.74992],[84.00619,25.74996],[84.00605,25.7493],[84.00572,25.74927],[84.00566,25.7504],[84.006,25.75193],[84.00618,25.7519],[84.00625,25.75212],[84.00712,25.75199],[84.00787,25.75164]]]}},{"type":"Feature","bbox":[84.0017,25.74486,84.00552,25.74834],"properties":{"ward":13,"name":"Jai Prakash Nagar"},"geometry":{"type":"Polygon","coordinates":[[[84.00552,25.7453],[84.00321,25.74486],[84.00286,25.74552],[84.00292,25.74614],[84.0017,25.74648],[84.00217,25.74829],[84.00334,25.74783],[84.00435,25.74834],[84.00486,25.74831],[84.00449,25.74681],[84.00457,25.74636],[84.00547,25.74625],[84.00552,25.7453]]]}},{"type":"Feature","bbox":[84.00386,25.75123,84.00733,25.7537],"properties":{"ward":14,"name":"Shastri Nagar"},"geometry":{"type":"Polygon","coordinates":[[[84.00712,25.75199],[84.00625,25.75212],[84.00618,25.7519],[84.00536,25.7521],[84.00508,25.75123],[84.00489,25.75127],[84.00506,25.75189],[84.00386,25.75193],[84.00422,25.7526],[84.00597,25.75334],[84.00727,25.7537],[84.00733,25.75276],[84.00698,25.75275],[84.00692,25.75256],[84.00722,25.75259],[84.00712,25.75199]]]}},{"type":"Feature","bbox":[84.00712,25.75164,84.00912,25.75336],"properties":{"ward":15,"name":"Gandhi Nagar"},"geometry":{"type":"Polygon","coordinates":[[[84.00801,25.75334],[84.00891,25.75336],[84.00912,25.75297],[84.00888,25.75206],[84.00835,25.75201],[84.00824,25.75179],[84.00787,25.75164],[84.00712,25.75199],[84.00722,25.75259],[84.00782,25.75251],[84.00801,25.75334]]]}}]}