{"type":"FeatureCollection","features":[{"type":"Feature","bbox":[82.57689,25.41155,82.5826,25.41707],"properties":{"ward":1,"name":"Gandhi Nagar"},"geometry":{"type":"Polygon","coordinates":[[[82.57689,25.41214],[82.57698,25.41249],[82.57821,25.41412],[82.57826,25.41437],[82.57804,25.41478],[82.57762,25.41501],[82.57776,25.41521],[82.57757,25.41569],[82.57779,25.41627],[82.5785,25.41691],[82.57919,25.41707],[82.58068,25.41645],[82.58127,25.41657],[82.5826,25.4164],[82.58157,25.41527],[82.58118,25.41347],[82.58187,25.41351],[82.58218,25.41325],[82.58153,25.41155],[82.5799,25.41178],[82.57883,25.41332],[82.57855,25.41341],[82.57734,25.412],[82.57689,25.41214]]]}},{"type":"Feature","bbox":[82.5834,25.41584,82.58699,25.41885],"properties":{"ward":2,"name":"Shahidi Nagar"},"geometry":{"type":"Polygon","coordinates":[[[82.58372,25.41626],[82.5834,25.41721],[82.5849,25.41852],[82.58602,25.41885],[82.58644,25.41843],[82.5868,25.41837],[82.58699,25.41805],[82.58587,25.41646],[82.58478,25.41584],[82.58372,25.41626]]]}},{"type":"Feature","bbox":[82.58124,25.41332,82.58475,25.41695],"properties":{"ward":3,"name":"Patel Nagar"},"geometry":{"type":"Polygon","coordinates":[[[82.58262,25.4164],[82.5835,25.41695],[82.58369,25.41625],[82.58475,25.41583],[82.58402,25.41413],[82.58381,25.41372],[82.58301,25.41385],[82.58277,25.41352],[82.58217,25.41332],[82.58185,25.41355],[82.58124,25.41352],[82.58161,25.41525],[82.58262,25.4164]]]}},{"type":"Feature","bbox":[82.58595,25.40997,82.59043,25.41344],"properties":{"ward":4,"name":"Nahru Nagar"},"geometry":{"type":"Polygon","coordinates":[[[82.58595,25.41293],[82.58625,25.41344],[82.58861,25.41215],[82.59043,25.41158],[82.58978,25.41115],[82.58874,25.4111],[82.58841,25.41033],[82.58749,25.40997],[82.58706,25.41028],[82.58727,25.41107],[82.58713,25.41239],[82.58671,25.41277],[82.58595,25.41293]]]}},{"type":"Feature","bbox":[82.58682,25.41374,82.59197,25.41676],"properties":{"ward":5,"name":"Lohiya Nagar"},"geometry":{"type":"Polygon","coordinates":[[[82.58682,25.41596],[82.58734,25.41656],[82.58828,25.41676],[82.58948,25.41667],[82.59146,25.41621],[82.59186,25.41587],[82.59197,25.41547],[82.59148,25.4149],[82.59102,25.41468],[82.59044,25.41374],[82.58879,25.41424],[82.58819,25.41459],[82.58809,25.4149],[82.58729,25.41509],[82.58762,25.41561],[82.58744,25.41585],[82.58682,25.41596]]]}},{"type":"Feature","bbox":[82.58476,25.41363,82.58753,25.41592],"properties":{"ward":6,"name":"Chandni Chowk"},"geometry":{"type":"Polygon","coordinates":[[[82.58476,25.41363],[82.58603,25.41506],[82.58607,25.41542],[82.58679,25.41592],[82.58752,25.41572],[82.58753,25.41545],[82.58727,25.4151],[82.5859,25.41364],[82.58476,25.41363]]]}},{"type":"Feature","bbox":[82.58157,25.41107,82.58722,25.41379],"properties":{"ward":7,"name":"Abbas Nagar"},"geometry":{"type":"Polygon","coordinates":[[[82.58157,25.41155],[82.58221,25.41328],[82.58281,25.41348],[82.58303,25.41379],[82.58512,25.41354],[82.58586,25.41359],[82.58622,25.41345],[82.5859,25.4129],[82.58668,25.4127],[82.58708,25.41236],[82.58722,25.41107],[82.58618,25.41134],[82.58305,25.41132],[82.58157,25.41155]]]}},{"type":"Feature","bbox":[82.5806,25.41645,82.58763,25.41968],"properties":{"ward":8,"name":"Shivaji Nagar"},"geometry":{"type":"Polygon","coordinates":[[[82.58261,25.41645],[82.5813,25.41661],[82.58071,25.41648],[82.5806,25.4172],[82.58173,25.41768],[82.5825,25.41773],[82.58312,25.41839],[82.58374,25.41878],[82.58421,25.4194],[82.58514,25.41968],[82.58562,25.41967],[82.58626,25.4191],[82.58656,25.41915],[82.58663,25.41889],[82.587,25.41895],[82.58751,25.41869],[82.5873,25.41821],[82.58748,25.41806],[82.58695,25.41753],[82.5874,25.41741],[82.58763,25.41708],[82.58758,25.41685],[82.58713,25.41725],[82.58664,25.4174],[82.58703,25.41805],[82.58681,25.41841],[82.58647,25.41847],[82.58604,25.41888],[82.58489,25.41856],[82.58336,25.41724],[82.58345,25.41698],[82.58261,25.41645]]]}},{"type":"Feature","bbox":[82.58385,25.41363,82.58754,25.41737],"properties":{"ward":9,"name":"Azad Nagar"},"geometry":{"type":"Polygon","coordinates":[[[82.58478,25.41581],[82.58588,25.41644],[82.58662,25.41737],[82.58711,25.41724],[82.58754,25.41684],[82.58679,25.41596],[82.58603,25.41543],[82.58597,25.41509],[82.58471,25.41363],[82.58385,25.4137],[82.58478,25.41581]]]}},{"type":"Feature","bbox":[82.58654,25.41266,82.59054,25.41505],"properties":{"ward":10,"name":"Ashok Nagar"},"geometry":{"type":"Polygon","coordinates":[[[82.58869,25.41333],[82.58654,25.41427],[82.5873,25.41505],[82.58808,25.41486],[82.58816,25.41457],[82.58877,25.41421],[82.59046,25.41371],[82.59054,25.41282],[82.59024,25.41266],[82.58924,25.413],[82.58948,25.41343],[82.58893,25.41356],[82.58869,25.41333]]]}}]}