{"type":"FeatureCollection","features":[{"type":"Feature","bbox":[83.12696,25.28809,83.13682,25.29705],"properties":{"ward":1,"name":"Chaturbhujpur"},"geometry":{"type":"Polygon","coordinates":[[[83.13052,25.29606],[83.13068,25.29603],[83.13105,25.29671],[83.13168,25.29671],[83.13225,25.29705],[83.13269,25.29704],[83.13277,25.29669],[83.13363,25.29647],[83.13359,25.29621],[83.13391,25.29611],[83.13367,25.29477],[83.13527,25.29438],[83.13493,25.2929],[83.13569,25.29262],[83.13578,25.29213],[83.13657,25.29188],[83.13682,25.29056],[83.1357,25.29],[83.13511,25.29098],[83.12934,25.28809],[83.12918,25.28864],[83.12825,25.28876],[83.12777,25.28945],[83.12733,25.2896],[83.12742,25.29057],[83.12696,25.29202],[83.12701,25.2924],[83.1287,25.29425],[83.12935,25.29446],[83.12977,25.29512],[83.13031,25.29533],[83.13052,25.29606]]]}},{"type":"Feature","bbox":[83.11903,25.28522,83.12524,25.28977],"properties":{"ward":2,"name":"Shahkuti"},"geometry":{"type":"Polygon","coordinates":[[[83.12197,25.28749],[83.12239,25.28878],[83.12293,25.28977],[83.12501,25.28935],[83.12374,25.28655],[83.12524,25.28609],[83.12419,25.28581],[83.11903,25.28522],[83.11933,25.28603],[83.1195,25.28727],[83.11968,25.28749],[83.12031,25.28774],[83.12197,25.28749]]]}},{"type":"Feature","bbox":[83.12665,25.2641,83.13869,25.27526],"properties":{"ward":3,"name":"Nai Basti"},"geometry":{"type":"Polygon","coordinates":[[[83.12665,25.27473],[83.1286,25.27517],[83.13047,25.27526],[83.13049,25.27471],[83.13069,25.27463],[83.13066,25.27333],[83.13132,25.27193],[83.13133,25.27125],[83.13156,25.27066],[83.13207,25.27008],[83.13249,25.27019],[83.13261,25.26982],[83.13297,25.26981],[83.13317,25.2696],[83.13399,25.26936],[83.13492,25.26959],[83.13646,25.27047],[83.13725,25.27059],[83.1373,25.27079],[83.13708,25.26976],[83.1372,25.26876],[83.13869,25.269],[83.13842,25.26663],[83.13846,25.26545],[83.13647,25.26473],[83.13615,25.2652],[83.13537,25.26527],[83.13498,25.2643],[83.13469,25.2641],[83.13262,25.26416],[83.13188,25.26432],[83.13119,25.26452],[83.13008,25.26527],[83.1298,25.26584],[83.12961,25.26728],[83.12968,25.2681],[83.12759,25.27125],[83.12719,25.2725],[83.12736,25.27288],[83.12691,25.273],[83.12677,25.2735],[83.12665,25.27473]]]}},{"type":"Feature","bbox":[83.09539,25.28534,83.11473,25.29946],"properties":{"ward":4,"name":"Gidhauli"},"geometry":{"type":"Polygon","coordinates":[[[83.09719,25.29409],[83.09976,25.29264],[83.10086,25.29455],[83.10112,25.29548],[83.1016,25.29631],[83.10262,25.29605],[83.10183,25.29347],[83.10118,25.29235],[83.1023,25.29189],[83.10297,25.29325],[83.10337,25.29374],[83.10415,25.29674],[83.10762,25.29686],[83.10762,25.29796],[83.10828,25.29805],[83.1095,25.29787],[83.10993,25.29799],[83.11068,25.29833],[83.11121,25.29887],[83.1126,25.29946],[83.11282,25.29943],[83.11295,25.29907],[83.11424,25.29894],[83.11401,25.29821],[83.1142,25.29786],[83.1141,25.29706],[83.11473,25.2969],[83.11368,25.29631],[83.11221,25.29626],[83.11226,25.29605],[83.11201,25.29601],[83.11197,25.29558],[83.11146,25.29566],[83.11159,25.29534],[83.11096,25.29541],[83.11069,25.29486],[83.11038,25.29496],[83.1102,25.29465],[83.10957,25.29464],[83.10915,25.29364],[83.10914,25.29311],[83.10826,25.2932],[83.10801,25.29221],[83.10741,25.29151],[83.10698,25.29058],[83.10679,25.28994],[83.1077,25.28981],[83.10685,25.28867],[83.10142,25.29171],[83.10076,25.29034],[83.10058,25.2891],[83.09924,25.28907],[83.09818,25.28797],[83.09788,25.28634],[83.09747,25.28534],[83.09638,25.28567],[83.09607,25.28562],[83.09539,25.28598],[83.09545,25.28947],[83.09619,25.29198],[83.09719,25.29409]]]}},{"type":"Feature","bbox":[83.13745,25.2705,83.14841,25.28207],"properties":{"ward":5,"name":"Bichhadi"},"geometry":{"type":"Polygon","coordinates":[[[83.14649,25.28117],[83.14645,25.28093],[83.14682,25.28073],[83.14718,25.27911],[83.14717,25.27662],[83.14676,25.27577],[83.14647,25.27436],[83.14593,25.2738],[83.14569,25.27319],[83.14841,25.27226],[83.14832,25.27169],[83.14791,25.27094],[83.14603,25.2705],[83.14556,25.27087],[83.14605,25.27206],[83.13745,25.27524],[83.13768,25.2757],[83.13777,25.27777],[83.1388,25.2788],[83.14092,25.28207],[83.14291,25.28174],[83.14342,25.28206],[83.14449,25.28198],[83.14504,25.28182],[83.14543,25.28147],[83.14649,25.28117]]]}},{"type":"Feature","bbox":[83.10679,25.28978,83.11569,25.2969],"properties":{"ward":6,"name":"Mahmoodpur"},"geometry":{"type":"Polygon","coordinates":[[[83.11221,25.29626],[83.11368,25.29631],[83.11473,25.2969],[83.11504,25.2967],[83.11563,25.29663],[83.11569,25.2963],[83.11542,25.29587],[83.11537,25.29516],[83.11506,25.29481],[83.11496,25.29442],[83.11475,25.29267],[83.115,25.29263],[83.11488,25.29202],[83.11421,25.29227],[83.11355,25.2922],[83.11307,25.29236],[83.1125,25.29233],[83.11241,25.29185],[83.11133,25.29172],[83.11118,25.29148],[83.10922,25.29178],[83.10911,25.29139],[83.1087,25.29097],[83.1086,25.29039],[83.1082,25.29051],[83.10762,25.28978],[83.10679,25.28994],[83.10741,25.29151],[83.10801,25.29221],[83.10826,25.2932],[83.10914,25.29311],[83.10915,25.29364],[83.10957,25.29464],[83.1102,25.29465],[83.11038,25.29496],[83.11069,25.29486],[83.11096,25.29541],[83.11159,25.29534],[83.11146,25.29566],[83.11197,25.29558],[83.11201,25.29601],[83.11226,25.29605],[83.11221,25.29626]]]}},{"type":"Feature","bbox":[83.11636,25.29055,83.13094,25.29998],"properties":{"ward":7,"name":"Pathra Bhag-02"},"geometry":{"type":"Polygon","coordinates":[[[83.12915,25.29687],[83.12919,25.297],[83.13094,25.2966],[83.13068,25.29603],[83.13052,25.29606],[83.13031,25.29533],[83.12977,25.29512],[83.12935,25.29446],[83.1287,25.29425],[83.12773,25.2932],[83.1278,25.29474],[83.12697,25.29403],[83.12642,25.29271],[83.12531,25.29245],[83.12415,25.29272],[83.12392,25.29244],[83.12364,25.2925],[83.12336,25.29223],[83.12308,25.29228],[83.12295,25.29172],[83.12253,25.2918],[83.12218,25.29135],[83.12165,25.29162],[83.11992,25.29156],[83.1193,25.29121],[83.1188,25.29055],[83.11856,25.29072],[83.11792,25.29265],[83.11795,25.2937],[83.11866,25.29501],[83.11904,25.29696],[83.11895,25.29721],[83.11753,25.29709],[83.11748,25.29766],[83.1173,25.29777],[83.11705,25.29841],[83.11673,25.29844],[83.11636,25.2988],[83.11711,25.29913],[83.11748,25.29998],[83.11942,25.29941],[83.12149,25.29935],[83.12317,25.29907],[83.12432,25.29845],[83.12492,25.29841],[83.12492,25.29799],[83.12559,25.29797],[83.12564,25.29743],[83.12712,25.29768],[83.12719,25.29713],[83.12915,25.29687]]]}},{"type":"Feature","bbox":[83.11401,25.28855,83.11904,25.29927],"properties":{"ward":8,"name":"Pathra Bhag-01"},"geometry":{"type":"Polygon","coordinates":[[[83.11678,25.28881],[83.11702,25.28996],[83.11669,25.29007],[83.11672,25.29166],[83.11587,25.29252],[83.11475,25.29267],[83.115,25.29458],[83.11537,25.29516],[83.11542,25.29587],[83.11569,25.29637],[83.11563,25.29663],[83.11504,25.2967],[83.1141,25.29706],[83.1142,25.29786],[83.11401,25.29821],[83.11408,25.29871],[83.11448,25.29927],[83.11579,25.29875],[83.11636,25.2988],[83.11673,25.29844],[83.11705,25.29841],[83.1173,25.29777],[83.11748,25.29766],[83.11753,25.29709],[83.11895,25.29721],[83.11904,25.29696],[83.11866,25.29501],[83.11795,25.2937],[83.11792,25.29265],[83.11856,25.29072],[83.11882,25.29046],[83.11832,25.28968],[83.11802,25.28855],[83.11678,25.28881]]]}},{"type":"Feature","bbox":[83.13047,25.26936,83.14092,25.2822],"properties":{"ward":9,"name":"Mughalchak"},"geometry":{"type":"Polygon","coordinates":[[[83.13249,25.27767],[83.13525,25.27748],[83.13682,25.278],[83.14025,25.2822],[83.14092,25.28207],[83.1388,25.2788],[83.13777,25.27777],[83.13768,25.2757],[83.13745,25.27524],[83.13885,25.27467],[83.13803,25.27269],[83.13782,25.27147],[83.13725,25.27059],[83.13646,25.27047],[83.13492,25.26959],[83.13399,25.26936],[83.13317,25.2696],[83.13297,25.26981],[83.13261,25.26982],[83.13249,25.27019],[83.13207,25.27008],[83.13156,25.27066],[83.13133,25.27125],[83.13132,25.27193],[83.13066,25.27333],[83.13069,25.27463],[83.13049,25.27471],[83.13047,25.27526],[83.13063,25.27558],[83.13116,25.27578],[83.1317,25.2769],[83.13235,25.27738],[83.13249,25.27767]]]}},{"type":"Feature","bbox":[83.10622,25.268,83.12157,25.27379],"properties":{"ward":10,"name":"Mawai Khurd-02"},"geometry":{"type":"Polygon","coordinates":[[[83.10622,25.27089],[83.10928,25.27258],[83.11131,25.27338],[83.11223,25.27351],[83.11292,25.27221],[83.11469,25.27301],[83.11549,25.27195],[83.11643,25.27213],[83.1202,25.27379],[83.12063,25.27346],[83.121,25.27377],[83.12157,25.27364],[83.12114,25.2709],[83.12,25.26947],[83.11926,25.26971],[83.11877,25.27038],[83.11723,25.26966],[83.11729,25.26909],[83.1168,25.26911],[83.1166,25.2689],[83.11497,25.26903],[83.11443,25.26854],[83.11277,25.26878],[83.11243,25.26813],[83.11183,25.268],[83.11163,25.26841],[83.10962,25.26818],[83.10622,25.27089]]]}},{"type":"Feature","bbox":[83.1096,25.26321,83.12043,25.27038],"properties":{"ward":11,"name":"Mawae Khurd Bhag-01"},"geometry":{"type":"Polygon","coordinates":[[[83.11037,25.26567],[83.1096,25.2682],[83.11163,25.26841],[83.11183,25.268],[83.11243,25.26813],[83.11277,25.26878],[83.11443,25.26854],[83.11497,25.26903],[83.1166,25.2689],[83.1168,25.26911],[83.11729,25.26909],[83.11723,25.26966],[83.11877,25.27038],[83.11926,25.26971],[83.12,25.26947],[83.1198,25.26818],[83.12043,25.26619],[83.12034,25.26544],[83.11937,25.26492],[83.11583,25.2643],[83.11414,25.26345],[83.11042,25.26321],[83.11037,25.26567]]]}},{"type":"Feature","bbox":[83.09743,25.28381,83.10685,25.29171],"properties":{"ward":12,"name":"Chandhasi"},"geometry":{"type":"Polygon","coordinates":[[[83.10016,25.28381],[83.09743,25.28519],[83.09788,25.28634],[83.09818,25.28797],[83.09924,25.28907],[83.10058,25.2891],[83.10076,25.29034],[83.10142,25.29171],[83.10685,25.28867],[83.10583,25.2866],[83.10491,25.28535],[83.1022,25.28521],[83.10086,25.28551],[83.10046,25.28428],[83.10032,25.28432],[83.10016,25.28381]]]}},{"type":"Feature","bbox":[83.12374,25.28608,83.12934,25.29474],"properties":{"ward":13,"name":"Kaalimahaal"},"geometry":{"type":"Polygon","coordinates":[[[83.12498,25.28926],[83.12611,25.28933],[83.12636,25.29079],[83.12642,25.29271],[83.12697,25.29403],[83.1278,25.29474],[83.12773,25.2932],[83.12701,25.2924],[83.12696,25.29202],[83.12742,25.29057],[83.12733,25.2896],[83.12777,25.28945],[83.12825,25.28876],[83.12918,25.28864],[83.12934,25.28809],[83.12527,25.28608],[83.12374,25.28655],[83.12498,25.28926]]]}},{"type":"Feature","bbox":[83.09529,25.2729,83.11101,25.28598],"properties":{"ward":14,"name":"Parashurampur"},"geometry":{"type":"Polygon","coordinates":[[[83.09571,25.28337],[83.09539,25.28457],[83.09559,25.28495],[83.09539,25.28598],[83.09607,25.28562],[83.09638,25.28567],[83.09747,25.28534],[83.09743,25.28519],[83.09807,25.2849],[83.0981,25.28473],[83.10016,25.28381],[83.09934,25.28234],[83.10037,25.28145],[83.10155,25.2807],[83.10807,25.27824],[83.1086,25.2778],[83.10972,25.27606],[83.11101,25.27524],[83.11081,25.27455],[83.11017,25.27448],[83.10953,25.274],[83.10769,25.27332],[83.10586,25.2729],[83.10536,25.27292],[83.10357,25.27369],[83.10302,25.27409],[83.09956,25.27925],[83.09883,25.28066],[83.098,25.28139],[83.0977,25.28124],[83.09669,25.28141],[83.09553,25.28214],[83.09529,25.28261],[83.09571,25.28337]]]}},{"type":"Feature","bbox":[83.12293,25.28931,83.12642,25.29271],"properties":{"ward":15,"name":"Lot No.2 Bhag-02"},"geometry":{"type":"Polygon","coordinates":[[[83.12554,25.29246],[83.12642,25.29271],[83.12636,25.29079],[83.12611,25.28933],[83.12532,25.28931],[83.12293,25.28977],[83.12351,25.29055],[83.12422,25.2927],[83.12554,25.29246]]]}},{"type":"Feature","bbox":[83.13708,25.26717,83.14605,25.27467],"properties":{"ward":16,"name":"Alinagar"},"geometry":{"type":"Polygon","coordinates":[[[83.13985,25.26717],[83.13941,25.26731],[83.13935,25.26771],[83.1386,25.26762],[83.13869,25.269],[83.1372,25.26876],[83.13708,25.26976],[83.1373,25.27079],[83.13782,25.27147],[83.13803,25.27269],[83.13885,25.27467],[83.14605,25.27206],[83.14556,25.27087],[83.14603,25.2705],[83.14595,25.2695],[83.14472,25.26898],[83.14406,25.2683],[83.14303,25.26778],[83.13985,25.26717]]]}},{"type":"Feature","bbox":[83.11901,25.281,83.12536,25.28618],"properties":{"ward":17,"name":"Eastern Bazaar"},"geometry":{"type":"Polygon","coordinates":[[[83.11901,25.28202],[83.11973,25.28418],[83.12214,25.28352],[83.12275,25.28362],[83.12422,25.28509],[83.12517,25.2858],[83.12536,25.28618],[83.12531,25.28583],[83.12397,25.28383],[83.12388,25.28283],[83.12399,25.282],[83.12161,25.28107],[83.12098,25.281],[83.11901,25.28202]]]}},{"type":"Feature","bbox":[83.10685,25.28569,83.11488,25.29233],"properties":{"ward":18,"name":"Kailashpuri"},"geometry":{"type":"Polygon","coordinates":[[[83.11372,25.2878],[83.11288,25.28792],[83.11221,25.28569],[83.10685,25.28867],[83.10757,25.28949],[83.1082,25.29051],[83.1086,25.29039],[83.1087,25.29097],[83.10911,25.29139],[83.10922,25.29178],[83.11118,25.29148],[83.11133,25.29172],[83.11241,25.29185],[83.1125,25.29233],[83.11421,25.29227],[83.11488,25.29202],[83.11372,25.2878]]]}},{"type":"Feature","bbox":[83.11733,25.28532,83.12422,25.29269],"properties":{"ward":19,"name":"Lot No 2 Bhag-01"},"geometry":{"type":"Polygon","coordinates":[[[83.11992,25.29156],[83.12165,25.29162],[83.12218,25.29135],[83.12253,25.2918],[83.12295,25.29172],[83.12308,25.29228],[83.12336,25.29223],[83.12364,25.2925],[83.12392,25.29244],[83.12422,25.29269],[83.12351,25.29055],[83.12239,25.28878],[83.12197,25.28749],[83.12031,25.28774],[83.11968,25.28749],[83.1195,25.28727],[83.11933,25.28603],[83.11908,25.28546],[83.11733,25.28532],[83.11775,25.28657],[83.11805,25.28693],[83.11793,25.28816],[83.11832,25.28968],[83.1193,25.29121],[83.11992,25.29156]]]}},{"type":"Feature","bbox":[83.11221,25.28433,83.11805,25.28881],"properties":{"ward":20,"name":"New Mahal"},"geometry":{"type":"Polygon","coordinates":[[[83.11442,25.2866],[83.11605,25.2859],[83.11662,25.28636],[83.1166,25.28689],[83.11614,25.28738],[83.11654,25.28745],[83.11677,25.28881],[83.11802,25.28855],[83.11793,25.28797],[83.11805,25.28693],[83.11775,25.28657],[83.11721,25.28508],[83.11661,25.28488],[83.11591,25.2844],[83.11506,25.28486],[83.11472,25.28433],[83.11221,25.28569],[83.11248,25.2864],[83.11426,25.286],[83.11442,25.2866]]]}},{"type":"Feature","bbox":[83.10016,25.28084,83.11231,25.28867],"properties":{"ward":21,"name":"Subash Nagar"},"geometry":{"type":"Polygon","coordinates":[[[83.10685,25.28867],[83.11231,25.28563],[83.11017,25.28142],[83.1085,25.2818],[83.10807,25.28108],[83.1072,25.28145],[83.10699,25.28084],[83.10612,25.281],[83.1058,25.28088],[83.10016,25.28381],[83.10032,25.28432],[83.10046,25.28428],[83.10086,25.28551],[83.1022,25.28521],[83.10491,25.28535],[83.10583,25.2866],[83.10685,25.28867]]]}},{"type":"Feature","bbox":[83.11249,25.2859,83.11702,25.29263],"properties":{"ward":22,"name":"Patel Nagar"},"geometry":{"type":"Polygon","coordinates":[[[83.11555,25.29262],[83.11604,25.29238],[83.11672,25.29166],[83.11669,25.29007],[83.11702,25.28996],[83.11654,25.28745],[83.11614,25.28738],[83.1166,25.28689],[83.11662,25.28636],[83.11605,25.2859],[83.11442,25.2866],[83.11426,25.286],[83.11249,25.2864],[83.11288,25.28792],[83.11372,25.2878],[83.115,25.29263],[83.11547,25.29252],[83.11555,25.29262]]]}},{"type":"Feature","bbox":[83.12127,25.28352,83.12527,25.28608],"properties":{"ward":23,"name":"Kasaab Mahaal"},"geometry":{"type":"Polygon","coordinates":[[[83.12157,25.2855],[83.12527,25.28608],[83.12517,25.2858],[83.12422,25.28509],[83.12275,25.28362],[83.12214,25.28352],[83.12127,25.28377],[83.12151,25.28451],[83.12157,25.2855]]]}},{"type":"Feature","bbox":[83.11472,25.28248,83.11908,25.28546],"properties":{"ward":24,"name":"Western Bazaar"},"geometry":{"type":"Polygon","coordinates":[[[83.11472,25.28433],[83.11506,25.28486],[83.11591,25.2844],[83.11661,25.28488],[83.11721,25.28508],[83.11733,25.28532],[83.11908,25.28546],[83.1189,25.28441],[83.11849,25.28332],[83.11853,25.28303],[83.11827,25.28248],[83.11472,25.28433]]]}},{"type":"Feature","bbox":[83.11825,25.28202,83.12157,25.2855],"properties":{"ward":25,"name":"Mainatali"},"geometry":{"type":"Polygon","coordinates":[[[83.11903,25.28522],[83.12157,25.2855],[83.12151,25.28451],[83.12127,25.28377],[83.11973,25.28418],[83.11901,25.28202],[83.11825,25.28244],[83.11853,25.28303],[83.11849,25.28332],[83.1189,25.28441],[83.11903,25.28522]]]}}]}