{"type":"FeatureCollection","features":[{"type":"Feature","bbox":[82.71521,25.20635,82.72307,25.21327],"properties":{"ward":1,"name":"Jogi Pur"},"geometry":{"type":"Polygon","coordinates":[[[82.72113,25.20635],[82.72011,25.20736],[82.7184,25.2085],[82.71623,25.20896],[82.71634,25.21058],[82.71521,25.21071],[82.71527,25.21327],[82.71621,25.21324],[82.7162,25.21252],[82.71893,25.21245],[82.72307,25.21149],[82.72214,25.21004],[82.72113,25.20635]]]}},{"type":"Feature","bbox":[82.70981,25.19731,82.71345,25.20528],"properties":{"ward":2,"name":"Pirkhan"},"geometry":{"type":"Polygon","coordinates":[[[82.71187,25.2052],[82.71292,25.20458],[82.71294,25.20407],[82.71345,25.20395],[82.71329,25.20177],[82.71275,25.20134],[82.71244,25.20014],[82.71278,25.19961],[82.71251,25.19731],[82.71078,25.19808],[82.70981,25.19829],[82.71035,25.20307],[82.71111,25.20347],[82.71141,25.20528],[82.71187,25.2052]]]}},{"type":"Feature","bbox":[82.70365,25.19829,82.71141,25.20657],"properties":{"ward":3,"name":"Pandey Pur"},"geometry":{"type":"Polygon","coordinates":[[[82.71141,25.20528],[82.71111,25.20347],[82.71035,25.20307],[82.70981,25.19829],[82.70422,25.19918],[82.70419,25.20189],[82.70414,25.20217],[82.70367,25.20223],[82.70365,25.20462],[82.70506,25.20473],[82.70678,25.2051],[82.70835,25.20578],[82.70945,25.20657],[82.70955,25.20557],[82.71141,25.20528]]]}},{"type":"Feature","bbox":[82.71264,25.20645,82.71634,25.21389],"properties":{"ward":4,"name":"Tegbhadur"},"geometry":{"type":"Polygon","coordinates":[[[82.71528,25.21385],[82.71521,25.21071],[82.71634,25.21058],[82.71624,25.20906],[82.71599,25.20886],[82.71565,25.20647],[82.71497,25.20645],[82.71412,25.20655],[82.71412,25.20744],[82.71337,25.20791],[82.71264,25.21319],[82.71285,25.21318],[82.7129,25.2129],[82.71433,25.21285],[82.71433,25.21312],[82.71405,25.21314],[82.7141,25.2135],[82.71448,25.2136],[82.71457,25.21384],[82.71513,25.21389],[82.71528,25.21385]]]}},{"type":"Feature","bbox":[82.70255,25.20462,82.71316,25.21475],"properties":{"ward":5,"name":"Pared"},"geometry":{"type":"Polygon","coordinates":[[[82.71264,25.21319],[82.71316,25.20877],[82.71304,25.20855],[82.71164,25.20814],[82.71028,25.20737],[82.70938,25.20651],[82.70757,25.2054],[82.70506,25.20473],[82.70365,25.20462],[82.70332,25.20813],[82.70257,25.20821],[82.70255,25.21036],[82.7051,25.2103],[82.7052,25.21103],[82.70615,25.21108],[82.70621,25.21205],[82.7059,25.21213],[82.70592,25.21256],[82.70712,25.21303],[82.70726,25.21383],[82.70818,25.21404],[82.70842,25.21434],[82.70907,25.21446],[82.70908,25.21475],[82.71128,25.21456],[82.71141,25.21321],[82.71264,25.21319]]]}},{"type":"Feature","bbox":[82.71244,25.19639,82.7153,25.20395],"properties":{"ward":6,"name":"Babhanan"},"geometry":{"type":"Polygon","coordinates":[[[82.7153,25.20359],[82.71491,25.20183],[82.71482,25.19951],[82.71499,25.19924],[82.71467,25.19639],[82.71251,25.19731],[82.71278,25.19961],[82.71244,25.20014],[82.71275,25.20134],[82.71329,25.20177],[82.71345,25.20395],[82.7153,25.20359]]]}},{"type":"Feature","bbox":[82.70945,25.2052,82.71412,25.20877],"properties":{"ward":7,"name":"Darjiyan"},"geometry":{"type":"Polygon","coordinates":[[[82.71412,25.20655],[82.71218,25.20711],[82.71187,25.2052],[82.70955,25.20557],[82.70947,25.20605],[82.70945,25.20657],[82.71028,25.20737],[82.71164,25.20814],[82.71287,25.20847],[82.71316,25.20877],[82.71328,25.20877],[82.71337,25.20791],[82.71412,25.20744],[82.71412,25.20655]]]}},{"type":"Feature","bbox":[82.71467,25.19557,82.71909,25.20563],"properties":{"ward":8,"name":"Tiwariyan"},"geometry":{"type":"Polygon","coordinates":[[[82.71771,25.20524],[82.71725,25.20384],[82.71708,25.20234],[82.71909,25.20189],[82.71908,25.20145],[82.71869,25.20046],[82.71833,25.19996],[82.71817,25.19914],[82.71794,25.19898],[82.71698,25.19557],[82.71467,25.19639],[82.71499,25.19924],[82.71482,25.19951],[82.71491,25.20183],[82.71549,25.20465],[82.71586,25.20467],[82.71599,25.20563],[82.71668,25.2056],[82.71771,25.20524]]]}},{"type":"Feature","bbox":[82.71187,25.20359,82.71814,25.20711],"properties":{"ward":9,"name":"Thana"},"geometry":{"type":"Polygon","coordinates":[[[82.71412,25.20655],[82.71564,25.20647],[82.71814,25.20606],[82.71771,25.20524],[82.71668,25.2056],[82.71599,25.20563],[82.71586,25.20467],[82.71549,25.20465],[82.7153,25.20359],[82.71294,25.20407],[82.71292,25.20458],[82.71187,25.2052],[82.71218,25.20711],[82.71412,25.20655]]]}},{"type":"Feature","bbox":[82.71623,25.2054,82.72113,25.20896],"properties":{"ward":10,"name":"Kewtan"},"geometry":{"type":"Polygon","coordinates":[[[82.72113,25.20635],[82.72098,25.20587],[82.7207,25.20582],[82.72057,25.2054],[82.71934,25.20568],[82.71954,25.20697],[82.71866,25.20715],[82.71847,25.20672],[82.71648,25.2069],[82.71651,25.20803],[82.71623,25.20896],[82.7184,25.2085],[82.72011,25.20736],[82.72113,25.20635]]]}},{"type":"Feature","bbox":[82.71708,25.20189,82.72057,25.20715],"properties":{"ward":11,"name":"Mangarwari"},"geometry":{"type":"Polygon","coordinates":[[[82.72057,25.2054],[82.72054,25.20453],[82.72031,25.20436],[82.72009,25.20362],[82.71913,25.20261],[82.71909,25.20189],[82.71708,25.20234],[82.71725,25.20384],[82.71758,25.20501],[82.71866,25.20715],[82.71954,25.20697],[82.71934,25.20568],[82.72057,25.2054]]]}},{"type":"Feature","bbox":[82.71565,25.20606,82.71849,25.20906],"properties":{"ward":12,"name":"Sankarpur"},"geometry":{"type":"Polygon","coordinates":[[[82.71648,25.2069],[82.71849,25.20671],[82.71814,25.20606],[82.71565,25.20647],[82.71599,25.20886],[82.71624,25.20906],[82.71651,25.20803],[82.71648,25.2069]]]}}]}