{"type":"FeatureCollection","features":[{"type":"Feature","bbox":[86.4585,25.49989,86.47002,25.50904],"properties":{"ward":1,"name":"Dan Nagar"},"geometry":{"type":"Polygon","coordinates":[[[86.46413,25.50894],[86.46623,25.50904],[86.46623,25.50818],[86.46962,25.50821],[86.4697,25.50779],[86.46997,25.5078],[86.47002,25.50554],[86.45997,25.50523],[86.46016,25.50322],[86.45974,25.50017],[86.45864,25.49989],[86.45851,25.50019],[86.4585,25.50641],[86.45928,25.50682],[86.4591,25.50809],[86.46056,25.50828],[86.46078,25.50816],[86.46206,25.50817],[86.46205,25.50834],[86.46407,25.5084],[86.46413,25.50894]]]}},{"type":"Feature","bbox":[86.45997,25.50228,86.46518,25.50539],"properties":{"ward":2,"name":"Dan Nagar"},"geometry":{"type":"Polygon","coordinates":[[[86.46518,25.50539],[86.46466,25.50362],[86.46367,25.50384],[86.46349,25.5031],[86.46187,25.50325],[86.46186,25.50228],[86.46172,25.50228],[86.46172,25.5025],[86.46061,25.50264],[86.46086,25.50293],[86.46063,25.5034],[86.46066,25.50371],[86.46177,25.50366],[86.46177,25.50402],[86.46004,25.50414],[86.45997,25.50523],[86.46518,25.50539]]]}},{"type":"Feature","bbox":[86.45998,25.50221,86.46177,25.50414],"properties":{"ward":3,"name":"Dan Nagar"},"geometry":{"type":"Polygon","coordinates":[[[86.46177,25.50372],[86.46066,25.50371],[86.46063,25.5034],[86.46085,25.50287],[86.46049,25.50252],[86.46049,25.50223],[86.45998,25.50221],[86.46016,25.50322],[86.46004,25.50414],[86.46161,25.50406],[86.46177,25.50402],[86.46177,25.50372]]]}},{"type":"Feature","bbox":[86.46049,25.50162,86.46466,25.50384],"properties":{"ward":4,"name":"Dan Nagar"},"geometry":{"type":"Polygon","coordinates":[[[86.46466,25.50362],[86.46447,25.50272],[86.46384,25.50186],[86.46259,25.50182],[86.4622,25.50162],[86.46101,25.50182],[86.46049,25.50223],[86.46061,25.50264],[86.46172,25.5025],[86.46172,25.50228],[86.46186,25.50228],[86.46187,25.50325],[86.46349,25.5031],[86.46367,25.50384],[86.46466,25.50362]]]}},{"type":"Feature","bbox":[86.45998,25.50115,86.4622,25.50222],"properties":{"ward":5,"name":"Dan Nagar"},"geometry":{"type":"Polygon","coordinates":[[[86.46052,25.50222],[86.46101,25.50182],[86.4622,25.50162],[86.46144,25.50115],[86.4604,25.50121],[86.46,25.50146],[86.45998,25.50221],[86.46052,25.50222]]]}},{"type":"Feature","bbox":[86.45862,25.49513,86.46426,25.50183],"properties":{"ward":6,"name":"Vidyadhar"},"geometry":{"type":"Polygon","coordinates":[[[86.46382,25.50183],[86.46357,25.50069],[86.46374,25.49972],[86.46328,25.49962],[86.46342,25.49911],[86.46285,25.49897],[86.46426,25.49531],[86.46028,25.49513],[86.4603,25.49547],[86.45893,25.49553],[86.45862,25.49832],[86.45865,25.49989],[86.45974,25.50017],[86.46,25.50146],[86.46047,25.50119],[86.46144,25.50115],[86.46255,25.50181],[86.46382,25.50183]]]}},{"type":"Feature","bbox":[86.46285,25.49531,86.46685,25.50298],"properties":{"ward":7,"name":"Vishwanath Ganj"},"geometry":{"type":"Polygon","coordinates":[[[86.46568,25.50009],[86.46685,25.49569],[86.46426,25.49531],[86.46285,25.49897],[86.46342,25.49911],[86.46328,25.49962],[86.46374,25.49972],[86.46357,25.50069],[86.46373,25.50168],[86.46454,25.50298],[86.46637,25.50258],[86.46611,25.50132],[86.46625,25.50127],[86.46611,25.50018],[86.46568,25.50009]]]}},{"type":"Feature","bbox":[86.46454,25.50172,86.46846,25.50549],"properties":{"ward":8,"name":"Mil Road"},"geometry":{"type":"Polygon","coordinates":[[[86.4678,25.50307],[86.46722,25.50304],[86.4673,25.50226],[86.46718,25.50172],[86.46619,25.50181],[86.46637,25.50258],[86.46454,25.50298],[86.46518,25.50539],[86.46846,25.50549],[86.46838,25.50466],[86.4678,25.50307]]]}},{"type":"Feature","bbox":[86.46722,25.50226,86.46905,25.50551],"properties":{"ward":9,"name":"Mirgiyas Chak"},"geometry":{"type":"Polygon","coordinates":[[[86.46905,25.50456],[86.46849,25.50402],[86.46861,25.50399],[86.46853,25.50373],[86.46807,25.50294],[86.46804,25.50227],[86.4673,25.50226],[86.46722,25.50304],[86.46779,25.50301],[86.46838,25.50466],[86.46846,25.50549],[86.46903,25.50551],[86.46905,25.50456]]]}},{"type":"Feature","bbox":[86.46568,25.49569,86.47036,25.50226],"properties":{"ward":10,"name":"Loha Patti"},"geometry":{"type":"Polygon","coordinates":[[[86.46801,25.50226],[86.46802,25.50202],[86.46852,25.50189],[86.46852,25.50168],[86.46997,25.50141],[86.46986,25.49943],[86.47021,25.49815],[86.47036,25.49664],[86.46685,25.49569],[86.46568,25.50009],[86.46611,25.50018],[86.4662,25.50181],[86.46718,25.50172],[86.46726,25.50224],[86.46801,25.50226]]]}},{"type":"Feature","bbox":[86.46802,25.50141,86.47015,25.50551],"properties":{"ward":11,"name":"Nac Road"},"geometry":{"type":"Polygon","coordinates":[[[86.46922,25.50551],[86.46927,25.50444],[86.47012,25.50447],[86.47015,25.50244],[86.46997,25.50141],[86.46852,25.50168],[86.46852,25.50189],[86.46802,25.50202],[86.46807,25.50294],[86.46853,25.50373],[86.46861,25.50399],[86.46849,25.50402],[86.4689,25.50455],[86.46905,25.50451],[86.46903,25.50551],[86.46922,25.50551]]]}},{"type":"Feature","bbox":[86.46922,25.50438,86.4721,25.50574],"properties":{"ward":12,"name":"Hajipur"},"geometry":{"type":"Polygon","coordinates":[[[86.47082,25.50548],[86.4721,25.50531],[86.47196,25.50438],[86.47012,25.50454],[86.46927,25.50444],[86.46922,25.50551],[86.4707,25.50574],[86.47082,25.50548]]]}},{"type":"Feature","bbox":[86.46993,25.50647,86.47558,25.51391],"properties":{"ward":13,"name":"Utarri Hajipur"},"geometry":{"type":"Polygon","coordinates":[[[86.47345,25.51366],[86.47558,25.51328],[86.47451,25.51048],[86.47457,25.50967],[86.47413,25.50829],[86.47406,25.50726],[86.4724,25.50724],[86.47232,25.50651],[86.46993,25.50647],[86.46997,25.5078],[86.47151,25.50769],[86.47148,25.50749],[86.47182,25.50746],[86.47297,25.51369],[86.4734,25.51391],[86.47345,25.51366]]]}},{"type":"Feature","bbox":[86.4745,25.51034,86.48059,25.51332],"properties":{"ward":14,"name":"Chitragupt Nagar"},"geometry":{"type":"Polygon","coordinates":[[[86.48059,25.51149],[86.47991,25.51034],[86.4791,25.51036],[86.47912,25.51057],[86.47872,25.51073],[86.47854,25.51034],[86.4745,25.51036],[86.47535,25.51289],[86.4757,25.51332],[86.47685,25.51325],[86.48002,25.51185],[86.48059,25.51149]]]}},{"type":"Feature","bbox":[86.47898,25.50729,86.48634,25.51267],"properties":{"ward":15,"name":"Ashok Nagar"},"geometry":{"type":"Polygon","coordinates":[[[86.48371,25.51267],[86.48501,25.5126],[86.48494,25.51241],[86.48529,25.51236],[86.48634,25.5103],[86.48511,25.50897],[86.48576,25.5074],[86.47898,25.50729],[86.47999,25.51055],[86.48059,25.51149],[86.48235,25.51034],[86.48303,25.51024],[86.48371,25.51267]]]}},{"type":"Feature","bbox":[86.47232,25.50651,86.47995,25.51073],"properties":{"ward":16,"name":"Hospital Road"},"geometry":{"type":"Polygon","coordinates":[[[86.47905,25.51039],[86.47995,25.51034],[86.47892,25.50724],[86.47892,25.50674],[86.47232,25.50651],[86.4724,25.50724],[86.47406,25.50726],[86.47413,25.50829],[86.47457,25.50967],[86.47454,25.51029],[86.47854,25.51034],[86.47872,25.51073],[86.47912,25.51057],[86.47905,25.51039]]]}},{"type":"Feature","bbox":[86.46993,25.50431,86.4736,25.50655],"properties":{"ward":17,"name":"Hajipur"},"geometry":{"type":"Polygon","coordinates":[[[86.4736,25.50655],[86.47327,25.50431],[86.47196,25.50438],[86.4721,25.50531],[86.47082,25.50548],[86.4707,25.50574],[86.47001,25.5057],[86.46993,25.50647],[86.4736,25.50655]]]}},{"type":"Feature","bbox":[86.47008,25.50158,86.47255,25.50454],"properties":{"ward":18,"name":"Dhobi Tola"},"geometry":{"type":"Polygon","coordinates":[[[86.47236,25.50158],[86.47008,25.5019],[86.47012,25.50454],[86.47132,25.50438],[86.47139,25.50311],[86.47255,25.503],[86.47236,25.50158]]]}},{"type":"Feature","bbox":[86.46986,25.49664,86.47882,25.50428],"properties":{"ward":19,"name":"Post Office Road"},"geometry":{"type":"Polygon","coordinates":[[[86.47368,25.50428],[86.4787,25.50406],[86.47882,25.50149],[86.47826,25.50152],[86.4769,25.50083],[86.47531,25.49978],[86.47346,25.49828],[86.47199,25.49735],[86.47036,25.49664],[86.47021,25.49815],[86.46986,25.49943],[86.47008,25.5019],[86.47187,25.50155],[86.47354,25.50174],[86.47344,25.50251],[86.47368,25.50428]]]}},{"type":"Feature","bbox":[86.47132,25.50158,86.47368,25.50438],"properties":{"ward":20,"name":"Hajipur"},"geometry":{"type":"Polygon","coordinates":[[[86.47132,25.50438],[86.47368,25.50428],[86.47344,25.50251],[86.47354,25.50174],[86.47236,25.50158],[86.47255,25.503],[86.47139,25.50311],[86.47132,25.50438]]]}},{"type":"Feature","bbox":[86.47327,25.50423,86.47471,25.50659],"properties":{"ward":21,"name":"Jayprakash Nagar"},"geometry":{"type":"Polygon","coordinates":[[[86.47471,25.50659],[86.47451,25.50423],[86.47327,25.50431],[86.4736,25.50655],[86.47471,25.50659]]]}},{"type":"Feature","bbox":[86.47451,25.50423,86.47571,25.50662],"properties":{"ward":22,"name":"Jayprakash Nagar"},"geometry":{"type":"Polygon","coordinates":[[[86.47571,25.50438],[86.47451,25.50423],[86.47471,25.50659],[86.47567,25.50662],[86.47552,25.50523],[86.47571,25.50438]]]}},{"type":"Feature","bbox":[86.47552,25.50405,86.47892,25.50674],"properties":{"ward":23,"name":"Jayprakash Nagar"},"geometry":{"type":"Polygon","coordinates":[[[86.47856,25.50405],[86.4757,25.50432],[86.47552,25.50523],[86.47567,25.50662],[86.47892,25.50674],[86.47892,25.5064],[86.47869,25.50638],[86.47857,25.50574],[86.47856,25.50405]]]}},{"type":"Feature","bbox":[86.47855,25.50141,86.48109,25.5068],"properties":{"ward":24,"name":"Balwahi"},"geometry":{"type":"Polygon","coordinates":[[[86.48109,25.5068],[86.48062,25.50377],[86.48072,25.50334],[86.48057,25.50334],[86.4805,25.50296],[86.48049,25.50254],[86.48062,25.5025],[86.48043,25.50141],[86.47939,25.50167],[86.47906,25.50145],[86.47882,25.50149],[86.47855,25.50555],[86.47869,25.50638],[86.47892,25.5064],[86.47892,25.50674],[86.48109,25.5068]]]}},{"type":"Feature","bbox":[86.47892,25.50674,86.49644,25.51149],"properties":{"ward":25,"name":"Samir Nagar"},"geometry":{"type":"Polygon","coordinates":[[[86.49284,25.51106],[86.4934,25.50953],[86.49434,25.50973],[86.49579,25.50839],[86.49636,25.50822],[86.49644,25.50802],[86.49603,25.5077],[86.49595,25.50736],[86.47892,25.50674],[86.47898,25.50729],[86.48576,25.5074],[86.48513,25.50903],[86.48643,25.51038],[86.48751,25.51098],[86.48757,25.51073],[86.48839,25.51094],[86.48986,25.51082],[86.49115,25.51098],[86.49253,25.51149],[86.49284,25.51106]]]}},{"type":"Feature","bbox":[86.48043,25.49808,86.49596,25.50736],"properties":{"ward":26,"name":"Balwahi"},"geometry":{"type":"Polygon","coordinates":[[[86.49596,25.50663],[86.49504,25.50286],[86.49498,25.502],[86.4945,25.50183],[86.49441,25.49808],[86.49343,25.49873],[86.48724,25.50099],[86.48521,25.50125],[86.48043,25.50141],[86.48062,25.5025],[86.48049,25.50254],[86.4805,25.50296],[86.48075,25.50355],[86.48063,25.50355],[86.48062,25.50377],[86.48109,25.5068],[86.49595,25.50736],[86.49596,25.50663]]]}}]}