{"type":"FeatureCollection","features":[{"type":"Feature","bbox":[84.65993,25.57916,84.67511,25.59535],"properties":{"ward":1,"name":"Badki Singhai"},"geometry":{"type":"Polygon","coordinates":[[[84.67511,25.59515],[84.67471,25.58974],[84.67423,25.58665],[84.67433,25.58223],[84.67471,25.57938],[84.67168,25.57916],[84.67028,25.57921],[84.66986,25.58041],[84.66866,25.58159],[84.66803,25.582],[84.66617,25.58262],[84.66314,25.58286],[84.66181,25.58282],[84.66069,25.58257],[84.66069,25.5841],[84.66129,25.58574],[84.65993,25.58682],[84.66073,25.58984],[84.66173,25.59261],[84.66173,25.5931],[84.66347,25.59361],[84.66646,25.59388],[84.66783,25.59423],[84.67042,25.59437],[84.6705,25.59525],[84.67074,25.59535],[84.67511,25.59515]]]}},{"type":"Feature","bbox":[84.67027,25.57479,84.69466,25.58943],"properties":{"ward":2,"name":"Gaus Ganj"},"geometry":{"type":"Polygon","coordinates":[[[84.67781,25.58902],[84.67797,25.58934],[84.68254,25.58888],[84.6827,25.58859],[84.68206,25.58762],[84.68256,25.58494],[84.68336,25.58256],[84.68373,25.58256],[84.68394,25.58179],[84.68428,25.58124],[84.68519,25.58178],[84.6858,25.58231],[84.68577,25.58245],[84.68785,25.58375],[84.69019,25.58493],[84.69373,25.58704],[84.69466,25.58735],[84.69458,25.58569],[84.6942,25.58495],[84.69387,25.58369],[84.69314,25.58385],[84.69087,25.58207],[84.68863,25.58098],[84.68699,25.57986],[84.68391,25.57917],[84.68291,25.57878],[84.68028,25.57728],[84.67834,25.57669],[84.67727,25.57596],[84.6773,25.57537],[84.6768,25.57499],[84.67504,25.57479],[84.67389,25.57491],[84.67334,25.5751],[84.67134,25.57646],[84.67043,25.57659],[84.67072,25.57774],[84.67027,25.57921],[84.67168,25.57916],[84.67471,25.57938],[84.67442,25.58091],[84.67421,25.5844],[84.67424,25.58682],[84.67467,25.58943],[84.67781,25.58902]]]}},{"type":"Feature","bbox":[84.65545,25.57193,84.67072,25.58286],"properties":{"ward":3,"name":"Barah Batra"},"geometry":{"type":"Polygon","coordinates":[[[84.66314,25.58286],[84.66617,25.58262],[84.6683,25.58188],[84.66986,25.58041],[84.67072,25.57774],[84.67043,25.57659],[84.66787,25.57531],[84.66442,25.57307],[84.66207,25.57193],[84.66142,25.57329],[84.66123,25.57319],[84.66116,25.57332],[84.66039,25.57294],[84.66,25.57432],[84.65938,25.57412],[84.65923,25.57449],[84.65885,25.5748],[84.65814,25.57626],[84.65712,25.57764],[84.6574,25.57774],[84.65722,25.57809],[84.65652,25.57872],[84.65591,25.57842],[84.65545,25.57945],[84.65733,25.58022],[84.65904,25.58068],[84.65865,25.58173],[84.65949,25.58219],[84.66181,25.58282],[84.66314,25.58286]]]}},{"type":"Feature","bbox":[84.66747,25.57167,84.67492,25.57663],"properties":{"ward":4,"name":"Bind Toli , Chaudhriana"},"geometry":{"type":"Polygon","coordinates":[[[84.67334,25.5751],[84.67492,25.57484],[84.67438,25.57339],[84.67092,25.57286],[84.66838,25.57167],[84.66808,25.5728],[84.66777,25.57277],[84.66747,25.57377],[84.66775,25.57385],[84.66753,25.57459],[84.66778,25.57478],[84.66787,25.57531],[84.67058,25.57663],[84.67134,25.57646],[84.67334,25.5751]]]}},{"type":"Feature","bbox":[84.63368,25.56057,84.66838,25.57531],"properties":{"ward":5,"name":"Majahaua Maruti Nagar"},"geometry":{"type":"Polygon","coordinates":[[[84.66774,25.57288],[84.66808,25.5728],[84.66838,25.57167],[84.65179,25.56359],[84.643,25.56302],[84.63788,25.56224],[84.63589,25.56155],[84.63442,25.56057],[84.63432,25.56084],[84.63428,25.56195],[84.63453,25.56232],[84.63439,25.56288],[84.63368,25.56387],[84.63383,25.5648],[84.63431,25.56537],[84.6356,25.56599],[84.63623,25.56692],[84.63651,25.5671],[84.63691,25.56713],[84.63862,25.56637],[84.63917,25.56595],[84.64006,25.56461],[84.64082,25.56442],[84.643,25.56555],[84.64391,25.56679],[84.64551,25.56787],[84.64672,25.56776],[84.64995,25.56791],[84.65597,25.56894],[84.65676,25.56955],[84.65849,25.57005],[84.65941,25.57069],[84.66442,25.57307],[84.66787,25.57531],[84.66778,25.57478],[84.66753,25.57459],[84.66775,25.57385],[84.66747,25.57377],[84.66774,25.57288]]]}},{"type":"Feature","bbox":[84.66949,25.56723,84.67438,25.57339],"properties":{"ward":6,"name":"Mirganj, Coldstore"},"geometry":{"type":"Polygon","coordinates":[[[84.67438,25.57339],[84.67339,25.57039],[84.67328,25.56949],[84.67229,25.56807],[84.67225,25.56723],[84.67138,25.56729],[84.67111,25.568],[84.6709,25.5681],[84.67111,25.56891],[84.67101,25.5695],[84.67063,25.5699],[84.67055,25.57135],[84.66949,25.57218],[84.67132,25.57296],[84.67438,25.57339]]]}},{"type":"Feature","bbox":[84.67223,25.56723,84.67582,25.57484],"properties":{"ward":7,"name":"Meer Ganj"},"geometry":{"type":"Polygon","coordinates":[[[84.675,25.57418],[84.67557,25.57267],[84.67568,25.5716],[84.67582,25.56759],[84.67407,25.5676],[84.67309,25.56725],[84.67225,25.56723],[84.67223,25.56789],[84.67322,25.5693],[84.67345,25.57059],[84.67492,25.57484],[84.6751,25.57472],[84.675,25.57418]]]}},{"type":"Feature","bbox":[84.66881,25.56491,84.67241,25.56808],"properties":{"ward":8,"name":"Paschim Tola"},"geometry":{"type":"Polygon","coordinates":[[[84.67104,25.56806],[84.67138,25.56729],[84.67227,25.56723],[84.67241,25.56491],[84.67076,25.56505],[84.67081,25.56539],[84.67005,25.56549],[84.67,25.56613],[84.66945,25.56579],[84.66883,25.5658],[84.66881,25.56656],[84.6699,25.56711],[84.67012,25.56708],[84.67026,25.56745],[84.67055,25.56748],[84.67058,25.56759],[84.67023,25.56767],[84.6702,25.56808],[84.67104,25.56806]]]}},{"type":"Feature","bbox":[84.66684,25.56505,84.67081,25.56808],"properties":{"ward":9,"name":"Tari Mohalla"},"geometry":{"type":"Polygon","coordinates":[[[84.67058,25.56759],[84.67026,25.56745],[84.67012,25.56708],[84.6699,25.56711],[84.66881,25.56656],[84.66883,25.5658],[84.66945,25.56579],[84.67,25.56613],[84.67005,25.56549],[84.67081,25.56539],[84.67076,25.56505],[84.6674,25.56508],[84.66734,25.56621],[84.66684,25.56701],[84.66812,25.56767],[84.6698,25.56805],[84.6702,25.56808],[84.67023,25.56767],[84.67058,25.56759]]]}},{"type":"Feature","bbox":[84.65921,25.56266,84.66812,25.56701],"properties":{"ward":10,"name":"Mansa Pandey Bagh"},"geometry":{"type":"Polygon","coordinates":[[[84.66739,25.56514],[84.66812,25.56501],[84.66796,25.56478],[84.66786,25.56361],[84.667,25.56331],[84.66538,25.5637],[84.66389,25.56266],[84.66371,25.56466],[84.66359,25.56471],[84.66174,25.56397],[84.65921,25.56337],[84.66125,25.56508],[84.66348,25.56565],[84.66684,25.56701],[84.66734,25.56621],[84.66739,25.56514]]]}},{"type":"Feature","bbox":[84.65382,25.56251,84.67111,25.57218],"properties":{"ward":11,"name":"Tari"},"geometry":{"type":"Polygon","coordinates":[[[84.67091,25.56813],[84.66842,25.56776],[84.66397,25.56583],[84.66125,25.56508],[84.65921,25.56337],[84.65787,25.56306],[84.65512,25.56251],[84.65382,25.56453],[84.66949,25.57218],[84.67055,25.57135],[84.67063,25.5699],[84.67101,25.5695],[84.67111,25.56891],[84.67091,25.56813]]]}},{"type":"Feature","bbox":[84.65711,25.55893,84.667,25.56471],"properties":{"ward":12,"name":"Maula Bagh"},"geometry":{"type":"Polygon","coordinates":[[[84.66371,25.56466],[84.66389,25.56266],[84.66538,25.5637],[84.667,25.56331],[84.6667,25.56154],[84.6661,25.56055],[84.66298,25.55965],[84.66092,25.55962],[84.6602,25.55919],[84.65733,25.55893],[84.65737,25.56002],[84.65717,25.56068],[84.65746,25.56078],[84.65739,25.56134],[84.65724,25.56134],[84.65711,25.56292],[84.66135,25.56386],[84.66359,25.56471],[84.66371,25.56466]]]}},{"type":"Feature","bbox":[84.63443,25.55833,84.65746,25.56453],"properties":{"ward":13,"name":"Pakri Mor , S.B College"},"geometry":{"type":"Polygon","coordinates":[[[84.65382,25.56453],[84.6545,25.56333],[84.65467,25.56336],[84.65488,25.5627],[84.65512,25.56251],[84.65711,25.56292],[84.65724,25.56134],[84.65739,25.56134],[84.65746,25.56078],[84.65717,25.56068],[84.65737,25.56002],[84.65733,25.55893],[84.65425,25.55833],[84.65388,25.55919],[84.65343,25.55973],[84.65023,25.5599],[84.64871,25.56095],[84.64492,25.56],[84.64354,25.55982],[84.64027,25.56053],[84.63443,25.56048],[84.6346,25.56076],[84.63589,25.56155],[84.63761,25.56216],[84.643,25.56302],[84.65125,25.56347],[84.65382,25.56453]]]}},{"type":"Feature","bbox":[84.63304,25.5429,84.65299,25.56055],"properties":{"ward":14,"name":"Chandwa"},"geometry":{"type":"Polygon","coordinates":[[[84.63669,25.56055],[84.64053,25.56049],[84.64335,25.55983],[84.64485,25.55998],[84.64538,25.55057],[84.64565,25.54979],[84.64649,25.54913],[84.64642,25.5477],[84.65299,25.54752],[84.64983,25.54736],[84.6475,25.54653],[84.64661,25.54598],[84.64561,25.54508],[84.64419,25.5429],[84.64026,25.54303],[84.63883,25.5434],[84.63304,25.54788],[84.63538,25.55919],[84.63664,25.55943],[84.63669,25.56055]]]}},{"type":"Feature","bbox":[84.64485,25.5536,84.65561,25.56095],"properties":{"ward":15,"name":"Pakri"},"geometry":{"type":"Polygon","coordinates":[[[84.65425,25.55833],[84.65561,25.55852],[84.6553,25.55402],[84.65422,25.55419],[84.6542,25.55402],[84.65402,25.55405],[84.65398,25.5536],[84.65253,25.55364],[84.65247,25.55408],[84.64891,25.5547],[84.6486,25.55498],[84.64755,25.55521],[84.6451,25.5555],[84.64485,25.55998],[84.64871,25.56095],[84.65023,25.5599],[84.65343,25.55973],[84.65388,25.55919],[84.65425,25.55833]]]}},{"type":"Feature","bbox":[84.6451,25.54753,84.6553,25.5555],"properties":{"ward":16,"name":"Mission Road Maharana Pratap Nagar"},"geometry":{"type":"Polygon","coordinates":[[[84.65253,25.55364],[84.65398,25.5536],[84.65402,25.55405],[84.6542,25.55402],[84.65422,25.55419],[84.6553,25.55402],[84.65506,25.55237],[84.65396,25.55247],[84.65322,25.55182],[84.65364,25.54753],[84.64642,25.5477],[84.64649,25.54913],[84.64572,25.5497],[84.64541,25.55042],[84.6451,25.5555],[84.6486,25.55498],[84.64891,25.5547],[84.65247,25.55408],[84.65253,25.55364]]]}},{"type":"Feature","bbox":[84.65322,25.54753,84.66067,25.55477],"properties":{"ward":17,"name":"Katira"},"geometry":{"type":"Polygon","coordinates":[[[84.66067,25.55361],[84.66038,25.54945],[84.65921,25.54954],[84.65902,25.54942],[84.65923,25.54822],[84.65513,25.54758],[84.65364,25.54753],[84.65322,25.55182],[84.65396,25.55247],[84.65506,25.55237],[84.65538,25.55477],[84.66067,25.55361]]]}},{"type":"Feature","bbox":[84.65538,25.55361,84.66067,25.55911],"properties":{"ward":18,"name":"Madan Jee Ka Hata"},"geometry":{"type":"Polygon","coordinates":[[[84.66018,25.55911],[84.66019,25.55811],[84.6597,25.55777],[84.65982,25.55612],[84.6591,25.55536],[84.66049,25.55411],[84.66067,25.55361],[84.65538,25.55477],[84.65561,25.55852],[84.65723,25.55892],[84.66018,25.55911]]]}},{"type":"Feature","bbox":[84.6591,25.55361,84.66845,25.56063],"properties":{"ward":19,"name":"Nawada"},"geometry":{"type":"Polygon","coordinates":[[[84.66737,25.55992],[84.66845,25.55833],[84.6671,25.55575],[84.66348,25.55663],[84.66309,25.55573],[84.66242,25.55568],[84.66157,25.55588],[84.66191,25.55461],[84.66186,25.55375],[84.66067,25.55361],[84.66049,25.55411],[84.6591,25.55533],[84.65982,25.55612],[84.6597,25.55777],[84.66019,25.55811],[84.66018,25.55919],[84.66068,25.55956],[84.66337,25.55973],[84.66616,25.56063],[84.66689,25.56033],[84.66737,25.55992]]]}},{"type":"Feature","bbox":[84.66616,25.55833,84.67019,25.56352],"properties":{"ward":20,"name":"Gola Mohalla"},"geometry":{"type":"Polygon","coordinates":[[[84.66738,25.55991],[84.66689,25.56033],[84.66616,25.56063],[84.66672,25.5616],[84.667,25.56331],[84.66781,25.56352],[84.66829,25.56342],[84.66854,25.56327],[84.66852,25.56311],[84.66904,25.56302],[84.66887,25.56241],[84.6692,25.56236],[84.66912,25.56206],[84.67019,25.56185],[84.6695,25.56009],[84.66845,25.55833],[84.66738,25.55991]]]}},{"type":"Feature","bbox":[84.66781,25.56185,84.67108,25.56508],"properties":{"ward":21,"name":"Babu Bazar , Mahavir Tola"},"geometry":{"type":"Polygon","coordinates":[[[84.66843,25.56508],[84.67108,25.56504],[84.67019,25.56185],[84.66912,25.56206],[84.6692,25.56236],[84.66887,25.56241],[84.66904,25.56302],[84.66852,25.56311],[84.66854,25.56327],[84.66829,25.56342],[84.66781,25.56352],[84.66799,25.56487],[84.66843,25.56508]]]}},{"type":"Feature","bbox":[84.66918,25.55927,84.67241,25.56504],"properties":{"ward":22,"name":"Mahajan Toli"},"geometry":{"type":"Polygon","coordinates":[[[84.67197,25.5596],[84.67203,25.55927],[84.66918,25.5595],[84.66999,25.56115],[84.67108,25.56504],[84.67241,25.56491],[84.67237,25.56134],[84.67197,25.5596]]]}},{"type":"Feature","bbox":[84.67201,25.55852,84.67758,25.56128],"properties":{"ward":23,"name":"Shiv Ganj"},"geometry":{"type":"Polygon","coordinates":[[[84.67417,25.56094],[84.67458,25.56103],[84.6761,25.56065],[84.67585,25.55979],[84.67758,25.55952],[84.6773,25.55888],[84.67669,25.55862],[84.67497,25.55852],[84.67386,25.55895],[84.67201,25.55929],[84.67235,25.56128],[84.67417,25.56094]]]}},{"type":"Feature","bbox":[84.67235,25.55952,84.67964,25.56556],"properties":{"ward":24,"name":"Jail Road Khetari"},"geometry":{"type":"Polygon","coordinates":[[[84.67545,25.56556],[84.67619,25.56554],[84.67608,25.56516],[84.67626,25.56394],[84.67616,25.56295],[84.6769,25.5618],[84.67758,25.5617],[84.67868,25.56185],[84.67964,25.56167],[84.67921,25.56129],[84.67893,25.56036],[84.67832,25.56013],[84.67758,25.55952],[84.67585,25.55979],[84.6761,25.56065],[84.67458,25.56103],[84.67421,25.56093],[84.67235,25.56128],[84.67241,25.56491],[84.67342,25.56495],[84.67484,25.56538],[84.67539,25.56535],[84.67545,25.56556]]]}},{"type":"Feature","bbox":[84.67227,25.56491,84.67557,25.56762],"properties":{"ward":25,"name":"Milki Mohalla"},"geometry":{"type":"Polygon","coordinates":[[[84.67383,25.56757],[84.67535,25.56762],[84.67557,25.56667],[84.67539,25.56535],[84.67484,25.56538],[84.67342,25.56495],[84.67241,25.56491],[84.67227,25.56723],[84.67309,25.56725],[84.67383,25.56757]]]}},{"type":"Feature","bbox":[84.67535,25.56549,84.6807,25.56762],"properties":{"ward":26,"name":"Awarpool , Ramgadhaiya"},"geometry":{"type":"Polygon","coordinates":[[[84.67535,25.56762],[84.6807,25.56717],[84.68068,25.56656],[84.6799,25.56662],[84.67983,25.56615],[84.67967,25.56627],[84.67956,25.56549],[84.67754,25.56566],[84.67544,25.56555],[84.67557,25.56661],[84.67535,25.56762]]]}},{"type":"Feature","bbox":[84.67612,25.56294,84.68388,25.56763],"properties":{"ward":27,"name":"Doodh Katora"},"geometry":{"type":"Polygon","coordinates":[[[84.68387,25.56726],[84.68314,25.56629],[84.68244,25.56379],[84.68244,25.56299],[84.68021,25.56294],[84.67972,25.56384],[84.67947,25.56392],[84.67923,25.56426],[84.67872,25.5643],[84.6772,25.56505],[84.67701,25.56504],[84.67699,25.56476],[84.67612,25.5648],[84.67622,25.56555],[84.67754,25.56566],[84.67956,25.56549],[84.67967,25.56627],[84.67983,25.56615],[84.6799,25.56662],[84.68068,25.56656],[84.6807,25.56717],[84.68258,25.56719],[84.68388,25.56763],[84.68387,25.56726]]]}},{"type":"Feature","bbox":[84.67612,25.55825,84.68251,25.56505],"properties":{"ward":28,"name":"Rauza Moti Tola"},"geometry":{"type":"Polygon","coordinates":[[[84.6772,25.56505],[84.67872,25.5643],[84.67945,25.56411],[84.67947,25.56392],[84.67972,25.56384],[84.68012,25.5633],[84.68021,25.56294],[84.68244,25.56299],[84.68251,25.56185],[84.67772,25.55825],[84.6773,25.55888],[84.67737,25.55915],[84.67792,25.55987],[84.67893,25.56036],[84.67921,25.56129],[84.67964,25.56167],[84.67868,25.56185],[84.67758,25.5617],[84.6769,25.5618],[84.67616,25.56295],[84.67626,25.56394],[84.67612,25.5648],[84.67699,25.56476],[84.67701,25.56504],[84.6772,25.56505]]]}},{"type":"Feature","bbox":[84.68244,25.56185,84.68919,25.57002],"properties":{"ward":29,"name":"Ahirpoorva"},"geometry":{"type":"Polygon","coordinates":[[[84.68651,25.56481],[84.68251,25.56185],[84.68244,25.56379],[84.68314,25.56629],[84.68389,25.56728],[84.68388,25.56763],[84.68779,25.56899],[84.68851,25.56994],[84.68919,25.57002],[84.68835,25.56742],[84.68729,25.56566],[84.68651,25.56481]]]}},{"type":"Feature","bbox":[84.67582,25.56715,84.68388,25.57097],"properties":{"ward":30,"name":"Chhajan Ganj , Bhaluhaipur"},"geometry":{"type":"Polygon","coordinates":[[[84.67974,25.57097],[84.68071,25.57064],[84.68263,25.57085],[84.68345,25.57078],[84.68388,25.56965],[84.68385,25.56917],[84.68371,25.56873],[84.68351,25.56878],[84.68306,25.56734],[84.6822,25.56715],[84.68073,25.56716],[84.67582,25.56759],[84.67585,25.56903],[84.67609,25.56909],[84.67632,25.56945],[84.67668,25.56944],[84.6773,25.56899],[84.67815,25.56916],[84.67916,25.57004],[84.67974,25.57097]]]}},{"type":"Feature","bbox":[84.67504,25.56902,84.67999,25.57661],"properties":{"ward":31,"name":"Bhaluhaipur"},"geometry":{"type":"Polygon","coordinates":[[[84.67845,25.57582],[84.67956,25.57456],[84.6795,25.57437],[84.67999,25.57288],[84.67913,25.5726],[84.67901,25.57234],[84.67911,25.5713],[84.67833,25.57099],[84.67833,25.57086],[84.67793,25.57086],[84.67764,25.57023],[84.67766,25.56902],[84.67717,25.56903],[84.6765,25.56946],[84.67585,25.56903],[84.67561,25.57248],[84.67544,25.57309],[84.67519,25.57331],[84.67504,25.57479],[84.6755,25.57494],[84.67624,25.57487],[84.67702,25.57509],[84.67735,25.57554],[84.67727,25.57596],[84.6782,25.57661],[84.67845,25.57582]]]}},{"type":"Feature","bbox":[84.67764,25.56902,84.69387,25.58385],"properties":{"ward":32,"name":"Begampur"},"geometry":{"type":"Polygon","coordinates":[[[84.69387,25.58369],[84.69183,25.57721],[84.69062,25.57717],[84.6887,25.5766],[84.68889,25.57599],[84.68694,25.57544],[84.68574,25.57457],[84.68418,25.57405],[84.68334,25.57346],[84.68193,25.57297],[84.68,25.5714],[84.67916,25.57004],[84.67815,25.56916],[84.67766,25.56902],[84.67764,25.57023],[84.67793,25.57086],[84.67833,25.57086],[84.67833,25.57099],[84.67911,25.5713],[84.67901,25.57234],[84.67913,25.5726],[84.67999,25.57288],[84.6795,25.57437],[84.67956,25.57456],[84.67845,25.57582],[84.6782,25.57661],[84.68028,25.57728],[84.68291,25.57878],[84.68391,25.57917],[84.68699,25.57986],[84.68863,25.58098],[84.69087,25.58207],[84.69314,25.58385],[84.69387,25.58369]]]}},{"type":"Feature","bbox":[84.67974,25.56734,84.69183,25.57721],"properties":{"ward":33,"name":"Chajjan Ganj , Ramgadhiya"},"geometry":{"type":"Polygon","coordinates":[[[84.69183,25.57721],[84.69158,25.57641],[84.69119,25.57652],[84.68919,25.57002],[84.68851,25.56994],[84.68779,25.56899],[84.68306,25.56734],[84.68351,25.56878],[84.68371,25.56873],[84.68385,25.56917],[84.68388,25.56965],[84.68345,25.57078],[84.68263,25.57085],[84.68071,25.57064],[84.67974,25.57097],[84.68,25.5714],[84.68193,25.57297],[84.68334,25.57346],[84.68418,25.57405],[84.68574,25.57457],[84.68694,25.57544],[84.68889,25.57599],[84.6887,25.5766],[84.69062,25.57717],[84.69183,25.57721]]]}},{"type":"Feature","bbox":[84.68919,25.56993,84.70994,25.58424],"properties":{"ward":34,"name":"Dhanupura"},"geometry":{"type":"Polygon","coordinates":[[[84.70003,25.5835],[84.70027,25.58354],[84.70052,25.58251],[84.7007,25.58065],[84.70371,25.58122],[84.70517,25.58176],[84.70948,25.58292],[84.70994,25.58097],[84.7023,25.57802],[84.69135,25.5712],[84.69048,25.56993],[84.68919,25.57002],[84.69119,25.57652],[84.69158,25.57641],[84.69315,25.58144],[84.69383,25.5813],[84.69521,25.58187],[84.69642,25.58255],[84.69642,25.58276],[84.69974,25.58424],[84.69989,25.58421],[84.70003,25.5835]]]}},{"type":"Feature","bbox":[84.68651,25.55845,84.71376,25.58071],"properties":{"ward":35,"name":"Dharahara"},"geometry":{"type":"Polygon","coordinates":[[[84.71159,25.57156],[84.70673,25.56911],[84.70579,25.56837],[84.70288,25.56317],[84.70138,25.56117],[84.69708,25.55845],[84.69616,25.55878],[84.69583,25.56047],[84.69564,25.56048],[84.69569,25.56178],[84.69558,25.56204],[84.69479,25.56263],[84.6938,25.56384],[84.69135,25.56445],[84.68952,25.56447],[84.68865,25.56417],[84.68769,25.56424],[84.68684,25.56453],[84.68651,25.56481],[84.68729,25.56566],[84.68819,25.56708],[84.68919,25.57002],[84.69048,25.56993],[84.69135,25.5712],[84.7023,25.57802],[84.70926,25.58071],[84.71021,25.57914],[84.71088,25.57844],[84.71355,25.57639],[84.71376,25.57573],[84.71358,25.57425],[84.71316,25.57255],[84.71159,25.57156]]]}},{"type":"Feature","bbox":[84.67021,25.55053,84.69708,25.56481],"properties":{"ward":36,"name":"Sritola , Anand Nagar"},"geometry":{"type":"Polygon","coordinates":[[[84.68769,25.56424],[84.68865,25.56417],[84.68952,25.56447],[84.69135,25.56445],[84.69352,25.56398],[84.69407,25.56357],[84.69479,25.56263],[84.69558,25.56204],[84.69569,25.56178],[84.69564,25.56048],[84.69583,25.56047],[84.69616,25.55878],[84.69708,25.55845],[84.69514,25.55717],[84.69461,25.55541],[84.6705,25.55053],[84.67021,25.55091],[84.67073,25.55236],[84.67304,25.55493],[84.6865,25.56481],[84.68684,25.56453],[84.68769,25.56424]]]}},{"type":"Feature","bbox":[84.67203,25.55455,84.67772,25.55924],"properties":{"ward":37,"name":"Sheetal Tola"},"geometry":{"type":"Polygon","coordinates":[[[84.67483,25.55853],[84.67669,25.55862],[84.6773,25.55888],[84.67772,25.55825],[84.67262,25.55455],[84.67265,25.55697],[84.67203,25.55802],[84.67214,25.55924],[84.67372,25.55899],[84.67483,25.55853]]]}},{"type":"Feature","bbox":[84.66647,25.55337,84.67265,25.5595],"properties":{"ward":38,"name":"Karman Tola"},"geometry":{"type":"Polygon","coordinates":[[[84.66918,25.5595],[84.67214,25.55924],[84.67203,25.55802],[84.67265,25.55697],[84.67262,25.55455],[84.67189,25.55375],[84.67126,25.55401],[84.66952,25.55419],[84.66949,25.55351],[84.66855,25.55371],[84.66837,25.55337],[84.66784,25.55347],[84.66787,25.55362],[84.6666,25.55373],[84.66647,25.55434],[84.6675,25.55672],[84.66918,25.5595]]]}},{"type":"Feature","bbox":[84.66157,25.5533,84.66703,25.55663],"properties":{"ward":39,"name":"Nawada"},"geometry":{"type":"Polygon","coordinates":[[[84.66703,25.55577],[84.66651,25.55442],[84.66581,25.5533],[84.66559,25.55344],[84.66474,25.55347],[84.66452,25.55407],[84.66393,25.55398],[84.66328,25.55419],[84.66194,25.55423],[84.6618,25.55535],[84.66157,25.55588],[84.66242,25.55568],[84.66309,25.55573],[84.66348,25.55663],[84.66703,25.55577]]]}},{"type":"Feature","bbox":[84.6666,25.54991,84.67189,25.55419],"properties":{"ward":40,"name":"Jawahar Tola"},"geometry":{"type":"Polygon","coordinates":[[[84.67099,25.55403],[84.67189,25.55375],[84.67063,25.55217],[84.67021,25.55091],[84.6705,25.55053],[84.6675,25.54991],[84.6666,25.55373],[84.66787,25.55362],[84.66784,25.55347],[84.66837,25.55337],[84.66855,25.55371],[84.66949,25.55351],[84.66952,25.55419],[84.67099,25.55403]]]}},{"type":"Feature","bbox":[84.65902,25.54822,84.6675,25.55434],"properties":{"ward":41,"name":"Nawada Bind Toli"},"geometry":{"type":"Polygon","coordinates":[[[84.66647,25.55434],[84.6675,25.54991],[84.65923,25.54822],[84.65902,25.54942],[84.65921,25.54954],[84.66038,25.54945],[84.66067,25.55361],[84.66177,25.55369],[84.66194,25.55423],[84.66267,25.55425],[84.66393,25.55398],[84.66452,25.55407],[84.66474,25.55347],[84.66559,25.55344],[84.66581,25.5533],[84.66647,25.55434]]]}},{"type":"Feature","bbox":[84.64419,25.5345,84.6675,25.54991],"properties":{"ward":42,"name":"Jagdev Nagar , Vishnu Nagar"},"geometry":{"type":"Polygon","coordinates":[[[84.66083,25.54772],[84.65608,25.5433],[84.65298,25.54065],[84.64765,25.53557],[84.64673,25.5345],[84.64656,25.53528],[84.64566,25.53558],[84.64572,25.53676],[84.64601,25.53677],[84.646,25.537],[84.64696,25.53697],[84.64696,25.53718],[84.64649,25.53721],[84.64643,25.53894],[84.64658,25.5394],[84.64663,25.54022],[84.64652,25.54023],[84.64668,25.54153],[84.64685,25.54152],[84.64706,25.54287],[84.64625,25.54289],[84.64595,25.54236],[84.64499,25.54283],[84.64419,25.5429],[84.64545,25.54487],[84.64634,25.54576],[84.64787,25.54672],[84.64983,25.54736],[84.65513,25.54758],[84.65801,25.54797],[84.6675,25.54991],[84.66744,25.54959],[84.66556,25.54914],[84.665,25.54863],[84.66083,25.54772]]]}},{"type":"Feature","bbox":[84.6458,25.53276,84.6598,25.54669],"properties":{"ward":43,"name":"Anaith Milki"},"geometry":{"type":"Polygon","coordinates":[[[84.6588,25.54184],[84.65934,25.54172],[84.65925,25.54136],[84.65896,25.54105],[84.65885,25.54045],[84.65937,25.54028],[84.65838,25.53937],[84.6583,25.53899],[84.65842,25.53869],[84.65758,25.53788],[84.65736,25.53722],[84.65696,25.53438],[84.65638,25.53276],[84.655,25.53331],[84.6525,25.53348],[84.64999,25.53357],[84.6458,25.53324],[84.64765,25.53557],[84.6535,25.54114],[84.6598,25.54669],[84.65972,25.5453],[84.65928,25.54386],[84.65912,25.5426],[84.6588,25.54184]]]}},{"type":"Feature","bbox":[84.65719,25.53529,84.6705,25.55053],"properties":{"ward":44,"name":"Anaith Godhana Road"},"geometry":{"type":"Polygon","coordinates":[[[84.6705,25.55053],[84.6668,25.53531],[84.66398,25.53543],[84.66262,25.53529],[84.66182,25.53553],[84.66128,25.53545],[84.65719,25.53588],[84.65758,25.53788],[84.65842,25.53869],[84.6583,25.53899],[84.65838,25.53937],[84.65936,25.54024],[84.65885,25.54045],[84.65896,25.54105],[84.65925,25.54136],[84.65934,25.54172],[84.6588,25.54193],[84.65912,25.5426],[84.65928,25.54386],[84.65972,25.5453],[84.6598,25.54669],[84.66085,25.54774],[84.665,25.54863],[84.66556,25.54914],[84.66744,25.54959],[84.6675,25.54991],[84.6705,25.55053]]]}},{"type":"Feature","bbox":[84.6668,25.53498,84.69629,25.55575],"properties":{"ward":45,"name":"Bahiro Power Ganj"},"geometry":{"type":"Polygon","coordinates":[[[84.69616,25.55401],[84.69538,25.5504],[84.68814,25.55023],[84.68663,25.55094],[84.68584,25.55102],[84.68445,25.55008],[84.68435,25.54903],[84.68473,25.54808],[84.68497,25.54642],[84.68502,25.54488],[84.68484,25.54476],[84.68515,25.54195],[84.68618,25.54039],[84.6853,25.54027],[84.68136,25.54054],[84.68128,25.53991],[84.6815,25.53927],[84.68155,25.53686],[84.68154,25.53574],[84.68135,25.53559],[84.68135,25.53538],[84.67837,25.53544],[84.67698,25.53572],[84.67572,25.5357],[84.67498,25.53617],[84.67437,25.53623],[84.67179,25.53577],[84.67133,25.53549],[84.67067,25.53558],[84.67053,25.53552],[84.67046,25.53498],[84.6668,25.53531],[84.6705,25.55053],[84.69629,25.55575],[84.69616,25.55401]]]}}]}