{"type":"FeatureCollection","features":[{"type":"Feature","bbox":[86.21774,24.95006,86.23687,24.97103],"properties":{"ward":1,"name":"Khairma"},"geometry":{"type":"Polygon","coordinates":[[[86.2241,24.97103],[86.2258,24.97068],[86.22616,24.97041],[86.22666,24.97048],[86.22718,24.96954],[86.22764,24.96808],[86.22971,24.96609],[86.23207,24.96462],[86.23407,24.96382],[86.23458,24.96335],[86.23651,24.9623],[86.23687,24.96184],[86.23617,24.96102],[86.23598,24.96046],[86.23637,24.95904],[86.23643,24.95822],[86.23361,24.95006],[86.23199,24.95031],[86.23187,24.95016],[86.23078,24.95027],[86.23062,24.9503],[86.23066,24.95053],[86.22907,24.95077],[86.22838,24.95109],[86.22811,24.95086],[86.22732,24.95107],[86.22817,24.95374],[86.22895,24.95707],[86.22712,24.95722],[86.22611,24.95747],[86.2244,24.95737],[86.22052,24.95842],[86.22054,24.95968],[86.21774,24.96048],[86.2181,24.96161],[86.21785,24.96199],[86.2182,24.96339],[86.21895,24.96503],[86.21975,24.9657],[86.22015,24.96631],[86.22038,24.96759],[86.22023,24.9686],[86.22057,24.96935],[86.22064,24.96998],[86.22337,24.96929],[86.2241,24.97103]]]}},{"type":"Feature","bbox":[86.21419,24.94346,86.22895,24.96047],"properties":{"ward":2,"name":"Ujhandi"},"geometry":{"type":"Polygon","coordinates":[[[86.21775,24.96047],[86.22054,24.95968],[86.22052,24.95842],[86.2244,24.95737],[86.22611,24.95747],[86.22712,24.95722],[86.22895,24.95707],[86.22817,24.95374],[86.22732,24.95107],[86.22811,24.95086],[86.22764,24.94714],[86.22736,24.94716],[86.2269,24.94549],[86.22705,24.94542],[86.22673,24.94412],[86.22632,24.94411],[86.2258,24.94346],[86.22331,24.94418],[86.22312,24.94346],[86.22229,24.94428],[86.22055,24.94449],[86.22085,24.94563],[86.21875,24.9458],[86.21847,24.94604],[86.21849,24.94623],[86.21719,24.94633],[86.21601,24.94618],[86.21461,24.94636],[86.21419,24.94762],[86.21437,24.94782],[86.21475,24.95179],[86.2146,24.95181],[86.21469,24.95464],[86.21775,24.96047]]]}},{"type":"Feature","bbox":[86.22778,24.94638,86.23843,24.95109],"properties":{"ward":3,"name":"Satgama"},"geometry":{"type":"Polygon","coordinates":[[[86.22838,24.95109],[86.22907,24.95077],[86.23045,24.9506],[86.23066,24.95053],[86.23062,24.9503],[86.23187,24.95016],[86.23199,24.95031],[86.23361,24.95006],[86.23365,24.95016],[86.23624,24.94957],[86.23629,24.94936],[86.23843,24.94916],[86.23778,24.94638],[86.23107,24.94763],[86.23102,24.94797],[86.22969,24.94829],[86.22921,24.94837],[86.22919,24.9481],[86.22778,24.94833],[86.2281,24.95081],[86.22838,24.95109]]]}},{"type":"Feature","bbox":[86.23365,24.94878,86.24291,24.96161],"properties":{"ward":4,"name":"Khairma"},"geometry":{"type":"Polygon","coordinates":[[[86.23669,24.96161],[86.23713,24.96121],[86.23814,24.96116],[86.23892,24.9609],[86.23919,24.95912],[86.24018,24.9588],[86.24059,24.95884],[86.24089,24.95829],[86.24118,24.9571],[86.2408,24.95656],[86.2405,24.95539],[86.2408,24.95426],[86.2417,24.95242],[86.2422,24.95007],[86.24271,24.9498],[86.24291,24.949],[86.23932,24.94878],[86.23931,24.949],[86.23898,24.94902],[86.23889,24.94918],[86.2363,24.94936],[86.23624,24.94957],[86.23365,24.95016],[86.23644,24.95825],[86.23598,24.96046],[86.23617,24.96102],[86.23669,24.96161]]]}},{"type":"Feature","bbox":[86.22673,24.94123,86.24575,24.94919],"properties":{"ward":5,"name":"Satgama"},"geometry":{"type":"Polygon","coordinates":[[[86.23862,24.94919],[86.23931,24.949],[86.23932,24.94878],[86.23983,24.94873],[86.24291,24.949],[86.24342,24.94703],[86.2439,24.94614],[86.24392,24.94592],[86.24373,24.94581],[86.2443,24.94536],[86.24457,24.94456],[86.24491,24.94445],[86.24489,24.94381],[86.24525,24.94309],[86.24575,24.94293],[86.24568,24.94238],[86.24339,24.94307],[86.24325,24.94279],[86.24187,24.94327],[86.2406,24.94342],[86.23983,24.94123],[86.2336,24.94264],[86.23138,24.94338],[86.22862,24.94395],[86.22673,24.94412],[86.22705,24.94542],[86.2269,24.94549],[86.22736,24.94716],[86.22764,24.94714],[86.22778,24.94833],[86.22919,24.9481],[86.22921,24.94837],[86.22969,24.94829],[86.23102,24.94797],[86.23107,24.94763],[86.23778,24.94638],[86.23837,24.94902],[86.23862,24.94919]]]}},{"type":"Feature","bbox":[86.22699,24.92841,86.23298,24.93268],"properties":{"ward":6,"name":"Bihari"},"geometry":{"type":"Polygon","coordinates":[[[86.22781,24.93268],[86.23116,24.93173],[86.23244,24.93118],[86.23298,24.93117],[86.23266,24.93049],[86.23264,24.92841],[86.22699,24.93023],[86.22781,24.93268]]]}},{"type":"Feature","bbox":[86.2278,24.92613,86.24568,24.94342],"properties":{"ward":7,"name":"New Tola Bihari"},"geometry":{"type":"Polygon","coordinates":[[[86.23139,24.94337],[86.2336,24.94264],[86.23983,24.94123],[86.2406,24.94342],[86.24187,24.94327],[86.24325,24.94279],[86.24339,24.94307],[86.24568,24.94238],[86.24551,24.94121],[86.24566,24.94091],[86.2454,24.93979],[86.24544,24.93925],[86.24521,24.93889],[86.24529,24.93854],[86.24465,24.93814],[86.24359,24.93791],[86.24327,24.9377],[86.24273,24.93684],[86.24318,24.9355],[86.24307,24.93502],[86.24239,24.93382],[86.24189,24.93333],[86.24333,24.93323],[86.24385,24.93269],[86.24459,24.93151],[86.24481,24.93083],[86.24467,24.93027],[86.24383,24.92887],[86.24214,24.92772],[86.24026,24.92699],[86.23879,24.92613],[86.23749,24.92697],[86.23264,24.92841],[86.23266,24.93049],[86.23298,24.93117],[86.23244,24.93118],[86.23116,24.93173],[86.2278,24.93269],[86.23139,24.94337]]]}},{"type":"Feature","bbox":[86.22135,24.93017,86.23138,24.94444],"properties":{"ward":8,"name":"Sirchand Nawada"},"geometry":{"type":"Polygon","coordinates":[[[86.22136,24.94444],[86.22241,24.94422],[86.22312,24.94346],[86.22331,24.94418],[86.2258,24.94346],[86.22633,24.94412],[86.22715,24.94412],[86.23138,24.94338],[86.22692,24.93017],[86.22597,24.93057],[86.22575,24.93086],[86.22568,24.93258],[86.22582,24.9341],[86.22546,24.93585],[86.22412,24.9359],[86.22292,24.93623],[86.2224,24.93828],[86.22217,24.93973],[86.22226,24.94025],[86.22135,24.94289],[86.22136,24.94444]]]}},{"type":"Feature","bbox":[86.2042,24.94028,86.22183,24.95203],"properties":{"ward":9,"name":"Hansdih"},"geometry":{"type":"Polygon","coordinates":[[[86.21204,24.95203],[86.21284,24.95182],[86.21413,24.952],[86.21475,24.95179],[86.21437,24.94782],[86.21419,24.94762],[86.21461,24.94636],[86.21601,24.94618],[86.21719,24.94633],[86.21849,24.94623],[86.21847,24.94604],[86.21875,24.9458],[86.22085,24.94563],[86.22055,24.94449],[86.22134,24.94433],[86.22135,24.94289],[86.22183,24.94147],[86.22045,24.94117],[86.21912,24.94114],[86.21785,24.94144],[86.21666,24.94228],[86.21594,24.94227],[86.2165,24.94053],[86.21559,24.94072],[86.21546,24.94028],[86.21313,24.94083],[86.2117,24.94137],[86.21136,24.94125],[86.2103,24.9416],[86.2102,24.94123],[86.20926,24.94132],[86.20905,24.94152],[86.20895,24.94246],[86.20933,24.94448],[86.20865,24.94464],[86.20874,24.94507],[86.20837,24.94511],[86.20848,24.94583],[86.20437,24.94567],[86.20443,24.94864],[86.2042,24.94907],[86.20423,24.94952],[86.20475,24.94953],[86.20522,24.951],[86.20563,24.95108],[86.20625,24.95071],[86.20795,24.9506],[86.21132,24.94975],[86.21171,24.95146],[86.21204,24.95203]]]}},{"type":"Feature","bbox":[86.19331,24.92832,86.21224,24.94207],"properties":{"ward":10,"name":"Shahpur"},"geometry":{"type":"Polygon","coordinates":[[[86.19761,24.94207],[86.2016,24.94111],[86.20142,24.94056],[86.2042,24.94017],[86.20434,24.94054],[86.2058,24.94038],[86.20757,24.94008],[86.20789,24.9397],[86.20885,24.93946],[86.20871,24.93823],[86.20964,24.93799],[86.2091,24.93562],[86.2104,24.93523],[86.21086,24.93476],[86.21224,24.93444],[86.21149,24.93241],[86.20948,24.9327],[86.20922,24.93182],[86.20851,24.93191],[86.20833,24.9318],[86.20841,24.93079],[86.20734,24.93091],[86.20725,24.93049],[86.20563,24.93058],[86.20561,24.93034],[86.20406,24.93054],[86.20379,24.93051],[86.20377,24.9303],[86.20324,24.93041],[86.20327,24.93053],[86.20309,24.9306],[86.20288,24.92903],[86.201,24.92917],[86.2009,24.9286],[86.2007,24.92866],[86.20065,24.92845],[86.20008,24.92849],[86.20008,24.92832],[86.19963,24.92834],[86.19963,24.92867],[86.19914,24.92869],[86.19912,24.92848],[86.19765,24.92851],[86.19757,24.92876],[86.19741,24.92875],[86.19723,24.9293],[86.19689,24.92931],[86.19666,24.92984],[86.1968,24.93004],[86.19682,24.93067],[86.19666,24.93091],[86.19627,24.93101],[86.19632,24.93138],[86.19617,24.93169],[86.19599,24.93172],[86.196,24.93197],[86.19582,24.93199],[86.19591,24.9327],[86.19511,24.93301],[86.19521,24.93361],[86.19484,24.93369],[86.19482,24.93427],[86.19421,24.93429],[86.19436,24.93486],[86.19424,24.9355],[86.19399,24.93578],[86.19396,24.93613],[86.19354,24.93624],[86.19358,24.93663],[86.19331,24.93669],[86.19331,24.93683],[86.19392,24.93881],[86.19693,24.93835],[86.19761,24.94207]]]}},{"type":"Feature","bbox":[86.19761,24.93116,86.22582,24.94581],"properties":{"ward":11,"name":"Harnaah"},"geometry":{"type":"Polygon","coordinates":[[[86.20847,24.94581],[86.20837,24.94511],[86.20874,24.94507],[86.20865,24.94464],[86.20933,24.94448],[86.20895,24.94246],[86.20905,24.94152],[86.20926,24.94132],[86.2102,24.94123],[86.2103,24.9416],[86.21136,24.94125],[86.2117,24.94137],[86.21313,24.94083],[86.21546,24.94028],[86.21559,24.94072],[86.2165,24.94053],[86.21594,24.94227],[86.21666,24.94228],[86.21785,24.94144],[86.21912,24.94114],[86.22045,24.94117],[86.22184,24.94147],[86.22226,24.94025],[86.22217,24.93973],[86.2224,24.93828],[86.22292,24.93623],[86.22412,24.9359],[86.22546,24.93585],[86.22582,24.9341],[86.22572,24.93116],[86.21865,24.93289],[86.21764,24.93327],[86.21609,24.93346],[86.21505,24.93326],[86.21379,24.93373],[86.21366,24.9334],[86.21195,24.9337],[86.21224,24.93444],[86.21086,24.93476],[86.2104,24.93523],[86.2091,24.93562],[86.20964,24.93799],[86.20871,24.93823],[86.20885,24.93946],[86.20789,24.9397],[86.20757,24.94008],[86.2058,24.94038],[86.20434,24.94054],[86.2042,24.94017],[86.20142,24.94056],[86.2016,24.94111],[86.19761,24.94207],[86.19789,24.94316],[86.19809,24.94339],[86.20092,24.94265],[86.2011,24.94304],[86.20086,24.94312],[86.20123,24.94426],[86.20109,24.94436],[86.20125,24.94468],[86.20114,24.94489],[86.2049,24.94577],[86.20847,24.94581]]]}},{"type":"Feature","bbox":[86.21069,24.92658,86.22579,24.93373],"properties":{"ward":12,"name":"Mahisauri"},"geometry":{"type":"Polygon","coordinates":[[[86.21379,24.93373],[86.21505,24.93326],[86.21609,24.93346],[86.21764,24.93327],[86.21865,24.93289],[86.22572,24.93116],[86.22579,24.93075],[86.22569,24.93079],[86.22533,24.92975],[86.22466,24.92995],[86.22365,24.92735],[86.2232,24.92742],[86.2232,24.92709],[86.2219,24.92724],[86.22176,24.92677],[86.22107,24.92691],[86.2212,24.92658],[86.22043,24.92672],[86.2205,24.92708],[86.21996,24.9273],[86.21978,24.9273],[86.21974,24.92714],[86.21916,24.9272],[86.21901,24.92696],[86.2186,24.92712],[86.21849,24.92693],[86.21828,24.92701],[86.21834,24.92747],[86.21793,24.92775],[86.21787,24.92846],[86.21738,24.92857],[86.21733,24.92838],[86.21686,24.92848],[86.21681,24.92829],[86.21611,24.92843],[86.21631,24.92895],[86.21608,24.92904],[86.21615,24.92931],[86.21572,24.92946],[86.2156,24.92926],[86.21535,24.9293],[86.21524,24.92907],[86.21438,24.92925],[86.2143,24.92903],[86.21341,24.92924],[86.21347,24.92947],[86.21069,24.93016],[86.21195,24.9337],[86.21366,24.9334],[86.21379,24.93373]]]}},{"type":"Feature","bbox":[86.22107,24.92407,86.22519,24.92724],"properties":{"ward":13,"name":"Mahisauri"},"geometry":{"type":"Polygon","coordinates":[[[86.2219,24.92724],[86.2232,24.92709],[86.22331,24.92696],[86.2232,24.92658],[86.22519,24.92612],[86.2251,24.92533],[86.22469,24.92476],[86.22358,24.92508],[86.22311,24.92407],[86.22249,24.92425],[86.22144,24.92594],[86.22107,24.92691],[86.22176,24.92677],[86.2219,24.92724]]]}},{"type":"Feature","bbox":[86.19622,24.92162,86.22193,24.93267],"properties":{"ward":14,"name":"Mahisauri"},"geometry":{"type":"Polygon","coordinates":[[[86.20943,24.93267],[86.21149,24.93241],[86.21069,24.93016],[86.21347,24.92947],[86.21341,24.92924],[86.2143,24.92903],[86.21438,24.92925],[86.21524,24.92907],[86.21535,24.9293],[86.2156,24.92926],[86.21572,24.92946],[86.21615,24.92931],[86.21608,24.92904],[86.21631,24.92895],[86.21611,24.92843],[86.21681,24.92829],[86.21686,24.92848],[86.21733,24.92838],[86.21738,24.92857],[86.21787,24.92846],[86.21793,24.92775],[86.21836,24.92744],[86.21828,24.92701],[86.21849,24.92693],[86.2186,24.92712],[86.21901,24.92696],[86.21916,24.9272],[86.21974,24.92714],[86.21978,24.9273],[86.21996,24.9273],[86.2205,24.92708],[86.22043,24.92672],[86.2212,24.92658],[86.22193,24.92512],[86.22135,24.92531],[86.22125,24.92509],[86.22081,24.92525],[86.22057,24.92492],[86.22015,24.92477],[86.21933,24.92508],[86.2193,24.92485],[86.21893,24.92494],[86.21835,24.92313],[86.21801,24.92308],[86.21772,24.92215],[86.21601,24.92233],[86.21429,24.92352],[86.21317,24.92162],[86.21099,24.92221],[86.2102,24.92293],[86.21003,24.92254],[86.20866,24.92294],[86.20857,24.92261],[86.20824,24.92268],[86.20828,24.92285],[86.20741,24.92309],[86.20991,24.92814],[86.20427,24.92879],[86.19657,24.92685],[86.19665,24.92822],[86.19642,24.92824],[86.19622,24.9287],[86.19641,24.92892],[86.19697,24.92888],[86.19695,24.92928],[86.19723,24.9293],[86.19741,24.92875],[86.19757,24.92876],[86.19765,24.92851],[86.19912,24.92848],[86.19914,24.92869],[86.19963,24.92867],[86.19963,24.92834],[86.20065,24.92845],[86.2007,24.92866],[86.2009,24.9286],[86.201,24.92917],[86.20288,24.92903],[86.20309,24.9306],[86.20327,24.93053],[86.20324,24.93041],[86.20377,24.9303],[86.20379,24.93051],[86.20406,24.93054],[86.20561,24.93034],[86.20563,24.93058],[86.20725,24.93049],[86.20734,24.93091],[86.20841,24.93079],[86.20839,24.93187],[86.20922,24.93182],[86.20943,24.93267]]]}},{"type":"Feature","bbox":[86.19367,24.91076,86.21737,24.9288],"properties":{"ward":15,"name":"Lagma"},"geometry":{"type":"Polygon","coordinates":[[[86.20447,24.9288],[86.20991,24.92814],[86.20741,24.92309],[86.20828,24.92285],[86.20824,24.92268],[86.20857,24.92261],[86.20866,24.92294],[86.21003,24.92254],[86.2102,24.92293],[86.21099,24.92221],[86.21317,24.92162],[86.21433,24.92352],[86.21601,24.92233],[86.21584,24.92161],[86.21605,24.92159],[86.21572,24.92053],[86.21585,24.92023],[86.21535,24.91914],[86.21545,24.91912],[86.21532,24.91864],[86.21561,24.91855],[86.21493,24.91704],[86.21737,24.91661],[86.21656,24.91428],[86.21676,24.91431],[86.21617,24.91285],[86.21475,24.91154],[86.21451,24.91076],[86.21296,24.91096],[86.21128,24.91167],[86.20886,24.9123],[86.20746,24.9124],[86.20757,24.91274],[86.20733,24.91282],[86.20745,24.91333],[86.20685,24.91345],[86.20679,24.91257],[86.20647,24.91294],[86.2058,24.91314],[86.20567,24.91279],[86.20535,24.91289],[86.20245,24.91414],[86.20307,24.91539],[86.19968,24.91652],[86.19951,24.91616],[86.19891,24.91628],[86.19872,24.91602],[86.19653,24.91632],[86.19605,24.91648],[86.19609,24.91663],[86.19459,24.91691],[86.19475,24.91733],[86.19501,24.91729],[86.19534,24.91867],[86.19611,24.92057],[86.19685,24.92171],[86.19705,24.92165],[86.19742,24.92491],[86.19714,24.92495],[86.19718,24.92522],[86.19699,24.92526],[86.19702,24.92542],[86.19656,24.92557],[86.19646,24.92536],[86.19575,24.92551],[86.19578,24.92564],[86.19367,24.92576],[86.19368,24.92599],[86.1966,24.92674],[86.19657,24.92685],[86.20447,24.9288]]]}},{"type":"Feature","bbox":[86.19022,24.9033,86.20677,24.91692],"properties":{"ward":16,"name":"Bithalpur"},"geometry":{"type":"Polygon","coordinates":[[[86.19559,24.91676],[86.19653,24.91632],[86.19876,24.91602],[86.19891,24.91628],[86.19951,24.91616],[86.19968,24.91652],[86.20307,24.91539],[86.20245,24.91414],[86.20535,24.91289],[86.20567,24.91279],[86.2058,24.91314],[86.20647,24.91294],[86.20677,24.91266],[86.20643,24.91171],[86.2053,24.9109],[86.20496,24.91039],[86.20465,24.91044],[86.20437,24.90983],[86.2049,24.90966],[86.20472,24.90932],[86.2053,24.9091],[86.20501,24.90855],[86.2054,24.90841],[86.20535,24.90806],[86.20563,24.90798],[86.20552,24.90774],[86.20582,24.90766],[86.20572,24.90737],[86.20585,24.90734],[86.20581,24.9072],[86.20545,24.9073],[86.2054,24.90711],[86.20469,24.90716],[86.20464,24.90694],[86.20446,24.90701],[86.20447,24.90663],[86.20419,24.90605],[86.20487,24.90594],[86.20503,24.90578],[86.20505,24.90534],[86.20548,24.90533],[86.20529,24.90476],[86.20501,24.90469],[86.20494,24.90438],[86.2044,24.90437],[86.20153,24.90505],[86.20048,24.90531],[86.20042,24.90549],[86.19909,24.90577],[86.19842,24.90348],[86.19684,24.90385],[86.19658,24.9033],[86.19381,24.90394],[86.19348,24.90352],[86.19351,24.90389],[86.19165,24.9044],[86.1914,24.90435],[86.19108,24.90358],[86.19034,24.90371],[86.1908,24.90451],[86.1909,24.90513],[86.19111,24.90507],[86.19171,24.90705],[86.19244,24.90688],[86.19282,24.90831],[86.19264,24.90854],[86.19138,24.90828],[86.19139,24.90843],[86.19022,24.90871],[86.19068,24.91055],[86.19047,24.91061],[86.1906,24.9111],[86.19084,24.91106],[86.19095,24.91149],[86.19053,24.91161],[86.19062,24.91189],[86.19089,24.91182],[86.19185,24.91497],[86.19222,24.91542],[86.19342,24.91542],[86.19357,24.91559],[86.19339,24.91619],[86.19424,24.91606],[86.1945,24.91692],[86.19559,24.91676]]]}},{"type":"Feature","bbox":[86.20419,24.90076,86.21973,24.91344],"properties":{"ward":17,"name":"Bithalpur"},"geometry":{"type":"Polygon","coordinates":[[[86.20687,24.91344],[86.20745,24.91333],[86.20733,24.91282],[86.20757,24.91274],[86.20746,24.9124],[86.20886,24.9123],[86.21128,24.91167],[86.21296,24.91096],[86.21451,24.91076],[86.21459,24.91104],[86.2151,24.91089],[86.21519,24.91103],[86.21565,24.91081],[86.21573,24.91102],[86.21601,24.91088],[86.21593,24.91065],[86.2161,24.91057],[86.21605,24.91042],[86.2163,24.91033],[86.21584,24.90915],[86.21612,24.90907],[86.21601,24.90872],[86.21973,24.90778],[86.21912,24.90518],[86.2193,24.90512],[86.21902,24.90411],[86.21901,24.903],[86.21883,24.90302],[86.21869,24.90246],[86.21847,24.90252],[86.21841,24.9023],[86.21862,24.90224],[86.21863,24.90206],[86.21778,24.90076],[86.21683,24.90098],[86.21571,24.90096],[86.21326,24.90186],[86.20959,24.90181],[86.20979,24.90233],[86.20962,24.90236],[86.20968,24.90265],[86.20874,24.9029],[86.20866,24.9026],[86.20851,24.90263],[86.20842,24.90299],[86.20666,24.90337],[86.2067,24.90367],[86.20491,24.90415],[86.20499,24.90467],[86.20529,24.90476],[86.20548,24.90533],[86.20505,24.90534],[86.20503,24.90578],[86.20487,24.90594],[86.20419,24.90605],[86.20447,24.90663],[86.20446,24.90701],[86.20464,24.90694],[86.20469,24.90716],[86.2054,24.90711],[86.20545,24.9073],[86.20581,24.9072],[86.20585,24.90734],[86.20572,24.90737],[86.20582,24.90766],[86.20552,24.90774],[86.20563,24.90798],[86.20535,24.90806],[86.2054,24.90841],[86.20501,24.90855],[86.2053,24.9091],[86.20472,24.90932],[86.2049,24.90966],[86.20437,24.90983],[86.20465,24.91044],[86.20496,24.91039],[86.2053,24.9109],[86.20643,24.91171],[86.2068,24.91258],[86.20687,24.91344]]]}},{"type":"Feature","bbox":[86.21493,24.9165,86.22411,24.9253],"properties":{"ward":18,"name":"Khairma"},"geometry":{"type":"Polygon","coordinates":[[[86.22139,24.9253],[86.22193,24.92512],[86.22313,24.92336],[86.22411,24.92226],[86.22331,24.92069],[86.22174,24.92072],[86.21887,24.92107],[86.2187,24.91907],[86.22012,24.91859],[86.21996,24.91797],[86.21976,24.91792],[86.21993,24.91788],[86.21965,24.9165],[86.21808,24.9165],[86.21493,24.91704],[86.21561,24.91855],[86.21532,24.91864],[86.21545,24.91912],[86.21535,24.91914],[86.21585,24.92023],[86.21572,24.92053],[86.21605,24.92159],[86.21584,24.92161],[86.21601,24.92233],[86.21776,24.92216],[86.21801,24.92308],[86.21835,24.92313],[86.21893,24.92494],[86.2193,24.92485],[86.21933,24.92508],[86.22015,24.92477],[86.22057,24.92492],[86.22081,24.92525],[86.22125,24.92509],[86.22139,24.9253]]]}},{"type":"Feature","bbox":[86.22318,24.92612,86.22698,24.93077],"properties":{"ward":19,"name":"Krishnapatti"},"geometry":{"type":"Polygon","coordinates":[[[86.22573,24.93077],[86.22668,24.9302],[86.22698,24.93021],[86.22582,24.92637],[86.22517,24.92612],[86.22319,24.92658],[86.22331,24.92696],[86.22318,24.92699],[86.2232,24.92742],[86.22365,24.92735],[86.22466,24.92995],[86.22533,24.92975],[86.22573,24.93077]]]}},{"type":"Feature","bbox":[86.22577,24.92506,86.23264,24.93022],"properties":{"ward":20,"name":"Kalyanpur"},"geometry":{"type":"Polygon","coordinates":[[[86.22703,24.93022],[86.23264,24.92841],[86.23148,24.92552],[86.2296,24.92506],[86.22707,24.92555],[86.22577,24.92561],[86.22591,24.92699],[86.22703,24.93022]]]}},{"type":"Feature","bbox":[86.23153,24.92192,86.23879,24.9284],"properties":{"ward":21,"name":"Kalyanpur"},"geometry":{"type":"Polygon","coordinates":[[[86.23267,24.9284],[86.23749,24.92697],[86.23879,24.92613],[86.23807,24.92594],[86.23739,24.92537],[86.23573,24.92192],[86.23508,24.92267],[86.23414,24.9231],[86.23398,24.92349],[86.23379,24.92359],[86.23383,24.92373],[86.23299,24.9242],[86.23315,24.92451],[86.23303,24.92586],[86.23261,24.92592],[86.23153,24.92558],[86.2317,24.92628],[86.23267,24.9284]]]}},{"type":"Feature","bbox":[86.2257,24.91946,86.23638,24.92585],"properties":{"ward":22,"name":"Shivandih"},"geometry":{"type":"Polygon","coordinates":[[[86.23194,24.92574],[86.23303,24.92585],[86.23315,24.92451],[86.23299,24.9242],[86.23383,24.92373],[86.23379,24.92359],[86.23398,24.92349],[86.23414,24.9231],[86.23508,24.92267],[86.23573,24.92192],[86.23638,24.91946],[86.23595,24.91947],[86.23606,24.91981],[86.23568,24.91995],[86.23384,24.92051],[86.23377,24.92036],[86.23214,24.92104],[86.232,24.92079],[86.23117,24.9211],[86.23123,24.9213],[86.23103,24.92137],[86.2309,24.92111],[86.22791,24.92207],[86.22716,24.92163],[86.2257,24.92252],[86.22587,24.92407],[86.22577,24.92561],[86.22707,24.92555],[86.22974,24.92506],[86.23086,24.92527],[86.23194,24.92574]]]}},{"type":"Feature","bbox":[86.2187,24.91624,86.23669,24.92637],"properties":{"ward":23,"name":"Purani Bazar"},"geometry":{"type":"Polygon","coordinates":[[[86.22519,24.92612],[86.22582,24.92637],[86.22587,24.92407],[86.2257,24.92252],[86.22716,24.92163],[86.22791,24.92207],[86.2309,24.92111],[86.23103,24.92137],[86.23123,24.9213],[86.23117,24.9211],[86.232,24.92079],[86.23214,24.92104],[86.23377,24.92036],[86.23384,24.92051],[86.23606,24.91981],[86.23595,24.91947],[86.23638,24.91946],[86.23663,24.91846],[86.23669,24.91624],[86.23168,24.91831],[86.23128,24.9181],[86.22998,24.91849],[86.2282,24.91871],[86.22672,24.91853],[86.22551,24.91856],[86.22468,24.91879],[86.22462,24.91859],[86.22389,24.9187],[86.22367,24.91893],[86.2235,24.91974],[86.22285,24.91988],[86.22206,24.91836],[86.22168,24.91863],[86.22101,24.91877],[86.22105,24.91895],[86.22021,24.91906],[86.22007,24.91862],[86.2187,24.91907],[86.21883,24.921],[86.21896,24.92114],[86.22174,24.92072],[86.22331,24.92069],[86.22411,24.92226],[86.22249,24.92425],[86.22311,24.92407],[86.22358,24.92508],[86.22469,24.92476],[86.2251,24.92533],[86.22519,24.92612]]]}},{"type":"Feature","bbox":[86.21965,24.91364,86.23708,24.91987],"properties":{"ward":24,"name":"Khairma"},"geometry":{"type":"Polygon","coordinates":[[[86.22289,24.91987],[86.2235,24.91974],[86.22367,24.91893],[86.22393,24.91869],[86.22462,24.91859],[86.22468,24.91879],[86.22551,24.91856],[86.22672,24.91853],[86.2282,24.91871],[86.22998,24.91849],[86.23128,24.9181],[86.23168,24.91831],[86.23553,24.91682],[86.23669,24.91624],[86.23708,24.91364],[86.23524,24.91383],[86.23521,24.91415],[86.23439,24.91421],[86.23453,24.91501],[86.23407,24.91521],[86.22884,24.91661],[86.22571,24.91669],[86.22569,24.91649],[86.22495,24.91695],[86.22484,24.9166],[86.22435,24.91672],[86.22408,24.91595],[86.22313,24.91625],[86.22327,24.9168],[86.22146,24.91692],[86.21965,24.9165],[86.21993,24.91788],[86.21976,24.91792],[86.21996,24.91797],[86.22021,24.91906],[86.22105,24.91895],[86.22101,24.91877],[86.22168,24.91863],[86.22206,24.91836],[86.22289,24.91987]]]}},{"type":"Feature","bbox":[86.22118,24.90646,86.23997,24.91691],"properties":{"ward":25,"name":"Bhachhiyar"},"geometry":{"type":"Polygon","coordinates":[[[86.22501,24.91691],[86.22565,24.91649],[86.22571,24.91669],[86.22693,24.91659],[86.22797,24.91673],[86.23134,24.91601],[86.23453,24.91501],[86.23439,24.91421],[86.23521,24.91415],[86.23524,24.91383],[86.23708,24.91364],[86.23768,24.91176],[86.23917,24.91025],[86.23967,24.9095],[86.23997,24.90871],[86.23951,24.90646],[86.23487,24.90845],[86.23381,24.90995],[86.23189,24.91076],[86.22905,24.91166],[86.2269,24.9121],[86.22692,24.91247],[86.22532,24.91287],[86.22529,24.91273],[86.22499,24.91273],[86.22494,24.91256],[86.22466,24.91258],[86.22249,24.91311],[86.22221,24.91242],[86.22161,24.91262],[86.22194,24.91332],[86.22162,24.91343],[86.22178,24.91409],[86.22118,24.91423],[86.22127,24.91451],[86.22242,24.91429],[86.22251,24.91486],[86.22349,24.91475],[86.22435,24.91672],[86.22484,24.9166],[86.22501,24.91691]]]}},{"type":"Feature","bbox":[86.21459,24.9021,86.23951,24.91692],"properties":{"ward":26,"name":"Bhachhiyar"},"geometry":{"type":"Polygon","coordinates":[[[86.22156,24.91692],[86.22327,24.9168],[86.22313,24.91625],[86.22405,24.91597],[86.22349,24.91475],[86.22251,24.91486],[86.22242,24.91429],[86.22127,24.91451],[86.22118,24.91423],[86.22178,24.91409],[86.22162,24.91343],[86.22194,24.91332],[86.22161,24.91262],[86.22221,24.91242],[86.22249,24.91311],[86.22367,24.91273],[86.22486,24.91256],[86.22532,24.91287],[86.22692,24.91247],[86.2269,24.9121],[86.22905,24.91166],[86.23196,24.91073],[86.23389,24.90989],[86.23487,24.90845],[86.23951,24.90646],[86.23918,24.90536],[86.23871,24.90475],[86.23692,24.90372],[86.23488,24.9031],[86.23377,24.9021],[86.23079,24.90373],[86.22947,24.9042],[86.22947,24.90459],[86.2285,24.90471],[86.228,24.90498],[86.22712,24.90498],[86.22734,24.90577],[86.227,24.90638],[86.22705,24.90696],[86.22663,24.90788],[86.2265,24.90962],[86.22608,24.9097],[86.22605,24.90958],[86.22477,24.91008],[86.22459,24.90953],[86.22368,24.90989],[86.22344,24.90914],[86.22095,24.90991],[86.2204,24.90883],[86.21995,24.90836],[86.21973,24.90778],[86.21601,24.90872],[86.21612,24.90907],[86.21584,24.90915],[86.2163,24.91033],[86.21593,24.91065],[86.21601,24.91088],[86.21573,24.91102],[86.21565,24.91081],[86.21519,24.91103],[86.2151,24.91089],[86.21459,24.91104],[86.21475,24.91154],[86.21617,24.91285],[86.21676,24.91431],[86.21656,24.91428],[86.21729,24.91655],[86.21969,24.9165],[86.22156,24.91692]]]}},{"type":"Feature","bbox":[86.22203,24.90512,86.22484,24.90962],"properties":{"ward":27,"name":"Rajanagar"},"geometry":{"type":"Polygon","coordinates":[[[86.22203,24.90962],[86.22408,24.90897],[86.22414,24.90912],[86.22437,24.90906],[86.22408,24.90812],[86.22484,24.90785],[86.22428,24.90617],[86.22399,24.90626],[86.22371,24.90548],[86.22403,24.9053],[86.22394,24.90512],[86.22278,24.90547],[86.22204,24.90589],[86.22203,24.90962]]]}},{"type":"Feature","bbox":[86.22344,24.90385,86.22734,24.91008],"properties":{"ward":28,"name":"Purani Bazar"},"geometry":{"type":"Polygon","coordinates":[[[86.22478,24.91008],[86.22605,24.90958],[86.22608,24.9097],[86.2265,24.90962],[86.22663,24.90788],[86.22705,24.90696],[86.227,24.90638],[86.22734,24.90577],[86.22698,24.90385],[86.22617,24.90403],[86.22492,24.90477],[86.22394,24.90512],[86.22403,24.9053],[86.22371,24.90548],[86.22399,24.90626],[86.22428,24.90617],[86.22484,24.90785],[86.22408,24.90812],[86.22437,24.90906],[86.22414,24.90912],[86.22408,24.90897],[86.22344,24.90914],[86.22349,24.90947],[86.22368,24.90989],[86.22459,24.90953],[86.22478,24.91008]]]}},{"type":"Feature","bbox":[86.21778,24.89385,86.22698,24.90991],"properties":{"ward":29,"name":"Nimarang"},"geometry":{"type":"Polygon","coordinates":[[[86.22096,24.90991],[86.22198,24.90961],[86.22204,24.90589],[86.22289,24.90543],[86.22488,24.90479],[86.22617,24.90403],[86.22698,24.90385],[86.22628,24.90092],[86.22548,24.89385],[86.22505,24.89396],[86.22504,24.89438],[86.22428,24.89456],[86.22452,24.89561],[86.22326,24.89611],[86.2232,24.89596],[86.22167,24.89638],[86.22152,24.89602],[86.22104,24.89618],[86.22097,24.8966],[86.22059,24.89669],[86.221,24.89951],[86.2193,24.89963],[86.21954,24.9003],[86.21778,24.90076],[86.21863,24.90206],[86.21862,24.90224],[86.21841,24.9023],[86.21847,24.90252],[86.21869,24.90246],[86.21883,24.90302],[86.21901,24.903],[86.21902,24.90411],[86.2193,24.90512],[86.21912,24.90518],[86.21977,24.90793],[86.22096,24.90991]]]}},{"type":"Feature","bbox":[86.22547,24.89335,86.23383,24.90503],"properties":{"ward":30,"name":"Nimarang"},"geometry":{"type":"Polygon","coordinates":[[[86.22756,24.90503],[86.22947,24.90459],[86.22947,24.9042],[86.23079,24.90373],[86.23383,24.9021],[86.23215,24.89941],[86.23077,24.89777],[86.23043,24.89579],[86.23,24.89496],[86.22822,24.89361],[86.22765,24.89335],[86.22547,24.89372],[86.22561,24.89582],[86.22641,24.90177],[86.22665,24.90208],[86.22712,24.90498],[86.22756,24.90503]]]}}]}