{"type":"FeatureCollection","features":[{"type":"Feature","bbox":[92.33496,26.25173,92.34025,26.25905],"properties":{"ward":1},"geometry":{"type":"MultiPolygon","coordinates":[[[[92.33496,26.25905],[92.33533,26.25854],[92.33521,26.25853],[92.33496,26.25905]]],[[[92.33533,26.25854],[92.33766,26.25855],[92.34011,26.25828],[92.33985,26.25591],[92.34025,26.25419],[92.34015,26.25173],[92.33533,26.25854]]]]}},{"type":"Feature","bbox":[92.34204,26.2521,92.34271,26.26459],"properties":{"ward":4},"geometry":{"type":"MultiPolygon","coordinates":[[[[92.34212,26.25592],[92.34263,26.26256],[92.34221,26.2521],[92.34204,26.25285],[92.34212,26.25592]]],[[[92.34263,26.26256],[92.34271,26.26459],[92.34265,26.26281],[92.34263,26.26256]]]]}},{"type":"Feature","bbox":[92.33009,26.24562,92.3375,26.25111],"properties":{"ward":6},"geometry":{"type":"Polygon","coordinates":[[[92.33009,26.24953],[92.33737,26.25111],[92.3375,26.25048],[92.33737,26.24916],[92.33619,26.24629],[92.33118,26.24583],[92.33044,26.24562],[92.3301,26.24816],[92.33009,26.24953]]]}},{"type":"Feature","bbox":[92.35187,26.25303,92.35224,26.25749],"properties":{"ward":8},"geometry":{"type":"MultiPolygon","coordinates":[[[[92.35187,26.25303],[92.3519,26.25332],[92.3519,26.25319],[92.35187,26.25303]]],[[[92.3519,26.25332],[92.35188,26.25419],[92.35222,26.25734],[92.35223,26.2573],[92.3519,26.25332]]],[[[92.35223,26.2573],[92.35223,26.25732],[92.35223,26.2573],[92.35223,26.2573]]],[[[92.35223,26.25732],[92.35223,26.2574],[92.35224,26.25749],[92.35223,26.25732]]]]}},{"type":"Feature","bbox":[92.33036,26.24027,92.33354,26.24587],"properties":{"ward":10},"geometry":{"type":"Polygon","coordinates":[[[92.33262,26.24587],[92.33325,26.24276],[92.33348,26.24256],[92.33354,26.24167],[92.3326,26.24143],[92.33036,26.24027],[92.33262,26.24587]]]}},{"type":"Feature","bbox":[92.34693,26.24328,92.34984,26.25292],"properties":{"ward":11},"geometry":{"type":"MultiPolygon","coordinates":[[[[92.34707,26.25292],[92.34772,26.25067],[92.34697,26.25064],[92.34693,26.25076],[92.34707,26.25292]]],[[[92.34772,26.25067],[92.34791,26.25065],[92.34789,26.25006],[92.34772,26.25067]]],[[[92.34789,26.25006],[92.34808,26.2494],[92.34788,26.24973],[92.34789,26.25006]]],[[[92.34808,26.2494],[92.3481,26.24937],[92.3481,26.24935],[92.34808,26.2494]]],[[[92.3481,26.24935],[92.3483,26.24863],[92.348,26.2489],[92.3481,26.24935]]],[[[92.3483,26.24863],[92.34859,26.24839],[92.34856,26.24775],[92.3483,26.24863]]],[[[92.34856,26.24775],[92.34984,26.24328],[92.34957,26.2434],[92.34935,26.24397],[92.3488,26.24624],[92.34838,26.24698],[92.34856,26.24775]]]]}}]}