{"type":"FeatureCollection","features":[{"type":"Feature","bbox":[95.64796,27.29131,95.65889,27.30221],"properties":{"ward":1},"geometry":{"type":"Polygon","coordinates":[[[95.64888,27.29536],[95.64796,27.29567],[95.64979,27.29972],[95.65018,27.30182],[95.65221,27.30221],[95.65332,27.30221],[95.65529,27.30174],[95.65663,27.30198],[95.65774,27.29644],[95.65889,27.29425],[95.65864,27.2928],[95.65729,27.29131],[95.65087,27.29425],[95.64888,27.29536]]]}},{"type":"Feature","bbox":[95.64434,27.28523,95.66271,27.29748],"properties":{"ward":2},"geometry":{"type":"Polygon","coordinates":[[[95.64767,27.29564],[95.64865,27.29529],[95.65712,27.29115],[95.65773,27.29114],[95.65934,27.29003],[95.66175,27.28863],[95.6624,27.28843],[95.66267,27.28798],[95.66232,27.28727],[95.66155,27.28665],[95.66188,27.28571],[95.66271,27.28561],[95.66062,27.28523],[95.65816,27.2858],[95.65636,27.28601],[95.65237,27.28826],[95.65042,27.28985],[95.64679,27.29386],[95.64591,27.29461],[95.64451,27.29645],[95.64434,27.29748],[95.64767,27.29564]]]}},{"type":"Feature","bbox":[95.65698,27.29123,95.66858,27.30412],"properties":{"ward":3},"geometry":{"type":"Polygon","coordinates":[[[95.65919,27.29358],[95.65916,27.29446],[95.65822,27.29632],[95.65787,27.29786],[95.6576,27.2997],[95.65699,27.30204],[95.65698,27.304],[95.65811,27.30382],[95.66072,27.30412],[95.66207,27.30317],[95.66246,27.30218],[95.6633,27.30147],[95.66607,27.29984],[95.66858,27.30015],[95.66617,27.29877],[95.66563,27.29812],[95.66537,27.29727],[95.66536,27.29585],[95.66596,27.29444],[95.66596,27.29333],[95.66658,27.29169],[95.66646,27.29137],[95.66407,27.29123],[95.65919,27.29358]]]}},{"type":"Feature","bbox":[95.65767,27.28576,95.67282,27.30098],"properties":{"ward":4},"geometry":{"type":"Polygon","coordinates":[[[95.65941,27.29011],[95.65767,27.29128],[95.65778,27.29155],[95.65866,27.29241],[95.65911,27.29344],[95.66402,27.29107],[95.66642,27.29124],[95.66668,27.29163],[95.66624,27.29297],[95.66603,27.29481],[95.66562,27.29566],[95.66551,27.29701],[95.6661,27.29845],[95.66816,27.29954],[95.66875,27.30014],[95.66925,27.30022],[95.66924,27.30098],[95.66969,27.30004],[95.67023,27.29936],[95.67282,27.29718],[95.67276,27.297],[95.67001,27.295],[95.66798,27.29289],[95.66542,27.28795],[95.66383,27.2862],[95.66303,27.28579],[95.66196,27.28576],[95.66174,27.28653],[95.66248,27.28716],[95.66282,27.28799],[95.66268,27.28831],[95.65941,27.29011]]]}},{"type":"Feature","bbox":[95.6626,27.28184,95.67486,27.29189],"properties":{"ward":5},"geometry":{"type":"Polygon","coordinates":[[[95.6626,27.28394],[95.66469,27.28435],[95.66568,27.285],[95.66648,27.28603],[95.66797,27.28753],[95.66911,27.28821],[95.66963,27.28898],[95.66994,27.28997],[95.6707,27.28947],[95.67423,27.29183],[95.67477,27.29189],[95.67486,27.2911],[95.67423,27.2903],[95.67324,27.28511],[95.67236,27.28476],[95.67116,27.28379],[95.67023,27.28411],[95.66941,27.28304],[95.66897,27.28271],[95.66632,27.28199],[95.66439,27.28184],[95.66329,27.28239],[95.66279,27.28276],[95.6626,27.28394]]]}},{"type":"Feature","bbox":[95.67015,27.28967,95.68248,27.2967],"properties":{"ward":6},"geometry":{"type":"Polygon","coordinates":[[[95.67651,27.29454],[95.67824,27.29655],[95.679,27.29669],[95.68083,27.2967],[95.68158,27.29632],[95.68226,27.29593],[95.68248,27.29487],[95.68238,27.29417],[95.68058,27.29393],[95.67832,27.29294],[95.6764,27.29168],[95.67527,27.29121],[95.67502,27.29115],[95.67491,27.29214],[95.67419,27.29197],[95.6707,27.28967],[95.67015,27.28997],[95.67136,27.29103],[95.67542,27.29361],[95.67651,27.29454]]]}},{"type":"Feature","bbox":[95.67341,27.28518,95.68448,27.29397],"properties":{"ward":7},"geometry":{"type":"Polygon","coordinates":[[[95.67499,27.29094],[95.67733,27.2919],[95.67855,27.29275],[95.67989,27.29343],[95.68123,27.2939],[95.6824,27.29397],[95.68227,27.29361],[95.6824,27.29344],[95.68399,27.29257],[95.68448,27.29213],[95.684,27.29092],[95.68192,27.29083],[95.68227,27.28949],[95.68218,27.28913],[95.68232,27.28808],[95.6813,27.28669],[95.67928,27.28848],[95.6755,27.28655],[95.67341,27.28518],[95.6742,27.28881],[95.67433,27.29013],[95.67499,27.29094]]]}},{"type":"Feature","bbox":[95.68154,27.28287,95.69659,27.29358],"properties":{"ward":8},"geometry":{"type":"Polygon","coordinates":[[[95.68246,27.28943],[95.68222,27.29051],[95.6843,27.29071],[95.6847,27.29201],[95.68463,27.29251],[95.68526,27.29345],[95.68581,27.29358],[95.68657,27.29278],[95.68691,27.29098],[95.68773,27.29039],[95.6889,27.28988],[95.69005,27.29031],[95.69177,27.29153],[95.69075,27.29349],[95.69253,27.29202],[95.69306,27.29217],[95.69357,27.29288],[95.6938,27.29221],[95.69492,27.29188],[95.69582,27.29089],[95.69619,27.28953],[95.69631,27.28845],[95.69619,27.28604],[95.69659,27.2841],[95.69627,27.28378],[95.6939,27.2839],[95.69298,27.28357],[95.692,27.28412],[95.68979,27.28287],[95.6879,27.28526],[95.68568,27.28645],[95.68521,27.28684],[95.68422,27.28704],[95.68357,27.28673],[95.6817,27.2863],[95.68154,27.28656],[95.68247,27.28792],[95.68246,27.28943]]]}}]}