{"type":"FeatureCollection","features":[{"type":"Feature","bbox":[89.99085,26.01674,89.99622,26.02302],"properties":{"ward":1},"geometry":{"type":"Polygon","coordinates":[[[89.99414,26.02302],[89.99476,26.02289],[89.99555,26.02247],[89.99622,26.02143],[89.99611,26.01991],[89.99548,26.0184],[89.99367,26.01679],[89.99322,26.01674],[89.99263,26.01698],[89.99229,26.01734],[89.99311,26.01978],[89.99085,26.02035],[89.99183,26.02071],[89.99414,26.02302]]]}},{"type":"Feature","bbox":[89.99008,26.01622,89.99358,26.01908],"properties":{"ward":2},"geometry":{"type":"Polygon","coordinates":[[[89.9927,26.01895],[89.99221,26.0174],[89.99263,26.01682],[89.99358,26.01665],[89.99305,26.01622],[89.99127,26.01672],[89.99089,26.01768],[89.99008,26.01883],[89.99196,26.01908],[89.9927,26.01895]]]}},{"type":"Feature","bbox":[89.98358,26.00898,89.99313,26.01659],"properties":{"ward":3},"geometry":{"type":"Polygon","coordinates":[[[89.99128,26.01649],[89.99309,26.01584],[89.99313,26.01564],[89.99255,26.01577],[89.99271,26.0154],[89.99262,26.01527],[89.98504,26.00898],[89.98457,26.01109],[89.98448,26.01285],[89.98403,26.01303],[89.98358,26.01622],[89.98609,26.01628],[89.98917,26.01659],[89.99128,26.01649]]]}},{"type":"Feature","bbox":[89.98624,26.01645,89.99098,26.01889],"properties":{"ward":4},"geometry":{"type":"Polygon","coordinates":[[[89.98635,26.01869],[89.98875,26.01856],[89.98997,26.01889],[89.99083,26.01739],[89.99098,26.0168],[89.98624,26.01645],[89.98635,26.01869]]]}},{"type":"Feature","bbox":[89.98259,26.01638,89.9864,26.01944],"properties":{"ward":5},"geometry":{"type":"Polygon","coordinates":[[[89.98259,26.01944],[89.9864,26.01876],[89.98621,26.01642],[89.98346,26.01638],[89.98314,26.01696],[89.98259,26.01944]]]}},{"type":"Feature","bbox":[89.98744,26.01863,89.99306,26.02068],"properties":{"ward":6},"geometry":{"type":"Polygon","coordinates":[[[89.98832,26.02068],[89.98911,26.02037],[89.99082,26.02029],[89.99306,26.01972],[89.99274,26.01902],[89.99122,26.01915],[89.98941,26.0187],[89.98744,26.01863],[89.98786,26.02007],[89.98832,26.02068]]]}},{"type":"Feature","bbox":[89.98246,26.01864,89.9878,26.02055],"properties":{"ward":7},"geometry":{"type":"Polygon","coordinates":[[[89.9878,26.02008],[89.98744,26.01867],[89.98713,26.01864],[89.98256,26.01947],[89.98246,26.02055],[89.9878,26.02008]]]}},{"type":"Feature","bbox":[89.98245,26.0201,89.99402,26.02438],"properties":{"ward":8},"geometry":{"type":"Polygon","coordinates":[[[89.98312,26.02401],[89.98346,26.02424],[89.98393,26.02394],[89.98442,26.02438],[89.98474,26.02429],[89.98812,26.02246],[89.98927,26.0222],[89.99096,26.02213],[89.99363,26.02364],[89.99402,26.02343],[89.99387,26.02306],[89.99168,26.0206],[89.99036,26.0203],[89.9892,26.02037],[89.98826,26.0207],[89.98786,26.0201],[89.98245,26.02052],[89.98312,26.02401]]]}},{"type":"Feature","bbox":[89.97732,26.02099,89.98426,26.0269],"properties":{"ward":9},"geometry":{"type":"Polygon","coordinates":[[[89.98,26.0269],[89.98426,26.02434],[89.98394,26.02405],[89.98338,26.02421],[89.98307,26.02382],[89.98242,26.02099],[89.97822,26.0233],[89.97751,26.02383],[89.97732,26.02416],[89.97948,26.02678],[89.98,26.0269]]]}},{"type":"Feature","bbox":[89.9773,26.01715,89.9829,26.02405],"properties":{"ward":10},"geometry":{"type":"Polygon","coordinates":[[[89.97856,26.0214],[89.9773,26.02405],[89.97814,26.02329],[89.98238,26.02093],[89.9829,26.01797],[89.98041,26.01721],[89.97807,26.01715],[89.97908,26.01936],[89.97856,26.0214]]]}},{"type":"Feature","bbox":[89.97767,26.00541,89.98484,26.01778],"properties":{"ward":11},"geometry":{"type":"Polygon","coordinates":[[[89.97767,26.01425],[89.97785,26.01596],[89.97842,26.01696],[89.98054,26.01704],[89.98279,26.01778],[89.98379,26.01267],[89.98421,26.01266],[89.98428,26.01115],[89.98484,26.00883],[89.97938,26.00541],[89.97802,26.01211],[89.97767,26.01425]]]}},{"type":"Feature","bbox":[89.97046,25.997,89.97887,26.01725],"properties":{"ward":12},"geometry":{"type":"Polygon","coordinates":[[[89.97813,26.01717],[89.97739,26.01566],[89.97737,26.01396],[89.97887,26.00456],[89.97161,25.997],[89.97113,26.00228],[89.97117,26.01203],[89.97109,26.0122],[89.97046,26.01252],[89.97095,26.01276],[89.97087,26.01469],[89.97104,26.01642],[89.97689,26.01699],[89.97731,26.01725],[89.97813,26.01717]]]}},{"type":"Feature","bbox":[89.97324,26.01672,89.97905,26.0254],"properties":{"ward":13},"geometry":{"type":"Polygon","coordinates":[[[89.97632,26.0254],[89.97856,26.02112],[89.97905,26.01977],[89.97887,26.01891],[89.97821,26.01715],[89.97324,26.01672],[89.97386,26.01898],[89.97445,26.02036],[89.9766,26.02247],[89.97541,26.02468],[89.97632,26.0254]]]}},{"type":"Feature","bbox":[89.96581,26.01663,89.97651,26.02464],"properties":{"ward":14},"geometry":{"type":"Polygon","coordinates":[[[89.96581,26.02262],[89.97541,26.02464],[89.97651,26.02257],[89.97429,26.02049],[89.97402,26.02004],[89.97314,26.0168],[89.97144,26.01663],[89.97071,26.01927],[89.97018,26.01957],[89.96887,26.0197],[89.96898,26.02013],[89.96879,26.02083],[89.96818,26.02127],[89.9668,26.02137],[89.96613,26.0219],[89.96581,26.02262]]]}},{"type":"Feature","bbox":[89.9666,26.02301,89.97604,26.03233],"properties":{"ward":15},"geometry":{"type":"Polygon","coordinates":[[[89.96926,26.03233],[89.97178,26.02978],[89.97389,26.02687],[89.97522,26.02554],[89.97559,26.02527],[89.97604,26.02528],[89.97594,26.02516],[89.97553,26.02481],[89.9666,26.02301],[89.96773,26.02457],[89.96773,26.02581],[89.96813,26.0273],[89.96804,26.02811],[89.96838,26.02926],[89.96756,26.03008],[89.96844,26.03077],[89.96799,26.03135],[89.96926,26.03233]]]}},{"type":"Feature","bbox":[89.9694,26.02431,89.97946,26.0337],"properties":{"ward":16},"geometry":{"type":"Polygon","coordinates":[[[89.97946,26.02723],[89.97873,26.02607],[89.9772,26.02431],[89.97648,26.02553],[89.9758,26.02537],[89.97484,26.02627],[89.97201,26.02984],[89.9694,26.03247],[89.97254,26.0337],[89.97435,26.03097],[89.97685,26.02886],[89.97946,26.02723]]]}}]}