{"type":"FeatureCollection","features":[{"type":"Feature","bbox":[95.33659,27.46987,95.34805,27.48297],"properties":{"ward":1},"geometry":{"type":"Polygon","coordinates":[[[95.33659,27.47906],[95.3386,27.47966],[95.34393,27.48251],[95.34551,27.48297],[95.34686,27.47827],[95.34805,27.47516],[95.34803,27.47182],[95.34785,27.46987],[95.34556,27.47002],[95.33891,27.47103],[95.33838,27.47283],[95.33731,27.47469],[95.33734,27.47599],[95.33695,27.47682],[95.33659,27.47906]]]}},{"type":"Feature","bbox":[95.34568,27.46782,95.35319,27.48522],"properties":{"ward":2},"geometry":{"type":"Polygon","coordinates":[[[95.34731,27.47721],[95.34568,27.48291],[95.34744,27.48367],[95.35172,27.48486],[95.3522,27.48516],[95.35257,27.48522],[95.35319,27.48493],[95.35249,27.4837],[95.35236,27.48307],[95.3525,27.48131],[95.35154,27.46782],[95.35076,27.46871],[95.34801,27.46986],[95.34812,27.47517],[95.34731,27.47721]]]}},{"type":"Feature","bbox":[95.35167,27.46802,95.36286,27.48765],"properties":{"ward":3},"geometry":{"type":"Polygon","coordinates":[[[95.35252,27.48264],[95.35272,27.48387],[95.3533,27.48479],[95.35348,27.48539],[95.36047,27.48765],[95.36141,27.48485],[95.36214,27.48411],[95.36241,27.48347],[95.36281,27.48092],[95.36286,27.47894],[95.36272,27.47706],[95.3624,27.47624],[95.36232,27.47541],[95.36067,27.47044],[95.36023,27.4699],[95.35873,27.46964],[95.35801,27.46979],[95.35695,27.4695],[95.356,27.46957],[95.35382,27.46934],[95.35209,27.46869],[95.35167,27.46802],[95.35258,27.48092],[95.35252,27.48264]]]}},{"type":"Feature","bbox":[95.36056,27.46991,95.37537,27.48798],"properties":{"ward":4},"geometry":{"type":"Polygon","coordinates":[[[95.3613,27.48546],[95.36056,27.48774],[95.36107,27.48794],[95.36191,27.48798],[95.37536,27.48614],[95.37537,27.48429],[95.37488,27.4841],[95.3744,27.48417],[95.37366,27.484],[95.37295,27.48339],[95.37223,27.4832],[95.37192,27.48261],[95.37112,27.4818],[95.37086,27.47984],[95.37046,27.47907],[95.36967,27.47555],[95.36916,27.47479],[95.36898,27.4728],[95.36862,27.47166],[95.3682,27.47108],[95.36728,27.47065],[95.36579,27.47059],[95.36442,27.47005],[95.36328,27.46991],[95.36239,27.47004],[95.36149,27.46993],[95.36067,27.47038],[95.36239,27.47543],[95.36245,27.47627],[95.36276,27.47696],[95.36288,27.47957],[95.36263,27.48326],[95.3613,27.48546]]]}},{"type":"Feature","bbox":[95.37544,27.48212,95.38762,27.49087],"properties":{"ward":5},"geometry":{"type":"Polygon","coordinates":[[[95.37767,27.49087],[95.38227,27.48868],[95.38659,27.48619],[95.3873,27.48558],[95.38748,27.4852],[95.38762,27.48351],[95.38726,27.48326],[95.38716,27.48212],[95.38524,27.48221],[95.38343,27.48274],[95.38243,27.4834],[95.38155,27.48348],[95.37937,27.48434],[95.37632,27.48442],[95.37544,27.48427],[95.37556,27.48614],[95.3766,27.4886],[95.37726,27.48926],[95.37748,27.4897],[95.37767,27.49087]]]}},{"type":"Feature","bbox":[95.36229,27.48637,95.37654,27.49399],"properties":{"ward":6},"geometry":{"type":"Polygon","coordinates":[[[95.36405,27.49022],[95.36229,27.4927],[95.36413,27.49355],[95.36727,27.49399],[95.36906,27.49389],[95.37116,27.49354],[95.37224,27.49302],[95.37287,27.49233],[95.37291,27.49166],[95.37325,27.49109],[95.37397,27.49085],[95.37479,27.49013],[95.37532,27.48936],[95.37654,27.48861],[95.3765,27.48847],[95.37562,27.48637],[95.3738,27.48646],[95.36501,27.4877],[95.36405,27.49022]]]}},{"type":"Feature","bbox":[95.36086,27.48865,95.37763,27.50371],"properties":{"ward":7},"geometry":{"type":"Polygon","coordinates":[[[95.36086,27.50371],[95.36427,27.50058],[95.36469,27.50037],[95.36698,27.5003],[95.36731,27.5001],[95.37314,27.49474],[95.37505,27.49318],[95.37639,27.49299],[95.37714,27.49202],[95.37763,27.49092],[95.37717,27.48922],[95.37657,27.48865],[95.37526,27.48945],[95.37485,27.4901],[95.37412,27.49081],[95.37322,27.49116],[95.37297,27.49162],[95.37281,27.49249],[95.37209,27.4932],[95.37134,27.49352],[95.36911,27.49392],[95.3673,27.49404],[95.36405,27.49366],[95.36326,27.49339],[95.36223,27.49278],[95.36222,27.4937],[95.36251,27.4955],[95.36286,27.49642],[95.36282,27.49706],[95.36242,27.49895],[95.36134,27.50184],[95.36086,27.50371]]]}},{"type":"Feature","bbox":[95.34265,27.495,95.36233,27.50369],"properties":{"ward":8},"geometry":{"type":"Polygon","coordinates":[[[95.34483,27.49673],[95.34265,27.49831],[95.34486,27.49846],[95.34634,27.49916],[95.34661,27.4995],[95.34648,27.50014],[95.3466,27.50036],[95.34808,27.49993],[95.35087,27.50012],[95.3511,27.49995],[95.35144,27.49814],[95.35232,27.498],[95.35278,27.49798],[95.35337,27.49903],[95.35403,27.49901],[95.35529,27.49865],[95.35727,27.49902],[95.35791,27.49934],[95.35741,27.50067],[95.35705,27.50246],[95.3573,27.50274],[95.36083,27.50369],[95.36091,27.50307],[95.36233,27.49903],[95.35719,27.4979],[95.3544,27.49712],[95.35,27.49647],[95.349,27.49589],[95.34847,27.495],[95.34671,27.49616],[95.34581,27.49626],[95.34483,27.49673]]]}},{"type":"Feature","bbox":[95.34853,27.49069,95.3628,27.499],"properties":{"ward":9},"geometry":{"type":"Polygon","coordinates":[[[95.34853,27.49489],[95.34899,27.49576],[95.35008,27.49639],[95.3545,27.49707],[95.36234,27.499],[95.3628,27.49706],[95.3628,27.4963],[95.3624,27.49502],[95.35976,27.4931],[95.35753,27.49307],[95.35606,27.49327],[95.35583,27.49279],[95.35531,27.49276],[95.35459,27.49188],[95.35225,27.49069],[95.35078,27.4917],[95.34954,27.49291],[95.34853,27.49489]]]}},{"type":"Feature","bbox":[95.35232,27.48858,95.36238,27.49495],"properties":{"ward":10},"geometry":{"type":"Polygon","coordinates":[[[95.35232,27.49059],[95.35462,27.49184],[95.35549,27.49271],[95.3559,27.49273],[95.35602,27.49318],[95.35971,27.49303],[95.36238,27.49495],[95.36207,27.49253],[95.35563,27.48858],[95.35232,27.49059]]]}},{"type":"Feature","bbox":[95.35576,27.4871,95.36491,27.49259],"properties":{"ward":11},"geometry":{"type":"Polygon","coordinates":[[[95.35797,27.4871],[95.35576,27.48857],[95.36229,27.49259],[95.36397,27.49023],[95.36491,27.4877],[95.36175,27.48817],[95.35986,27.48778],[95.35797,27.4871]]]}},{"type":"Feature","bbox":[95.34734,27.48368,95.35788,27.48854],"properties":{"ward":12},"geometry":{"type":"Polygon","coordinates":[[[95.35175,27.48499],[95.34734,27.48368],[95.35568,27.48854],[95.35788,27.48706],[95.35405,27.48563],[95.35245,27.48537],[95.35175,27.48499]]]}},{"type":"Feature","bbox":[95.34553,27.48505,95.35552,27.49369],"properties":{"ward":13},"geometry":{"type":"Polygon","coordinates":[[[95.34576,27.49031],[95.34553,27.49154],[95.34709,27.49261],[95.34813,27.49363],[95.34893,27.49369],[95.34943,27.49292],[95.35129,27.49123],[95.35552,27.48856],[95.34958,27.48505],[95.34891,27.48709],[95.34843,27.48716],[95.34821,27.48795],[95.34607,27.48974],[95.34576,27.49031]]]}},{"type":"Feature","bbox":[95.33651,27.48879,95.34891,27.4988],"properties":{"ward":14},"geometry":{"type":"Polygon","coordinates":[[[95.33651,27.49033],[95.33759,27.49555],[95.33933,27.49613],[95.33989,27.49589],[95.34034,27.4959],[95.34075,27.49615],[95.34123,27.49678],[95.34149,27.49814],[95.34205,27.4988],[95.34295,27.4979],[95.34428,27.49695],[95.34576,27.49617],[95.34671,27.49603],[95.34775,27.49539],[95.34835,27.49488],[95.34891,27.49374],[95.34811,27.49369],[95.34658,27.49227],[95.34301,27.49025],[95.3416,27.48974],[95.34036,27.48959],[95.34013,27.48927],[95.33942,27.48908],[95.33682,27.48879],[95.33657,27.48883],[95.33651,27.49033]]]}},{"type":"Feature","bbox":[95.33603,27.48103,95.34953,27.49154],"properties":{"ward":15},"geometry":{"type":"Polygon","coordinates":[[[95.33603,27.48749],[95.33655,27.48879],[95.33853,27.48886],[95.34015,27.48925],[95.34036,27.48953],[95.34067,27.48962],[95.34156,27.48969],[95.34316,27.49028],[95.34527,27.49154],[95.34548,27.49151],[95.34574,27.4901],[95.34598,27.48965],[95.34814,27.48796],[95.34838,27.48712],[95.34889,27.48703],[95.34953,27.48494],[95.34682,27.48341],[95.34058,27.48161],[95.33748,27.48103],[95.33716,27.48156],[95.33673,27.48299],[95.33624,27.48553],[95.33603,27.48749]]]}}]}