{"type":"FeatureCollection","features":[{"type":"Feature","bbox":[91.0121,26.32084,91.02264,26.32767],"properties":{"ward":1},"geometry":{"type":"Polygon","coordinates":[[[91.02264,26.32153],[91.0226,26.32084],[91.02199,26.32123],[91.01879,26.32211],[91.01851,26.32233],[91.01832,26.32278],[91.01693,26.32324],[91.01569,26.32396],[91.01362,26.32418],[91.0121,26.32452],[91.01215,26.32606],[91.01262,26.32767],[91.01485,26.32675],[91.01625,26.32644],[91.01803,26.32535],[91.01921,26.32503],[91.01985,26.32466],[91.02135,26.32442],[91.0222,26.32398],[91.02242,26.32384],[91.02236,26.32256],[91.02264,26.32153]]]}},{"type":"Feature","bbox":[91.01169,26.31635,91.02186,26.32452],"properties":{"ward":2},"geometry":{"type":"Polygon","coordinates":[[[91.02085,26.31758],[91.02017,26.31635],[91.01853,26.31732],[91.01781,26.31885],[91.01716,26.31945],[91.0157,26.32001],[91.01361,26.32035],[91.01173,26.32093],[91.01169,26.32321],[91.0121,26.32452],[91.01585,26.3239],[91.01693,26.32324],[91.01832,26.32278],[91.01851,26.32233],[91.01879,26.32211],[91.02186,26.3212],[91.02085,26.31758]]]}},{"type":"Feature","bbox":[91.01035,26.31566,91.0204,26.32102],"properties":{"ward":3},"geometry":{"type":"Polygon","coordinates":[[[91.0204,26.31614],[91.02006,26.31566],[91.01967,26.31631],[91.01737,26.31733],[91.0162,26.3173],[91.01555,26.31754],[91.01398,26.3175],[91.01297,26.31768],[91.01151,26.31742],[91.01056,26.31748],[91.01035,26.31786],[91.01037,26.31814],[91.01054,26.31857],[91.01077,26.3187],[91.01108,26.32051],[91.01166,26.32102],[91.01355,26.32037],[91.0157,26.32001],[91.01708,26.31949],[91.01781,26.31885],[91.01853,26.31732],[91.0204,26.31614]]]}},{"type":"Feature","bbox":[91.01056,26.31279,91.02006,26.31768],"properties":{"ward":4},"geometry":{"type":"Polygon","coordinates":[[[91.01879,26.31385],[91.01878,26.31338],[91.01825,26.31325],[91.01569,26.31311],[91.01473,26.31324],[91.01321,26.31281],[91.01143,26.31279],[91.0108,26.31391],[91.01069,26.31522],[91.01088,26.31589],[91.01056,26.31748],[91.01151,26.31742],[91.01278,26.31768],[91.01398,26.3175],[91.01555,26.31754],[91.0162,26.3173],[91.01737,26.31733],[91.01852,26.31671],[91.0191,26.3166],[91.01972,26.31628],[91.02006,26.31566],[91.01879,26.31385]]]}},{"type":"Feature","bbox":[90.99995,26.32606,91.01264,26.33277],"properties":{"ward":5},"geometry":{"type":"Polygon","coordinates":[[[91.00306,26.32619],[91.00183,26.32676],[91.00048,26.32708],[91.00026,26.32732],[91.00013,26.32788],[90.99995,26.32949],[91.00142,26.32904],[91.00197,26.32902],[91.002,26.33051],[91.00175,26.33181],[91.0022,26.33239],[91.00325,26.33216],[91.00422,26.3322],[91.00501,26.33277],[91.00548,26.33277],[91.0066,26.3324],[91.00761,26.33123],[91.0078,26.3314],[91.00812,26.33073],[91.00948,26.32965],[91.0118,26.32843],[91.01264,26.32778],[91.01215,26.32606],[91.01189,26.3262],[91.01071,26.32615],[91.00875,26.3265],[91.00758,26.32653],[91.00557,26.32696],[91.00494,26.32687],[91.00409,26.32701],[91.00354,26.32682],[91.00306,26.32619]]]}},{"type":"Feature","bbox":[91.00559,26.32433,91.01216,26.32685],"properties":{"ward":6},"geometry":{"type":"Polygon","coordinates":[[[91.00559,26.32685],[91.00758,26.32653],[91.00875,26.3265],[91.01071,26.32615],[91.01205,26.32616],[91.01216,26.32606],[91.01207,26.32433],[91.01196,26.3246],[91.01173,26.32464],[91.01002,26.32443],[91.006,26.32471],[91.00575,26.32489],[91.00559,26.32685]]]}},{"type":"Feature","bbox":[91.00863,26.31857,91.01203,26.32462],"properties":{"ward":7},"geometry":{"type":"Polygon","coordinates":[[[91.01138,26.32462],[91.01203,26.32451],[91.01169,26.32321],[91.01172,26.32101],[91.01123,26.32076],[91.01108,26.32051],[91.01077,26.3187],[91.01055,26.31857],[91.00959,26.31931],[91.00944,26.32103],[91.00884,26.32219],[91.00871,26.32284],[91.00863,26.3245],[91.0101,26.32443],[91.01138,26.32462]]]}},{"type":"Feature","bbox":[91.00646,26.31781,91.01047,26.32097],"properties":{"ward":8},"geometry":{"type":"Polygon","coordinates":[[[91.01047,26.31861],[91.01039,26.31786],[91.00969,26.31781],[91.00921,26.31797],[91.00744,26.31972],[91.00646,26.32096],[91.00741,26.32097],[91.00784,26.32037],[91.00813,26.32035],[91.00945,26.32078],[91.00961,26.31927],[91.01047,26.31861]]]}},{"type":"Feature","bbox":[91.00123,26.32037,91.00944,26.327],"properties":{"ward":9},"geometry":{"type":"Polygon","coordinates":[[[91.006,26.32471],[91.00868,26.32449],[91.00866,26.32318],[91.00884,26.32219],[91.00926,26.32156],[91.00944,26.32078],[91.00784,26.32037],[91.00741,26.32097],[91.00646,26.32096],[91.00592,26.32143],[91.00358,26.32123],[91.00248,26.32161],[91.00145,26.32167],[91.00123,26.32265],[91.00133,26.32329],[91.00313,26.32631],[91.00384,26.327],[91.00561,26.32694],[91.00575,26.32489],[91.006,26.32471]]]}},{"type":"Feature","bbox":[91.00145,26.31601,91.00841,26.32167],"properties":{"ward":10},"geometry":{"type":"Polygon","coordinates":[[[91.00841,26.31875],[91.00833,26.31673],[91.00595,26.31666],[91.00504,26.31649],[91.00481,26.31629],[91.00411,26.31638],[91.00219,26.31601],[91.00165,26.31771],[91.00171,26.32032],[91.00145,26.32167],[91.00248,26.32161],[91.00358,26.32123],[91.00592,26.32143],[91.00841,26.31875]]]}},{"type":"Feature","bbox":[91.0083,26.31462,91.01087,26.31874],"properties":{"ward":11},"geometry":{"type":"Polygon","coordinates":[[[91.00864,26.3149],[91.00833,26.31673],[91.0083,26.31822],[91.00843,26.31874],[91.00921,26.31797],[91.01045,26.31778],[91.01087,26.31602],[91.01069,26.31523],[91.01074,26.31462],[91.01066,26.31516],[91.01043,26.31523],[91.00864,26.3149]]]}},{"type":"Feature","bbox":[91.00219,26.31256,91.01154,26.31676],"properties":{"ward":12},"geometry":{"type":"Polygon","coordinates":[[[91.01066,26.31514],[91.01087,26.31368],[91.01154,26.31274],[91.00927,26.31256],[91.00702,26.31268],[91.00631,26.31295],[91.0035,26.31327],[91.00248,26.31369],[91.00254,26.31451],[91.00219,26.31601],[91.00411,26.31638],[91.00481,26.31629],[91.00504,26.31649],[91.00595,26.31666],[91.00829,26.31676],[91.0085,26.31621],[91.00864,26.3149],[91.01027,26.31523],[91.01066,26.31514]]]}},{"type":"Feature","bbox":[91.0078,26.32384,91.02633,26.33966],"properties":{"ward":13},"geometry":{"type":"Polygon","coordinates":[[[91.0225,26.3253],[91.02242,26.32384],[91.02135,26.32442],[91.01985,26.32466],[91.01921,26.32503],[91.01761,26.32552],[91.01625,26.32644],[91.01485,26.32675],[91.01262,26.32767],[91.0118,26.32843],[91.00948,26.32965],[91.00812,26.33073],[91.0078,26.3314],[91.00835,26.33185],[91.01008,26.3327],[91.01249,26.33317],[91.01394,26.33403],[91.01668,26.33508],[91.01782,26.33515],[91.01963,26.33615],[91.02054,26.33641],[91.02117,26.33696],[91.0228,26.33779],[91.02399,26.33862],[91.02534,26.33916],[91.02593,26.33903],[91.02633,26.33966],[91.02622,26.33818],[91.02535,26.33603],[91.02511,26.33381],[91.02416,26.33146],[91.02418,26.3304],[91.02454,26.32917],[91.02444,26.32749],[91.02377,26.32657],[91.02269,26.32566],[91.0225,26.3253]]]}},{"type":"Feature","bbox":[90.99686,26.33123,91.02612,26.34648],"properties":{"ward":14},"geometry":{"type":"Polygon","coordinates":[[[91.02612,26.34003],[91.02593,26.33903],[91.02534,26.33916],[91.02399,26.33862],[91.0228,26.33779],[91.02117,26.33696],[91.02054,26.33641],[91.01963,26.33615],[91.01782,26.33515],[91.01668,26.33508],[91.01574,26.33477],[91.01522,26.33442],[91.01394,26.33403],[91.01249,26.33317],[91.01008,26.3327],[91.00835,26.33185],[91.00761,26.33123],[91.00687,26.33221],[91.00548,26.33277],[91.00501,26.33277],[91.00402,26.33222],[91.00344,26.33228],[91.00288,26.33391],[91.0022,26.3347],[91.00126,26.33628],[91.00009,26.3389],[90.99896,26.34062],[90.99815,26.34267],[90.99762,26.34337],[90.99691,26.34512],[90.99686,26.34619],[90.99699,26.34642],[90.99853,26.34648],[90.99889,26.34647],[90.99951,26.34613],[91.00006,26.34388],[91.00161,26.33999],[91.00253,26.33671],[91.0028,26.33624],[91.00351,26.33579],[91.0042,26.33568],[91.00484,26.33589],[91.00562,26.33648],[91.00683,26.33669],[91.00769,26.33781],[91.00915,26.33849],[91.01034,26.33882],[91.01422,26.33888],[91.0157,26.33919],[91.01874,26.3392],[91.02111,26.33955],[91.02262,26.34025],[91.02482,26.34085],[91.02545,26.34069],[91.02612,26.34003]]]}},{"type":"Feature","bbox":[90.99013,26.32796,91.00434,26.3464],"properties":{"ward":15},"geometry":{"type":"Polygon","coordinates":[[[91.00434,26.33231],[91.00422,26.3322],[91.00325,26.33216],[91.00248,26.33241],[91.00198,26.33219],[91.00175,26.33181],[91.002,26.33051],[91.00192,26.32896],[90.99982,26.32952],[90.99873,26.33],[90.99317,26.32976],[90.99233,26.3299],[90.99192,26.32982],[90.99166,26.32954],[90.99149,26.32879],[90.99097,26.328],[90.99013,26.32796],[90.99065,26.32927],[90.99017,26.33342],[90.99053,26.33613],[90.99092,26.33736],[90.99277,26.34118],[90.99291,26.34237],[90.99316,26.3427],[90.99478,26.34259],[90.99528,26.34227],[90.99557,26.34226],[90.996,26.3427],[90.99612,26.34538],[90.9965,26.3464],[90.99682,26.34605],[90.99692,26.34504],[90.99762,26.34337],[90.99815,26.34267],[90.99896,26.34062],[91.00009,26.3389],[91.00138,26.33606],[91.0022,26.3347],[91.0028,26.33407],[91.00344,26.33228],[91.00434,26.33231]]]}},{"type":"Feature","bbox":[90.99067,26.32758,91.00015,26.33],"properties":{"ward":16},"geometry":{"type":"Polygon","coordinates":[[[91.00015,26.3278],[90.99609,26.32772],[90.99549,26.32758],[90.99505,26.32769],[90.99123,26.32766],[90.99067,26.32791],[90.99097,26.328],[90.99141,26.32861],[90.99161,26.32945],[90.99201,26.32984],[90.99255,26.32991],[90.99317,26.32976],[90.99873,26.33],[90.99995,26.32949],[91.00015,26.3278]]]}},{"type":"Feature","bbox":[90.98675,26.32466,91.00305,26.32796],"properties":{"ward":17},"geometry":{"type":"Polygon","coordinates":[[[90.99013,26.32796],[90.99123,26.32766],[90.99375,26.3276],[91.00012,26.32781],[91.00048,26.32708],[91.00183,26.32676],[91.00305,26.32618],[91.00203,26.32477],[90.99905,26.3252],[90.99649,26.32518],[90.99421,26.32493],[90.9929,26.32501],[90.9882,26.32466],[90.98764,26.3247],[90.98675,26.32539],[90.98805,26.3263],[90.98933,26.32694],[90.98987,26.3274],[90.99013,26.32796]]]}},{"type":"Feature","bbox":[90.98398,26.32172,91.00233,26.3252],"properties":{"ward":18},"geometry":{"type":"Polygon","coordinates":[[[91.00233,26.3251],[91.00129,26.32318],[91.00133,26.32218],[91.00023,26.32194],[90.99548,26.32216],[90.99215,26.32194],[90.99057,26.32212],[90.98757,26.32172],[90.98518,26.32176],[90.98422,26.32189],[90.98402,26.32289],[90.98398,26.32456],[90.9862,26.32518],[90.98764,26.3247],[90.9882,26.32466],[90.9929,26.32501],[90.99421,26.32493],[90.99649,26.32518],[90.99905,26.3252],[91.00203,26.32477],[91.00233,26.3251]]]}},{"type":"Feature","bbox":[90.98422,26.31401,91.00176,26.32219],"properties":{"ward":19},"geometry":{"type":"Polygon","coordinates":[[[90.98482,26.31827],[90.98422,26.32149],[90.98519,26.32166],[90.98757,26.32172],[90.99057,26.32212],[90.99215,26.32194],[90.99548,26.32216],[90.99818,26.32197],[90.99893,26.32208],[90.99937,26.32192],[91.00135,26.32219],[91.00171,26.32032],[91.00176,26.31911],[90.99905,26.31833],[90.99857,26.31832],[90.99656,26.31746],[90.99506,26.31708],[90.99405,26.3165],[90.99258,26.31599],[90.99178,26.31597],[90.99073,26.31533],[90.98678,26.31401],[90.98605,26.31592],[90.98482,26.31827]]]}},{"type":"Feature","bbox":[90.98674,26.30587,91.00254,26.31911],"properties":{"ward":20},"geometry":{"type":"Polygon","coordinates":[[[90.98803,26.3117],[90.98674,26.31393],[90.98731,26.31413],[90.98733,26.31426],[90.98778,26.31426],[90.98856,26.31466],[90.99073,26.31533],[90.99178,26.31597],[90.99258,26.31599],[90.99405,26.3165],[90.99506,26.31708],[90.99656,26.31746],[90.99857,26.31832],[90.99905,26.31833],[91.00176,26.31911],[91.00165,26.31771],[91.00254,26.31443],[91.00243,26.31219],[91.00187,26.30951],[91.00172,26.30669],[91.0015,26.30635],[91.00073,26.30587],[91.00071,26.30608],[91.00024,26.30622],[90.99691,26.30629],[90.99237,26.30728],[90.99036,26.30843],[90.98803,26.3117]]]}},{"type":"Feature","bbox":[90.99915,26.29856,91.01973,26.31369],"properties":{"ward":21},"geometry":{"type":"Polygon","coordinates":[[[91.00927,26.31256],[91.01141,26.31275],[91.01254,26.31114],[91.01395,26.30991],[91.01525,26.30756],[91.01599,26.30708],[91.01628,26.30557],[91.01642,26.30371],[91.01932,26.30252],[91.01973,26.30188],[91.01967,26.30171],[91.01498,26.2994],[91.01318,26.29893],[91.00915,26.29856],[91.00351,26.29873],[91.00223,26.29898],[91.00117,26.29952],[90.99973,26.30076],[90.99915,26.30146],[91.0001,26.30348],[91.0008,26.30587],[91.00158,26.30646],[91.0018,26.30699],[91.00187,26.30951],[91.0024,26.31198],[91.00248,26.31369],[91.0035,26.31327],[91.00631,26.31295],[91.00702,26.31268],[91.00927,26.31256]]]}},{"type":"Feature","bbox":[91.01139,26.30228,91.02305,26.31332],"properties":{"ward":22},"geometry":{"type":"Polygon","coordinates":[[[91.01139,26.31274],[91.01321,26.31281],[91.01473,26.31324],[91.01569,26.31311],[91.01792,26.31332],[91.01819,26.31317],[91.01863,26.3113],[91.01915,26.31018],[91.02244,26.30671],[91.02305,26.30581],[91.02299,26.30535],[91.02243,26.30442],[91.02037,26.30228],[91.01935,26.3025],[91.01647,26.30366],[91.01604,26.307],[91.01547,26.30733],[91.01505,26.30782],[91.01422,26.30954],[91.01352,26.31036],[91.01254,26.31114],[91.01139,26.31274]]]}}]}