{"type":"FeatureCollection","features":[{"type":"Feature","bbox":[92.46482,26.70327,92.47756,26.71203],"properties":{"ward":1},"geometry":{"type":"Polygon","coordinates":[[[92.47459,26.70327],[92.46757,26.70371],[92.46482,26.7097],[92.46534,26.71046],[92.47278,26.71081],[92.47496,26.71192],[92.47637,26.71203],[92.47688,26.70649],[92.47712,26.70481],[92.47756,26.70356],[92.47459,26.70327]]]}},{"type":"Feature","bbox":[92.47643,26.70355,92.47913,26.71215],"properties":{"ward":2},"geometry":{"type":"Polygon","coordinates":[[[92.47643,26.71215],[92.47676,26.71212],[92.47735,26.7104],[92.47896,26.70748],[92.47907,26.70648],[92.47893,26.70545],[92.47913,26.70359],[92.47761,26.70355],[92.47742,26.70389],[92.47694,26.7065],[92.47643,26.71215]]]}},{"type":"Feature","bbox":[92.4768,26.7036,92.48121,26.71222],"properties":{"ward":3},"geometry":{"type":"Polygon","coordinates":[[[92.48004,26.70361],[92.47915,26.7036],[92.47901,26.70751],[92.47738,26.71044],[92.4768,26.71216],[92.47991,26.71222],[92.48094,26.70939],[92.48121,26.70823],[92.48004,26.70361]]]}},{"type":"Feature","bbox":[92.48003,26.70395,92.4967,26.71239],"properties":{"ward":4},"geometry":{"type":"Polygon","coordinates":[[[92.48417,26.70848],[92.48126,26.70837],[92.48003,26.71211],[92.49477,26.71239],[92.49601,26.7091],[92.49628,26.70887],[92.49639,26.70608],[92.4967,26.70447],[92.48487,26.70395],[92.48417,26.70848]]]}},{"type":"Feature","bbox":[92.48003,26.70395,92.4967,26.71239],"properties":{"ward":5},"geometry":{"type":"Polygon","coordinates":[[[92.48417,26.70848],[92.48126,26.70837],[92.48003,26.71211],[92.49477,26.71239],[92.49601,26.7091],[92.49628,26.70887],[92.49639,26.70608],[92.4967,26.70447],[92.48487,26.70395],[92.48417,26.70848]]]}},{"type":"Feature","bbox":[92.48479,26.69483,92.49664,26.70435],"properties":{"ward":6},"geometry":{"type":"Polygon","coordinates":[[[92.48977,26.70375],[92.49664,26.70435],[92.49475,26.69949],[92.49298,26.69648],[92.4852,26.69483],[92.48479,26.69857],[92.4858,26.70031],[92.48922,26.70018],[92.48977,26.70375]]]}},{"type":"Feature","bbox":[92.47982,26.69829,92.48972,26.70404],"properties":{"ward":7},"geometry":{"type":"Polygon","coordinates":[[[92.47986,26.70351],[92.48972,26.70404],[92.48914,26.70025],[92.48579,26.70038],[92.48472,26.69856],[92.48044,26.69829],[92.47982,26.70213],[92.47998,26.70244],[92.47986,26.70351]]]}},{"type":"Feature","bbox":[92.4759,26.69442,92.48517,26.70211],"properties":{"ward":8},"geometry":{"type":"Polygon","coordinates":[[[92.4804,26.69824],[92.48474,26.6985],[92.48517,26.69481],[92.4759,26.69442],[92.47703,26.69727],[92.47728,26.69734],[92.47973,26.70211],[92.4804,26.69824]]]}},{"type":"Feature","bbox":[92.47642,26.69741,92.47988,26.70361],"properties":{"ward":9},"geometry":{"type":"Polygon","coordinates":[[[92.47642,26.70335],[92.47979,26.70361],[92.47988,26.70249],[92.47725,26.69741],[92.47695,26.69787],[92.47692,26.70048],[92.47655,26.70189],[92.47642,26.70335]]]}},{"type":"Feature","bbox":[92.46765,26.6944,92.47719,26.70365],"properties":{"ward":10},"geometry":{"type":"Polygon","coordinates":[[[92.47436,26.70321],[92.47637,26.70337],[92.47649,26.70188],[92.47688,26.70049],[92.47691,26.69793],[92.47719,26.69737],[92.47701,26.69733],[92.47588,26.69444],[92.47476,26.6944],[92.47274,26.69476],[92.4716,26.69652],[92.46765,26.70365],[92.47436,26.70321]]]}}]}