{"type":"FeatureCollection","features":[{"type":"Feature","bbox":[93.1368,25.29947,93.14295,25.30705],"properties":{"ward":1},"geometry":{"type":"Polygon","coordinates":[[[93.1368,25.30381],[93.13803,25.30455],[93.13912,25.30705],[93.13975,25.30683],[93.14047,25.3068],[93.14136,25.30646],[93.14185,25.30528],[93.14268,25.30391],[93.14295,25.30309],[93.14166,25.3032],[93.14149,25.3029],[93.14194,25.30078],[93.14046,25.29947],[93.13975,25.3001],[93.13885,25.30152],[93.1368,25.30381]]]}},{"type":"Feature","bbox":[93.13297,25.30195,93.13826,25.30809],"properties":{"ward":2},"geometry":{"type":"Polygon","coordinates":[[[93.13391,25.30748],[93.13487,25.30683],[93.13575,25.30581],[93.1364,25.30603],[93.13666,25.30573],[93.13734,25.30684],[93.13807,25.30585],[93.13826,25.30514],[93.13816,25.30488],[93.13769,25.30436],[93.13675,25.30385],[93.13756,25.30286],[93.13632,25.30195],[93.13433,25.3044],[93.13326,25.30547],[93.13362,25.30655],[93.1335,25.30701],[93.13297,25.30779],[93.13333,25.30809],[93.13391,25.30748]]]}},{"type":"Feature","bbox":[93.12582,25.29809,93.13837,25.30865],"properties":{"ward":3},"geometry":{"type":"Polygon","coordinates":[[[93.12749,25.30432],[93.13199,25.30865],[93.1322,25.3086],[93.1329,25.30794],[93.13283,25.30781],[93.13351,25.30684],[93.13359,25.30653],[93.13326,25.3059],[93.13324,25.30546],[93.13628,25.30189],[93.13751,25.30273],[93.13837,25.30186],[93.13822,25.30145],[93.13787,25.301],[93.13572,25.30055],[93.13534,25.30025],[93.13467,25.30041],[93.1341,25.30027],[93.13367,25.29978],[93.13268,25.29945],[93.13261,25.29905],[93.13002,25.29895],[93.12953,25.29883],[93.12919,25.29841],[93.12869,25.29836],[93.12848,25.29809],[93.12804,25.29916],[93.12764,25.29899],[93.12744,25.29929],[93.12741,25.30038],[93.12653,25.30105],[93.12609,25.3018],[93.12582,25.30321],[93.12749,25.30432]]]}},{"type":"Feature","bbox":[93.12579,25.30523,93.13915,25.32],"properties":{"ward":4},"geometry":{"type":"Polygon","coordinates":[[[93.13166,25.31831],[93.1324,25.31798],[93.13292,25.31672],[93.13328,25.31466],[93.13411,25.31341],[93.13525,25.31238],[93.13619,25.31113],[93.13798,25.30828],[93.13915,25.3072],[93.13885,25.30679],[93.13828,25.30523],[93.13805,25.30614],[93.13744,25.30694],[93.13721,25.3069],[93.1367,25.30592],[93.13647,25.30616],[93.1358,25.30595],[93.13494,25.30696],[93.13399,25.30754],[93.13373,25.30796],[93.13336,25.30818],[93.13299,25.30796],[93.13223,25.30872],[93.1318,25.30888],[93.12965,25.31239],[93.12879,25.31462],[93.12752,25.31631],[93.12697,25.31741],[93.12628,25.31757],[93.12579,25.32],[93.12654,25.31996],[93.12931,25.31915],[93.13035,25.31831],[93.13166,25.31831]]]}},{"type":"Feature","bbox":[93.12843,25.29486,93.13823,25.30101],"properties":{"ward":5},"geometry":{"type":"Polygon","coordinates":[[[93.13253,25.29899],[93.13272,25.29914],[93.13268,25.29939],[93.13366,25.29968],[93.13419,25.30023],[93.13472,25.30034],[93.13532,25.30018],[93.13572,25.30048],[93.13809,25.30101],[93.13823,25.29996],[93.13789,25.29928],[93.13778,25.29804],[93.13723,25.29603],[93.13661,25.29495],[93.13624,25.29486],[93.13437,25.29533],[93.13261,25.29629],[93.13171,25.2965],[93.13022,25.29652],[93.12976,25.29631],[93.12975,25.29609],[93.12866,25.29739],[93.12843,25.298],[93.12874,25.29831],[93.12922,25.2984],[93.12958,25.29879],[93.13044,25.29897],[93.13253,25.29899]]]}},{"type":"Feature","bbox":[93.12979,25.28615,93.13984,25.29649],"properties":{"ward":6},"geometry":{"type":"Polygon","coordinates":[[[93.13323,25.29151],[93.12988,25.2948],[93.12979,25.29631],[93.13019,25.29649],[93.13157,25.29648],[93.13259,25.29626],[93.13429,25.2953],[93.13621,25.29479],[93.13664,25.29487],[93.1372,25.29594],[93.13795,25.29596],[93.13834,25.29519],[93.13863,25.29276],[93.13931,25.29131],[93.13984,25.28919],[93.13982,25.28794],[93.13949,25.28673],[93.13895,25.28627],[93.13833,25.28628],[93.1382,25.28615],[93.13739,25.28709],[93.13438,25.28964],[93.13323,25.29151]]]}},{"type":"Feature","bbox":[93.13731,25.27934,93.15236,25.30165],"properties":{"ward":7},"geometry":{"type":"Polygon","coordinates":[[[93.14646,25.28219],[93.14582,25.28079],[93.14531,25.28037],[93.14488,25.28027],[93.14392,25.27945],[93.14334,25.27999],[93.14243,25.28161],[93.13835,25.28608],[93.1393,25.28625],[93.1399,25.28726],[93.14002,25.28897],[93.1394,25.29154],[93.13868,25.2929],[93.13843,25.29516],[93.13801,25.29609],[93.13731,25.29603],[93.13773,25.2973],[93.13794,25.29928],[93.13829,25.29996],[93.13812,25.30075],[93.13852,25.30165],[93.13965,25.29998],[93.14038,25.29937],[93.13946,25.29667],[93.13995,25.29407],[93.14126,25.29054],[93.1415,25.28859],[93.14237,25.28751],[93.14421,25.28692],[93.14676,25.28652],[93.14848,25.28542],[93.14949,25.28434],[93.15056,25.28221],[93.15158,25.28093],[93.15236,25.27934],[93.14937,25.28016],[93.14907,25.28044],[93.14848,25.28211],[93.14786,25.28262],[93.14715,25.28258],[93.14646,25.28219]],[[93.14644,25.28218],[93.14646,25.28219],[93.14646,25.28219],[93.14644,25.28218]]]}},{"type":"Feature","bbox":[93.13957,25.27614,93.16312,25.30295],"properties":{"ward":8},"geometry":{"type":"Polygon","coordinates":[[[93.15261,25.27935],[93.15228,25.27979],[93.15182,25.28098],[93.14965,25.2843],[93.14854,25.2855],[93.14679,25.28666],[93.14371,25.28717],[93.14241,25.28768],[93.14161,25.28871],[93.14138,25.29044],[93.14006,25.29413],[93.13957,25.2967],[93.14049,25.29929],[93.14217,25.30083],[93.14176,25.30295],[93.14291,25.30293],[93.14339,25.30179],[93.14735,25.2976],[93.14825,25.2975],[93.15137,25.29266],[93.15287,25.29113],[93.1543,25.28832],[93.15745,25.28361],[93.15938,25.28274],[93.16244,25.28052],[93.16312,25.27941],[93.16307,25.2775],[93.1619,25.27641],[93.16014,25.27614],[93.15578,25.27774],[93.15261,25.27935]]]}},{"type":"Feature","bbox":[93.11865,25.30339,93.13184,25.3237],"properties":{"ward":9},"geometry":{"type":"Polygon","coordinates":[[[93.11997,25.3225],[93.12033,25.32328],[93.12093,25.3237],[93.12261,25.32255],[93.12308,25.32175],[93.12426,25.32077],[93.12568,25.31997],[93.12615,25.31743],[93.12684,25.31734],[93.12741,25.31629],[93.12867,25.31456],[93.13004,25.31145],[93.13184,25.30862],[93.12714,25.30418],[93.12593,25.30339],[93.1248,25.30433],[93.12251,25.30673],[93.12142,25.30853],[93.12,25.31138],[93.11878,25.31467],[93.11865,25.31605],[93.11907,25.31795],[93.11994,25.32021],[93.11997,25.3225]]]}},{"type":"Feature","bbox":[93.12058,25.3193,93.13743,25.33481],"properties":{"ward":10},"geometry":{"type":"Polygon","coordinates":[[[93.12185,25.32547],[93.12323,25.32679],[93.12426,25.32722],[93.12445,25.32763],[93.12483,25.32794],[93.12548,25.3284],[93.12635,25.32866],[93.12673,25.32921],[93.12751,25.3297],[93.12897,25.33229],[93.12993,25.33311],[93.13068,25.33357],[93.13324,25.33433],[93.13539,25.33481],[93.13605,25.33456],[93.13649,25.33358],[93.13717,25.33066],[93.13743,25.32861],[93.1374,25.32748],[93.13721,25.32694],[93.13632,25.32596],[93.13518,25.32554],[93.1332,25.32537],[93.13254,25.32507],[93.13198,25.3239],[93.13164,25.32241],[93.13048,25.32067],[93.12924,25.3193],[93.12651,25.32005],[93.12598,25.32001],[93.12343,25.32169],[93.12283,25.3226],[93.12058,25.32398],[93.12185,25.32547]]]}}]}