{"type":"FeatureCollection","features":[{"type":"Feature","bbox":[86.70148,22.47981,86.71262,22.49077],"properties":{"ward":1},"geometry":{"type":"Polygon","coordinates":[[[86.71232,22.48611],[86.7116,22.48631],[86.7113,22.4866],[86.71026,22.48688],[86.70844,22.48682],[86.70837,22.48624],[86.7094,22.48585],[86.70924,22.48516],[86.71011,22.48525],[86.70986,22.48428],[86.70891,22.48291],[86.70878,22.48225],[86.70915,22.48192],[86.70913,22.48142],[86.70966,22.48095],[86.70968,22.48055],[86.70851,22.48008],[86.70821,22.47981],[86.70775,22.48042],[86.70636,22.48128],[86.70576,22.48248],[86.70535,22.48278],[86.70475,22.4828],[86.70426,22.48207],[86.70182,22.48258],[86.70171,22.48407],[86.70191,22.48622],[86.70148,22.48697],[86.70151,22.48728],[86.70304,22.489],[86.70405,22.48939],[86.70452,22.48938],[86.70543,22.49003],[86.70637,22.49046],[86.70727,22.4907],[86.70868,22.49077],[86.71022,22.4901],[86.71117,22.48946],[86.71207,22.4883],[86.71244,22.48808],[86.71262,22.48764],[86.71232,22.48611]]]}},{"type":"Feature","bbox":[86.71401,22.48437,86.72592,22.49769],"properties":{"ward":2},"geometry":{"type":"MultiPolygon","coordinates":[[[[86.71852,22.48465],[86.71853,22.48464],[86.71865,22.48462],[86.7187,22.48474],[86.71883,22.48473],[86.71851,22.48452],[86.71882,22.4845],[86.71757,22.48437],[86.71401,22.48577],[86.7143,22.48577],[86.71594,22.48682],[86.71811,22.492],[86.71951,22.49274],[86.72156,22.49431],[86.72357,22.49708],[86.72424,22.49757],[86.72485,22.49769],[86.72545,22.49758],[86.72583,22.49724],[86.72592,22.49676],[86.72422,22.49267],[86.72404,22.49175],[86.72288,22.49086],[86.72197,22.49077],[86.72114,22.48898],[86.72008,22.48728],[86.71937,22.48658],[86.71925,22.48627],[86.71857,22.48573],[86.71865,22.48532],[86.71847,22.48487],[86.71908,22.48499],[86.71852,22.48465]],[[86.71874,22.4847],[86.71877,22.48471],[86.71878,22.48471],[86.71874,22.4847]],[[86.71878,22.48471],[86.71882,22.48472],[86.7188,22.48472],[86.71878,22.48471]]],[[[86.71868,22.48468],[86.71855,22.48466],[86.71868,22.48469],[86.71868,22.48468]]]]}},{"type":"Feature","bbox":[86.71764,22.4826,86.72112,22.48687],"properties":{"ward":3},"geometry":{"type":"Polygon","coordinates":[[[86.71976,22.48315],[86.71954,22.4826],[86.71884,22.48286],[86.71845,22.48312],[86.7185,22.48341],[86.71764,22.48421],[86.71814,22.48555],[86.71928,22.48687],[86.72016,22.48645],[86.72044,22.48605],[86.72083,22.48609],[86.72112,22.48571],[86.72068,22.48436],[86.71976,22.48315]]]}},{"type":"Feature","bbox":[86.73218,22.4908,86.7415,22.49526],"properties":{"ward":4},"geometry":{"type":"MultiPolygon","coordinates":[[[[86.73407,22.49404],[86.73347,22.49409],[86.73399,22.49428],[86.73407,22.49404]]],[[[86.73407,22.49404],[86.73415,22.49383],[86.73433,22.49402],[86.7342,22.49451],[86.73431,22.49443],[86.73441,22.49441],[86.73461,22.49513],[86.73479,22.4952],[86.73564,22.49505],[86.73558,22.49526],[86.73731,22.49489],[86.7375,22.49471],[86.73799,22.49471],[86.7415,22.49333],[86.74115,22.49158],[86.74009,22.49193],[86.73914,22.49102],[86.73881,22.4912],[86.73698,22.4913],[86.73711,22.4911],[86.73661,22.49121],[86.73632,22.4908],[86.73283,22.4913],[86.7329,22.49186],[86.73218,22.49219],[86.73346,22.49263],[86.73384,22.49323],[86.73407,22.49404]]],[[[86.73423,22.49403],[86.73408,22.49408],[86.73424,22.49404],[86.73423,22.49403]]],[[[86.73431,22.49445],[86.73431,22.49461],[86.73437,22.49448],[86.73431,22.49445]]],[[[86.73431,22.49461],[86.73428,22.49465],[86.7343,22.49467],[86.73431,22.49461]]]]}},{"type":"Feature","bbox":[86.72052,22.47909,86.72905,22.485],"properties":{"ward":5},"geometry":{"type":"Polygon","coordinates":[[[86.72877,22.48462],[86.72813,22.4827],[86.72781,22.48226],[86.72793,22.48066],[86.72682,22.48063],[86.72645,22.47975],[86.72564,22.47932],[86.72262,22.47909],[86.72199,22.47922],[86.72196,22.47941],[86.72244,22.48004],[86.72082,22.48065],[86.72052,22.48249],[86.72122,22.48394],[86.72221,22.48379],[86.72244,22.48385],[86.72283,22.48433],[86.72619,22.48421],[86.72671,22.48402],[86.72823,22.485],[86.72905,22.48478],[86.72877,22.48462]]]}},{"type":"Feature","bbox":[86.71797,22.48108,86.72136,22.48372],"properties":{"ward":6},"geometry":{"type":"MultiPolygon","coordinates":[[[[86.7186,22.4815],[86.7187,22.48145],[86.71834,22.48158],[86.71846,22.48206],[86.71797,22.48228],[86.71823,22.4833],[86.71856,22.48359],[86.71907,22.48329],[86.71955,22.48266],[86.71955,22.48233],[86.72041,22.48208],[86.72039,22.48252],[86.72069,22.48321],[86.7209,22.48355],[86.72136,22.48372],[86.72129,22.48341],[86.72101,22.48336],[86.72069,22.48299],[86.72045,22.48238],[86.72048,22.48108],[86.7186,22.4815]],[[86.71852,22.48185],[86.71853,22.48188],[86.71852,22.48188],[86.71852,22.48185]],[[86.71853,22.48188],[86.71866,22.48194],[86.71871,22.48201],[86.71864,22.48203],[86.71861,22.48199],[86.7186,22.48203],[86.71853,22.48188]],[[86.7186,22.48203],[86.7186,22.48204],[86.71859,22.48203],[86.7186,22.48203]],[[86.71852,22.48185],[86.71838,22.48158],[86.7186,22.4815],[86.7184,22.48158],[86.71852,22.48185]]],[[[86.7187,22.48145],[86.71913,22.4813],[86.71952,22.48123],[86.7187,22.48145]]],[[[86.71959,22.48123],[86.71962,22.48121],[86.71952,22.48123],[86.71959,22.48123]]],[[[86.71963,22.48123],[86.71963,22.48123],[86.71963,22.48123],[86.71963,22.48123]]],[[[86.71962,22.48121],[86.71964,22.4812],[86.71962,22.4812],[86.71962,22.48121]]],[[[86.71861,22.48199],[86.71861,22.48199],[86.71861,22.48199],[86.71861,22.48199]]],[[[86.71855,22.48193],[86.71865,22.482],[86.71858,22.48193],[86.71855,22.48193]]],[[[86.71865,22.482],[86.71865,22.48201],[86.71867,22.48202],[86.71865,22.482]]]]}},{"type":"Feature","bbox":[86.71363,22.47796,86.71748,22.485],"properties":{"ward":8},"geometry":{"type":"MultiPolygon","coordinates":[[[[86.71402,22.47983],[86.71393,22.47983],[86.71401,22.47986],[86.71402,22.47983]]],[[[86.71396,22.4798],[86.71396,22.4798],[86.71395,22.4798],[86.71396,22.4798]]],[[[86.714,22.47977],[86.71402,22.47981],[86.71402,22.47978],[86.714,22.47977]]],[[[86.71402,22.47978],[86.71419,22.47983],[86.71402,22.47981],[86.71402,22.47983],[86.71416,22.47991],[86.71376,22.47979],[86.71412,22.48],[86.71363,22.48013],[86.71402,22.48021],[86.714,22.48214],[86.71417,22.48305],[86.71439,22.48359],[86.71458,22.48367],[86.71463,22.48413],[86.71511,22.4845],[86.71532,22.485],[86.71558,22.48459],[86.71555,22.4848],[86.71578,22.48486],[86.71639,22.48438],[86.71661,22.48476],[86.71676,22.48453],[86.71691,22.48466],[86.71688,22.48443],[86.71689,22.48437],[86.71748,22.4845],[86.71676,22.48039],[86.71559,22.48003],[86.71557,22.47818],[86.7146,22.47806],[86.7146,22.4782],[86.71414,22.47796],[86.71402,22.47978]]],[[[86.7169,22.48448],[86.7169,22.48448],[86.71691,22.48452],[86.7169,22.48448]]],[[[86.71602,22.48468],[86.71601,22.48469],[86.71604,22.48477],[86.71602,22.48468]]],[[[86.71555,22.4848],[86.71554,22.4848],[86.71554,22.48483],[86.71555,22.4848]]],[[[86.71691,22.48452],[86.71693,22.48458],[86.71691,22.48454],[86.71691,22.48452]]]]}},{"type":"Feature","bbox":[86.70871,22.47805,86.71649,22.48508],"properties":{"ward":9},"geometry":{"type":"MultiPolygon","coordinates":[[[[86.70966,22.48167],[86.70969,22.4824],[86.70938,22.483],[86.70959,22.48307],[86.70929,22.48354],[86.71,22.48359],[86.70944,22.48475],[86.71006,22.4845],[86.71037,22.48508],[86.71025,22.48449],[86.7122,22.4845],[86.71465,22.48393],[86.71621,22.48304],[86.71649,22.48257],[86.71618,22.48185],[86.71565,22.48156],[86.71547,22.4817],[86.71534,22.4815],[86.71521,22.48176],[86.71513,22.47979],[86.71255,22.48026],[86.71309,22.47956],[86.71216,22.48021],[86.71209,22.4795],[86.71135,22.48016],[86.71158,22.47862],[86.7105,22.47818],[86.71056,22.47842],[86.71009,22.47897],[86.70936,22.47805],[86.70893,22.47819],[86.70871,22.47876],[86.70914,22.48228],[86.70951,22.48203],[86.70966,22.48167]],[[86.71108,22.47862],[86.71124,22.47857],[86.71084,22.47928],[86.71108,22.47862]],[[86.70966,22.48167],[86.70966,22.48166],[86.70994,22.48098],[86.70966,22.48167]]],[[[86.71209,22.4795],[86.7124,22.47922],[86.71227,22.47888],[86.71204,22.47907],[86.71209,22.4795]]],[[[86.71539,22.48141],[86.71523,22.48134],[86.71534,22.4815],[86.71539,22.48141]]],[[[86.71539,22.48141],[86.71565,22.48156],[86.71576,22.48147],[86.71548,22.48122],[86.71539,22.48141]]],[[[86.71548,22.48122],[86.71568,22.48082],[86.71542,22.481],[86.71548,22.48122]]],[[[86.71576,22.48147],[86.71577,22.48148],[86.71577,22.48146],[86.71576,22.48147]]],[[[86.71577,22.48146],[86.71648,22.4809],[86.71577,22.48107],[86.71577,22.48146]]],[[[86.71577,22.48107],[86.71578,22.48082],[86.71557,22.48112],[86.71577,22.48107]]]]}}]}