{"type":"FeatureCollection","features":[{"type":"Feature","bbox":[84.66676,23.44283,84.68372,23.45069],"properties":{"ward":1},"geometry":{"type":"Polygon","coordinates":[[[84.68137,23.44302],[84.68111,23.4431],[84.68081,23.44283],[84.67432,23.44433],[84.67067,23.44486],[84.66795,23.44403],[84.66798,23.44444],[84.6677,23.44512],[84.66698,23.44604],[84.66677,23.44668],[84.66676,23.44743],[84.66706,23.44826],[84.66759,23.44899],[84.66863,23.44954],[84.66952,23.4497],[84.67057,23.44953],[84.67309,23.44957],[84.67371,23.44976],[84.67519,23.44978],[84.67839,23.45069],[84.68165,23.44942],[84.68372,23.44828],[84.68181,23.44433],[84.68137,23.44302]]]}},{"type":"Feature","bbox":[84.68081,23.44206,84.68558,23.44828],"properties":{"ward":2},"geometry":{"type":"Polygon","coordinates":[[[84.68558,23.44744],[84.68432,23.44498],[84.68365,23.4451],[84.68336,23.44436],[84.68296,23.44438],[84.68277,23.44375],[84.68216,23.44386],[84.68143,23.44214],[84.68118,23.44206],[84.68081,23.44283],[84.68111,23.4431],[84.68137,23.44302],[84.68181,23.44433],[84.68372,23.44828],[84.68558,23.44744]]]}},{"type":"Feature","bbox":[84.68432,23.44211,84.68992,23.44744],"properties":{"ward":3},"geometry":{"type":"Polygon","coordinates":[[[84.6874,23.44211],[84.68627,23.44287],[84.68633,23.44338],[84.68592,23.44442],[84.68432,23.44498],[84.68558,23.44744],[84.68853,23.44545],[84.68992,23.44557],[84.6874,23.44211]]]}},{"type":"Feature","bbox":[84.67836,23.44387,84.69965,23.45613],"properties":{"ward":4},"geometry":{"type":"Polygon","coordinates":[[[84.69665,23.44521],[84.69156,23.44425],[84.69087,23.44387],[84.69056,23.445],[84.68965,23.4452],[84.68992,23.44557],[84.68853,23.44545],[84.68779,23.44602],[84.68744,23.44608],[84.68603,23.44725],[84.68252,23.44884],[84.68165,23.44942],[84.67839,23.45069],[84.67836,23.4513],[84.67852,23.45158],[84.6793,23.45168],[84.67952,23.45195],[84.67944,23.45251],[84.68058,23.4522],[84.68181,23.45231],[84.68237,23.4536],[84.6842,23.45429],[84.68507,23.45484],[84.68525,23.45514],[84.68494,23.45613],[84.68595,23.45596],[84.68842,23.45503],[84.68984,23.45568],[84.69029,23.45533],[84.69152,23.45522],[84.6947,23.45438],[84.6943,23.45327],[84.69965,23.45106],[84.69791,23.44856],[84.69706,23.44666],[84.69684,23.44537],[84.69665,23.44521]]]}},{"type":"Feature","bbox":[84.68384,23.45405,84.70931,23.47635],"properties":{"ward":5},"geometry":{"type":"Polygon","coordinates":[[[84.70931,23.45796],[84.70857,23.45831],[84.70838,23.45876],[84.70691,23.45915],[84.70666,23.45937],[84.7064,23.45919],[84.70631,23.45871],[84.706,23.4585],[84.70493,23.45869],[84.70454,23.45858],[84.70425,23.4588],[84.7039,23.45867],[84.70346,23.45917],[84.70265,23.45927],[84.70224,23.45955],[84.70188,23.45913],[84.70152,23.45936],[84.70119,23.45926],[84.7005,23.45798],[84.70067,23.45778],[84.69965,23.45711],[84.69933,23.45644],[84.69671,23.45507],[84.69604,23.45405],[84.69399,23.45447],[84.69265,23.45497],[84.69029,23.45533],[84.68984,23.45568],[84.68842,23.45503],[84.68595,23.45596],[84.68494,23.45613],[84.68478,23.45645],[84.68422,23.45686],[84.68384,23.4599],[84.68423,23.46372],[84.68588,23.4659],[84.68586,23.46661],[84.68623,23.46769],[84.68708,23.46908],[84.68975,23.47196],[84.69058,23.47245],[84.6948,23.47397],[84.69619,23.47497],[84.69686,23.47508],[84.69708,23.47482],[84.69761,23.47478],[84.69912,23.47537],[84.69969,23.47512],[84.70093,23.47544],[84.70252,23.47526],[84.70512,23.47635],[84.70693,23.47579],[84.70662,23.47513],[84.70664,23.47445],[84.70568,23.47245],[84.70551,23.47156],[84.7056,23.47058],[84.70665,23.46806],[84.70785,23.46756],[84.70781,23.46681],[84.70756,23.46626],[84.7084,23.46549],[84.70841,23.46523],[84.70772,23.46171],[84.70809,23.46089],[84.70874,23.46034],[84.70877,23.45944],[84.70931,23.45796]]]}},{"type":"Feature","bbox":[84.6943,23.43966,84.71362,23.45955],"properties":{"ward":6},"geometry":{"type":"Polygon","coordinates":[[[84.70265,23.45927],[84.70346,23.45917],[84.7039,23.45867],[84.70425,23.4588],[84.70454,23.45858],[84.70493,23.45869],[84.706,23.4585],[84.70631,23.45871],[84.7064,23.45919],[84.70666,23.45937],[84.70691,23.45915],[84.70838,23.45876],[84.70857,23.45831],[84.70953,23.45782],[84.70993,23.45741],[84.71046,23.45748],[84.71285,23.4567],[84.71362,23.45564],[84.71358,23.45526],[84.71313,23.45493],[84.70958,23.4531],[84.70878,23.45215],[84.70749,23.45128],[84.70885,23.45044],[84.70907,23.45002],[84.70899,23.44965],[84.70763,23.4496],[84.70683,23.44989],[84.70551,23.44976],[84.70557,23.44871],[84.70543,23.44846],[84.70404,23.44806],[84.70249,23.44579],[84.70217,23.445],[84.70255,23.44494],[84.70367,23.44428],[84.70616,23.44368],[84.7069,23.44363],[84.70637,23.44097],[84.70685,23.44084],[84.70679,23.44048],[84.70732,23.43966],[84.70021,23.44128],[84.69705,23.44228],[84.69651,23.44302],[84.69665,23.44521],[84.69684,23.44537],[84.69706,23.44666],[84.69791,23.44856],[84.69965,23.45106],[84.6943,23.45327],[84.6947,23.45438],[84.69604,23.45405],[84.69671,23.45507],[84.69933,23.45644],[84.69965,23.45711],[84.70067,23.45778],[84.7005,23.45798],[84.70119,23.45926],[84.70152,23.45936],[84.70188,23.45913],[84.70224,23.45955],[84.70265,23.45927]]]}},{"type":"Feature","bbox":[84.68813,23.43758,84.70732,23.44521],"properties":{"ward":7},"geometry":{"type":"Polygon","coordinates":[[[84.70021,23.44128],[84.70732,23.43966],[84.70695,23.43758],[84.69662,23.43927],[84.69564,23.43977],[84.69271,23.44002],[84.68996,23.44092],[84.69007,23.44126],[84.68911,23.44159],[84.6883,23.44166],[84.68813,23.442],[84.68959,23.44253],[84.69087,23.44387],[84.69156,23.44425],[84.69665,23.44521],[84.69651,23.44302],[84.69705,23.44228],[84.70021,23.44128]]]}},{"type":"Feature","bbox":[84.68617,23.43573,84.70695,23.4452],"properties":{"ward":8},"geometry":{"type":"Polygon","coordinates":[[[84.69271,23.44002],[84.69564,23.43977],[84.69662,23.43927],[84.70695,23.43758],[84.7067,23.43573],[84.69664,23.43793],[84.69665,23.43809],[84.69264,23.43844],[84.68896,23.43909],[84.68617,23.4393],[84.68688,23.44164],[84.68805,23.44289],[84.68965,23.4452],[84.69056,23.445],[84.69087,23.44387],[84.68959,23.44253],[84.68813,23.442],[84.68824,23.44173],[84.69007,23.44126],[84.68996,23.44092],[84.69271,23.44002]]]}},{"type":"Feature","bbox":[84.68177,23.43803,84.6874,23.4451],"properties":{"ward":9},"geometry":{"type":"Polygon","coordinates":[[[84.68592,23.44442],[84.68633,23.44338],[84.68627,23.44287],[84.6874,23.44211],[84.68688,23.44164],[84.68572,23.43803],[84.68457,23.43843],[84.68363,23.4385],[84.68324,23.43873],[84.68465,23.44012],[84.68654,23.44139],[84.68462,23.44219],[84.68302,23.44257],[84.68235,23.44289],[84.68177,23.44289],[84.68216,23.44386],[84.68277,23.44375],[84.68296,23.44438],[84.68336,23.44436],[84.68365,23.4451],[84.68592,23.44442]]]}},{"type":"Feature","bbox":[84.67923,23.43873,84.68654,23.44289],"properties":{"ward":10},"geometry":{"type":"Polygon","coordinates":[[[84.68324,23.43873],[84.68178,23.43951],[84.68039,23.43994],[84.67992,23.44051],[84.67923,23.44084],[84.68004,23.44131],[84.68048,23.44198],[84.68143,23.44214],[84.68177,23.44289],[84.68235,23.44289],[84.68302,23.44257],[84.68462,23.44219],[84.68654,23.44139],[84.68465,23.44012],[84.68324,23.43873]]]}},{"type":"Feature","bbox":[84.66788,23.44023,84.68118,23.44486],"properties":{"ward":11},"geometry":{"type":"Polygon","coordinates":[[[84.67049,23.44023],[84.66829,23.44197],[84.66788,23.44315],[84.66795,23.44403],[84.67067,23.44486],[84.67432,23.44433],[84.68081,23.44283],[84.68118,23.44206],[84.68048,23.44198],[84.68004,23.44131],[84.67893,23.44066],[84.67676,23.44028],[84.67538,23.4404],[84.67049,23.44023]]]}},{"type":"Feature","bbox":[84.66912,23.43457,84.68324,23.44084],"properties":{"ward":12},"geometry":{"type":"Polygon","coordinates":[[[84.67992,23.44051],[84.68039,23.43994],[84.68178,23.43951],[84.68324,23.43873],[84.68118,23.43682],[84.68058,23.43663],[84.67962,23.43594],[84.67874,23.43457],[84.67849,23.4349],[84.67815,23.43505],[84.67676,23.43525],[84.67627,23.43498],[84.67599,23.43502],[84.66912,23.43746],[84.66943,23.43786],[84.67143,23.43866],[84.67049,23.44023],[84.67538,23.4404],[84.67676,23.44028],[84.67893,23.44066],[84.67923,23.44084],[84.67992,23.44051]]]}},{"type":"Feature","bbox":[84.67962,23.4343,84.68572,23.43873],"properties":{"ward":13},"geometry":{"type":"Polygon","coordinates":[[[84.68572,23.43803],[84.68449,23.4343],[84.67962,23.43594],[84.68058,23.43663],[84.68118,23.43682],[84.68324,23.43873],[84.68363,23.4385],[84.68457,23.43843],[84.68572,23.43803]]]}},{"type":"Feature","bbox":[84.68502,23.43217,84.7067,23.4393],"properties":{"ward":14},"geometry":{"type":"Polygon","coordinates":[[[84.68617,23.4393],[84.68896,23.43909],[84.69264,23.43844],[84.69665,23.43809],[84.69664,23.43793],[84.7067,23.43573],[84.70573,23.43299],[84.70493,23.43338],[84.7038,23.43272],[84.70334,23.43217],[84.70286,23.43223],[84.70276,23.43264],[84.70106,23.43333],[84.70085,23.43367],[84.70032,23.43341],[84.7,23.43395],[84.69951,23.43417],[84.69885,23.43407],[84.69865,23.43368],[84.69679,23.43375],[84.69661,23.43419],[84.69598,23.43467],[84.69595,23.43522],[84.695,23.43513],[84.69476,23.43533],[84.69472,23.43565],[84.69395,23.43595],[84.69359,23.43588],[84.69274,23.43639],[84.69217,23.43622],[84.69045,23.4362],[84.68981,23.43549],[84.68844,23.43515],[84.6866,23.43545],[84.68637,23.43564],[84.68535,23.4357],[84.68502,23.43592],[84.68617,23.4393]]]}},{"type":"Feature","bbox":[84.68195,23.41167,84.69762,23.43639],"properties":{"ward":15},"geometry":{"type":"Polygon","coordinates":[[[84.69639,23.41167],[84.68746,23.42427],[84.68457,23.42712],[84.68195,23.42914],[84.68295,23.42977],[84.68502,23.43592],[84.68589,23.43557],[84.68637,23.43564],[84.6866,23.43545],[84.68844,23.43515],[84.68981,23.43549],[84.69045,23.4362],[84.69217,23.43622],[84.69274,23.43639],[84.69359,23.43588],[84.69395,23.43595],[84.69472,23.43565],[84.69476,23.43533],[84.695,23.43513],[84.69595,23.43522],[84.69598,23.43467],[84.6967,23.43404],[84.69681,23.43346],[84.69637,23.431],[84.69637,23.43006],[84.69674,23.42897],[84.69735,23.42822],[84.6972,23.42729],[84.69697,23.427],[84.69608,23.42684],[84.69371,23.42492],[84.69195,23.42305],[84.69119,23.42151],[84.69258,23.42083],[84.69247,23.42016],[84.69262,23.41969],[84.69316,23.41907],[84.69521,23.41796],[84.69581,23.41753],[84.69616,23.41703],[84.69644,23.41526],[84.69762,23.41347],[84.69731,23.41205],[84.69639,23.41167]]]}},{"type":"Feature","bbox":[84.67915,23.42914,84.68449,23.43489],"properties":{"ward":16},"geometry":{"type":"Polygon","coordinates":[[[84.68449,23.4343],[84.68287,23.42962],[84.68195,23.42914],[84.68111,23.42954],[84.67931,23.42991],[84.67915,23.43045],[84.6793,23.43133],[84.68054,23.43432],[84.6809,23.43416],[84.68138,23.43439],[84.68214,23.43444],[84.68245,23.43489],[84.68449,23.4343]]]}},{"type":"Feature","bbox":[84.6784,23.43236,84.68245,23.43594],"properties":{"ward":17},"geometry":{"type":"Polygon","coordinates":[[[84.68245,23.43506],[84.68214,23.43444],[84.68138,23.43439],[84.6809,23.43416],[84.68054,23.43432],[84.67976,23.43236],[84.6784,23.43375],[84.67874,23.43457],[84.67962,23.43594],[84.68173,23.43514],[84.68245,23.43506]]]}},{"type":"Feature","bbox":[84.67778,23.42657,84.68195,23.43346],"properties":{"ward":18},"geometry":{"type":"Polygon","coordinates":[[[84.67779,23.43099],[84.67793,23.43157],[84.67778,23.43234],[84.67843,23.43216],[84.67875,23.43346],[84.67976,23.43236],[84.6793,23.43133],[84.67915,23.43045],[84.67931,23.42991],[84.68111,23.42954],[84.68195,23.42914],[84.68063,23.42838],[84.68008,23.42731],[84.67858,23.42657],[84.67873,23.42767],[84.67819,23.42851],[84.67877,23.43011],[84.67779,23.43099]]]}},{"type":"Feature","bbox":[84.66618,23.42921,84.67877,23.43746],"properties":{"ward":19},"geometry":{"type":"Polygon","coordinates":[[[84.66912,23.43746],[84.67627,23.43498],[84.67676,23.43525],[84.67815,23.43505],[84.67849,23.4349],[84.67874,23.43457],[84.6784,23.43375],[84.67875,23.43346],[84.67843,23.43216],[84.67778,23.43234],[84.67775,23.43216],[84.67792,23.43183],[84.67779,23.43099],[84.67877,23.43011],[84.67844,23.42921],[84.67675,23.43089],[84.6735,23.4315],[84.669,23.4327],[84.66618,23.43282],[84.66632,23.4337],[84.66697,23.43512],[84.66811,23.43642],[84.66842,23.43645],[84.66912,23.43746]]]}},{"type":"Feature","bbox":[84.66373,23.42776,84.67691,23.43282],"properties":{"ward":20},"geometry":{"type":"Polygon","coordinates":[[[84.67675,23.43089],[84.67691,23.43064],[84.67619,23.42905],[84.67517,23.42929],[84.67428,23.4291],[84.6731,23.4284],[84.66774,23.42813],[84.66638,23.428],[84.66583,23.42776],[84.66462,23.42792],[84.66398,23.42778],[84.66373,23.43043],[84.66438,23.43107],[84.66563,23.43183],[84.66616,23.43257],[84.66618,23.43282],[84.669,23.4327],[84.6735,23.4315],[84.67675,23.43089]]]}},{"type":"Feature","bbox":[84.65802,23.40599,84.67873,23.43064],"properties":{"ward":21},"geometry":{"type":"Polygon","coordinates":[[[84.67873,23.42767],[84.67792,23.42399],[84.67692,23.42124],[84.66993,23.40872],[84.66796,23.40599],[84.66756,23.40622],[84.66723,23.40688],[84.66665,23.40732],[84.66349,23.40822],[84.66346,23.40875],[84.6603,23.40926],[84.66028,23.4096],[84.66113,23.41089],[84.66136,23.41191],[84.66136,23.41287],[84.65897,23.41388],[84.65874,23.41436],[84.65962,23.41541],[84.66052,23.41901],[84.65964,23.42038],[84.6582,23.42111],[84.65802,23.42199],[84.65812,23.42296],[84.65987,23.42379],[84.66071,23.42383],[84.66111,23.42455],[84.66188,23.42468],[84.66203,23.42521],[84.66258,23.42531],[84.66398,23.42778],[84.66462,23.42792],[84.66583,23.42776],[84.66638,23.428],[84.66774,23.42813],[84.6731,23.4284],[84.67428,23.4291],[84.67517,23.42929],[84.67619,23.42905],[84.67691,23.43064],[84.67844,23.42921],[84.67819,23.42851],[84.67873,23.42767]]]}},{"type":"Feature","bbox":[84.66796,23.40194,84.69639,23.42914],"properties":{"ward":22},"geometry":{"type":"Polygon","coordinates":[[[84.68746,23.42427],[84.69639,23.41167],[84.69567,23.41172],[84.69484,23.41208],[84.69459,23.41315],[84.69425,23.41333],[84.69378,23.41283],[84.69331,23.41279],[84.69273,23.41305],[84.69199,23.4127],[84.69131,23.41278],[84.69079,23.41323],[84.68989,23.41308],[84.68777,23.41363],[84.68757,23.41359],[84.68757,23.41327],[84.68649,23.41326],[84.68568,23.41306],[84.68489,23.41324],[84.68462,23.41309],[84.68392,23.41334],[84.68199,23.41263],[84.68185,23.41231],[84.68122,23.41249],[84.68023,23.41226],[84.67901,23.41151],[84.67852,23.41046],[84.67802,23.40788],[84.67818,23.40693],[84.67882,23.40505],[84.67894,23.40388],[84.67766,23.40194],[84.67745,23.40196],[84.67645,23.40294],[84.67582,23.40333],[84.67341,23.40425],[84.66868,23.40522],[84.66796,23.40599],[84.66993,23.40872],[84.67692,23.42124],[84.67792,23.42399],[84.67858,23.42657],[84.68008,23.42731],[84.68063,23.42838],[84.68195,23.42914],[84.68457,23.42712],[84.68746,23.42427]]]}}]}