{"type":"FeatureCollection","features":[{"type":"Feature","bbox":[85.55544,24.46423,85.60165,24.49182],"properties":{"ward":1},"geometry":{"type":"Polygon","coordinates":[[[85.60021,24.48842],[85.6008,24.4867],[85.60144,24.48573],[85.60165,24.48456],[85.60162,24.48373],[85.5964,24.47766],[85.59559,24.47549],[85.59437,24.47323],[85.59282,24.46967],[85.59274,24.46909],[85.5931,24.46848],[85.59271,24.467],[85.59219,24.4669],[85.59187,24.46647],[85.59095,24.46679],[85.5908,24.46705],[85.58983,24.46729],[85.58935,24.46727],[85.58773,24.46663],[85.58465,24.46637],[85.58267,24.46574],[85.58223,24.46612],[85.58132,24.46624],[85.57953,24.46567],[85.57946,24.46467],[85.57919,24.46452],[85.57866,24.46429],[85.57799,24.46451],[85.57746,24.46423],[85.57649,24.46545],[85.575,24.46637],[85.57415,24.46838],[85.57405,24.47075],[85.5738,24.47108],[85.57252,24.47186],[85.57104,24.47199],[85.57039,24.47225],[85.56956,24.4732],[85.56599,24.47353],[85.562,24.47326],[85.56039,24.47359],[85.55715,24.4732],[85.55636,24.47334],[85.55603,24.4738],[85.55593,24.47448],[85.55627,24.4764],[85.55544,24.47727],[85.5555,24.47805],[85.55565,24.47825],[85.55769,24.47919],[85.55789,24.47974],[85.55741,24.48144],[85.5577,24.48176],[85.55877,24.48207],[85.55883,24.48247],[85.55857,24.48299],[85.55882,24.48319],[85.55958,24.48294],[85.56038,24.48199],[85.56106,24.48154],[85.56173,24.48137],[85.56269,24.48147],[85.56441,24.48228],[85.56643,24.48362],[85.56711,24.48442],[85.56932,24.485],[85.57021,24.48585],[85.5721,24.48636],[85.57347,24.48716],[85.57514,24.4878],[85.57819,24.48756],[85.5812,24.48776],[85.58236,24.48816],[85.58638,24.48895],[85.58988,24.48929],[85.59227,24.48978],[85.59922,24.49182],[85.59998,24.4917],[85.60019,24.49138],[85.59995,24.48978],[85.60033,24.48908],[85.60021,24.48842]]]}},{"type":"Feature","bbox":[85.60053,24.4799,85.60935,24.48881],"properties":{"ward":2},"geometry":{"type":"Polygon","coordinates":[[[85.60935,24.48414],[85.60887,24.48397],[85.60835,24.48282],[85.60797,24.48257],[85.60785,24.48166],[85.60681,24.48007],[85.60575,24.4799],[85.60263,24.48032],[85.60188,24.48066],[85.60057,24.48239],[85.60167,24.4839],[85.60144,24.48573],[85.6008,24.4867],[85.60053,24.48744],[85.60339,24.48683],[85.60534,24.48837],[85.606,24.48869],[85.6068,24.48881],[85.60834,24.48744],[85.60935,24.48414]]]}},{"type":"Feature","bbox":[85.6009,24.47425,85.61486,24.48433],"properties":{"ward":3},"geometry":{"type":"Polygon","coordinates":[[[85.60753,24.47425],[85.60616,24.47486],[85.60547,24.47532],[85.60564,24.47563],[85.6043,24.47631],[85.60481,24.477],[85.60309,24.47807],[85.60225,24.4782],[85.60182,24.4781],[85.60184,24.47906],[85.60222,24.47988],[85.6009,24.48038],[85.60117,24.48098],[85.60103,24.48109],[85.60121,24.48167],[85.60188,24.48066],[85.60263,24.48032],[85.60575,24.4799],[85.60681,24.48007],[85.60705,24.48028],[85.60785,24.48166],[85.60797,24.48257],[85.60835,24.48282],[85.60887,24.48397],[85.60935,24.48414],[85.61153,24.48433],[85.61363,24.48411],[85.61473,24.48363],[85.61486,24.4823],[85.61469,24.48159],[85.61285,24.47852],[85.60991,24.47638],[85.60753,24.47425]]]}},{"type":"Feature","bbox":[85.60009,24.4701,85.60753,24.4782],"properties":{"ward":4},"geometry":{"type":"Polygon","coordinates":[[[85.60753,24.47425],[85.607,24.47372],[85.60653,24.47285],[85.60644,24.47167],[85.60663,24.47139],[85.60141,24.4701],[85.60009,24.47012],[85.60177,24.47582],[85.60191,24.47739],[85.60182,24.4781],[85.60225,24.4782],[85.60309,24.47807],[85.60481,24.477],[85.6043,24.47631],[85.60564,24.47563],[85.60547,24.47532],[85.60616,24.47486],[85.60753,24.47425]]]}},{"type":"Feature","bbox":[85.5942,24.47042,85.60222,24.48239],"properties":{"ward":5},"geometry":{"type":"Polygon","coordinates":[[[85.60071,24.47214],[85.59818,24.47144],[85.5966,24.47138],[85.59505,24.4717],[85.59491,24.47042],[85.5942,24.47058],[85.59437,24.47323],[85.59533,24.47491],[85.5964,24.47766],[85.60057,24.48239],[85.60121,24.48167],[85.60103,24.48109],[85.60117,24.48098],[85.6009,24.48038],[85.60222,24.47988],[85.60184,24.47906],[85.60191,24.47838],[85.60176,24.47789],[85.60191,24.47739],[85.60177,24.47582],[85.60071,24.47214]]]}},{"type":"Feature","bbox":[85.59413,24.46811,85.60071,24.47214],"properties":{"ward":6},"geometry":{"type":"Polygon","coordinates":[[[85.59889,24.47005],[85.59648,24.46889],[85.59579,24.46883],[85.59506,24.46811],[85.59413,24.46823],[85.5942,24.47058],[85.59491,24.47042],[85.59505,24.4717],[85.5966,24.47138],[85.59818,24.47144],[85.60071,24.47214],[85.60031,24.47118],[85.60009,24.47012],[85.59889,24.47005]]]}},{"type":"Feature","bbox":[85.59534,24.46468,85.60663,24.47139],"properties":{"ward":7},"geometry":{"type":"Polygon","coordinates":[[[85.5977,24.46472],[85.59534,24.4662],[85.59577,24.46652],[85.59719,24.4692],[85.59889,24.47005],[85.60141,24.4701],[85.60663,24.47139],[85.60644,24.47048],[85.60621,24.47011],[85.6043,24.46908],[85.603,24.46818],[85.60231,24.46751],[85.60186,24.46642],[85.60196,24.46582],[85.60109,24.46704],[85.60079,24.46662],[85.59994,24.46705],[85.59955,24.4659],[85.59852,24.46512],[85.59817,24.46468],[85.5977,24.46472]]]}},{"type":"Feature","bbox":[85.59219,24.46469,85.59719,24.4692],"properties":{"ward":8},"geometry":{"type":"Polygon","coordinates":[[[85.59719,24.4692],[85.59577,24.46652],[85.59219,24.46469],[85.59401,24.46731],[85.59413,24.46823],[85.59506,24.46811],[85.59579,24.46883],[85.59648,24.46889],[85.59719,24.4692]]]}},{"type":"Feature","bbox":[85.58955,24.46337,85.5943,24.47292],"properties":{"ward":9},"geometry":{"type":"Polygon","coordinates":[[[85.59219,24.46469],[85.58955,24.46337],[85.5908,24.46705],[85.59095,24.46679],[85.59187,24.46647],[85.59219,24.4669],[85.59271,24.467],[85.5931,24.46848],[85.59272,24.4693],[85.5943,24.47292],[85.5941,24.46757],[85.59219,24.46469]]]}},{"type":"Feature","bbox":[85.58267,24.46148,85.5908,24.46727],"properties":{"ward":10},"geometry":{"type":"Polygon","coordinates":[[[85.5908,24.46705],[85.58878,24.46148],[85.58766,24.46195],[85.58767,24.4622],[85.58739,24.46251],[85.58569,24.46391],[85.58488,24.46428],[85.58458,24.4646],[85.58395,24.46477],[85.58267,24.46574],[85.58465,24.46637],[85.58773,24.46663],[85.58935,24.46727],[85.5908,24.46705]]]}},{"type":"Feature","bbox":[85.56947,24.45745,85.58878,24.46623],"properties":{"ward":11},"geometry":{"type":"Polygon","coordinates":[[[85.58878,24.46148],[85.58774,24.46053],[85.58327,24.45857],[85.5822,24.45745],[85.58027,24.45822],[85.57937,24.45903],[85.578,24.45996],[85.57733,24.46074],[85.57701,24.462],[85.57644,24.4627],[85.576,24.4629],[85.57581,24.46278],[85.5757,24.46196],[85.57537,24.4614],[85.57437,24.46193],[85.57201,24.46177],[85.57097,24.46189],[85.57019,24.4622],[85.56962,24.4628],[85.56947,24.46389],[85.57011,24.4648],[85.57057,24.46511],[85.57227,24.46572],[85.57488,24.46555],[85.57579,24.46577],[85.57649,24.46545],[85.57746,24.46423],[85.57812,24.46453],[85.57866,24.46429],[85.57946,24.46467],[85.57943,24.46541],[85.57968,24.46578],[85.58164,24.46623],[85.58223,24.46612],[85.58395,24.46477],[85.58458,24.4646],[85.58488,24.46428],[85.58569,24.46391],[85.58739,24.46251],[85.58767,24.4622],[85.58766,24.46195],[85.58878,24.46148]]]}},{"type":"Feature","bbox":[85.57538,24.4546,85.5822,24.4629],"properties":{"ward":12},"geometry":{"type":"Polygon","coordinates":[[[85.57569,24.4546],[85.57556,24.45484],[85.57581,24.45692],[85.57654,24.45734],[85.57709,24.45844],[85.57691,24.45901],[85.57538,24.46128],[85.5757,24.46196],[85.57581,24.46278],[85.576,24.4629],[85.57644,24.4627],[85.57701,24.462],[85.57733,24.46074],[85.578,24.45996],[85.57937,24.45903],[85.58027,24.45822],[85.5822,24.45745],[85.58076,24.45579],[85.57998,24.45534],[85.57569,24.4546]]]}},{"type":"Feature","bbox":[85.57569,24.45437,85.59463,24.46148],"properties":{"ward":13},"geometry":{"type":"Polygon","coordinates":[[[85.58076,24.45579],[85.58327,24.45857],[85.58774,24.46053],[85.58878,24.46148],[85.58936,24.46102],[85.59008,24.46072],[85.59146,24.46054],[85.59276,24.45998],[85.59412,24.46003],[85.59463,24.45821],[85.59376,24.45839],[85.59342,24.45747],[85.59244,24.45682],[85.59226,24.45639],[85.59181,24.45618],[85.59137,24.45567],[85.59029,24.45549],[85.58644,24.45652],[85.58606,24.45644],[85.58521,24.45561],[85.58326,24.45501],[85.58133,24.45514],[85.57954,24.45446],[85.57637,24.45437],[85.57569,24.4546],[85.57998,24.45534],[85.58076,24.45579]]]}},{"type":"Feature","bbox":[85.58878,24.45993,85.5977,24.4662],"properties":{"ward":14},"geometry":{"type":"Polygon","coordinates":[[[85.5977,24.46472],[85.5969,24.46469],[85.59656,24.4641],[85.59671,24.46364],[85.59531,24.46235],[85.59528,24.46188],[85.59508,24.46161],[85.59513,24.4613],[85.59539,24.46102],[85.59535,24.46078],[85.59441,24.46062],[85.59412,24.46003],[85.59388,24.45993],[85.59276,24.45998],[85.59146,24.46054],[85.59008,24.46072],[85.58936,24.46102],[85.58878,24.46148],[85.58922,24.4629],[85.58969,24.46349],[85.59534,24.4662],[85.5977,24.46472]]]}},{"type":"Feature","bbox":[85.59412,24.45523,85.60655,24.46705],"properties":{"ward":15},"geometry":{"type":"Polygon","coordinates":[[[85.60193,24.46656],[85.60255,24.46415],[85.60275,24.46241],[85.60322,24.46107],[85.60392,24.4607],[85.60568,24.46018],[85.60642,24.45971],[85.60655,24.45927],[85.60628,24.4585],[85.60578,24.45773],[85.60542,24.45761],[85.60221,24.45879],[85.60153,24.45881],[85.59986,24.45847],[85.59817,24.45691],[85.59701,24.45554],[85.59649,24.45523],[85.59613,24.45544],[85.59587,24.45689],[85.59617,24.45798],[85.595,24.45831],[85.59463,24.45821],[85.59412,24.46003],[85.59432,24.46054],[85.59535,24.46078],[85.59539,24.46102],[85.59513,24.4613],[85.59508,24.46161],[85.59528,24.46188],[85.59531,24.46235],[85.59671,24.46364],[85.59656,24.4641],[85.5969,24.46469],[85.59817,24.46468],[85.59965,24.46601],[85.59994,24.46705],[85.60079,24.46662],[85.60109,24.46704],[85.60189,24.4658],[85.60193,24.46656]]]}}]}