{"type":"FeatureCollection","features":[{"type":"Feature","bbox":[83.7918,24.16761,83.80709,24.18732],"properties":{"ward":1},"geometry":{"type":"Polygon","coordinates":[[[83.7965,24.18732],[83.79677,24.18731],[83.79757,24.18684],[83.79784,24.18645],[83.79793,24.1858],[83.79864,24.18569],[83.79885,24.18519],[83.79949,24.18492],[83.79974,24.18465],[83.79984,24.18428],[83.79942,24.18349],[83.79954,24.18299],[83.79936,24.18261],[83.79971,24.18215],[83.79948,24.18171],[83.79981,24.18165],[83.8002,24.18122],[83.80092,24.18129],[83.80117,24.18097],[83.80113,24.18031],[83.80178,24.17971],[83.80178,24.17935],[83.80208,24.179],[83.80205,24.17881],[83.80284,24.17804],[83.80319,24.17697],[83.80324,24.17573],[83.80307,24.17544],[83.80334,24.17484],[83.80326,24.17473],[83.80389,24.17449],[83.80359,24.17346],[83.80309,24.17303],[83.80397,24.17276],[83.80417,24.17291],[83.80646,24.17269],[83.80709,24.1694],[83.80641,24.16956],[83.80575,24.16761],[83.80458,24.16862],[83.80413,24.16962],[83.79862,24.1768],[83.79895,24.17689],[83.79929,24.17725],[83.79804,24.17859],[83.79413,24.18145],[83.79269,24.18283],[83.7918,24.185],[83.79331,24.18577],[83.794,24.18589],[83.79418,24.18619],[83.79552,24.18651],[83.79598,24.18703],[83.79644,24.18715],[83.7965,24.18732]]]}},{"type":"Feature","bbox":[83.79534,24.17981,83.79645,24.18096],"properties":{"ward":2,"name":"W - 2"},"geometry":{"type":"Polygon","coordinates":[[[83.79561,24.18096],[83.79645,24.17981],[83.79534,24.18057],[83.79561,24.18096]]]}},{"type":"Feature","bbox":[83.80575,24.16473,83.80985,24.17269],"properties":{"ward":3},"geometry":{"type":"Polygon","coordinates":[[[83.80696,24.17251],[83.80905,24.16854],[83.80985,24.16774],[83.80965,24.16711],[83.80969,24.16587],[83.80819,24.16517],[83.80778,24.16477],[83.8071,24.16473],[83.80579,24.16718],[83.80575,24.16761],[83.80641,24.16956],[83.80709,24.1694],[83.80646,24.17269],[83.80696,24.17251]]]}},{"type":"Feature","bbox":[83.79736,24.16108,83.80778,24.16684],"properties":{"ward":4},"geometry":{"type":"Polygon","coordinates":[[[83.80537,24.16404],[83.80605,24.16399],[83.8071,24.16473],[83.80778,24.16477],[83.80757,24.16279],[83.80626,24.16124],[83.8059,24.16108],[83.80397,24.16234],[83.80227,24.16305],[83.80122,24.16327],[83.80102,24.16298],[83.80085,24.16324],[83.79843,24.16361],[83.7975,24.1643],[83.79768,24.1646],[83.79742,24.16476],[83.79736,24.16513],[83.79746,24.16568],[83.79804,24.16684],[83.79924,24.16669],[83.80286,24.16607],[83.80347,24.16559],[83.80403,24.16452],[83.80537,24.16404]]]}},{"type":"Feature","bbox":[83.79972,24.15678,83.80889,24.16299],"properties":{"ward":5},"geometry":{"type":"Polygon","coordinates":[[[83.80397,24.16234],[83.8059,24.16108],[83.80626,24.16124],[83.80706,24.16228],[83.80777,24.16192],[83.80757,24.16151],[83.80889,24.16098],[83.80765,24.15844],[83.80637,24.15678],[83.80359,24.15788],[83.80408,24.15862],[83.80075,24.15825],[83.80057,24.15952],[83.79972,24.15958],[83.80004,24.16031],[83.80087,24.16151],[83.80186,24.1626],[83.80242,24.16299],[83.80397,24.16234]]]}},{"type":"Feature","bbox":[83.7874,24.15746,83.80242,24.16327],"properties":{"ward":6,"name":"Ward 9"},"geometry":{"type":"Polygon","coordinates":[[[83.80186,24.1626],[83.80004,24.16031],[83.79972,24.15958],[83.80057,24.15952],[83.80075,24.15825],[83.7978,24.15812],[83.79443,24.15765],[83.79176,24.15746],[83.78804,24.15758],[83.78793,24.15788],[83.7874,24.15821],[83.7875,24.15874],[83.78783,24.15888],[83.78775,24.15946],[83.78873,24.15958],[83.78921,24.16006],[83.78971,24.16095],[83.7903,24.16147],[83.79085,24.16139],[83.79158,24.16013],[83.79317,24.16029],[83.7936,24.16015],[83.79412,24.1602],[83.79705,24.16097],[83.79756,24.1609],[83.7988,24.16134],[83.80106,24.16286],[83.80122,24.16327],[83.80242,24.16299],[83.80186,24.1626]]]}},{"type":"Feature","bbox":[83.78728,24.15083,83.80408,24.15862],"properties":{"ward":7},"geometry":{"type":"Polygon","coordinates":[[[83.80264,24.15642],[83.80124,24.15472],[83.79853,24.15237],[83.79751,24.15096],[83.79747,24.15129],[83.79582,24.15083],[83.79425,24.15085],[83.79243,24.1512],[83.79036,24.15166],[83.78761,24.15251],[83.78744,24.15305],[83.78728,24.15312],[83.7877,24.15397],[83.78824,24.15576],[83.78817,24.15618],[83.78794,24.15631],[83.78823,24.15701],[83.78804,24.15758],[83.79176,24.15746],[83.79443,24.15765],[83.7978,24.15812],[83.80239,24.15836],[83.80408,24.15862],[83.80264,24.15642]]]}},{"type":"Feature","bbox":[83.79751,24.14458,83.80637,24.15788],"properties":{"ward":8},"geometry":{"type":"Polygon","coordinates":[[[83.80337,24.15019],[83.80243,24.14721],[83.80127,24.14458],[83.8001,24.14465],[83.80008,24.14558],[83.79944,24.1477],[83.79993,24.14929],[83.79873,24.14966],[83.7988,24.15017],[83.79862,24.15041],[83.79756,24.15068],[83.79751,24.15096],[83.79853,24.15237],[83.80124,24.15472],[83.80264,24.15642],[83.80359,24.15788],[83.80637,24.15678],[83.80441,24.15395],[83.80373,24.15218],[83.80337,24.15019]]]}},{"type":"Feature","bbox":[83.80127,24.14458,83.8085,24.15678],"properties":{"ward":9},"geometry":{"type":"Polygon","coordinates":[[[83.8078,24.15532],[83.8085,24.15371],[83.80718,24.15394],[83.80671,24.15029],[83.80608,24.14827],[83.80593,24.1471],[83.80537,24.146],[83.80454,24.14555],[83.80474,24.14479],[83.80127,24.14458],[83.80243,24.14721],[83.80337,24.15019],[83.80373,24.15218],[83.80441,24.15395],[83.80637,24.15678],[83.8078,24.15532]]]}},{"type":"Feature","bbox":[83.80706,24.16047,83.8111,24.16364],"properties":{"ward":10},"geometry":{"type":"Polygon","coordinates":[[[83.8111,24.16229],[83.81002,24.16047],[83.80757,24.16151],[83.80777,24.16192],[83.80706,24.16228],[83.80757,24.16279],[83.80766,24.16364],[83.8111,24.16229]]]}},{"type":"Feature","bbox":[83.80637,24.1556,83.81306,24.16229],"properties":{"ward":11},"geometry":{"type":"Polygon","coordinates":[[[83.81306,24.1617],[83.81221,24.16032],[83.81135,24.16056],[83.81085,24.15956],[83.80865,24.15685],[83.80774,24.1561],[83.80755,24.1556],[83.80637,24.15678],[83.80765,24.15844],[83.80889,24.16098],[83.81002,24.16047],[83.8111,24.16229],[83.81306,24.1617]]]}},{"type":"Feature","bbox":[83.81026,24.1617,83.81411,24.16522],"properties":{"ward":12},"geometry":{"type":"Polygon","coordinates":[[[83.81411,24.16354],[83.81411,24.16323],[83.81306,24.1617],[83.81026,24.16259],[83.81071,24.16377],[83.81154,24.16355],[83.81216,24.16522],[83.81274,24.16435],[83.8136,24.16397],[83.81411,24.16354]]]}},{"type":"Feature","bbox":[83.80766,24.16259,83.81216,24.16601],"properties":{"ward":13},"geometry":{"type":"Polygon","coordinates":[[[83.81216,24.16522],[83.81154,24.16355],[83.81071,24.16377],[83.81026,24.16259],[83.80766,24.16364],[83.80778,24.16477],[83.80819,24.16517],[83.80994,24.166],[83.8109,24.16601],[83.81159,24.1657],[83.81216,24.16522]]]}},{"type":"Feature","bbox":[83.80965,24.16375,83.82719,24.17274],"properties":{"ward":14},"geometry":{"type":"Polygon","coordinates":[[[83.82572,24.17274],[83.82602,24.17195],[83.82579,24.17152],[83.82589,24.17052],[83.82568,24.17003],[83.8263,24.16975],[83.82578,24.16948],[83.82591,24.16845],[83.8255,24.16832],[83.82547,24.16813],[83.82589,24.16731],[83.82574,24.16705],[83.82582,24.16634],[83.82649,24.1656],[83.82645,24.16516],[83.82683,24.16504],[83.82684,24.16542],[83.82704,24.16545],[83.82719,24.16487],[83.82712,24.16464],[83.82653,24.16447],[83.82621,24.16375],[83.8232,24.16507],[83.8184,24.16634],[83.8158,24.16598],[83.81444,24.16537],[83.81348,24.16473],[83.81298,24.16418],[83.81159,24.1657],[83.8109,24.16601],[83.80969,24.16587],[83.80965,24.16711],[83.81032,24.16897],[83.82572,24.17274]]]}},{"type":"Feature","bbox":[83.80696,24.16774,83.81924,24.19229],"properties":{"ward":15},"geometry":{"type":"Polygon","coordinates":[[[83.81863,24.18828],[83.81641,24.17558],[83.813,24.16968],[83.81032,24.16897],[83.80985,24.16774],[83.80905,24.16854],[83.80841,24.16959],[83.80696,24.17251],[83.8081,24.1719],[83.80862,24.1718],[83.80891,24.17153],[83.80931,24.17157],[83.80945,24.17192],[83.80922,24.17307],[83.80929,24.17416],[83.81034,24.17769],[83.81052,24.17886],[83.81096,24.17949],[83.81092,24.18089],[83.8111,24.18113],[83.81108,24.18161],[83.81135,24.18245],[83.81111,24.18276],[83.81116,24.18354],[83.81148,24.1843],[83.81135,24.18449],[83.81149,24.1847],[83.81116,24.18521],[83.81134,24.18682],[83.81178,24.18746],[83.81204,24.18753],[83.8121,24.18855],[83.81254,24.18972],[83.81256,24.19056],[83.81383,24.19229],[83.81924,24.19094],[83.81863,24.18828]]]}},{"type":"Feature","bbox":[83.813,24.16968,83.82741,24.19094],"properties":{"ward":16},"geometry":{"type":"Polygon","coordinates":[[[83.8256,24.18078],[83.82582,24.18075],[83.82587,24.18097],[83.82628,24.18048],[83.82596,24.1803],[83.82609,24.1794],[83.8258,24.179],[83.82573,24.17854],[83.82598,24.17817],[83.82592,24.17732],[83.82627,24.17597],[83.82574,24.17615],[83.82566,24.17601],[83.82617,24.17579],[83.82619,24.17553],[83.82599,24.17506],[83.82609,24.17427],[83.82573,24.17395],[83.82593,24.17372],[83.82547,24.17336],[83.82575,24.17307],[83.82572,24.17274],[83.813,24.16968],[83.81641,24.17558],[83.81863,24.18828],[83.81924,24.19094],[83.82569,24.18871],[83.82741,24.18827],[83.82561,24.18506],[83.82534,24.1838],[83.8256,24.18308],[83.82533,24.18262],[83.82538,24.1819],[83.82518,24.18151],[83.8256,24.18078]]]}},{"type":"Feature","bbox":[83.81414,24.15771,83.82775,24.16441],"properties":{"ward":17},"geometry":{"type":"Polygon","coordinates":[[[83.82775,24.15771],[83.82427,24.15928],[83.82164,24.16014],[83.81849,24.1605],[83.81414,24.16191],[83.81583,24.16351],[83.817,24.16417],[83.81805,24.16441],[83.81906,24.16434],[83.82061,24.16386],[83.82457,24.16226],[83.82603,24.16127],[83.82614,24.16032],[83.82674,24.15914],[83.8275,24.15835],[83.82775,24.15771]]]}},{"type":"Feature","bbox":[83.80962,24.15177,83.81779,24.16191],"properties":{"ward":18},"geometry":{"type":"Polygon","coordinates":[[[83.81649,24.15294],[83.81647,24.15181],[83.81557,24.15177],[83.81357,24.15234],[83.81138,24.15319],[83.81117,24.15297],[83.80962,24.15351],[83.80984,24.1548],[83.81054,24.15663],[83.81172,24.15808],[83.81414,24.16191],[83.81741,24.16095],[83.81696,24.15941],[83.81779,24.15893],[83.81649,24.15294]]]}},{"type":"Feature","bbox":[83.81696,24.15393,83.82805,24.16095],"properties":{"ward":19},"geometry":{"type":"Polygon","coordinates":[[[83.82554,24.15393],[83.82508,24.15407],[83.823,24.15534],[83.82118,24.1566],[83.81975,24.15725],[83.81751,24.15763],[83.81779,24.15893],[83.81696,24.15941],[83.81741,24.16095],[83.81849,24.1605],[83.82164,24.16014],[83.82427,24.15928],[83.82775,24.1577],[83.82805,24.15714],[83.82632,24.15576],[83.82554,24.15393]]]}},{"type":"Feature","bbox":[83.81647,24.14657,83.82729,24.15763],"properties":{"ward":20},"geometry":{"type":"Polygon","coordinates":[[[83.82729,24.15111],[83.82722,24.1499],[83.82691,24.1487],[83.82531,24.14657],[83.8207,24.1482],[83.82038,24.14869],[83.8204,24.14936],[83.82009,24.15063],[83.81924,24.15068],[83.81647,24.15181],[83.81649,24.15294],[83.81751,24.15763],[83.81975,24.15725],[83.82118,24.1566],[83.823,24.15534],[83.82555,24.15387],[83.82567,24.15321],[83.8262,24.15252],[83.82706,24.15188],[83.82729,24.15111]]]}},{"type":"Feature","bbox":[83.80755,24.15351,83.82621,24.16634],"properties":{"ward":21,"name":"River"},"geometry":{"type":"Polygon","coordinates":[[[83.8232,24.16507],[83.82621,24.16375],[83.82544,24.16249],[83.82591,24.16203],[83.82603,24.16127],[83.82457,24.16226],[83.82061,24.16386],[83.81906,24.16434],[83.81805,24.16441],[83.817,24.16417],[83.81583,24.16351],[83.81414,24.16191],[83.81172,24.15808],[83.81054,24.15663],[83.80984,24.1548],[83.80962,24.15351],[83.8085,24.15371],[83.80831,24.15432],[83.80755,24.1556],[83.80774,24.1561],[83.80931,24.15759],[83.81085,24.15956],[83.81135,24.16056],[83.81221,24.16032],[83.81248,24.16073],[83.81328,24.16219],[83.81411,24.16323],[83.81411,24.16354],[83.8139,24.16373],[83.81298,24.16418],[83.81348,24.16473],[83.81444,24.16537],[83.8158,24.16598],[83.8184,24.16634],[83.8232,24.16507]]]}}]}