{"type":"FeatureCollection","features":[{"type":"Feature","bbox":[85.71317,20.1628,85.72054,20.16935],"properties":{"ward":1},"geometry":{"type":"Polygon","coordinates":[[[85.72054,20.16545],[85.71791,20.1628],[85.71317,20.16692],[85.71559,20.16935],[85.72054,20.16545]]]}},{"type":"Feature","bbox":[85.71193,20.16129,85.71791,20.16652],"properties":{"ward":2},"geometry":{"type":"Polygon","coordinates":[[[85.71791,20.1628],[85.71629,20.16129],[85.71546,20.16229],[85.71337,20.16405],[85.71193,20.16412],[85.71238,20.16489],[85.7122,20.16506],[85.71363,20.16652],[85.71791,20.1628]]]}},{"type":"Feature","bbox":[85.71101,20.15777,85.71629,20.16378],"properties":{"ward":3},"geometry":{"type":"Polygon","coordinates":[[[85.71629,20.16129],[85.71441,20.15949],[85.71304,20.15777],[85.71101,20.15882],[85.71138,20.15955],[85.71169,20.15952],[85.71215,20.16046],[85.71176,20.1607],[85.71203,20.1617],[85.71206,20.1629],[85.71295,20.16294],[85.71292,20.16318],[85.71333,20.16309],[85.71369,20.16378],[85.71546,20.16229],[85.71629,20.16129]]]}},{"type":"Feature","bbox":[85.70809,20.15631,85.71304,20.15971],"properties":{"ward":4},"geometry":{"type":"Polygon","coordinates":[[[85.71304,20.15777],[85.71148,20.15631],[85.70809,20.15795],[85.70899,20.15971],[85.71182,20.15848],[85.71304,20.15777]]]}},{"type":"Feature","bbox":[85.70951,20.15882,85.71583,20.17041],"properties":{"ward":5},"geometry":{"type":"Polygon","coordinates":[[[85.71559,20.16935],[85.71317,20.16692],[85.71363,20.16652],[85.7122,20.16506],[85.71238,20.16489],[85.71193,20.16412],[85.71277,20.16416],[85.71337,20.16405],[85.71369,20.16378],[85.71333,20.16309],[85.71292,20.16318],[85.71295,20.16294],[85.71206,20.1629],[85.71203,20.1617],[85.71176,20.1607],[85.71215,20.16046],[85.71169,20.15952],[85.71138,20.15955],[85.71101,20.15882],[85.70951,20.15948],[85.71034,20.16314],[85.71063,20.16316],[85.71069,20.16351],[85.71101,20.16354],[85.71112,20.16456],[85.71173,20.16546],[85.71098,20.16621],[85.7112,20.16665],[85.71107,20.16677],[85.71113,20.16729],[85.71144,20.16854],[85.71219,20.16941],[85.71297,20.16902],[85.71413,20.17041],[85.71536,20.17007],[85.71555,20.17022],[85.71583,20.17014],[85.71559,20.16935]]]}},{"type":"Feature","bbox":[85.70648,20.15795,85.71413,20.1723],"properties":{"ward":6},"geometry":{"type":"Polygon","coordinates":[[[85.71413,20.17041],[85.71297,20.16902],[85.71219,20.16941],[85.71133,20.16833],[85.71107,20.16677],[85.7112,20.16665],[85.71098,20.16621],[85.71173,20.16546],[85.71112,20.16456],[85.71101,20.16354],[85.71069,20.16351],[85.71063,20.16316],[85.71034,20.16314],[85.70951,20.15948],[85.70899,20.15971],[85.70809,20.15795],[85.70648,20.15875],[85.70749,20.16022],[85.70816,20.16273],[85.70932,20.1642],[85.70963,20.16483],[85.71004,20.16642],[85.70962,20.16648],[85.70959,20.16701],[85.71105,20.17002],[85.71023,20.17024],[85.71018,20.17066],[85.71073,20.1722],[85.71089,20.1723],[85.71242,20.1717],[85.71319,20.17094],[85.71413,20.17041]]]}},{"type":"Feature","bbox":[85.70122,20.15875,85.71105,20.1724],"properties":{"ward":7},"geometry":{"type":"Polygon","coordinates":[[[85.71105,20.17002],[85.70955,20.16689],[85.70962,20.16648],[85.71004,20.16642],[85.70963,20.16483],[85.70932,20.1642],[85.70816,20.16273],[85.70749,20.16022],[85.70648,20.15875],[85.7033,20.16061],[85.70122,20.16231],[85.70498,20.16684],[85.70547,20.16843],[85.70753,20.16899],[85.70784,20.1724],[85.71073,20.1722],[85.71018,20.17066],[85.71023,20.17024],[85.71105,20.17002]]]}},{"type":"Feature","bbox":[85.69886,20.16231,85.70846,20.19196],"properties":{"ward":8},"geometry":{"type":"Polygon","coordinates":[[[85.70543,20.1881],[85.70506,20.18706],[85.70491,20.18585],[85.70591,20.18385],[85.70595,20.18195],[85.7057,20.17728],[85.70841,20.17652],[85.70846,20.17413],[85.70826,20.1724],[85.70784,20.1724],[85.70753,20.16899],[85.70547,20.16843],[85.70498,20.16684],[85.70122,20.16231],[85.69886,20.16423],[85.70035,20.16601],[85.70083,20.16843],[85.70141,20.16948],[85.70151,20.17003],[85.70127,20.17201],[85.7017,20.17754],[85.70182,20.18277],[85.70241,20.18567],[85.70188,20.19196],[85.70308,20.19193],[85.70326,20.19126],[85.70423,20.19154],[85.70466,20.19105],[85.70552,20.19089],[85.70625,20.19134],[85.70657,20.19143],[85.70678,20.19132],[85.70679,20.19095],[85.70618,20.19057],[85.70641,20.1904],[85.70704,20.19051],[85.70683,20.18995],[85.70755,20.19025],[85.70752,20.18976],[85.70543,20.1881]]]}},{"type":"Feature","bbox":[85.69397,20.16423,85.70241,20.19196],"properties":{"ward":9},"geometry":{"type":"Polygon","coordinates":[[[85.70188,20.19196],[85.70241,20.18567],[85.70182,20.18277],[85.7017,20.17754],[85.70133,20.17343],[85.70127,20.17201],[85.70151,20.17003],[85.70141,20.16948],[85.70083,20.16843],[85.70035,20.16601],[85.69886,20.16423],[85.69768,20.16499],[85.69474,20.16557],[85.69525,20.16846],[85.69466,20.16877],[85.69471,20.16934],[85.69492,20.16947],[85.69484,20.17162],[85.69434,20.1732],[85.69457,20.1748],[85.69516,20.17656],[85.69585,20.17717],[85.69638,20.1774],[85.69861,20.17748],[85.69775,20.1807],[85.69786,20.1823],[85.69733,20.18248],[85.69637,20.18256],[85.69626,20.18245],[85.69397,20.18283],[85.69404,20.18348],[85.69479,20.18585],[85.69593,20.18939],[85.69617,20.18971],[85.69648,20.19175],[85.69704,20.19162],[85.698,20.19184],[85.6986,20.1912],[85.69903,20.19133],[85.6995,20.19181],[85.69971,20.19178],[85.7,20.1914],[85.70066,20.19135],[85.70188,20.19196]]]}},{"type":"Feature","bbox":[85.68345,20.16557,85.69525,20.1757],"properties":{"ward":10},"geometry":{"type":"Polygon","coordinates":[[[85.69474,20.16557],[85.68354,20.16826],[85.68345,20.1687],[85.68365,20.16897],[85.68446,20.16911],[85.68517,20.16943],[85.68593,20.17012],[85.6867,20.16985],[85.6903,20.17],[85.69095,20.17122],[85.69104,20.17168],[85.69065,20.17296],[85.68962,20.17405],[85.6898,20.17414],[85.6903,20.17518],[85.69062,20.17486],[85.69221,20.17505],[85.69312,20.17541],[85.69491,20.1757],[85.69457,20.1748],[85.69434,20.1732],[85.69484,20.17162],[85.69492,20.16947],[85.69471,20.16934],[85.69466,20.16877],[85.69525,20.16846],[85.69474,20.16557]]]}},{"type":"Feature","bbox":[85.67903,20.15709,85.69886,20.16746],"properties":{"ward":11},"geometry":{"type":"Polygon","coordinates":[[[85.69532,20.16026],[85.68966,20.16009],[85.6838,20.15807],[85.68181,20.15709],[85.68113,20.15838],[85.67994,20.1594],[85.67916,20.16075],[85.67903,20.16192],[85.6867,20.16746],[85.69429,20.16565],[85.69768,20.16499],[85.69873,20.16436],[85.69886,20.16423],[85.69734,20.16236],[85.69595,20.16244],[85.69532,20.16026]]]}},{"type":"Feature","bbox":[85.69696,20.15819,85.70427,20.16423],"properties":{"ward":12},"geometry":{"type":"Polygon","coordinates":[[[85.70427,20.15997],[85.70263,20.15819],[85.70093,20.15934],[85.69976,20.15964],[85.69696,20.16191],[85.69886,20.16423],[85.70427,20.15997]]]}},{"type":"Feature","bbox":[85.68181,20.15326,85.70093,20.16244],"properties":{"ward":13},"geometry":{"type":"Polygon","coordinates":[[[85.68439,20.15432],[85.68313,20.15386],[85.68281,20.15326],[85.68248,20.1534],[85.6822,20.15599],[85.68181,20.15709],[85.6838,20.15807],[85.68966,20.16009],[85.69532,20.16026],[85.69595,20.16244],[85.69734,20.16236],[85.69696,20.16191],[85.69792,20.16108],[85.69976,20.15964],[85.70093,20.15934],[85.70065,20.15834],[85.69969,20.15661],[85.69788,20.15429],[85.69697,20.15365],[85.69375,20.15438],[85.6932,20.15522],[85.69349,20.15823],[85.69289,20.15866],[85.69098,20.15899],[85.69026,20.15891],[85.69001,20.1587],[85.68976,20.15799],[85.68958,20.15631],[85.68811,20.15536],[85.6875,20.15415],[85.68719,20.15396],[85.68439,20.15432]]]}},{"type":"Feature","bbox":[85.69887,20.15476,85.70263,20.15934],"properties":{"ward":14},"geometry":{"type":"Polygon","coordinates":[[[85.70263,20.15819],[85.7008,20.15574],[85.70099,20.15554],[85.70058,20.15514],[85.7005,20.15476],[85.69955,20.15534],[85.69887,20.15547],[85.70065,20.15834],[85.70093,20.15934],[85.70263,20.15819]]]}},{"type":"Feature","bbox":[85.69698,20.14685,85.70549,20.15547],"properties":{"ward":15},"geometry":{"type":"Polygon","coordinates":[[[85.69698,20.15365],[85.69788,20.15429],[85.69887,20.15547],[85.69955,20.15534],[85.7005,20.15476],[85.70549,20.15037],[85.70317,20.1477],[85.70284,20.14785],[85.70205,20.14717],[85.7014,20.14685],[85.70109,20.14748],[85.70132,20.14909],[85.70193,20.15114],[85.70205,20.15208],[85.70178,20.15246],[85.6974,20.1534],[85.69698,20.15365]]]}},{"type":"Feature","bbox":[85.7005,20.15281,85.70711,20.15867],"properties":{"ward":16},"geometry":{"type":"Polygon","coordinates":[[[85.70711,20.15543],[85.70555,20.15392],[85.70392,20.15532],[85.70337,20.15483],[85.70408,20.15414],[85.70272,20.15281],[85.7005,20.15476],[85.70058,20.15514],[85.70099,20.15554],[85.7008,20.15574],[85.70311,20.15867],[85.70711,20.15543]]]}},{"type":"Feature","bbox":[85.70272,20.15037,85.70884,20.15543],"properties":{"ward":17},"geometry":{"type":"Polygon","coordinates":[[[85.70884,20.15389],[85.70549,20.15037],[85.70272,20.15281],[85.70408,20.15414],[85.70337,20.15483],[85.70392,20.15532],[85.70555,20.15392],[85.70711,20.15543],[85.70884,20.15389]]]}},{"type":"Feature","bbox":[85.70311,20.15389,85.71148,20.15997],"properties":{"ward":18},"geometry":{"type":"Polygon","coordinates":[[[85.70427,20.15997],[85.71148,20.15631],[85.70884,20.15389],[85.70578,20.15662],[85.70311,20.15867],[85.70427,20.15997]]]}},{"type":"Feature","bbox":[85.7096,20.15216,85.71351,20.15568],"properties":{"ward":19},"geometry":{"type":"Polygon","coordinates":[[[85.71351,20.15352],[85.71276,20.15216],[85.71235,20.15234],[85.7096,20.15463],[85.71069,20.15568],[85.71351,20.15352]]]}},{"type":"Feature","bbox":[85.70317,20.14456,85.7182,20.15463],"properties":{"ward":20},"geometry":{"type":"Polygon","coordinates":[[[85.70656,20.14585],[85.70317,20.1477],[85.70799,20.15308],[85.7096,20.15463],[85.71235,20.15234],[85.71276,20.15216],[85.71377,20.15408],[85.71595,20.15347],[85.7182,20.15244],[85.7163,20.14569],[85.71544,20.14596],[85.715,20.14633],[85.71444,20.14631],[85.7139,20.14603],[85.7135,20.14555],[85.71336,20.14476],[85.71319,20.14456],[85.71146,20.14507],[85.71049,20.14496],[85.70866,20.14513],[85.70848,20.14556],[85.70682,20.14597],[85.70656,20.14585]]]}},{"type":"Feature","bbox":[85.71069,20.13069,85.72928,20.15631],"properties":{"ward":21},"geometry":{"type":"Polygon","coordinates":[[[85.72041,20.14223],[85.72018,20.14321],[85.71835,20.14406],[85.71717,20.14484],[85.71629,20.14569],[85.7182,20.15244],[85.71595,20.15347],[85.71377,20.15408],[85.71351,20.15352],[85.71069,20.15568],[85.71148,20.15631],[85.71267,20.15573],[85.72076,20.15261],[85.72928,20.15071],[85.72895,20.15047],[85.7276,20.15009],[85.72587,20.14923],[85.72497,20.14841],[85.72467,20.1473],[85.72362,20.14709],[85.72238,20.14576],[85.72193,20.14468],[85.7217,20.14336],[85.72051,20.14269],[85.72052,20.1405],[85.72123,20.1399],[85.72179,20.13815],[85.72224,20.13773],[85.72331,20.13764],[85.72452,20.13724],[85.72474,20.13691],[85.72516,20.13513],[85.72467,20.134],[85.72399,20.13322],[85.72242,20.13069],[85.71939,20.13217],[85.71786,20.13324],[85.7176,20.13374],[85.71738,20.13529],[85.7168,20.13609],[85.71551,20.13672],[85.71565,20.13788],[85.71624,20.13853],[85.71741,20.13894],[85.71836,20.13976],[85.71983,20.14057],[85.72031,20.141],[85.72041,20.14223]]]}},{"type":"Feature","bbox":[85.71148,20.15243,85.7264,20.16545],"properties":{"ward":22},"geometry":{"type":"Polygon","coordinates":[[[85.72148,20.15243],[85.71267,20.15573],[85.71148,20.15631],[85.71304,20.15777],[85.71441,20.15949],[85.72054,20.16545],[85.7219,20.1644],[85.72201,20.16451],[85.72478,20.16451],[85.7261,20.1648],[85.72572,20.16227],[85.72589,20.15959],[85.72632,20.15926],[85.7264,20.15849],[85.72591,20.15828],[85.726,20.15691],[85.72387,20.15697],[85.72308,20.15741],[85.72288,20.15646],[85.72316,20.15553],[85.72259,20.15438],[85.72216,20.15418],[85.72184,20.15367],[85.72148,20.15243]]]}},{"type":"Feature","bbox":[85.72148,20.15071,85.7316,20.16145],"properties":{"ward":23},"geometry":{"type":"Polygon","coordinates":[[[85.72928,20.15071],[85.72148,20.15243],[85.72184,20.15367],[85.72216,20.15418],[85.72259,20.15438],[85.72316,20.15553],[85.72288,20.15646],[85.72308,20.15741],[85.72387,20.15697],[85.72619,20.15693],[85.72699,20.15664],[85.72725,20.15739],[85.7273,20.15831],[85.72759,20.15872],[85.72795,20.15896],[85.72859,20.15885],[85.72925,20.159],[85.72963,20.16145],[85.73037,20.16126],[85.7316,20.1581],[85.731,20.15624],[85.73074,20.15459],[85.73048,20.1541],[85.73053,20.15336],[85.72975,20.15183],[85.72946,20.1518],[85.72928,20.15071]]]}}]}