{"type":"FeatureCollection","features":[{"type":"Feature","bbox":[83.14644,20.29305,83.16823,20.30886],"properties":{"ward":1},"geometry":{"type":"Polygon","coordinates":[[[83.16264,20.29324],[83.15926,20.29436],[83.1592,20.2942],[83.15873,20.29437],[83.15869,20.29471],[83.15821,20.29493],[83.15776,20.29487],[83.15743,20.29416],[83.15694,20.29441],[83.15562,20.29533],[83.15634,20.29689],[83.15373,20.29686],[83.15298,20.29724],[83.15147,20.29761],[83.15197,20.29899],[83.15106,20.29971],[83.14998,20.30099],[83.14948,20.30266],[83.14893,20.3035],[83.14698,20.30474],[83.14676,20.30505],[83.14702,20.30571],[83.14702,20.30622],[83.14644,20.30696],[83.14792,20.30845],[83.14863,20.30886],[83.14912,20.30879],[83.14958,20.30836],[83.15091,20.30772],[83.15244,20.3062],[83.15325,20.30479],[83.15498,20.30329],[83.15528,20.30319],[83.15558,20.30325],[83.1563,20.30386],[83.15686,20.30656],[83.15746,20.30734],[83.15829,20.30804],[83.15975,20.30853],[83.16065,20.30856],[83.16226,20.30803],[83.16318,20.30746],[83.16483,20.30608],[83.16617,20.30537],[83.16816,20.30304],[83.16823,20.30243],[83.16806,20.30173],[83.165,20.29974],[83.16449,20.29889],[83.1643,20.29693],[83.16481,20.29521],[83.16425,20.29446],[83.16479,20.29305],[83.16264,20.29324]]]}},{"type":"Feature","bbox":[83.15111,20.28777,83.16502,20.2976],"properties":{"ward":2},"geometry":{"type":"Polygon","coordinates":[[[83.16044,20.29403],[83.16264,20.29322],[83.16483,20.29304],[83.16502,20.29218],[83.16462,20.29176],[83.16439,20.29071],[83.16468,20.2901],[83.16458,20.28941],[83.16383,20.28777],[83.16322,20.2883],[83.16255,20.28857],[83.16267,20.2889],[83.16171,20.28914],[83.16187,20.28992],[83.16155,20.29053],[83.1608,20.29106],[83.15997,20.29194],[83.15959,20.29294],[83.15895,20.2933],[83.1581,20.29224],[83.15702,20.2926],[83.15479,20.29426],[83.1537,20.29466],[83.15392,20.2955],[83.15377,20.2956],[83.15349,20.29551],[83.15276,20.29577],[83.15276,20.2959],[83.15111,20.29628],[83.15128,20.29714],[83.15146,20.2976],[83.15298,20.29724],[83.15374,20.29686],[83.15634,20.29689],[83.15561,20.29533],[83.15694,20.2944],[83.15743,20.29415],[83.15776,20.29486],[83.15821,20.29492],[83.15875,20.29463],[83.15873,20.29437],[83.16044,20.29403]]]}},{"type":"Feature","bbox":[83.15081,20.29257,83.15472,20.29626],"properties":{"ward":3},"geometry":{"type":"Polygon","coordinates":[[[83.15081,20.29343],[83.15112,20.29626],[83.15184,20.29615],[83.1535,20.29547],[83.15378,20.29557],[83.15391,20.29548],[83.1537,20.29466],[83.15472,20.29418],[83.15341,20.29257],[83.15181,20.29299],[83.15081,20.29343]]]}},{"type":"Feature","bbox":[83.14129,20.28865,83.15194,20.30696],"properties":{"ward":4},"geometry":{"type":"Polygon","coordinates":[[[83.1511,20.29648],[83.14961,20.29392],[83.14884,20.28918],[83.14831,20.28865],[83.145,20.29077],[83.14129,20.2938],[83.1419,20.29537],[83.14224,20.29691],[83.14227,20.29797],[83.14366,20.30189],[83.14376,20.30267],[83.14509,20.30517],[83.14641,20.30696],[83.14702,20.30621],[83.14682,20.3049],[83.14892,20.30349],[83.14946,20.30269],[83.14996,20.30098],[83.15105,20.29971],[83.15194,20.29899],[83.1511,20.29648]]]}},{"type":"Feature","bbox":[83.14906,20.29002,83.15339,20.29644],"properties":{"ward":5},"geometry":{"type":"Polygon","coordinates":[[[83.15109,20.29644],[83.15078,20.29341],[83.15339,20.29255],[83.15112,20.29002],[83.14906,20.29056],[83.14963,20.29395],[83.15014,20.29504],[83.15109,20.29644]]]}},{"type":"Feature","bbox":[83.15072,20.28673,83.15483,20.29241],"properties":{"ward":6},"geometry":{"type":"Polygon","coordinates":[[[83.15351,20.28673],[83.15072,20.28789],[83.15158,20.29001],[83.15132,20.29014],[83.15142,20.29031],[83.15331,20.29241],[83.15365,20.29109],[83.15483,20.29024],[83.15441,20.28907],[83.15428,20.28906],[83.15351,20.28673]]]}},{"type":"Feature","bbox":[83.14832,20.2855,83.15376,20.29055],"properties":{"ward":7},"geometry":{"type":"Polygon","coordinates":[[[83.15155,20.28999],[83.15069,20.28789],[83.15351,20.28672],[83.15376,20.28615],[83.1536,20.286],[83.15338,20.28614],[83.15281,20.2855],[83.14832,20.28863],[83.14886,20.28917],[83.14905,20.29055],[83.15155,20.28999]]]}},{"type":"Feature","bbox":[83.15333,20.2856,83.16311,20.29422],"properties":{"ward":8},"geometry":{"type":"Polygon","coordinates":[[[83.15371,20.28628],[83.15352,20.28673],[83.15429,20.28905],[83.15441,20.28905],[83.15487,20.29033],[83.15367,20.29111],[83.15333,20.29241],[83.15482,20.29422],[83.15702,20.29258],[83.1581,20.29223],[83.15896,20.2933],[83.15956,20.29294],[83.15998,20.29193],[83.16079,20.29104],[83.16154,20.29052],[83.16186,20.28992],[83.1617,20.28913],[83.16266,20.2889],[83.16253,20.28856],[83.16311,20.28834],[83.16285,20.28781],[83.16184,20.28754],[83.16013,20.2884],[83.15994,20.28816],[83.15817,20.28892],[83.15809,20.28877],[83.15737,20.289],[83.15732,20.28914],[83.15717,20.28905],[83.15624,20.28931],[83.15617,20.28912],[83.15592,20.28917],[83.15448,20.2856],[83.15371,20.28628]]]}},{"type":"Feature","bbox":[83.15475,20.28239,83.16518,20.2893],"properties":{"ward":9},"geometry":{"type":"Polygon","coordinates":[[[83.15765,20.28404],[83.15475,20.2862],[83.15593,20.28917],[83.15618,20.28911],[83.15624,20.2893],[83.15717,20.28905],[83.15732,20.28914],[83.15737,20.289],[83.1581,20.28877],[83.15817,20.28892],[83.15994,20.28816],[83.16014,20.28839],[83.16185,20.28753],[83.16286,20.28779],[83.16323,20.28829],[83.16382,20.28777],[83.16369,20.28775],[83.16353,20.28633],[83.16365,20.28529],[83.16411,20.2851],[83.16498,20.28397],[83.16518,20.28239],[83.1641,20.28251],[83.16142,20.28342],[83.15966,20.28376],[83.1598,20.28443],[83.15798,20.28478],[83.15765,20.28404]]]}},{"type":"Feature","bbox":[83.15282,20.27502,83.16524,20.28619],"properties":{"ward":10},"geometry":{"type":"Polygon","coordinates":[[[83.15448,20.28559],[83.15474,20.28619],[83.15764,20.28404],[83.15798,20.28478],[83.15979,20.28443],[83.15965,20.28376],[83.16143,20.28341],[83.16409,20.2825],[83.16518,20.28238],[83.16524,20.27928],[83.16454,20.27529],[83.1643,20.27502],[83.16166,20.27874],[83.1585,20.28136],[83.15753,20.28018],[83.1562,20.28062],[83.15491,20.28183],[83.15468,20.2822],[83.15446,20.28339],[83.15475,20.28407],[83.15282,20.28549],[83.15338,20.28613],[83.1536,20.28599],[83.15376,20.28614],[83.15448,20.28559]]]}},{"type":"Feature","bbox":[83.14925,20.27351,83.16429,20.28343],"properties":{"ward":11},"geometry":{"type":"Polygon","coordinates":[[[83.15017,20.28201],[83.1514,20.2824],[83.1519,20.28313],[83.15222,20.28316],[83.15245,20.28343],[83.15369,20.28241],[83.15444,20.28338],[83.15472,20.28205],[83.15548,20.28119],[83.15637,20.28049],[83.15758,20.28016],[83.15849,20.28133],[83.16046,20.27981],[83.16218,20.27812],[83.1631,20.27695],[83.16429,20.275],[83.16358,20.27436],[83.16265,20.27409],[83.15605,20.27351],[83.14925,20.2766],[83.1496,20.27849],[83.15001,20.27953],[83.15017,20.28201]]]}},{"type":"Feature","bbox":[83.14888,20.28242,83.15471,20.28718],"properties":{"ward":12},"geometry":{"type":"Polygon","coordinates":[[[83.15091,20.28316],[83.14888,20.28412],[83.14951,20.28564],[83.15053,20.28718],[83.15471,20.28407],[83.15443,20.28337],[83.15369,20.28242],[83.15245,20.28346],[83.1522,20.28318],[83.15091,20.28316]]]}},{"type":"Feature","bbox":[83.14619,20.27661,83.15188,20.28862],"properties":{"ward":13},"geometry":{"type":"Polygon","coordinates":[[[83.14886,20.2841],[83.15068,20.28318],[83.15188,20.28312],[83.1514,20.2824],[83.15017,20.28201],[83.15,20.27955],[83.14959,20.27848],[83.14924,20.27661],[83.14619,20.278],[83.14649,20.27819],[83.14688,20.27909],[83.14739,20.27956],[83.14801,20.28216],[83.14801,20.2829],[83.14882,20.28409],[83.14955,20.28578],[83.14989,20.28627],[83.14892,20.28671],[83.149,20.2869],[83.14811,20.28716],[83.14831,20.28862],[83.15049,20.28719],[83.14953,20.28568],[83.14886,20.2841]]]}},{"type":"Feature","bbox":[83.14236,20.27801,83.14988,20.28882],"properties":{"ward":14},"geometry":{"type":"Polygon","coordinates":[[[83.14253,20.28454],[83.14262,20.28546],[83.14236,20.28575],[83.14653,20.28787],[83.14806,20.28882],[83.1483,20.28863],[83.14811,20.28716],[83.149,20.2869],[83.14892,20.28671],[83.14988,20.28626],[83.14882,20.28409],[83.14801,20.2829],[83.14801,20.28216],[83.14739,20.27956],[83.14688,20.27909],[83.14648,20.27817],[83.14618,20.27801],[83.14477,20.27892],[83.14449,20.28007],[83.14452,20.28147],[83.14366,20.28205],[83.14331,20.2826],[83.14298,20.2843],[83.14253,20.28454]]]}},{"type":"Feature","bbox":[83.13831,20.28575,83.14803,20.2938],"properties":{"ward":15},"geometry":{"type":"Polygon","coordinates":[[[83.13831,20.29116],[83.13877,20.29204],[83.14007,20.2928],[83.14127,20.2938],[83.14495,20.29077],[83.14803,20.28883],[83.14236,20.28575],[83.14234,20.28621],[83.14204,20.28658],[83.14193,20.28752],[83.14166,20.28798],[83.14051,20.28887],[83.14017,20.28968],[83.13969,20.29032],[83.13902,20.29051],[83.13831,20.29116]]]}}]}