{"type":"FeatureCollection","features":[{"type":"Feature","bbox":[84.56365,19.376,84.57571,19.38816],"properties":{"ward":1},"geometry":{"type":"Polygon","coordinates":[[[84.56715,19.37845],[84.56365,19.37926],[84.56492,19.38668],[84.56572,19.38816],[84.56857,19.38686],[84.57006,19.38727],[84.57149,19.38554],[84.57326,19.38297],[84.57567,19.38187],[84.57571,19.38163],[84.57376,19.37899],[84.57246,19.376],[84.56715,19.37845]]]}},{"type":"Feature","bbox":[84.52982,19.34899,84.57086,19.38818],"properties":{"ward":2},"geometry":{"type":"Polygon","coordinates":[[[84.56572,19.38818],[84.56488,19.38665],[84.56368,19.37928],[84.56711,19.37845],[84.56931,19.37739],[84.56788,19.3748],[84.56745,19.37456],[84.56728,19.37312],[84.56857,19.37268],[84.56855,19.37231],[84.56928,19.37202],[84.57052,19.37184],[84.57026,19.37074],[84.57086,19.37042],[84.56988,19.36915],[84.56896,19.36724],[84.56768,19.36724],[84.56677,19.36744],[84.56723,19.36259],[84.5676,19.36065],[84.56707,19.35862],[84.56642,19.3583],[84.56616,19.35838],[84.56578,19.35888],[84.56477,19.36104],[84.56439,19.36144],[84.56335,19.36184],[84.56276,19.36192],[84.56207,19.3618],[84.56121,19.36144],[84.56096,19.36092],[84.56093,19.36038],[84.56134,19.3587],[84.56267,19.35721],[84.56832,19.35419],[84.57005,19.35188],[84.57026,19.35062],[84.57015,19.35004],[84.56973,19.34963],[84.569,19.34938],[84.56659,19.34899],[84.56447,19.3492],[84.56341,19.3495],[84.56233,19.35055],[84.56081,19.35124],[84.55976,19.35128],[84.55876,19.35109],[84.55867,19.3516],[84.55882,19.35309],[84.55916,19.3545],[84.55902,19.35584],[84.55924,19.35636],[84.55987,19.35705],[84.56008,19.35762],[84.55993,19.35848],[84.5603,19.36045],[84.56011,19.36156],[84.55989,19.36187],[84.55962,19.36195],[84.55696,19.36143],[84.55584,19.361],[84.55575,19.3608],[84.55595,19.35979],[84.55681,19.35885],[84.55704,19.35765],[84.55697,19.35713],[84.55594,19.35655],[84.55199,19.35609],[84.54797,19.35432],[84.54845,19.35405],[84.5489,19.35237],[84.54812,19.35098],[84.53852,19.34929],[84.53592,19.35429],[84.52982,19.36137],[84.53392,19.36343],[84.53529,19.3669],[84.53552,19.36893],[84.53724,19.36794],[84.54084,19.36886],[84.54314,19.36901],[84.54472,19.3678],[84.54584,19.36523],[84.54728,19.36351],[84.54789,19.36243],[84.54809,19.3612],[84.54737,19.36091],[84.54674,19.35949],[84.54674,19.35721],[84.5492,19.3595],[84.54992,19.36101],[84.54886,19.36294],[84.54729,19.36498],[84.54616,19.36712],[84.54783,19.36745],[84.55001,19.36684],[84.5519,19.36775],[84.55119,19.36922],[84.54956,19.37035],[84.54821,19.3724],[84.54854,19.3745],[84.54984,19.37502],[84.54979,19.37611],[84.54956,19.37687],[84.55316,19.37811],[84.55541,19.38238],[84.55424,19.38577],[84.55288,19.38507],[84.55039,19.38524],[84.54951,19.38604],[84.55091,19.38709],[84.56202,19.38575],[84.56572,19.38818]]]}},{"type":"Feature","bbox":[84.56677,19.36106,84.59864,19.3704],"properties":{"ward":3},"geometry":{"type":"Polygon","coordinates":[[[84.59732,19.36395],[84.59864,19.36448],[84.59845,19.36106],[84.56734,19.36265],[84.56677,19.36741],[84.56903,19.36722],[84.56987,19.36911],[84.57083,19.3704],[84.57205,19.37028],[84.57197,19.3688],[84.57353,19.36864],[84.57605,19.36793],[84.5795,19.36667],[84.58258,19.36607],[84.59195,19.36518],[84.59533,19.36421],[84.59732,19.36395]]]}},{"type":"Feature","bbox":[84.57027,19.37027,84.57329,19.37183],"properties":{"ward":4},"geometry":{"type":"Polygon","coordinates":[[[84.57329,19.37057],[84.57235,19.37049],[84.57206,19.37027],[84.57086,19.37041],[84.57027,19.37075],[84.57052,19.37183],[84.57195,19.37162],[84.57206,19.37098],[84.57313,19.37075],[84.57329,19.37057]]]}},{"type":"Feature","bbox":[84.57197,19.36396,84.59881,19.37101],"properties":{"ward":5},"geometry":{"type":"Polygon","coordinates":[[[84.59865,19.36449],[84.59734,19.36396],[84.5954,19.36419],[84.59207,19.36511],[84.58265,19.36604],[84.57927,19.36676],[84.57587,19.36799],[84.5735,19.36863],[84.57197,19.3688],[84.57204,19.37024],[84.57235,19.3705],[84.57327,19.37057],[84.57369,19.37101],[84.57498,19.37083],[84.5764,19.36959],[84.58075,19.36806],[84.58713,19.36735],[84.59232,19.36708],[84.59881,19.36832],[84.59865,19.36449]]]}},{"type":"Feature","bbox":[84.57195,19.37058,84.57436,19.37176],"properties":{"ward":6},"geometry":{"type":"Polygon","coordinates":[[[84.57436,19.37176],[84.57423,19.37145],[84.57329,19.37058],[84.57316,19.37074],[84.57204,19.37098],[84.57195,19.37158],[84.57403,19.3715],[84.57436,19.37176]]]}},{"type":"Feature","bbox":[84.56855,19.37163,84.57194,19.37282],"properties":{"ward":7},"geometry":{"type":"Polygon","coordinates":[[[84.56928,19.37202],[84.56855,19.37231],[84.56857,19.3727],[84.57102,19.37248],[84.57129,19.37276],[84.57186,19.37282],[84.57178,19.37228],[84.57194,19.37163],[84.56928,19.37202]]]}},{"type":"Feature","bbox":[84.5743,19.36707,84.59886,19.37241],"properties":{"ward":8},"geometry":{"type":"Polygon","coordinates":[[[84.5988,19.36832],[84.5923,19.36707],[84.58581,19.36744],[84.58073,19.36807],[84.57901,19.3686],[84.57889,19.36943],[84.57579,19.37099],[84.57502,19.37166],[84.5743,19.37172],[84.57437,19.37241],[84.57495,19.37234],[84.5753,19.3717],[84.58009,19.37009],[84.58498,19.36948],[84.58806,19.36944],[84.58985,19.36886],[84.59225,19.36835],[84.59559,19.36847],[84.59649,19.36882],[84.59886,19.36934],[84.5988,19.36832]]]}},{"type":"Feature","bbox":[84.5744,19.37139,84.58025,19.37379],"properties":{"ward":9},"geometry":{"type":"Polygon","coordinates":[[[84.57479,19.37379],[84.58025,19.37139],[84.57923,19.3714],[84.5759,19.3723],[84.5744,19.37242],[84.5744,19.37352],[84.57479,19.37379]]]}},{"type":"Feature","bbox":[84.57256,19.36832,84.60124,19.38766],"properties":{"ward":10},"geometry":{"type":"Polygon","coordinates":[[[84.58991,19.36883],[84.58024,19.37139],[84.5806,19.37219],[84.57992,19.37205],[84.57803,19.3723],[84.5748,19.3738],[84.57516,19.37473],[84.57256,19.37603],[84.5738,19.37895],[84.57543,19.38106],[84.57571,19.38188],[84.57847,19.38292],[84.57935,19.3864],[84.58075,19.38744],[84.58219,19.38766],[84.58321,19.38759],[84.58357,19.38699],[84.5828,19.38194],[84.58338,19.38135],[84.5833,19.37942],[84.58431,19.37822],[84.59262,19.37721],[84.59273,19.37864],[84.59491,19.37876],[84.59746,19.37732],[84.59846,19.37725],[84.59993,19.37748],[84.60094,19.37818],[84.60124,19.37762],[84.60118,19.37643],[84.60041,19.374],[84.6003,19.37019],[84.59893,19.36931],[84.5965,19.36883],[84.59564,19.36847],[84.59235,19.36832],[84.58991,19.36883]]]}},{"type":"Feature","bbox":[84.56728,19.37204,84.57481,19.37486],"properties":{"ward":11},"geometry":{"type":"Polygon","coordinates":[[[84.57439,19.37237],[84.57426,19.37212],[84.57368,19.37204],[84.57183,19.37208],[84.57186,19.37282],[84.57127,19.37276],[84.57122,19.37376],[84.57126,19.37272],[84.57103,19.37248],[84.56868,19.37266],[84.56728,19.37317],[84.56743,19.37443],[84.56789,19.37482],[84.56837,19.37486],[84.56933,19.37471],[84.56999,19.37419],[84.57034,19.37484],[84.57219,19.37473],[84.5722,19.37447],[84.5728,19.37439],[84.57286,19.3741],[84.57398,19.37381],[84.57481,19.37383],[84.57442,19.37356],[84.57439,19.37237]]]}}]}