{"type":"FeatureCollection","features":[{"type":"Feature","bbox":[86.07603,19.90206,86.08878,19.91117],"properties":{"ward":1},"geometry":{"type":"Polygon","coordinates":[[[86.08745,19.91036],[86.08806,19.90889],[86.08846,19.90834],[86.08878,19.90826],[86.08781,19.90633],[86.08773,19.90607],[86.08808,19.90583],[86.08811,19.90554],[86.08796,19.90521],[86.08796,19.90447],[86.08731,19.90336],[86.08644,19.9034],[86.08377,19.90237],[86.08297,19.90248],[86.08166,19.90206],[86.0806,19.90221],[86.0803,19.9027],[86.07955,19.9027],[86.0791,19.90245],[86.07704,19.90271],[86.07672,19.90463],[86.07604,19.9056],[86.07603,19.90629],[86.07891,19.90919],[86.08005,19.91064],[86.08077,19.91117],[86.0815,19.911],[86.08181,19.91066],[86.08194,19.90974],[86.08298,19.90877],[86.08346,19.9086],[86.08407,19.90861],[86.08467,19.90947],[86.08514,19.91057],[86.08556,19.91098],[86.08684,19.91093],[86.08745,19.91036]]]}},{"type":"Feature","bbox":[86.08745,19.90826,86.09022,19.91337],"properties":{"ward":2},"geometry":{"type":"Polygon","coordinates":[[[86.08878,19.90826],[86.08846,19.90834],[86.08806,19.90889],[86.08745,19.91036],[86.08829,19.91054],[86.0886,19.91089],[86.08871,19.91123],[86.08828,19.91227],[86.08833,19.91278],[86.08863,19.91313],[86.08918,19.91337],[86.08972,19.91331],[86.09022,19.91318],[86.0902,19.9128],[86.08981,19.91151],[86.08917,19.91097],[86.08881,19.90966],[86.08905,19.90928],[86.08878,19.90826]]]}},{"type":"Feature","bbox":[86.08773,19.90359,86.09321,19.91318],"properties":{"ward":3},"geometry":{"type":"Polygon","coordinates":[[[86.09317,19.90483],[86.09321,19.90451],[86.09267,19.90359],[86.0897,19.90406],[86.08946,19.90378],[86.08785,19.90426],[86.08811,19.90554],[86.08808,19.90583],[86.08773,19.90607],[86.0888,19.9083],[86.08905,19.90928],[86.08881,19.90966],[86.08917,19.91097],[86.08958,19.91123],[86.08995,19.91176],[86.09022,19.91318],[86.0913,19.91304],[86.09142,19.91287],[86.0909,19.91033],[86.09122,19.90941],[86.09195,19.90861],[86.09208,19.90775],[86.09168,19.90608],[86.09175,19.90482],[86.09212,19.90436],[86.09273,19.90442],[86.09317,19.90483]]]}},{"type":"Feature","bbox":[86.08899,19.89518,86.10501,19.90686],"properties":{"ward":4},"geometry":{"type":"Polygon","coordinates":[[[86.09653,19.9056],[86.09708,19.90544],[86.09816,19.90578],[86.09835,19.90562],[86.09829,19.90498],[86.09842,19.9047],[86.09867,19.90464],[86.09951,19.9054],[86.09962,19.90615],[86.09992,19.90638],[86.10083,19.90656],[86.10235,19.90588],[86.10271,19.90583],[86.10306,19.90599],[86.10501,19.90329],[86.10318,19.90096],[86.09748,19.89656],[86.09705,19.89648],[86.09638,19.89678],[86.09561,19.89675],[86.09549,19.89787],[86.09474,19.898],[86.09368,19.89704],[86.0927,19.89642],[86.09178,19.8962],[86.09093,19.89633],[86.09013,19.89617],[86.08933,19.89518],[86.08899,19.89701],[86.08931,19.89847],[86.09024,19.90022],[86.09084,19.90093],[86.09072,19.90139],[86.0919,19.90208],[86.0919,19.90249],[86.09228,19.90344],[86.09242,19.90365],[86.09267,19.90359],[86.09299,19.90402],[86.09321,19.90451],[86.09317,19.90483],[86.09392,19.90639],[86.09446,19.90679],[86.0953,19.90686],[86.09598,19.90666],[86.09623,19.90589],[86.09653,19.9056]]]}},{"type":"Feature","bbox":[86.09774,19.8954,86.11162,19.91017],"properties":{"ward":5},"geometry":{"type":"Polygon","coordinates":[[[86.09851,19.8954],[86.09774,19.89685],[86.10318,19.90096],[86.10501,19.90329],[86.10306,19.90599],[86.10337,19.90635],[86.10402,19.90779],[86.10492,19.90875],[86.10546,19.90907],[86.10582,19.91017],[86.10601,19.90982],[86.10608,19.90885],[86.10772,19.90852],[86.10809,19.90794],[86.10828,19.90725],[86.10895,19.90634],[86.11011,19.90577],[86.11162,19.9055],[86.10956,19.90351],[86.10378,19.89875],[86.09851,19.8954]]]}},{"type":"Feature","bbox":[86.11001,19.89812,86.11283,19.9055],"properties":{"ward":6},"geometry":{"type":"Polygon","coordinates":[[[86.11099,19.89812],[86.11015,19.89943],[86.11001,19.90168],[86.11079,19.90244],[86.11049,19.90441],[86.11169,19.9055],[86.11261,19.90436],[86.11261,19.90401],[86.11202,19.90326],[86.11196,19.90274],[86.11283,19.90079],[86.11283,19.90027],[86.11212,19.89917],[86.11099,19.89812]]]}},{"type":"Feature","bbox":[86.09845,19.89145,86.11099,19.90441],"properties":{"ward":7},"geometry":{"type":"Polygon","coordinates":[[[86.11099,19.89812],[86.11044,19.89732],[86.11015,19.89645],[86.11017,19.89568],[86.10079,19.89145],[86.09845,19.89536],[86.10378,19.89875],[86.11049,19.90441],[86.11079,19.90244],[86.11001,19.90168],[86.11001,19.90106],[86.11015,19.89943],[86.11099,19.89812]]]}},{"type":"Feature","bbox":[86.10067,19.86577,86.12954,19.89568],"properties":{"ward":8},"geometry":{"type":"Polygon","coordinates":[[[86.11357,19.86577],[86.11258,19.86811],[86.10067,19.89139],[86.11017,19.89568],[86.1112,19.89433],[86.11176,19.89301],[86.11192,19.88905],[86.11177,19.88634],[86.11215,19.88467],[86.11301,19.88336],[86.1146,19.88153],[86.11576,19.88056],[86.11643,19.88051],[86.11795,19.88075],[86.11856,19.88059],[86.12148,19.87889],[86.12287,19.87884],[86.12463,19.87914],[86.12566,19.87904],[86.12705,19.87859],[86.129,19.87732],[86.12954,19.87489],[86.12919,19.86975],[86.11357,19.86577]]]}},{"type":"Feature","bbox":[86.0885,19.86062,86.11357,19.898],"properties":{"ward":9},"geometry":{"type":"Polygon","coordinates":[[[86.09561,19.89675],[86.09638,19.89678],[86.09705,19.89648],[86.09777,19.89679],[86.09845,19.89536],[86.10079,19.89145],[86.10067,19.89139],[86.11258,19.86811],[86.11357,19.86577],[86.09379,19.86062],[86.09367,19.86116],[86.09393,19.86478],[86.09369,19.86501],[86.09315,19.86501],[86.09152,19.86407],[86.08868,19.86337],[86.0885,19.86739],[86.08915,19.87394],[86.09036,19.88159],[86.09175,19.88738],[86.09106,19.88919],[86.09246,19.88947],[86.09228,19.89082],[86.09161,19.89129],[86.09203,19.8937],[86.09236,19.89451],[86.09194,19.89483],[86.09178,19.8962],[86.0927,19.89642],[86.09368,19.89704],[86.09474,19.898],[86.09549,19.89787],[86.09561,19.89675]]]}},{"type":"Feature","bbox":[86.06302,19.86054,86.09246,19.90426],"properties":{"ward":10},"geometry":{"type":"Polygon","coordinates":[[[86.06302,19.86392],[86.06432,19.86439],[86.07186,19.86796],[86.07592,19.87052],[86.07825,19.87321],[86.08296,19.88125],[86.08296,19.88322],[86.08232,19.88669],[86.0793,19.89117],[86.07901,19.89283],[86.07987,19.89502],[86.08027,19.89659],[86.07987,19.89708],[86.07739,19.89794],[86.07723,19.89817],[86.07835,19.89993],[86.07834,19.90062],[86.07717,19.90228],[86.07704,19.90271],[86.0791,19.90245],[86.07955,19.9027],[86.0803,19.9027],[86.0806,19.90221],[86.08166,19.90206],[86.08297,19.90248],[86.08377,19.90237],[86.08644,19.9034],[86.08731,19.90336],[86.08785,19.90426],[86.08946,19.90378],[86.0897,19.90406],[86.09242,19.90365],[86.0919,19.90249],[86.0919,19.90208],[86.09072,19.90139],[86.09084,19.90093],[86.09024,19.90022],[86.08931,19.89847],[86.08899,19.89701],[86.08933,19.89518],[86.09013,19.89617],[86.09093,19.89633],[86.09178,19.89623],[86.09194,19.89483],[86.09236,19.89451],[86.09203,19.8937],[86.09161,19.89129],[86.09228,19.89082],[86.09246,19.88947],[86.09106,19.88919],[86.09175,19.88738],[86.09036,19.88159],[86.08915,19.87394],[86.0885,19.86739],[86.08868,19.86337],[86.08698,19.86328],[86.08534,19.86367],[86.08413,19.86372],[86.07815,19.86246],[86.07343,19.86115],[86.0718,19.86085],[86.06768,19.86054],[86.0678,19.86093],[86.06706,19.86173],[86.06302,19.86392]]]}},{"type":"Feature","bbox":[86.06565,19.87552,86.08296,19.90122],"properties":{"ward":11},"geometry":{"type":"Polygon","coordinates":[[[86.0796,19.87552],[86.06565,19.89631],[86.06693,19.8958],[86.06712,19.89598],[86.0671,19.8969],[86.06807,19.8969],[86.06838,19.89714],[86.06806,19.89794],[86.06593,19.89953],[86.06628,19.90011],[86.06742,19.90122],[86.06802,19.90122],[86.06839,19.90105],[86.0706,19.89894],[86.07096,19.89883],[86.07138,19.89923],[86.07175,19.89933],[86.07497,19.89806],[86.07667,19.8979],[86.07723,19.89817],[86.07739,19.89794],[86.07987,19.89708],[86.08027,19.89659],[86.07987,19.89502],[86.07901,19.89283],[86.0793,19.89117],[86.08232,19.88669],[86.08296,19.88322],[86.08296,19.88125],[86.0796,19.87552]]]}},{"type":"Feature","bbox":[86.05078,19.87149,86.0796,19.9111],"properties":{"ward":12},"geometry":{"type":"Polygon","coordinates":[[[86.06565,19.89631],[86.0796,19.87552],[86.07825,19.87321],[86.07676,19.87149],[86.05078,19.90378],[86.05324,19.90651],[86.05287,19.90737],[86.05194,19.90811],[86.05176,19.90868],[86.05241,19.90978],[86.05331,19.91088],[86.05422,19.91049],[86.05458,19.91083],[86.05449,19.9111],[86.05489,19.91078],[86.05708,19.90976],[86.05934,19.90817],[86.05973,19.90807],[86.05905,19.90696],[86.05741,19.90677],[86.05756,19.90528],[86.05648,19.90394],[86.0563,19.90342],[86.05637,19.90285],[86.05662,19.90239],[86.0576,19.90165],[86.05966,19.90098],[86.06162,19.89996],[86.06188,19.89846],[86.06426,19.89693],[86.06565,19.89631]]]}},{"type":"Feature","bbox":[86.04111,19.86392,86.07676,19.90378],"properties":{"ward":13},"geometry":{"type":"Polygon","coordinates":[[[86.07676,19.87149],[86.07592,19.87052],[86.07186,19.86796],[86.06432,19.86439],[86.06302,19.86392],[86.06115,19.86496],[86.05994,19.86536],[86.05252,19.86702],[86.0521,19.8673],[86.05062,19.86907],[86.0494,19.87027],[86.04836,19.87107],[86.04482,19.87317],[86.04207,19.87516],[86.04111,19.87563],[86.04132,19.87728],[86.04415,19.88444],[86.04463,19.88502],[86.04559,19.88555],[86.04751,19.88712],[86.04953,19.89117],[86.0506,19.89273],[86.05078,19.89342],[86.05077,19.89428],[86.04914,19.90201],[86.04971,19.90239],[86.05078,19.90378],[86.07676,19.87149]]]}}]}