{"type":"FeatureCollection","features":[{"type":"Feature","bbox":[86.32816,20.85223,86.33788,20.8594],"properties":{"ward":1},"geometry":{"type":"Polygon","coordinates":[[[86.33433,20.85911],[86.33603,20.85903],[86.3368,20.8594],[86.33742,20.85865],[86.33778,20.85801],[86.33788,20.85708],[86.33719,20.85594],[86.33678,20.85591],[86.33722,20.8543],[86.33425,20.85394],[86.33073,20.85311],[86.3282,20.85223],[86.32816,20.85404],[86.32932,20.85468],[86.33068,20.85608],[86.33148,20.85664],[86.33211,20.85688],[86.33392,20.85701],[86.33433,20.85911]]]}},{"type":"Feature","bbox":[86.33678,20.84926,86.34203,20.85669],"properties":{"ward":2},"geometry":{"type":"Polygon","coordinates":[[[86.33767,20.85669],[86.33799,20.85636],[86.34116,20.85447],[86.34024,20.85322],[86.34013,20.85232],[86.34119,20.85226],[86.34203,20.85245],[86.34175,20.85132],[86.34056,20.84926],[86.33764,20.85003],[86.33725,20.85195],[86.33718,20.85462],[86.33678,20.85591],[86.33719,20.85594],[86.33767,20.85669]]]}},{"type":"Feature","bbox":[86.34013,20.84861,86.3461,20.85447],"properties":{"ward":3},"geometry":{"type":"Polygon","coordinates":[[[86.34116,20.85447],[86.343,20.85315],[86.34456,20.85246],[86.3461,20.85133],[86.34571,20.85074],[86.34494,20.84861],[86.34364,20.84887],[86.34232,20.84878],[86.34056,20.84926],[86.34175,20.85132],[86.34203,20.85245],[86.34119,20.85226],[86.34013,20.85232],[86.34024,20.85322],[86.34116,20.85447]]]}},{"type":"Feature","bbox":[86.34479,20.84544,86.35415,20.85133],"properties":{"ward":4},"geometry":{"type":"Polygon","coordinates":[[[86.3523,20.84937],[86.35415,20.84878],[86.35415,20.84688],[86.3535,20.8455],[86.34789,20.84544],[86.34743,20.84591],[86.34776,20.84679],[86.34708,20.84698],[86.34643,20.84778],[86.34479,20.84826],[86.34571,20.85074],[86.3461,20.85133],[86.34729,20.8507],[86.34894,20.85027],[86.34971,20.84986],[86.3523,20.84937]]]}},{"type":"Feature","bbox":[86.34743,20.8394,86.36365,20.84878],"properties":{"ward":5},"geometry":{"type":"Polygon","coordinates":[[[86.35415,20.84878],[86.35509,20.84856],[86.35696,20.84847],[86.35826,20.84806],[86.36365,20.84789],[86.36276,20.84561],[86.3616,20.84353],[86.36109,20.84283],[86.3576,20.83952],[86.35625,20.8394],[86.35001,20.84068],[86.34743,20.84055],[86.34887,20.84398],[86.34887,20.84421],[86.34837,20.84462],[86.34821,20.84537],[86.35012,20.84555],[86.3535,20.8455],[86.35415,20.84688],[86.35415,20.84878]]]}},{"type":"Feature","bbox":[86.34038,20.84051,86.34887,20.84887],"properties":{"ward":6},"geometry":{"type":"Polygon","coordinates":[[[86.34161,20.84631],[86.34232,20.84878],[86.34364,20.84887],[86.34494,20.84861],[86.34479,20.84826],[86.34643,20.84778],[86.34708,20.84698],[86.34776,20.84679],[86.34743,20.84591],[86.34765,20.84556],[86.34821,20.84537],[86.34837,20.84462],[86.34887,20.8441],[86.34741,20.84051],[86.34522,20.84126],[86.34319,20.84273],[86.34038,20.84298],[86.34082,20.84448],[86.34155,20.84462],[86.34168,20.84492],[86.34161,20.84631]]]}},{"type":"Feature","bbox":[86.33029,20.84375,86.34232,20.85034],"properties":{"ward":7},"geometry":{"type":"Polygon","coordinates":[[[86.3352,20.8501],[86.33763,20.85011],[86.34232,20.84878],[86.34166,20.84666],[86.34168,20.84492],[86.34155,20.84462],[86.34082,20.84448],[86.34012,20.84479],[86.3391,20.84498],[86.33706,20.84507],[86.33687,20.84449],[86.3308,20.84375],[86.33115,20.84812],[86.33046,20.84846],[86.33029,20.84967],[86.33245,20.84977],[86.33289,20.84994],[86.33298,20.85034],[86.3352,20.8501]]]}},{"type":"Feature","bbox":[86.32696,20.84977,86.33429,20.85395],"properties":{"ward":8},"geometry":{"type":"Polygon","coordinates":[[[86.33022,20.85011],[86.32727,20.84977],[86.32727,20.85093],[86.32696,20.8517],[86.32718,20.852],[86.32817,20.8522],[86.33073,20.85311],[86.33429,20.85395],[86.33426,20.85305],[86.33357,20.85259],[86.33333,20.85214],[86.33283,20.85212],[86.3332,20.8507],[86.33113,20.85068],[86.33022,20.85011]]]}},{"type":"Feature","bbox":[86.33022,20.84967,86.33763,20.8543],"properties":{"ward":9},"geometry":{"type":"Polygon","coordinates":[[[86.33429,20.85395],[86.33722,20.8543],[86.33725,20.85195],[86.33763,20.85011],[86.33541,20.85008],[86.33298,20.85034],[86.33289,20.84994],[86.33245,20.84977],[86.33029,20.84967],[86.33022,20.85011],[86.33113,20.85068],[86.3332,20.8507],[86.33283,20.85212],[86.33333,20.85214],[86.33357,20.85259],[86.33426,20.85305],[86.33429,20.85395]]]}},{"type":"Feature","bbox":[86.32557,20.84272,86.33115,20.85011],"properties":{"ward":10},"geometry":{"type":"Polygon","coordinates":[[[86.32731,20.84971],[86.33022,20.85011],[86.33046,20.84846],[86.33115,20.84812],[86.3308,20.84375],[86.3282,20.84363],[86.32592,20.84272],[86.32557,20.84389],[86.32621,20.84622],[86.32642,20.84775],[86.32637,20.84902],[86.32731,20.84971]]]}},{"type":"Feature","bbox":[86.32117,20.84275,86.3282,20.85404],"properties":{"ward":11},"geometry":{"type":"Polygon","coordinates":[[[86.32364,20.84284],[86.32238,20.84275],[86.32186,20.84362],[86.32119,20.84422],[86.32125,20.84456],[86.32164,20.84487],[86.32117,20.84579],[86.32138,20.84983],[86.32402,20.84994],[86.32421,20.85166],[86.32457,20.85218],[86.32535,20.85246],[86.32751,20.8538],[86.32816,20.85404],[86.3282,20.85223],[86.32724,20.85203],[86.32696,20.8517],[86.32721,20.85125],[86.32731,20.84971],[86.32455,20.84795],[86.32151,20.84559],[86.32212,20.84451],[86.32204,20.84371],[86.32319,20.84356],[86.32364,20.84284]]]}},{"type":"Feature","bbox":[86.32151,20.84272,86.32642,20.84902],"properties":{"ward":12},"geometry":{"type":"Polygon","coordinates":[[[86.32204,20.84371],[86.32212,20.84451],[86.32151,20.84559],[86.32455,20.84795],[86.32637,20.84902],[86.32642,20.84775],[86.32621,20.84622],[86.32557,20.84389],[86.32592,20.84272],[86.32364,20.84284],[86.32319,20.84356],[86.32204,20.84371]]]}},{"type":"Feature","bbox":[86.31428,20.82582,86.32897,20.84362],"properties":{"ward":13},"geometry":{"type":"Polygon","coordinates":[[[86.32186,20.84362],[86.32238,20.84275],[86.32453,20.84283],[86.32486,20.84269],[86.32592,20.84272],[86.32531,20.842],[86.32833,20.83943],[86.32846,20.83851],[86.32897,20.83833],[86.32798,20.83515],[86.32751,20.83053],[86.32655,20.82813],[86.32572,20.82708],[86.32418,20.82817],[86.32413,20.8285],[86.32358,20.82858],[86.32119,20.8281],[86.31902,20.82692],[86.31815,20.82582],[86.31642,20.82606],[86.31428,20.82878],[86.31503,20.83116],[86.31526,20.83111],[86.31541,20.83079],[86.31614,20.83067],[86.31624,20.83126],[86.31598,20.83157],[86.31588,20.83222],[86.3165,20.83327],[86.31784,20.83291],[86.3181,20.83309],[86.31827,20.83396],[86.31779,20.83503],[86.31774,20.83592],[86.31739,20.83663],[86.31726,20.83738],[86.31761,20.83795],[86.3177,20.83848],[86.31889,20.83814],[86.32065,20.83988],[86.32075,20.84072],[86.32186,20.84362]]]}},{"type":"Feature","bbox":[86.32531,20.82271,86.33699,20.84366],"properties":{"ward":14},"geometry":{"type":"Polygon","coordinates":[[[86.33522,20.82581],[86.33648,20.8235],[86.33497,20.82285],[86.33462,20.82299],[86.33413,20.82289],[86.33238,20.82386],[86.33196,20.82381],[86.33079,20.82311],[86.32973,20.82271],[86.32887,20.82277],[86.3284,20.82295],[86.32784,20.82384],[86.32804,20.82412],[86.32668,20.82607],[86.32572,20.82708],[86.32655,20.82813],[86.32751,20.83053],[86.32798,20.83515],[86.32897,20.83833],[86.32846,20.83851],[86.32833,20.83943],[86.32531,20.842],[86.32592,20.84272],[86.32855,20.84366],[86.32974,20.84308],[86.33147,20.84268],[86.33442,20.84107],[86.33634,20.84057],[86.33624,20.84011],[86.33481,20.83993],[86.33464,20.83923],[86.33467,20.83818],[86.33496,20.83712],[86.33671,20.83707],[86.33699,20.83673],[86.33698,20.83523],[86.33539,20.83491],[86.33198,20.83277],[86.33199,20.83191],[86.33259,20.82965],[86.3343,20.82692],[86.33522,20.82581]]]}},{"type":"Feature","bbox":[86.32855,20.83752,86.3576,20.84507],"properties":{"ward":15},"geometry":{"type":"Polygon","coordinates":[[[86.35076,20.83771],[86.33983,20.83903],[86.3393,20.83905],[86.33868,20.8388],[86.33793,20.83932],[86.33651,20.83961],[86.33624,20.84011],[86.33634,20.84057],[86.33442,20.84107],[86.33147,20.84268],[86.32974,20.84308],[86.32855,20.84366],[86.33018,20.84367],[86.33687,20.84449],[86.33706,20.84507],[86.3391,20.84498],[86.34012,20.84479],[86.34082,20.84448],[86.34038,20.84298],[86.34319,20.84273],[86.34522,20.84126],[86.3474,20.84051],[86.35001,20.84068],[86.35625,20.8394],[86.3576,20.83952],[86.35535,20.83817],[86.35377,20.83752],[86.35076,20.83771]]]}},{"type":"Feature","bbox":[86.34012,20.82816,86.35248,20.83707],"properties":{"ward":16},"geometry":{"type":"Polygon","coordinates":[[[86.34394,20.83707],[86.34773,20.83675],[86.35064,20.83547],[86.35031,20.83493],[86.35085,20.83356],[86.35218,20.83228],[86.35248,20.83122],[86.35204,20.83026],[86.35198,20.82967],[86.35137,20.82982],[86.3499,20.83075],[86.34899,20.83105],[86.34791,20.83113],[86.34758,20.83048],[86.34594,20.8284],[86.34462,20.82816],[86.3431,20.82845],[86.34278,20.82965],[86.34307,20.83058],[86.34231,20.83122],[86.34089,20.83073],[86.34073,20.83129],[86.34059,20.83131],[86.34079,20.83266],[86.34012,20.83281],[86.34072,20.83484],[86.34178,20.83596],[86.3435,20.83694],[86.34394,20.83707]]]}},{"type":"Feature","bbox":[86.33198,20.8235,86.34173,20.83707],"properties":{"ward":17},"geometry":{"type":"Polygon","coordinates":[[[86.33671,20.83707],[86.33884,20.83633],[86.34019,20.83668],[86.34173,20.83591],[86.34072,20.83484],[86.34012,20.83281],[86.34079,20.83266],[86.34059,20.83131],[86.34073,20.83129],[86.34089,20.83073],[86.33961,20.8305],[86.33895,20.82964],[86.33714,20.8295],[86.3367,20.82839],[86.33815,20.82774],[86.33849,20.82705],[86.33802,20.82626],[86.3368,20.82711],[86.337,20.8261],[86.3369,20.82486],[86.33673,20.82368],[86.33648,20.8235],[86.33522,20.82581],[86.3343,20.82692],[86.33259,20.82965],[86.33199,20.83191],[86.33198,20.83277],[86.33539,20.83491],[86.33698,20.83523],[86.33699,20.83673],[86.33671,20.83707]]]}},{"type":"Feature","bbox":[86.33464,20.83547,86.35092,20.84011],"properties":{"ward":18},"geometry":{"type":"Polygon","coordinates":[[[86.3399,20.83668],[86.33884,20.83633],[86.33707,20.83701],[86.33496,20.83712],[86.33467,20.83818],[86.33464,20.83923],[86.33481,20.83993],[86.33624,20.84011],[86.33651,20.83961],[86.33793,20.83932],[86.33868,20.8388],[86.33937,20.83906],[86.3436,20.83866],[86.35084,20.8377],[86.35092,20.8373],[86.35064,20.83547],[86.34773,20.83675],[86.34394,20.83707],[86.34313,20.83677],[86.34173,20.83591],[86.34065,20.83653],[86.3399,20.83668]]]}}]}