{"type":"FeatureCollection","features":[{"type":"Feature","bbox":[84.5773,22.18789,84.58427,22.19587],"properties":{"ward":1},"geometry":{"type":"Polygon","coordinates":[[[84.58427,22.19168],[84.58396,22.18976],[84.58191,22.18952],[84.58316,22.18844],[84.57958,22.18789],[84.5773,22.19268],[84.57895,22.19299],[84.57895,22.19587],[84.58109,22.19579],[84.58167,22.19483],[84.5823,22.19447],[84.58352,22.19177],[84.58427,22.19168]]]}},{"type":"Feature","bbox":[84.58404,22.18941,84.58729,22.19209],"properties":{"ward":2},"geometry":{"type":"Polygon","coordinates":[[[84.58404,22.18971],[84.58422,22.19176],[84.58475,22.19209],[84.5855,22.192],[84.58566,22.19062],[84.58591,22.19026],[84.58684,22.19033],[84.58729,22.19019],[84.58676,22.18968],[84.58599,22.18952],[84.58454,22.18941],[84.58404,22.18971]]]}},{"type":"Feature","bbox":[84.57959,22.18538,84.58682,22.18978],"properties":{"ward":3},"geometry":{"type":"Polygon","coordinates":[[[84.57959,22.18789],[84.58316,22.18844],[84.58191,22.18952],[84.58397,22.18978],[84.58454,22.18941],[84.58498,22.1894],[84.58542,22.18809],[84.58675,22.18857],[84.58682,22.18811],[84.5806,22.18538],[84.58029,22.18653],[84.57959,22.18789]]]}},{"type":"Feature","bbox":[84.58498,22.18809,84.58901,22.19345],"properties":{"ward":4},"geometry":{"type":"MultiPolygon","coordinates":[[[[84.58541,22.1934],[84.58843,22.19311],[84.58842,22.19217],[84.58901,22.19077],[84.58901,22.18981],[84.58888,22.18944],[84.58826,22.18873],[84.58682,22.18811],[84.58675,22.18857],[84.58542,22.18809],[84.58498,22.1894],[84.58676,22.18968],[84.58731,22.19018],[84.58672,22.19034],[84.58591,22.19025],[84.58569,22.19052],[84.58541,22.1934]]],[[[84.58541,22.1934],[84.58543,22.19344],[84.58576,22.19345],[84.58541,22.1934]]]]}},{"type":"Feature","bbox":[84.58084,22.19311,84.5896,22.19678],"properties":{"ward":5},"geometry":{"type":"Polygon","coordinates":[[[84.58522,22.1938],[84.58501,22.19561],[84.58387,22.19557],[84.58279,22.19532],[84.58132,22.19538],[84.58084,22.19668],[84.5835,22.19655],[84.58491,22.19664],[84.58487,22.19678],[84.5896,22.19621],[84.58842,22.19311],[84.58543,22.19344],[84.58522,22.1938]]]}},{"type":"Feature","bbox":[84.58678,22.18303,84.59889,22.19176],"properties":{"ward":6},"geometry":{"type":"Polygon","coordinates":[[[84.58678,22.18529],[84.58708,22.1866],[84.5868,22.18718],[84.58682,22.18811],[84.59434,22.19176],[84.59451,22.19082],[84.59496,22.18981],[84.59473,22.18892],[84.59768,22.18822],[84.59816,22.18798],[84.5982,22.18744],[84.59889,22.18716],[84.59603,22.18683],[84.59448,22.185],[84.59193,22.18403],[84.59063,22.18377],[84.58933,22.18306],[84.58799,22.18303],[84.58678,22.18529]]]}},{"type":"Feature","bbox":[84.56995,22.1749,84.58815,22.18498],"properties":{"ward":7},"geometry":{"type":"Polygon","coordinates":[[[84.56998,22.17707],[84.56995,22.17738],[84.57045,22.17887],[84.57026,22.17969],[84.57053,22.18016],[84.57474,22.18253],[84.57664,22.18332],[84.57976,22.18498],[84.5803,22.18398],[84.58099,22.18208],[84.58677,22.18331],[84.58799,22.18303],[84.58815,22.18184],[84.58673,22.17938],[84.58217,22.17764],[84.58118,22.17614],[84.57973,22.1749],[84.57385,22.17686],[84.57176,22.17678],[84.56998,22.17707]]]}},{"type":"Feature","bbox":[84.56824,22.19615,84.57559,22.20631],"properties":{"ward":8},"geometry":{"type":"Polygon","coordinates":[[[84.57024,22.19615],[84.56938,22.19756],[84.56949,22.19861],[84.56885,22.19975],[84.56876,22.20022],[84.5695,22.20149],[84.56928,22.20238],[84.56824,22.2042],[84.56871,22.20631],[84.57001,22.20451],[84.57326,22.20201],[84.57559,22.1968],[84.57376,22.19625],[84.57154,22.1963],[84.57024,22.19615]]]}},{"type":"Feature","bbox":[84.59028,22.19736,84.59504,22.20095],"properties":{"ward":9},"geometry":{"type":"Polygon","coordinates":[[[84.59028,22.19807],[84.59051,22.19858],[84.59082,22.20095],[84.59504,22.20069],[84.59475,22.1997],[84.59439,22.19935],[84.59423,22.19878],[84.59397,22.19876],[84.59367,22.19736],[84.59028,22.19807]]]}},{"type":"Feature","bbox":[84.59923,22.19329,84.62875,22.21926],"properties":{"ward":10},"geometry":{"type":"Polygon","coordinates":[[[84.61178,22.19483],[84.61045,22.19329],[84.61028,22.19381],[84.61061,22.19559],[84.60985,22.19757],[84.60794,22.1973],[84.6064,22.20118],[84.60605,22.20161],[84.59969,22.20496],[84.59944,22.20527],[84.59926,22.20567],[84.59923,22.20801],[84.59924,22.21123],[84.5994,22.2118],[84.59981,22.21246],[84.60218,22.21324],[84.60306,22.21389],[84.60322,22.21457],[84.60297,22.21546],[84.60333,22.21568],[84.6148,22.21843],[84.61844,22.21861],[84.62023,22.21894],[84.62471,22.21926],[84.62548,22.21871],[84.62614,22.2168],[84.62625,22.21541],[84.6286,22.21286],[84.62875,22.21213],[84.62846,22.2113],[84.62736,22.21101],[84.62559,22.20994],[84.62135,22.20633],[84.62079,22.20568],[84.62037,22.20465],[84.6188,22.2029],[84.61558,22.20031],[84.61492,22.20014],[84.61385,22.19914],[84.61445,22.19762],[84.61236,22.19589],[84.61178,22.19483]]]}},{"type":"Feature","bbox":[84.56872,22.20154,84.59387,22.21191],"properties":{"ward":11},"geometry":{"type":"Polygon","coordinates":[[[84.57356,22.20154],[84.57328,22.20202],[84.57002,22.20452],[84.56872,22.20632],[84.57123,22.20664],[84.5728,22.20649],[84.57647,22.20798],[84.5771,22.20931],[84.58104,22.20994],[84.58275,22.20985],[84.58539,22.2102],[84.58685,22.20997],[84.58803,22.2103],[84.58845,22.211],[84.58844,22.21146],[84.59113,22.21153],[84.59365,22.21191],[84.59387,22.21137],[84.592,22.20911],[84.59179,22.20868],[84.59148,22.20677],[84.58865,22.20664],[84.58802,22.20517],[84.58485,22.20451],[84.58008,22.20427],[84.57945,22.20444],[84.57878,22.20671],[84.57667,22.20651],[84.57604,22.20555],[84.57601,22.20256],[84.57356,22.20154]]]}},{"type":"Feature","bbox":[84.58831,22.18875,84.59274,22.19373],"properties":{"ward":12},"geometry":{"type":"Polygon","coordinates":[[[84.58831,22.18875],[84.58889,22.18944],[84.58905,22.18993],[84.58902,22.19075],[84.58842,22.19217],[84.58838,22.19284],[84.58855,22.19347],[84.59216,22.19373],[84.59235,22.19259],[84.59246,22.1926],[84.59274,22.19184],[84.5927,22.19095],[84.58831,22.18875]]]}},{"type":"Feature","bbox":[84.59172,22.19437,84.60793,22.21544],"properties":{"ward":13},"geometry":{"type":"Polygon","coordinates":[[[84.59463,22.19743],[84.59367,22.19736],[84.59398,22.19876],[84.59423,22.19878],[84.59439,22.19934],[84.59475,22.1997],[84.59494,22.20019],[84.59507,22.20233],[84.59624,22.20237],[84.59624,22.20335],[84.59496,22.20353],[84.59512,22.20418],[84.59517,22.2075],[84.59481,22.20782],[84.59476,22.20815],[84.59437,22.20805],[84.59431,22.20765],[84.59377,22.20708],[84.59237,22.20697],[84.59227,22.20675],[84.59172,22.20673],[84.59211,22.20894],[84.59425,22.21143],[84.59421,22.21187],[84.59597,22.2128],[84.59837,22.21439],[84.60294,22.21544],[84.60319,22.21456],[84.60302,22.21393],[84.60255,22.21347],[84.60193,22.21316],[84.59975,22.21249],[84.59936,22.21184],[84.59919,22.21123],[84.59921,22.20567],[84.59963,22.20495],[84.60603,22.20161],[84.60639,22.20116],[84.60793,22.19729],[84.60432,22.19636],[84.60027,22.19461],[84.59931,22.19437],[84.59919,22.19624],[84.59876,22.19866],[84.59463,22.19743]]]}},{"type":"Feature","bbox":[84.5859,22.21146,84.59831,22.21839],"properties":{"ward":14},"geometry":{"type":"Polygon","coordinates":[[[84.59113,22.21153],[84.58843,22.21146],[84.58842,22.21191],[84.58627,22.21207],[84.5859,22.21285],[84.58604,22.21368],[84.58738,22.21433],[84.58919,22.21549],[84.59094,22.21722],[84.59285,22.2183],[84.59333,22.21839],[84.59392,22.21794],[84.59521,22.21632],[84.59598,22.21571],[84.59784,22.21449],[84.59831,22.21459],[84.59536,22.21257],[84.59393,22.21196],[84.59113,22.21153]]]}},{"type":"Feature","bbox":[84.59435,22.18716,84.6106,22.19755],"properties":{"ward":15},"geometry":{"type":"Polygon","coordinates":[[[84.60254,22.18804],[84.59889,22.18716],[84.59821,22.18744],[84.59816,22.18798],[84.59768,22.18822],[84.59473,22.18892],[84.59496,22.1898],[84.59452,22.19081],[84.59435,22.19176],[84.59932,22.19434],[84.60027,22.19459],[84.60376,22.19615],[84.60737,22.19714],[84.60983,22.19755],[84.6106,22.19558],[84.61027,22.19382],[84.61043,22.19328],[84.60706,22.1897],[84.60562,22.18906],[84.60454,22.18885],[84.60254,22.18804]]]}},{"type":"Feature","bbox":[84.58133,22.19176,84.5855,22.19561],"properties":{"ward":16},"geometry":{"type":"Polygon","coordinates":[[[84.58352,22.19177],[84.58231,22.19447],[84.58168,22.19484],[84.58133,22.19538],[84.58279,22.19532],[84.58387,22.19557],[84.58501,22.19561],[84.58522,22.19379],[84.58542,22.19344],[84.5855,22.192],[84.58474,22.19209],[84.58422,22.19176],[84.58352,22.19177]]]}},{"type":"Feature","bbox":[84.57976,22.18208,84.58799,22.1881],"properties":{"ward":17},"geometry":{"type":"Polygon","coordinates":[[[84.58677,22.18331],[84.58099,22.18208],[84.5803,22.18399],[84.57976,22.18498],[84.58682,22.1881],[84.5868,22.18718],[84.58708,22.1866],[84.58678,22.18529],[84.58799,22.18303],[84.58677,22.18331]]]}},{"type":"Feature","bbox":[84.57015,22.18111,84.5806,22.1968],"properties":{"ward":18},"geometry":{"type":"Polygon","coordinates":[[[84.57474,22.18253],[84.57222,22.18111],[84.57184,22.18498],[84.57114,22.18606],[84.57163,22.18875],[84.57141,22.18939],[84.5716,22.19209],[84.57096,22.1952],[84.57015,22.19614],[84.5715,22.19629],[84.57376,22.19625],[84.5756,22.1968],[84.57782,22.1914],[84.58029,22.18653],[84.5806,22.18538],[84.57664,22.18332],[84.57474,22.18253]]]}},{"type":"Feature","bbox":[84.58855,22.19096,84.59763,22.19621],"properties":{"ward":19},"geometry":{"type":"Polygon","coordinates":[[[84.59271,22.19096],[84.59275,22.19185],[84.59246,22.1926],[84.59235,22.19259],[84.59216,22.19374],[84.58855,22.19347],[84.5896,22.19621],[84.59315,22.19502],[84.59373,22.19497],[84.59697,22.19541],[84.59763,22.19337],[84.59271,22.19096]]]}},{"type":"Feature","bbox":[84.58961,22.19337,84.5993,22.19864],"properties":{"ward":20},"geometry":{"type":"Polygon","coordinates":[[[84.59211,22.19534],[84.58961,22.19621],[84.59026,22.19806],[84.59378,22.19733],[84.59509,22.19754],[84.59876,22.19864],[84.59917,22.19626],[84.5993,22.19435],[84.59764,22.19337],[84.59697,22.19541],[84.59373,22.19497],[84.59211,22.19534]]]}}]}