{"type":"FeatureCollection","features":[{"type":"Feature","bbox":[82.90968,20.47081,82.91996,20.47746],"properties":{"ward":1},"geometry":{"type":"Polygon","coordinates":[[[82.91095,20.47451],[82.91242,20.47654],[82.9127,20.47644],[82.91433,20.47668],[82.91629,20.47727],[82.91628,20.47746],[82.91743,20.47742],[82.91839,20.47697],[82.91889,20.477],[82.91996,20.47658],[82.91656,20.476],[82.91173,20.47081],[82.91023,20.47186],[82.90968,20.47243],[82.91051,20.47319],[82.91095,20.47451]]]}},{"type":"Feature","bbox":[82.9118,20.46936,82.91736,20.4757],"properties":{"ward":2},"geometry":{"type":"Polygon","coordinates":[[[82.91352,20.46936],[82.9118,20.47077],[82.91658,20.4757],[82.91736,20.47523],[82.91616,20.47368],[82.9164,20.47267],[82.9155,20.47183],[82.91352,20.46936]]]}},{"type":"Feature","bbox":[82.9118,20.46936,82.91736,20.4757],"properties":{"ward":3},"geometry":{"type":"Polygon","coordinates":[[[82.91352,20.46936],[82.9118,20.47077],[82.91658,20.4757],[82.91736,20.47523],[82.91616,20.47368],[82.9164,20.47267],[82.9155,20.47183],[82.91352,20.46936]]]}},{"type":"Feature","bbox":[82.91594,20.46758,82.92211,20.47675],"properties":{"ward":4},"geometry":{"type":"Polygon","coordinates":[[[82.91747,20.47524],[82.91667,20.47588],[82.92177,20.47675],[82.92211,20.47529],[82.92163,20.47476],[82.92136,20.47349],[82.92116,20.47084],[82.92039,20.46953],[82.9196,20.46758],[82.91594,20.46907],[82.91642,20.47047],[82.91755,20.47238],[82.91649,20.47267],[82.91629,20.47361],[82.91747,20.47524]]]}},{"type":"Feature","bbox":[82.92032,20.46797,82.92695,20.4773],"properties":{"ward":5},"geometry":{"type":"Polygon","coordinates":[[[82.92225,20.4753],[82.92203,20.47673],[82.92503,20.4773],[82.92695,20.47626],[82.92634,20.47326],[82.92626,20.47176],[82.92485,20.46797],[82.92383,20.46797],[82.92032,20.46912],[82.92136,20.47077],[82.92152,20.47352],[82.92173,20.47461],[82.92225,20.4753]]]}},{"type":"Feature","bbox":[82.9242,20.46673,82.92978,20.47623],"properties":{"ward":6},"geometry":{"type":"Polygon","coordinates":[[[82.92639,20.47178],[82.92704,20.47623],[82.92741,20.47602],[82.92872,20.47463],[82.92928,20.47273],[82.92973,20.47211],[82.92978,20.4691],[82.92956,20.46706],[82.92665,20.46734],[82.92566,20.46727],[82.9242,20.46673],[82.92534,20.46891],[82.92639,20.47178]]]}},{"type":"Feature","bbox":[82.92024,20.46131,82.92978,20.4673],"properties":{"ward":7},"geometry":{"type":"Polygon","coordinates":[[[82.92438,20.46177],[82.92024,20.46431],[82.92049,20.46462],[82.92255,20.46452],[82.92296,20.46469],[82.92328,20.46518],[82.92395,20.46506],[82.92448,20.46522],[82.92412,20.46662],[82.92536,20.46711],[82.92667,20.4673],[82.92976,20.46703],[82.92978,20.46522],[82.9296,20.46456],[82.92887,20.46327],[82.92811,20.46243],[82.92669,20.46131],[82.92557,20.46165],[82.92508,20.4614],[82.92458,20.46143],[82.92438,20.46177]]]}},{"type":"Feature","bbox":[82.91911,20.46627,82.92483,20.46906],"properties":{"ward":8},"geometry":{"type":"Polygon","coordinates":[[[82.91911,20.46723],[82.91929,20.46763],[82.91962,20.46752],[82.92028,20.46906],[82.9238,20.4679],[82.92483,20.46791],[82.92407,20.46672],[82.92303,20.46686],[82.92255,20.46631],[82.92209,20.46627],[82.92099,20.46642],[82.91911,20.46723]]]}},{"type":"Feature","bbox":[82.91862,20.46433,82.92444,20.4672],"properties":{"ward":9},"geometry":{"type":"Polygon","coordinates":[[[82.91862,20.46606],[82.91911,20.4672],[82.92097,20.46639],[82.92175,20.46621],[82.92263,20.46623],[82.923,20.46675],[82.92403,20.46664],[82.92444,20.46523],[82.92398,20.4651],[82.92328,20.46521],[82.92293,20.46471],[82.92255,20.46454],[82.92046,20.46465],[82.92019,20.46433],[82.91988,20.46461],[82.9201,20.46559],[82.91881,20.46587],[82.91862,20.46606]]]}},{"type":"Feature","bbox":[82.91356,20.46465,82.92005,20.46971],"properties":{"ward":10},"geometry":{"type":"Polygon","coordinates":[[[82.91394,20.46971],[82.91926,20.46763],[82.91856,20.46608],[82.91896,20.46576],[82.92005,20.46555],[82.91978,20.46465],[82.91713,20.4663],[82.91407,20.46874],[82.91356,20.46923],[82.91394,20.46971]]]}},{"type":"Feature","bbox":[82.91898,20.46136,82.92423,20.46454],"properties":{"ward":11},"geometry":{"type":"Polygon","coordinates":[[[82.91981,20.46454],[82.92423,20.46173],[82.92303,20.46136],[82.92202,20.46178],[82.92041,20.46189],[82.91904,20.46232],[82.91898,20.4628],[82.91915,20.46341],[82.91981,20.46454]]]}},{"type":"Feature","bbox":[82.91516,20.4623,82.91969,20.46623],"properties":{"ward":12},"geometry":{"type":"Polygon","coordinates":[[[82.91708,20.46623],[82.91969,20.46459],[82.91909,20.4635],[82.91889,20.4623],[82.91692,20.46269],[82.91537,20.46272],[82.91516,20.46312],[82.91519,20.46345],[82.91614,20.46426],[82.91708,20.46623]]]}},{"type":"Feature","bbox":[82.91356,20.46441,82.91704,20.46843],"properties":{"ward":13},"geometry":{"type":"Polygon","coordinates":[[[82.91434,20.46843],[82.91704,20.46627],[82.91615,20.46441],[82.91609,20.46458],[82.91522,20.46486],[82.91442,20.46578],[82.9139,20.46604],[82.91356,20.46687],[82.91434,20.46843]]]}},{"type":"Feature","bbox":[82.90293,20.46646,82.91363,20.47639],"properties":{"ward":14},"geometry":{"type":"Polygon","coordinates":[[[82.90305,20.47579],[82.90293,20.47639],[82.90857,20.47133],[82.9131,20.46745],[82.91363,20.46718],[82.91348,20.46682],[82.91316,20.4671],[82.91258,20.4671],[82.91237,20.46703],[82.91212,20.46657],[82.91157,20.46646],[82.91086,20.46663],[82.91011,20.46742],[82.90684,20.46794],[82.90598,20.46859],[82.90539,20.4687],[82.90526,20.46914],[82.90495,20.46933],[82.90479,20.46975],[82.9048,20.4714],[82.90496,20.47214],[82.90305,20.47579]]]}},{"type":"Feature","bbox":[82.90289,20.46721,82.91425,20.47751],"properties":{"ward":15},"geometry":{"type":"Polygon","coordinates":[[[82.91321,20.4695],[82.91425,20.46847],[82.91365,20.46721],[82.91332,20.46732],[82.90289,20.47648],[82.90298,20.47709],[82.90348,20.47751],[82.90371,20.47719],[82.90361,20.4771],[82.91321,20.4695]]]}},{"type":"Feature","bbox":[82.90367,20.47257,82.91235,20.47757],"properties":{"ward":16},"geometry":{"type":"Polygon","coordinates":[[[82.90956,20.47257],[82.90367,20.47709],[82.90473,20.47715],[82.90533,20.47738],[82.90707,20.47737],[82.90725,20.47757],[82.90807,20.47757],[82.90846,20.47743],[82.90884,20.47706],[82.90921,20.477],[82.91075,20.47749],[82.91226,20.4775],[82.91235,20.47662],[82.91106,20.47506],[82.91048,20.47347],[82.90956,20.47257]]]}}]}