{"type":"FeatureCollection","features":[{"type":"Feature","bbox":[85.20248,19.74667,85.21054,19.75385],"properties":{"ward":1},"geometry":{"type":"Polygon","coordinates":[[[85.20382,19.75385],[85.20687,19.7519],[85.20754,19.75263],[85.20906,19.75202],[85.20971,19.75233],[85.21054,19.75233],[85.21019,19.75148],[85.21,19.7513],[85.20966,19.75136],[85.20953,19.75037],[85.20891,19.74842],[85.20887,19.74773],[85.20819,19.74667],[85.20275,19.75055],[85.20273,19.75086],[85.20248,19.75101],[85.20382,19.75385]]]}},{"type":"Feature","bbox":[85.20819,19.74281,85.21775,19.75354],"properties":{"ward":2},"geometry":{"type":"Polygon","coordinates":[[[85.21603,19.75348],[85.21691,19.75354],[85.21716,19.75335],[85.21722,19.7527],[85.21682,19.75215],[85.21709,19.75131],[85.21694,19.75024],[85.21732,19.75015],[85.21731,19.74996],[85.21694,19.7497],[85.21669,19.74926],[85.21577,19.74861],[85.21532,19.74801],[85.2158,19.74752],[85.21615,19.74756],[85.21663,19.74726],[85.21768,19.74707],[85.21775,19.74689],[85.21653,19.74612],[85.21598,19.74533],[85.2155,19.74497],[85.21228,19.74393],[85.21149,19.74329],[85.21116,19.74281],[85.21098,19.74332],[85.21059,19.74364],[85.21036,19.74363],[85.21032,19.74385],[85.21137,19.74404],[85.21155,19.74431],[85.20819,19.74667],[85.20887,19.74773],[85.20891,19.74842],[85.20953,19.75037],[85.20966,19.75136],[85.21,19.7513],[85.21019,19.75148],[85.21053,19.7513],[85.21115,19.75128],[85.21257,19.75163],[85.21377,19.75158],[85.21365,19.75196],[85.21397,19.7521],[85.21441,19.75204],[85.21495,19.7523],[85.21537,19.75227],[85.216,19.75315],[85.21603,19.75348]]]}},{"type":"Feature","bbox":[85.20502,19.73432,85.21116,19.74448],"properties":{"ward":3},"geometry":{"type":"Polygon","coordinates":[[[85.20502,19.73617],[85.20851,19.74448],[85.21034,19.74386],[85.21036,19.74363],[85.21059,19.74364],[85.21098,19.74332],[85.21116,19.74281],[85.2099,19.73838],[85.2097,19.73671],[85.20906,19.73459],[85.20873,19.73463],[85.20841,19.73432],[85.20759,19.73452],[85.20755,19.73487],[85.20771,19.73513],[85.2068,19.73525],[85.20676,19.73575],[85.20502,19.73617]]]}},{"type":"Feature","bbox":[85.2057,19.74389,85.21155,19.74778],"properties":{"ward":4},"geometry":{"type":"Polygon","coordinates":[[[85.2106,19.74389],[85.20912,19.74419],[85.2077,19.74476],[85.20689,19.74548],[85.2057,19.74598],[85.20661,19.74778],[85.21155,19.74431],[85.21137,19.74404],[85.2106,19.74389]]]}},{"type":"Feature","bbox":[85.19649,19.73617,85.20851,19.74633],"properties":{"ward":5},"geometry":{"type":"Polygon","coordinates":[[[85.20454,19.74633],[85.20645,19.74574],[85.2077,19.74476],[85.20851,19.74448],[85.20502,19.73617],[85.20374,19.73658],[85.20308,19.73712],[85.20194,19.73768],[85.2003,19.73805],[85.20024,19.7379],[85.19932,19.73809],[85.19907,19.73797],[85.19851,19.73827],[85.19789,19.73764],[85.19649,19.7378],[85.19878,19.74291],[85.19908,19.74309],[85.19938,19.74382],[85.19985,19.74369],[85.20018,19.7433],[85.2018,19.74292],[85.20235,19.74264],[85.20278,19.743],[85.20286,19.74328],[85.20361,19.74371],[85.20429,19.74608],[85.20454,19.74633]]]}},{"type":"Feature","bbox":[85.19878,19.74264,85.20453,19.7477],"properties":{"ward":6},"geometry":{"type":"Polygon","coordinates":[[[85.20453,19.74632],[85.2041,19.7457],[85.20361,19.74371],[85.20286,19.74328],[85.20278,19.743],[85.20235,19.74264],[85.2018,19.74292],[85.20018,19.7433],[85.19985,19.74369],[85.19938,19.74382],[85.19908,19.74309],[85.19878,19.74291],[85.20092,19.7477],[85.20453,19.74632]]]}},{"type":"Feature","bbox":[85.20092,19.74597,85.20661,19.74918],"properties":{"ward":7},"geometry":{"type":"Polygon","coordinates":[[[85.20453,19.74632],[85.20092,19.7477],[85.20153,19.74904],[85.20255,19.74847],[85.2033,19.74835],[85.20344,19.74851],[85.20405,19.74843],[85.20457,19.74918],[85.20661,19.74778],[85.20569,19.74597],[85.20497,19.74631],[85.20453,19.74632]]]}},{"type":"Feature","bbox":[85.19207,19.7378,85.20134,19.74914],"properties":{"ward":8},"geometry":{"type":"Polygon","coordinates":[[[85.20134,19.74863],[85.19649,19.7378],[85.19464,19.73815],[85.19399,19.73857],[85.19253,19.73885],[85.19214,19.73913],[85.19207,19.73935],[85.19235,19.74],[85.19214,19.74036],[85.1921,19.74093],[85.19267,19.7423],[85.19855,19.74907],[85.19925,19.74914],[85.20075,19.74892],[85.20134,19.74863]]]}},{"type":"Feature","bbox":[85.18918,19.7423,85.20457,19.7554],"properties":{"ward":9},"geometry":{"type":"Polygon","coordinates":[[[85.19576,19.75532],[85.20157,19.75132],[85.20265,19.75093],[85.20275,19.75055],[85.20457,19.74918],[85.20405,19.74843],[85.20344,19.74851],[85.2033,19.74835],[85.20255,19.74847],[85.20153,19.74904],[85.20134,19.74863],[85.20012,19.74905],[85.19855,19.74907],[85.19267,19.7423],[85.19165,19.74265],[85.19105,19.74311],[85.19121,19.7439],[85.19144,19.74388],[85.192,19.74697],[85.19082,19.74756],[85.19069,19.74782],[85.19084,19.74836],[85.19052,19.74831],[85.19036,19.74811],[85.19005,19.74842],[85.18918,19.74835],[85.18935,19.74926],[85.18976,19.74912],[85.19011,19.7501],[85.19034,19.75031],[85.19062,19.75012],[85.19157,19.75019],[85.19155,19.74979],[85.19172,19.74971],[85.19282,19.7497],[85.19267,19.74998],[85.19291,19.75128],[85.19307,19.75126],[85.1932,19.75199],[85.19279,19.75218],[85.1932,19.75285],[85.1933,19.75334],[85.19379,19.75394],[85.19397,19.75482],[85.19474,19.75486],[85.1948,19.75515],[85.19525,19.7554],[85.19576,19.75532]]]}},{"type":"Feature","bbox":[85.19849,19.75103,85.20719,19.76135],"properties":{"ward":10},"geometry":{"type":"Polygon","coordinates":[[[85.2031,19.76115],[85.20649,19.76018],[85.20677,19.76113],[85.20719,19.7611],[85.20249,19.75103],[85.20157,19.75132],[85.19849,19.75348],[85.19887,19.75429],[85.19868,19.75483],[85.19895,19.75624],[85.19883,19.75661],[85.19901,19.75724],[85.1989,19.7574],[85.19916,19.75803],[85.19943,19.75989],[85.19999,19.76119],[85.20077,19.76106],[85.20137,19.76071],[85.2013,19.76021],[85.20236,19.7599],[85.20255,19.76033],[85.20245,19.76111],[85.20289,19.76135],[85.2031,19.76115]]]}},{"type":"Feature","bbox":[85.20382,19.7519,85.21428,19.76291],"properties":{"ward":11},"geometry":{"type":"Polygon","coordinates":[[[85.20382,19.75385],[85.20749,19.76171],[85.20821,19.76226],[85.21167,19.76291],[85.21325,19.76242],[85.21384,19.76203],[85.21428,19.76137],[85.21373,19.76031],[85.21309,19.75973],[85.20901,19.75207],[85.20754,19.75263],[85.20687,19.7519],[85.20382,19.75385]]]}}]}