{"type":"FeatureCollection","features":[{"type":"Feature","bbox":[85.91712,22.69927,85.92869,22.70857],"properties":{"ward":1},"geometry":{"type":"Polygon","coordinates":[[[85.92382,22.70769],[85.92378,22.70695],[85.92297,22.70523],[85.92261,22.70543],[85.92221,22.70498],[85.92505,22.70375],[85.92869,22.70298],[85.92832,22.7015],[85.92288,22.70259],[85.92269,22.70204],[85.92234,22.70183],[85.92064,22.70132],[85.9198,22.70006],[85.91824,22.69986],[85.91798,22.69927],[85.91752,22.69959],[85.91713,22.69994],[85.91712,22.70085],[85.91747,22.70308],[85.91794,22.70487],[85.91826,22.70583],[85.91872,22.70561],[85.91966,22.70745],[85.91971,22.70781],[85.92024,22.70832],[85.92108,22.70857],[85.92382,22.70769]]]}},{"type":"Feature","bbox":[85.92221,22.70158,85.93175,22.70769],"properties":{"ward":2},"geometry":{"type":"Polygon","coordinates":[[[85.92813,22.70671],[85.92903,22.70557],[85.92916,22.70373],[85.93094,22.70311],[85.93078,22.70248],[85.93175,22.70225],[85.93032,22.70158],[85.92853,22.70232],[85.92869,22.70298],[85.92505,22.70375],[85.92221,22.70498],[85.92261,22.70543],[85.92297,22.70523],[85.92378,22.70695],[85.92382,22.70769],[85.92588,22.70703],[85.92813,22.70671]]]}},{"type":"Feature","bbox":[85.92813,22.70057,85.93759,22.71072],"properties":{"ward":3},"geometry":{"type":"Polygon","coordinates":[[[85.93282,22.70057],[85.93047,22.70164],[85.93032,22.70158],[85.93175,22.70225],[85.93078,22.70248],[85.93094,22.70311],[85.92916,22.70373],[85.92903,22.70557],[85.92813,22.70671],[85.92893,22.70669],[85.92913,22.7064],[85.92971,22.70667],[85.93046,22.70667],[85.93133,22.70794],[85.93167,22.70781],[85.93224,22.70808],[85.93255,22.70934],[85.93282,22.70923],[85.93313,22.70985],[85.93343,22.70988],[85.93359,22.71072],[85.93596,22.71007],[85.93623,22.70977],[85.93727,22.70928],[85.93759,22.70876],[85.93696,22.70859],[85.93617,22.70759],[85.93594,22.70754],[85.93578,22.70701],[85.93596,22.70608],[85.93584,22.70552],[85.93605,22.7049],[85.93674,22.705],[85.93686,22.70486],[85.93508,22.7035],[85.93282,22.70057]]]}},{"type":"Feature","bbox":[85.93377,22.70114,85.94175,22.70928],"properties":{"ward":4},"geometry":{"type":"Polygon","coordinates":[[[85.93934,22.70266],[85.93889,22.70319],[85.93832,22.7032],[85.93758,22.70228],[85.93672,22.70246],[85.93635,22.70114],[85.93377,22.70174],[85.93508,22.7035],[85.93686,22.70486],[85.93674,22.705],[85.93605,22.7049],[85.93584,22.70552],[85.93596,22.70608],[85.93578,22.70701],[85.93594,22.70754],[85.93617,22.70759],[85.93696,22.70859],[85.93759,22.70876],[85.93727,22.70928],[85.93754,22.70894],[85.93856,22.70922],[85.93905,22.70875],[85.93989,22.70712],[85.94028,22.70738],[85.9407,22.70695],[85.94101,22.70601],[85.94175,22.70473],[85.94045,22.7026],[85.93934,22.70266]]]}},{"type":"Feature","bbox":[85.93186,22.69685,85.94062,22.7032],"properties":{"ward":5},"geometry":{"type":"Polygon","coordinates":[[[85.93934,22.70266],[85.93939,22.70232],[85.94037,22.70126],[85.94024,22.7012],[85.94023,22.7005],[85.94062,22.70006],[85.94023,22.69937],[85.93928,22.69983],[85.93869,22.69994],[85.93824,22.69885],[85.93796,22.69894],[85.93758,22.69878],[85.93726,22.69783],[85.93455,22.69788],[85.9343,22.69685],[85.93186,22.69699],[85.93201,22.69895],[85.93272,22.69881],[85.93296,22.70048],[85.93282,22.70057],[85.93378,22.70175],[85.93635,22.70114],[85.93672,22.70246],[85.93758,22.70228],[85.93832,22.7032],[85.93889,22.70319],[85.93934,22.70266]]]}},{"type":"Feature","bbox":[85.92937,22.69699,85.93296,22.70164],"properties":{"ward":6},"geometry":{"type":"Polygon","coordinates":[[[85.92937,22.69742],[85.93023,22.70155],[85.93047,22.70164],[85.93296,22.70048],[85.93272,22.69881],[85.93201,22.69895],[85.93186,22.69699],[85.93122,22.69703],[85.93114,22.69749],[85.9308,22.69755],[85.93034,22.6976],[85.93022,22.69719],[85.92937,22.69742]]]}},{"type":"Feature","bbox":[85.92716,22.6983,85.93032,22.70232],"properties":{"ward":7},"geometry":{"type":"Polygon","coordinates":[[[85.92853,22.70232],[85.93032,22.70158],[85.92964,22.69854],[85.92804,22.6988],[85.92764,22.6983],[85.9273,22.69849],[85.9275,22.6991],[85.9274,22.69989],[85.92775,22.70013],[85.92757,22.70079],[85.92716,22.70096],[85.92741,22.70167],[85.92832,22.7015],[85.92853,22.70232]]]}},{"type":"Feature","bbox":[85.91946,22.69707,85.92775,22.70259],"properties":{"ward":8},"geometry":{"type":"Polygon","coordinates":[[[85.92288,22.70259],[85.92741,22.70166],[85.92716,22.70096],[85.92757,22.70079],[85.92775,22.70013],[85.92488,22.69796],[85.9236,22.69858],[85.92367,22.69877],[85.92316,22.69904],[85.92201,22.69928],[85.92178,22.69877],[85.92108,22.69854],[85.9208,22.69707],[85.92015,22.69734],[85.91998,22.69789],[85.92005,22.69929],[85.91946,22.69953],[85.92064,22.70132],[85.92234,22.70183],[85.92269,22.70204],[85.92288,22.70259]]]}},{"type":"Feature","bbox":[85.92353,22.69499,85.92964,22.69989],"properties":{"ward":9},"geometry":{"type":"Polygon","coordinates":[[[85.92964,22.69854],[85.92883,22.69499],[85.92725,22.69551],[85.92716,22.69618],[85.92564,22.69646],[85.9255,22.69631],[85.92448,22.69641],[85.92353,22.69698],[85.9274,22.69989],[85.9275,22.6991],[85.9273,22.69849],[85.92764,22.6983],[85.92804,22.6988],[85.92964,22.69854]]]}},{"type":"Feature","bbox":[85.92862,22.69349,85.93124,22.6976],"properties":{"ward":10},"geometry":{"type":"Polygon","coordinates":[[[85.93114,22.69749],[85.93124,22.69545],[85.93036,22.69355],[85.93003,22.69349],[85.92862,22.69388],[85.92937,22.69742],[85.93022,22.69719],[85.93034,22.6976],[85.93114,22.69749]]]}},{"type":"Feature","bbox":[85.93036,22.69255,85.93715,22.69703],"properties":{"ward":11},"geometry":{"type":"Polygon","coordinates":[[[85.93122,22.69703],[85.93428,22.6969],[85.93403,22.69606],[85.93556,22.69592],[85.93715,22.69531],[85.93675,22.69489],[85.93644,22.69409],[85.93569,22.69326],[85.93431,22.69255],[85.93296,22.69316],[85.93243,22.69308],[85.93189,22.69335],[85.93036,22.69355],[85.93124,22.69545],[85.93122,22.69703]]]}}]}