{"type":"FeatureCollection","features":[{"type":"Feature","bbox":[85.22505,20.94939,85.23979,20.96874],"properties":{"ward":1},"geometry":{"type":"Polygon","coordinates":[[[85.23681,20.96247],[85.23664,20.96138],[85.23675,20.96045],[85.23947,20.9551],[85.23979,20.9531],[85.23908,20.95295],[85.23824,20.95243],[85.23622,20.94939],[85.23518,20.94991],[85.23747,20.95273],[85.23796,20.95342],[85.23789,20.95361],[85.23764,20.95355],[85.23675,20.95394],[85.22505,20.96572],[85.22508,20.9659],[85.22552,20.96702],[85.22697,20.96854],[85.22729,20.96848],[85.22787,20.96874],[85.22801,20.96856],[85.22904,20.9683],[85.22951,20.96864],[85.2299,20.96827],[85.23038,20.96821],[85.23022,20.9679],[85.23111,20.96635],[85.23174,20.96618],[85.23228,20.96538],[85.23283,20.96547],[85.23326,20.96522],[85.23336,20.96503],[85.2331,20.96455],[85.23315,20.96436],[85.23364,20.96429],[85.23413,20.96488],[85.23477,20.96463],[85.23449,20.96422],[85.23402,20.96434],[85.23386,20.96326],[85.23396,20.96313],[85.23374,20.96233],[85.23405,20.96242],[85.23423,20.9623],[85.23438,20.96264],[85.23517,20.96273],[85.23553,20.96242],[85.23601,20.96262],[85.23681,20.96247]]]}},{"type":"Feature","bbox":[85.21846,20.9493,85.23796,20.96572],"properties":{"ward":2},"geometry":{"type":"Polygon","coordinates":[[[85.23796,20.95342],[85.23471,20.9493],[85.23445,20.94947],[85.23484,20.95007],[85.23448,20.95068],[85.23463,20.95095],[85.23365,20.95116],[85.22721,20.95563],[85.22314,20.95779],[85.21846,20.95971],[85.21992,20.96406],[85.22329,20.96561],[85.22505,20.96572],[85.23675,20.95394],[85.23764,20.95355],[85.23789,20.95361],[85.23796,20.95342]]]}},{"type":"Feature","bbox":[85.23451,20.94478,85.24197,20.9531],"properties":{"ward":3},"geometry":{"type":"Polygon","coordinates":[[[85.23979,20.9531],[85.24009,20.95223],[85.24048,20.95185],[85.24131,20.94924],[85.24197,20.94489],[85.2407,20.94478],[85.24054,20.9457],[85.23636,20.94749],[85.23629,20.94769],[85.23451,20.94809],[85.23478,20.94871],[85.2346,20.9488],[85.23487,20.94924],[85.23471,20.9493],[85.23518,20.94991],[85.23622,20.94939],[85.23824,20.95243],[85.23908,20.95295],[85.23979,20.9531]]]}},{"type":"Feature","bbox":[85.23006,20.94892,85.23484,20.9531],"properties":{"ward":4},"geometry":{"type":"Polygon","coordinates":[[[85.23006,20.94898],[85.23099,20.9531],[85.23365,20.95116],[85.23463,20.95095],[85.23448,20.95068],[85.23484,20.95007],[85.23431,20.94929],[85.2335,20.94943],[85.23347,20.9493],[85.23275,20.94925],[85.23041,20.94938],[85.23026,20.94892],[85.23006,20.94898]]]}},{"type":"Feature","bbox":[85.22813,20.94763,85.23487,20.94953],"properties":{"ward":5},"geometry":{"type":"Polygon","coordinates":[[[85.23367,20.94856],[85.23102,20.94825],[85.23014,20.94838],[85.23015,20.94825],[85.22813,20.94892],[85.22841,20.94953],[85.23026,20.94892],[85.23041,20.94938],[85.23275,20.94925],[85.23347,20.9493],[85.2335,20.94943],[85.23431,20.94929],[85.23445,20.94947],[85.23487,20.94924],[85.2346,20.9488],[85.23478,20.94871],[85.23467,20.94828],[85.23402,20.94763],[85.23385,20.94781],[85.23433,20.94832],[85.23367,20.94856]]]}},{"type":"Feature","bbox":[85.22966,20.94262,85.2407,20.9481],"properties":{"ward":6},"geometry":{"type":"Polygon","coordinates":[[[85.23385,20.94781],[85.23402,20.94763],[85.23451,20.94809],[85.23629,20.94769],[85.23636,20.94749],[85.24054,20.9457],[85.2407,20.94478],[85.23397,20.94417],[85.23394,20.94352],[85.23345,20.94352],[85.2332,20.94262],[85.22966,20.94337],[85.23045,20.94681],[85.23059,20.94673],[85.23115,20.94752],[85.2316,20.94772],[85.23359,20.9481],[85.234,20.94798],[85.23385,20.94781]]]}},{"type":"Feature","bbox":[85.23007,20.94752,85.23433,20.9486],"properties":{"ward":7},"geometry":{"type":"Polygon","coordinates":[[[85.23433,20.94832],[85.234,20.94798],[85.23317,20.94805],[85.23115,20.94752],[85.23007,20.94789],[85.23014,20.94838],[85.23102,20.94825],[85.23336,20.9486],[85.23433,20.94832]]]}},{"type":"Feature","bbox":[85.22815,20.94561,85.23115,20.9482],"properties":{"ward":8},"geometry":{"type":"Polygon","coordinates":[[[85.23115,20.94752],[85.23059,20.94673],[85.23045,20.94681],[85.23021,20.94561],[85.22815,20.94622],[85.22826,20.94715],[85.22871,20.9482],[85.23115,20.94752]]]}},{"type":"Feature","bbox":[85.22109,20.9247,85.23021,20.94919],"properties":{"ward":9},"geometry":{"type":"Polygon","coordinates":[[[85.22608,20.94919],[85.22788,20.94844],[85.22813,20.94892],[85.23015,20.94825],[85.23007,20.94789],[85.22871,20.9482],[85.22826,20.94715],[85.22815,20.94622],[85.23021,20.94561],[85.22966,20.94337],[85.22913,20.93268],[85.22847,20.93294],[85.22795,20.93169],[85.22776,20.93153],[85.2275,20.93178],[85.22721,20.9314],[85.22747,20.93075],[85.2274,20.92985],[85.22763,20.92972],[85.2273,20.92877],[85.22819,20.92806],[85.22797,20.92712],[85.22852,20.92674],[85.22854,20.92635],[85.22872,20.92616],[85.22866,20.92564],[85.22855,20.92528],[85.22765,20.92548],[85.22716,20.92509],[85.22585,20.92509],[85.22582,20.92473],[85.22474,20.92487],[85.22414,20.9247],[85.22323,20.92527],[85.22312,20.92489],[85.22273,20.92489],[85.2222,20.92541],[85.22157,20.92558],[85.22109,20.92596],[85.22429,20.93623],[85.22494,20.93746],[85.22583,20.94159],[85.22569,20.94298],[85.22666,20.94478],[85.22664,20.94519],[85.22735,20.94783],[85.22583,20.94861],[85.22608,20.94919]]]}},{"type":"Feature","bbox":[85.2246,20.94844,85.22841,20.95153],"properties":{"ward":10},"geometry":{"type":"Polygon","coordinates":[[[85.22841,20.94953],[85.22788,20.94844],[85.22608,20.94919],[85.22593,20.94901],[85.22478,20.95048],[85.2246,20.95102],[85.22475,20.95153],[85.22699,20.95094],[85.22663,20.95024],[85.22841,20.94953]]]}},{"type":"Feature","bbox":[85.21629,20.94898,85.23099,20.96406],"properties":{"ward":11},"geometry":{"type":"Polygon","coordinates":[[[85.21992,20.96406],[85.21846,20.95971],[85.22314,20.95779],[85.22721,20.95563],[85.23099,20.9531],[85.23006,20.94898],[85.22663,20.95024],[85.22699,20.95094],[85.22475,20.95153],[85.22463,20.95091],[85.22402,20.95057],[85.22203,20.95241],[85.21876,20.95495],[85.21796,20.95625],[85.21758,20.95766],[85.21746,20.95889],[85.21761,20.95892],[85.21722,20.96152],[85.21702,20.96158],[85.21629,20.96346],[85.21709,20.96311],[85.21795,20.9624],[85.21919,20.96364],[85.21992,20.96406]]]}},{"type":"Feature","bbox":[85.2095,20.95093,85.22074,20.96154],"properties":{"ward":12},"geometry":{"type":"Polygon","coordinates":[[[85.21746,20.95889],[85.21796,20.95625],[85.21876,20.95495],[85.22074,20.95334],[85.21988,20.95299],[85.21977,20.95256],[85.2195,20.95256],[85.21946,20.95281],[85.21923,20.95284],[85.21745,20.95273],[85.21746,20.95162],[85.21559,20.95149],[85.21552,20.95132],[85.21506,20.95136],[85.21502,20.95107],[85.21153,20.95137],[85.21146,20.95093],[85.21063,20.95103],[85.21061,20.9512],[85.2095,20.95115],[85.20963,20.95253],[85.21049,20.95487],[85.21121,20.95627],[85.21334,20.9572],[85.21423,20.95801],[85.21715,20.96154],[85.21761,20.95892],[85.21746,20.95889]]]}},{"type":"Feature","bbox":[85.2095,20.94283,85.22735,20.95334],"properties":{"ward":13},"geometry":{"type":"Polygon","coordinates":[[[85.22402,20.95057],[85.22463,20.95091],[85.22497,20.95017],[85.22593,20.94901],[85.22583,20.94861],[85.22735,20.94783],[85.22664,20.94519],[85.22666,20.94478],[85.22636,20.94404],[85.22578,20.9432],[85.22537,20.94329],[85.22024,20.94283],[85.22014,20.9439],[85.21651,20.94489],[85.21639,20.94761],[85.21385,20.94742],[85.21282,20.94837],[85.21195,20.94886],[85.2105,20.94941],[85.21008,20.94941],[85.2095,20.95115],[85.21061,20.9512],[85.21063,20.95103],[85.21146,20.95093],[85.21153,20.95137],[85.21502,20.95107],[85.21506,20.95136],[85.21552,20.95132],[85.21559,20.95149],[85.21746,20.95162],[85.21745,20.95273],[85.21923,20.95284],[85.21946,20.95281],[85.2195,20.95256],[85.21977,20.95256],[85.21988,20.95299],[85.22074,20.95334],[85.22359,20.9511],[85.22402,20.95057]]]}},{"type":"Feature","bbox":[85.20546,20.95084,85.21715,20.96421],"properties":{"ward":14},"geometry":{"type":"Polygon","coordinates":[[[85.21376,20.96336],[85.2157,20.96256],[85.21628,20.96347],[85.21702,20.96158],[85.21715,20.96154],[85.21423,20.95801],[85.21334,20.9572],[85.21121,20.95627],[85.21049,20.95487],[85.20963,20.95253],[85.20946,20.95144],[85.20546,20.95084],[85.20619,20.95299],[85.20696,20.95366],[85.20693,20.95478],[85.20725,20.95566],[85.20875,20.95659],[85.20964,20.95746],[85.21113,20.95801],[85.21163,20.95861],[85.21205,20.96],[85.21061,20.96073],[85.21064,20.96087],[85.21144,20.96209],[85.21213,20.96209],[85.21285,20.96321],[85.21305,20.96421],[85.21387,20.96382],[85.21376,20.96336]]]}},{"type":"Feature","bbox":[85.20539,20.94236,85.22016,20.95144],"properties":{"ward":15},"geometry":{"type":"Polygon","coordinates":[[[85.2115,20.94452],[85.2117,20.94599],[85.20991,20.94523],[85.20913,20.94687],[85.20716,20.94893],[85.20667,20.95003],[85.20539,20.95055],[85.20546,20.95084],[85.20946,20.95144],[85.21008,20.94941],[85.2105,20.94941],[85.21195,20.94886],[85.21282,20.94837],[85.21385,20.94742],[85.21639,20.94761],[85.21651,20.94489],[85.22014,20.9439],[85.22016,20.94236],[85.21537,20.94379],[85.21259,20.94373],[85.2118,20.94397],[85.21181,20.94435],[85.2115,20.94452]]]}},{"type":"Feature","bbox":[85.22913,20.92383,85.24197,20.94489],"properties":{"ward":16},"geometry":{"type":"Polygon","coordinates":[[[85.24197,20.94489],[85.2415,20.94185],[85.24125,20.93678],[85.24063,20.93313],[85.24175,20.93054],[85.24113,20.92707],[85.23881,20.92383],[85.23784,20.92426],[85.23765,20.92408],[85.23735,20.92423],[85.2369,20.92457],[85.23685,20.92503],[85.23553,20.92601],[85.23533,20.92602],[85.23455,20.92518],[85.23423,20.92527],[85.23394,20.92567],[85.2342,20.92615],[85.2336,20.9264],[85.23354,20.92667],[85.23246,20.92734],[85.23164,20.92745],[85.23044,20.92859],[85.23031,20.92852],[85.22956,20.92907],[85.22971,20.92949],[85.23157,20.92891],[85.23241,20.92986],[85.2326,20.931],[85.2307,20.93152],[85.23097,20.93208],[85.22913,20.93268],[85.22966,20.94337],[85.2332,20.94262],[85.23345,20.94352],[85.23394,20.94352],[85.23397,20.94417],[85.24197,20.94489]]]}},{"type":"Feature","bbox":[85.1938,20.943,85.20991,20.95498],"properties":{"ward":17},"geometry":{"type":"Polygon","coordinates":[[[85.20348,20.95312],[85.20611,20.95281],[85.20539,20.95055],[85.20667,20.95003],[85.20716,20.94893],[85.20913,20.94687],[85.20991,20.94523],[85.2048,20.943],[85.20526,20.94371],[85.20531,20.94478],[85.2033,20.94619],[85.19632,20.94881],[85.1938,20.94996],[85.19425,20.95037],[85.19467,20.95132],[85.19503,20.95172],[85.19512,20.9522],[85.19567,20.95221],[85.19574,20.95204],[85.19832,20.95293],[85.19896,20.95374],[85.19931,20.95498],[85.20118,20.9538],[85.20314,20.95337],[85.20348,20.95312]]]}},{"type":"Feature","bbox":[85.18685,20.93161,85.21201,20.95151],"properties":{"ward":18},"geometry":{"type":"Polygon","coordinates":[[[85.2033,20.94619],[85.20531,20.94478],[85.20526,20.94371],[85.2048,20.943],[85.20579,20.94003],[85.20817,20.94082],[85.21144,20.94135],[85.21201,20.93973],[85.212,20.93933],[85.21118,20.93782],[85.20924,20.93328],[85.20743,20.93161],[85.2063,20.93208],[85.20563,20.93206],[85.20485,20.93225],[85.20413,20.93268],[85.20269,20.93314],[85.20231,20.9331],[85.20154,20.93349],[85.20141,20.93332],[85.20057,20.93398],[85.19968,20.93412],[85.19797,20.9349],[85.19716,20.93497],[85.19665,20.93523],[85.19457,20.93567],[85.1975,20.93975],[85.19858,20.9403],[85.1986,20.94096],[85.19917,20.94193],[85.19859,20.94296],[85.1972,20.94441],[85.19139,20.94634],[85.19065,20.94634],[85.18685,20.94571],[85.18736,20.94654],[85.1877,20.94945],[85.188,20.9501],[85.18907,20.95151],[85.19312,20.94887],[85.1938,20.94996],[85.19632,20.94881],[85.2033,20.94619]]]}},{"type":"Feature","bbox":[85.18595,20.93567,85.19917,20.94634],"properties":{"ward":19},"geometry":{"type":"Polygon","coordinates":[[[85.19917,20.94193],[85.1986,20.94096],[85.19858,20.9403],[85.1975,20.93975],[85.19457,20.93567],[85.19255,20.9364],[85.19236,20.9367],[85.19135,20.93714],[85.19037,20.93785],[85.19036,20.93844],[85.19005,20.93899],[85.18989,20.94009],[85.1896,20.94021],[85.18945,20.94049],[85.18838,20.94082],[85.18829,20.94098],[85.18769,20.94104],[85.18745,20.94135],[85.18689,20.94141],[85.18656,20.94122],[85.18603,20.94137],[85.18595,20.94305],[85.18608,20.94358],[85.18635,20.94365],[85.18636,20.94428],[85.18652,20.94437],[85.18685,20.94571],[85.19065,20.94634],[85.19139,20.94634],[85.1972,20.94441],[85.19859,20.94296],[85.19917,20.94193]]]}},{"type":"Feature","bbox":[85.2048,20.93638,85.22583,20.94599],"properties":{"ward":20},"geometry":{"type":"Polygon","coordinates":[[[85.21259,20.94373],[85.21537,20.94379],[85.22016,20.94236],[85.22024,20.94283],[85.22537,20.94329],[85.22578,20.9432],[85.22583,20.94159],[85.22494,20.93746],[85.22437,20.93638],[85.22115,20.93675],[85.22198,20.93823],[85.2209,20.93918],[85.21923,20.93938],[85.21857,20.93857],[85.21688,20.93843],[85.21702,20.94015],[85.2169,20.94044],[85.21547,20.94042],[85.21592,20.94248],[85.21381,20.94157],[85.21272,20.9413],[85.21076,20.94132],[85.20817,20.94082],[85.20579,20.94003],[85.2048,20.943],[85.2117,20.94599],[85.2115,20.94452],[85.21181,20.94435],[85.2118,20.94397],[85.21259,20.94373]]]}},{"type":"Feature","bbox":[85.20759,20.92596,85.22437,20.94248],"properties":{"ward":21},"geometry":{"type":"Polygon","coordinates":[[[85.21592,20.94248],[85.21547,20.94042],[85.2169,20.94044],[85.21702,20.94015],[85.21688,20.93843],[85.21857,20.93857],[85.21923,20.93938],[85.2209,20.93918],[85.22198,20.93823],[85.22115,20.93675],[85.22437,20.93638],[85.22109,20.92596],[85.22037,20.92633],[85.22026,20.92661],[85.22004,20.92672],[85.22009,20.92685],[85.21932,20.9271],[85.21906,20.92703],[85.21858,20.92645],[85.21851,20.92745],[85.21862,20.92772],[85.21822,20.92815],[85.21809,20.92807],[85.21779,20.92829],[85.2175,20.92787],[85.21703,20.92794],[85.21675,20.92768],[85.21618,20.92793],[85.21607,20.92771],[85.21542,20.9279],[85.21531,20.9281],[85.21495,20.92817],[85.21491,20.92834],[85.21447,20.92837],[85.21411,20.92873],[85.21432,20.9291],[85.21422,20.92918],[85.21245,20.92872],[85.21149,20.92932],[85.21115,20.92981],[85.21057,20.93015],[85.21056,20.93034],[85.20951,20.93097],[85.20834,20.93131],[85.20759,20.93184],[85.20924,20.93328],[85.21118,20.93782],[85.212,20.93933],[85.21201,20.93973],[85.21144,20.94134],[85.21272,20.9413],[85.21381,20.94157],[85.21592,20.94248]]]}}]}