{"type":"FeatureCollection","features":[{"type":"Feature","bbox":[85.63759,20.17387,85.65674,20.19179],"properties":{"ward":1},"geometry":{"type":"Polygon","coordinates":[[[85.65035,20.17823],[85.64652,20.17645],[85.64035,20.17734],[85.6413,20.17882],[85.64344,20.18324],[85.6445,20.1859],[85.64082,20.18733],[85.64059,20.18646],[85.63912,20.18659],[85.63914,20.18574],[85.63854,20.18581],[85.63804,20.18605],[85.63759,20.18682],[85.63806,20.18754],[85.63826,20.18824],[85.63791,20.18835],[85.63966,20.18881],[85.64175,20.19023],[85.64279,20.1907],[85.64737,20.19179],[85.64805,20.19047],[85.64856,20.19039],[85.64927,20.19102],[85.64955,20.19019],[85.65027,20.19005],[85.65076,20.19015],[85.65165,20.1899],[85.65154,20.18928],[85.65168,20.18909],[85.652,20.1892],[85.65236,20.18961],[85.65407,20.19008],[85.65423,20.18953],[85.65473,20.18939],[85.65496,20.18905],[85.6562,20.1889],[85.65583,20.18796],[85.65581,20.18724],[85.65617,20.18498],[85.65674,20.18295],[85.65602,20.1821],[85.6554,20.18054],[85.65501,20.18018],[85.65371,20.1771],[85.6536,20.17536],[85.65411,20.1743],[85.65381,20.17387],[85.65264,20.17547],[85.6525,20.17541],[85.65221,20.17599],[85.65165,20.17574],[85.65035,20.17823]]]}},{"type":"Feature","bbox":[85.63912,20.17928,85.6445,20.18733],"properties":{"ward":2},"geometry":{"type":"Polygon","coordinates":[[[85.6406,20.18646],[85.64082,20.18733],[85.6445,20.1859],[85.64344,20.18324],[85.64151,20.17928],[85.64019,20.18004],[85.64036,20.18182],[85.63955,20.18208],[85.63912,20.18659],[85.6406,20.18646]]]}},{"type":"Feature","bbox":[85.6261,20.15289,85.6612,20.18529],"properties":{"ward":3},"geometry":{"type":"Polygon","coordinates":[[[85.65381,20.17387],[85.65242,20.17222],[85.65236,20.16734],[85.65251,20.1669],[85.65563,20.16811],[85.65808,20.16756],[85.66051,20.16632],[85.661,20.16578],[85.6612,20.16441],[85.66099,20.16356],[85.66054,20.16308],[85.66004,20.1631],[85.65958,20.16282],[85.65886,20.16191],[85.65907,20.16089],[85.66079,20.15697],[85.65846,20.15398],[85.65735,20.15343],[85.65363,20.1533],[85.65113,20.15301],[85.64644,20.15289],[85.63832,20.15413],[85.63612,20.15478],[85.6356,20.1548],[85.63443,20.16257],[85.63325,20.16636],[85.63299,20.16782],[85.63288,20.17043],[85.63236,20.1739],[85.63002,20.1745],[85.62792,20.17567],[85.62611,20.17598],[85.6261,20.17645],[85.62625,20.17658],[85.62685,20.17651],[85.62753,20.17784],[85.62855,20.17805],[85.62883,20.17828],[85.62855,20.17854],[85.62872,20.17903],[85.62849,20.17959],[85.62869,20.18043],[85.62848,20.18158],[85.62874,20.18177],[85.62919,20.18347],[85.62966,20.18332],[85.62978,20.18356],[85.63222,20.18306],[85.63281,20.18286],[85.63351,20.18236],[85.63511,20.18189],[85.63529,20.18228],[85.63662,20.18189],[85.63708,20.18285],[85.6374,20.18281],[85.63752,20.18382],[85.63791,20.18435],[85.6386,20.18504],[85.63919,20.18529],[85.63955,20.18208],[85.64036,20.18182],[85.64019,20.18004],[85.64151,20.17928],[85.64095,20.17813],[85.64035,20.17734],[85.64652,20.17645],[85.65035,20.17823],[85.65165,20.17574],[85.65221,20.17599],[85.6525,20.17541],[85.65264,20.17547],[85.65381,20.17387]]]}},{"type":"Feature","bbox":[85.61411,20.15419,85.6356,20.17747],"properties":{"ward":4},"geometry":{"type":"Polygon","coordinates":[[[85.63236,20.1739],[85.63288,20.17043],[85.63299,20.16782],[85.63325,20.16636],[85.63443,20.16257],[85.6356,20.1548],[85.63316,20.15484],[85.62623,20.15428],[85.61958,20.15419],[85.61808,20.15449],[85.61627,20.15578],[85.61436,20.16349],[85.61411,20.16552],[85.61899,20.16943],[85.62106,20.17061],[85.62345,20.17149],[85.62424,20.17747],[85.62584,20.17602],[85.62792,20.17567],[85.63002,20.1745],[85.63236,20.1739]]]}},{"type":"Feature","bbox":[85.61003,20.16552,85.61919,20.17487],"properties":{"ward":5},"geometry":{"type":"Polygon","coordinates":[[[85.61783,20.17487],[85.61919,20.17479],[85.61872,20.17416],[85.61855,20.17327],[85.61832,20.16893],[85.61411,20.16552],[85.61385,20.1665],[85.61003,20.16891],[85.61354,20.17258],[85.61431,20.17369],[85.61783,20.17487]]]}},{"type":"Feature","bbox":[85.61832,20.16893,85.62425,20.17794],"properties":{"ward":6},"geometry":{"type":"Polygon","coordinates":[[[85.62136,20.17794],[85.62425,20.17787],[85.62425,20.17754],[85.62345,20.17149],[85.62037,20.17027],[85.61832,20.16893],[85.61855,20.17327],[85.61872,20.17416],[85.61919,20.17479],[85.61957,20.17573],[85.61982,20.17711],[85.62057,20.17763],[85.62136,20.17794]]]}},{"type":"Feature","bbox":[85.62272,20.17598,85.6289,20.18314],"properties":{"ward":7},"geometry":{"type":"Polygon","coordinates":[[[85.62272,20.18208],[85.62351,20.1822],[85.62406,20.18217],[85.62408,20.18201],[85.62573,20.18196],[85.62636,20.18246],[85.62681,20.18314],[85.6289,20.18245],[85.62874,20.18177],[85.62848,20.18158],[85.62869,20.18043],[85.62849,20.17959],[85.62872,20.17903],[85.62855,20.17854],[85.62883,20.17828],[85.62855,20.17805],[85.62753,20.17784],[85.62685,20.17651],[85.6262,20.17657],[85.62611,20.17598],[85.62584,20.17602],[85.62424,20.17747],[85.62413,20.18141],[85.62284,20.1814],[85.62272,20.18208]]]}},{"type":"Feature","bbox":[85.61439,20.17366,85.62425,20.18243],"properties":{"ward":8},"geometry":{"type":"Polygon","coordinates":[[[85.61439,20.17366],[85.61696,20.17842],[85.61974,20.18243],[85.62052,20.18201],[85.6208,20.18206],[85.62096,20.18239],[85.6219,20.18213],[85.6222,20.18222],[85.62272,20.18208],[85.62284,20.1814],[85.62413,20.18141],[85.62425,20.17787],[85.62218,20.17803],[85.62077,20.17773],[85.61982,20.17711],[85.61957,20.17573],[85.61919,20.17479],[85.61783,20.17487],[85.61439,20.17366]]]}},{"type":"Feature","bbox":[85.60035,20.16872,85.61431,20.18136],"properties":{"ward":9},"geometry":{"type":"Polygon","coordinates":[[[85.6085,20.1695],[85.60777,20.16974],[85.60679,20.16946],[85.60592,20.16883],[85.60541,20.16872],[85.60417,20.16882],[85.60361,20.16909],[85.60265,20.16918],[85.60236,20.17122],[85.60294,20.17452],[85.60263,20.17547],[85.60187,20.1767],[85.60067,20.17935],[85.60035,20.18136],[85.60074,20.18085],[85.60224,20.18036],[85.60323,20.17975],[85.60375,20.17914],[85.60518,20.17929],[85.60853,20.17926],[85.61036,20.1779],[85.612,20.17595],[85.61282,20.17569],[85.61431,20.17369],[85.61354,20.17258],[85.61003,20.16891],[85.60956,20.16884],[85.6085,20.1695]]]}},{"type":"Feature","bbox":[85.60023,20.17569,85.61282,20.19114],"properties":{"ward":10},"geometry":{"type":"Polygon","coordinates":[[[85.60853,20.17926],[85.60518,20.17929],[85.60375,20.17914],[85.60323,20.17975],[85.60224,20.18036],[85.60074,20.18085],[85.60035,20.18136],[85.60023,20.18501],[85.60084,20.18765],[85.60249,20.18958],[85.60337,20.19114],[85.6077,20.18923],[85.61194,20.18801],[85.61151,20.18547],[85.61042,20.18232],[85.61146,20.17789],[85.61282,20.17569],[85.612,20.17595],[85.61047,20.17778],[85.60967,20.17843],[85.60853,20.17926]]]}},{"type":"Feature","bbox":[85.61042,20.17369,85.62039,20.18353],"properties":{"ward":11},"geometry":{"type":"Polygon","coordinates":[[[85.62039,20.1834],[85.61696,20.17842],[85.61431,20.17369],[85.61243,20.17623],[85.61146,20.17789],[85.61042,20.18232],[85.61078,20.18339],[85.61221,20.183],[85.61259,20.18309],[85.61499,20.18258],[85.61548,20.18262],[85.61617,20.18295],[85.61725,20.18298],[85.61737,20.18332],[85.61784,20.18333],[85.61814,20.18353],[85.62039,20.1834]]]}},{"type":"Feature","bbox":[85.61078,20.18258,85.6224,20.18801],"properties":{"ward":12},"geometry":{"type":"Polygon","coordinates":[[[85.62031,20.1834],[85.61814,20.18353],[85.61784,20.18333],[85.61737,20.18332],[85.61725,20.18298],[85.61617,20.18295],[85.61548,20.18262],[85.61499,20.18258],[85.61259,20.18309],[85.61221,20.183],[85.61078,20.18339],[85.61151,20.18547],[85.61194,20.18801],[85.61639,20.18698],[85.62113,20.18674],[85.6224,20.18631],[85.62031,20.1834]]]}},{"type":"Feature","bbox":[85.61974,20.18196,85.62919,20.18475],"properties":{"ward":13},"geometry":{"type":"Polygon","coordinates":[[[85.62514,20.18418],[85.62617,20.18436],[85.62651,20.18407],[85.62765,20.18411],[85.62783,20.18386],[85.62919,20.18347],[85.6289,20.18245],[85.62681,20.18314],[85.62636,20.18246],[85.62573,20.18196],[85.62408,20.18201],[85.62406,20.18217],[85.62351,20.1822],[85.6219,20.18213],[85.62107,20.18239],[85.6208,20.18206],[85.62052,20.18201],[85.61974,20.18243],[85.62127,20.18475],[85.62372,20.18397],[85.62501,20.18389],[85.62514,20.18418]]]}},{"type":"Feature","bbox":[85.62131,20.18347,85.63148,20.18706],"properties":{"ward":14},"geometry":{"type":"Polygon","coordinates":[[[85.62131,20.18474],[85.6224,20.18631],[85.62435,20.18597],[85.62615,20.186],[85.63148,20.18706],[85.63083,20.18602],[85.63047,20.18565],[85.63021,20.18559],[85.63022,20.18533],[85.62982,20.18498],[85.62979,20.18459],[85.62951,20.18431],[85.62919,20.18347],[85.62783,20.18386],[85.62765,20.18411],[85.62651,20.18407],[85.62617,20.18436],[85.62514,20.18418],[85.62501,20.18389],[85.62372,20.18397],[85.62131,20.18474]]]}},{"type":"Feature","bbox":[85.60541,20.18617,85.62337,20.19177],"properties":{"ward":15},"geometry":{"type":"Polygon","coordinates":[[[85.60541,20.19034],[85.60551,20.19071],[85.60577,20.19087],[85.60811,20.19128],[85.60869,20.19123],[85.60912,20.19138],[85.6093,20.19177],[85.6094,20.19159],[85.60983,20.19154],[85.61028,20.1912],[85.6107,20.19158],[85.61113,20.19129],[85.61155,20.19132],[85.6118,20.19153],[85.61207,20.1913],[85.61284,20.19156],[85.61356,20.19157],[85.61371,20.19101],[85.61417,20.19134],[85.61553,20.19175],[85.61686,20.19148],[85.617,20.19132],[85.61689,20.19098],[85.61737,20.19102],[85.61778,20.19071],[85.6182,20.19107],[85.61817,20.19141],[85.61853,20.19168],[85.61924,20.19123],[85.62003,20.191],[85.62024,20.19062],[85.62048,20.19063],[85.62071,20.19113],[85.62259,20.19101],[85.6232,20.19113],[85.62325,20.19001],[85.62301,20.18845],[85.62332,20.18816],[85.62321,20.18725],[85.62337,20.18617],[85.62244,20.1863],[85.62113,20.18674],[85.61639,20.18698],[85.61425,20.1874],[85.6077,20.18923],[85.60541,20.19034]]]}},{"type":"Feature","bbox":[85.6034,20.19028,85.6235,20.2059],"properties":{"ward":16},"geometry":{"type":"Polygon","coordinates":[[[85.6034,20.19119],[85.60385,20.19219],[85.60428,20.19516],[85.60468,20.19552],[85.60651,20.19589],[85.60708,20.19652],[85.60705,20.19977],[85.60612,20.20455],[85.60675,20.20533],[85.60738,20.20549],[85.61062,20.2059],[85.61268,20.20588],[85.61406,20.20361],[85.62036,20.19779],[85.62196,20.19483],[85.6235,20.19474],[85.62311,20.19297],[85.6232,20.19113],[85.62291,20.19102],[85.62071,20.19113],[85.62048,20.19063],[85.62024,20.19062],[85.62003,20.191],[85.61924,20.19123],[85.61853,20.19168],[85.61817,20.19141],[85.6182,20.19107],[85.61778,20.19071],[85.61737,20.19102],[85.61689,20.19098],[85.617,20.19132],[85.61686,20.19148],[85.61553,20.19175],[85.61417,20.19134],[85.61371,20.19101],[85.61356,20.19157],[85.61284,20.19156],[85.61207,20.1913],[85.6118,20.19153],[85.61155,20.19132],[85.61113,20.19129],[85.6107,20.19158],[85.61028,20.1912],[85.60983,20.19154],[85.6094,20.19159],[85.6093,20.19177],[85.60912,20.19138],[85.60869,20.19123],[85.60811,20.19128],[85.60577,20.19087],[85.60551,20.19071],[85.6054,20.19028],[85.6034,20.19119]]]}},{"type":"Feature","bbox":[85.61359,20.19474,85.62423,20.20472],"properties":{"ward":17},"geometry":{"type":"Polygon","coordinates":[[[85.61359,20.20446],[85.61501,20.20472],[85.6187,20.20423],[85.62053,20.20268],[85.62204,20.20254],[85.62197,20.20135],[85.62213,20.20053],[85.62423,20.20055],[85.62393,20.1962],[85.6235,20.19474],[85.62196,20.19483],[85.62036,20.19779],[85.61406,20.20361],[85.61359,20.20446]]]}},{"type":"Feature","bbox":[85.61268,20.19355,85.63421,20.20622],"properties":{"ward":18},"geometry":{"type":"Polygon","coordinates":[[[85.61359,20.20446],[85.61268,20.20588],[85.61457,20.20593],[85.61676,20.20622],[85.61924,20.20614],[85.61957,20.20607],[85.62294,20.20387],[85.62366,20.2042],[85.62453,20.20491],[85.62487,20.20545],[85.62504,20.20545],[85.62528,20.20531],[85.6255,20.20477],[85.62601,20.20484],[85.62639,20.20428],[85.62704,20.20425],[85.62792,20.20372],[85.62869,20.20355],[85.62895,20.20383],[85.62953,20.20383],[85.62981,20.20343],[85.63036,20.20336],[85.63063,20.20304],[85.63053,20.20264],[85.63091,20.20251],[85.63071,20.20231],[85.63078,20.20176],[85.63058,20.20126],[85.63139,20.20107],[85.63152,20.20082],[85.6313,20.20053],[85.63135,20.20032],[85.63259,20.19923],[85.63295,20.19839],[85.63354,20.19795],[85.63354,20.19731],[85.63329,20.19702],[85.63389,20.19691],[85.63398,20.19665],[85.63421,20.19659],[85.63406,20.19619],[85.6342,20.19398],[85.63357,20.19389],[85.63366,20.19361],[85.63346,20.19355],[85.63301,20.19394],[85.63275,20.19404],[85.63252,20.19391],[85.63227,20.19417],[85.63162,20.19431],[85.63148,20.19491],[85.63092,20.19522],[85.62721,20.19597],[85.62395,20.19643],[85.62423,20.20055],[85.62213,20.20053],[85.62197,20.20135],[85.62204,20.20254],[85.62053,20.20268],[85.61911,20.204],[85.61845,20.2043],[85.61501,20.20472],[85.61359,20.20446]]]}},{"type":"Feature","bbox":[85.62311,20.19091,85.6322,20.19643],"properties":{"ward":19},"geometry":{"type":"Polygon","coordinates":[[[85.62721,20.19597],[85.63119,20.19512],[85.63148,20.19491],[85.63162,20.19431],[85.63214,20.19419],[85.6322,20.19372],[85.63197,20.19368],[85.63165,20.19397],[85.63146,20.1937],[85.63117,20.19395],[85.63106,20.19373],[85.63073,20.19374],[85.63041,20.19304],[85.63021,20.19313],[85.63009,20.19297],[85.63028,20.1922],[85.63019,20.19198],[85.62916,20.19228],[85.62872,20.19194],[85.62803,20.19205],[85.62759,20.1915],[85.627,20.19151],[85.62661,20.19111],[85.626,20.19091],[85.62559,20.19115],[85.62512,20.19091],[85.62504,20.19143],[85.62488,20.19154],[85.62446,20.19119],[85.6232,20.19113],[85.62311,20.19297],[85.62395,20.19643],[85.62721,20.19597]]]}},{"type":"Feature","bbox":[85.62301,20.186,85.63383,20.19419],"properties":{"ward":20},"geometry":{"type":"Polygon","coordinates":[[[85.62405,20.18602],[85.62337,20.18617],[85.62321,20.18725],[85.62332,20.18816],[85.62301,20.18845],[85.62325,20.19001],[85.6232,20.19113],[85.62446,20.19119],[85.62488,20.19154],[85.62516,20.1909],[85.62543,20.19096],[85.62552,20.19115],[85.62584,20.19093],[85.62621,20.19094],[85.62661,20.19111],[85.627,20.19151],[85.62759,20.1915],[85.62803,20.19205],[85.62872,20.19194],[85.62916,20.19228],[85.63023,20.192],[85.63009,20.19297],[85.63021,20.19313],[85.63041,20.19304],[85.63065,20.19367],[85.63106,20.19373],[85.63114,20.19394],[85.63146,20.1937],[85.63165,20.19397],[85.63211,20.19366],[85.63214,20.19419],[85.63252,20.19391],[85.63275,20.19404],[85.63301,20.19394],[85.63333,20.19362],[85.63323,20.19333],[85.63335,20.19291],[85.63374,20.19269],[85.63383,20.19236],[85.63347,20.19149],[85.63313,20.19116],[85.63268,20.18958],[85.63225,20.18881],[85.63245,20.18852],[85.63246,20.18794],[85.63194,20.18787],[85.63188,20.18746],[85.63148,20.18706],[85.62615,20.186],[85.62405,20.18602]]]}},{"type":"Feature","bbox":[85.62919,20.18189,85.63662,20.1878],"properties":{"ward":21},"geometry":{"type":"Polygon","coordinates":[[[85.63148,20.18706],[85.63495,20.1878],[85.63579,20.18728],[85.63623,20.18693],[85.63662,20.18619],[85.63638,20.18575],[85.63645,20.18492],[85.6363,20.18438],[85.63511,20.18189],[85.63351,20.18236],[85.63281,20.18286],[85.63222,20.18306],[85.62978,20.18356],[85.62966,20.18332],[85.62919,20.18347],[85.62951,20.18431],[85.62979,20.18459],[85.62982,20.18498],[85.63022,20.18533],[85.63021,20.18559],[85.63047,20.18565],[85.63083,20.18602],[85.63148,20.18706]]]}},{"type":"Feature","bbox":[85.63148,20.18189,85.64737,20.19428],"properties":{"ward":22},"geometry":{"type":"Polygon","coordinates":[[[85.63495,20.1878],[85.63148,20.18706],[85.63188,20.18746],[85.63194,20.18787],[85.63246,20.18794],[85.63245,20.18852],[85.63225,20.18881],[85.63268,20.18958],[85.63313,20.19116],[85.63347,20.19149],[85.63383,20.19236],[85.63374,20.19269],[85.63341,20.19277],[85.63323,20.19333],[85.63333,20.19362],[85.63361,20.19353],[85.63357,20.19389],[85.63415,20.19401],[85.63432,20.19382],[85.63461,20.19382],[85.63494,20.19413],[85.63552,20.19428],[85.63595,20.19408],[85.63643,20.19411],[85.63676,20.19359],[85.63809,20.19337],[85.63853,20.19309],[85.63877,20.19269],[85.63869,20.19199],[85.63927,20.19183],[85.63948,20.19138],[85.63997,20.19114],[85.64035,20.19123],[85.6405,20.19148],[85.64088,20.19138],[85.64113,20.19114],[85.64119,20.19081],[85.6415,20.19071],[85.64372,20.19183],[85.64459,20.19186],[85.64584,20.19156],[85.64683,20.19192],[85.64737,20.19179],[85.64279,20.1907],[85.64175,20.19023],[85.63966,20.18881],[85.63791,20.18835],[85.63826,20.18824],[85.63806,20.18754],[85.63759,20.18682],[85.63804,20.18605],[85.63914,20.18574],[85.63919,20.18529],[85.6386,20.18504],[85.63791,20.18435],[85.63752,20.18382],[85.6374,20.18281],[85.63708,20.18285],[85.63662,20.18189],[85.63529,20.18228],[85.6363,20.18438],[85.63645,20.18492],[85.63638,20.18575],[85.63662,20.18619],[85.63623,20.18693],[85.63495,20.1878]]]}}]}