{"type":"FeatureCollection","features":[{"type":"Feature","bbox":[82.40699,22.028,82.43275,22.03937],"properties":{"ward":1,"name":"Nehru Ward"},"geometry":{"type":"Polygon","coordinates":[[[82.41313,22.0286],[82.40755,22.028],[82.40699,22.0329],[82.40745,22.036],[82.40913,22.0381],[82.41489,22.03782],[82.42229,22.03812],[82.42508,22.03937],[82.43275,22.03817],[82.42474,22.03846],[82.42098,22.03508],[82.42147,22.0309],[82.41282,22.03099],[82.41313,22.0286]]]}},{"type":"Feature","bbox":[82.41282,22.0286,82.42449,22.03099],"properties":{"ward":2,"name":"New Wardd North"},"geometry":{"type":"Polygon","coordinates":[[[82.42449,22.02959],[82.41313,22.0286],[82.41282,22.03099],[82.42442,22.03086],[82.42449,22.02959]]]}},{"type":"Feature","bbox":[82.42098,22.02959,82.4264,22.03508],"properties":{"ward":3,"name":"Pt. Dindayal Upadhyay Ward"},"geometry":{"type":"Polygon","coordinates":[[[82.42147,22.03089],[82.42098,22.03508],[82.42234,22.03386],[82.4228,22.03422],[82.42494,22.03356],[82.42636,22.03343],[82.4264,22.02977],[82.42449,22.02959],[82.42442,22.03086],[82.42147,22.03089]]]}},{"type":"Feature","bbox":[82.42098,22.02968,82.43551,22.03865],"properties":{"ward":4,"name":"Sanjay Ward"},"geometry":{"type":"Polygon","coordinates":[[[82.42098,22.03508],[82.42475,22.03844],[82.42577,22.03865],[82.4351,22.03789],[82.43551,22.03116],[82.42641,22.02968],[82.42636,22.03343],[82.42495,22.03356],[82.4228,22.03422],[82.42234,22.03386],[82.42098,22.03508]]]}},{"type":"Feature","bbox":[82.42829,22.02494,82.43616,22.03122],"properties":{"ward":5,"name":"Sahid Asfaq Ullah Ward"},"geometry":{"type":"Polygon","coordinates":[[[82.42829,22.02666],[82.42991,22.0284],[82.43168,22.02979],[82.4322,22.03061],[82.43616,22.03122],[82.43605,22.03071],[82.43525,22.03025],[82.43166,22.02558],[82.43062,22.02494],[82.42934,22.02611],[82.42829,22.02666]]]}},{"type":"Feature","bbox":[82.42469,22.02648,82.4322,22.03061],"properties":{"ward":6,"name":"Rajendra Kumar Singh Ward"},"geometry":{"type":"Polygon","coordinates":[[[82.4322,22.03061],[82.43167,22.02978],[82.42993,22.02842],[82.4283,22.02667],[82.4275,22.02648],[82.4265,22.02649],[82.42469,22.02722],[82.42477,22.02785],[82.42644,22.02757],[82.42641,22.02968],[82.4322,22.03061]]]}},{"type":"Feature","bbox":[82.42073,22.02721,82.42644,22.02977],"properties":{"ward":7,"name":"Sahid Bhagat Singh Ward"},"geometry":{"type":"Polygon","coordinates":[[[82.42073,22.02925],[82.4264,22.02977],[82.42644,22.02757],[82.42477,22.02785],[82.42469,22.02721],[82.42317,22.02792],[82.42255,22.02855],[82.42083,22.02843],[82.42073,22.02925]]]}},{"type":"Feature","bbox":[82.4214,22.02357,82.42706,22.02855],"properties":{"ward":8,"name":"Thakur Chedilal Barister Ward"},"geometry":{"type":"Polygon","coordinates":[[[82.42192,22.02851],[82.42255,22.02855],[82.42318,22.02792],[82.42649,22.02649],[82.42706,22.02552],[82.42698,22.0246],[82.42566,22.02489],[82.42445,22.02492],[82.42341,22.02526],[82.42294,22.02357],[82.42171,22.02375],[82.4214,22.02697],[82.42192,22.02773],[82.42192,22.02851]]]}},{"type":"Feature","bbox":[82.42209,22.02172,82.425,22.02526],"properties":{"ward":9,"name":"Netaji Subhash Ward"},"geometry":{"type":"Polygon","coordinates":[[[82.42294,22.02357],[82.42341,22.02526],[82.42445,22.02492],[82.425,22.02491],[82.42494,22.02457],[82.42473,22.02457],[82.42422,22.02404],[82.42482,22.02356],[82.42467,22.02271],[82.42326,22.0225],[82.42209,22.02172],[82.42215,22.02368],[82.42294,22.02357]]]}},{"type":"Feature","bbox":[82.42422,22.02271,82.42596,22.02491],"properties":{"ward":10,"name":"Mahatma Gandhi Ward"},"geometry":{"type":"Polygon","coordinates":[[[82.425,22.02491],[82.42566,22.02489],[82.42596,22.02271],[82.42467,22.02271],[82.42482,22.02356],[82.42422,22.02404],[82.42473,22.02457],[82.42494,22.02457],[82.425,22.02491]]]}},{"type":"Feature","bbox":[82.42566,22.02182,82.42698,22.02489],"properties":{"ward":11,"name":"Sardar Patel Ward"},"geometry":{"type":"Polygon","coordinates":[[[82.42596,22.02272],[82.42566,22.02489],[82.42698,22.0246],[82.42653,22.02182],[82.42596,22.02272]]]}},{"type":"Feature","bbox":[82.42634,22.02063,82.42996,22.02666],"properties":{"ward":12,"name":"Lal Bahadur Shastri Wardd"},"geometry":{"type":"Polygon","coordinates":[[[82.42706,22.02552],[82.42649,22.02649],[82.42829,22.02666],[82.42934,22.02611],[82.42995,22.02554],[82.42934,22.02448],[82.42996,22.02455],[82.42946,22.02354],[82.42952,22.02123],[82.42837,22.02157],[82.42779,22.02063],[82.42634,22.02069],[82.42706,22.02552]]]}},{"type":"Feature","bbox":[82.42934,22.01976,82.44359,22.03174],"properties":{"ward":13,"name":"Guru Ghasidas Ward"},"geometry":{"type":"Polygon","coordinates":[[[82.42946,22.02352],[82.42997,22.02456],[82.42934,22.02448],[82.42995,22.02554],[82.43062,22.02494],[82.43166,22.02558],[82.43525,22.03025],[82.43605,22.03071],[82.43618,22.03123],[82.43699,22.03174],[82.4378,22.02973],[82.43856,22.02495],[82.43918,22.02379],[82.43956,22.02324],[82.4408,22.02232],[82.44342,22.02104],[82.44359,22.02051],[82.43714,22.01982],[82.43445,22.02024],[82.43032,22.01976],[82.42952,22.02123],[82.42946,22.02352]]]}},{"type":"Feature","bbox":[82.42634,21.99834,82.44956,22.02157],"properties":{"ward":14,"name":"Chandra Sekhar Azad Ward"},"geometry":{"type":"Polygon","coordinates":[[[82.42764,22.01342],[82.42635,22.01903],[82.42634,22.02068],[82.42779,22.02062],[82.42836,22.02157],[82.42952,22.02123],[82.43032,22.01976],[82.43446,22.02024],[82.43715,22.01981],[82.44359,22.02049],[82.44512,22.01909],[82.44644,22.01454],[82.44909,22.00931],[82.44956,21.99841],[82.44665,21.99834],[82.43775,22.00503],[82.43451,22.0098],[82.43358,22.01237],[82.43158,22.01342],[82.42764,22.01342]]]}},{"type":"Feature","bbox":[82.42419,22.02038,82.42653,22.02271],"properties":{"ward":15,"name":"Dr. Ambedkar Ward"},"geometry":{"type":"Polygon","coordinates":[[[82.42443,22.02168],[82.42596,22.02271],[82.42653,22.02182],[82.42634,22.02068],[82.42594,22.02038],[82.4251,22.02041],[82.42419,22.02119],[82.42443,22.02168]]]}},{"type":"Feature","bbox":[82.41775,21.99578,82.45223,22.02068],"properties":{"ward":16,"name":"Indira Ward"},"geometry":{"type":"Polygon","coordinates":[[[82.42544,22.02037],[82.42634,22.02068],[82.42635,22.01904],[82.42764,22.01343],[82.43158,22.01341],[82.43358,22.01237],[82.4345,22.00982],[82.43775,22.00503],[82.44665,21.99834],[82.44957,21.99839],[82.4498,21.99798],[82.45223,21.99747],[82.45161,21.99661],[82.44929,21.99578],[82.44238,21.99637],[82.43732,21.99612],[82.43139,21.99619],[82.42785,22.0114],[82.41775,22.0115],[82.42314,22.01762],[82.42339,22.01845],[82.42465,22.01985],[82.42484,22.02064],[82.42544,22.02037]]]}},{"type":"Feature","bbox":[82.41963,22.0154,82.42596,22.02271],"properties":{"ward":17,"name":"Maharana Pratap Ward"},"geometry":{"type":"Polygon","coordinates":[[[82.42596,22.02271],[82.42443,22.02168],[82.42419,22.02119],[82.42484,22.02064],[82.42474,22.02004],[82.42339,22.01846],[82.42314,22.01762],[82.42119,22.0154],[82.41963,22.01556],[82.42224,22.01856],[82.42256,22.01934],[82.42197,22.02021],[82.42209,22.02172],[82.42326,22.0225],[82.42438,22.02269],[82.42596,22.02271]]]}},{"type":"Feature","bbox":[82.40741,22.02119,82.42215,22.02925],"properties":{"ward":18,"name":"Rajiv Gandhi Ward"},"geometry":{"type":"Polygon","coordinates":[[[82.40858,22.023],[82.40741,22.02837],[82.41316,22.0286],[82.42073,22.02925],[82.42083,22.02844],[82.42192,22.02851],[82.42192,22.02773],[82.4214,22.02697],[82.42171,22.02375],[82.42215,22.02368],[82.42209,22.02172],[82.41498,22.02167],[82.40875,22.02119],[82.40858,22.023]]]}},{"type":"Feature","bbox":[82.40319,22.01151,82.42256,22.02172],"properties":{"ward":19,"name":"New Ward South"},"geometry":{"type":"Polygon","coordinates":[[[82.40409,22.02085],[82.41533,22.02168],[82.42209,22.02172],[82.42196,22.02021],[82.42256,22.01934],[82.42224,22.01856],[82.41962,22.01556],[82.42118,22.0154],[82.41775,22.01151],[82.40319,22.0116],[82.40409,22.02085]]]}},{"type":"Feature","bbox":[82.39881,21.99022,82.44928,22.01161],"properties":{"ward":20,"name":"C.C.I. Ward"},"geometry":{"type":"Polygon","coordinates":[[[82.40316,22.01161],[82.42784,22.01141],[82.4314,21.99619],[82.43735,21.99612],[82.4424,21.99637],[82.44928,21.99578],[82.44467,21.99256],[82.44264,21.99074],[82.43267,21.99022],[82.39881,21.99548],[82.40316,22.01161]]]}}]}