{"type":"FeatureCollection","features":[{"type":"Feature","bbox":[81.59755,21.90848,81.61057,21.91862],"properties":{"ward":1,"name":"Gurughasidas Ward"},"geometry":{"type":"Polygon","coordinates":[[[81.59852,21.91214],[81.6019,21.91273],[81.60961,21.91862],[81.61057,21.9117],[81.61042,21.91195],[81.60949,21.91224],[81.6081,21.91199],[81.60852,21.9109],[81.60795,21.90987],[81.60766,21.90963],[81.60722,21.90941],[81.60493,21.90898],[81.60455,21.90848],[81.60363,21.90886],[81.60268,21.90959],[81.60222,21.90971],[81.60192,21.90952],[81.60186,21.90913],[81.60049,21.90894],[81.60006,21.90899],[81.59966,21.90931],[81.59858,21.90935],[81.59787,21.90963],[81.59755,21.91012],[81.59777,21.91024],[81.59773,21.91095],[81.59791,21.91159],[81.59852,21.91214]]]}},{"type":"Feature","bbox":[81.59209,21.89983,81.60188,21.91017],"properties":{"ward":2,"name":"Dindayalward"},"geometry":{"type":"Polygon","coordinates":[[[81.5972,21.91006],[81.59722,21.91017],[81.59744,21.91015],[81.59786,21.90959],[81.59821,21.90946],[81.59966,21.9093],[81.60025,21.90893],[81.60186,21.90911],[81.60188,21.90861],[81.60167,21.90819],[81.60109,21.90782],[81.60097,21.90749],[81.60044,21.90719],[81.59986,21.90651],[81.59936,21.90496],[81.59883,21.90478],[81.59834,21.90439],[81.59639,21.90065],[81.59579,21.90015],[81.59569,21.89983],[81.59553,21.90016],[81.59534,21.89997],[81.59483,21.90007],[81.59375,21.90088],[81.5933,21.90153],[81.59274,21.90269],[81.59223,21.90427],[81.59209,21.90595],[81.59249,21.90735],[81.59378,21.90875],[81.59445,21.90901],[81.59531,21.90961],[81.59666,21.91005],[81.5972,21.91006]]]}},{"type":"Feature","bbox":[81.59573,21.89939,81.60374,21.90748],"properties":{"ward":3,"name":"Budhadev Ward"},"geometry":{"type":"Polygon","coordinates":[[[81.59669,21.89942],[81.59582,21.89939],[81.59573,21.90004],[81.59639,21.90059],[81.59694,21.90188],[81.59771,21.90293],[81.59836,21.90439],[81.59881,21.90476],[81.59937,21.90493],[81.59944,21.90543],[81.6001,21.90682],[81.6007,21.90739],[81.60107,21.90748],[81.60178,21.90733],[81.60205,21.90621],[81.60251,21.90563],[81.60339,21.9054],[81.60374,21.90502],[81.60334,21.90378],[81.6035,21.90321],[81.60325,21.901],[81.6015,21.90052],[81.60043,21.8999],[81.59887,21.89975],[81.59813,21.89989],[81.59669,21.89942]]]}},{"type":"Feature","bbox":[81.60103,21.90541,81.6046,21.90968],"properties":{"ward":4,"name":"Swami Vivekanand Ward"},"geometry":{"type":"Polygon","coordinates":[[[81.6018,21.90731],[81.60108,21.90749],[81.60103,21.90763],[81.60111,21.90781],[81.60169,21.9081],[81.6014,21.90799],[81.60185,21.90849],[81.60192,21.90951],[81.60213,21.90968],[81.60267,21.90958],[81.60361,21.90885],[81.60435,21.90863],[81.6046,21.90832],[81.60452,21.90794],[81.60406,21.90755],[81.60345,21.90656],[81.60336,21.90541],[81.60246,21.90571],[81.602,21.90632],[81.6018,21.90731]]]}},{"type":"Feature","bbox":[81.6033,21.90418,81.6066,21.90753],"properties":{"ward":5,"name":"Lal Bahadur Shastri Ward"},"geometry":{"type":"Polygon","coordinates":[[[81.60407,21.90753],[81.60451,21.90738],[81.60523,21.90681],[81.60576,21.90595],[81.60656,21.90565],[81.6066,21.90527],[81.60615,21.90418],[81.60554,21.90428],[81.60424,21.90548],[81.60377,21.90502],[81.60343,21.90527],[81.6033,21.90554],[81.60345,21.90578],[81.60345,21.90653],[81.60407,21.90753]]]}},{"type":"Feature","bbox":[81.60407,21.90564,81.60732,21.90784],"properties":{"ward":6,"name":"Bhagat Singh Ward"},"geometry":{"type":"Polygon","coordinates":[[[81.60524,21.90682],[81.60407,21.90753],[81.60445,21.90784],[81.60499,21.90757],[81.60531,21.90766],[81.60536,21.90752],[81.60568,21.9077],[81.60614,21.90769],[81.60708,21.90729],[81.60732,21.90689],[81.60679,21.90627],[81.60657,21.90564],[81.6057,21.90601],[81.60524,21.90682]]]}},{"type":"Feature","bbox":[81.60446,21.90687,81.60791,21.90914],"properties":{"ward":7,"name":"Mahatma Gandhi Ward"},"geometry":{"type":"Polygon","coordinates":[[[81.60625,21.90767],[81.60568,21.90771],[81.60534,21.90754],[81.60531,21.90767],[81.60509,21.90757],[81.6046,21.90775],[81.60446,21.90787],[81.60462,21.90831],[81.60453,21.90847],[81.60473,21.90858],[81.60476,21.90888],[81.60598,21.90914],[81.60671,21.90874],[81.60713,21.90818],[81.6076,21.9083],[81.60791,21.90814],[81.60778,21.9074],[81.60732,21.90687],[81.60704,21.90733],[81.60625,21.90767]],[[81.60625,21.90767],[81.60625,21.90767],[81.60627,21.90766],[81.60625,21.90767]]]}},{"type":"Feature","bbox":[81.60597,21.90816,81.61098,21.91224],"properties":{"ward":8,"name":"Dr.Rajendra Prasad Ward"},"geometry":{"type":"Polygon","coordinates":[[[81.60811,21.91199],[81.60948,21.91224],[81.61041,21.91194],[81.61082,21.91057],[81.61098,21.90851],[81.61034,21.90867],[81.60906,21.9094],[81.60836,21.90923],[81.6076,21.90846],[81.60759,21.90828],[81.6072,21.90816],[81.60673,21.90873],[81.60597,21.90915],[81.60725,21.90941],[81.60795,21.90986],[81.60855,21.91091],[81.60811,21.91199]]]}},{"type":"Feature","bbox":[81.60761,21.90529,81.61266,21.9094],"properties":{"ward":9,"name":"Dr.Bhimrav Ambetkar Ward"},"geometry":{"type":"MultiPolygon","coordinates":[[[[81.61134,21.90833],[81.61128,21.90847],[81.61141,21.90783],[81.61144,21.90772],[81.61266,21.90583],[81.61193,21.90544],[81.61135,21.90536],[81.61087,21.90559],[81.61048,21.9054],[81.61002,21.9055],[81.60963,21.90529],[81.60962,21.90574],[81.61025,21.90648],[81.61008,21.90664],[81.60926,21.90657],[81.60903,21.90671],[81.60939,21.90718],[81.60953,21.90784],[81.60921,21.90815],[81.60808,21.908],[81.60762,21.9083],[81.60761,21.90845],[81.60836,21.90922],[81.60906,21.9094],[81.61085,21.90845],[81.611,21.90867],[81.61136,21.90845],[81.61138,21.9082],[81.61134,21.90833]]],[[[81.61135,21.9083],[81.61138,21.90819],[81.6114,21.90792],[81.61139,21.90797],[81.61135,21.9083]]],[[[81.61138,21.90819],[81.61138,21.9082],[81.61141,21.90809],[81.61138,21.90819]]]]}},{"type":"Feature","bbox":[81.60658,21.90374,81.61024,21.90811],"properties":{"ward":10,"name":"Ravidas Ward"},"geometry":{"type":"Polygon","coordinates":[[[81.60791,21.90809],[81.60806,21.90798],[81.60933,21.90811],[81.60953,21.90763],[81.60902,21.90671],[81.60924,21.90657],[81.61,21.90664],[81.61024,21.90648],[81.60964,21.90579],[81.60962,21.90529],[81.60811,21.90374],[81.60701,21.9048],[81.60658,21.90551],[81.60683,21.90632],[81.6078,21.9074],[81.60791,21.90809]]]}},{"type":"Feature","bbox":[81.60811,21.89998,81.61394,21.90581],"properties":{"ward":11,"name":"Rajiv Gandhi Ward"},"geometry":{"type":"Polygon","coordinates":[[[81.61388,21.89998],[81.6127,21.90014],[81.61145,21.90056],[81.61226,21.90063],[81.61234,21.9016],[81.61213,21.90289],[81.61149,21.9027],[81.61088,21.90319],[81.60938,21.90359],[81.60892,21.90296],[81.60851,21.90304],[81.60819,21.90335],[81.60811,21.90373],[81.60948,21.90522],[81.61012,21.90551],[81.61046,21.9054],[81.61074,21.90556],[81.61135,21.90535],[81.61197,21.90544],[81.61266,21.90581],[81.61348,21.90491],[81.61362,21.90437],[81.61348,21.90279],[81.61394,21.90023],[81.61388,21.89998]],[[81.6135,21.90007],[81.61348,21.90007],[81.61355,21.90007],[81.6135,21.90007]]]}},{"type":"Feature","bbox":[81.60494,21.89836,81.61233,21.90524],"properties":{"ward":12,"name":"Maharani Laxmibai"},"geometry":{"type":"MultiPolygon","coordinates":[[[[81.60615,21.90417],[81.60663,21.90524],[81.60799,21.90398],[81.60816,21.90337],[81.60869,21.90299],[81.60902,21.903],[81.60939,21.90358],[81.6109,21.90317],[81.61151,21.90268],[81.61212,21.90288],[81.61233,21.9016],[81.61224,21.90064],[81.61127,21.90057],[81.61104,21.89903],[81.61086,21.89879],[81.61042,21.89884],[81.60996,21.89852],[81.60854,21.89836],[81.60814,21.89876],[81.60834,21.89922],[81.6082,21.8993],[81.6068,21.8991],[81.60642,21.89934],[81.60633,21.89997],[81.606,21.90029],[81.60555,21.90029],[81.6052,21.89998],[81.60494,21.90028],[81.6054,21.90154],[81.60605,21.90217],[81.6064,21.90216],[81.60652,21.90216],[81.60648,21.90217],[81.60664,21.9022],[81.60773,21.90218],[81.60798,21.90234],[81.60787,21.90264],[81.60751,21.90272],[81.60592,21.90377],[81.60587,21.90413],[81.60615,21.90417]]],[[[81.60635,21.90217],[81.60653,21.90218],[81.60647,21.90217],[81.60635,21.90217]]],[[[81.60647,21.90217],[81.60648,21.90217],[81.60646,21.90217],[81.60647,21.90217]]]]}},{"type":"Feature","bbox":[81.59583,21.89336,81.60795,21.90547],"properties":{"ward":13,"name":"Minimata Ward"},"geometry":{"type":"Polygon","coordinates":[[[81.59663,21.89886],[81.59583,21.89938],[81.59669,21.89941],[81.59812,21.89988],[81.59882,21.89975],[81.6005,21.8999],[81.60151,21.90052],[81.60314,21.90091],[81.60345,21.90199],[81.60351,21.90322],[81.60335,21.90378],[81.60358,21.90418],[81.60362,21.90487],[81.60419,21.90547],[81.60584,21.90413],[81.60597,21.9037],[81.6075,21.90272],[81.60786,21.90263],[81.60795,21.90243],[81.60777,21.90219],[81.60605,21.90218],[81.60542,21.90159],[81.60493,21.90028],[81.60521,21.89996],[81.60409,21.89716],[81.60393,21.89571],[81.60365,21.89564],[81.60297,21.89374],[81.60264,21.89342],[81.60158,21.89336],[81.60028,21.89357],[81.59966,21.894],[81.59925,21.89464],[81.59891,21.89566],[81.59806,21.89662],[81.59752,21.89764],[81.59663,21.89886]]]}},{"type":"Feature","bbox":[81.604,21.89494,81.61434,21.90054],"properties":{"ward":14,"name":"Shankar Nagar Ward"},"geometry":{"type":"Polygon","coordinates":[[[81.61128,21.90054],[81.61384,21.89994],[81.61425,21.89846],[81.61434,21.89694],[81.61414,21.89693],[81.61411,21.89674],[81.61167,21.89649],[81.61052,21.89668],[81.60959,21.89547],[81.60842,21.895],[81.60618,21.89494],[81.60507,21.89516],[81.604,21.89574],[81.60411,21.89717],[81.60499,21.8991],[81.60513,21.89985],[81.60546,21.90024],[81.60598,21.90027],[81.60634,21.8999],[81.60638,21.89936],[81.60678,21.89909],[81.6082,21.89928],[81.60829,21.89914],[81.6081,21.89885],[81.60821,21.89859],[81.60843,21.89838],[81.60881,21.89832],[81.61004,21.89853],[81.6104,21.89881],[81.61086,21.89876],[81.61105,21.899],[81.61128,21.90054]]]}},{"type":"Feature","bbox":[81.60976,21.89689,81.62194,21.91861],"properties":{"ward":15,"name":"Tilak Ward"},"geometry":{"type":"Polygon","coordinates":[[[81.61443,21.89689],[81.61424,21.89783],[81.6143,21.89849],[81.61389,21.89968],[81.61382,21.90136],[81.61349,21.90289],[81.61361,21.90473],[81.61265,21.90587],[81.61145,21.90775],[81.61132,21.90872],[81.61101,21.90869],[81.60976,21.91861],[81.61385,21.91765],[81.61476,21.9176],[81.61659,21.91706],[81.61728,21.91694],[81.6192,21.91702],[81.61957,21.91519],[81.61833,21.9132],[81.61838,21.91058],[81.61851,21.91024],[81.62139,21.90947],[81.62169,21.90927],[81.62184,21.90886],[81.62194,21.90793],[81.62175,21.90766],[81.62112,21.90736],[81.61725,21.90739],[81.61705,21.906],[81.61704,21.90294],[81.61598,21.89816],[81.61519,21.89714],[81.61443,21.89689]]]}}]}