{"type":"FeatureCollection","features":[{"type":"Feature","bbox":[81.32625,22.00522,81.32805,22.00659],"properties":{"ward":1,"name":"Maa Laxmi Ward"},"geometry":{"type":"Polygon","coordinates":[[[81.32625,22.00586],[81.32643,22.00634],[81.32695,22.00659],[81.32753,22.00642],[81.32805,22.00599],[81.32775,22.00584],[81.32732,22.00522],[81.32703,22.00543],[81.32673,22.00533],[81.32658,22.00542],[81.32668,22.00572],[81.32625,22.00586]]]}},{"type":"Feature","bbox":[81.32732,22.00421,81.32896,22.00597],"properties":{"ward":2,"name":"Santoshi Ward"},"geometry":{"type":"Polygon","coordinates":[[[81.32732,22.00521],[81.32776,22.00582],[81.32806,22.00597],[81.32896,22.00484],[81.32816,22.00458],[81.32762,22.00421],[81.32732,22.00521]]]}},{"type":"Feature","bbox":[81.32608,22.00307,81.32767,22.00541],"properties":{"ward":3,"name":"Ram Janki Ward"},"geometry":{"type":"Polygon","coordinates":[[[81.3273,22.00521],[81.32767,22.00399],[81.32697,22.00381],[81.32687,22.00356],[81.327,22.00338],[81.32681,22.00341],[81.32656,22.00308],[81.32608,22.00307],[81.32634,22.00403],[81.3263,22.0046],[81.32659,22.00538],[81.32674,22.00528],[81.32679,22.00541],[81.32713,22.00538],[81.3273,22.00521]]]}},{"type":"Feature","bbox":[81.32412,22.00296,81.32668,22.00581],"properties":{"ward":4,"name":"Mahamaya Ward"},"geometry":{"type":"Polygon","coordinates":[[[81.32668,22.00566],[81.32602,22.00296],[81.32553,22.00299],[81.32412,22.00386],[81.32458,22.00427],[81.32581,22.00489],[81.32624,22.00581],[81.32668,22.00566]]]}},{"type":"Feature","bbox":[81.32298,22.00152,81.32514,22.00384],"properties":{"ward":5,"name":"Jagannath Ward"},"geometry":{"type":"Polygon","coordinates":[[[81.32406,22.00384],[81.32514,22.00312],[81.32411,22.00152],[81.32357,22.00186],[81.32338,22.00163],[81.32298,22.00192],[81.32406,22.00384]]]}},{"type":"Feature","bbox":[81.32449,22.00187,81.32592,22.00316],"properties":{"ward":6,"name":"Shyama Prasaad Mukharjee Ward"},"geometry":{"type":"Polygon","coordinates":[[[81.32592,22.00296],[81.32558,22.00187],[81.32449,22.00203],[81.32517,22.00316],[81.32562,22.00293],[81.32564,22.00304],[81.32592,22.00296]]]}},{"type":"Feature","bbox":[81.32557,22.00174,81.32722,22.00309],"properties":{"ward":7,"name":"Mahatma Gandhi Ward"},"geometry":{"type":"Polygon","coordinates":[[[81.32557,22.00184],[81.32607,22.00305],[81.32653,22.00309],[81.3269,22.00248],[81.32721,22.00237],[81.32722,22.00189],[81.32609,22.00174],[81.32557,22.00184]]]}},{"type":"Feature","bbox":[81.32653,22.00231,81.32822,22.00396],"properties":{"ward":8,"name":"Rajeev Gandhi Ward"},"geometry":{"type":"Polygon","coordinates":[[[81.32766,22.00396],[81.32822,22.00262],[81.32805,22.00231],[81.32773,22.00233],[81.32761,22.00263],[81.32745,22.00234],[81.32695,22.00245],[81.32653,22.00295],[81.32682,22.0034],[81.32707,22.00342],[81.32691,22.00356],[81.32703,22.00381],[81.32766,22.00396]]]}},{"type":"Feature","bbox":[81.32767,22.00174,81.3303,22.00473],"properties":{"ward":9,"name":"Mini Mata Ward"},"geometry":{"type":"Polygon","coordinates":[[[81.32812,22.00274],[81.32767,22.0042],[81.32817,22.00456],[81.32893,22.00473],[81.32918,22.00463],[81.32946,22.0038],[81.32951,22.00269],[81.3303,22.00218],[81.33017,22.00174],[81.32868,22.00174],[81.32839,22.00187],[81.32843,22.00241],[81.32812,22.00274]]]}},{"type":"Feature","bbox":[81.32721,22.00152,81.32842,22.00262],"properties":{"ward":10,"name":"Guru Ghasi Das Ward"},"geometry":{"type":"Polygon","coordinates":[[[81.32838,22.0019],[81.32808,22.00154],[81.32751,22.00152],[81.32743,22.00188],[81.32724,22.0019],[81.32721,22.00237],[81.32746,22.00233],[81.32761,22.00262],[81.32772,22.00232],[81.32802,22.00228],[81.32825,22.00262],[81.32842,22.0024],[81.32838,22.0019]]]}},{"type":"Feature","bbox":[81.32408,21.9971,81.33015,22.00189],"properties":{"ward":11,"name":"Sugan Chand Ward"},"geometry":{"type":"Polygon","coordinates":[[[81.32408,21.99951],[81.32463,22.00035],[81.32488,22.00037],[81.32502,22.00065],[81.32512,22.001],[81.32475,22.00116],[81.32555,22.00182],[81.32609,22.00172],[81.32733,22.00189],[81.32749,22.00151],[81.32799,22.00148],[81.32837,22.00185],[81.3288,22.00168],[81.33015,22.0017],[81.32961,22.00028],[81.32931,21.99816],[81.32889,21.9971],[81.32684,21.99788],[81.32583,21.99794],[81.32581,21.99833],[81.32476,21.99883],[81.32408,21.99951]]]}},{"type":"Feature","bbox":[81.32413,22.00118,81.32555,22.00201],"properties":{"ward":12,"name":"Maa Sheetala Ward"},"geometry":{"type":"Polygon","coordinates":[[[81.32447,22.00201],[81.32555,22.00187],[81.32474,22.00118],[81.32413,22.0015],[81.32447,22.00201]]]}},{"type":"Feature","bbox":[81.32113,22.00009,81.32401,22.00182],"properties":{"ward":13,"name":"Maa Karma Ward"},"geometry":{"type":"Polygon","coordinates":[[[81.32401,22.00153],[81.32377,22.00049],[81.32326,22.00066],[81.32307,22.00009],[81.32157,22.00011],[81.32113,22.00089],[81.32129,22.00152],[81.32298,22.00182],[81.32339,22.00155],[81.32357,22.0018],[81.32401,22.00153]]]}},{"type":"Feature","bbox":[81.32308,21.99949,81.3251,22.00149],"properties":{"ward":14,"name":"Pt. Deendayaal Upadhyay Ward"},"geometry":{"type":"Polygon","coordinates":[[[81.32328,22.00062],[81.32378,22.00045],[81.32411,22.00149],[81.3251,22.00098],[81.32488,22.00038],[81.32462,22.00036],[81.32413,21.99949],[81.32378,22.00004],[81.32308,22.00007],[81.32328,22.00062]]]}},{"type":"Feature","bbox":[81.3173,21.98847,81.32993,22.00154],"properties":{"ward":15,"name":"Thakur Dev Ward"},"geometry":{"type":"Polygon","coordinates":[[[81.32888,21.99707],[81.32858,21.99656],[81.32993,21.99594],[81.32886,21.99403],[81.32633,21.99115],[81.3242,21.98944],[81.32282,21.9887],[81.32189,21.98847],[81.32106,21.98865],[81.32024,21.98918],[81.31966,21.99179],[81.31852,21.994],[81.31821,21.99502],[81.31741,21.99633],[81.3173,21.99709],[81.31741,21.99898],[81.31772,22.00041],[81.31802,22.00089],[81.31894,22.00135],[81.3212,22.00154],[81.32115,22.00067],[81.32155,22.00009],[81.32378,22.00003],[81.32406,21.9995],[81.32476,21.99881],[81.3258,21.99832],[81.32579,21.99791],[81.32683,21.99783],[81.32888,21.99707]]]}}]}