{"type":"FeatureCollection","features":[{"type":"Feature","bbox":[83.55603,22.39641,83.56109,22.39992],"properties":{"ward":1,"name":"Indira Nagar Ward"},"geometry":{"type":"Polygon","coordinates":[[[83.56007,22.39641],[83.55705,22.3965],[83.55603,22.39837],[83.55865,22.39992],[83.56109,22.39872],[83.56059,22.39862],[83.56007,22.39641]]]}},{"type":"Feature","bbox":[83.55863,22.3955,83.56385,22.40114],"properties":{"ward":2,"name":"Junadih Ward"},"geometry":{"type":"Polygon","coordinates":[[[83.56108,22.39873],[83.55863,22.39993],[83.5601,22.40081],[83.56149,22.40114],[83.56301,22.39996],[83.56242,22.39885],[83.5634,22.39899],[83.56385,22.39764],[83.56246,22.39738],[83.56204,22.3955],[83.55954,22.39635],[83.56008,22.39641],[83.56059,22.3986],[83.56108,22.39873]]]}},{"type":"Feature","bbox":[83.56243,22.39441,83.57358,22.39995],"properties":{"ward":3,"name":"Sinchai Colony Ward"},"geometry":{"type":"Polygon","coordinates":[[[83.56301,22.39995],[83.56947,22.3979],[83.57156,22.39674],[83.57358,22.39537],[83.57291,22.39474],[83.57112,22.39441],[83.56475,22.39821],[83.56386,22.39765],[83.56338,22.39896],[83.56243,22.39886],[83.56301,22.39995]]]}},{"type":"Feature","bbox":[83.56155,22.39868,83.56789,22.40236],"properties":{"ward":4,"name":"Highschool Ward"},"geometry":{"type":"Polygon","coordinates":[[[83.56306,22.40001],[83.56155,22.40112],[83.56211,22.40182],[83.56498,22.40029],[83.56647,22.40236],[83.56789,22.40159],[83.56758,22.40102],[83.56731,22.39868],[83.56306,22.40001]]]}},{"type":"Feature","bbox":[83.56645,22.3975,83.57232,22.40393],"properties":{"ward":5,"name":"Ramnagar Ward"},"geometry":{"type":"Polygon","coordinates":[[[83.56796,22.4016],[83.56645,22.4024],[83.56749,22.40387],[83.57232,22.40393],[83.57189,22.40268],[83.57149,22.40226],[83.57116,22.40106],[83.57085,22.40061],[83.57127,22.40018],[83.57135,22.39958],[83.57059,22.39795],[83.5702,22.3975],[83.56731,22.39867],[83.56755,22.3993],[83.56765,22.401],[83.56796,22.4016]]]}},{"type":"Feature","bbox":[83.5703,22.39555,83.57802,22.40382],"properties":{"ward":6,"name":"Budhikuten Ward"},"geometry":{"type":"Polygon","coordinates":[[[83.57234,22.40382],[83.5771,22.40126],[83.57802,22.39826],[83.57794,22.3977],[83.57536,22.39863],[83.57358,22.39555],[83.5703,22.39749],[83.57139,22.39959],[83.57132,22.40019],[83.57093,22.40064],[83.57152,22.40224],[83.57194,22.40267],[83.57234,22.40382]]]}},{"type":"Feature","bbox":[83.57112,22.39212,83.57701,22.39535],"properties":{"ward":7,"name":"Mukhybasti Paschim Ward"},"geometry":{"type":"Polygon","coordinates":[[[83.57648,22.39212],[83.57529,22.39244],[83.5742,22.39299],[83.57146,22.39365],[83.57112,22.3944],[83.57292,22.39474],[83.57357,22.39535],[83.57461,22.39427],[83.57598,22.39337],[83.57701,22.39295],[83.57648,22.39212]]]}},{"type":"Feature","bbox":[83.57365,22.3928,83.57793,22.39857],"properties":{"ward":8,"name":"Behra Para Ward"},"geometry":{"type":"Polygon","coordinates":[[[83.57534,22.39857],[83.57633,22.39829],[83.57533,22.3958],[83.57616,22.39566],[83.57793,22.39398],[83.57745,22.3928],[83.57597,22.39343],[83.57456,22.39439],[83.57365,22.39535],[83.57534,22.39857]]]}},{"type":"Feature","bbox":[83.57747,22.39136,83.58218,22.3947],"properties":{"ward":9,"name":"Bazar Para Ward"},"geometry":{"type":"Polygon","coordinates":[[[83.57796,22.39398],[83.57933,22.39339],[83.57934,22.39378],[83.58186,22.3947],[83.58218,22.39346],[83.58158,22.39136],[83.57747,22.39271],[83.57796,22.39398]]]}},{"type":"Feature","bbox":[83.58162,22.39057,83.58532,22.39473],"properties":{"ward":10,"name":"Aghariyapara Ward"},"geometry":{"type":"Polygon","coordinates":[[[83.58362,22.39057],[83.58162,22.39128],[83.58227,22.39348],[83.5819,22.39473],[83.58262,22.39434],[83.58383,22.39434],[83.58532,22.39398],[83.58525,22.39303],[83.584,22.39089],[83.58362,22.39057]]]}},{"type":"Feature","bbox":[83.58363,22.39004,83.5879,22.393],"properties":{"ward":11,"name":"Mukhybastipurv Ward"},"geometry":{"type":"Polygon","coordinates":[[[83.5855,22.39007],[83.58363,22.39057],[83.584,22.39089],[83.58525,22.393],[83.58617,22.39231],[83.58751,22.39181],[83.58746,22.39108],[83.5879,22.39046],[83.58732,22.39004],[83.5855,22.39007]]]}},{"type":"Feature","bbox":[83.58219,22.38112,83.59144,22.39036],"properties":{"ward":12,"name":"Shantinagar Ward"},"geometry":{"type":"Polygon","coordinates":[[[83.58448,22.38914],[83.58474,22.39024],[83.5855,22.39],[83.58733,22.39001],[83.58792,22.39036],[83.59144,22.3864],[83.59076,22.38145],[83.58939,22.38112],[83.58555,22.38346],[83.58219,22.38521],[83.58235,22.38627],[83.58313,22.38586],[83.58402,22.38692],[83.58374,22.38772],[83.58498,22.38846],[83.58448,22.38914]]]}},{"type":"Feature","bbox":[83.58161,22.386,83.5849,22.39128],"properties":{"ward":13,"name":"Ravatpara Ward"},"geometry":{"type":"Polygon","coordinates":[[[83.58161,22.39128],[83.58469,22.39028],[83.58438,22.3891],[83.5849,22.38849],[83.58369,22.38774],[83.58387,22.38694],[83.58304,22.386],[83.5823,22.3865],[83.58261,22.38898],[83.5817,22.39075],[83.58161,22.39128]]]}},{"type":"Feature","bbox":[83.5716,22.38176,83.5825,22.39349],"properties":{"ward":14,"name":"Mangalbhavan Ward"},"geometry":{"type":"Polygon","coordinates":[[[83.57882,22.38602],[83.57661,22.38795],[83.57164,22.3915],[83.5716,22.39349],[83.57411,22.3929],[83.57525,22.39237],[83.57651,22.39207],[83.57706,22.39286],[83.58159,22.39127],[83.58165,22.39074],[83.5825,22.38893],[83.58144,22.38176],[83.57882,22.38602]]]}},{"type":"Feature","bbox":[83.56232,22.37946,83.58137,22.39793],"properties":{"ward":15,"name":"Bhadrapara Ward"},"geometry":{"type":"Polygon","coordinates":[[[83.56856,22.39377],[83.56232,22.39557],[83.56264,22.39719],[83.56393,22.3975],[83.5648,22.39793],[83.57101,22.39432],[83.57152,22.39138],[83.57634,22.38773],[83.57867,22.38569],[83.58137,22.38163],[83.58118,22.38046],[83.58068,22.37946],[83.57923,22.3809],[83.5768,22.3815],[83.5754,22.38175],[83.57368,22.38101],[83.57244,22.38258],[83.57238,22.38891],[83.56856,22.39377]]]}}]}