{"type":"FeatureCollection","features":[{"type":"Feature","bbox":[81.11942,21.83554,81.13763,21.84557],"properties":{"ward":1,"name":"Ward 1, Pt. Shyama Prasad Mukherjee"},"geometry":{"type":"Polygon","coordinates":[[[81.11967,21.83707],[81.12175,21.83648],[81.12222,21.83668],[81.12263,21.83801],[81.12669,21.84162],[81.13159,21.84303],[81.13572,21.84553],[81.13635,21.84557],[81.13679,21.84528],[81.13763,21.84264],[81.13192,21.839],[81.12968,21.83718],[81.12641,21.83736],[81.12343,21.83616],[81.12221,21.83591],[81.122,21.83556],[81.12157,21.83554],[81.12071,21.83573],[81.12017,21.83607],[81.11967,21.83618],[81.11942,21.83608],[81.11967,21.83707]]]}},{"type":"Feature","bbox":[81.10679,21.83378,81.12115,21.84214],"properties":{"ward":2,"name":"Ward 2, Ravidas Ward"},"geometry":{"type":"Polygon","coordinates":[[[81.10679,21.84214],[81.11017,21.84106],[81.11961,21.8372],[81.1194,21.83599],[81.11974,21.83613],[81.12021,21.83595],[81.12115,21.83443],[81.12111,21.83388],[81.12057,21.83378],[81.11973,21.83426],[81.11876,21.83452],[81.11073,21.83891],[81.10959,21.83971],[81.107,21.84113],[81.10679,21.84214]]]}},{"type":"Feature","bbox":[81.09283,21.8331,81.12113,21.84098],"properties":{"ward":3,"name":"Ward 3, Sant Kabir Ward"},"geometry":{"type":"Polygon","coordinates":[[[81.10707,21.84098],[81.11427,21.83689],[81.12027,21.83379],[81.12113,21.83378],[81.12101,21.83364],[81.11891,21.83361],[81.11842,21.83327],[81.11737,21.83366],[81.11676,21.8331],[81.10397,21.83336],[81.1008,21.83362],[81.0951,21.83588],[81.09343,21.83679],[81.09283,21.83728],[81.09347,21.83899],[81.09411,21.83928],[81.09863,21.83974],[81.10182,21.84035],[81.10707,21.84098]]]}},{"type":"Feature","bbox":[81.11389,21.82901,81.12139,21.83374],"properties":{"ward":4,"name":"Ward 4, Minimata Ward"},"geometry":{"type":"Polygon","coordinates":[[[81.11443,21.83306],[81.11674,21.83305],[81.11748,21.83357],[81.11836,21.8332],[81.11888,21.8335],[81.12108,21.83359],[81.12121,21.83374],[81.12139,21.83225],[81.12121,21.83176],[81.12045,21.83095],[81.12006,21.82984],[81.11974,21.82958],[81.11681,21.82901],[81.11617,21.82905],[81.1149,21.82957],[81.11389,21.83054],[81.11443,21.83306]]]}},{"type":"Feature","bbox":[81.11995,21.82849,81.12258,21.8318],"properties":{"ward":5,"name":"Ward 5, Guru Ghasidas Ward"},"geometry":{"type":"Polygon","coordinates":[[[81.11995,21.82968],[81.12045,21.83096],[81.12126,21.8318],[81.1222,21.83176],[81.12258,21.83159],[81.12254,21.83097],[81.12237,21.83085],[81.12207,21.83095],[81.12174,21.83044],[81.12105,21.82849],[81.11995,21.82968]]]}},{"type":"Feature","bbox":[81.12104,21.82661,81.12492,21.83304],"properties":{"ward":6,"name":"Ward 6, Shahid Bhagat Singh Ward"},"geometry":{"type":"Polygon","coordinates":[[[81.12148,21.83262],[81.12186,21.83304],[81.12298,21.83187],[81.12492,21.83123],[81.12492,21.83027],[81.12436,21.82944],[81.12361,21.82694],[81.12339,21.82661],[81.12271,21.82669],[81.12104,21.82848],[81.12177,21.83049],[81.12209,21.83093],[81.12241,21.83084],[81.12254,21.83098],[81.12257,21.83161],[81.12241,21.83172],[81.12126,21.83181],[81.12148,21.83262]]]}},{"type":"Feature","bbox":[81.1203,21.83205,81.12382,21.83582],"properties":{"ward":7,"name":"Ward 7, Shahid Veer Narayan Singh Ward"},"geometry":{"type":"Polygon","coordinates":[[[81.1203,21.83582],[81.12143,21.83548],[81.1227,21.8354],[81.12349,21.83503],[81.12313,21.83418],[81.12369,21.8336],[81.12382,21.83296],[81.12356,21.83238],[81.12286,21.83205],[81.12185,21.83305],[81.12144,21.83266],[81.12117,21.83441],[81.1203,21.83582]]]}},{"type":"Feature","bbox":[81.12207,21.83391,81.12435,21.83653],"properties":{"ward":8,"name":"Ward 8, Dr. Bhimrao Ambedkar Ward"},"geometry":{"type":"Polygon","coordinates":[[[81.12224,21.83585],[81.12316,21.83601],[81.12435,21.83653],[81.12434,21.83482],[81.12393,21.83481],[81.12346,21.83391],[81.12314,21.83419],[81.12352,21.83504],[81.12258,21.83546],[81.12207,21.83551],[81.12224,21.83585]]]}},{"type":"Feature","bbox":[81.12434,21.83402,81.12972,21.83733],"properties":{"ward":9,"name":"Ward 9, Pt. Deendayal Upadhyaya Ward"},"geometry":{"type":"Polygon","coordinates":[[[81.12434,21.83658],[81.12637,21.83733],[81.12972,21.83715],[81.12614,21.83402],[81.12553,21.8344],[81.12434,21.83481],[81.12434,21.83658]]]}},{"type":"Feature","bbox":[81.12287,21.83115,81.12612,21.83479],"properties":{"ward":10,"name":"Ward 10 Maharana Pratap Ward"},"geometry":{"type":"Polygon","coordinates":[[[81.12396,21.83479],[81.125,21.83457],[81.12612,21.834],[81.12567,21.83276],[81.12543,21.83115],[81.12287,21.832],[81.12352,21.83234],[81.12374,21.83271],[81.12383,21.83294],[81.1235,21.8339],[81.12396,21.83479]]]}},{"type":"Feature","bbox":[81.12625,21.83115,81.13612,21.84159],"properties":{"ward":11,"name":"Ward 11, Mahatma Gandhi Ward"},"geometry":{"type":"Polygon","coordinates":[[[81.12625,21.83403],[81.13191,21.83896],[81.13603,21.84159],[81.13612,21.84109],[81.13475,21.84006],[81.13438,21.83949],[81.13331,21.83855],[81.13206,21.83828],[81.13047,21.83652],[81.13078,21.83629],[81.13092,21.83575],[81.13067,21.83506],[81.13077,21.83485],[81.13221,21.83441],[81.13449,21.83255],[81.13532,21.83115],[81.13327,21.83199],[81.13087,21.8326],[81.13045,21.83293],[81.12625,21.83403]]]}},{"type":"Feature","bbox":[81.12545,21.83098,81.13086,21.83398],"properties":{"ward":12,"name":"Ward 12, Subhash Chandra Bose Ward"},"geometry":{"type":"Polygon","coordinates":[[[81.12621,21.83398],[81.12984,21.8331],[81.13065,21.83283],[81.13086,21.83258],[81.13014,21.83157],[81.12949,21.83098],[81.12802,21.83181],[81.12665,21.83212],[81.12637,21.83194],[81.12581,21.83109],[81.12545,21.83119],[81.12577,21.83298],[81.12621,21.83398]]]}},{"type":"Feature","bbox":[81.12339,21.81576,81.12949,21.83214],"properties":{"ward":13,"name":"Ward 13, Rani Durgawati Ward"},"geometry":{"type":"Polygon","coordinates":[[[81.12339,21.82662],[81.12436,21.82941],[81.12494,21.83026],[81.12498,21.83118],[81.12581,21.83114],[81.12643,21.83204],[81.12668,21.83214],[81.12805,21.83178],[81.12949,21.83096],[81.12919,21.83002],[81.12927,21.82985],[81.12897,21.82943],[81.12927,21.82918],[81.12861,21.8284],[81.1267,21.82893],[81.12613,21.8283],[81.12567,21.82823],[81.126,21.81576],[81.12569,21.81577],[81.12356,21.82143],[81.12339,21.82662]]]}},{"type":"Feature","bbox":[81.12869,21.82764,81.13239,21.83256],"properties":{"ward":14,"name":"Ward 14, Rani Laxmi Bai Ward"},"geometry":{"type":"Polygon","coordinates":[[[81.12893,21.82883],[81.12913,21.82886],[81.12927,21.82916],[81.12896,21.82943],[81.12928,21.82985],[81.12917,21.83002],[81.12952,21.83096],[81.13088,21.83256],[81.13101,21.83254],[81.13198,21.83069],[81.13239,21.8285],[81.13153,21.82764],[81.12993,21.82777],[81.12941,21.82791],[81.12869,21.82841],[81.12893,21.82883]]]}},{"type":"Feature","bbox":[81.12998,21.82535,81.13534,21.83252],"properties":{"ward":15,"name":"Ward 15, Swami Vivekanand Ward"},"geometry":{"type":"Polygon","coordinates":[[[81.12998,21.82775],[81.13159,21.82769],[81.13245,21.82863],[81.13211,21.8304],[81.1315,21.83176],[81.13094,21.83252],[81.13334,21.83196],[81.13534,21.83105],[81.13492,21.83018],[81.13329,21.82839],[81.13341,21.82783],[81.13214,21.82552],[81.13109,21.82535],[81.13046,21.82554],[81.12998,21.82775]]]}}]}