{"type":"FeatureCollection","features":[{"type":"Feature","bbox":[83.04635,21.59221,83.06544,21.61059],"properties":{"ward":1,"name":"Indira Gandhi"},"geometry":{"type":"Polygon","coordinates":[[[83.06075,21.59427],[83.05596,21.59419],[83.05322,21.59312],[83.04918,21.59221],[83.04646,21.59241],[83.04635,21.59304],[83.04713,21.59784],[83.04832,21.60168],[83.04917,21.60394],[83.05027,21.60524],[83.05277,21.61059],[83.05698,21.6095],[83.06253,21.60402],[83.06344,21.60336],[83.06544,21.60059],[83.06436,21.59653],[83.06411,21.59343],[83.06075,21.59427]]]}},{"type":"Feature","bbox":[83.06443,21.59321,83.0794,21.60437],"properties":{"ward":2,"name":"Pt. jawahar Lal Nehru"},"geometry":{"type":"Polygon","coordinates":[[[83.06503,21.59855],[83.06578,21.6006],[83.07051,21.60412],[83.07572,21.60315],[83.0794,21.60437],[83.07509,21.59902],[83.07122,21.5934],[83.06805,21.59321],[83.06623,21.59428],[83.06443,21.59578],[83.06503,21.59855]]]}},{"type":"Feature","bbox":[83.06414,21.58928,83.0866,21.60874],"properties":{"ward":3,"name":"Subhash Chandra Bose"},"geometry":{"type":"Polygon","coordinates":[[[83.0643,21.59572],[83.06627,21.59403],[83.06798,21.59306],[83.07128,21.59324],[83.07956,21.60425],[83.08012,21.60456],[83.08031,21.60559],[83.08203,21.60836],[83.08394,21.60874],[83.08642,21.60613],[83.0866,21.60274],[83.08315,21.59919],[83.08209,21.59839],[83.08155,21.59707],[83.08052,21.5954],[83.07943,21.59457],[83.0781,21.59169],[83.07731,21.58928],[83.07385,21.5901],[83.06797,21.59238],[83.06414,21.59355],[83.0643,21.59572]]]}},{"type":"Feature","bbox":[83.07731,21.58703,83.09607,21.60576],"properties":{"ward":4,"name":"Chandra Sekhar Azad"},"geometry":{"type":"Polygon","coordinates":[[[83.08053,21.59541],[83.08229,21.59819],[83.08672,21.60225],[83.08669,21.60576],[83.08833,21.60195],[83.09183,21.60215],[83.09416,21.60139],[83.09607,21.60149],[83.09368,21.59909],[83.09376,21.59719],[83.08557,21.58703],[83.08397,21.58779],[83.07731,21.58929],[83.0781,21.59166],[83.07943,21.59458],[83.08053,21.59541]]]}},{"type":"Feature","bbox":[83.08564,21.58354,83.1136,21.60774],"properties":{"ward":5,"name":"Akbar Ganj"},"geometry":{"type":"Polygon","coordinates":[[[83.08627,21.58587],[83.08564,21.58695],[83.09128,21.59364],[83.09396,21.5971],[83.09398,21.5988],[83.09626,21.6016],[83.09873,21.60169],[83.10055,21.60116],[83.10335,21.60774],[83.10915,21.60177],[83.10978,21.59994],[83.11343,21.59464],[83.1136,21.59114],[83.11277,21.58695],[83.11284,21.58354],[83.11007,21.58478],[83.10864,21.58512],[83.10703,21.58475],[83.09913,21.58595],[83.09661,21.58599],[83.0922,21.58555],[83.09081,21.58525],[83.09046,21.58575],[83.08712,21.58513],[83.08627,21.58587]]]}},{"type":"Feature","bbox":[83.10056,21.57472,83.11276,21.58551],"properties":{"ward":6,"name":"Dr. Radha Krishdan"},"geometry":{"type":"Polygon","coordinates":[[[83.10175,21.58551],[83.10708,21.5845],[83.10863,21.58496],[83.10976,21.58468],[83.11276,21.5833],[83.11221,21.58218],[83.11182,21.58068],[83.11047,21.57813],[83.10839,21.57697],[83.10447,21.5773],[83.1031,21.57572],[83.10188,21.57472],[83.10148,21.57843],[83.10067,21.57999],[83.10056,21.58144],[83.10175,21.58551]]]}},{"type":"Feature","bbox":[83.08104,21.5847,83.08669,21.58832],"properties":{"ward":7,"name":"Lal Bahadur Sastri"},"geometry":{"type":"Polygon","coordinates":[[[83.08563,21.58701],[83.08669,21.58556],[83.08585,21.58501],[83.08442,21.58471],[83.08333,21.58493],[83.08183,21.5847],[83.08184,21.58548],[83.08104,21.58571],[83.08145,21.58832],[83.0837,21.58791],[83.08563,21.58701]]]}},{"type":"Feature","bbox":[83.07842,21.58566,83.08144,21.5888],"properties":{"ward":8,"name":"Saheed Bhagat Singh"},"geometry":{"type":"Polygon","coordinates":[[[83.07907,21.5888],[83.08144,21.58837],[83.08101,21.58571],[83.0797,21.58566],[83.07842,21.58607],[83.07907,21.5888]]]}},{"type":"Feature","bbox":[83.07411,21.5851,83.0791,21.58977],"properties":{"ward":9,"name":"Swami Vivekanand"},"geometry":{"type":"Polygon","coordinates":[[[83.07412,21.58833],[83.07492,21.58977],[83.07562,21.58968],[83.0791,21.58884],[83.07857,21.58724],[83.07835,21.5851],[83.07698,21.58553],[83.07675,21.58591],[83.07683,21.58662],[83.07599,21.58661],[83.07598,21.58697],[83.07508,21.58715],[83.07411,21.58807],[83.07412,21.58833]]]}},{"type":"Feature","bbox":[83.04647,21.58426,83.07492,21.59418],"properties":{"ward":10,"name":"Moulana Azad"},"geometry":{"type":"Polygon","coordinates":[[[83.06472,21.58472],[83.06032,21.58619],[83.05544,21.58706],[83.05192,21.58426],[83.04671,21.58503],[83.04647,21.59224],[83.04908,21.592],[83.05211,21.59252],[83.05609,21.59379],[83.06077,21.59418],[83.06186,21.59408],[83.06597,21.593],[83.07492,21.58978],[83.07458,21.58907],[83.07324,21.58922],[83.07184,21.58917],[83.06876,21.5898],[83.06813,21.58977],[83.06761,21.58885],[83.06748,21.58788],[83.06709,21.5871],[83.06472,21.58472]]]}},{"type":"Feature","bbox":[83.04829,21.56928,83.07441,21.58679],"properties":{"ward":11,"name":"Mahatma Gandhi"},"geometry":{"type":"Polygon","coordinates":[[[83.05207,21.58405],[83.05533,21.58653],[83.06031,21.58596],[83.06477,21.58463],[83.06723,21.58679],[83.07441,21.5808],[83.07416,21.57932],[83.07381,21.57851],[83.07297,21.57811],[83.06626,21.57711],[83.06566,21.57533],[83.06566,21.57411],[83.06314,21.57265],[83.05918,21.57152],[83.0556,21.57021],[83.05452,21.57011],[83.05403,21.56989],[83.05253,21.56979],[83.0514,21.56928],[83.05072,21.56935],[83.04977,21.56996],[83.0487,21.57191],[83.0483,21.57441],[83.04829,21.57601],[83.04857,21.57809],[83.04898,21.57917],[83.04916,21.58063],[83.04958,21.58188],[83.05064,21.58336],[83.05087,21.58413],[83.05207,21.58405]]]}},{"type":"Feature","bbox":[83.06754,21.58086,83.07825,21.58948],"properties":{"ward":12,"name":"Dr. Rajendra Prasad"},"geometry":{"type":"Polygon","coordinates":[[[83.07397,21.58814],[83.07504,21.58694],[83.07589,21.58689],[83.07587,21.58645],[83.07666,21.58644],[83.07663,21.58593],[83.07687,21.58542],[83.07825,21.58501],[83.07813,21.584],[83.07696,21.58265],[83.07451,21.58086],[83.07262,21.58294],[83.06754,21.58666],[83.06762,21.58768],[83.06829,21.58948],[83.07433,21.58894],[83.07397,21.58814]]]}},{"type":"Feature","bbox":[83.07713,21.58253,83.08171,21.58599],"properties":{"ward":13,"name":"Sardar Vallabh Bhai Patel"},"geometry":{"type":"Polygon","coordinates":[[[83.07713,21.58265],[83.07821,21.58394],[83.07845,21.58499],[83.07845,21.58599],[83.07954,21.58555],[83.08095,21.58566],[83.08171,21.58533],[83.08159,21.58451],[83.07723,21.58253],[83.07713,21.58265]]]}},{"type":"Feature","bbox":[83.06564,21.56644,83.08377,21.58446],"properties":{"ward":14,"name":"Dr Bhimrao Ambedkar"},"geometry":{"type":"Polygon","coordinates":[[[83.06618,21.57694],[83.07208,21.57768],[83.07385,21.57837],[83.07467,21.58058],[83.07741,21.58248],[83.0818,21.58446],[83.08179,21.5831],[83.08145,21.58238],[83.08124,21.5812],[83.0828,21.57781],[83.08365,21.57316],[83.08377,21.5715],[83.08322,21.56797],[83.08354,21.56679],[83.083,21.56644],[83.08161,21.56682],[83.08098,21.5673],[83.07949,21.56777],[83.07832,21.5677],[83.07548,21.56872],[83.07335,21.5697],[83.07052,21.57062],[83.06784,21.57067],[83.06666,21.57177],[83.06575,21.57341],[83.06564,21.57522],[83.06618,21.57694]]]}},{"type":"Feature","bbox":[83.08141,21.56532,83.10172,21.58581],"properties":{"ward":15,"name":"Shyama Prasad Mukharjii"},"geometry":{"type":"Polygon","coordinates":[[[83.08192,21.58449],[83.08326,21.5848],[83.0843,21.58459],[83.08591,21.58487],[83.08657,21.58532],[83.08714,21.58498],[83.09032,21.58554],[83.09082,21.58504],[83.09262,21.58549],[83.09729,21.58581],[83.10158,21.58545],[83.10039,21.58158],[83.10048,21.57998],[83.10125,21.57832],[83.10172,21.57476],[83.09926,21.57352],[83.09366,21.57391],[83.09602,21.57151],[83.09702,21.56957],[83.09677,21.56829],[83.09587,21.56727],[83.09244,21.56556],[83.08797,21.56532],[83.08309,21.56634],[83.08369,21.56691],[83.08392,21.57155],[83.08293,21.57769],[83.08141,21.58114],[83.08191,21.58315],[83.08192,21.58449]]]}}]}