{"type":"FeatureCollection","features":[{"type":"Feature","bbox":[83.67895,23.80911,83.6943,23.81934],"properties":{"ward":1,"name":"Vinowa Bhawe Ward"},"geometry":{"type":"MultiPolygon","coordinates":[[[[83.68849,23.81362],[83.68838,23.81348],[83.68916,23.81307],[83.6943,23.81079],[83.69274,23.80911],[83.68958,23.81006],[83.68584,23.81028],[83.68304,23.81304],[83.68244,23.81463],[83.6811,23.8155],[83.68022,23.81571],[83.67895,23.81663],[83.68118,23.81934],[83.68298,23.81868],[83.68558,23.81836],[83.68549,23.81791],[83.68933,23.81468],[83.68862,23.81377],[83.68849,23.81362]],[[83.6887,23.81388],[83.68866,23.81384],[83.68863,23.8138],[83.6887,23.81388]]],[[[83.68845,23.81356],[83.68849,23.81361],[83.68846,23.81358],[83.68845,23.81356]]],[[[83.68849,23.81361],[83.68849,23.81361],[83.6885,23.81362],[83.68849,23.81361]]],[[[83.68849,23.81361],[83.68843,23.81355],[83.68849,23.81361],[83.68849,23.81361]]],[[[83.68849,23.81361],[83.68854,23.81369],[83.68857,23.81372],[83.68849,23.81361]]],[[[83.68862,23.81377],[83.68859,23.81374],[83.68857,23.81372],[83.68862,23.81377]]]]}},{"type":"Feature","bbox":[83.68584,23.80471,83.69874,23.81078],"properties":{"ward":2,"name":"Mahatma Gandhi Ward"},"geometry":{"type":"Polygon","coordinates":[[[83.69668,23.80775],[83.69874,23.8051],[83.69833,23.80471],[83.69733,23.80481],[83.69434,23.80606],[83.69215,23.80669],[83.68729,23.80847],[83.68584,23.81028],[83.68955,23.81007],[83.69274,23.80911],[83.6943,23.81078],[83.69441,23.81016],[83.69481,23.80942],[83.69668,23.80775]]]}},{"type":"Feature","bbox":[83.68549,23.80904,83.70621,23.82523],"properties":{"ward":3,"name":"Lal Bhadur Shasrti Ward"},"geometry":{"type":"Polygon","coordinates":[[[83.69437,23.81076],[83.68838,23.81348],[83.68934,23.81468],[83.68549,23.81791],[83.68587,23.81926],[83.68639,23.8203],[83.6875,23.82128],[83.68851,23.82285],[83.68937,23.82523],[83.69433,23.82458],[83.69994,23.8223],[83.70297,23.82078],[83.70464,23.81965],[83.70551,23.81873],[83.70621,23.81706],[83.70575,23.81408],[83.70452,23.81104],[83.7037,23.80976],[83.7031,23.81017],[83.70107,23.81048],[83.70098,23.80904],[83.69973,23.80944],[83.69935,23.81105],[83.69773,23.81193],[83.6976,23.81227],[83.69574,23.81267],[83.69589,23.81052],[83.69437,23.81076]]]}},{"type":"Feature","bbox":[83.6943,23.80857,83.69609,23.81078],"properties":{"ward":4,"name":"Jawahar Lal Nehru Ward"},"geometry":{"type":"Polygon","coordinates":[[[83.69598,23.80857],[83.69531,23.80895],[83.69472,23.80955],[83.6943,23.81078],[83.69589,23.81052],[83.69583,23.80937],[83.69609,23.80868],[83.69598,23.80857]]]}},{"type":"Feature","bbox":[83.69574,23.80845,83.69948,23.81266],"properties":{"ward":5,"name":"Chandra Shekshar Aajad Ward"},"geometry":{"type":"Polygon","coordinates":[[[83.69599,23.80845],[83.6961,23.80867],[83.69584,23.80933],[83.69593,23.81137],[83.69574,23.81266],[83.69752,23.81232],[83.69774,23.81193],[83.69939,23.81102],[83.69948,23.81056],[83.69873,23.81084],[83.6975,23.81051],[83.69724,23.81059],[83.69712,23.80934],[83.69599,23.80845]]]}},{"type":"Feature","bbox":[83.69598,23.80684,83.70097,23.81083],"properties":{"ward":6,"name":"Subash Chandra Ward"},"geometry":{"type":"Polygon","coordinates":[[[83.69745,23.80684],[83.69598,23.80845],[83.69714,23.80936],[83.69724,23.81058],[83.6976,23.81052],[83.69872,23.81083],[83.69951,23.81054],[83.69962,23.80924],[83.70097,23.80886],[83.70092,23.80857],[83.70025,23.80771],[83.69759,23.80759],[83.69745,23.80684]]]}},{"type":"Feature","bbox":[83.70011,23.80618,83.7037,23.81048],"properties":{"ward":7,"name":"Jayprakash Ward"},"geometry":{"type":"Polygon","coordinates":[[[83.70097,23.80881],[83.70107,23.81048],[83.70308,23.81017],[83.7037,23.80976],[83.70324,23.80809],[83.70315,23.80618],[83.7018,23.80651],[83.70182,23.80664],[83.70011,23.80693],[83.70026,23.80771],[83.70097,23.80881]]]}},{"type":"Feature","bbox":[83.69753,23.80484,83.70182,23.80772],"properties":{"ward":8,"name":"Shivaji Ward"},"geometry":{"type":"Polygon","coordinates":[[[83.69753,23.80653],[83.6976,23.80758],[83.70021,23.80772],[83.70011,23.80693],[83.70182,23.80664],[83.70137,23.80484],[83.69856,23.80605],[83.69827,23.80566],[83.69753,23.80653]]]}},{"type":"Feature","bbox":[83.70073,23.80093,83.70363,23.80651],"properties":{"ward":9,"name":"Vivekanand Ward"},"geometry":{"type":"Polygon","coordinates":[[[83.7011,23.80309],[83.70073,23.80363],[83.70097,23.8043],[83.70132,23.80466],[83.70181,23.80651],[83.70315,23.80618],[83.70363,23.80403],[83.70354,23.80345],[83.70187,23.80413],[83.70161,23.80339],[83.7019,23.80257],[83.70215,23.80269],[83.70326,23.80123],[83.70274,23.80093],[83.70174,23.80094],[83.70155,23.80163],[83.70108,23.80235],[83.7011,23.80309]]]}},{"type":"Feature","bbox":[83.69827,23.8039,83.70044,23.80605],"properties":{"ward":10,"name":"Sardar Vallabh Bhai Ward"},"geometry":{"type":"MultiPolygon","coordinates":[[[[83.70036,23.80499],[83.69985,23.8039],[83.69928,23.80427],[83.69827,23.80565],[83.69856,23.80605],[83.70044,23.80517],[83.70041,23.80511],[83.70036,23.80499]],[[83.70037,23.805],[83.70037,23.805],[83.70037,23.80501],[83.70037,23.805]],[[83.70043,23.80514],[83.70043,23.80515],[83.70042,23.80514],[83.70043,23.80514]],[[83.70042,23.80514],[83.70042,23.80513],[83.70041,23.8051],[83.70042,23.80514]]],[[[83.7004,23.80508],[83.7004,23.80509],[83.7004,23.80507],[83.7004,23.80508]]]]}},{"type":"Feature","bbox":[83.69993,23.80363,83.70137,23.80517],"properties":{"ward":11,"name":"Indera Gandhi Ward"},"geometry":{"type":"Polygon","coordinates":[[[83.70137,23.80484],[83.70073,23.80363],[83.69993,23.80388],[83.70044,23.80517],[83.70137,23.80484]],[[83.70091,23.80416],[83.70091,23.80416],[83.7009,23.80414],[83.70091,23.80416]],[[83.70091,23.80416],[83.70093,23.8042],[83.70092,23.80418],[83.70091,23.80416]]]}},{"type":"Feature","bbox":[83.69635,23.80338,83.69981,23.8051],"properties":{"ward":12,"name":"Rajiv Gandhi Ward"},"geometry":{"type":"MultiPolygon","coordinates":[[[[83.69733,23.80481],[83.69833,23.80471],[83.69874,23.8051],[83.6993,23.80424],[83.6995,23.80407],[83.6996,23.80401],[83.69981,23.80391],[83.69979,23.80388],[83.69979,23.80388],[83.69979,23.80388],[83.69978,23.80385],[83.69977,23.80383],[83.69975,23.80379],[83.69961,23.80347],[83.69957,23.80338],[83.69869,23.80373],[83.69745,23.8037],[83.69635,23.80413],[83.69676,23.80503],[83.69697,23.80493],[83.69733,23.80481]],[[83.69979,23.80388],[83.69979,23.80388],[83.69978,23.80386],[83.69979,23.80388]]],[[[83.69735,23.80481],[83.69733,23.80481],[83.69738,23.80481],[83.69735,23.80481]]],[[[83.69741,23.80481],[83.6974,23.80481],[83.69739,23.80481],[83.69741,23.80481]]],[[[83.69739,23.80481],[83.69738,23.80481],[83.69738,23.80481],[83.69739,23.80481]]],[[[83.69965,23.80399],[83.69964,23.80399],[83.69967,23.80398],[83.69965,23.80399]]],[[[83.69979,23.80389],[83.6998,23.80389],[83.69981,23.80391],[83.69979,23.80389]]],[[[83.69979,23.80389],[83.69979,23.80388],[83.69979,23.80388],[83.69979,23.80389]]],[[[83.69979,23.80388],[83.69979,23.80389],[83.69979,23.80388],[83.69979,23.80388]]],[[[83.69979,23.80388],[83.69979,23.80388],[83.69979,23.80388],[83.69979,23.80388]]],[[[83.69979,23.80387],[83.69979,23.80388],[83.69977,23.80383],[83.69979,23.80387]]],[[[83.69979,23.80388],[83.69979,23.80388],[83.69979,23.80388],[83.69979,23.80388]]]]}},{"type":"Feature","bbox":[83.68697,23.79939,83.69957,23.80847],"properties":{"ward":13,"name":"Gangadhar Tilak Ward"},"geometry":{"type":"Polygon","coordinates":[[[83.68752,23.80766],[83.68729,23.80847],[83.69494,23.80582],[83.69676,23.80503],[83.69634,23.80413],[83.69745,23.8037],[83.69869,23.80373],[83.69957,23.80337],[83.69899,23.80208],[83.69883,23.80104],[83.69696,23.80096],[83.696,23.80132],[83.6958,23.80074],[83.69573,23.7995],[83.69516,23.79939],[83.69258,23.80129],[83.6898,23.80227],[83.6885,23.80303],[83.68761,23.80361],[83.68697,23.80432],[83.6875,23.80667],[83.68752,23.80766]]]}},{"type":"Feature","bbox":[83.695,23.79462,83.70174,23.80391],"properties":{"ward":14,"name":"Ravindranath Taigor Ward"},"geometry":{"type":"Polygon","coordinates":[[[83.6957,23.79462],[83.69506,23.79629],[83.695,23.7978],[83.69511,23.79925],[83.69516,23.79938],[83.69574,23.7995],[83.6958,23.80075],[83.696,23.80132],[83.69696,23.80095],[83.69874,23.80096],[83.69899,23.80208],[83.69981,23.80391],[83.70084,23.80359],[83.7011,23.80309],[83.70108,23.80235],[83.70155,23.80163],[83.70174,23.80093],[83.70079,23.80051],[83.70032,23.79806],[83.69808,23.79793],[83.69756,23.79676],[83.69691,23.79624],[83.69628,23.79511],[83.6957,23.79462]]]}},{"type":"Feature","bbox":[83.6957,23.79422,83.70256,23.80094],"properties":{"ward":15,"name":"Madan Mohan Malvis Ward"},"geometry":{"type":"MultiPolygon","coordinates":[[[[83.70032,23.79806],[83.70038,23.79832],[83.70059,23.79931],[83.70073,23.80008],[83.70079,23.80051],[83.70174,23.80094],[83.70256,23.80092],[83.70238,23.79932],[83.70148,23.79655],[83.70144,23.79472],[83.6977,23.79422],[83.69659,23.7943],[83.6957,23.79462],[83.69628,23.79512],[83.6969,23.79624],[83.69756,23.79676],[83.69808,23.79793],[83.70032,23.79806]],[[83.70032,23.79806],[83.70031,23.79805],[83.70033,23.79812],[83.70032,23.79806]]],[[[83.70077,23.80039],[83.70077,23.80034],[83.70077,23.80032],[83.70076,23.80029],[83.70076,23.80031],[83.70077,23.80039]]],[[[83.70077,23.80033],[83.70076,23.8003],[83.70077,23.80033],[83.70077,23.80033]]],[[[83.70048,23.79878],[83.7005,23.79889],[83.7005,23.7989],[83.7005,23.79889],[83.70048,23.79878]]]]}}]}