{"type":"FeatureCollection","features":[{"type":"Feature","bbox":[81.65238,18.39705,81.66508,18.4179],"properties":{"ward":1,"name":"Subhas Chandra Bose Ward"},"geometry":{"type":"Polygon","coordinates":[[[81.6592,18.39705],[81.65887,18.39725],[81.65891,18.39768],[81.65818,18.39814],[81.65769,18.39879],[81.65862,18.40018],[81.65912,18.40134],[81.65996,18.4021],[81.66039,18.40347],[81.65253,18.41057],[81.65238,18.41643],[81.65274,18.41689],[81.65725,18.4147],[81.66029,18.4179],[81.66508,18.4146],[81.66327,18.40602],[81.66204,18.40203],[81.66079,18.40106],[81.66024,18.40012],[81.6592,18.39705]]]}},{"type":"Feature","bbox":[81.65915,18.39672,81.66546,18.4038],"properties":{"ward":2,"name":"Sardar Bhagat Singh Ward"},"geometry":{"type":"Polygon","coordinates":[[[81.65915,18.39689],[81.66024,18.40012],[81.66079,18.40106],[81.66204,18.40203],[81.66259,18.4038],[81.66421,18.40323],[81.66301,18.39949],[81.66546,18.39781],[81.6649,18.39672],[81.66248,18.39681],[81.66225,18.39782],[81.66114,18.39827],[81.66051,18.39818],[81.6601,18.39761],[81.65983,18.39674],[81.65915,18.39689]]]}},{"type":"Feature","bbox":[81.66259,18.40323,81.67825,18.42939],"properties":{"ward":3,"name":"Sivaji Ward"},"geometry":{"type":"Polygon","coordinates":[[[81.66327,18.40602],[81.66508,18.4146],[81.66887,18.41308],[81.6711,18.42074],[81.6755,18.42939],[81.67825,18.42437],[81.67449,18.41405],[81.67299,18.41095],[81.67242,18.40833],[81.66421,18.40323],[81.66259,18.4038],[81.66327,18.40602]]]}},{"type":"Feature","bbox":[81.65356,18.39534,81.65793,18.39879],"properties":{"ward":4,"name":"Pandit Jawahar Lal Nehru Ward"},"geometry":{"type":"Polygon","coordinates":[[[81.65652,18.3967],[81.6572,18.39534],[81.65626,18.39577],[81.6536,18.39588],[81.65356,18.39757],[81.65392,18.39817],[81.65583,18.398],[81.65768,18.39879],[81.65793,18.39847],[81.65691,18.39777],[81.65652,18.3967]]]}},{"type":"Feature","bbox":[81.65652,18.395,81.6592,18.39847],"properties":{"ward":5,"name":"Swami Vivekanand Ward"},"geometry":{"type":"Polygon","coordinates":[[[81.65858,18.39551],[81.65863,18.395],[81.6572,18.39534],[81.65652,18.3967],[81.65691,18.39777],[81.65793,18.39847],[81.65891,18.39768],[81.65887,18.39725],[81.6592,18.39705],[81.65858,18.39551]]]}},{"type":"Feature","bbox":[81.65858,18.39411,81.67255,18.40389],"properties":{"ward":6,"name":"Sardar Vallab Bhai Patel Ward"},"geometry":{"type":"Polygon","coordinates":[[[81.65915,18.39689],[81.65983,18.39674],[81.6601,18.39761],[81.66051,18.39818],[81.66114,18.39827],[81.66225,18.39782],[81.66248,18.39681],[81.6649,18.39672],[81.66546,18.39781],[81.6664,18.39808],[81.66759,18.40009],[81.67009,18.40186],[81.67151,18.40389],[81.67255,18.40328],[81.6719,18.40122],[81.66895,18.39919],[81.66827,18.39783],[81.668,18.39638],[81.66717,18.39487],[81.66212,18.39411],[81.66033,18.39429],[81.6587,18.39421],[81.65858,18.39551],[81.65915,18.39689]]]}},{"type":"Feature","bbox":[81.65254,18.39369,81.6572,18.39592],"properties":{"ward":7,"name":"Mahatma Gandhi Ward"},"geometry":{"type":"Polygon","coordinates":[[[81.65686,18.39441],[81.65639,18.39369],[81.65534,18.39439],[81.65458,18.39414],[81.65254,18.39467],[81.65331,18.39592],[81.65626,18.39577],[81.6572,18.39534],[81.65686,18.39441]]]}},{"type":"Feature","bbox":[81.65315,18.39303,81.65643,18.39449],"properties":{"ward":8,"name":"Birsa Munda Ward"},"geometry":{"type":"Polygon","coordinates":[[[81.65534,18.39439],[81.65639,18.39369],[81.65643,18.39316],[81.65518,18.39303],[81.65462,18.3932],[81.65374,18.39311],[81.65315,18.39449],[81.65458,18.39414],[81.65534,18.39439]]]}},{"type":"Feature","bbox":[81.65639,18.38838,81.65929,18.39534],"properties":{"ward":9,"name":"Mahadev Ward"},"geometry":{"type":"Polygon","coordinates":[[[81.6572,18.39534],[81.65863,18.395],[81.65929,18.38898],[81.65761,18.38838],[81.6567,18.39016],[81.65639,18.39369],[81.65686,18.39441],[81.6572,18.39534]]]}},{"type":"Feature","bbox":[81.6528,18.38736,81.65761,18.3932],"properties":{"ward":10,"name":"Shanti Nagar Ward"},"geometry":{"type":"Polygon","coordinates":[[[81.6567,18.39016],[81.65761,18.38838],[81.65481,18.38736],[81.6545,18.38816],[81.65454,18.38902],[81.65571,18.38962],[81.65538,18.39025],[81.65401,18.39015],[81.6528,18.39227],[81.65374,18.39311],[81.65462,18.3932],[81.65518,18.39303],[81.65643,18.39316],[81.6567,18.39016]]]}},{"type":"Feature","bbox":[81.6587,18.389,81.66266,18.39422],"properties":{"ward":11,"name":"Gyatri Mata Ward"},"geometry":{"type":"Polygon","coordinates":[[[81.6587,18.39421],[81.65912,18.39422],[81.66266,18.39181],[81.66182,18.389],[81.66135,18.38901],[81.65918,18.38985],[81.6587,18.39421]]]}},{"type":"Feature","bbox":[81.652,18.3838,81.65949,18.38894],"properties":{"ward":12,"name":"Shabri Nagar Ward"},"geometry":{"type":"Polygon","coordinates":[[[81.652,18.38634],[81.65919,18.38894],[81.65949,18.38777],[81.65883,18.38787],[81.65872,18.38672],[81.65833,18.38608],[81.65801,18.38507],[81.65857,18.38394],[81.65796,18.3838],[81.65425,18.38544],[81.65236,18.38572],[81.652,18.38634]]]}},{"type":"Feature","bbox":[81.65801,18.38188,81.66157,18.38985],"properties":{"ward":13,"name":"Sahid Chandra Shekhar Ward"},"geometry":{"type":"Polygon","coordinates":[[[81.65918,18.38985],[81.66135,18.38901],[81.66157,18.38853],[81.66139,18.38694],[81.66147,18.38533],[81.66,18.38188],[81.65825,18.38268],[81.65857,18.38394],[81.65801,18.38507],[81.65833,18.38608],[81.65872,18.38672],[81.65883,18.38787],[81.65949,18.38777],[81.65919,18.38894],[81.65929,18.38898],[81.65918,18.38985]]]}},{"type":"Feature","bbox":[81.6681,18.38412,81.67805,18.39688],"properties":{"ward":14,"name":"Pan. Deendayal Upadhay Ward"},"geometry":{"type":"Polygon","coordinates":[[[81.6681,18.39688],[81.6751,18.39293],[81.67652,18.38948],[81.67699,18.38664],[81.67805,18.38481],[81.67761,18.38412],[81.67492,18.38493],[81.66969,18.3883],[81.6681,18.39688]]]}},{"type":"Feature","bbox":[81.65913,18.3822,81.69508,18.39688],"properties":{"ward":15,"name":"Rangaraj Ward"},"geometry":{"type":"Polygon","coordinates":[[[81.66135,18.38901],[81.66182,18.389],[81.66266,18.39181],[81.65913,18.39422],[81.66033,18.39429],[81.66212,18.39411],[81.66717,18.39487],[81.668,18.39638],[81.66809,18.39688],[81.66969,18.38831],[81.67492,18.38493],[81.67761,18.38412],[81.67805,18.3848],[81.67766,18.38549],[81.68062,18.39101],[81.68713,18.39579],[81.6948,18.39542],[81.69508,18.39295],[81.69098,18.38687],[81.68657,18.38361],[81.67756,18.3822],[81.67369,18.38294],[81.67205,18.38335],[81.66705,18.3858],[81.66457,18.38587],[81.66334,18.38668],[81.66157,18.38853],[81.66135,18.38901]]]}}]}