{"type":"FeatureCollection","features":[{"type":"Feature","bbox":[81.36991,17.81227,81.37346,17.81638],"properties":{"ward":1,"name":"Swami Vivekanand Ward"},"geometry":{"type":"Polygon","coordinates":[[[81.37211,17.81638],[81.37346,17.8156],[81.37063,17.81227],[81.36991,17.81401],[81.37211,17.81638]]]}},{"type":"Feature","bbox":[81.37093,17.81075,81.37558,17.8156],"properties":{"ward":2,"name":"Chandra Shekar Ajad Ward"},"geometry":{"type":"Polygon","coordinates":[[[81.37346,17.8156],[81.37558,17.81424],[81.3735,17.81075],[81.37093,17.81261],[81.37346,17.8156]]]}},{"type":"Feature","bbox":[81.37339,17.80818,81.38087,17.81424],"properties":{"ward":3,"name":"Bhagat Singh Ward"},"geometry":{"type":"Polygon","coordinates":[[[81.37845,17.80818],[81.37371,17.80843],[81.37339,17.80931],[81.3735,17.81075],[81.37558,17.81424],[81.38087,17.8107],[81.37845,17.80818]]]}},{"type":"Feature","bbox":[81.37994,17.81037,81.38513,17.81916],"properties":{"ward":4,"name":"Indra Gandhi Ward"},"geometry":{"type":"Polygon","coordinates":[[[81.38124,17.81037],[81.38052,17.81093],[81.37994,17.81434],[81.38184,17.81573],[81.38513,17.81916],[81.38375,17.81312],[81.38432,17.81126],[81.38124,17.81037]]]}},{"type":"Feature","bbox":[81.38375,17.8118,81.38627,17.81916],"properties":{"ward":5,"name":"Chatrapati Shivaji Ward"},"geometry":{"type":"Polygon","coordinates":[[[81.38375,17.81313],[81.38513,17.81916],[81.38615,17.81545],[81.38627,17.81325],[81.38483,17.81199],[81.38416,17.8118],[81.38375,17.81313]]]}},{"type":"Feature","bbox":[81.38416,17.80842,81.38794,17.81366],"properties":{"ward":6,"name":"Pandit Jawahar Lal Nehru Ward"},"geometry":{"type":"Polygon","coordinates":[[[81.38541,17.80842],[81.38416,17.8118],[81.38483,17.81199],[81.38703,17.81366],[81.38794,17.8091],[81.38725,17.80904],[81.38541,17.80842]]]}},{"type":"Feature","bbox":[81.38124,17.80779,81.3854,17.81126],"properties":{"ward":7,"name":"Atal Bhiharivajpei Ward"},"geometry":{"type":"Polygon","coordinates":[[[81.38124,17.81037],[81.38432,17.81126],[81.3854,17.80842],[81.38393,17.80779],[81.38124,17.81037]]]}},{"type":"Feature","bbox":[81.3734,17.80819,81.38084,17.81423],"properties":{"ward":8,"name":"Dr. Bhimrao Ambetkar Ward"},"geometry":{"type":"Polygon","coordinates":[[[81.37558,17.81423],[81.38084,17.81068],[81.37844,17.80819],[81.37372,17.80845],[81.3734,17.80931],[81.37353,17.81076],[81.37558,17.81423]]]}},{"type":"Feature","bbox":[81.38044,17.80596,81.38372,17.80964],"properties":{"ward":9,"name":"Rajiv Gandhi Ward"},"geometry":{"type":"Polygon","coordinates":[[[81.38206,17.80964],[81.3828,17.80896],[81.38304,17.80722],[81.38372,17.80633],[81.38209,17.80673],[81.38088,17.80596],[81.38044,17.80734],[81.3815,17.80826],[81.38113,17.80863],[81.38206,17.80964]]]}},{"type":"Feature","bbox":[81.3779,17.8064,81.38206,17.81069],"properties":{"ward":10,"name":"Subhas Chandra Bose Ward"},"geometry":{"type":"Polygon","coordinates":[[[81.37845,17.80818],[81.38087,17.81069],[81.38206,17.80964],[81.38113,17.80863],[81.3815,17.80826],[81.37937,17.8064],[81.3779,17.80668],[81.37845,17.80818]]]}},{"type":"Feature","bbox":[81.38088,17.80527,81.38421,17.80672],"properties":{"ward":11,"name":"Pandit Shyama Prasad Mukharji Ward"},"geometry":{"type":"Polygon","coordinates":[[[81.38209,17.80672],[81.38372,17.80633],[81.38421,17.80566],[81.38384,17.80527],[81.38088,17.80597],[81.38209,17.80672]]]}},{"type":"Feature","bbox":[81.38373,17.80529,81.38688,17.80633],"properties":{"ward":12,"name":"Pandit Deendayal Upadhayay Ward"},"geometry":{"type":"Polygon","coordinates":[[[81.38424,17.80529],[81.38421,17.80566],[81.38373,17.80633],[81.38487,17.80626],[81.38688,17.80533],[81.38424,17.80529]]]}},{"type":"Feature","bbox":[81.3828,17.80574,81.38801,17.80896],"properties":{"ward":13,"name":"Shri Shirdi Sai Ward"},"geometry":{"type":"Polygon","coordinates":[[[81.38784,17.80604],[81.38604,17.80574],[81.38486,17.80626],[81.38372,17.80633],[81.38304,17.80722],[81.3828,17.80896],[81.38423,17.80748],[81.38801,17.80678],[81.38784,17.80604]]]}},{"type":"Feature","bbox":[81.3828,17.80574,81.38801,17.80896],"properties":{"ward":14,"name":"Alluri Sita Ram Raju Ward"},"geometry":{"type":"Polygon","coordinates":[[[81.38784,17.80604],[81.38604,17.80574],[81.38486,17.80626],[81.38372,17.80633],[81.38304,17.80722],[81.3828,17.80896],[81.38423,17.80748],[81.38801,17.80678],[81.38784,17.80604]]]}},{"type":"Feature","bbox":[81.38801,17.80585,81.39006,17.81072],"properties":{"ward":15,"name":"Shri Mahatma Gandhi Ward"},"geometry":{"type":"Polygon","coordinates":[[[81.38847,17.80908],[81.38994,17.81072],[81.39006,17.8077],[81.38986,17.80612],[81.38923,17.80585],[81.38838,17.80588],[81.38801,17.80678],[81.38847,17.80908]]]}}]}