{"type":"FeatureCollection","features":[{"type":"Feature","bbox":[77.78963,26.34294,77.80607,26.34948],"properties":{"ward":1},"geometry":{"type":"Polygon","coordinates":[[[77.80511,26.34792],[77.80494,26.34751],[77.80512,26.34658],[77.80607,26.34553],[77.79751,26.34368],[77.78972,26.34294],[77.78985,26.34434],[77.78963,26.34441],[77.78974,26.34496],[77.79687,26.34452],[77.7991,26.34499],[77.80202,26.34948],[77.80511,26.34792]]]}},{"type":"Feature","bbox":[77.78532,26.34212,77.80818,26.34592],"properties":{"ward":2},"geometry":{"type":"Polygon","coordinates":[[[77.80811,26.34401],[77.8028,26.34407],[77.79191,26.34251],[77.78532,26.34212],[77.78537,26.34257],[77.79751,26.34368],[77.80794,26.34592],[77.80807,26.34554],[77.80796,26.34493],[77.80818,26.34474],[77.80811,26.34401]]]}},{"type":"Feature","bbox":[77.80794,26.34401,77.815,26.34731],"properties":{"ward":3},"geometry":{"type":"Polygon","coordinates":[[[77.8146,26.3454],[77.81359,26.34571],[77.81348,26.3452],[77.81286,26.34535],[77.8129,26.34553],[77.81245,26.34567],[77.81243,26.34614],[77.80897,26.34422],[77.80811,26.34401],[77.80818,26.34474],[77.80796,26.34493],[77.80807,26.34554],[77.80794,26.34592],[77.81432,26.34731],[77.81357,26.34682],[77.815,26.3463],[77.8146,26.3454]]]}},{"type":"Feature","bbox":[77.81103,26.34266,77.8146,26.34614],"properties":{"ward":4},"geometry":{"type":"Polygon","coordinates":[[[77.8146,26.3454],[77.8146,26.34513],[77.81417,26.34523],[77.81402,26.34507],[77.81436,26.34454],[77.81368,26.34381],[77.81402,26.34369],[77.81389,26.34329],[77.81294,26.34305],[77.81313,26.34299],[77.81316,26.34266],[77.81205,26.34266],[77.81103,26.34297],[77.81105,26.34538],[77.81243,26.34614],[77.81245,26.34567],[77.8129,26.34553],[77.81286,26.34535],[77.81348,26.3452],[77.81359,26.34571],[77.8146,26.3454]]]}},{"type":"Feature","bbox":[77.80874,26.34111,77.81106,26.34537],"properties":{"ward":5},"geometry":{"type":"Polygon","coordinates":[[[77.81106,26.34537],[77.81088,26.34113],[77.81017,26.34111],[77.81023,26.34204],[77.80919,26.34245],[77.80926,26.34276],[77.80874,26.34316],[77.80882,26.34412],[77.81106,26.34537]]]}},{"type":"Feature","bbox":[77.80743,26.34111,77.81023,26.34323],"properties":{"ward":6},"geometry":{"type":"Polygon","coordinates":[[[77.81017,26.34111],[77.80749,26.34172],[77.80743,26.3418],[77.80778,26.34196],[77.80872,26.34323],[77.80926,26.34276],[77.80919,26.34245],[77.81023,26.34204],[77.81017,26.34111]]]}},{"type":"Feature","bbox":[77.8069,26.3418,77.80887,26.34417],"properties":{"ward":7},"geometry":{"type":"Polygon","coordinates":[[[77.80872,26.34323],[77.80776,26.34194],[77.80743,26.3418],[77.8069,26.34214],[77.80774,26.34346],[77.80781,26.34401],[77.80887,26.34417],[77.80872,26.34323]]]}},{"type":"Feature","bbox":[77.80376,26.34214,77.80781,26.3441],"properties":{"ward":8},"geometry":{"type":"Polygon","coordinates":[[[77.80781,26.34401],[77.80774,26.34346],[77.8069,26.34214],[77.80376,26.3441],[77.80781,26.34401]]]}},{"type":"Feature","bbox":[77.79393,26.33638,77.8043,26.3441],"properties":{"ward":9},"geometry":{"type":"Polygon","coordinates":[[[77.80376,26.3441],[77.8043,26.3437],[77.80406,26.34303],[77.80307,26.34316],[77.8027,26.34259],[77.80309,26.34233],[77.80296,26.3417],[77.80387,26.34155],[77.80366,26.34096],[77.80319,26.34103],[77.80306,26.34085],[77.80297,26.34042],[77.80311,26.33929],[77.80187,26.33926],[77.8012,26.33903],[77.80121,26.33724],[77.79931,26.33682],[77.79832,26.33638],[77.79393,26.33652],[77.7973,26.34327],[77.80376,26.3441]]]}},{"type":"Feature","bbox":[77.8027,26.34138,77.80573,26.3437],"properties":{"ward":10},"geometry":{"type":"Polygon","coordinates":[[[77.80573,26.34282],[77.80531,26.34226],[77.8052,26.34164],[77.80506,26.34169],[77.80487,26.34138],[77.80296,26.3417],[77.80309,26.34233],[77.8027,26.34259],[77.80307,26.34316],[77.80406,26.34303],[77.8043,26.3437],[77.80573,26.34282]]]}},{"type":"Feature","bbox":[77.80119,26.33724,77.80743,26.34282],"properties":{"ward":11},"geometry":{"type":"Polygon","coordinates":[[[77.80573,26.34282],[77.80743,26.3418],[77.80658,26.34015],[77.80644,26.33966],[77.80654,26.33908],[77.80385,26.33791],[77.80121,26.33724],[77.80119,26.33902],[77.80187,26.33926],[77.80311,26.33929],[77.80297,26.34042],[77.80319,26.34103],[77.80366,26.34096],[77.80387,26.34155],[77.80487,26.34138],[77.80506,26.34169],[77.8052,26.34164],[77.80531,26.34226],[77.80573,26.34282]]]}},{"type":"Feature","bbox":[77.80667,26.33962,77.80977,26.34174],"properties":{"ward":12},"geometry":{"type":"Polygon","coordinates":[[[77.80977,26.34116],[77.80812,26.33964],[77.80771,26.33962],[77.80765,26.33979],[77.80674,26.34001],[77.80686,26.34032],[77.80667,26.34037],[77.80742,26.34174],[77.80977,26.34116]]]}},{"type":"Feature","bbox":[77.79832,26.3362,77.80812,26.34037],"properties":{"ward":13},"geometry":{"type":"Polygon","coordinates":[[[77.80812,26.33964],[77.80791,26.33949],[77.80772,26.33863],[77.80532,26.3362],[77.79832,26.33638],[77.79931,26.33682],[77.80332,26.33774],[77.80557,26.33858],[77.80655,26.33908],[77.80644,26.33966],[77.80667,26.34037],[77.80686,26.34032],[77.80674,26.34001],[77.80765,26.33979],[77.80771,26.33962],[77.80812,26.33964]]]}},{"type":"Feature","bbox":[77.80532,26.33607,77.81088,26.34116],"properties":{"ward":14},"geometry":{"type":"Polygon","coordinates":[[[77.80977,26.34116],[77.81088,26.34112],[77.81078,26.33884],[77.81056,26.33863],[77.80999,26.33864],[77.80984,26.33607],[77.80532,26.3362],[77.80772,26.33863],[77.80791,26.33949],[77.80977,26.34116]]]}},{"type":"Feature","bbox":[77.80984,26.33543,77.81709,26.34331],"properties":{"ward":15},"geometry":{"type":"Polygon","coordinates":[[[77.80984,26.33607],[77.80999,26.33864],[77.81056,26.33863],[77.81078,26.33884],[77.81103,26.34297],[77.81205,26.34266],[77.81315,26.34265],[77.81313,26.34299],[77.81293,26.34302],[77.81318,26.34317],[77.81389,26.34329],[77.81406,26.34293],[77.81468,26.34289],[77.81499,26.34331],[77.81469,26.34249],[77.81587,26.34224],[77.81572,26.34152],[77.81709,26.34133],[77.81674,26.34026],[77.81439,26.3375],[77.81288,26.33543],[77.81206,26.336],[77.80984,26.33607]]]}},{"type":"Feature","bbox":[77.80494,26.34553,77.81475,26.3525],"properties":{"ward":16},"geometry":{"type":"Polygon","coordinates":[[[77.81432,26.34731],[77.80607,26.34553],[77.80513,26.34655],[77.80494,26.34751],[77.80511,26.34792],[77.80658,26.34718],[77.8068,26.34821],[77.80762,26.34808],[77.80783,26.34965],[77.80811,26.34953],[77.80843,26.35033],[77.80895,26.35026],[77.80906,26.34997],[77.81007,26.34974],[77.81018,26.35059],[77.81055,26.35051],[77.81063,26.35088],[77.8102,26.35102],[77.8104,26.35195],[77.81014,26.35201],[77.81035,26.3525],[77.81101,26.35241],[77.81297,26.35039],[77.81364,26.35007],[77.81367,26.34951],[77.81418,26.34822],[77.81475,26.34759],[77.81432,26.34731]]]}},{"type":"Feature","bbox":[77.79216,26.34453,77.80001,26.34828],"properties":{"ward":17},"geometry":{"type":"Polygon","coordinates":[[[77.80001,26.34629],[77.79916,26.34502],[77.79722,26.34453],[77.79311,26.34476],[77.7931,26.34546],[77.79231,26.34553],[77.79216,26.34569],[77.79261,26.34728],[77.7935,26.3472],[77.79355,26.34772],[77.79325,26.34778],[77.7935,26.34828],[77.79465,26.34815],[77.79468,26.34744],[77.79749,26.34707],[77.80001,26.34629]]]}},{"type":"Feature","bbox":[77.78766,26.33652,77.7973,26.34327],"properties":{"ward":18},"geometry":{"type":"Polygon","coordinates":[[[77.79393,26.33652],[77.7926,26.33656],[77.79262,26.33712],[77.79239,26.3372],[77.79233,26.33762],[77.79183,26.33779],[77.79205,26.33886],[77.78947,26.339],[77.78829,26.33941],[77.78852,26.33972],[77.7888,26.34158],[77.78766,26.34168],[77.78778,26.34226],[77.79191,26.34251],[77.7973,26.34327],[77.79393,26.33652]]]}}]}