{"type":"FeatureCollection","features":[{"type":"Feature","bbox":[81.19395,20.7379,81.20717,20.74549],"properties":{"ward":1,"name":"Shahid Bhagt Singh Ward"},"geometry":{"type":"Polygon","coordinates":[[[81.19562,20.74549],[81.20092,20.7416],[81.20149,20.74052],[81.20717,20.74207],[81.20691,20.74022],[81.19967,20.7379],[81.19882,20.7382],[81.19609,20.73952],[81.19395,20.74086],[81.19443,20.74282],[81.19562,20.74549]]]}},{"type":"Feature","bbox":[81.19967,20.73395,81.21128,20.74049],"properties":{"ward":2,"name":"Sanjay Nagar Ward"},"geometry":{"type":"Polygon","coordinates":[[[81.20945,20.73559],[81.20836,20.73449],[81.20784,20.73462],[81.20787,20.73395],[81.2062,20.73457],[81.2016,20.73714],[81.19967,20.7379],[81.20693,20.7402],[81.20695,20.74041],[81.20742,20.74049],[81.20781,20.73995],[81.20779,20.73895],[81.21128,20.73797],[81.21096,20.73741],[81.21124,20.73723],[81.21122,20.73648],[81.21006,20.73527],[81.20945,20.73559]]]}},{"type":"Feature","bbox":[81.20943,20.73305,81.21509,20.73798],"properties":{"ward":3,"name":"Mahamaya Ward"},"geometry":{"type":"Polygon","coordinates":[[[81.20943,20.73474],[81.21123,20.73648],[81.2113,20.73739],[81.21192,20.7376],[81.2131,20.73798],[81.21509,20.7366],[81.21375,20.73305],[81.21331,20.7332],[81.21371,20.73465],[81.21231,20.73464],[81.21216,20.7336],[81.21008,20.73434],[81.20943,20.73474]]]}},{"type":"Feature","bbox":[81.20752,20.73242,81.21007,20.73558],"properties":{"ward":4,"name":"Mahatma Gandhi Ward"},"geometry":{"type":"Polygon","coordinates":[[[81.20752,20.73269],[81.20771,20.73309],[81.20839,20.73371],[81.20788,20.73394],[81.20786,20.73459],[81.20836,20.73447],[81.20945,20.73558],[81.21005,20.73527],[81.20942,20.73474],[81.21007,20.73432],[81.20996,20.73352],[81.20904,20.73242],[81.20752,20.73269]]]}},{"type":"Feature","bbox":[81.20951,20.73055,81.21568,20.73464],"properties":{"ward":5,"name":"Haldhar Ward"},"geometry":{"type":"Polygon","coordinates":[[[81.21177,20.73158],[81.20951,20.73292],[81.20998,20.73352],[81.21007,20.73432],[81.21217,20.73359],[81.21232,20.73463],[81.2137,20.73464],[81.21329,20.7332],[81.21376,20.73302],[81.21568,20.73055],[81.21177,20.73158]]]}},{"type":"Feature","bbox":[81.207,20.72848,81.21746,20.7329],"properties":{"ward":6,"name":"Mahaveer Ward"},"geometry":{"type":"Polygon","coordinates":[[[81.20942,20.73172],[81.20868,20.73128],[81.207,20.73214],[81.20743,20.73269],[81.20905,20.73241],[81.20953,20.7329],[81.21204,20.73144],[81.21746,20.73013],[81.217,20.72848],[81.21388,20.72958],[81.21291,20.73028],[81.2106,20.73149],[81.20942,20.73172]]]}},{"type":"Feature","bbox":[81.20614,20.72706,81.21697,20.73211],"properties":{"ward":7,"name":"Guru Ghasidas Ward"},"geometry":{"type":"Polygon","coordinates":[[[81.20614,20.7306],[81.20622,20.73107],[81.20701,20.73211],[81.20868,20.73127],[81.20943,20.73171],[81.21059,20.73148],[81.2129,20.73026],[81.21387,20.72957],[81.21697,20.72848],[81.21679,20.72798],[81.21694,20.72784],[81.21691,20.72706],[81.20815,20.72942],[81.20614,20.7306]]]}},{"type":"Feature","bbox":[81.20505,20.73105,81.20839,20.73456],"properties":{"ward":8,"name":"Ganesh Ward"},"geometry":{"type":"Polygon","coordinates":[[[81.20619,20.73456],[81.20839,20.73371],[81.20771,20.7331],[81.20621,20.73105],[81.20531,20.73108],[81.20505,20.73128],[81.20526,20.73157],[81.20506,20.73225],[81.20619,20.73456]]]}},{"type":"Feature","bbox":[81.20318,20.73128,81.20619,20.73532],"properties":{"ward":9,"name":"Sardar Patel Ward"},"geometry":{"type":"Polygon","coordinates":[[[81.20505,20.73128],[81.20318,20.73188],[81.20482,20.73532],[81.20619,20.73456],[81.20506,20.73225],[81.20526,20.73157],[81.20505,20.73128]]]}},{"type":"Feature","bbox":[81.20277,20.72682,81.20621,20.73188],"properties":{"ward":10,"name":"Shubhash Ward"},"geometry":{"type":"Polygon","coordinates":[[[81.20298,20.72983],[81.20277,20.73041],[81.20281,20.73097],[81.20317,20.73188],[81.20368,20.7318],[81.20531,20.73108],[81.20621,20.73104],[81.20607,20.73065],[81.20594,20.72682],[81.20489,20.72691],[81.2044,20.73015],[81.20298,20.72983]]]}},{"type":"Feature","bbox":[81.20596,20.72062,81.21687,20.73062],"properties":{"ward":11,"name":"Jawahar Ward"},"geometry":{"type":"Polygon","coordinates":[[[81.20733,20.7255],[81.20596,20.72683],[81.20608,20.73062],[81.20813,20.7294],[81.21687,20.72707],[81.21676,20.72404],[81.21647,20.72267],[81.21566,20.72062],[81.21442,20.72097],[81.21094,20.72066],[81.20733,20.7255]]]}},{"type":"Feature","bbox":[81.20096,20.71694,81.21564,20.7269],"properties":{"ward":12,"name":"Lal Bahadur Shastri Ward"},"geometry":{"type":"Polygon","coordinates":[[[81.20096,20.72139],[81.20208,20.72568],[81.2049,20.7269],[81.20594,20.72682],[81.20731,20.72549],[81.21045,20.72113],[81.21094,20.72065],[81.21442,20.72096],[81.21564,20.72061],[81.21533,20.71979],[81.21478,20.71925],[81.2133,20.71834],[81.2119,20.71708],[81.21077,20.71694],[81.2049,20.71699],[81.20241,20.72025],[81.20114,20.72076],[81.20096,20.72139]]]}},{"type":"Feature","bbox":[81.19914,20.71232,81.20489,20.72269],"properties":{"ward":13,"name":"Dr. Ambedkar Ward"},"geometry":{"type":"Polygon","coordinates":[[[81.19928,20.71393],[81.19914,20.72072],[81.1993,20.72269],[81.19988,20.72268],[81.20064,20.72236],[81.20059,20.72166],[81.20096,20.72139],[81.20113,20.72076],[81.2024,20.72025],[81.20489,20.71699],[81.20392,20.71651],[81.20206,20.71509],[81.2009,20.7135],[81.2004,20.71232],[81.19987,20.71287],[81.19928,20.71393]]]}},{"type":"Feature","bbox":[81.19517,20.71807,81.20207,20.72568],"properties":{"ward":14,"name":"Pandit Dindayal Ward"},"geometry":{"type":"Polygon","coordinates":[[[81.19929,20.72273],[81.1991,20.71808],[81.19884,20.71807],[81.19517,20.72152],[81.19854,20.72437],[81.20207,20.72568],[81.20099,20.72141],[81.20059,20.72166],[81.20067,20.72236],[81.19988,20.72271],[81.19929,20.72273]]]}},{"type":"Feature","bbox":[81.18534,20.71471,81.1986,20.72767],"properties":{"ward":15,"name":"Shahid Veer Narayan Ward"},"geometry":{"type":"Polygon","coordinates":[[[81.1986,20.72442],[81.1951,20.72152],[81.19588,20.7208],[81.19568,20.7203],[81.18791,20.71471],[81.18534,20.71738],[81.19009,20.72198],[81.19132,20.72767],[81.19276,20.72622],[81.19525,20.72536],[81.19577,20.72573],[81.19755,20.72636],[81.1986,20.72442]]]}},{"type":"Feature","bbox":[81.19759,20.72443,81.20489,20.73015],"properties":{"ward":16,"name":"Shahid Gaindlal Singh Ward"},"geometry":{"type":"Polygon","coordinates":[[[81.19931,20.72816],[81.20214,20.72971],[81.2044,20.73015],[81.20489,20.72691],[81.19863,20.72443],[81.19759,20.72639],[81.19858,20.72715],[81.19931,20.72816]]]}},{"type":"Feature","bbox":[81.19133,20.72539,81.20075,20.73113],"properties":{"ward":17,"name":"Sheetla Ward"},"geometry":{"type":"Polygon","coordinates":[[[81.1976,20.72639],[81.19595,20.72585],[81.19526,20.72539],[81.19278,20.72625],[81.19133,20.72771],[81.19137,20.72937],[81.19345,20.73053],[81.1956,20.73113],[81.19955,20.73019],[81.20017,20.72935],[81.20075,20.72898],[81.19931,20.72816],[81.19858,20.72714],[81.1976,20.72639]]]}},{"type":"Feature","bbox":[81.19208,20.72897,81.20355,20.73535],"properties":{"ward":18,"name":"Tilak Ward"},"geometry":{"type":"Polygon","coordinates":[[[81.20355,20.73273],[81.20288,20.73137],[81.20277,20.73041],[81.2029,20.72982],[81.20215,20.72972],[81.20089,20.72897],[81.20018,20.72936],[81.19955,20.73019],[81.1956,20.73113],[81.19345,20.73054],[81.19264,20.72998],[81.19215,20.73208],[81.19208,20.73315],[81.19294,20.73535],[81.20031,20.73295],[81.20355,20.73273]]]}},{"type":"Feature","bbox":[81.19295,20.73274,81.20482,20.73949],"properties":{"ward":19,"name":"Swami Vivekanand Ward"},"geometry":{"type":"Polygon","coordinates":[[[81.19295,20.73535],[81.19367,20.73668],[81.19513,20.73776],[81.19614,20.73949],[81.19882,20.73819],[81.20159,20.73712],[81.20482,20.73532],[81.20359,20.73274],[81.20031,20.73295],[81.19295,20.73535]]]}},{"type":"Feature","bbox":[81.18578,20.7294,81.19613,20.74085],"properties":{"ward":20,"name":"Indira Gandhi Ward"},"geometry":{"type":"Polygon","coordinates":[[[81.19387,20.74085],[81.19613,20.73945],[81.19512,20.73776],[81.19366,20.73667],[81.19299,20.73549],[81.19208,20.73315],[81.19215,20.73208],[81.19264,20.72999],[81.19136,20.7294],[81.19139,20.72987],[81.19052,20.73219],[81.1874,20.73134],[81.18578,20.73293],[81.18772,20.73467],[81.19043,20.73464],[81.19193,20.73653],[81.19189,20.73806],[81.19248,20.73913],[81.19248,20.73975],[81.19304,20.74065],[81.19387,20.74085]]]}}]}