{"type":"FeatureCollection","features":[{"type":"Feature","bbox":[81.4124,21.34853,81.42251,21.35944],"properties":{"ward":1,"name":"Shitla Mandir Ward/Td&Gt;"},"geometry":{"type":"Polygon","coordinates":[[[81.41734,21.35944],[81.41754,21.35944],[81.41727,21.35903],[81.41758,21.35881],[81.41915,21.35847],[81.41905,21.35805],[81.41867,21.35791],[81.41845,21.35639],[81.4182,21.35567],[81.41799,21.35549],[81.42251,21.35104],[81.41998,21.34928],[81.41708,21.34855],[81.41348,21.34853],[81.4124,21.34887],[81.41453,21.35332],[81.41489,21.35726],[81.41538,21.35824],[81.41675,21.35873],[81.41734,21.35944]]]}},{"type":"Feature","bbox":[81.41801,21.34671,81.42881,21.35858],"properties":{"ward":2,"name":"Santoshi Mandir Ward"},"geometry":{"type":"Polygon","coordinates":[[[81.42685,21.34671],[81.41801,21.35549],[81.41846,21.3564],[81.41868,21.35791],[81.41906,21.35805],[81.41915,21.3584],[81.42087,21.35858],[81.42184,21.35803],[81.42247,21.35652],[81.42574,21.35184],[81.42881,21.3489],[81.42864,21.34823],[81.42782,21.34722],[81.42755,21.3472],[81.42685,21.34671]]]}},{"type":"Feature","bbox":[81.41727,21.35616,81.42604,21.3637],"properties":{"ward":3,"name":"Indira Gandhi Ward"},"geometry":{"type":"Polygon","coordinates":[[[81.41949,21.35836],[81.41774,21.35874],[81.41727,21.35903],[81.41754,21.35944],[81.41864,21.35953],[81.4191,21.36111],[81.42074,21.36189],[81.42352,21.36287],[81.42379,21.36273],[81.42544,21.3637],[81.42604,21.36312],[81.4244,21.35783],[81.42271,21.35616],[81.42184,21.35804],[81.42087,21.35858],[81.41949,21.35836]]]}},{"type":"Feature","bbox":[81.41477,21.35825,81.43397,21.38035],"properties":{"ward":4,"name":"Sanjay Nagar Ward"},"geometry":{"type":"Polygon","coordinates":[[[81.41883,21.3606],[81.41864,21.35953],[81.41734,21.35944],[81.41673,21.35875],[81.41538,21.35825],[81.41477,21.35888],[81.41535,21.35904],[81.41668,21.36028],[81.41806,21.36126],[81.41818,21.36169],[81.41779,21.36262],[81.41809,21.36363],[81.42226,21.36846],[81.42479,21.37304],[81.4238,21.37391],[81.42475,21.37668],[81.43236,21.38035],[81.43381,21.37971],[81.43397,21.37854],[81.43163,21.37652],[81.43115,21.37634],[81.42854,21.37253],[81.42807,21.37085],[81.42858,21.36776],[81.42784,21.3651],[81.42378,21.36275],[81.42352,21.36288],[81.42071,21.36188],[81.41909,21.36112],[81.41883,21.3606]]]}},{"type":"Feature","bbox":[81.41328,21.3586,81.41818,21.36364],"properties":{"ward":5,"name":"Subhash Chandra Bose Ward"},"geometry":{"type":"Polygon","coordinates":[[[81.41535,21.35904],[81.41457,21.35892],[81.41422,21.3586],[81.41332,21.3595],[81.41328,21.35982],[81.41722,21.36309],[81.41807,21.36364],[81.41779,21.36262],[81.41818,21.36169],[81.41806,21.36126],[81.41669,21.36029],[81.41535,21.35904]]]}},{"type":"Feature","bbox":[81.4122,21.35506,81.41537,21.35968],"properties":{"ward":6,"name":"Pt.Jawahar Lal Nehru Ward/Td&Gt;"},"geometry":{"type":"Polygon","coordinates":[[[81.41488,21.35715],[81.41476,21.35506],[81.41362,21.35513],[81.4123,21.35615],[81.41232,21.35666],[81.41315,21.35756],[81.4122,21.35872],[81.41329,21.35968],[81.41422,21.3586],[81.41476,21.35896],[81.41537,21.35825],[81.41488,21.35715]]]}},{"type":"Feature","bbox":[81.40814,21.34823,81.41475,21.35872],"properties":{"ward":7,"name":"Lal Bahadur Shastri Ward/Td&Gt;"},"geometry":{"type":"Polygon","coordinates":[[[81.4122,21.35872],[81.41314,21.35757],[81.41232,21.35667],[81.4123,21.35615],[81.41361,21.35512],[81.41475,21.35505],[81.41452,21.35332],[81.41239,21.34888],[81.41127,21.34829],[81.40973,21.34823],[81.40814,21.34853],[81.40912,21.3547],[81.41041,21.35711],[81.41187,21.35858],[81.4122,21.35872]]]}},{"type":"Feature","bbox":[81.40215,21.34855,81.40979,21.358],"properties":{"ward":8,"name":"Dr.Rajendra Prasad Ward/Td&Gt;"},"geometry":{"type":"Polygon","coordinates":[[[81.40813,21.34855],[81.40496,21.34906],[81.4046,21.351],[81.40449,21.35534],[81.40418,21.35596],[81.40215,21.358],[81.4063,21.35795],[81.40733,21.35729],[81.40818,21.3557],[81.40979,21.35597],[81.4091,21.35472],[81.40813,21.34855]]]}},{"type":"Feature","bbox":[81.39364,21.35405,81.40458,21.358],"properties":{"ward":9,"name":"Pt.Ravishankar Shukla Ward/Td&Gt;"},"geometry":{"type":"Polygon","coordinates":[[[81.40418,21.35595],[81.40448,21.35534],[81.40458,21.35405],[81.39637,21.35407],[81.39629,21.35454],[81.39421,21.35457],[81.39364,21.35585],[81.39677,21.35725],[81.39879,21.35793],[81.40214,21.358],[81.40418,21.35595]]]}},{"type":"Feature","bbox":[81.39421,21.35131,81.40459,21.35456],"properties":{"ward":10,"name":"Sardar Vallav Bhai Patel Ward/Td&Gt;"},"geometry":{"type":"Polygon","coordinates":[[[81.39562,21.35131],[81.39421,21.35456],[81.39628,21.35454],[81.39636,21.35406],[81.40457,21.35405],[81.40459,21.35197],[81.40436,21.35194],[81.40424,21.35233],[81.40178,21.35222],[81.40178,21.35147],[81.39562,21.35131]]]}},{"type":"Feature","bbox":[81.39736,21.3499,81.40469,21.35233],"properties":{"ward":11,"name":"Sswami Vivakanand Ward/Td&Gt;"},"geometry":{"type":"Polygon","coordinates":[[[81.39746,21.35035],[81.39736,21.35135],[81.40178,21.35147],[81.40179,21.35222],[81.40423,21.35233],[81.40435,21.35194],[81.40459,21.35197],[81.40469,21.3505],[81.4018,21.3504],[81.40177,21.35017],[81.40141,21.34991],[81.39936,21.3499],[81.39746,21.35035]]]}},{"type":"Feature","bbox":[81.39282,21.33743,81.40537,21.35135],"properties":{"ward":12,"name":"Shivram Mandir Ward/Td&Gt;"},"geometry":{"type":"Polygon","coordinates":[[[81.4018,21.3504],[81.40469,21.35049],[81.40495,21.34906],[81.40537,21.34899],[81.40464,21.34876],[81.40383,21.34799],[81.40225,21.34372],[81.40031,21.34219],[81.39868,21.34166],[81.39666,21.34038],[81.39622,21.33877],[81.39652,21.33743],[81.39389,21.33767],[81.39282,21.34318],[81.39285,21.34411],[81.39343,21.34508],[81.39513,21.34677],[81.39626,21.3483],[81.39634,21.34948],[81.39597,21.35066],[81.39736,21.35135],[81.39745,21.35035],[81.39936,21.34989],[81.40141,21.34991],[81.40178,21.35016],[81.4018,21.3504]]]}},{"type":"Feature","bbox":[81.38332,21.34459,81.3971,21.35776],"properties":{"ward":13,"name":"Guru Ghasidas Ward/Td&Gt;"},"geometry":{"type":"Polygon","coordinates":[[[81.39343,21.3451],[81.39312,21.34459],[81.39197,21.34519],[81.39014,21.34568],[81.38883,21.34662],[81.3885,21.34814],[81.38546,21.34863],[81.38364,21.34945],[81.38332,21.35021],[81.38455,21.35271],[81.38586,21.3572],[81.38872,21.35776],[81.39118,21.3575],[81.39269,21.35755],[81.39363,21.35586],[81.3956,21.35128],[81.3971,21.35129],[81.39592,21.35069],[81.39633,21.34947],[81.39625,21.3483],[81.39513,21.34678],[81.39343,21.3451]]]}},{"type":"Feature","bbox":[81.37852,21.33707,81.39388,21.34959],"properties":{"ward":14,"name":"Dr. Ambedkar Ward/Td&Gt;"},"geometry":{"type":"Polygon","coordinates":[[[81.39388,21.33766],[81.39212,21.33813],[81.3915,21.3386],[81.39027,21.33874],[81.3892,21.33831],[81.38788,21.33867],[81.38715,21.33707],[81.38638,21.33735],[81.38454,21.33764],[81.38121,21.33775],[81.37978,21.33836],[81.3788,21.34046],[81.37852,21.34276],[81.37875,21.34518],[81.37957,21.34685],[81.3817,21.34847],[81.38189,21.34882],[81.38335,21.34959],[81.38546,21.34862],[81.3885,21.34813],[81.38883,21.34662],[81.38919,21.34628],[81.39014,21.34568],[81.39197,21.34519],[81.39313,21.34459],[81.39284,21.34411],[81.39281,21.34319],[81.39388,21.33766]]]}},{"type":"Feature","bbox":[81.37653,21.32771,81.39864,21.33873],"properties":{"ward":15,"name":"Chaturbhuji Mandir Ward/Td&Gt;"},"geometry":{"type":"Polygon","coordinates":[[[81.38454,21.33763],[81.38715,21.33707],[81.38788,21.33867],[81.3892,21.3383],[81.39027,21.33873],[81.3915,21.33859],[81.39211,21.33813],[81.39388,21.33766],[81.39652,21.33742],[81.39805,21.33486],[81.39854,21.33373],[81.39864,21.33251],[81.39802,21.33092],[81.39673,21.33001],[81.39601,21.32984],[81.39386,21.33039],[81.39294,21.32852],[81.39285,21.32783],[81.39095,21.32771],[81.39025,21.32776],[81.38894,21.3283],[81.38756,21.32789],[81.38704,21.32927],[81.38211,21.32971],[81.37756,21.33113],[81.37679,21.33257],[81.37721,21.33484],[81.37653,21.33791],[81.37846,21.33846],[81.37973,21.33845],[81.38121,21.33774],[81.38454,21.33763]]]}}]}