{"type":"FeatureCollection","features":[{"type":"Feature","bbox":[81.59526,20.89548,81.5996,20.90109],"properties":{"ward":1,"name":"Shahid Bhagat Singh Ward"},"geometry":{"type":"Polygon","coordinates":[[[81.59637,20.90109],[81.599,20.90075],[81.59865,20.89927],[81.59771,20.89905],[81.59765,20.89853],[81.59781,20.89785],[81.59854,20.89813],[81.59928,20.8982],[81.5996,20.89721],[81.5976,20.89602],[81.59702,20.89548],[81.596,20.89562],[81.59526,20.89607],[81.59637,20.90109]]]}},{"type":"Feature","bbox":[81.59637,20.89721,81.60255,20.90596],"properties":{"ward":2,"name":"Swami Vivekanand Ward"},"geometry":{"type":"Polygon","coordinates":[[[81.599,20.90075],[81.59637,20.9011],[81.59764,20.90596],[81.60255,20.90444],[81.60188,20.90144],[81.60132,20.8976],[81.5996,20.89721],[81.59928,20.8982],[81.59854,20.89813],[81.59781,20.89785],[81.59765,20.89853],[81.59771,20.89905],[81.59865,20.89927],[81.599,20.90075]]]}},{"type":"Feature","bbox":[81.60179,20.9004,81.60716,20.90444],"properties":{"ward":3,"name":"Guru Ghansi Das Ward"},"geometry":{"type":"Polygon","coordinates":[[[81.60179,20.90084],[81.60254,20.90444],[81.60716,20.90101],[81.60661,20.90049],[81.6035,20.90065],[81.60322,20.9004],[81.60179,20.90084]]]}},{"type":"Feature","bbox":[81.6017,20.89902,81.60773,20.90101],"properties":{"ward":4,"name":"Pt Narayan Rao Meghawale Ward"},"geometry":{"type":"Polygon","coordinates":[[[81.60179,20.90085],[81.60321,20.9004],[81.6035,20.90065],[81.60661,20.9005],[81.60716,20.90101],[81.60773,20.89995],[81.60717,20.89974],[81.60576,20.89983],[81.60465,20.89962],[81.60429,20.89947],[81.60413,20.89917],[81.60335,20.89902],[81.60316,20.89978],[81.60228,20.89969],[81.60221,20.89997],[81.6017,20.90007],[81.60179,20.90085]]]}},{"type":"Feature","bbox":[81.60136,20.89805,81.60335,20.90007],"properties":{"ward":5,"name":"Pt Din Dayal Upadhayay Ward"},"geometry":{"type":"Polygon","coordinates":[[[81.6017,20.90007],[81.60221,20.89997],[81.60228,20.89969],[81.60316,20.89978],[81.60335,20.89902],[81.6024,20.89878],[81.60223,20.89838],[81.60136,20.89805],[81.6017,20.90007]]]}},{"type":"Feature","bbox":[81.60136,20.89805,81.60335,20.90007],"properties":{"ward":6,"name":"Mahatma Gandhi Ward"},"geometry":{"type":"Polygon","coordinates":[[[81.6017,20.90007],[81.60221,20.89997],[81.60228,20.89969],[81.60316,20.89978],[81.60335,20.89902],[81.6024,20.89878],[81.60223,20.89838],[81.60136,20.89805],[81.6017,20.90007]]]}},{"type":"Feature","bbox":[81.60062,20.89244,81.60786,20.89995],"properties":{"ward":7,"name":"Pt Kirdatt Rao Ward"},"geometry":{"type":"Polygon","coordinates":[[[81.60334,20.89894],[81.60413,20.89917],[81.60446,20.89956],[81.60576,20.89983],[81.60716,20.89974],[81.60773,20.89995],[81.60786,20.89966],[81.60767,20.89815],[81.60456,20.89261],[81.60393,20.89301],[81.60377,20.89244],[81.60179,20.89265],[81.6017,20.89365],[81.60062,20.89374],[81.60097,20.89549],[81.60293,20.89564],[81.60348,20.89599],[81.60324,20.89766],[81.60334,20.89894]]]}},{"type":"Feature","bbox":[81.5982,20.89135,81.60132,20.89761],"properties":{"ward":8,"name":"Chandi Mandir Ward"},"geometry":{"type":"Polygon","coordinates":[[[81.60132,20.89761],[81.60084,20.89459],[81.60016,20.89135],[81.59946,20.89198],[81.5982,20.89424],[81.59897,20.89484],[81.59893,20.89609],[81.59919,20.89639],[81.60009,20.89604],[81.60015,20.89739],[81.60132,20.89761]]]}},{"type":"Feature","bbox":[81.59702,20.89424,81.60015,20.89739],"properties":{"ward":9,"name":"Neta Ji Subhash Chandra Bose Ward"},"geometry":{"type":"Polygon","coordinates":[[[81.5982,20.89424],[81.59702,20.89548],[81.5976,20.89602],[81.5996,20.89721],[81.60015,20.89739],[81.60009,20.89604],[81.59919,20.89639],[81.59893,20.8961],[81.59897,20.89484],[81.59882,20.89465],[81.5982,20.89424]]]}},{"type":"Feature","bbox":[81.58982,20.89243,81.59381,20.89658],"properties":{"ward":10,"name":"Danteshwari Mandir Ward"},"geometry":{"type":"Polygon","coordinates":[[[81.59037,20.89243],[81.58984,20.89256],[81.58982,20.89658],[81.59313,20.8965],[81.59311,20.8943],[81.59365,20.89417],[81.59381,20.89368],[81.59345,20.89291],[81.59248,20.89307],[81.59238,20.89271],[81.59037,20.89243]]]}},{"type":"Feature","bbox":[81.59311,20.89278,81.59633,20.89651],"properties":{"ward":11,"name":"Shyama Prasad Mukharjee Ward"},"geometry":{"type":"Polygon","coordinates":[[[81.59311,20.8943],[81.59313,20.89651],[81.5953,20.89605],[81.59599,20.89563],[81.59597,20.89528],[81.5955,20.89498],[81.59551,20.8947],[81.5962,20.89421],[81.59633,20.89321],[81.59512,20.89285],[81.59425,20.89278],[81.59345,20.89291],[81.59381,20.89368],[81.59365,20.89418],[81.59311,20.8943]]]}},{"type":"Feature","bbox":[81.5955,20.89198,81.59946,20.89563],"properties":{"ward":12,"name":"Minimata Ward"},"geometry":{"type":"Polygon","coordinates":[[[81.59599,20.89563],[81.59702,20.89548],[81.59718,20.89532],[81.5982,20.89424],[81.59946,20.89198],[81.59851,20.89212],[81.59779,20.89255],[81.59748,20.89378],[81.59633,20.8932],[81.5962,20.89421],[81.59551,20.8947],[81.5955,20.89498],[81.59596,20.89528],[81.59599,20.89563]]]}},{"type":"Feature","bbox":[81.58991,20.89024,81.59779,20.89378],"properties":{"ward":13,"name":"Lal Bahadur Shashtri Ward"},"geometry":{"type":"Polygon","coordinates":[[[81.59175,20.89024],[81.58991,20.89248],[81.5908,20.89239],[81.59238,20.89271],[81.59248,20.89307],[81.59413,20.89279],[81.59512,20.89285],[81.59661,20.8933],[81.59748,20.89378],[81.59779,20.89255],[81.59717,20.89246],[81.59701,20.89177],[81.59708,20.89122],[81.59691,20.89114],[81.59175,20.89024]]]}},{"type":"Feature","bbox":[81.59175,20.88638,81.60027,20.89255],"properties":{"ward":14,"name":"Babuchhotelal Srivastav Ward"},"geometry":{"type":"Polygon","coordinates":[[[81.59342,20.88815],[81.59175,20.89024],[81.59709,20.89122],[81.59703,20.89199],[81.59729,20.8925],[81.59788,20.89255],[81.59851,20.89213],[81.59946,20.89198],[81.60027,20.89113],[81.59905,20.88638],[81.59622,20.8867],[81.59577,20.88692],[81.59342,20.88815]]]}},{"type":"Feature","bbox":[81.60004,20.88977,81.60455,20.89369],"properties":{"ward":15,"name":"Chandra Shekhar Azad Ward"},"geometry":{"type":"Polygon","coordinates":[[[81.60393,20.89301],[81.60455,20.89261],[81.60236,20.88977],[81.60004,20.89005],[81.60027,20.89113],[81.60019,20.89167],[81.60063,20.89369],[81.6017,20.89365],[81.60179,20.89265],[81.60377,20.89244],[81.60393,20.89301]]]}}]}