{"type":"FeatureCollection","features":[{"type":"Feature","bbox":[76.69816,25.6574,76.70859,25.66402],"properties":{"ward":2},"geometry":{"type":"Polygon","coordinates":[[[76.70323,25.66402],[76.70632,25.66007],[76.70859,25.65775],[76.70833,25.6574],[76.70656,25.65826],[76.70501,25.65836],[76.7042,25.6586],[76.703,25.6597],[76.70181,25.66019],[76.69903,25.66014],[76.69816,25.66046],[76.69821,25.66103],[76.69897,25.6613],[76.69922,25.6617],[76.69887,25.66235],[76.69895,25.66275],[76.69978,25.66267],[76.7019,25.66354],[76.7028,25.66362],[76.70323,25.66402]]]}},{"type":"Feature","bbox":[76.69532,25.66043,76.69912,25.66605],"properties":{"ward":3},"geometry":{"type":"Polygon","coordinates":[[[76.69806,25.66043],[76.69627,25.66139],[76.69561,25.66155],[76.69532,25.66183],[76.69541,25.66322],[76.69695,25.66605],[76.69777,25.66576],[76.69768,25.66515],[76.69789,25.6639],[76.6986,25.66365],[76.69869,25.66307],[76.69899,25.66287],[76.69874,25.66232],[76.69912,25.66167],[76.69892,25.66138],[76.69824,25.66111],[76.69806,25.66043]]]}},{"type":"Feature","bbox":[76.69702,25.66269,76.70122,25.66871],"properties":{"ward":4},"geometry":{"type":"Polygon","coordinates":[[[76.69778,25.66567],[76.69702,25.66612],[76.69807,25.66776],[76.69866,25.66829],[76.6996,25.66865],[76.70106,25.66871],[76.70122,25.66829],[76.7012,25.66732],[76.70035,25.66597],[76.69997,25.66565],[76.70011,25.66452],[76.70075,25.6635],[76.70079,25.66301],[76.69942,25.66269],[76.69904,25.6628],[76.69851,25.66371],[76.69783,25.66401],[76.69778,25.66567]]]}},{"type":"Feature","bbox":[76.70094,25.6688,76.71311,25.67533],"properties":{"ward":5},"geometry":{"type":"Polygon","coordinates":[[[76.70252,25.66961],[76.70112,25.6688],[76.70094,25.67126],[76.70414,25.67246],[76.71293,25.67533],[76.71311,25.67411],[76.71185,25.67322],[76.71207,25.67372],[76.71094,25.67367],[76.70988,25.67306],[76.70687,25.67193],[76.70517,25.67157],[76.70252,25.66961]]]}},{"type":"Feature","bbox":[76.70005,25.66322,76.71208,25.67371],"properties":{"ward":6},"geometry":{"type":"Polygon","coordinates":[[[76.70318,25.66403],[76.701,25.66322],[76.70024,25.66421],[76.70005,25.66485],[76.70014,25.66562],[76.70128,25.66721],[76.70121,25.66877],[76.70525,25.67157],[76.70697,25.67191],[76.7097,25.67291],[76.71089,25.67363],[76.71208,25.67371],[76.7117,25.67311],[76.70961,25.67123],[76.70884,25.66956],[76.70813,25.66845],[76.70604,25.66648],[76.70461,25.66566],[76.70304,25.6645],[76.70318,25.66403]]]}},{"type":"Feature","bbox":[76.69981,25.67121,76.71295,25.6798],"properties":{"ward":7},"geometry":{"type":"Polygon","coordinates":[[[76.7067,25.67966],[76.71086,25.67795],[76.71278,25.67674],[76.71295,25.67533],[76.70771,25.67379],[76.70342,25.67211],[76.70063,25.67121],[76.69981,25.67974],[76.70095,25.6798],[76.70551,25.67892],[76.7067,25.67966]]]}},{"type":"Feature","bbox":[76.69259,25.66762,76.70104,25.68205],"properties":{"ward":8},"geometry":{"type":"Polygon","coordinates":[[[76.69471,25.67644],[76.69259,25.68035],[76.69541,25.68123],[76.69619,25.6818],[76.69756,25.68205],[76.69959,25.67975],[76.70033,25.67246],[76.70104,25.66899],[76.70085,25.66877],[76.69991,25.66876],[76.69869,25.66842],[76.69785,25.66762],[76.69798,25.67082],[76.69752,25.67204],[76.69471,25.67644]]]}},{"type":"Feature","bbox":[76.68975,25.67896,76.7096,25.68839],"properties":{"ward":9},"geometry":{"type":"Polygon","coordinates":[[[76.68975,25.68474],[76.69358,25.68479],[76.69527,25.68549],[76.7008,25.68839],[76.70515,25.68461],[76.70694,25.68424],[76.7074,25.68355],[76.70857,25.68263],[76.7096,25.68143],[76.70837,25.68078],[76.70684,25.67964],[76.70542,25.67896],[76.70121,25.67977],[76.69952,25.67981],[76.69758,25.68221],[76.6964,25.68184],[76.69456,25.68083],[76.69252,25.68032],[76.68975,25.68474]]]}},{"type":"Feature","bbox":[76.68485,25.68112,76.69112,25.68474],"properties":{"ward":10},"geometry":{"type":"Polygon","coordinates":[[[76.68485,25.68468],[76.6897,25.68474],[76.69112,25.68243],[76.68995,25.68148],[76.68689,25.68112],[76.68485,25.68468]]]}},{"type":"Feature","bbox":[76.68178,25.67668,76.68737,25.68479],"properties":{"ward":11},"geometry":{"type":"Polygon","coordinates":[[[76.6819,25.6805],[76.68178,25.68479],[76.68487,25.6847],[76.68685,25.68112],[76.68737,25.6782],[76.68578,25.67793],[76.68455,25.67731],[76.68373,25.67668],[76.6819,25.6805]]]}},{"type":"Feature","bbox":[76.68687,25.68007,76.69216,25.68244],"properties":{"ward":12},"geometry":{"type":"Polygon","coordinates":[[[76.68687,25.68112],[76.68997,25.68147],[76.69112,25.68244],[76.69216,25.68081],[76.69088,25.68007],[76.68957,25.68043],[76.6871,25.68019],[76.68687,25.68112]]]}},{"type":"Feature","bbox":[76.68711,25.67917,76.69271,25.68079],"properties":{"ward":13},"geometry":{"type":"Polygon","coordinates":[[[76.68711,25.68015],[76.68956,25.68043],[76.69088,25.68008],[76.69216,25.68079],[76.69271,25.68005],[76.69038,25.67917],[76.68793,25.67917],[76.68783,25.67941],[76.68729,25.67942],[76.68711,25.68015]]]}},{"type":"Feature","bbox":[76.68376,25.67212,76.68984,25.67821],"properties":{"ward":14},"geometry":{"type":"Polygon","coordinates":[[[76.6864,25.6753],[76.68376,25.67666],[76.68514,25.67763],[76.68591,25.67798],[76.6874,25.67821],[76.68726,25.67767],[76.68734,25.67698],[76.68946,25.67483],[76.6898,25.67418],[76.68984,25.67361],[76.68956,25.67276],[76.68889,25.67271],[76.68803,25.67212],[76.6864,25.6753]]]}},{"type":"Feature","bbox":[76.68725,25.67765,76.69339,25.68001],"properties":{"ward":15},"geometry":{"type":"Polygon","coordinates":[[[76.68738,25.67827],[76.68726,25.67939],[76.6878,25.6794],[76.68789,25.67916],[76.69023,25.67916],[76.69272,25.68001],[76.69339,25.67887],[76.69161,25.67829],[76.69033,25.67809],[76.69,25.6778],[76.68725,25.67765],[76.68738,25.67827]]]}},{"type":"Feature","bbox":[76.68721,25.6757,76.69422,25.67886],"properties":{"ward":16},"geometry":{"type":"Polygon","coordinates":[[[76.6891,25.67767],[76.69047,25.67808],[76.69155,25.67821],[76.69337,25.67886],[76.69422,25.67725],[76.69076,25.67597],[76.68985,25.67586],[76.68951,25.67607],[76.68847,25.6757],[76.68732,25.67702],[76.68721,25.67765],[76.6891,25.67767]]]}},{"type":"Feature","bbox":[76.68855,25.67255,76.69573,25.67716],"properties":{"ward":17},"geometry":{"type":"Polygon","coordinates":[[[76.68979,25.67428],[76.68855,25.6757],[76.68948,25.67604],[76.68979,25.67586],[76.69048,25.6759],[76.69424,25.67716],[76.69573,25.6747],[76.69486,25.67393],[76.69445,25.67314],[76.69411,25.67294],[76.69216,25.67279],[76.69129,25.67255],[76.69109,25.67366],[76.68988,25.67357],[76.68979,25.67428]]]}},{"type":"Feature","bbox":[76.68961,25.67138,76.697,25.67463],"properties":{"ward":18},"geometry":{"type":"Polygon","coordinates":[[[76.68987,25.67353],[76.69109,25.67364],[76.69128,25.67254],[76.69364,25.67293],[76.69448,25.67309],[76.6949,25.67393],[76.69572,25.67463],[76.697,25.67266],[76.69489,25.67138],[76.69046,25.67156],[76.68999,25.67191],[76.68961,25.67257],[76.68987,25.67353]]]}},{"type":"Feature","bbox":[76.68967,25.66873,76.69273,25.67162],"properties":{"ward":19},"geometry":{"type":"Polygon","coordinates":[[[76.69013,25.67162],[76.69273,25.67143],[76.69268,25.67036],[76.69164,25.66912],[76.69151,25.66873],[76.69029,25.66971],[76.69098,25.67036],[76.69075,25.67089],[76.68989,25.67089],[76.68967,25.67103],[76.69013,25.67162]]]}},{"type":"Feature","bbox":[76.6881,25.66607,76.69309,25.67273],"properties":{"ward":20},"geometry":{"type":"Polygon","coordinates":[[[76.6884,25.6712],[76.6881,25.67204],[76.68882,25.67272],[76.68955,25.67273],[76.69016,25.67166],[76.68964,25.67101],[76.69074,25.67085],[76.69095,25.6704],[76.69027,25.66977],[76.69189,25.66837],[76.69273,25.66806],[76.69309,25.66761],[76.69211,25.66676],[76.69142,25.66641],[76.69068,25.66607],[76.68979,25.66611],[76.68888,25.66872],[76.6884,25.6712]]]}},{"type":"Feature","bbox":[76.69153,25.66438,76.6979,25.67258],"properties":{"ward":21},"geometry":{"type":"Polygon","coordinates":[[[76.69221,25.66962],[76.69268,25.67037],[76.69268,25.67149],[76.69488,25.67137],[76.69702,25.67258],[76.69741,25.67214],[76.6979,25.67107],[76.69781,25.66753],[76.69587,25.66438],[76.69457,25.66508],[76.69352,25.66616],[76.69314,25.66691],[76.69296,25.66793],[76.69289,25.6678],[76.6925,25.66796],[76.69276,25.66804],[76.69153,25.66866],[76.6917,25.66925],[76.69221,25.66962]]]}},{"type":"Feature","bbox":[76.68979,25.66177,76.69584,25.66749],"properties":{"ward":22},"geometry":{"type":"Polygon","coordinates":[[[76.69045,25.66432],[76.68979,25.66607],[76.69083,25.66611],[76.69177,25.66651],[76.69306,25.66749],[76.69343,25.66609],[76.69458,25.66509],[76.69584,25.66438],[76.69519,25.66285],[76.69456,25.66308],[76.69431,25.66264],[76.69383,25.66235],[76.69106,25.66177],[76.69045,25.66432]]]}},{"type":"Feature","bbox":[76.69107,25.65858,76.69606,25.66298],"properties":{"ward":23},"geometry":{"type":"Polygon","coordinates":[[[76.69308,25.66211],[76.69409,25.6625],[76.69458,25.66298],[76.69528,25.66276],[76.6953,25.66192],[76.69548,25.66158],[76.69606,25.66139],[76.69507,25.66107],[76.69367,25.65993],[76.69194,25.65911],[76.69118,25.65858],[76.69107,25.66177],[76.69308,25.66211]]]}}]}