{"type":"FeatureCollection","features":[{"type":"Feature","bbox":[81.70268,20.83376,81.72145,20.84916],"properties":{"ward":1,"name":"Shankar Nagar Ward"},"geometry":{"type":"Polygon","coordinates":[[[81.70269,20.84532],[81.70268,20.84855],[81.70632,20.84865],[81.70974,20.84832],[81.7121,20.8488],[81.71505,20.84916],[81.7172,20.84548],[81.71871,20.84415],[81.71903,20.8436],[81.71865,20.84329],[81.71856,20.84302],[81.71884,20.84095],[81.71925,20.8395],[81.71991,20.83809],[81.72049,20.83726],[81.72072,20.83593],[81.7211,20.83538],[81.72145,20.83387],[81.72093,20.83376],[81.72053,20.83454],[81.71661,20.83564],[81.71642,20.8355],[81.71642,20.83587],[81.71523,20.83654],[81.70538,20.84418],[81.70442,20.84436],[81.703,20.84427],[81.70269,20.84532]]]}},{"type":"Feature","bbox":[81.71864,20.83387,81.72635,20.84359],"properties":{"ward":2,"name":"Veernarayan Singh Ward"},"geometry":{"type":"Polygon","coordinates":[[[81.71865,20.84328],[81.71905,20.84359],[81.72125,20.84037],[81.72312,20.83926],[81.72481,20.83749],[81.72635,20.83621],[81.726,20.83591],[81.72562,20.83619],[81.72492,20.83561],[81.72409,20.83568],[81.72291,20.83546],[81.72276,20.83535],[81.7227,20.83441],[81.72145,20.83387],[81.7211,20.8354],[81.72072,20.83595],[81.72049,20.83727],[81.71994,20.83807],[81.71899,20.84043],[81.71864,20.84189],[81.71865,20.84328]]]}},{"type":"Feature","bbox":[81.72094,20.83203,81.72492,20.83567],"properties":{"ward":3,"name":"Pt. Deendayal Upadhayay Ward"},"geometry":{"type":"Polygon","coordinates":[[[81.72133,20.83269],[81.72094,20.83376],[81.72185,20.83395],[81.7227,20.8344],[81.72277,20.83535],[81.72292,20.83546],[81.72408,20.83567],[81.72492,20.83561],[81.72471,20.8344],[81.72451,20.8341],[81.72369,20.83373],[81.72356,20.83344],[81.72341,20.83244],[81.7235,20.83203],[81.72133,20.83269]]]}},{"type":"Feature","bbox":[81.72341,20.83068,81.73252,20.8362],"properties":{"ward":4,"name":"Gurughansidas Ward"},"geometry":{"type":"Polygon","coordinates":[[[81.72479,20.8354],[81.72561,20.83619],[81.72599,20.83591],[81.72635,20.8362],[81.73252,20.83134],[81.73201,20.83096],[81.72763,20.83068],[81.72391,20.83107],[81.72481,20.83137],[81.725,20.83165],[81.72481,20.83182],[81.72353,20.83203],[81.72341,20.83235],[81.72369,20.83373],[81.72451,20.8341],[81.72472,20.8344],[81.72479,20.8354]]]}},{"type":"Feature","bbox":[81.72294,20.82325,81.74172,20.83134],"properties":{"ward":5,"name":"Bajarang Chowk Ward"},"geometry":{"type":"Polygon","coordinates":[[[81.72386,20.83098],[81.72749,20.83067],[81.73002,20.83077],[81.73203,20.83096],[81.73252,20.83134],[81.73327,20.83077],[81.73727,20.82964],[81.74168,20.8273],[81.74172,20.82641],[81.74043,20.82498],[81.72468,20.82325],[81.7245,20.82356],[81.72479,20.82378],[81.72458,20.82521],[81.72382,20.82671],[81.7232,20.82714],[81.72294,20.82774],[81.72317,20.82839],[81.723,20.82906],[81.72308,20.82995],[81.72325,20.83021],[81.72374,20.83006],[81.72386,20.83098]]]}},{"type":"Feature","bbox":[81.72208,20.83005,81.725,20.83199],"properties":{"ward":6,"name":"Gandhi Chowk Ward"},"geometry":{"type":"MultiPolygon","coordinates":[[[[81.72208,20.83113],[81.72209,20.83112],[81.72208,20.83111],[81.72208,20.83113]]],[[[81.72209,20.83112],[81.72356,20.83145],[81.72367,20.83199],[81.72481,20.83181],[81.725,20.83165],[81.72463,20.83127],[81.72394,20.83117],[81.72374,20.83005],[81.72291,20.83044],[81.72209,20.83112]]]]}},{"type":"Feature","bbox":[81.72036,20.83079,81.72366,20.83269],"properties":{"ward":7,"name":"Dr. Shyamaprasad Mukharji Ward"},"geometry":{"type":"Polygon","coordinates":[[[81.72036,20.83079],[81.72134,20.83269],[81.72366,20.83199],[81.72356,20.83146],[81.72208,20.83112],[81.72189,20.83127],[81.72146,20.83122],[81.72036,20.83079]]]}},{"type":"Feature","bbox":[81.71866,20.82276,81.72478,20.83126],"properties":{"ward":8,"name":"Sarojni Chowk Ward"},"geometry":{"type":"Polygon","coordinates":[[[81.71944,20.82883],[81.72001,20.83053],[81.72033,20.83077],[81.72087,20.83088],[81.72111,20.83112],[81.72188,20.83126],[81.72326,20.83022],[81.72308,20.82995],[81.72299,20.82906],[81.72314,20.82807],[81.72293,20.82774],[81.72322,20.82712],[81.72381,20.82671],[81.72423,20.82566],[81.72457,20.82522],[81.72478,20.82378],[81.7245,20.82357],[81.72467,20.82324],[81.71967,20.82276],[81.71866,20.82285],[81.71903,20.82475],[81.71944,20.82883]]]}},{"type":"Feature","bbox":[81.71389,20.82326,81.71988,20.8301],"properties":{"ward":9,"name":"Shastri Nagar Ward"},"geometry":{"type":"Polygon","coordinates":[[[81.71466,20.83006],[81.71988,20.8301],[81.71943,20.82885],[81.71902,20.82475],[81.71868,20.82326],[81.71799,20.82334],[81.71689,20.82393],[81.71449,20.82544],[81.71402,20.82608],[81.71389,20.82664],[81.71466,20.83006]]]}},{"type":"Feature","bbox":[81.71618,20.83007,81.72133,20.8347],"properties":{"ward":10,"name":"Swami Vivekanand Ward"},"geometry":{"type":"Polygon","coordinates":[[[81.7162,20.83007],[81.71618,20.83313],[81.71688,20.83295],[81.71807,20.83301],[81.71877,20.83277],[81.71896,20.83432],[81.71985,20.8347],[81.72052,20.83455],[81.72133,20.83268],[81.72101,20.83189],[81.72032,20.83078],[81.72001,20.83053],[81.71986,20.8301],[81.7162,20.83007]]]}},{"type":"Feature","bbox":[81.71618,20.83278,81.71983,20.83564],"properties":{"ward":11,"name":"Mangal Pandey Ward"},"geometry":{"type":"Polygon","coordinates":[[[81.71638,20.83529],[81.7166,20.83564],[81.71983,20.83469],[81.71895,20.83433],[81.71877,20.83278],[81.71807,20.83301],[81.71689,20.83295],[81.71618,20.83314],[81.71638,20.83529]]]}},{"type":"Feature","bbox":[81.71146,20.83007,81.71642,20.83863],"properties":{"ward":12,"name":"Subhashchandra Boss Ward"},"geometry":{"type":"Polygon","coordinates":[[[81.7121,20.8345],[81.71215,20.83728],[81.71256,20.83863],[81.71515,20.83658],[81.71642,20.83588],[81.71618,20.83313],[81.7162,20.83007],[81.71158,20.83009],[81.71181,20.83202],[81.71146,20.83207],[81.7121,20.8345]]]}},{"type":"Feature","bbox":[81.71195,20.82525,81.71465,20.83006],"properties":{"ward":13,"name":"Autal Ward Ward"},"geometry":{"type":"Polygon","coordinates":[[[81.71195,20.83002],[81.71465,20.83006],[81.71388,20.82664],[81.71399,20.82612],[81.71447,20.82545],[81.71231,20.82525],[81.71239,20.82759],[81.71201,20.82831],[81.71195,20.83002]]]}},{"type":"Feature","bbox":[81.70083,20.82282,81.71868,20.83199],"properties":{"ward":14,"name":"Sanjay Nagar Ward"},"geometry":{"type":"Polygon","coordinates":[[[81.70083,20.83199],[81.70206,20.83181],[81.70267,20.83141],[81.70369,20.83123],[81.70727,20.83098],[81.70734,20.83026],[81.71195,20.83009],[81.712,20.82832],[81.71238,20.82758],[81.71231,20.82523],[81.71448,20.82543],[81.71798,20.82334],[81.71868,20.82326],[81.71862,20.82282],[81.70871,20.82346],[81.70218,20.82522],[81.70083,20.83199]]]}},{"type":"Feature","bbox":[81.70027,20.8301,81.71255,20.84854],"properties":{"ward":15,"name":"Vande Matram Ward"},"geometry":{"type":"Polygon","coordinates":[[[81.70083,20.83201],[81.70027,20.84832],[81.70265,20.84854],[81.70267,20.84529],[81.70298,20.84426],[81.70441,20.84435],[81.70536,20.84418],[81.71255,20.83863],[81.71215,20.83728],[81.71208,20.83415],[81.71145,20.83206],[81.71183,20.83202],[81.71157,20.8301],[81.70734,20.83027],[81.70083,20.83201]]]}}]}