{"type":"FeatureCollection","features":[{"type":"Feature","bbox":[77.56662,24.97724,77.57346,24.98529],"properties":{"ward":1},"geometry":{"type":"Polygon","coordinates":[[[77.56686,24.97812],[77.56662,24.97724],[77.56709,24.9792],[77.56775,24.98529],[77.57074,24.98528],[77.57301,24.97983],[77.57346,24.97844],[77.57343,24.97749],[77.56974,24.97814],[77.56686,24.97812]]]}},{"type":"Feature","bbox":[77.56664,24.97634,77.57346,24.97816],"properties":{"ward":2},"geometry":{"type":"Polygon","coordinates":[[[77.56664,24.97729],[77.56682,24.97816],[77.56994,24.97808],[77.57346,24.97754],[77.57343,24.97685],[77.57148,24.97674],[77.56973,24.97634],[77.56916,24.97643],[77.56919,24.97712],[77.56836,24.97705],[77.56664,24.97729]]]}},{"type":"Feature","bbox":[77.56625,24.9754,77.56919,24.97726],"properties":{"ward":3},"geometry":{"type":"Polygon","coordinates":[[[77.56663,24.97726],[77.56839,24.97705],[77.56919,24.97713],[77.56916,24.97643],[77.56889,24.97642],[77.56866,24.9754],[77.56625,24.97603],[77.56663,24.97726]]]}},{"type":"Feature","bbox":[77.5662,24.96896,77.57347,24.97686],"properties":{"ward":4},"geometry":{"type":"Polygon","coordinates":[[[77.56626,24.97603],[77.56867,24.97541],[77.56888,24.97643],[77.56973,24.97633],[77.57129,24.97675],[77.57347,24.97686],[77.57339,24.97545],[77.57193,24.9718],[77.57077,24.9702],[77.56955,24.96896],[77.56824,24.97296],[77.56846,24.97373],[77.56788,24.97472],[77.56733,24.97529],[77.5662,24.9759],[77.56626,24.97603]]]}},{"type":"Feature","bbox":[77.56568,24.97328,77.56845,24.97587],"properties":{"ward":5},"geometry":{"type":"Polygon","coordinates":[[[77.5662,24.97587],[77.56725,24.97537],[77.56785,24.97475],[77.56845,24.9737],[77.56835,24.97328],[77.56766,24.97333],[77.56768,24.97356],[77.56568,24.9742],[77.5662,24.97587]]]}},{"type":"Feature","bbox":[77.56296,24.96245,77.56956,24.97416],"properties":{"ward":6},"geometry":{"type":"Polygon","coordinates":[[[77.56567,24.97416],[77.56766,24.97362],[77.56768,24.97342],[77.56834,24.97338],[77.56824,24.973],[77.56956,24.96898],[77.56556,24.96516],[77.56344,24.96245],[77.56302,24.96262],[77.56296,24.963],[77.56424,24.96737],[77.56567,24.97416]]]}},{"type":"Feature","bbox":[77.56052,24.96261,77.56495,24.97122],"properties":{"ward":7},"geometry":{"type":"Polygon","coordinates":[[[77.56495,24.97122],[77.5643,24.96765],[77.5629,24.96261],[77.56052,24.96323],[77.56095,24.96901],[77.56201,24.96971],[77.56301,24.97096],[77.56495,24.97122]]]}},{"type":"Feature","bbox":[77.56308,24.97099,77.56555,24.97437],"properties":{"ward":8},"geometry":{"type":"Polygon","coordinates":[[[77.56555,24.97409],[77.56495,24.97122],[77.56308,24.97099],[77.56328,24.97192],[77.56393,24.97311],[77.56495,24.97437],[77.56555,24.97409]]]}},{"type":"Feature","bbox":[77.56101,24.96913,77.56495,24.97601],"properties":{"ward":9},"geometry":{"type":"Polygon","coordinates":[[[77.56475,24.97441],[77.56495,24.97437],[77.56379,24.9729],[77.56336,24.97209],[77.56307,24.97102],[77.56221,24.96987],[77.56101,24.96913],[77.56144,24.97601],[77.56165,24.97579],[77.56293,24.97589],[77.56337,24.97529],[77.5648,24.97489],[77.56475,24.97441]]]}},{"type":"Feature","bbox":[77.56453,24.97409,77.56599,24.976],"properties":{"ward":10},"geometry":{"type":"Polygon","coordinates":[[[77.56599,24.97585],[77.56555,24.97409],[77.56475,24.97442],[77.5648,24.97489],[77.56453,24.97493],[77.5647,24.97562],[77.56498,24.976],[77.56599,24.97585]]]}},{"type":"Feature","bbox":[77.56409,24.97584,77.56644,24.97745],"properties":{"ward":11},"geometry":{"type":"Polygon","coordinates":[[[77.56599,24.97584],[77.56409,24.97617],[77.56428,24.97658],[77.56523,24.97644],[77.56554,24.97745],[77.56644,24.97705],[77.56599,24.97584]]]}},{"type":"Feature","bbox":[77.56203,24.97706,77.56778,24.98662],"properties":{"ward":12},"geometry":{"type":"Polygon","coordinates":[[[77.56644,24.97706],[77.56554,24.97746],[77.56482,24.97867],[77.56534,24.97915],[77.56437,24.98028],[77.56444,24.98073],[77.56203,24.98173],[77.56239,24.98662],[77.5648,24.98661],[77.56778,24.98615],[77.5671,24.97987],[77.56644,24.97706]]]}},{"type":"Feature","bbox":[77.56451,24.9764,77.56553,24.97777],"properties":{"ward":13},"geometry":{"type":"Polygon","coordinates":[[[77.56553,24.97745],[77.56526,24.97645],[77.56515,24.9764],[77.56451,24.97711],[77.56473,24.97718],[77.56515,24.97773],[77.56537,24.97777],[77.56553,24.97745]]]}},{"type":"Feature","bbox":[77.56141,24.97584,77.56541,24.98172],"properties":{"ward":14},"geometry":{"type":"Polygon","coordinates":[[[77.56196,24.97584],[77.56141,24.97601],[77.56201,24.98172],[77.56438,24.98071],[77.56439,24.98021],[77.56534,24.97917],[77.56483,24.97866],[77.56541,24.97781],[77.56464,24.97707],[77.56493,24.97657],[77.56429,24.97659],[77.5641,24.97614],[77.56378,24.97591],[77.56196,24.97584]]]}},{"type":"Feature","bbox":[77.56301,24.97497,77.56493,24.97614],"properties":{"ward":15},"geometry":{"type":"Polygon","coordinates":[[[77.56341,24.97532],[77.56301,24.97584],[77.56367,24.97583],[77.56413,24.97614],[77.56493,24.97599],[77.56466,24.97564],[77.56453,24.97497],[77.56341,24.97532]]]}}]}