{"type":"FeatureCollection","features":[{"type":"Feature","bbox":[80.96079,24.70273,80.97722,24.71368],"properties":{"ward":1},"geometry":{"type":"Polygon","coordinates":[[[80.97722,24.70788],[80.97453,24.70546],[80.97417,24.70474],[80.97543,24.70274],[80.97527,24.70273],[80.97258,24.70333],[80.96986,24.70421],[80.96527,24.70627],[80.96115,24.70822],[80.96079,24.70882],[80.96082,24.70929],[80.96136,24.71106],[80.96176,24.71167],[80.96202,24.71159],[80.96263,24.71254],[80.96224,24.71292],[80.96255,24.71336],[80.96282,24.71334],[80.96298,24.71368],[80.96659,24.71262],[80.96777,24.71277],[80.96809,24.71252],[80.96766,24.71142],[80.96803,24.711],[80.96893,24.71055],[80.97299,24.70953],[80.97499,24.7086],[80.97579,24.70843],[80.976,24.70814],[80.97722,24.70788]]]}},{"type":"Feature","bbox":[80.97417,24.70139,80.98648,24.70808],"properties":{"ward":2},"geometry":{"type":"Polygon","coordinates":[[[80.98648,24.70792],[80.98434,24.70213],[80.98373,24.70215],[80.98319,24.70177],[80.98053,24.70244],[80.97906,24.70154],[80.97786,24.70139],[80.97744,24.70149],[80.97551,24.70261],[80.97417,24.70474],[80.97453,24.70546],[80.97723,24.70789],[80.98524,24.70808],[80.98648,24.70792]]]}},{"type":"Feature","bbox":[80.9764,24.69901,80.98229,24.70244],"properties":{"ward":3},"geometry":{"type":"Polygon","coordinates":[[[80.98229,24.70205],[80.9817,24.70162],[80.98187,24.70097],[80.98178,24.69996],[80.98113,24.69947],[80.98077,24.69958],[80.98048,24.69932],[80.97894,24.69924],[80.97834,24.69901],[80.97718,24.69946],[80.97657,24.70076],[80.9764,24.70074],[80.97737,24.70131],[80.97746,24.70155],[80.97786,24.70139],[80.97906,24.70154],[80.98053,24.70244],[80.98229,24.70205]]]}},{"type":"Feature","bbox":[80.9731,24.6976,80.97834,24.70076],"properties":{"ward":4},"geometry":{"type":"Polygon","coordinates":[[[80.97834,24.69901],[80.97817,24.69767],[80.97792,24.6976],[80.97449,24.69794],[80.9731,24.69858],[80.9746,24.69941],[80.9758,24.70066],[80.97657,24.70076],[80.97718,24.69946],[80.97834,24.69901]]]}},{"type":"Feature","bbox":[80.94762,24.68361,80.97744,24.70968],"properties":{"ward":5},"geometry":{"type":"Polygon","coordinates":[[[80.95937,24.70902],[80.96986,24.70421],[80.97258,24.70333],[80.97543,24.70274],[80.97744,24.70149],[80.97737,24.70131],[80.9764,24.70074],[80.97561,24.70055],[80.9746,24.69941],[80.9731,24.69858],[80.97287,24.69874],[80.97241,24.69861],[80.97175,24.69801],[80.97065,24.69747],[80.96933,24.69654],[80.96731,24.69456],[80.96617,24.69244],[80.96813,24.68838],[80.96854,24.68594],[80.96796,24.68593],[80.96543,24.68522],[80.96486,24.68381],[80.96444,24.68361],[80.96213,24.68391],[80.95906,24.68577],[80.95755,24.68744],[80.95641,24.68972],[80.95601,24.69004],[80.95473,24.6903],[80.95241,24.69],[80.9519,24.69055],[80.95173,24.6914],[80.95006,24.6938],[80.94899,24.6936],[80.94848,24.69416],[80.94797,24.6967],[80.94762,24.69748],[80.94763,24.69787],[80.94819,24.69826],[80.94802,24.69966],[80.9485,24.6996],[80.94856,24.6998],[80.94839,24.69988],[80.94841,24.7001],[80.94918,24.69999],[80.94923,24.7001],[80.94925,24.7004],[80.94879,24.70049],[80.94913,24.70084],[80.94861,24.70101],[80.949,24.70132],[80.9487,24.70145],[80.9486,24.70182],[80.94902,24.70194],[80.94906,24.70219],[80.94839,24.70233],[80.94824,24.70251],[80.94837,24.70258],[80.94833,24.70277],[80.94812,24.70294],[80.94847,24.70354],[80.94951,24.70338],[80.94977,24.70365],[80.95068,24.70302],[80.95098,24.70308],[80.95104,24.70327],[80.95049,24.70358],[80.95048,24.70373],[80.95064,24.70374],[80.95094,24.70415],[80.95088,24.70464],[80.95118,24.70469],[80.95124,24.70444],[80.95195,24.70482],[80.95309,24.70489],[80.95363,24.70563],[80.95418,24.70713],[80.95514,24.7074],[80.95641,24.7086],[80.95661,24.70968],[80.95937,24.70902]]]}},{"type":"Feature","bbox":[80.96617,24.68279,80.98209,24.69874],"properties":{"ward":6},"geometry":{"type":"Polygon","coordinates":[[[80.97287,24.69874],[80.97449,24.69794],[80.97375,24.69649],[80.97353,24.69554],[80.97386,24.69528],[80.97504,24.69511],[80.97515,24.69503],[80.97504,24.69473],[80.97595,24.69439],[80.97737,24.69423],[80.9783,24.69393],[80.97868,24.69404],[80.97951,24.69385],[80.9799,24.6931],[80.98067,24.69286],[80.98145,24.69287],[80.98209,24.69257],[80.98144,24.69027],[80.98166,24.68905],[80.98136,24.68734],[80.98131,24.6858],[80.97897,24.68447],[80.97728,24.6845],[80.97696,24.68387],[80.97638,24.68386],[80.97617,24.68363],[80.97555,24.68353],[80.97488,24.68314],[80.97475,24.68279],[80.97437,24.68296],[80.97429,24.68338],[80.97351,24.68375],[80.97208,24.68406],[80.9703,24.68507],[80.96996,24.68504],[80.9694,24.68465],[80.96855,24.68583],[80.96813,24.68838],[80.96617,24.69244],[80.96731,24.69456],[80.96933,24.69654],[80.97065,24.69747],[80.97175,24.69801],[80.97241,24.69861],[80.97287,24.69874]]]}},{"type":"Feature","bbox":[80.98048,24.69918,80.98319,24.70207],"properties":{"ward":7},"geometry":{"type":"Polygon","coordinates":[[[80.98319,24.70177],[80.98266,24.70061],[80.98276,24.69995],[80.98255,24.69947],[80.98208,24.69959],[80.98175,24.69933],[80.9812,24.69918],[80.98048,24.69932],[80.98077,24.69958],[80.98113,24.69947],[80.98178,24.69996],[80.98187,24.70097],[80.98168,24.70141],[80.9818,24.70172],[80.98231,24.70207],[80.98319,24.70177]]]}},{"type":"Feature","bbox":[80.97819,24.69693,80.98145,24.69932],"properties":{"ward":8},"geometry":{"type":"Polygon","coordinates":[[[80.98048,24.69932],[80.98119,24.69921],[80.98145,24.69887],[80.98123,24.69766],[80.98067,24.69757],[80.98014,24.69708],[80.97975,24.69693],[80.97819,24.69717],[80.97834,24.69901],[80.97894,24.69924],[80.98048,24.69932]]]}},{"type":"Feature","bbox":[80.98118,24.69742,80.98255,24.69959],"properties":{"ward":9},"geometry":{"type":"Polygon","coordinates":[[[80.98255,24.69947],[80.98252,24.69786],[80.98177,24.69742],[80.98133,24.69753],[80.98118,24.69764],[80.98152,24.69871],[80.9812,24.69918],[80.98175,24.69933],[80.98208,24.69959],[80.98255,24.69947]]]}},{"type":"Feature","bbox":[80.97353,24.69286,80.98145,24.69794],"properties":{"ward":10},"geometry":{"type":"Polygon","coordinates":[[[80.97816,24.69766],[80.97819,24.69717],[80.9795,24.69693],[80.98003,24.69701],[80.98067,24.69757],[80.98071,24.69652],[80.98018,24.69558],[80.98015,24.69523],[80.98018,24.69504],[80.981,24.69447],[80.98141,24.69439],[80.98145,24.69287],[80.98067,24.69286],[80.9799,24.6931],[80.97951,24.69385],[80.97899,24.69401],[80.9783,24.69393],[80.97522,24.69459],[80.97504,24.69473],[80.97515,24.69503],[80.97504,24.69511],[80.97386,24.69528],[80.97353,24.69554],[80.97375,24.69649],[80.97449,24.69794],[80.9776,24.69758],[80.97816,24.69766]]]}},{"type":"Feature","bbox":[80.98018,24.69447,80.98245,24.6978],"properties":{"ward":11},"geometry":{"type":"Polygon","coordinates":[[[80.98186,24.69447],[80.981,24.69447],[80.98018,24.69504],[80.98018,24.69558],[80.98071,24.69652],[80.98067,24.69757],[80.98118,24.69764],[80.98177,24.69742],[80.98245,24.6978],[80.982,24.69538],[80.98236,24.69517],[80.98186,24.69447]]]}},{"type":"Feature","bbox":[80.98132,24.68603,80.99169,24.70003],"properties":{"ward":12},"geometry":{"type":"Polygon","coordinates":[[[80.99169,24.69957],[80.99055,24.6992],[80.98997,24.69752],[80.98881,24.69106],[80.98851,24.69029],[80.98262,24.68668],[80.98132,24.68603],[80.98136,24.68734],[80.98166,24.68905],[80.98144,24.69027],[80.98209,24.69257],[80.98145,24.69287],[80.98141,24.69439],[80.98186,24.69447],[80.98236,24.69517],[80.982,24.69538],[80.98252,24.69786],[80.98255,24.69947],[80.98274,24.69999],[80.98511,24.69922],[80.98602,24.69908],[80.9868,24.69915],[80.9884,24.69984],[80.98957,24.70003],[80.9916,24.69976],[80.99169,24.69957]]]}},{"type":"Feature","bbox":[80.98266,24.69908,80.99246,24.70844],"properties":{"ward":13},"geometry":{"type":"Polygon","coordinates":[[[80.99196,24.70798],[80.99195,24.70548],[80.99222,24.70352],[80.99229,24.70043],[80.99246,24.69983],[80.99169,24.69957],[80.9916,24.69976],[80.99028,24.69999],[80.98894,24.69996],[80.9868,24.69915],[80.98602,24.69908],[80.98511,24.69922],[80.98274,24.69999],[80.98266,24.70061],[80.98319,24.70177],[80.98373,24.70215],[80.98434,24.70213],[80.98651,24.70798],[80.98861,24.70805],[80.99017,24.70844],[80.99145,24.70823],[80.99196,24.70798]]]}},{"type":"Feature","bbox":[80.99195,24.69983,80.99646,24.708],"properties":{"ward":14},"geometry":{"type":"Polygon","coordinates":[[[80.99646,24.7007],[80.99627,24.701],[80.99246,24.69983],[80.99229,24.70043],[80.99222,24.70352],[80.99195,24.70548],[80.99197,24.708],[80.99261,24.70783],[80.99356,24.70719],[80.99411,24.70467],[80.9948,24.70387],[80.99547,24.70234],[80.99623,24.70155],[80.99646,24.7007]]]}},{"type":"Feature","bbox":[80.96485,24.67878,80.99681,24.701],"properties":{"ward":15},"geometry":{"type":"Polygon","coordinates":[[[80.99627,24.701],[80.99681,24.70011],[80.99679,24.69972],[80.99649,24.69901],[80.99405,24.69508],[80.99331,24.69347],[80.99201,24.68954],[80.99136,24.6886],[80.99125,24.68815],[80.99086,24.6879],[80.99025,24.68783],[80.99005,24.68756],[80.98923,24.68755],[80.98875,24.68663],[80.98833,24.6867],[80.9882,24.68644],[80.98755,24.68643],[80.98748,24.68593],[80.9868,24.68603],[80.98668,24.68463],[80.98648,24.68411],[80.98503,24.68429],[80.98451,24.68356],[80.9844,24.68312],[80.98345,24.68341],[80.98311,24.68313],[80.98274,24.68156],[80.98244,24.68095],[80.98197,24.68085],[80.98112,24.67928],[80.98037,24.67921],[80.97908,24.6794],[80.97877,24.67904],[80.97788,24.6794],[80.97739,24.67948],[80.97723,24.67932],[80.97564,24.67979],[80.97508,24.67965],[80.9745,24.67878],[80.97393,24.67934],[80.97159,24.67956],[80.97166,24.68034],[80.97096,24.68099],[80.96894,24.68165],[80.9666,24.68328],[80.96485,24.68374],[80.96543,24.68522],[80.96796,24.68593],[80.96854,24.68594],[80.9694,24.68465],[80.96996,24.68504],[80.9703,24.68507],[80.97208,24.68406],[80.97351,24.68375],[80.97429,24.68338],[80.97437,24.68296],[80.97475,24.68279],[80.97488,24.68314],[80.97555,24.68353],[80.97617,24.68363],[80.97638,24.68386],[80.97696,24.68387],[80.97728,24.6845],[80.97897,24.68447],[80.98131,24.6858],[80.98132,24.68603],[80.98262,24.68668],[80.98851,24.69029],[80.98881,24.69106],[80.98997,24.69752],[80.99055,24.6992],[80.99627,24.701]]]}}]}