{"type":"FeatureCollection","features":[{"type":"Feature","bbox":[78.56048,25.90844,78.56392,25.91071],"properties":{"ward":1},"geometry":{"type":"Polygon","coordinates":[[[78.56392,25.91021],[78.56249,25.90844],[78.56129,25.90844],[78.56137,25.90863],[78.56095,25.90871],[78.56102,25.90899],[78.56048,25.90918],[78.56181,25.90965],[78.56219,25.90958],[78.56261,25.90989],[78.56319,25.91071],[78.56392,25.91021]]]}},{"type":"Feature","bbox":[78.56398,25.90889,78.56872,25.91145],"properties":{"ward":2},"geometry":{"type":"Polygon","coordinates":[[[78.56398,25.91017],[78.56448,25.91145],[78.56872,25.9107],[78.56869,25.91026],[78.56794,25.91022],[78.56586,25.90965],[78.5656,25.90903],[78.56483,25.90889],[78.56469,25.90982],[78.56398,25.91017]]]}},{"type":"Feature","bbox":[78.55992,25.9102,78.56532,25.91437],"properties":{"ward":3},"geometry":{"type":"Polygon","coordinates":[[[78.56532,25.91312],[78.56391,25.91024],[78.56319,25.91076],[78.56278,25.9102],[78.56199,25.91054],[78.56221,25.91082],[78.56201,25.91104],[78.56199,25.91175],[78.56169,25.91176],[78.56136,25.91132],[78.56073,25.91152],[78.55992,25.9121],[78.5614,25.91321],[78.56248,25.91323],[78.56233,25.91364],[78.56306,25.91437],[78.56407,25.91367],[78.56532,25.91312]]]}},{"type":"Feature","bbox":[78.5512,25.91205,78.56124,25.92352],"properties":{"ward":4},"geometry":{"type":"Polygon","coordinates":[[[78.5512,25.92008],[78.55698,25.92344],[78.5593,25.92352],[78.55898,25.91957],[78.56029,25.9169],[78.56035,25.914],[78.56124,25.91305],[78.56038,25.91261],[78.55981,25.91205],[78.55773,25.91625],[78.55704,25.91695],[78.55562,25.91815],[78.55325,25.91892],[78.5512,25.92008]]]}},{"type":"Feature","bbox":[78.55973,25.90923,78.56273,25.91204],"properties":{"ward":5},"geometry":{"type":"Polygon","coordinates":[[[78.5599,25.91204],[78.56069,25.91151],[78.56137,25.91131],[78.56189,25.91169],[78.56222,25.91094],[78.56192,25.91053],[78.56273,25.91022],[78.56218,25.90961],[78.5617,25.90973],[78.56149,25.90954],[78.56044,25.90923],[78.56004,25.90958],[78.55973,25.91036],[78.5599,25.91204]]]}},{"type":"Feature","bbox":[78.56251,25.90322,78.57996,25.91028],"properties":{"ward":6},"geometry":{"type":"Polygon","coordinates":[[[78.56513,25.90774],[78.56413,25.90832],[78.56251,25.9083],[78.564,25.91028],[78.56464,25.90982],[78.56469,25.90882],[78.56635,25.909],[78.56886,25.9087],[78.57118,25.90936],[78.57823,25.90824],[78.57996,25.90766],[78.57815,25.90569],[78.57552,25.90322],[78.56513,25.90774]]]}},{"type":"Feature","bbox":[78.56501,25.90766,78.58048,25.91654],"properties":{"ward":7},"geometry":{"type":"Polygon","coordinates":[[[78.56799,25.90878],[78.56501,25.90917],[78.56632,25.90969],[78.56844,25.91018],[78.5701,25.9103],[78.573,25.91233],[78.57653,25.91534],[78.57766,25.91654],[78.57883,25.91547],[78.58042,25.91214],[78.58048,25.91076],[78.58014,25.90766],[78.57911,25.90807],[78.57468,25.90872],[78.57299,25.90926],[78.57108,25.90932],[78.56969,25.9089],[78.56799,25.90878]]]}},{"type":"Feature","bbox":[78.56446,25.91028,78.5775,25.9222],"properties":{"ward":8},"geometry":{"type":"Polygon","coordinates":[[[78.56862,25.91086],[78.56446,25.91144],[78.57019,25.9222],[78.57235,25.92059],[78.57365,25.91992],[78.5775,25.91657],[78.57614,25.91505],[78.57448,25.91366],[78.57204,25.91169],[78.57004,25.91042],[78.56871,25.91028],[78.56862,25.91086]]]}},{"type":"Feature","bbox":[78.56306,25.91304,78.57013,25.92327],"properties":{"ward":9},"geometry":{"type":"Polygon","coordinates":[[[78.564,25.92327],[78.56756,25.92281],[78.57013,25.92227],[78.56752,25.91759],[78.5667,25.91578],[78.56507,25.91304],[78.56417,25.91374],[78.56306,25.9142],[78.5631,25.91555],[78.56404,25.91875],[78.56318,25.91922],[78.56314,25.92034],[78.564,25.92327]]]}},{"type":"Feature","bbox":[78.55904,25.91323,78.56395,25.92375],"properties":{"ward":10},"geometry":{"type":"Polygon","coordinates":[[[78.56241,25.91336],[78.56127,25.91323],[78.56041,25.91397],[78.56041,25.91646],[78.56024,25.91749],[78.55975,25.91818],[78.55904,25.91974],[78.55935,25.92349],[78.56189,25.92375],[78.56395,25.92331],[78.56309,25.92054],[78.56321,25.91918],[78.56389,25.91877],[78.56306,25.91559],[78.56301,25.91448],[78.56246,25.91397],[78.56241,25.91336]]]}},{"type":"Feature","bbox":[78.547,25.90849,78.55974,25.92006],"properties":{"ward":11},"geometry":{"type":"Polygon","coordinates":[[[78.54905,25.91881],[78.55114,25.92006],[78.55257,25.91914],[78.55568,25.91804],[78.55761,25.91627],[78.55974,25.91214],[78.55966,25.9104],[78.55901,25.91018],[78.55823,25.90871],[78.55745,25.90856],[78.55368,25.90849],[78.54802,25.90853],[78.54721,25.91269],[78.547,25.91487],[78.54905,25.91881]]]}},{"type":"Feature","bbox":[78.55821,25.90843,78.56124,25.9103],"properties":{"ward":12},"geometry":{"type":"Polygon","coordinates":[[[78.56018,25.90942],[78.561,25.90896],[78.56093,25.90867],[78.56124,25.90848],[78.55821,25.90843],[78.55892,25.90992],[78.55968,25.9103],[78.56018,25.90942]]]}},{"type":"Feature","bbox":[78.56261,25.89933,78.57544,25.90835],"properties":{"ward":13},"geometry":{"type":"Polygon","coordinates":[[[78.56493,25.90507],[78.56261,25.90835],[78.56397,25.90827],[78.56524,25.90753],[78.56677,25.90708],[78.57227,25.90458],[78.57346,25.90389],[78.57544,25.90313],[78.57124,25.90066],[78.56979,25.90023],[78.56845,25.89933],[78.56776,25.90003],[78.56636,25.90289],[78.56564,25.90373],[78.56493,25.90507]]]}},{"type":"Feature","bbox":[78.54822,25.89804,78.56226,25.90849],"properties":{"ward":14},"geometry":{"type":"Polygon","coordinates":[[[78.5582,25.90849],[78.56226,25.90835],[78.55886,25.89804],[78.55531,25.89949],[78.55402,25.90026],[78.55324,25.90126],[78.55164,25.90282],[78.55125,25.90299],[78.5505,25.90398],[78.54934,25.90509],[78.54822,25.90849],[78.5582,25.90849]]]}},{"type":"Feature","bbox":[78.55886,25.89801,78.56827,25.90838],"properties":{"ward":15},"geometry":{"type":"Polygon","coordinates":[[[78.56125,25.90527],[78.56245,25.90838],[78.56653,25.90249],[78.56827,25.89929],[78.5676,25.89898],[78.56646,25.89878],[78.56423,25.8987],[78.56091,25.89804],[78.55886,25.89801],[78.56015,25.90126],[78.56125,25.90527]]]}}]}