{"type":"FeatureCollection","features":[{"type":"Feature","bbox":[81.48157,24.49424,81.51079,24.51663],"properties":{"ward":1},"geometry":{"type":"Polygon","coordinates":[[[81.48178,24.5116],[81.48265,24.51265],[81.48287,24.51322],[81.48358,24.51379],[81.48392,24.51446],[81.48422,24.51465],[81.48573,24.51452],[81.48664,24.51415],[81.48905,24.51523],[81.48992,24.51581],[81.49111,24.51582],[81.49254,24.51641],[81.49785,24.51663],[81.4986,24.51649],[81.49944,24.51563],[81.49957,24.51498],[81.49976,24.51372],[81.49965,24.51292],[81.4993,24.51207],[81.50006,24.51083],[81.50023,24.50978],[81.50053,24.50913],[81.50195,24.50714],[81.50243,24.5067],[81.50268,24.50665],[81.50283,24.50628],[81.50237,24.50491],[81.50236,24.50432],[81.503,24.50363],[81.50348,24.50349],[81.50389,24.503],[81.50363,24.50085],[81.50412,24.50025],[81.5055,24.4991],[81.50594,24.4992],[81.50669,24.49979],[81.50735,24.5],[81.50789,24.49973],[81.50869,24.49899],[81.50953,24.49886],[81.51028,24.49905],[81.51079,24.49842],[81.50542,24.49515],[81.5042,24.49465],[81.50212,24.49426],[81.50074,24.49424],[81.49955,24.49435],[81.49744,24.49505],[81.49573,24.49603],[81.49395,24.49771],[81.48954,24.5061],[81.48892,24.50674],[81.48337,24.5093],[81.48295,24.5097],[81.482,24.51136],[81.48157,24.51162],[81.48178,24.5116]]]}},{"type":"Feature","bbox":[81.5042,24.49127,81.50762,24.49518],"properties":{"ward":2},"geometry":{"type":"Polygon","coordinates":[[[81.50559,24.49518],[81.50643,24.49389],[81.50661,24.4933],[81.50762,24.49207],[81.50762,24.4919],[81.50663,24.49152],[81.50512,24.49127],[81.50444,24.49278],[81.5042,24.49453],[81.50559,24.49518]]]}},{"type":"Feature","bbox":[81.50578,24.49123,81.51245,24.49817],"properties":{"ward":3},"geometry":{"type":"Polygon","coordinates":[[[81.50578,24.49524],[81.51004,24.49783],[81.51116,24.49817],[81.51132,24.49808],[81.51154,24.49722],[81.51242,24.49622],[81.51245,24.49584],[81.51222,24.49532],[81.51156,24.49489],[81.51031,24.49123],[81.50974,24.49143],[81.50845,24.49141],[81.50665,24.49336],[81.50644,24.49417],[81.50614,24.49437],[81.50578,24.49524]]]}},{"type":"Feature","bbox":[81.49858,24.48638,81.50532,24.49453],"properties":{"ward":4},"geometry":{"type":"Polygon","coordinates":[[[81.4995,24.49419],[81.5023,24.49413],[81.50415,24.49453],[81.50431,24.49278],[81.50509,24.49114],[81.50532,24.48894],[81.50507,24.48663],[81.50151,24.48638],[81.49877,24.48675],[81.49858,24.48655],[81.4995,24.49419]]]}},{"type":"Feature","bbox":[81.50525,24.49027,81.50734,24.49153],"properties":{"ward":5},"geometry":{"type":"Polygon","coordinates":[[[81.50526,24.49112],[81.50734,24.49153],[81.50727,24.49045],[81.50525,24.49027],[81.50526,24.49112]]]}},{"type":"Feature","bbox":[81.50523,24.48897,81.50732,24.49029],"properties":{"ward":6},"geometry":{"type":"Polygon","coordinates":[[[81.50721,24.48904],[81.50535,24.48897],[81.50523,24.49016],[81.50732,24.49029],[81.50721,24.48904]]]}},{"type":"Feature","bbox":[81.4817,24.46937,81.50289,24.51145],"properties":{"ward":7},"geometry":{"type":"Polygon","coordinates":[[[81.4817,24.51145],[81.48208,24.51117],[81.48292,24.50968],[81.48336,24.50928],[81.48886,24.50673],[81.48961,24.50589],[81.49022,24.50483],[81.49388,24.49771],[81.49499,24.49654],[81.4965,24.49543],[81.49713,24.49507],[81.49927,24.49435],[81.49933,24.49374],[81.49844,24.48659],[81.49847,24.48555],[81.49957,24.48547],[81.5003,24.48472],[81.50068,24.48377],[81.49999,24.48025],[81.49996,24.47896],[81.49916,24.47741],[81.49897,24.47533],[81.50111,24.47398],[81.50201,24.47313],[81.50248,24.47179],[81.50289,24.46937],[81.49313,24.4827],[81.48979,24.49109],[81.48639,24.49378],[81.4817,24.51145]]]}},{"type":"Feature","bbox":[81.50513,24.48651,81.50724,24.48892],"properties":{"ward":8},"geometry":{"type":"Polygon","coordinates":[[[81.50536,24.48892],[81.50724,24.4889],[81.50678,24.48651],[81.50513,24.48666],[81.50536,24.48892]]]}},{"type":"Feature","bbox":[81.48136,24.47212,81.50038,24.51139],"properties":{"ward":9},"geometry":{"type":"Polygon","coordinates":[[[81.48136,24.51115],[81.48165,24.51139],[81.4863,24.49368],[81.48964,24.49094],[81.4905,24.488],[81.4928,24.4824],[81.49694,24.477],[81.50038,24.47212],[81.49008,24.47831],[81.48752,24.48066],[81.48672,24.48511],[81.48379,24.49787],[81.48136,24.51115]]]}},{"type":"Feature","bbox":[81.5068,24.4864,81.50784,24.48891],"properties":{"ward":10},"geometry":{"type":"Polygon","coordinates":[[[81.50784,24.48878],[81.50746,24.4864],[81.5068,24.48647],[81.50728,24.48891],[81.50784,24.48878]]]}},{"type":"Feature","bbox":[81.50727,24.48884,81.50819,24.49055],"properties":{"ward":11},"geometry":{"type":"Polygon","coordinates":[[[81.50737,24.49032],[81.50819,24.49055],[81.50787,24.48884],[81.50727,24.48893],[81.50737,24.49032]]]}},{"type":"Feature","bbox":[81.50736,24.49036,81.50836,24.49191],"properties":{"ward":12},"geometry":{"type":"Polygon","coordinates":[[[81.50788,24.49191],[81.50836,24.49138],[81.50822,24.49062],[81.50736,24.49036],[81.50746,24.49173],[81.50788,24.49191]]]}},{"type":"Feature","bbox":[81.49865,24.47142,81.5101,24.49133],"properties":{"ward":13},"geometry":{"type":"Polygon","coordinates":[[[81.50552,24.47277],[81.50344,24.47142],[81.50277,24.47143],[81.50211,24.47327],[81.50121,24.47409],[81.49912,24.47537],[81.49927,24.47744],[81.50009,24.47882],[81.50017,24.48026],[81.50081,24.48376],[81.50044,24.48485],[81.49965,24.48559],[81.49869,24.4857],[81.49865,24.48641],[81.50094,24.48632],[81.50501,24.48653],[81.50756,24.48622],[81.50845,24.49117],[81.50907,24.49133],[81.5097,24.49128],[81.5101,24.49109],[81.50935,24.49034],[81.50912,24.4884],[81.5089,24.4877],[81.5081,24.48642],[81.50813,24.48571],[81.5091,24.48504],[81.50932,24.48409],[81.50923,24.48355],[81.50888,24.48302],[81.5077,24.48263],[81.50669,24.48175],[81.50634,24.48052],[81.50528,24.47837],[81.50493,24.47697],[81.50471,24.4755],[81.50552,24.47277]]]}},{"type":"Feature","bbox":[81.50953,24.48727,81.53938,24.50111],"properties":{"ward":14},"geometry":{"type":"Polygon","coordinates":[[[81.51126,24.49847],[81.51588,24.50033],[81.51822,24.50095],[81.52229,24.50111],[81.53104,24.49936],[81.53359,24.4995],[81.53633,24.49919],[81.53818,24.4992],[81.53938,24.49865],[81.53887,24.49808],[81.53702,24.49663],[81.53341,24.49425],[81.53128,24.49376],[81.52961,24.49407],[81.52484,24.49454],[81.52332,24.49508],[81.52274,24.4947],[81.52222,24.49214],[81.52159,24.49101],[81.52202,24.4899],[81.52322,24.48856],[81.52179,24.48727],[81.52106,24.48753],[81.52031,24.48829],[81.51913,24.48901],[81.51861,24.48893],[81.51762,24.48911],[81.51712,24.48887],[81.51656,24.48885],[81.51131,24.49035],[81.50953,24.49021],[81.50972,24.4906],[81.51036,24.49114],[81.51138,24.49387],[81.51157,24.49479],[81.51227,24.49525],[81.51257,24.4958],[81.51251,24.49624],[81.5115,24.49757],[81.51126,24.49847]]]}},{"type":"Feature","bbox":[81.52168,24.48869,81.53299,24.49486],"properties":{"ward":15},"geometry":{"type":"Polygon","coordinates":[[[81.52841,24.49196],[81.5241,24.48898],[81.52324,24.48869],[81.52209,24.48987],[81.52168,24.49102],[81.52236,24.49217],[81.52287,24.49462],[81.52325,24.49484],[81.5238,24.49486],[81.52495,24.49439],[81.52944,24.494],[81.53124,24.49366],[81.5329,24.49398],[81.53299,24.49365],[81.53237,24.49282],[81.52841,24.49196]]]}}]}