{"type":"FeatureCollection","features":[{"type":"Feature","bbox":[80.36051,24.59233,80.37497,24.61457],"properties":{"ward":1,"name":"Ambedkar Ward"},"geometry":{"type":"Polygon","coordinates":[[[80.37158,24.61457],[80.37195,24.61352],[80.37245,24.61354],[80.37314,24.61324],[80.37407,24.61324],[80.37454,24.61306],[80.37447,24.61285],[80.37496,24.61273],[80.37493,24.61216],[80.37465,24.61163],[80.37497,24.6114],[80.37294,24.60902],[80.37224,24.60771],[80.37015,24.60029],[80.37054,24.59285],[80.36991,24.59277],[80.3694,24.59235],[80.36913,24.59233],[80.36934,24.59334],[80.36923,24.59373],[80.36934,24.5943],[80.36904,24.59462],[80.36727,24.59522],[80.36729,24.59557],[80.36447,24.59631],[80.3646,24.59704],[80.36354,24.59723],[80.36335,24.5969],[80.36259,24.59708],[80.36121,24.5993],[80.3613,24.5997],[80.36222,24.60124],[80.36051,24.60171],[80.36101,24.60365],[80.36124,24.60399],[80.3622,24.60464],[80.36479,24.60529],[80.36432,24.60677],[80.36154,24.60835],[80.36161,24.60865],[80.36189,24.60875],[80.36197,24.60999],[80.3622,24.61002],[80.36234,24.61142],[80.36198,24.61157],[80.36178,24.61237],[80.36201,24.61249],[80.36327,24.61235],[80.36338,24.61253],[80.36465,24.6123],[80.36485,24.6131],[80.36691,24.61267],[80.36722,24.61272],[80.36732,24.61292],[80.36765,24.6129],[80.36886,24.61254],[80.36891,24.61274],[80.36912,24.61263],[80.36944,24.61302],[80.37158,24.61457]]]}},{"type":"Feature","bbox":[80.37158,24.6114,80.37899,24.6165],"properties":{"ward":2,"name":"Jawahar Ward"},"geometry":{"type":"Polygon","coordinates":[[[80.37789,24.6165],[80.37899,24.61615],[80.37884,24.61579],[80.37497,24.6114],[80.37465,24.61164],[80.37501,24.61251],[80.3749,24.61253],[80.37496,24.61273],[80.37447,24.61285],[80.37454,24.61306],[80.37407,24.61324],[80.37314,24.61324],[80.37257,24.61351],[80.37183,24.6136],[80.37158,24.61457],[80.37221,24.61447],[80.37228,24.61479],[80.37278,24.61467],[80.37286,24.61485],[80.3746,24.61444],[80.37471,24.61549],[80.37519,24.6155],[80.37708,24.61486],[80.37789,24.6165]]]}},{"type":"Feature","bbox":[80.37426,24.61486,80.37789,24.61674],"properties":{"ward":3,"name":"Moulana Azad Ward"},"geometry":{"type":"Polygon","coordinates":[[[80.37426,24.61566],[80.37538,24.61573],[80.3757,24.61549],[80.37633,24.61535],[80.37629,24.61517],[80.37647,24.61515],[80.37708,24.61674],[80.37789,24.6165],[80.37708,24.61486],[80.37519,24.6155],[80.37426,24.6155],[80.37426,24.61566]]]}},{"type":"Feature","bbox":[80.349,24.61229,80.37708,24.62449],"properties":{"ward":4,"name":"Gandhi Ward"},"geometry":{"type":"Polygon","coordinates":[[[80.37538,24.61573],[80.37426,24.61566],[80.37426,24.6155],[80.37471,24.61549],[80.3746,24.61444],[80.37286,24.61485],[80.37278,24.61467],[80.37228,24.61479],[80.37221,24.61447],[80.37156,24.6146],[80.36944,24.61302],[80.36912,24.61263],[80.36891,24.61274],[80.36886,24.61254],[80.36765,24.6129],[80.36732,24.61292],[80.36722,24.61272],[80.36691,24.61267],[80.36485,24.6131],[80.36461,24.61229],[80.36338,24.61253],[80.36327,24.61235],[80.36201,24.61249],[80.36178,24.61237],[80.35957,24.61279],[80.36002,24.61545],[80.36073,24.61737],[80.35751,24.61795],[80.35759,24.61894],[80.3562,24.6191],[80.35041,24.62031],[80.34999,24.61999],[80.34956,24.62051],[80.34953,24.62112],[80.349,24.62164],[80.34997,24.62159],[80.35002,24.62192],[80.35068,24.62206],[80.35041,24.62225],[80.35062,24.62242],[80.35036,24.62258],[80.34991,24.62207],[80.34981,24.62234],[80.34932,24.62233],[80.34917,24.62277],[80.34946,24.6229],[80.34961,24.62263],[80.34987,24.62274],[80.35002,24.62375],[80.35027,24.62364],[80.35048,24.6238],[80.35052,24.62358],[80.3509,24.6237],[80.35102,24.62351],[80.3514,24.62372],[80.35131,24.62411],[80.35183,24.6243],[80.35194,24.62449],[80.37708,24.61674],[80.37647,24.61515],[80.37629,24.61517],[80.37633,24.61535],[80.3757,24.61549],[80.37538,24.61573]]]}},{"type":"Feature","bbox":[80.35194,24.61631,80.37898,24.63615],"properties":{"ward":5,"name":"Devendra Vijay Ward"},"geometry":{"type":"Polygon","coordinates":[[[80.36066,24.63615],[80.3622,24.63574],[80.36285,24.63516],[80.36366,24.63516],[80.36394,24.63501],[80.36417,24.63438],[80.36405,24.63411],[80.36365,24.634],[80.36367,24.63344],[80.3646,24.63375],[80.365,24.63341],[80.36594,24.63317],[80.36631,24.63326],[80.36672,24.63369],[80.36754,24.63385],[80.36765,24.63402],[80.36746,24.63425],[80.36758,24.63436],[80.36785,24.63426],[80.36825,24.6337],[80.3685,24.63364],[80.36881,24.63372],[80.36894,24.63441],[80.36911,24.63454],[80.36955,24.63449],[80.37016,24.63408],[80.37055,24.63414],[80.37069,24.63441],[80.37059,24.63503],[80.37091,24.63527],[80.37146,24.63523],[80.37201,24.63453],[80.37252,24.63466],[80.37317,24.63433],[80.37332,24.63442],[80.37335,24.6348],[80.37356,24.6349],[80.37358,24.63521],[80.37384,24.63518],[80.37401,24.63467],[80.3736,24.63448],[80.37354,24.63429],[80.37397,24.6342],[80.37395,24.63403],[80.3732,24.63402],[80.37307,24.63368],[80.37365,24.63324],[80.37433,24.63343],[80.37439,24.6329],[80.37478,24.6324],[80.37545,24.63223],[80.37471,24.63165],[80.37476,24.63148],[80.37509,24.63141],[80.37503,24.63119],[80.3747,24.63085],[80.37424,24.63076],[80.3742,24.63051],[80.37444,24.63031],[80.37487,24.63039],[80.3755,24.63023],[80.37559,24.62983],[80.37585,24.62953],[80.37582,24.62917],[80.37634,24.629],[80.37628,24.62852],[80.37676,24.62842],[80.37589,24.62803],[80.37549,24.62765],[80.37547,24.62736],[80.37639,24.627],[80.37643,24.62671],[80.37592,24.6264],[80.3764,24.62615],[80.37695,24.62608],[80.37719,24.62558],[80.37692,24.6253],[80.37694,24.62502],[80.37738,24.62455],[80.377,24.62386],[80.37721,24.62342],[80.37719,24.62266],[80.37619,24.62164],[80.37514,24.6201],[80.37489,24.61928],[80.37671,24.61917],[80.37849,24.61829],[80.37898,24.61823],[80.37893,24.61746],[80.3785,24.61631],[80.35194,24.62449],[80.35249,24.62523],[80.35296,24.62498],[80.35299,24.6247],[80.35315,24.6247],[80.35374,24.62507],[80.35447,24.62515],[80.35469,24.62534],[80.35466,24.62589],[80.35444,24.62593],[80.35425,24.62566],[80.35396,24.62586],[80.35427,24.62627],[80.35426,24.6268],[80.35366,24.6273],[80.35311,24.62803],[80.35286,24.62865],[80.35251,24.62895],[80.35282,24.63057],[80.35329,24.63115],[80.35377,24.63146],[80.35356,24.63226],[80.35739,24.6336],[80.36066,24.63615]]]}},{"type":"Feature","bbox":[80.37489,24.61829,80.37946,24.62291],"properties":{"ward":6,"name":"Rajiv Ward"},"geometry":{"type":"Polygon","coordinates":[[[80.37822,24.62291],[80.37831,24.62211],[80.37807,24.62179],[80.37808,24.62144],[80.37874,24.62132],[80.37946,24.62043],[80.37935,24.61849],[80.3792,24.61831],[80.37849,24.61829],[80.37671,24.61917],[80.37489,24.61928],[80.37518,24.62017],[80.37643,24.62193],[80.37719,24.62266],[80.37822,24.62291]]]}},{"type":"Feature","bbox":[80.3785,24.61606,80.3803,24.62079],"properties":{"ward":7,"name":"Shastri Ward"},"geometry":{"type":"Polygon","coordinates":[[[80.38017,24.62079],[80.38005,24.62031],[80.3803,24.61835],[80.37997,24.61827],[80.37974,24.61792],[80.37946,24.61716],[80.37955,24.61644],[80.3793,24.61606],[80.3785,24.61631],[80.37893,24.61746],[80.37898,24.61823],[80.37935,24.61849],[80.37938,24.62032],[80.37991,24.62049],[80.37997,24.62078],[80.38017,24.62079]]]}},{"type":"Feature","bbox":[80.3793,24.61587,80.38208,24.62094],"properties":{"ward":8,"name":"Mahaveer Ward"},"geometry":{"type":"Polygon","coordinates":[[[80.38166,24.61851],[80.38068,24.61837],[80.3805,24.61718],[80.38004,24.61674],[80.37991,24.61587],[80.3793,24.61606],[80.37955,24.61644],[80.37946,24.61716],[80.37974,24.61792],[80.37997,24.61827],[80.3803,24.61835],[80.38005,24.62031],[80.38022,24.62089],[80.38034,24.62094],[80.38054,24.62074],[80.38046,24.62019],[80.38068,24.62005],[80.38133,24.62043],[80.38208,24.62049],[80.38177,24.61955],[80.38191,24.61913],[80.38166,24.61851]]]}},{"type":"Feature","bbox":[80.37991,24.61497,80.38323,24.61717],"properties":{"ward":9,"name":"Chhatrashal Ward"},"geometry":{"type":"Polygon","coordinates":[[[80.3805,24.61717],[80.3807,24.61654],[80.38122,24.61638],[80.38223,24.61565],[80.38262,24.61557],[80.38268,24.61578],[80.3828,24.61574],[80.38291,24.61636],[80.38323,24.61629],[80.38287,24.61497],[80.37991,24.61587],[80.38004,24.61674],[80.3805,24.61717]]]}},{"type":"Feature","bbox":[80.3805,24.61185,80.39318,24.62058],"properties":{"ward":10,"name":"Ram Ward"},"geometry":{"type":"Polygon","coordinates":[[[80.38262,24.61557],[80.38158,24.61604],[80.38122,24.61638],[80.3807,24.61654],[80.3805,24.61717],[80.38068,24.61837],[80.38173,24.61849],[80.38191,24.61913],[80.38177,24.61955],[80.38208,24.62049],[80.38285,24.62006],[80.38326,24.62009],[80.38331,24.61992],[80.38308,24.61971],[80.38334,24.61958],[80.38392,24.61983],[80.38432,24.62035],[80.38454,24.62026],[80.3846,24.61994],[80.38502,24.61968],[80.38528,24.62009],[80.38511,24.62042],[80.38541,24.62058],[80.3859,24.61996],[80.38643,24.62009],[80.38653,24.61924],[80.38701,24.61933],[80.38721,24.61961],[80.38798,24.61957],[80.38805,24.61945],[80.38783,24.6191],[80.38812,24.61877],[80.38839,24.61889],[80.38874,24.61937],[80.38898,24.61939],[80.38924,24.61893],[80.3887,24.61859],[80.38941,24.61834],[80.38891,24.61782],[80.38893,24.61755],[80.38997,24.61716],[80.39022,24.6169],[80.39066,24.61726],[80.39114,24.61711],[80.39132,24.61626],[80.39318,24.61611],[80.39308,24.61185],[80.38287,24.61497],[80.38322,24.6163],[80.38291,24.61636],[80.3828,24.61574],[80.38268,24.61578],[80.38262,24.61557]]]}},{"type":"Feature","bbox":[80.37831,24.60799,80.3931,24.61615],"properties":{"ward":11,"name":"Bhagat Singh Ward"},"geometry":{"type":"Polygon","coordinates":[[[80.37899,24.61615],[80.3931,24.61185],[80.39161,24.60808],[80.39134,24.60799],[80.39067,24.60834],[80.38688,24.60947],[80.38116,24.6109],[80.38179,24.61277],[80.38003,24.61347],[80.38023,24.61442],[80.37891,24.61468],[80.37896,24.6148],[80.37831,24.61518],[80.37899,24.61615]]]}},{"type":"Feature","bbox":[80.37483,24.61085,80.38179,24.61511],"properties":{"ward":12,"name":"Vivekanand Ward"},"geometry":{"type":"Polygon","coordinates":[[[80.37824,24.61511],[80.37896,24.6148],[80.37891,24.61468],[80.38023,24.61442],[80.38003,24.61347],[80.38179,24.61277],[80.38116,24.6109],[80.38022,24.61103],[80.38002,24.61085],[80.37931,24.61085],[80.3793,24.61112],[80.37732,24.61142],[80.37712,24.61119],[80.37641,24.61136],[80.3759,24.61122],[80.37538,24.61143],[80.37513,24.61106],[80.37483,24.61123],[80.37824,24.61511]]]}},{"type":"Feature","bbox":[80.37394,24.60917,80.37949,24.61142],"properties":{"ward":13,"name":"Subhash Ward"},"geometry":{"type":"Polygon","coordinates":[[[80.37546,24.61139],[80.3759,24.61122],[80.37641,24.61136],[80.37712,24.61119],[80.37732,24.61142],[80.3793,24.61112],[80.37949,24.61045],[80.37896,24.60957],[80.37799,24.60958],[80.37775,24.60992],[80.37706,24.60932],[80.37549,24.60917],[80.37394,24.61022],[80.37483,24.61123],[80.37513,24.61106],[80.37546,24.61139]]]}},{"type":"Feature","bbox":[80.37346,24.60239,80.39156,24.61103],"properties":{"ward":14,"name":"Rajendra Ward"},"geometry":{"type":"Polygon","coordinates":[[[80.38036,24.61103],[80.38633,24.60963],[80.39067,24.60834],[80.39134,24.60799],[80.39156,24.60803],[80.38961,24.60239],[80.38909,24.60254],[80.38817,24.60254],[80.38753,24.60314],[80.38714,24.60282],[80.38688,24.60309],[80.3856,24.60337],[80.38493,24.60383],[80.38454,24.60391],[80.38332,24.60309],[80.38252,24.60313],[80.3823,24.6028],[80.38177,24.60313],[80.38112,24.60283],[80.38055,24.60287],[80.38025,24.60306],[80.38017,24.60384],[80.37999,24.60413],[80.37944,24.60454],[80.37897,24.60462],[80.37822,24.60537],[80.37841,24.60563],[80.37827,24.60594],[80.37869,24.60618],[80.37842,24.60657],[80.37773,24.6069],[80.37755,24.60724],[80.37716,24.60749],[80.37725,24.60792],[80.3766,24.60845],[80.37526,24.60828],[80.3751,24.60852],[80.3742,24.60892],[80.37381,24.60955],[80.37346,24.60966],[80.37394,24.61022],[80.37549,24.60917],[80.37706,24.60932],[80.37775,24.60992],[80.37799,24.60958],[80.37895,24.60957],[80.37948,24.61043],[80.37931,24.61085],[80.38002,24.61085],[80.38036,24.61103]]]}},{"type":"Feature","bbox":[80.37015,24.59126,80.38961,24.60964],"properties":{"ward":15,"name":"Patel Ward"},"geometry":{"type":"Polygon","coordinates":[[[80.37348,24.60964],[80.37381,24.60955],[80.3742,24.60892],[80.3751,24.60852],[80.37526,24.60828],[80.3766,24.60845],[80.37725,24.60792],[80.37716,24.60749],[80.37755,24.60724],[80.37773,24.6069],[80.37842,24.60657],[80.37869,24.60618],[80.37827,24.60594],[80.37841,24.60563],[80.37822,24.60537],[80.37897,24.60462],[80.37944,24.60454],[80.37999,24.60413],[80.38017,24.60384],[80.38025,24.60306],[80.38055,24.60287],[80.38112,24.60283],[80.38177,24.60313],[80.3823,24.6028],[80.38252,24.60313],[80.38332,24.60309],[80.38454,24.60391],[80.38493,24.60383],[80.3856,24.60337],[80.38688,24.60309],[80.38714,24.60282],[80.38753,24.60314],[80.38817,24.60254],[80.38909,24.60254],[80.38961,24.60239],[80.38762,24.5972],[80.38666,24.5953],[80.38459,24.59608],[80.38275,24.59633],[80.38265,24.59653],[80.38082,24.59668],[80.38071,24.59649],[80.37767,24.59701],[80.37762,24.59728],[80.37674,24.59742],[80.37659,24.59724],[80.37534,24.59747],[80.37512,24.59678],[80.37469,24.59684],[80.37406,24.59434],[80.37275,24.59444],[80.37256,24.5937],[80.37282,24.59355],[80.37256,24.59276],[80.37324,24.59178],[80.37367,24.59153],[80.37368,24.59126],[80.37056,24.59195],[80.37041,24.59702],[80.37015,24.60029],[80.37235,24.60809],[80.37348,24.60964]]]}}]}