{"type":"FeatureCollection","features":[{"type":"Feature","bbox":[79.57046,23.89397,79.64055,23.92482],"properties":{"ward":1},"geometry":{"type":"Polygon","coordinates":[[[79.58808,23.92323],[79.59012,23.92272],[79.59149,23.92213],[79.59182,23.92176],[79.59393,23.9213],[79.59447,23.92075],[79.59547,23.92142],[79.59664,23.92003],[79.59723,23.91986],[79.59797,23.91936],[79.59884,23.91931],[79.59911,23.91858],[79.59861,23.91824],[79.59879,23.91807],[79.59864,23.91784],[79.59868,23.9175],[79.59885,23.91727],[79.59939,23.91719],[79.59952,23.9168],[79.5998,23.91689],[79.60038,23.91614],[79.60072,23.91597],[79.60242,23.91545],[79.60438,23.91559],[79.60594,23.91547],[79.60699,23.91609],[79.60711,23.91536],[79.60825,23.91456],[79.60787,23.91377],[79.60702,23.91376],[79.60706,23.9136],[79.6067,23.91298],[79.60686,23.91185],[79.60715,23.91112],[79.60783,23.91029],[79.60847,23.91001],[79.61033,23.91002],[79.61041,23.91027],[79.60984,23.91075],[79.6096,23.91119],[79.60997,23.91181],[79.61004,23.91246],[79.61232,23.91284],[79.61739,23.91117],[79.6179,23.91093],[79.619,23.90987],[79.61968,23.90959],[79.63097,23.90776],[79.63345,23.90716],[79.63856,23.9044],[79.64041,23.90257],[79.64055,23.90212],[79.6404,23.90184],[79.63954,23.90122],[79.63834,23.90082],[79.63711,23.90013],[79.636,23.89983],[79.63561,23.89951],[79.63494,23.8977],[79.6351,23.89666],[79.63552,23.89586],[79.63541,23.89542],[79.63309,23.89425],[79.63204,23.89397],[79.63068,23.89411],[79.62968,23.8944],[79.62841,23.89516],[79.62652,23.89714],[79.625,23.89847],[79.6245,23.89843],[79.62352,23.89764],[79.62253,23.89763],[79.62182,23.89744],[79.62122,23.89756],[79.61977,23.89701],[79.61809,23.89724],[79.61751,23.89747],[79.61724,23.89744],[79.61693,23.89711],[79.61636,23.89732],[79.6159,23.89705],[79.61519,23.89704],[79.61394,23.89798],[79.61383,23.8983],[79.61196,23.89926],[79.61015,23.90132],[79.60899,23.90168],[79.60633,23.90188],[79.6057,23.90165],[79.60524,23.90177],[79.60419,23.90323],[79.60379,23.90347],[79.6031,23.90342],[79.60279,23.90288],[79.60277,23.90202],[79.60173,23.90132],[79.60074,23.90113],[79.60024,23.90087],[79.59986,23.90089],[79.59847,23.90018],[79.59718,23.90179],[79.59569,23.90242],[79.59489,23.9023],[79.59442,23.90193],[79.59385,23.90206],[79.59333,23.90193],[79.58929,23.90282],[79.58611,23.90326],[79.58289,23.90412],[79.58203,23.90488],[79.57583,23.90707],[79.5744,23.90708],[79.57247,23.9076],[79.57056,23.90749],[79.57046,23.90901],[79.57078,23.91112],[79.57124,23.91271],[79.57112,23.91299],[79.57121,23.9138],[79.57098,23.91707],[79.57111,23.91861],[79.57152,23.92089],[79.5722,23.92282],[79.57386,23.92263],[79.57458,23.92218],[79.57526,23.92201],[79.57572,23.92267],[79.57643,23.92288],[79.57662,23.92322],[79.57754,23.92313],[79.57771,23.92355],[79.57889,23.92322],[79.5791,23.92391],[79.58132,23.9229],[79.58207,23.92403],[79.58254,23.92376],[79.58273,23.92383],[79.58339,23.92312],[79.58441,23.92255],[79.58693,23.92482],[79.58808,23.92323]]]}},{"type":"Feature","bbox":[79.57041,23.8987,79.58929,23.9076],"properties":{"ward":2},"geometry":{"type":"Polygon","coordinates":[[[79.57247,23.9076],[79.5744,23.90708],[79.57583,23.90707],[79.58203,23.90488],[79.58312,23.90406],[79.58611,23.90326],[79.58929,23.90282],[79.58182,23.8987],[79.57689,23.90087],[79.57481,23.9015],[79.57504,23.90191],[79.57487,23.90202],[79.57482,23.90246],[79.5745,23.90259],[79.57413,23.90344],[79.57211,23.90497],[79.57176,23.9055],[79.57163,23.90525],[79.57077,23.9056],[79.57092,23.90612],[79.57041,23.9064],[79.57068,23.90747],[79.57247,23.9076]]]}},{"type":"Feature","bbox":[79.56883,23.90315,79.57205,23.9064],"properties":{"ward":3},"geometry":{"type":"Polygon","coordinates":[[[79.5716,23.90525],[79.57176,23.9055],[79.57205,23.90506],[79.57144,23.90498],[79.57064,23.90457],[79.5705,23.90421],[79.57059,23.9035],[79.57002,23.90367],[79.56959,23.9036],[79.56949,23.90315],[79.56883,23.90324],[79.56941,23.9044],[79.56943,23.90486],[79.57041,23.9064],[79.57092,23.90612],[79.57077,23.9056],[79.5716,23.90525]]]}},{"type":"Feature","bbox":[79.5705,23.90198,79.57488,23.90505],"properties":{"ward":4},"geometry":{"type":"Polygon","coordinates":[[[79.57206,23.90505],[79.57413,23.90344],[79.5745,23.90259],[79.57483,23.90243],[79.57488,23.90205],[79.57407,23.90198],[79.57347,23.90208],[79.57336,23.90228],[79.57312,23.90217],[79.57261,23.90224],[79.57259,23.90277],[79.57244,23.90283],[79.57256,23.90308],[79.57218,23.90329],[79.57202,23.90314],[79.57059,23.9035],[79.5705,23.90421],[79.57064,23.90457],[79.57144,23.90498],[79.57206,23.90505]]]}},{"type":"Feature","bbox":[79.56899,23.8967,79.58182,23.90365],"properties":{"ward":5},"geometry":{"type":"Polygon","coordinates":[[[79.57004,23.90365],[79.57202,23.90314],[79.57218,23.90329],[79.57256,23.90308],[79.57244,23.90283],[79.57259,23.90277],[79.57261,23.90224],[79.57312,23.90217],[79.57336,23.90228],[79.57347,23.90208],[79.57407,23.90198],[79.57488,23.90205],[79.57504,23.90191],[79.57481,23.9015],[79.57689,23.90087],[79.58182,23.8987],[79.57888,23.89747],[79.5789,23.89734],[79.57848,23.8973],[79.57709,23.8967],[79.5728,23.89971],[79.57259,23.89958],[79.57214,23.89976],[79.57188,23.89964],[79.57059,23.90017],[79.57081,23.90069],[79.57057,23.90111],[79.56899,23.90207],[79.56968,23.9031],[79.56949,23.90315],[79.56959,23.9036],[79.57004,23.90365]]]}},{"type":"Feature","bbox":[79.56703,23.89997,79.5708,23.90324],"properties":{"ward":6},"geometry":{"type":"Polygon","coordinates":[[[79.5708,23.90081],[79.57054,23.90009],[79.57012,23.89997],[79.56964,23.90004],[79.56944,23.90033],[79.56908,23.9003],[79.56909,23.90001],[79.56775,23.90017],[79.56703,23.9],[79.56883,23.90324],[79.56968,23.9031],[79.56899,23.90207],[79.57057,23.90111],[79.5708,23.90081]]]}},{"type":"Feature","bbox":[79.56828,23.89732,79.57427,23.90033],"properties":{"ward":7},"geometry":{"type":"Polygon","coordinates":[[[79.56944,23.90033],[79.56964,23.90004],[79.57012,23.89997],[79.57059,23.90017],[79.57188,23.89964],[79.57214,23.89976],[79.57259,23.89958],[79.5728,23.89971],[79.57384,23.8991],[79.57427,23.89869],[79.57424,23.89852],[79.57335,23.8981],[79.57059,23.89732],[79.57052,23.89763],[79.56983,23.89771],[79.56958,23.89792],[79.56938,23.89913],[79.56828,23.89956],[79.56828,23.90009],[79.56909,23.90001],[79.56908,23.9003],[79.56944,23.90033]]]}},{"type":"Feature","bbox":[79.56718,23.89735,79.56958,23.89954],"properties":{"ward":8},"geometry":{"type":"Polygon","coordinates":[[[79.56837,23.89954],[79.56938,23.89913],[79.56958,23.89792],[79.56728,23.89735],[79.56718,23.89843],[79.56795,23.89834],[79.56837,23.89954]]]}},{"type":"Feature","bbox":[79.56539,23.89146,79.56991,23.90006],"properties":{"ward":9},"geometry":{"type":"Polygon","coordinates":[[[79.56703,23.9],[79.56821,23.90006],[79.56831,23.89956],[79.56795,23.89834],[79.56718,23.89843],[79.56728,23.89735],[79.56958,23.89792],[79.56983,23.89771],[79.56934,23.89692],[79.56991,23.89643],[79.56925,23.89558],[79.56872,23.89521],[79.56858,23.89482],[79.56818,23.89463],[79.56768,23.89347],[79.56753,23.89228],[79.56697,23.89182],[79.56575,23.89146],[79.56539,23.89709],[79.56591,23.89839],[79.56703,23.9]]]}},{"type":"Feature","bbox":[79.56119,23.89063,79.56799,23.9023],"properties":{"ward":10},"geometry":{"type":"Polygon","coordinates":[[[79.5674,23.9023],[79.56751,23.90204],[79.56799,23.90172],[79.56669,23.89938],[79.56591,23.89839],[79.56536,23.897],[79.56575,23.89146],[79.56445,23.89063],[79.56378,23.89067],[79.56363,23.89111],[79.56387,23.8919],[79.56313,23.89203],[79.56351,23.89278],[79.5633,23.8933],[79.56329,23.89402],[79.5624,23.89436],[79.56273,23.895],[79.56263,23.89533],[79.5629,23.89552],[79.56291,23.89616],[79.56312,23.8964],[79.56295,23.89722],[79.56211,23.89889],[79.56119,23.90125],[79.56159,23.90142],[79.56254,23.9014],[79.56314,23.9011],[79.56463,23.90182],[79.56577,23.90151],[79.56676,23.9023],[79.5674,23.9023]]]}},{"type":"Feature","bbox":[79.56676,23.90172,79.56895,23.90373],"properties":{"ward":11},"geometry":{"type":"Polygon","coordinates":[[[79.56676,23.9023],[79.56708,23.90353],[79.5676,23.9031],[79.56789,23.90341],[79.56807,23.90335],[79.56817,23.90352],[79.56851,23.90342],[79.56864,23.90373],[79.56895,23.90369],[79.5687,23.90283],[79.56799,23.90172],[79.56751,23.90204],[79.56739,23.90234],[79.56676,23.9023]]]}},{"type":"Feature","bbox":[79.56703,23.9031,79.56941,23.90528],"properties":{"ward":12},"geometry":{"type":"Polygon","coordinates":[[[79.5677,23.90528],[79.56938,23.90485],[79.56941,23.9044],[79.56895,23.90369],[79.56864,23.90373],[79.56851,23.90342],[79.56817,23.90352],[79.56807,23.90335],[79.56789,23.90341],[79.5676,23.9031],[79.56715,23.90353],[79.56703,23.90437],[79.5677,23.90528]]]}},{"type":"Feature","bbox":[79.55575,23.9011,79.5677,23.91254],"properties":{"ward":13},"geometry":{"type":"Polygon","coordinates":[[[79.55994,23.90442],[79.55861,23.9085],[79.55851,23.90952],[79.55778,23.91011],[79.55672,23.91015],[79.55636,23.911],[79.55575,23.91189],[79.55673,23.91254],[79.5565,23.91211],[79.55653,23.91175],[79.55792,23.91136],[79.55845,23.91143],[79.55949,23.91104],[79.56029,23.91025],[79.5605,23.90924],[79.56096,23.90906],[79.56091,23.9088],[79.56383,23.90669],[79.56419,23.90655],[79.56448,23.90687],[79.56509,23.90669],[79.56621,23.90579],[79.56708,23.90564],[79.56723,23.90541],[79.5677,23.90528],[79.56704,23.90439],[79.56701,23.90407],[79.56717,23.90386],[79.56705,23.90276],[79.56687,23.90273],[79.56676,23.9023],[79.56577,23.90151],[79.56463,23.90182],[79.5631,23.9011],[79.56254,23.9014],[79.56159,23.90142],[79.56119,23.90125],[79.55994,23.90442]]]}},{"type":"Feature","bbox":[79.5677,23.90482,79.57068,23.90747],"properties":{"ward":14},"geometry":{"type":"Polygon","coordinates":[[[79.57031,23.90617],[79.56942,23.90482],[79.5677,23.90528],[79.56812,23.90594],[79.56855,23.90629],[79.57036,23.90742],[79.57068,23.90747],[79.57031,23.90617]]]}},{"type":"Feature","bbox":[79.5565,23.90528,79.57254,23.92506],"properties":{"ward":15},"geometry":{"type":"Polygon","coordinates":[[[79.56721,23.92504],[79.56957,23.92473],[79.56976,23.92496],[79.57116,23.92506],[79.57253,23.92496],[79.57254,23.92469],[79.57222,23.92281],[79.5715,23.9208],[79.57111,23.91861],[79.57098,23.91707],[79.57121,23.9138],[79.57112,23.91299],[79.57124,23.91271],[79.57078,23.91112],[79.57046,23.90901],[79.57056,23.90749],[79.56855,23.90629],[79.56812,23.90594],[79.5677,23.90528],[79.56723,23.90541],[79.56708,23.90564],[79.56621,23.90579],[79.56509,23.90669],[79.56448,23.90687],[79.56419,23.90655],[79.56383,23.90669],[79.56091,23.9088],[79.56096,23.90906],[79.5605,23.90924],[79.56029,23.91025],[79.55949,23.91104],[79.55845,23.91143],[79.55792,23.91136],[79.55654,23.91174],[79.5565,23.91211],[79.55699,23.91335],[79.55746,23.91337],[79.55752,23.91381],[79.55736,23.91394],[79.55749,23.91448],[79.55786,23.91474],[79.55793,23.91508],[79.55789,23.9155],[79.55765,23.91586],[79.55853,23.91695],[79.55724,23.91733],[79.55722,23.91876],[79.55738,23.91931],[79.55952,23.91922],[79.5608,23.91887],[79.56041,23.91974],[79.56057,23.92044],[79.5612,23.92096],[79.56241,23.92142],[79.5641,23.92133],[79.564,23.92094],[79.56473,23.92075],[79.56499,23.92043],[79.56523,23.92038],[79.56543,23.92057],[79.56627,23.92034],[79.56628,23.921],[79.56716,23.9218],[79.56634,23.9233],[79.56632,23.92491],[79.56721,23.92504]]]}}]}