{"type":"FeatureCollection","features":[{"type":"Feature","bbox":[79.5591,24.91736,79.58383,24.94347],"properties":{"ward":1,"name":"Maharani Durgawati Ward"},"geometry":{"type":"Polygon","coordinates":[[[79.56275,24.94347],[79.57503,24.933],[79.58024,24.92757],[79.58207,24.92461],[79.58334,24.92139],[79.5838,24.91918],[79.58383,24.91736],[79.58259,24.91763],[79.58091,24.91774],[79.58006,24.91852],[79.57802,24.91895],[79.57628,24.91955],[79.5759,24.91883],[79.57348,24.91954],[79.5734,24.91939],[79.57314,24.91947],[79.57301,24.91927],[79.572,24.9196],[79.57231,24.92041],[79.57179,24.92051],[79.57191,24.92102],[79.57118,24.9212],[79.57139,24.92188],[79.57121,24.92206],[79.57039,24.92226],[79.57003,24.92278],[79.56958,24.92265],[79.5692,24.92301],[79.5686,24.92302],[79.5682,24.92326],[79.56721,24.92473],[79.56766,24.92525],[79.5667,24.92575],[79.56647,24.92529],[79.56627,24.92532],[79.5659,24.92624],[79.56592,24.92667],[79.56531,24.92679],[79.56524,24.92703],[79.56376,24.92853],[79.56377,24.92869],[79.56462,24.92823],[79.56571,24.92872],[79.5657,24.92903],[79.56637,24.92994],[79.56648,24.92985],[79.56862,24.93198],[79.56728,24.93287],[79.56611,24.93317],[79.56571,24.93361],[79.56522,24.93385],[79.56339,24.93469],[79.56265,24.93472],[79.56268,24.93503],[79.56042,24.93593],[79.55995,24.93632],[79.56091,24.93753],[79.56185,24.93835],[79.56083,24.93824],[79.55963,24.93864],[79.5591,24.93904],[79.5604,24.94136],[79.56275,24.94347]]]}},{"type":"Feature","bbox":[79.56443,24.92486,79.5998,24.94608],"properties":{"ward":2,"name":"Kushabhau Thakere Ward"},"geometry":{"type":"Polygon","coordinates":[[[79.59792,24.93964],[79.59356,24.93499],[79.58714,24.92486],[79.58559,24.92538],[79.58243,24.9269],[79.58133,24.92598],[79.58004,24.92781],[79.57556,24.9325],[79.56443,24.94201],[79.5654,24.943],[79.56727,24.94593],[79.56759,24.94575],[79.5678,24.94608],[79.56952,24.94545],[79.57393,24.94455],[79.57373,24.94409],[79.57487,24.94134],[79.5745,24.94047],[79.57541,24.93914],[79.57605,24.93764],[79.57602,24.93731],[79.57542,24.93651],[79.5771,24.93622],[79.57832,24.93532],[79.57939,24.93524],[79.57972,24.93501],[79.58197,24.93446],[79.58615,24.93278],[79.58627,24.93372],[79.58706,24.9343],[79.58797,24.93471],[79.58907,24.93685],[79.58972,24.9369],[79.59071,24.93661],[79.59086,24.93677],[79.59032,24.93713],[79.59008,24.93763],[79.59069,24.9382],[79.59107,24.93797],[79.59264,24.93994],[79.59417,24.93923],[79.59421,24.94041],[79.59503,24.94154],[79.59663,24.94125],[79.59672,24.94181],[79.5971,24.94236],[79.5975,24.94242],[79.59791,24.94214],[79.5989,24.94269],[79.5998,24.94243],[79.59792,24.93964]]]}},{"type":"Feature","bbox":[79.58133,24.91967,79.58714,24.9269],"properties":{"ward":3,"name":"Dr Rajendra Prasad Ward"},"geometry":{"type":"Polygon","coordinates":[[[79.58714,24.92486],[79.58566,24.92243],[79.58446,24.92101],[79.58372,24.91967],[79.58343,24.9211],[79.58285,24.92272],[79.58133,24.92598],[79.58243,24.9269],[79.58559,24.92538],[79.58714,24.92486]]]}},{"type":"Feature","bbox":[79.5843,24.92013,79.58847,24.92514],"properties":{"ward":4},"geometry":{"type":"Polygon","coordinates":[[[79.58747,24.92261],[79.58695,24.92294],[79.5867,24.92237],[79.5868,24.92233],[79.58634,24.92038],[79.58639,24.92013],[79.5843,24.92076],[79.58566,24.92243],[79.58732,24.92514],[79.58847,24.92491],[79.58773,24.9237],[79.58759,24.92375],[79.58747,24.92261]]]}},{"type":"Feature","bbox":[79.58732,24.92141,79.59913,24.93821],"properties":{"ward":5},"geometry":{"type":"Polygon","coordinates":[[[79.59654,24.93821],[79.59799,24.93734],[79.59897,24.9363],[79.59913,24.93579],[79.59911,24.93532],[79.59823,24.93289],[79.59805,24.93089],[79.59676,24.93167],[79.59523,24.92948],[79.59394,24.92697],[79.59096,24.92492],[79.59006,24.9239],[79.58927,24.9226],[79.58944,24.92227],[79.5894,24.92141],[79.5877,24.92181],[79.58747,24.92261],[79.58759,24.92375],[79.58773,24.9237],[79.58847,24.92491],[79.58732,24.92514],[79.59356,24.93499],[79.59654,24.93821]]]}},{"type":"Feature","bbox":[79.58634,24.91724,79.58957,24.92294],"properties":{"ward":6,"name":"Lohiya Ward"},"geometry":{"type":"Polygon","coordinates":[[[79.58747,24.92261],[79.5877,24.92181],[79.5894,24.92141],[79.58892,24.92015],[79.58957,24.91936],[79.58941,24.91801],[79.58954,24.9175],[79.58941,24.91724],[79.58889,24.91748],[79.58639,24.92013],[79.58634,24.92038],[79.5868,24.92233],[79.5867,24.92237],[79.58695,24.92294],[79.58747,24.92261]]]}},{"type":"Feature","bbox":[79.58892,24.91756,79.59358,24.92138],"properties":{"ward":7,"name":"Sanjay Gandhi Ward"},"geometry":{"type":"Polygon","coordinates":[[[79.59358,24.92108],[79.59341,24.91996],[79.59225,24.91892],[79.59138,24.91756],[79.59101,24.91775],[79.59109,24.91792],[79.59069,24.91837],[79.59093,24.91943],[79.59143,24.91986],[79.58947,24.91936],[79.58892,24.92015],[79.58935,24.92112],[79.59012,24.92062],[79.59045,24.92109],[79.59097,24.92138],[79.59121,24.92131],[79.59131,24.92099],[79.59179,24.92062],[79.59188,24.92027],[79.5933,24.92099],[79.59358,24.92108]]]}},{"type":"Feature","bbox":[79.58927,24.92027,79.6,24.93167],"properties":{"ward":8,"name":"Sant Tulsi Dass Ward"},"geometry":{"type":"Polygon","coordinates":[[[79.59676,24.93167],[79.59982,24.9298],[79.6,24.92595],[79.59919,24.92629],[79.59847,24.92539],[79.59863,24.92489],[79.59767,24.92496],[79.5973,24.92531],[79.59646,24.92499],[79.59563,24.92427],[79.59637,24.92303],[79.59581,24.9222],[79.59529,24.92249],[79.59486,24.92196],[79.59476,24.92162],[79.59496,24.92153],[79.59492,24.92132],[79.59477,24.92134],[79.59498,24.9209],[79.59484,24.92067],[79.59429,24.921],[79.59363,24.92087],[79.59358,24.92108],[79.59252,24.92068],[79.59188,24.92027],[79.59183,24.92055],[79.59131,24.92099],[79.59121,24.92131],[79.59097,24.92138],[79.59051,24.92114],[79.59012,24.92062],[79.58935,24.92112],[79.58944,24.92227],[79.58927,24.9226],[79.59006,24.9239],[79.59096,24.92492],[79.59394,24.92697],[79.59523,24.92948],[79.59676,24.93167]]]}},{"type":"Feature","bbox":[79.59171,24.91725,79.59677,24.921],"properties":{"ward":9,"name":"Vivekanand Ward"},"geometry":{"type":"Polygon","coordinates":[[[79.59429,24.921],[79.596,24.91976],[79.59677,24.91877],[79.5965,24.91843],[79.59633,24.91855],[79.59614,24.91819],[79.59675,24.91818],[79.59663,24.91778],[79.59674,24.91725],[79.5951,24.91749],[79.59442,24.91742],[79.59331,24.91791],[79.59309,24.91756],[79.59171,24.91818],[79.59225,24.91892],[79.59341,24.91996],[79.59363,24.92087],[79.59429,24.921]]]}},{"type":"Feature","bbox":[79.58941,24.91674,79.59143,24.91986],"properties":{"ward":10,"name":"Mukhargi Ward"},"geometry":{"type":"Polygon","coordinates":[[[79.59138,24.91756],[79.591,24.91674],[79.58941,24.91724],[79.58954,24.9175],[79.58941,24.91801],[79.58957,24.91936],[79.59143,24.91986],[79.59093,24.91943],[79.59069,24.91837],[79.59109,24.91792],[79.59101,24.91775],[79.59138,24.91756]]]}},{"type":"Feature","bbox":[79.58657,24.91508,79.58931,24.91899],"properties":{"ward":11,"name":"Saraswati Ward"},"geometry":{"type":"Polygon","coordinates":[[[79.58752,24.91899],[79.58889,24.91748],[79.58928,24.91729],[79.58898,24.91633],[79.58931,24.9162],[79.58913,24.91508],[79.58867,24.91584],[79.58807,24.9164],[79.58777,24.91632],[79.58754,24.91655],[79.58718,24.91639],[79.58683,24.91645],[79.58677,24.91631],[79.58665,24.91645],[79.58686,24.91684],[79.58657,24.91688],[79.58711,24.91835],[79.58693,24.91842],[79.58695,24.91895],[79.58752,24.91899]]]}},{"type":"Feature","bbox":[79.58313,24.9131,79.58752,24.92076],"properties":{"ward":12,"name":"Lal Bahadur Shastri Ward"},"geometry":{"type":"Polygon","coordinates":[[[79.58639,24.92013],[79.58752,24.91899],[79.58695,24.91895],[79.58693,24.91842],[79.58711,24.91835],[79.58657,24.91688],[79.58686,24.91684],[79.58665,24.91645],[79.58674,24.91617],[79.58644,24.9156],[79.58661,24.91551],[79.58679,24.91508],[79.58666,24.915],[79.58724,24.91367],[79.58637,24.9135],[79.58607,24.91378],[79.58504,24.91391],[79.58489,24.91389],[79.58473,24.91336],[79.58388,24.91349],[79.58375,24.9131],[79.58313,24.91327],[79.58369,24.91491],[79.58384,24.91749],[79.58372,24.91967],[79.58385,24.91998],[79.5843,24.92076],[79.58639,24.92013]]]}},{"type":"Feature","bbox":[79.58375,24.91143,79.58863,24.91655],"properties":{"ward":13,"name":"Thakkar Baba Ward"},"geometry":{"type":"Polygon","coordinates":[[[79.58852,24.91595],[79.58838,24.91526],[79.58863,24.91403],[79.58588,24.91274],[79.58546,24.91143],[79.58459,24.91258],[79.58375,24.9131],[79.58388,24.91349],[79.58473,24.91336],[79.58489,24.91389],[79.58587,24.91384],[79.58637,24.9135],[79.58718,24.91358],[79.58666,24.915],[79.58679,24.91508],[79.58657,24.9156],[79.58644,24.9156],[79.58671,24.91633],[79.58754,24.91655],[79.58777,24.91632],[79.58807,24.9164],[79.58852,24.91595]]]}},{"type":"Feature","bbox":[79.5884,24.91425,79.591,24.91729],"properties":{"ward":14,"name":"Maithalisaran Gupta Ward"},"geometry":{"type":"Polygon","coordinates":[[[79.58928,24.91729],[79.591,24.91674],[79.59044,24.91551],[79.59073,24.91487],[79.5903,24.91488],[79.58917,24.91425],[79.5891,24.9149],[79.58896,24.91477],[79.58848,24.9148],[79.5884,24.91566],[79.58852,24.91595],[79.58913,24.91508],[79.58931,24.9162],[79.58898,24.91633],[79.58928,24.91729]]]}},{"type":"Feature","bbox":[79.591,24.91564,79.59735,24.91818],"properties":{"ward":15,"name":"Chandra Sekhar Ward"},"geometry":{"type":"Polygon","coordinates":[[[79.59674,24.91725],[79.59732,24.91654],[79.59735,24.91624],[79.597,24.91625],[79.59641,24.91564],[79.59442,24.91636],[79.59291,24.91637],[79.591,24.91674],[79.59171,24.91818],[79.59309,24.91756],[79.59331,24.91791],[79.59442,24.91742],[79.5951,24.91749],[79.59674,24.91725]]]}},{"type":"Feature","bbox":[79.59476,24.91476,79.60493,24.93333],"properties":{"ward":16,"name":"Chatrashal Ward"},"geometry":{"type":"Polygon","coordinates":[[[79.60493,24.92316],[79.6046,24.92204],[79.60425,24.9216],[79.60402,24.92092],[79.60111,24.91799],[79.60079,24.91836],[79.5999,24.9184],[79.5995,24.91778],[79.59917,24.91788],[79.599,24.91734],[79.59835,24.91676],[79.59846,24.91647],[79.59802,24.91634],[79.59812,24.91597],[79.59864,24.91571],[79.59816,24.91476],[79.59641,24.91564],[79.597,24.91625],[79.59735,24.91624],[79.59737,24.91637],[79.59669,24.91737],[79.59675,24.91818],[79.59614,24.91819],[79.59633,24.91855],[79.5965,24.91843],[79.59682,24.91868],[79.596,24.91976],[79.59484,24.92067],[79.59498,24.9209],[79.59477,24.92134],[79.59492,24.92132],[79.59496,24.92153],[79.59476,24.92162],[79.59478,24.92184],[79.59529,24.92249],[79.59581,24.9222],[79.59637,24.92303],[79.5956,24.92421],[79.59599,24.92463],[79.5973,24.92531],[79.59767,24.92496],[79.59863,24.92489],[79.59847,24.92539],[79.59919,24.92629],[79.6,24.92595],[79.59982,24.9298],[79.59803,24.93086],[79.59818,24.9313],[79.59819,24.9325],[79.59845,24.93254],[79.59894,24.93315],[79.59961,24.93333],[79.60155,24.93219],[79.60089,24.93136],[79.60163,24.93112],[79.60248,24.93012],[79.60251,24.92971],[79.60221,24.92916],[79.60304,24.92836],[79.60287,24.9281],[79.60326,24.92767],[79.603,24.92733],[79.6031,24.92703],[79.60396,24.92632],[79.60311,24.92557],[79.60346,24.92518],[79.60373,24.92516],[79.60396,24.92545],[79.60458,24.92512],[79.60421,24.92447],[79.60433,24.92423],[79.60352,24.92323],[79.60493,24.92316]]]}},{"type":"Feature","bbox":[79.59802,24.91373,79.60135,24.9184],"properties":{"ward":17,"name":"Nehru Ward"},"geometry":{"type":"Polygon","coordinates":[[[79.60079,24.91836],[79.60135,24.91772],[79.60087,24.91694],[79.60042,24.9156],[79.59996,24.91504],[79.5997,24.91437],[79.59895,24.91373],[79.59881,24.91432],[79.59816,24.91476],[79.59864,24.91571],[79.59812,24.91597],[79.59802,24.91634],[79.59846,24.91647],[79.59835,24.91676],[79.599,24.91734],[79.59917,24.91788],[79.5995,24.91778],[79.5999,24.9184],[79.60079,24.91836]]]}},{"type":"Feature","bbox":[79.59886,24.91077,79.61128,24.92466],"properties":{"ward":18,"name":"Dr Ambedakar Ward"},"geometry":{"type":"Polygon","coordinates":[[[79.60431,24.91077],[79.60238,24.91088],[79.6017,24.91112],[79.60114,24.91097],[79.599,24.91287],[79.59886,24.91322],[79.59895,24.91373],[79.5997,24.91437],[79.59996,24.91504],[79.60042,24.9156],[79.60087,24.91694],[79.60135,24.91772],[79.60111,24.91799],[79.60402,24.92092],[79.60425,24.9216],[79.6046,24.92204],[79.60493,24.92316],[79.6063,24.92379],[79.60698,24.92389],[79.60814,24.92466],[79.61029,24.92278],[79.61113,24.92247],[79.61128,24.92205],[79.61047,24.92108],[79.60922,24.92071],[79.60903,24.9198],[79.60852,24.91894],[79.60744,24.91866],[79.60707,24.91809],[79.60666,24.91783],[79.60664,24.91732],[79.60699,24.9168],[79.60677,24.91623],[79.60627,24.9158],[79.60579,24.91496],[79.60454,24.914],[79.60502,24.91301],[79.60474,24.91279],[79.60479,24.91182],[79.60508,24.91137],[79.60478,24.91098],[79.60431,24.91077]]]}},{"type":"Feature","bbox":[79.59381,24.91097,79.60114,24.91622],"properties":{"ward":19,"name":"Malveeya Ward"},"geometry":{"type":"Polygon","coordinates":[[[79.59503,24.91622],[79.59876,24.91438],[79.59894,24.91396],[79.59886,24.91322],[79.599,24.91287],[79.60114,24.91097],[79.59967,24.91112],[79.59849,24.91184],[79.59784,24.91143],[79.59687,24.91214],[79.59725,24.91236],[79.59693,24.91254],[79.59706,24.91278],[79.59616,24.91331],[79.59471,24.91233],[79.59381,24.91297],[79.59503,24.91622]]]}},{"type":"Feature","bbox":[79.58979,24.91104,79.59442,24.91489],"properties":{"ward":20,"name":"Siddheswar Ward"},"geometry":{"type":"Polygon","coordinates":[[[79.59442,24.91442],[79.5937,24.91265],[79.59335,24.91217],[79.59231,24.91256],[79.59238,24.91278],[79.59184,24.913],[79.59047,24.91122],[79.59023,24.91104],[79.58979,24.91108],[79.59077,24.91328],[79.59107,24.91443],[79.59147,24.91476],[79.59176,24.91488],[79.59257,24.91474],[79.593,24.91489],[79.59334,24.91467],[79.59388,24.9147],[79.59385,24.91457],[79.59442,24.91442]]]}},{"type":"Feature","bbox":[79.59043,24.91401,79.59503,24.91674],"properties":{"ward":21,"name":"Ravindra Nath Taigor Ward"},"geometry":{"type":"Polygon","coordinates":[[[79.59503,24.91622],[79.59442,24.91442],[79.59385,24.91457],[79.59388,24.9147],[79.59334,24.91467],[79.593,24.91489],[79.59257,24.91474],[79.59176,24.91488],[79.59107,24.91443],[79.59092,24.91401],[79.59088,24.91458],[79.59043,24.91539],[79.591,24.91674],[79.59291,24.91637],[79.59412,24.91641],[79.59503,24.91622]]]}},{"type":"Feature","bbox":[79.58882,24.91084,79.59093,24.91488],"properties":{"ward":22,"name":"Mahaveer Ward"},"geometry":{"type":"Polygon","coordinates":[[[79.59073,24.91487],[79.59093,24.91436],[79.59077,24.91328],[79.58969,24.91084],[79.58937,24.91089],[79.58893,24.91108],[79.58899,24.91142],[79.58882,24.91198],[79.58885,24.91318],[79.58917,24.91425],[79.5903,24.91488],[79.59073,24.91487]]]}},{"type":"Feature","bbox":[79.58694,24.90898,79.58969,24.9149],"properties":{"ward":23,"name":"Mahatma Gandhi Ward"},"geometry":{"type":"Polygon","coordinates":[[[79.58917,24.91425],[79.58885,24.91318],[79.58882,24.91198],[79.58899,24.91142],[79.58893,24.91108],[79.58969,24.91084],[79.58964,24.90998],[79.58936,24.90952],[79.5882,24.90898],[79.5884,24.91005],[79.58704,24.91037],[79.58694,24.91155],[79.58704,24.91326],[79.58863,24.91403],[79.58848,24.9148],[79.58896,24.91477],[79.5891,24.9149],[79.58917,24.91425]]]}},{"type":"Feature","bbox":[79.58454,24.90783,79.5884,24.91326],"properties":{"ward":24,"name":"Sant Ravidass Ward"},"geometry":{"type":"Polygon","coordinates":[[[79.5882,24.90898],[79.58634,24.90783],[79.58603,24.90824],[79.58657,24.909],[79.58663,24.90957],[79.58454,24.90975],[79.58532,24.91052],[79.58545,24.91096],[79.58535,24.91152],[79.58546,24.91143],[79.58588,24.91274],[79.58634,24.91303],[79.58704,24.91326],[79.58694,24.91155],[79.58704,24.91037],[79.5884,24.91005],[79.5882,24.90898]]]}},{"type":"Feature","bbox":[79.5842,24.89922,79.5922,24.91058],"properties":{"ward":25,"name":"Shivaji Ward"},"geometry":{"type":"Polygon","coordinates":[[[79.59216,24.90863],[79.59197,24.90716],[79.5922,24.90451],[79.59137,24.90043],[79.59068,24.89922],[79.58815,24.90164],[79.5842,24.90639],[79.58748,24.90856],[79.58936,24.90952],[79.58964,24.90998],[79.58965,24.91058],[79.59027,24.91001],[79.59141,24.90942],[79.59216,24.90863]]]}},{"type":"Feature","bbox":[79.58965,24.90813,79.59471,24.91297],"properties":{"ward":26,"name":"Chitrahupta Ward"},"geometry":{"type":"Polygon","coordinates":[[[79.59381,24.91297],[79.59471,24.91233],[79.59317,24.9103],[79.59417,24.90929],[79.59398,24.909],[79.59399,24.90826],[79.59326,24.90813],[79.59213,24.90864],[79.59141,24.90942],[79.59021,24.91004],[79.58965,24.9107],[79.58979,24.91108],[79.59023,24.91104],[79.59047,24.91122],[79.59172,24.91296],[79.59238,24.91278],[79.59231,24.91256],[79.59335,24.91217],[79.59381,24.91297]]]}},{"type":"Feature","bbox":[79.59317,24.90837,79.60113,24.91331],"properties":{"ward":27,"name":"Abdul Rahman Ward"},"geometry":{"type":"Polygon","coordinates":[[[79.60113,24.91097],[79.59976,24.91014],[79.59794,24.90869],[79.59673,24.90867],[79.59473,24.90837],[79.59532,24.90946],[79.59433,24.90983],[79.59353,24.90991],[79.59317,24.9103],[79.59442,24.91208],[79.59616,24.91331],[79.59706,24.91278],[79.59693,24.91254],[79.59725,24.91236],[79.59687,24.91214],[79.59784,24.91143],[79.59849,24.91184],[79.59967,24.91112],[79.60113,24.91097]]]}},{"type":"Feature","bbox":[79.59197,24.90451,79.60015,24.90997],"properties":{"ward":28,"name":"Laxmibai Ward"},"geometry":{"type":"Polygon","coordinates":[[[79.59916,24.90968],[79.60015,24.90892],[79.59953,24.90758],[79.59873,24.90815],[79.59755,24.90676],[79.59636,24.90771],[79.59481,24.90838],[79.5922,24.90451],[79.59197,24.90716],[79.59216,24.90863],[79.59326,24.90813],[79.59399,24.90826],[79.59398,24.909],[79.59417,24.90929],[79.59359,24.90997],[79.59532,24.90946],[79.59473,24.90837],[79.59673,24.90867],[79.59788,24.90866],[79.59916,24.90968]]]}},{"type":"Feature","bbox":[79.59665,24.90287,79.60372,24.91108],"properties":{"ward":29,"name":"Rajiv Gandhi Ward"},"geometry":{"type":"Polygon","coordinates":[[[79.60337,24.9108],[79.60372,24.91043],[79.60338,24.91032],[79.60292,24.90963],[79.6021,24.90885],[79.602,24.9083],[79.60175,24.90794],[79.60194,24.90672],[79.60224,24.90658],[79.60227,24.90613],[79.6016,24.90631],[79.60161,24.90647],[79.60056,24.90688],[79.59934,24.90553],[79.59755,24.90287],[79.59665,24.90343],[79.59712,24.9044],[79.59729,24.90519],[79.59776,24.90599],[79.59711,24.90656],[79.59739,24.90684],[79.59758,24.90676],[79.59873,24.90815],[79.59953,24.90758],[79.60015,24.90885],[79.59916,24.90968],[79.60141,24.91108],[79.60337,24.9108]]]}},{"type":"Feature","bbox":[79.59068,24.89683,79.60744,24.91042],"properties":{"ward":30,"name":"Kidwai Ward"},"geometry":{"type":"Polygon","coordinates":[[[79.60744,24.90674],[79.60637,24.90637],[79.60628,24.90606],[79.60598,24.90594],[79.60571,24.90559],[79.60559,24.90497],[79.60521,24.90451],[79.6051,24.90397],[79.60402,24.90379],[79.60264,24.90203],[79.60182,24.90273],[79.6016,24.90214],[79.60099,24.90201],[79.60052,24.90096],[79.5999,24.90061],[79.59991,24.90074],[79.59949,24.90073],[79.59937,24.90044],[79.59855,24.89969],[79.5982,24.89861],[79.59708,24.89917],[79.59643,24.89847],[79.59614,24.89863],[79.59553,24.89788],[79.59471,24.8978],[79.5937,24.89683],[79.59068,24.89922],[79.59137,24.90043],[79.59219,24.90449],[79.59481,24.90838],[79.59636,24.90771],[79.59739,24.90684],[79.59711,24.90656],[79.59776,24.90599],[79.59729,24.90519],[79.59701,24.90412],[79.59658,24.9035],[79.59755,24.90287],[79.59934,24.90553],[79.60056,24.90688],[79.60161,24.90647],[79.6016,24.90631],[79.60227,24.90613],[79.60224,24.90658],[79.60194,24.90672],[79.60175,24.90794],[79.602,24.9083],[79.6021,24.90885],[79.6036,24.91042],[79.60465,24.90943],[79.60526,24.90849],[79.60744,24.90674]]]}},{"type":"Feature","bbox":[79.5937,24.88623,79.61234,24.90674],"properties":{"ward":31,"name":"Bhawani Sindha Ju Dev Ward"},"geometry":{"type":"Polygon","coordinates":[[[79.60781,24.88623],[79.59787,24.8935],[79.5937,24.89683],[79.59471,24.8978],[79.59553,24.89788],[79.59614,24.89863],[79.59643,24.89847],[79.59708,24.89917],[79.5982,24.89861],[79.59855,24.89969],[79.59937,24.90044],[79.59949,24.90073],[79.59991,24.90074],[79.5999,24.90061],[79.60052,24.90096],[79.60099,24.90201],[79.6016,24.90214],[79.60182,24.90273],[79.60264,24.90203],[79.60402,24.90379],[79.6051,24.90397],[79.60521,24.90451],[79.60559,24.90497],[79.60571,24.90559],[79.60598,24.90594],[79.60628,24.90606],[79.60637,24.90637],[79.60744,24.90674],[79.60795,24.9064],[79.60829,24.90587],[79.6085,24.90532],[79.60849,24.90451],[79.6096,24.9035],[79.61021,24.90316],[79.61098,24.90181],[79.61076,24.90065],[79.60949,24.89721],[79.61158,24.89654],[79.61133,24.89561],[79.61091,24.89483],[79.61105,24.89444],[79.61162,24.89469],[79.61051,24.89299],[79.6117,24.89259],[79.61234,24.89254],[79.61142,24.89017],[79.61075,24.89028],[79.6099,24.88921],[79.60961,24.88936],[79.60927,24.88877],[79.60926,24.88839],[79.60942,24.88833],[79.60905,24.88742],[79.60828,24.88761],[79.60783,24.88687],[79.60816,24.88662],[79.60781,24.88623]]]}},{"type":"Feature","bbox":[79.59468,24.88454,79.60725,24.89327],"properties":{"ward":32,"name":"Veerangana Awanti Bai Ward"},"geometry":{"type":"Polygon","coordinates":[[[79.60657,24.88719],[79.60654,24.88671],[79.60684,24.88639],[79.60725,24.8854],[79.6069,24.88465],[79.60629,24.88504],[79.60598,24.88488],[79.6055,24.88545],[79.60426,24.88625],[79.6025,24.88454],[79.60126,24.88563],[79.6005,24.88587],[79.60013,24.88569],[79.59926,24.88565],[79.59896,24.8863],[79.59823,24.88664],[79.59883,24.88767],[79.59711,24.88836],[79.59728,24.88884],[79.59671,24.88951],[79.5963,24.88966],[79.59489,24.88945],[79.59468,24.89067],[79.59493,24.89096],[79.59622,24.89046],[79.59681,24.89179],[79.59818,24.89327],[79.60657,24.88719]]]}},{"type":"Feature","bbox":[79.59171,24.87851,79.60306,24.89838],"properties":{"ward":33,"name":"Maharana Pratap Ward"},"geometry":{"type":"Polygon","coordinates":[[[79.59171,24.89838],[79.59818,24.89327],[79.59681,24.89179],[79.59622,24.89046],[79.59491,24.89096],[79.59467,24.89058],[79.59489,24.88945],[79.5963,24.88966],[79.59681,24.88946],[79.59679,24.88926],[79.59728,24.88884],[79.59711,24.88836],[79.59883,24.88767],[79.59823,24.88664],[79.59896,24.8863],[79.59926,24.88565],[79.60013,24.88569],[79.6005,24.88587],[79.60137,24.88557],[79.60256,24.88448],[79.60264,24.88399],[79.60306,24.88327],[79.6017,24.88251],[79.60078,24.8816],[79.60008,24.88052],[79.59952,24.87884],[79.59868,24.87899],[79.59761,24.87942],[79.59698,24.87851],[79.59498,24.87883],[79.59407,24.88566],[79.59271,24.89228],[79.59258,24.89386],[79.59211,24.89549],[79.59171,24.89838]]]}},{"type":"Feature","bbox":[79.58275,24.87851,79.59503,24.89325],"properties":{"ward":34,"name":"Binoba Bhave Ward"},"geometry":{"type":"Polygon","coordinates":[[[79.59271,24.89228],[79.59407,24.88566],[79.59503,24.87851],[79.59311,24.87866],[79.59162,24.87897],[79.59192,24.88142],[79.59104,24.88148],[79.59076,24.88113],[79.58993,24.88139],[79.58872,24.88146],[79.58783,24.88112],[79.58709,24.88132],[79.5866,24.88122],[79.58626,24.88154],[79.5853,24.88163],[79.58573,24.88214],[79.5851,24.8829],[79.58479,24.88288],[79.58444,24.88256],[79.58304,24.88357],[79.58404,24.88475],[79.58275,24.88542],[79.58321,24.88606],[79.58513,24.88708],[79.58671,24.89038],[79.5872,24.89012],[79.58909,24.89305],[79.58957,24.89325],[79.59155,24.89253],[79.59271,24.89228]]]}},{"type":"Feature","bbox":[79.58444,24.88719,79.59271,24.89864],"properties":{"ward":35,"name":"Tilak Ward"},"geometry":{"type":"Polygon","coordinates":[[[79.59171,24.89838],[79.59211,24.89549],[79.59258,24.89386],[79.59271,24.89228],[79.59155,24.89253],[79.58957,24.89325],[79.58933,24.89321],[79.5883,24.89194],[79.5872,24.89012],[79.58671,24.89038],[79.58543,24.88777],[79.58536,24.88737],[79.58521,24.88719],[79.58483,24.88736],[79.58444,24.88779],[79.58489,24.88839],[79.58556,24.88981],[79.58568,24.8912],[79.58508,24.89147],[79.58578,24.89356],[79.58669,24.89557],[79.58834,24.89479],[79.58888,24.89585],[79.58865,24.89593],[79.58874,24.89617],[79.58995,24.8955],[79.59065,24.89659],[79.59067,24.89708],[79.59116,24.89827],[79.5914,24.89864],[79.59171,24.89838]]]}},{"type":"Feature","bbox":[79.58047,24.88779,79.5914,24.9032],"properties":{"ward":36,"name":"Subhas Ward"},"geometry":{"type":"Polygon","coordinates":[[[79.58868,24.90106],[79.5914,24.89864],[79.59081,24.89751],[79.59065,24.89659],[79.58995,24.8955],[79.58874,24.89617],[79.58865,24.89593],[79.58888,24.89585],[79.58834,24.89479],[79.58669,24.89557],[79.58578,24.89356],[79.58508,24.89147],[79.58568,24.8912],[79.58556,24.88981],[79.58489,24.88839],[79.58444,24.88779],[79.58276,24.88878],[79.58047,24.88964],[79.58103,24.89183],[79.58108,24.89365],[79.58179,24.89627],[79.58177,24.89721],[79.58197,24.89818],[79.58226,24.89818],[79.58362,24.90164],[79.5853,24.90118],[79.58558,24.90241],[79.58532,24.90273],[79.58556,24.90299],[79.58681,24.9032],[79.58868,24.90106]]]}},{"type":"Feature","bbox":[79.57513,24.89758,79.58681,24.90621],"properties":{"ward":37,"name":"Newalkar Ward"},"geometry":{"type":"Polygon","coordinates":[[[79.58424,24.90618],[79.58681,24.9032],[79.58556,24.90299],[79.58532,24.90273],[79.58558,24.90241],[79.5853,24.90118],[79.58362,24.90164],[79.58226,24.89818],[79.58142,24.89818],[79.58054,24.89862],[79.58039,24.89811],[79.58013,24.89806],[79.58009,24.89775],[79.57977,24.89758],[79.57921,24.89795],[79.5778,24.89851],[79.57714,24.89851],[79.57513,24.89961],[79.57647,24.90078],[79.57866,24.90358],[79.58379,24.90621],[79.58424,24.90618]]]}},{"type":"Feature","bbox":[79.57241,24.90064,79.58663,24.91447],"properties":{"ward":38,"name":"Baburam Chaturvedi Ward"},"geometry":{"type":"Polygon","coordinates":[[[79.58313,24.91327],[79.58428,24.91286],[79.58535,24.91152],[79.58545,24.91096],[79.58532,24.91052],[79.58454,24.90975],[79.58663,24.90957],[79.58657,24.909],[79.58603,24.90824],[79.58634,24.90783],[79.58426,24.90647],[79.58424,24.90618],[79.58379,24.90621],[79.57866,24.90358],[79.57633,24.90064],[79.57517,24.90143],[79.57456,24.90159],[79.57432,24.902],[79.57364,24.90217],[79.57359,24.90237],[79.57323,24.90256],[79.57323,24.90291],[79.57403,24.90307],[79.57336,24.90349],[79.57279,24.90326],[79.57241,24.90386],[79.57246,24.90431],[79.57278,24.90448],[79.57295,24.9048],[79.57292,24.90542],[79.57362,24.90655],[79.57525,24.90802],[79.57671,24.90907],[79.57762,24.90903],[79.57825,24.90959],[79.5788,24.90932],[79.57889,24.90949],[79.57903,24.90941],[79.57914,24.90961],[79.57898,24.90969],[79.58089,24.91329],[79.58138,24.91346],[79.58154,24.91372],[79.5818,24.91362],[79.58224,24.91447],[79.58249,24.91428],[79.58237,24.9124],[79.58277,24.91227],[79.58313,24.91327]]]}},{"type":"Feature","bbox":[79.56672,24.90514,79.58378,24.91657],"properties":{"ward":39,"name":"Sardar Bhagat Singh Ward"},"geometry":{"type":"Polygon","coordinates":[[[79.58378,24.91631],[79.58369,24.91491],[79.58277,24.91227],[79.58237,24.9124],[79.58249,24.91428],[79.58224,24.91447],[79.5818,24.91362],[79.58154,24.91372],[79.58138,24.91346],[79.58089,24.91329],[79.57898,24.90969],[79.57914,24.90961],[79.57903,24.90941],[79.57889,24.90949],[79.5788,24.90932],[79.57825,24.90959],[79.57762,24.90903],[79.57679,24.9091],[79.57614,24.90874],[79.57362,24.90655],[79.57291,24.90532],[79.57271,24.90522],[79.57212,24.90547],[79.57184,24.90514],[79.5709,24.90523],[79.56955,24.90591],[79.56992,24.90672],[79.5684,24.90726],[79.56791,24.90763],[79.56789,24.90825],[79.56899,24.90951],[79.57,24.91122],[79.56859,24.91161],[79.56733,24.91244],[79.56744,24.91286],[79.56785,24.91308],[79.56672,24.91361],[79.56767,24.91497],[79.56935,24.91477],[79.56936,24.91498],[79.56947,24.91498],[79.56944,24.91477],[79.57214,24.91456],[79.57558,24.91477],[79.57941,24.91425],[79.58075,24.91443],[79.58074,24.91474],[79.58029,24.91497],[79.58067,24.91546],[79.58162,24.91498],[79.58305,24.91657],[79.58378,24.91631]]]}},{"type":"Feature","bbox":[79.56904,24.91424,79.58383,24.9196],"properties":{"ward":40,"name":"Raj Mata Vijayasingh Ward"},"geometry":{"type":"Polygon","coordinates":[[[79.58383,24.91736],[79.58378,24.91631],[79.58305,24.91657],[79.58162,24.91498],[79.58067,24.91546],[79.58029,24.91497],[79.58076,24.91472],[79.58075,24.91443],[79.58061,24.9144],[79.5791,24.91424],[79.57558,24.91477],[79.57214,24.91456],[79.56944,24.91477],[79.56947,24.91498],[79.56936,24.91498],[79.56935,24.91477],[79.56904,24.9148],[79.56927,24.91757],[79.57104,24.91755],[79.572,24.9196],[79.57301,24.91927],[79.57314,24.91947],[79.5734,24.91939],[79.57348,24.91954],[79.5759,24.91883],[79.57628,24.91955],[79.57802,24.91895],[79.58006,24.91852],[79.58091,24.91774],[79.58259,24.91763],[79.58383,24.91736]]]}}]}