{"type":"FeatureCollection","features":[{"type":"Feature","bbox":[79.01798,23.38962,79.03146,23.39466],"properties":{"ward":1},"geometry":{"type":"Polygon","coordinates":[[[79.02136,23.39441],[79.02185,23.39384],[79.02287,23.39361],[79.02379,23.39225],[79.0241,23.39206],[79.02511,23.39217],[79.02679,23.39316],[79.02828,23.39301],[79.02888,23.39311],[79.02957,23.39254],[79.03062,23.39219],[79.03079,23.39181],[79.03076,23.39127],[79.03146,23.39073],[79.03097,23.38995],[79.03055,23.38967],[79.02968,23.3901],[79.02875,23.39027],[79.02499,23.38997],[79.02341,23.38965],[79.02204,23.38975],[79.02181,23.39],[79.02088,23.39006],[79.02026,23.39006],[79.01874,23.38962],[79.01825,23.38976],[79.01798,23.38998],[79.0182,23.39132],[79.01906,23.39416],[79.02061,23.39466],[79.02136,23.39441]]]}},{"type":"Feature","bbox":[79.01936,23.38534,79.03055,23.39027],"properties":{"ward":2},"geometry":{"type":"Polygon","coordinates":[[[79.01936,23.38862],[79.01987,23.38896],[79.02008,23.38939],[79.02037,23.38934],[79.02081,23.38986],[79.02068,23.39006],[79.02181,23.39],[79.02204,23.38975],[79.02251,23.38968],[79.02341,23.38965],[79.02499,23.38997],[79.02875,23.39027],[79.02968,23.3901],[79.03055,23.38967],[79.03022,23.3893],[79.03027,23.38864],[79.03052,23.38841],[79.02987,23.38769],[79.03007,23.38744],[79.0296,23.38654],[79.02719,23.38584],[79.02589,23.38639],[79.02507,23.38534],[79.02456,23.38563],[79.02475,23.38673],[79.02444,23.38721],[79.02259,23.38825],[79.02128,23.38857],[79.01967,23.38844],[79.01936,23.38862]]]}},{"type":"Feature","bbox":[79.01742,23.38781,79.02081,23.39006],"properties":{"ward":3},"geometry":{"type":"Polygon","coordinates":[[[79.01874,23.38962],[79.02068,23.39006],[79.02081,23.38986],[79.02037,23.38934],[79.02005,23.38937],[79.01969,23.38879],[79.01946,23.38878],[79.01936,23.38862],[79.01967,23.38844],[79.01909,23.38798],[79.01814,23.38781],[79.01742,23.38793],[79.01742,23.38883],[79.01798,23.38998],[79.01874,23.38962]]]}},{"type":"Feature","bbox":[79.01117,23.37977,79.0247,23.38859],"properties":{"ward":4},"geometry":{"type":"Polygon","coordinates":[[[79.01742,23.38793],[79.01813,23.38781],[79.01891,23.38792],[79.0197,23.38846],[79.02079,23.38859],[79.02259,23.38825],[79.02444,23.38721],[79.0247,23.38692],[79.02454,23.38571],[79.02468,23.38552],[79.02296,23.38567],[79.02248,23.38497],[79.02185,23.3847],[79.02165,23.3848],[79.02058,23.38424],[79.0195,23.3832],[79.01854,23.38287],[79.01825,23.38248],[79.01665,23.38134],[79.016,23.38037],[79.01527,23.38028],[79.01396,23.37977],[79.01379,23.38072],[79.01295,23.38026],[79.01268,23.38076],[79.01158,23.3801],[79.01122,23.38015],[79.01142,23.38131],[79.01117,23.38152],[79.01323,23.38219],[79.01677,23.38372],[79.01671,23.38395],[79.01624,23.38407],[79.01631,23.38434],[79.0161,23.38441],[79.01604,23.38517],[79.01678,23.38658],[79.01744,23.38715],[79.01742,23.38793]]]}},{"type":"Feature","bbox":[79.01009,23.38157,79.01744,23.3885],"properties":{"ward":5},"geometry":{"type":"Polygon","coordinates":[[[79.01682,23.38664],[79.01604,23.38517],[79.0161,23.38441],[79.01631,23.38434],[79.01624,23.38407],[79.01671,23.38395],[79.01677,23.38372],[79.01323,23.38219],[79.01132,23.38157],[79.01015,23.38183],[79.01061,23.3842],[79.01009,23.38558],[79.01215,23.38509],[79.01269,23.3851],[79.01344,23.38469],[79.01405,23.38648],[79.01497,23.38576],[79.0158,23.38718],[79.01621,23.38754],[79.01632,23.3883],[79.01738,23.3885],[79.01744,23.38715],[79.01682,23.38664]]]}},{"type":"Feature","bbox":[79.01115,23.38469,79.01632,23.38842],"properties":{"ward":6},"geometry":{"type":"Polygon","coordinates":[[[79.01554,23.38842],[79.01632,23.3883],[79.01621,23.38754],[79.01571,23.38704],[79.01511,23.38589],[79.01497,23.38576],[79.01405,23.38648],[79.01344,23.38469],[79.01269,23.3851],[79.01115,23.38532],[79.01144,23.38647],[79.01194,23.3874],[79.01207,23.38728],[79.01214,23.38738],[79.01222,23.38796],[79.01245,23.38816],[79.01328,23.38801],[79.01365,23.38775],[79.0141,23.3883],[79.01464,23.38816],[79.01519,23.38817],[79.01554,23.38842]]]}},{"type":"Feature","bbox":[79.00631,23.38532,79.01312,23.39176],"properties":{"ward":7},"geometry":{"type":"Polygon","coordinates":[[[79.01175,23.39045],[79.01213,23.39079],[79.01312,23.39045],[79.01235,23.38967],[79.0117,23.38933],[79.01163,23.38903],[79.01281,23.38898],[79.01284,23.38869],[79.01222,23.38796],[79.01214,23.38738],[79.01207,23.38728],[79.01194,23.3874],[79.01149,23.38657],[79.01115,23.38532],[79.01009,23.38558],[79.00954,23.38596],[79.0094,23.38634],[79.00742,23.38604],[79.00733,23.38723],[79.00665,23.38714],[79.00631,23.38731],[79.00676,23.3885],[79.00676,23.38902],[79.00651,23.38935],[79.00729,23.38931],[79.00794,23.38958],[79.00807,23.38983],[79.00794,23.39005],[79.00803,23.39076],[79.00912,23.39176],[79.01117,23.39112],[79.01175,23.39045]]]}},{"type":"Feature","bbox":[79.00522,23.38927,79.01536,23.39639],"properties":{"ward":8},"geometry":{"type":"Polygon","coordinates":[[[79.00998,23.39567],[79.01116,23.39566],[79.01294,23.39404],[79.01362,23.39268],[79.01455,23.39154],[79.01487,23.39075],[79.0153,23.39042],[79.01536,23.39006],[79.01514,23.38949],[79.01407,23.38984],[79.01368,23.39064],[79.0131,23.39052],[79.01213,23.39079],[79.01182,23.39039],[79.01119,23.39112],[79.00923,23.39181],[79.00803,23.39077],[79.00794,23.39005],[79.00806,23.38978],[79.00762,23.3894],[79.00626,23.38927],[79.00583,23.38947],[79.00572,23.38967],[79.00583,23.38971],[79.00522,23.3901],[79.00539,23.39068],[79.0067,23.39068],[79.00692,23.39091],[79.00719,23.39172],[79.0079,23.39189],[79.00804,23.39226],[79.00787,23.39236],[79.00784,23.39282],[79.00685,23.39361],[79.00766,23.39407],[79.00786,23.39452],[79.00745,23.39514],[79.00775,23.39527],[79.00777,23.3956],[79.00799,23.39585],[79.00787,23.3963],[79.00856,23.39639],[79.00998,23.39567]]]}},{"type":"Feature","bbox":[79.01317,23.38831,79.01804,23.39376],"properties":{"ward":9},"geometry":{"type":"Polygon","coordinates":[[[79.01804,23.39037],[79.01738,23.3885],[79.01685,23.38831],[79.01574,23.38834],[79.0157,23.3889],[79.01465,23.38929],[79.01514,23.38949],[79.01532,23.39036],[79.01487,23.39075],[79.01415,23.39217],[79.01362,23.39268],[79.01317,23.39376],[79.01404,23.39355],[79.01431,23.3926],[79.01472,23.39217],[79.01614,23.3916],[79.01804,23.39037]]]}},{"type":"Feature","bbox":[79.01163,23.38775,79.0157,23.39065],"properties":{"ward":10},"geometry":{"type":"Polygon","coordinates":[[[79.01465,23.38929],[79.0157,23.3889],[79.01567,23.38837],[79.01552,23.38842],[79.01518,23.38817],[79.01409,23.3883],[79.01365,23.38775],[79.01328,23.38801],[79.01245,23.38816],[79.01283,23.38866],[79.01282,23.38898],[79.01163,23.38903],[79.01172,23.38936],[79.0124,23.38971],[79.01268,23.39012],[79.01299,23.39022],[79.0131,23.39052],[79.01362,23.39065],[79.01407,23.38984],[79.01509,23.38948],[79.01465,23.38929]]]}},{"type":"Feature","bbox":[79.01406,23.39037,79.01848,23.39377],"properties":{"ward":11},"geometry":{"type":"Polygon","coordinates":[[[79.01572,23.39343],[79.01663,23.39286],[79.01683,23.3928],[79.017,23.39298],[79.01747,23.39262],[79.01815,23.39253],[79.01848,23.39231],[79.01804,23.39037],[79.01614,23.3916],[79.01472,23.39217],[79.01431,23.3926],[79.01406,23.39354],[79.01434,23.39377],[79.01572,23.39343]]]}},{"type":"Feature","bbox":[79.01344,23.39231,79.01906,23.3956],"properties":{"ward":12},"geometry":{"type":"Polygon","coordinates":[[[79.01441,23.3956],[79.01498,23.39504],[79.01504,23.39477],[79.01623,23.39509],[79.0173,23.39417],[79.01863,23.39403],[79.01906,23.39416],[79.01848,23.39231],[79.01815,23.39253],[79.01747,23.39262],[79.017,23.39298],[79.01683,23.3928],[79.01658,23.39289],[79.01501,23.39429],[79.01366,23.39493],[79.01344,23.39526],[79.01441,23.3956]]]}},{"type":"Feature","bbox":[79.01107,23.39342,79.01588,23.3968],"properties":{"ward":13},"geometry":{"type":"Polygon","coordinates":[[[79.01282,23.3968],[79.01344,23.39656],[79.01441,23.3956],[79.01344,23.39526],[79.01366,23.39493],[79.01494,23.39434],[79.01588,23.39342],[79.01452,23.39375],[79.01406,23.39354],[79.01317,23.39376],[79.01107,23.39569],[79.01132,23.39618],[79.01153,23.39611],[79.01171,23.39636],[79.01212,23.39635],[79.01241,23.39673],[79.01282,23.3968]]]}},{"type":"Feature","bbox":[79.00714,23.39477,79.01911,23.40073],"properties":{"ward":14},"geometry":{"type":"Polygon","coordinates":[[[79.01225,23.40071],[79.01434,23.40073],[79.01448,23.40017],[79.01615,23.39985],[79.01725,23.3989],[79.01757,23.39888],[79.01776,23.39939],[79.01862,23.39939],[79.01911,23.39881],[79.01893,23.39793],[79.01842,23.39692],[79.01882,23.39637],[79.01875,23.39622],[79.01776,23.39612],[79.01729,23.39557],[79.01642,23.3955],[79.01626,23.39543],[79.01619,23.39505],[79.01506,23.39477],[79.01469,23.39538],[79.01392,23.39597],[79.01356,23.39646],[79.01294,23.39677],[79.0126,23.39683],[79.01212,23.39635],[79.01171,23.39636],[79.01153,23.39611],[79.01132,23.39618],[79.01107,23.39569],[79.00994,23.39567],[79.00828,23.39642],[79.00714,23.39765],[79.00768,23.39816],[79.008,23.39885],[79.00863,23.39923],[79.00947,23.39955],[79.00996,23.39915],[79.01021,23.39913],[79.01058,23.40002],[79.01128,23.39977],[79.01217,23.39973],[79.01225,23.40071]]]}},{"type":"Feature","bbox":[79.01621,23.39208,79.02595,23.39966],"properties":{"ward":15},"geometry":{"type":"Polygon","coordinates":[[[79.02549,23.39375],[79.02595,23.39258],[79.02511,23.39217],[79.02401,23.39208],[79.02287,23.39361],[79.02185,23.39384],[79.02144,23.3944],[79.02061,23.39466],[79.01869,23.39403],[79.01764,23.3941],[79.01685,23.39442],[79.01621,23.39509],[79.01622,23.39531],[79.01642,23.3955],[79.01729,23.39557],[79.01776,23.39612],[79.01873,23.39619],[79.01882,23.39637],[79.01842,23.39692],[79.01899,23.39811],[79.01905,23.39887],[79.01999,23.39896],[79.02055,23.39966],[79.02171,23.39876],[79.02155,23.3975],[79.02175,23.39748],[79.02157,23.39662],[79.0225,23.39658],[79.02229,23.39582],[79.02227,23.39427],[79.02395,23.39367],[79.02549,23.39375]]]}}]}