{"type":"FeatureCollection","features":[{"type":"Feature","bbox":[81.05684,24.50346,81.07538,24.52263],"properties":{"ward":1},"geometry":{"type":"Polygon","coordinates":[[[81.06276,24.50887],[81.06289,24.51006],[81.06265,24.51136],[81.06183,24.5124],[81.06149,24.51243],[81.06039,24.51482],[81.05964,24.5157],[81.05917,24.51601],[81.05837,24.51874],[81.05764,24.5193],[81.0572,24.5199],[81.0576,24.52035],[81.05786,24.521],[81.05784,24.52155],[81.0572,24.52173],[81.05684,24.52209],[81.05742,24.52215],[81.05818,24.52263],[81.06022,24.5222],[81.06107,24.5211],[81.06134,24.52038],[81.06046,24.51998],[81.06138,24.51975],[81.06348,24.51978],[81.06469,24.51951],[81.06452,24.51889],[81.06464,24.5185],[81.06494,24.51821],[81.0657,24.51849],[81.06605,24.51838],[81.06634,24.51882],[81.06655,24.51887],[81.0673,24.51809],[81.06871,24.51744],[81.06864,24.5173],[81.06887,24.51703],[81.06905,24.517],[81.06929,24.51723],[81.06962,24.51688],[81.06953,24.51652],[81.07045,24.51641],[81.07075,24.51657],[81.07138,24.51651],[81.07174,24.51635],[81.07135,24.51593],[81.07175,24.51562],[81.07203,24.51622],[81.0727,24.51635],[81.07417,24.51551],[81.07459,24.51567],[81.07494,24.51525],[81.07538,24.51506],[81.07463,24.51066],[81.07327,24.50707],[81.0728,24.50476],[81.07211,24.50468],[81.07132,24.50351],[81.07099,24.50346],[81.06904,24.50394],[81.069,24.50368],[81.06814,24.50392],[81.06817,24.50461],[81.06734,24.5051],[81.06641,24.50531],[81.06596,24.50649],[81.06355,24.5075],[81.06326,24.50745],[81.06318,24.50759],[81.06386,24.50781],[81.06318,24.50821],[81.06276,24.50887]]]}},{"type":"Feature","bbox":[81.06452,24.50424,81.09438,24.53106],"properties":{"ward":2},"geometry":{"type":"Polygon","coordinates":[[[81.09156,24.52985],[81.09171,24.52938],[81.09116,24.52921],[81.09103,24.52841],[81.09183,24.52748],[81.09152,24.52474],[81.09271,24.52443],[81.09318,24.52524],[81.09438,24.52485],[81.09363,24.52292],[81.09214,24.52281],[81.09091,24.51904],[81.08985,24.51958],[81.08878,24.51702],[81.08823,24.51372],[81.08688,24.51274],[81.08536,24.51415],[81.08519,24.51179],[81.08403,24.51231],[81.0847,24.51084],[81.08472,24.50967],[81.08361,24.50962],[81.08217,24.50483],[81.07895,24.50557],[81.07596,24.50515],[81.076,24.50424],[81.07274,24.50492],[81.07327,24.50707],[81.07463,24.51066],[81.07538,24.51506],[81.07494,24.51525],[81.07459,24.51567],[81.07417,24.51551],[81.0727,24.51635],[81.07202,24.51622],[81.07175,24.51562],[81.07135,24.51593],[81.07174,24.51635],[81.07138,24.51651],[81.07075,24.51657],[81.07045,24.51642],[81.06953,24.51652],[81.06962,24.51688],[81.06929,24.51723],[81.06905,24.517],[81.06887,24.51703],[81.06864,24.5173],[81.06871,24.51744],[81.0673,24.51809],[81.06656,24.51887],[81.06634,24.51882],[81.06605,24.51838],[81.0657,24.51849],[81.06494,24.51821],[81.06464,24.5185],[81.06452,24.51889],[81.06469,24.51951],[81.06622,24.52027],[81.06693,24.5198],[81.06749,24.51984],[81.0678,24.51937],[81.06858,24.51958],[81.06856,24.52026],[81.06884,24.5207],[81.06962,24.52122],[81.06961,24.52085],[81.06998,24.52025],[81.07062,24.51969],[81.07158,24.51928],[81.07246,24.5196],[81.07317,24.51915],[81.07328,24.51866],[81.0737,24.51808],[81.07629,24.51828],[81.07621,24.51875],[81.07666,24.51918],[81.07701,24.51925],[81.07692,24.51953],[81.07718,24.52034],[81.07754,24.5202],[81.07807,24.52234],[81.0782,24.52223],[81.079,24.52269],[81.08102,24.52513],[81.0833,24.52679],[81.08657,24.52806],[81.08642,24.52907],[81.08675,24.53036],[81.08715,24.53106],[81.09156,24.52985]]]}},{"type":"Feature","bbox":[81.06594,24.51808,81.09455,24.53665],"properties":{"ward":3},"geometry":{"type":"Polygon","coordinates":[[[81.0664,24.52006],[81.06594,24.5212],[81.06707,24.52357],[81.06899,24.5265],[81.07277,24.5289],[81.07836,24.53306],[81.08064,24.53391],[81.08254,24.53665],[81.08344,24.53607],[81.08449,24.53493],[81.08474,24.53486],[81.08617,24.53527],[81.08623,24.535],[81.08644,24.53495],[81.08754,24.53491],[81.08769,24.53521],[81.08787,24.53522],[81.08886,24.53495],[81.08927,24.53554],[81.09123,24.53587],[81.09231,24.53579],[81.09388,24.53532],[81.09435,24.53494],[81.09455,24.53454],[81.09409,24.53279],[81.09425,24.53262],[81.09335,24.53053],[81.09299,24.53061],[81.09251,24.53012],[81.09183,24.53027],[81.0914,24.52995],[81.08715,24.53106],[81.08675,24.53036],[81.08643,24.52907],[81.08657,24.52806],[81.0833,24.52679],[81.08102,24.52513],[81.079,24.52269],[81.0782,24.52223],[81.07807,24.52234],[81.07754,24.5202],[81.07718,24.52034],[81.07692,24.51953],[81.07701,24.51925],[81.07666,24.51918],[81.07621,24.51875],[81.07629,24.51828],[81.0737,24.51808],[81.07328,24.51866],[81.07317,24.51914],[81.07246,24.5196],[81.07158,24.51928],[81.07062,24.51969],[81.06998,24.52025],[81.06961,24.52084],[81.06962,24.52122],[81.06884,24.5207],[81.06852,24.52021],[81.06858,24.51958],[81.0678,24.51937],[81.06749,24.51984],[81.06693,24.5198],[81.0664,24.52006]]]}},{"type":"Feature","bbox":[81.04729,24.51951,81.07282,24.53123],"properties":{"ward":4},"geometry":{"type":"Polygon","coordinates":[[[81.04985,24.53011],[81.0504,24.53091],[81.05126,24.53069],[81.05232,24.53069],[81.05291,24.53035],[81.0538,24.53074],[81.05456,24.53049],[81.05464,24.53079],[81.05539,24.53123],[81.05566,24.53098],[81.05609,24.53114],[81.0564,24.53105],[81.05616,24.53045],[81.0571,24.53009],[81.05762,24.53005],[81.05798,24.53021],[81.05794,24.53043],[81.05811,24.53045],[81.05825,24.52998],[81.05853,24.52999],[81.05862,24.53048],[81.05847,24.53033],[81.05825,24.53045],[81.05875,24.5307],[81.059,24.53041],[81.05929,24.53041],[81.05918,24.53029],[81.05927,24.53004],[81.05941,24.53],[81.05959,24.53022],[81.05996,24.53015],[81.05995,24.52984],[81.06041,24.52973],[81.06024,24.52979],[81.0602,24.53006],[81.06077,24.53008],[81.06132,24.53034],[81.06221,24.53029],[81.06208,24.53084],[81.06239,24.53079],[81.06268,24.5303],[81.06291,24.53084],[81.06319,24.53094],[81.06325,24.53075],[81.06434,24.53075],[81.06458,24.53052],[81.06606,24.53059],[81.06614,24.5308],[81.0669,24.53065],[81.06731,24.53092],[81.06784,24.53074],[81.06792,24.53045],[81.06927,24.52995],[81.06978,24.53077],[81.07046,24.53055],[81.07115,24.52991],[81.07246,24.52947],[81.07282,24.52901],[81.06899,24.5265],[81.06707,24.52357],[81.06594,24.5212],[81.06622,24.52027],[81.06469,24.51951],[81.06348,24.51978],[81.06138,24.51975],[81.06046,24.51998],[81.06134,24.52038],[81.06107,24.5211],[81.06022,24.5222],[81.05818,24.52263],[81.05742,24.52215],[81.05663,24.52214],[81.05669,24.52258],[81.05685,24.52261],[81.05658,24.5233],[81.05575,24.52373],[81.05526,24.5245],[81.05429,24.52426],[81.05284,24.52539],[81.05252,24.52543],[81.05107,24.52692],[81.05104,24.52763],[81.05068,24.52787],[81.05032,24.52811],[81.04995,24.5281],[81.04906,24.52752],[81.04844,24.52739],[81.04809,24.5279],[81.04729,24.52839],[81.04729,24.52861],[81.04775,24.52909],[81.04933,24.5292],[81.04983,24.5295],[81.04985,24.53011]]]}},{"type":"Feature","bbox":[81.02857,24.5155,81.05756,24.53863],"properties":{"ward":5},"geometry":{"type":"Polygon","coordinates":[[[81.03056,24.52955],[81.02909,24.53013],[81.02875,24.53038],[81.02893,24.53069],[81.02857,24.53071],[81.02862,24.53131],[81.02929,24.53133],[81.0295,24.53207],[81.03009,24.53254],[81.03055,24.53369],[81.03087,24.53394],[81.03164,24.53406],[81.03181,24.53492],[81.0324,24.53536],[81.03242,24.53565],[81.03218,24.53584],[81.03234,24.53594],[81.03241,24.53635],[81.03278,24.53629],[81.03326,24.53652],[81.03347,24.53622],[81.03371,24.53631],[81.03405,24.53677],[81.03436,24.53684],[81.03457,24.53726],[81.03446,24.53767],[81.03462,24.53776],[81.0349,24.53765],[81.03486,24.53731],[81.03508,24.5374],[81.03521,24.5377],[81.03561,24.53785],[81.03596,24.53768],[81.03644,24.53801],[81.03628,24.53832],[81.0371,24.53786],[81.03704,24.5385],[81.03731,24.53846],[81.03743,24.53863],[81.03851,24.53731],[81.04003,24.53627],[81.04058,24.53638],[81.041,24.53678],[81.0411,24.53731],[81.04154,24.5379],[81.04226,24.53708],[81.04217,24.53671],[81.04275,24.536],[81.0428,24.53563],[81.04349,24.53496],[81.04476,24.53447],[81.04484,24.53413],[81.04407,24.53292],[81.04411,24.53226],[81.0451,24.53251],[81.04642,24.53193],[81.04688,24.53214],[81.04799,24.5313],[81.04825,24.5321],[81.04946,24.53219],[81.04962,24.53259],[81.0504,24.53091],[81.04985,24.53011],[81.04983,24.5295],[81.04933,24.5292],[81.04775,24.52909],[81.04729,24.52861],[81.04729,24.52839],[81.04809,24.5279],[81.04844,24.52739],[81.04906,24.52752],[81.04995,24.5281],[81.05032,24.52811],[81.05105,24.52763],[81.05107,24.52692],[81.05252,24.52543],[81.05284,24.52539],[81.05429,24.52426],[81.05527,24.5245],[81.05575,24.52373],[81.05658,24.5233],[81.05685,24.52261],[81.05669,24.52258],[81.05663,24.52196],[81.05687,24.52166],[81.0575,24.5214],[81.05756,24.52116],[81.05709,24.52044],[81.05644,24.51885],[81.05569,24.51817],[81.05559,24.5155],[81.04777,24.51922],[81.04433,24.52445],[81.04333,24.52533],[81.04191,24.52614],[81.04106,24.52621],[81.03918,24.52544],[81.03872,24.52641],[81.03787,24.52671],[81.03731,24.52626],[81.03709,24.52635],[81.0375,24.52786],[81.03583,24.52837],[81.03246,24.52978],[81.03226,24.5293],[81.03077,24.52984],[81.03056,24.52955]]]}},{"type":"Feature","bbox":[81.03729,24.51047,81.05563,24.52625],"properties":{"ward":6},"geometry":{"type":"Polygon","coordinates":[[[81.0392,24.52541],[81.04144,24.52625],[81.04191,24.52614],[81.04333,24.52533],[81.04433,24.52445],[81.04777,24.51922],[81.05559,24.5155],[81.05531,24.51371],[81.05549,24.51334],[81.05531,24.51208],[81.05563,24.5119],[81.05548,24.51151],[81.05323,24.51246],[81.05292,24.51217],[81.05312,24.51198],[81.05289,24.51153],[81.0523,24.51113],[81.05207,24.51047],[81.05073,24.5111],[81.04966,24.51133],[81.0497,24.51153],[81.04904,24.51172],[81.04885,24.51126],[81.04757,24.5118],[81.04709,24.51224],[81.04545,24.51267],[81.04532,24.51377],[81.04515,24.51409],[81.04395,24.51455],[81.04382,24.51433],[81.04296,24.51462],[81.04311,24.51529],[81.04214,24.51564],[81.04237,24.51629],[81.04059,24.51641],[81.03729,24.51755],[81.03987,24.52247],[81.04048,24.52242],[81.04073,24.52314],[81.03942,24.52368],[81.03967,24.52466],[81.0392,24.52541]]]}},{"type":"Feature","bbox":[81.02182,24.50535,81.05233,24.53011],"properties":{"ward":7},"geometry":{"type":"Polygon","coordinates":[[[81.05028,24.5111],[81.04998,24.51011],[81.05049,24.50984],[81.05163,24.50962],[81.05191,24.50803],[81.05184,24.50763],[81.05228,24.50751],[81.05233,24.50724],[81.05209,24.50609],[81.05048,24.50632],[81.05031,24.50584],[81.0455,24.50731],[81.04505,24.50754],[81.04522,24.50798],[81.0445,24.50823],[81.04455,24.50842],[81.04401,24.50848],[81.04405,24.50867],[81.04345,24.50888],[81.04355,24.50911],[81.04267,24.50933],[81.04272,24.50958],[81.04196,24.50985],[81.04203,24.51004],[81.04183,24.51009],[81.03972,24.51028],[81.0394,24.50885],[81.0385,24.50629],[81.03386,24.5075],[81.03311,24.50605],[81.0315,24.50664],[81.0311,24.50542],[81.03077,24.50551],[81.0297,24.50535],[81.02441,24.50742],[81.02398,24.50638],[81.02217,24.50676],[81.02182,24.50884],[81.02243,24.5103],[81.02303,24.51012],[81.02317,24.51067],[81.02339,24.5106],[81.02364,24.51102],[81.02428,24.51077],[81.02444,24.51107],[81.02495,24.51093],[81.02532,24.51195],[81.0253,24.51224],[81.02439,24.51274],[81.02516,24.51525],[81.02357,24.51603],[81.02434,24.51714],[81.02443,24.51794],[81.02466,24.51821],[81.02634,24.51771],[81.02686,24.51873],[81.02726,24.52002],[81.02762,24.51994],[81.02778,24.52012],[81.02759,24.52124],[81.02766,24.52181],[81.02804,24.52201],[81.02792,24.52239],[81.02817,24.52237],[81.02823,24.52253],[81.0279,24.52317],[81.02834,24.52347],[81.02831,24.52371],[81.02788,24.52399],[81.02805,24.524],[81.02804,24.52425],[81.02769,24.52433],[81.0277,24.52502],[81.0284,24.52713],[81.02888,24.52805],[81.02911,24.52844],[81.02964,24.52874],[81.02897,24.52924],[81.02879,24.52911],[81.02883,24.52943],[81.0293,24.52963],[81.02916,24.53011],[81.03056,24.52955],[81.03077,24.52984],[81.03226,24.5293],[81.03246,24.52978],[81.03583,24.52837],[81.0375,24.52786],[81.03709,24.52635],[81.03731,24.52626],[81.03787,24.52671],[81.03876,24.52638],[81.03967,24.52466],[81.03942,24.52368],[81.04073,24.52314],[81.04048,24.52242],[81.03987,24.52247],[81.03729,24.51755],[81.04059,24.51641],[81.04237,24.51629],[81.04214,24.51564],[81.04311,24.51529],[81.04297,24.51462],[81.04383,24.51433],[81.04395,24.51455],[81.04515,24.51409],[81.04532,24.51377],[81.04545,24.51267],[81.04709,24.51224],[81.04757,24.5118],[81.04885,24.51126],[81.04904,24.51172],[81.0497,24.51153],[81.04966,24.51133],[81.05028,24.5111]]]}},{"type":"Feature","bbox":[81.04996,24.50378,81.05675,24.51246],"properties":{"ward":8},"geometry":{"type":"Polygon","coordinates":[[[81.05548,24.51151],[81.05549,24.51036],[81.05609,24.50934],[81.05675,24.5075],[81.05657,24.50561],[81.05637,24.50477],[81.05618,24.50456],[81.05613,24.50378],[81.05583,24.50385],[81.056,24.50435],[81.05574,24.50446],[81.05589,24.50495],[81.0557,24.50502],[81.05543,24.50453],[81.05473,24.50425],[81.05231,24.50511],[81.05254,24.50584],[81.05208,24.50607],[81.05233,24.50724],[81.05228,24.50751],[81.05184,24.50763],[81.05191,24.50803],[81.05163,24.50962],[81.05049,24.50984],[81.04996,24.51023],[81.05028,24.51111],[81.05073,24.5111],[81.05207,24.51047],[81.0523,24.51113],[81.05289,24.51153],[81.05312,24.51198],[81.05292,24.51217],[81.05323,24.51246],[81.05548,24.51151]]]}},{"type":"Feature","bbox":[81.0385,24.50253,81.05613,24.51028],"properties":{"ward":9},"geometry":{"type":"Polygon","coordinates":[[[81.04798,24.50425],[81.0385,24.50629],[81.0394,24.50885],[81.03972,24.51028],[81.04183,24.51009],[81.04203,24.51003],[81.04196,24.50985],[81.04272,24.50958],[81.04267,24.50933],[81.04355,24.5091],[81.04345,24.50888],[81.04405,24.50867],[81.04401,24.50848],[81.04455,24.50842],[81.0445,24.50823],[81.04522,24.50798],[81.04505,24.50754],[81.0455,24.50731],[81.05031,24.50584],[81.05048,24.50632],[81.05209,24.50609],[81.05254,24.50584],[81.05231,24.50511],[81.05439,24.50432],[81.05473,24.50425],[81.05543,24.50453],[81.0557,24.50502],[81.05589,24.50495],[81.05574,24.50446],[81.056,24.50435],[81.05583,24.50385],[81.05613,24.50378],[81.05609,24.50281],[81.056,24.50253],[81.05511,24.5026],[81.05349,24.50334],[81.0523,24.50306],[81.05147,24.50313],[81.04798,24.50425]]]}},{"type":"Feature","bbox":[81.04851,24.49827,81.05561,24.50334],"properties":{"ward":10},"geometry":{"type":"Polygon","coordinates":[[[81.05201,24.50175],[81.0523,24.50306],[81.05316,24.50334],[81.05349,24.50334],[81.05439,24.50282],[81.05561,24.50255],[81.05531,24.50184],[81.05433,24.50088],[81.05388,24.50083],[81.05225,24.49852],[81.05044,24.49863],[81.04996,24.49827],[81.04856,24.49897],[81.04851,24.49947],[81.04904,24.50041],[81.05122,24.49997],[81.05201,24.50175]]]}},{"type":"Feature","bbox":[81.01983,24.49242,81.0523,24.5075],"properties":{"ward":11},"geometry":{"type":"Polygon","coordinates":[[[81.04996,24.49827],[81.05102,24.49806],[81.05153,24.49749],[81.05146,24.49594],[81.05019,24.49502],[81.04766,24.49495],[81.04558,24.49408],[81.04426,24.4945],[81.04351,24.49367],[81.0429,24.49366],[81.04263,24.49242],[81.04033,24.49265],[81.04045,24.49306],[81.03994,24.49326],[81.03852,24.4933],[81.03577,24.49432],[81.03551,24.49402],[81.03494,24.49419],[81.0351,24.49464],[81.03408,24.49508],[81.0333,24.49443],[81.02986,24.49572],[81.02975,24.49545],[81.02885,24.49576],[81.02903,24.49622],[81.02489,24.49746],[81.02542,24.4978],[81.02301,24.49855],[81.02128,24.49935],[81.02187,24.5008],[81.0214,24.50098],[81.02168,24.50194],[81.02147,24.50204],[81.02194,24.50321],[81.01983,24.50396],[81.02041,24.50477],[81.02171,24.50467],[81.02186,24.5049],[81.02209,24.50677],[81.02315,24.50665],[81.02398,24.50638],[81.02441,24.50742],[81.0297,24.50535],[81.03077,24.50551],[81.0311,24.50542],[81.0315,24.50664],[81.03311,24.50605],[81.03386,24.5075],[81.03819,24.50634],[81.0411,24.50585],[81.04561,24.50484],[81.05147,24.50313],[81.0523,24.50306],[81.05201,24.50175],[81.05122,24.49997],[81.04904,24.50041],[81.04851,24.49947],[81.04856,24.49897],[81.04996,24.49827]]]}},{"type":"Feature","bbox":[81.04996,24.49749,81.05499,24.50044],"properties":{"ward":12},"geometry":{"type":"Polygon","coordinates":[[[81.05499,24.49904],[81.05376,24.49865],[81.05302,24.49795],[81.05153,24.49749],[81.05103,24.49806],[81.05081,24.49815],[81.05042,24.49816],[81.04997,24.49824],[81.04996,24.49827],[81.05044,24.49863],[81.05225,24.49852],[81.0536,24.50044],[81.05421,24.50015],[81.05414,24.4998],[81.05453,24.49923],[81.05499,24.49904]]]}},{"type":"Feature","bbox":[81.0536,24.49903,81.05646,24.50188],"properties":{"ward":13},"geometry":{"type":"Polygon","coordinates":[[[81.05646,24.50077],[81.05591,24.49951],[81.0553,24.49903],[81.05453,24.49923],[81.05414,24.4998],[81.05421,24.50015],[81.0536,24.50044],[81.05388,24.50083],[81.05433,24.50088],[81.05534,24.50188],[81.05536,24.50161],[81.05586,24.50101],[81.05646,24.50077]]]}},{"type":"Feature","bbox":[81.05534,24.50077,81.05847,24.50455],"properties":{"ward":14},"geometry":{"type":"Polygon","coordinates":[[[81.0579,24.50324],[81.05847,24.50211],[81.05838,24.50184],[81.05808,24.50159],[81.05673,24.50137],[81.05646,24.50077],[81.05586,24.50101],[81.05536,24.50161],[81.05534,24.50188],[81.05562,24.50255],[81.05603,24.50256],[81.05627,24.50455],[81.0567,24.50432],[81.05681,24.50396],[81.05669,24.50361],[81.05744,24.5035],[81.05768,24.50318],[81.0579,24.50324]]]}},{"type":"Feature","bbox":[81.05531,24.50318,81.06289,24.52214],"properties":{"ward":15},"geometry":{"type":"Polygon","coordinates":[[[81.0579,24.50324],[81.05768,24.50318],[81.05744,24.5035],[81.05669,24.50361],[81.05681,24.50396],[81.0567,24.50432],[81.05618,24.50456],[81.05637,24.50476],[81.05657,24.50561],[81.05675,24.5075],[81.05609,24.50934],[81.05549,24.51036],[81.05539,24.51128],[81.05564,24.5119],[81.05531,24.51208],[81.05549,24.51334],[81.05531,24.51371],[81.05565,24.51597],[81.05569,24.51817],[81.05644,24.51885],[81.05709,24.52045],[81.05756,24.52116],[81.0575,24.5214],[81.05687,24.52166],[81.05663,24.52214],[81.0572,24.52173],[81.05784,24.52155],[81.05786,24.521],[81.0576,24.52035],[81.0572,24.5199],[81.05764,24.5193],[81.05837,24.51874],[81.05917,24.51601],[81.05964,24.5157],[81.06039,24.51482],[81.06149,24.51243],[81.06183,24.5124],[81.06265,24.51136],[81.06289,24.51006],[81.06212,24.5073],[81.06221,24.50655],[81.06242,24.50626],[81.06236,24.50596],[81.06179,24.50565],[81.06091,24.50546],[81.05937,24.50577],[81.05787,24.50567],[81.05759,24.50526],[81.05784,24.50433],[81.0579,24.50324]]]}}]}