{"type":"FeatureCollection","features":[{"type":"Feature","bbox":[80.18431,24.725,80.19482,24.73848],"properties":{"ward":1,"name":"Vindhyachal Ward"},"geometry":{"type":"Polygon","coordinates":[[[80.19311,24.72895],[80.19121,24.72766],[80.19074,24.72758],[80.18989,24.72657],[80.18958,24.72664],[80.1893,24.72582],[80.18938,24.72547],[80.18916,24.72511],[80.18814,24.725],[80.18799,24.72505],[80.18776,24.72613],[80.18815,24.72734],[80.18804,24.72771],[80.18747,24.728],[80.18729,24.72838],[80.1871,24.72813],[80.18498,24.72833],[80.18468,24.72848],[80.18457,24.72873],[80.18443,24.72867],[80.18431,24.7293],[80.18573,24.72959],[80.18664,24.7303],[80.18746,24.7322],[80.18757,24.73302],[80.18743,24.73417],[80.18779,24.73504],[80.19051,24.73613],[80.19143,24.73775],[80.19195,24.73828],[80.19265,24.73843],[80.19466,24.73848],[80.19482,24.73843],[80.19478,24.73804],[80.19399,24.73438],[80.19311,24.72895]]]}},{"type":"Feature","bbox":[80.1893,24.72322,80.19321,24.72766],"properties":{"ward":2,"name":"Shayama Sundar Mukharji Ward"},"geometry":{"type":"Polygon","coordinates":[[[80.19306,24.72457],[80.19226,24.72325],[80.19216,24.72322],[80.19218,24.72383],[80.19111,24.72355],[80.19113,24.72551],[80.18938,24.72547],[80.1893,24.72582],[80.18953,24.72658],[80.18989,24.72657],[80.19074,24.72758],[80.19121,24.72766],[80.19115,24.72558],[80.19305,24.72558],[80.19321,24.72523],[80.19306,24.72457]]]}},{"type":"Feature","bbox":[80.19184,24.72746,80.20161,24.73974],"properties":{"ward":3,"name":"Bajran Ward"},"geometry":{"type":"Polygon","coordinates":[[[80.20161,24.73221],[80.20104,24.73152],[80.1997,24.73184],[80.19884,24.73187],[80.1986,24.73134],[80.19823,24.73143],[80.19799,24.73018],[80.19714,24.73031],[80.19711,24.73005],[80.19688,24.73005],[80.19679,24.7299],[80.19566,24.73009],[80.19518,24.72903],[80.19507,24.72746],[80.19342,24.7281],[80.19241,24.72807],[80.19206,24.72791],[80.19184,24.72816],[80.19311,24.72895],[80.19399,24.73438],[80.19478,24.73804],[80.19482,24.73843],[80.19466,24.73848],[80.1948,24.73859],[80.1949,24.73974],[80.19797,24.73889],[80.19779,24.73847],[80.19815,24.73759],[80.19834,24.73623],[80.19848,24.73749],[80.19995,24.73742],[80.19998,24.73688],[80.19968,24.73688],[80.19967,24.73629],[80.19929,24.73628],[80.19906,24.73502],[80.19892,24.73503],[80.1987,24.73393],[80.1992,24.73375],[80.19891,24.73291],[80.20161,24.73221]]]}},{"type":"Feature","bbox":[80.19115,24.72224,80.20274,24.73221],"properties":{"ward":4,"name":"Bhagat Singh Ward"},"geometry":{"type":"Polygon","coordinates":[[[80.19677,24.72224],[80.19588,24.72264],[80.19517,24.72328],[80.19356,24.72399],[80.19353,24.72426],[80.19306,24.72457],[80.19321,24.72523],[80.19305,24.72558],[80.19115,24.72558],[80.19122,24.72771],[80.19184,24.72816],[80.19206,24.72791],[80.19229,24.72806],[80.19326,24.72812],[80.19507,24.72746],[80.19518,24.72903],[80.19566,24.73009],[80.19679,24.7299],[80.19688,24.73005],[80.19711,24.73005],[80.19714,24.73031],[80.19799,24.73018],[80.19823,24.73143],[80.1986,24.73134],[80.19884,24.73187],[80.1997,24.73184],[80.20104,24.73152],[80.20161,24.73221],[80.20267,24.7318],[80.20274,24.73159],[80.20246,24.73138],[80.20265,24.73088],[80.2021,24.72935],[80.20235,24.72924],[80.20224,24.7282],[80.20189,24.7281],[80.20256,24.72798],[80.20262,24.72769],[80.2022,24.72568],[80.20226,24.72512],[80.20076,24.72533],[80.20061,24.72484],[80.19859,24.72531],[80.19807,24.72401],[80.19773,24.72403],[80.19731,24.72279],[80.19677,24.72224]]]}},{"type":"Feature","bbox":[80.18807,24.72355,80.19111,24.72554],"properties":{"ward":5,"name":"Ramganj Ward"},"geometry":{"type":"Polygon","coordinates":[[[80.19111,24.72355],[80.18807,24.72363],[80.18841,24.72497],[80.18911,24.72508],[80.1894,24.72549],[80.19111,24.72554],[80.19111,24.72355]]]}},{"type":"Feature","bbox":[80.18204,24.72371,80.18841,24.72906],"properties":{"ward":6,"name":"Prannath Ward"},"geometry":{"type":"Polygon","coordinates":[[[80.18841,24.72497],[80.18827,24.72441],[80.18748,24.72438],[80.18691,24.72371],[80.18653,24.72413],[80.18676,24.72464],[80.18604,24.72485],[80.18614,24.72504],[80.18577,24.72532],[80.18496,24.72543],[80.18458,24.72575],[80.18447,24.72649],[80.18377,24.72665],[80.18355,24.72714],[80.18204,24.72797],[80.18246,24.72832],[80.18408,24.72854],[80.18435,24.72906],[80.18443,24.72867],[80.18457,24.72873],[80.18468,24.72848],[80.18498,24.72833],[80.1871,24.72813],[80.18729,24.72838],[80.18743,24.72803],[80.18793,24.72783],[80.18815,24.72751],[80.18776,24.72613],[80.18799,24.72505],[80.18841,24.72497]]]}},{"type":"Feature","bbox":[80.18456,24.72097,80.18827,24.72543],"properties":{"ward":7,"name":"Padhawati Ward"},"geometry":{"type":"Polygon","coordinates":[[[80.18827,24.72441],[80.18766,24.72264],[80.18631,24.72128],[80.18567,24.7214],[80.18499,24.72097],[80.18468,24.72098],[80.18517,24.72167],[80.18591,24.7221],[80.18599,24.72291],[80.18585,24.723],[80.18665,24.72382],[80.18499,24.72378],[80.18456,24.72485],[80.18496,24.72543],[80.18577,24.72532],[80.18614,24.72504],[80.18604,24.72485],[80.18676,24.72464],[80.18653,24.72413],[80.18691,24.72371],[80.18748,24.72438],[80.18827,24.72441]]]}},{"type":"Feature","bbox":[80.18056,24.72098,80.18665,24.72797],"properties":{"ward":8,"name":"Shivaji Ward"},"geometry":{"type":"Polygon","coordinates":[[[80.18496,24.72543],[80.18456,24.72485],[80.18499,24.72378],[80.18665,24.72382],[80.18585,24.723],[80.18599,24.72291],[80.18591,24.7221],[80.18517,24.72167],[80.18468,24.72098],[80.18386,24.72141],[80.18375,24.72195],[80.1832,24.72206],[80.18339,24.72241],[80.18307,24.72253],[80.18307,24.72279],[80.18267,24.72298],[80.18288,24.72325],[80.18266,24.72342],[80.18275,24.72363],[80.18251,24.72372],[80.18277,24.724],[80.18204,24.72404],[80.1813,24.72476],[80.18073,24.72552],[80.18056,24.72618],[80.181,24.72706],[80.18204,24.72797],[80.18355,24.72714],[80.18377,24.72665],[80.18447,24.72649],[80.18458,24.72575],[80.18496,24.72543]]]}},{"type":"Feature","bbox":[80.17661,24.71745,80.18468,24.7241],"properties":{"ward":9,"name":"Viyogihari Ward"},"geometry":{"type":"Polygon","coordinates":[[[80.18468,24.72098],[80.18428,24.72058],[80.18407,24.72075],[80.18386,24.72064],[80.18342,24.72003],[80.18465,24.71955],[80.18202,24.71807],[80.1812,24.71745],[80.18092,24.71857],[80.18157,24.71876],[80.18082,24.71941],[80.18095,24.72022],[80.17992,24.72044],[80.17851,24.721],[80.17685,24.72097],[80.17661,24.72129],[80.17689,24.72159],[80.17839,24.72221],[80.17984,24.72361],[80.18163,24.72363],[80.18202,24.72378],[80.18204,24.72404],[80.18239,24.7241],[80.18277,24.724],[80.18251,24.72372],[80.18275,24.72363],[80.18266,24.72342],[80.18288,24.72325],[80.18268,24.72309],[80.1827,24.72292],[80.18307,24.72279],[80.18307,24.72253],[80.18339,24.72241],[80.1832,24.72206],[80.18375,24.72195],[80.18386,24.72141],[80.18468,24.72098]]]}},{"type":"Feature","bbox":[80.16692,24.71079,80.18157,24.72101],"properties":{"ward":10,"name":"Subhash Ward"},"geometry":{"type":"Polygon","coordinates":[[[80.1812,24.71745],[80.17361,24.71079],[80.17255,24.71192],[80.17183,24.71238],[80.16692,24.71283],[80.1685,24.71717],[80.17008,24.71831],[80.17065,24.71845],[80.17077,24.71883],[80.17177,24.71899],[80.17228,24.71925],[80.17253,24.71998],[80.17335,24.7206],[80.17452,24.72091],[80.17602,24.72051],[80.17673,24.72097],[80.17845,24.72101],[80.17992,24.72044],[80.18095,24.72022],[80.18082,24.71941],[80.18157,24.71876],[80.18092,24.71857],[80.1812,24.71745]]]}},{"type":"Feature","bbox":[80.17361,24.69803,80.187,24.71664],"properties":{"ward":11,"name":"Raghvendra Ward"},"geometry":{"type":"Polygon","coordinates":[[[80.1833,24.71571],[80.18269,24.71484],[80.18373,24.71452],[80.18383,24.71489],[80.18559,24.71445],[80.18575,24.71485],[80.187,24.71478],[80.18368,24.70843],[80.1831,24.7079],[80.18092,24.70671],[80.18067,24.70637],[80.18021,24.7049],[80.1828,24.70442],[80.18261,24.70308],[80.18161,24.70309],[80.18208,24.70233],[80.18333,24.69874],[80.18313,24.69866],[80.18317,24.69855],[80.18241,24.6985],[80.18208,24.69827],[80.1813,24.6983],[80.18093,24.6982],[80.18087,24.69803],[80.18029,24.6981],[80.18006,24.70186],[80.17948,24.70459],[80.17361,24.71079],[80.18029,24.71664],[80.1815,24.71594],[80.18155,24.71639],[80.1826,24.7162],[80.18291,24.71633],[80.1833,24.71571]]]}},{"type":"Feature","bbox":[80.18029,24.71571,80.18495,24.71911],"properties":{"ward":12,"name":"Gandhi Ward"},"geometry":{"type":"Polygon","coordinates":[[[80.18495,24.71729],[80.18431,24.71703],[80.1833,24.71571],[80.18291,24.71633],[80.1826,24.7162],[80.18155,24.71639],[80.1815,24.71594],[80.18029,24.71664],[80.18202,24.71807],[80.18385,24.71911],[80.1846,24.71851],[80.1845,24.71807],[80.18484,24.71792],[80.18495,24.71729]]]}},{"type":"Feature","bbox":[80.18021,24.70443,80.19513,24.71733],"properties":{"ward":13,"name":"Chhatarsal Ward"},"geometry":{"type":"Polygon","coordinates":[[[80.19025,24.71607],[80.19125,24.71447],[80.19221,24.71439],[80.19263,24.71413],[80.1929,24.7137],[80.19405,24.71291],[80.19381,24.71241],[80.19387,24.7113],[80.19369,24.71089],[80.19447,24.71053],[80.19513,24.70945],[80.19495,24.70785],[80.19472,24.70751],[80.19371,24.70692],[80.19225,24.70657],[80.19163,24.70611],[80.19069,24.70602],[80.18909,24.70611],[80.18867,24.70662],[80.18745,24.70706],[80.18641,24.70548],[80.18561,24.70611],[80.18484,24.70596],[80.18445,24.70519],[80.1839,24.70458],[80.18336,24.70476],[80.18295,24.70444],[80.18267,24.70443],[80.18021,24.7049],[80.1808,24.70661],[80.1831,24.7079],[80.18374,24.70851],[80.18827,24.71712],[80.18853,24.71733],[80.18954,24.71646],[80.19025,24.71607]]]}},{"type":"Feature","bbox":[80.18269,24.71445,80.18853,24.71947],"properties":{"ward":14,"name":"Lal Bahadur Shastri Ward"},"geometry":{"type":"Polygon","coordinates":[[[80.18694,24.71897],[80.18853,24.71733],[80.18805,24.71679],[80.187,24.71478],[80.18575,24.71485],[80.18559,24.71445],[80.18383,24.71489],[80.18373,24.71452],[80.18269,24.71484],[80.18431,24.71703],[80.18533,24.7174],[80.18589,24.7178],[80.18596,24.71824],[80.18665,24.71947],[80.18694,24.71897]]]}},{"type":"Feature","bbox":[80.18744,24.71607,80.19146,24.71952],"properties":{"ward":15,"name":"Baldev Ward"},"geometry":{"type":"Polygon","coordinates":[[[80.19107,24.71929],[80.19106,24.71833],[80.19133,24.71836],[80.19146,24.71784],[80.19122,24.71621],[80.19082,24.71631],[80.19025,24.71607],[80.18954,24.71646],[80.18845,24.71739],[80.18744,24.71859],[80.18757,24.71875],[80.18806,24.71883],[80.18912,24.71868],[80.18911,24.71952],[80.19107,24.71929]]]}},{"type":"Feature","bbox":[80.19106,24.71833,80.19384,24.72014],"properties":{"ward":16,"name":"Govind Ward"},"geometry":{"type":"Polygon","coordinates":[[[80.19374,24.71865],[80.19106,24.71833],[80.19107,24.72012],[80.19157,24.72014],[80.19234,24.71964],[80.19383,24.71919],[80.19384,24.71902],[80.19349,24.71879],[80.19374,24.71865]]]}},{"type":"Feature","bbox":[80.19025,24.71344,80.19894,24.71891],"properties":{"ward":17,"name":"Madartekari Ward"},"geometry":{"type":"Polygon","coordinates":[[[80.19557,24.71891],[80.1984,24.7179],[80.19894,24.71663],[80.19778,24.71615],[80.19769,24.71558],[80.19711,24.71602],[80.19729,24.71562],[80.19704,24.7155],[80.19672,24.71559],[80.19649,24.71591],[80.19631,24.71587],[80.19575,24.71652],[80.1953,24.71664],[80.19473,24.71649],[80.19428,24.71601],[80.19381,24.71492],[80.19376,24.71365],[80.19342,24.71344],[80.1929,24.7137],[80.19263,24.71413],[80.19217,24.7144],[80.19125,24.71447],[80.19025,24.71607],[80.19082,24.71631],[80.19122,24.71621],[80.19146,24.71784],[80.19133,24.71836],[80.19557,24.71891]]]}},{"type":"Feature","bbox":[80.19107,24.71842,80.19697,24.72082],"properties":{"ward":18,"name":"Nehru Ward"},"geometry":{"type":"Polygon","coordinates":[[[80.19697,24.71936],[80.19672,24.71842],[80.19557,24.71891],[80.19374,24.71865],[80.19349,24.71879],[80.19384,24.71902],[80.19383,24.71919],[80.19234,24.71964],[80.19157,24.72014],[80.19107,24.72012],[80.19108,24.72082],[80.19203,24.72064],[80.19199,24.72035],[80.19253,24.7201],[80.19294,24.72022],[80.19291,24.72056],[80.19355,24.72043],[80.19375,24.72019],[80.19435,24.72023],[80.19495,24.72001],[80.19515,24.71952],[80.19627,24.7193],[80.19697,24.71936]]]}},{"type":"Feature","bbox":[80.19108,24.71931,80.19799,24.72457],"properties":{"ward":19,"name":"Mahaveer Ward"},"geometry":{"type":"Polygon","coordinates":[[[80.19677,24.72224],[80.19622,24.72129],[80.19744,24.72081],[80.19799,24.72033],[80.19761,24.72017],[80.19687,24.71931],[80.19515,24.71952],[80.19495,24.72001],[80.19435,24.72023],[80.19375,24.72019],[80.19355,24.72043],[80.19291,24.72056],[80.19294,24.72022],[80.19253,24.7201],[80.19199,24.72035],[80.19203,24.72064],[80.19108,24.72082],[80.19111,24.72355],[80.19218,24.72383],[80.19216,24.72322],[80.19226,24.72325],[80.19306,24.72457],[80.19353,24.72426],[80.19357,24.72398],[80.19517,24.72328],[80.19588,24.72264],[80.19677,24.72224]]]}},{"type":"Feature","bbox":[80.18797,24.72079,80.19111,24.72363],"properties":{"ward":20,"name":"Kishoreganj Ward"},"geometry":{"type":"Polygon","coordinates":[[[80.19111,24.72355],[80.19108,24.72081],[80.19034,24.72079],[80.18983,24.72126],[80.18852,24.72147],[80.18852,24.72202],[80.18886,24.72275],[80.18797,24.72329],[80.18807,24.72363],[80.19111,24.72355]]]}},{"type":"Feature","bbox":[80.18687,24.71868,80.19108,24.72329],"properties":{"ward":21,"name":"Maharani Laxmi Bai Ward"},"geometry":{"type":"Polygon","coordinates":[[[80.19108,24.72081],[80.19107,24.71929],[80.18911,24.71952],[80.18912,24.71868],[80.18813,24.71883],[80.18757,24.71875],[80.1877,24.71951],[80.18795,24.71952],[80.18805,24.71974],[80.18864,24.71961],[80.18882,24.72036],[80.18844,24.7204],[80.18846,24.7218],[80.18687,24.72186],[80.18758,24.72252],[80.18797,24.72329],[80.18886,24.72275],[80.18852,24.72202],[80.18852,24.72147],[80.18983,24.72126],[80.19034,24.72079],[80.19108,24.72081]]]}},{"type":"Feature","bbox":[80.18342,24.71729,80.18882,24.72186],"properties":{"ward":22,"name":"Yadvendra Ward"},"geometry":{"type":"Polygon","coordinates":[[[80.1877,24.71951],[80.18744,24.71859],[80.18711,24.71881],[80.18665,24.71947],[80.18596,24.71824],[80.18589,24.7178],[80.18495,24.71729],[80.18484,24.71792],[80.1845,24.71807],[80.1846,24.71851],[80.18385,24.71911],[80.18465,24.71955],[80.18342,24.72003],[80.18386,24.72064],[80.18407,24.72075],[80.18428,24.72058],[80.18468,24.72098],[80.18499,24.72097],[80.18565,24.72139],[80.18631,24.72128],[80.18687,24.72186],[80.18846,24.7218],[80.18844,24.7204],[80.18882,24.72036],[80.18864,24.71961],[80.18805,24.71974],[80.18795,24.71952],[80.1877,24.71951]]]}}]}