{"type":"FeatureCollection","features":[{"type":"Feature","bbox":[76.71169,23.40196,76.71579,23.40653],"properties":{"ward":1,"name":"Ashok Ward"},"geometry":{"type":"Polygon","coordinates":[[[76.71358,23.40653],[76.71395,23.40608],[76.71364,23.40523],[76.71425,23.4051],[76.71438,23.40485],[76.71517,23.40467],[76.71579,23.4036],[76.71534,23.40347],[76.71559,23.40297],[76.71498,23.40246],[76.71367,23.40196],[76.71327,23.40278],[76.71327,23.40332],[76.71233,23.40404],[76.71169,23.4042],[76.71213,23.40492],[76.71181,23.40506],[76.71193,23.40559],[76.71266,23.40556],[76.71309,23.40578],[76.71358,23.40653]]]}},{"type":"Feature","bbox":[76.70983,23.39746,76.71473,23.40691],"properties":{"ward":2,"name":"Jayeshwar Ward"},"geometry":{"type":"Polygon","coordinates":[[[76.71442,23.40007],[76.71473,23.39998],[76.71421,23.39958],[76.71355,23.39847],[76.71334,23.3978],[76.71282,23.39746],[76.71099,23.39754],[76.71008,23.39826],[76.70983,23.39999],[76.7099,23.40045],[76.71074,23.4022],[76.7108,23.40269],[76.71016,23.40358],[76.71061,23.40375],[76.71093,23.40368],[76.71127,23.40401],[76.71032,23.40526],[76.71036,23.40613],[76.71094,23.40597],[76.71087,23.40657],[76.71134,23.40691],[76.71151,23.40689],[76.71164,23.40607],[76.71189,23.40605],[76.71181,23.40506],[76.71213,23.40492],[76.71169,23.4042],[76.71233,23.40404],[76.71327,23.40332],[76.71327,23.40278],[76.71367,23.40196],[76.71373,23.40066],[76.71442,23.40007]]]}},{"type":"Feature","bbox":[76.71154,23.40556,76.71421,23.4085],"properties":{"ward":3,"name":"Chhatrapati Shivaji Ward"},"geometry":{"type":"Polygon","coordinates":[[[76.71342,23.4085],[76.71421,23.4068],[76.71358,23.40653],[76.71311,23.40579],[76.71266,23.40556],[76.71193,23.40559],[76.71189,23.40605],[76.71164,23.40607],[76.71154,23.40688],[76.71234,23.40732],[76.71204,23.40743],[76.71224,23.40807],[76.71254,23.40806],[76.71243,23.40829],[76.71342,23.4085]]]}},{"type":"Feature","bbox":[76.70958,23.40688,76.71359,23.41017],"properties":{"ward":4,"name":"Kidwayi Ward"},"geometry":{"type":"Polygon","coordinates":[[[76.70975,23.40761],[76.71001,23.4079],[76.70986,23.40832],[76.70958,23.40836],[76.70961,23.40847],[76.71007,23.40847],[76.70983,23.41017],[76.71181,23.41016],[76.7122,23.40967],[76.71282,23.40982],[76.71359,23.40909],[76.71342,23.4085],[76.71243,23.40829],[76.71254,23.40806],[76.71224,23.40807],[76.71204,23.40743],[76.71234,23.40732],[76.71154,23.40688],[76.71127,23.40688],[76.71122,23.40747],[76.71025,23.40733],[76.70975,23.40761]]]}},{"type":"Feature","bbox":[76.70836,23.40574,76.71127,23.40761],"properties":{"ward":5,"name":"Mahaveer Ward"},"geometry":{"type":"Polygon","coordinates":[[[76.70845,23.40669],[76.70905,23.40721],[76.70953,23.40719],[76.70947,23.40761],[76.71025,23.40733],[76.71122,23.40747],[76.71127,23.40688],[76.71087,23.40657],[76.71094,23.40597],[76.71036,23.40613],[76.71033,23.40574],[76.7092,23.40579],[76.7092,23.40601],[76.70887,23.40604],[76.7089,23.40637],[76.70836,23.4064],[76.70845,23.40669]]]}},{"type":"Feature","bbox":[76.70925,23.40344,76.71127,23.40577],"properties":{"ward":6,"name":"Tilak Ward"},"geometry":{"type":"Polygon","coordinates":[[[76.71127,23.40401],[76.71093,23.40368],[76.71061,23.40375],[76.70955,23.40344],[76.70925,23.40358],[76.70949,23.40427],[76.70957,23.40577],[76.71033,23.40574],[76.71032,23.40526],[76.71127,23.40401]]]}},{"type":"Feature","bbox":[76.70727,23.40453,76.70957,23.40758],"properties":{"ward":7,"name":"Dayanand Ward"},"geometry":{"type":"Polygon","coordinates":[[[76.7081,23.40758],[76.70873,23.4069],[76.70845,23.40669],[76.70836,23.4064],[76.7089,23.40637],[76.70887,23.40604],[76.7092,23.40601],[76.7092,23.40579],[76.70957,23.40577],[76.70948,23.40453],[76.7085,23.40472],[76.70863,23.40535],[76.70727,23.40549],[76.7081,23.40758]]]}},{"type":"Feature","bbox":[76.70476,23.4069,76.71287,23.41373],"properties":{"ward":8,"name":"Ambedkar Ward"},"geometry":{"type":"Polygon","coordinates":[[[76.70823,23.40838],[76.70638,23.40854],[76.70641,23.4092],[76.70628,23.40937],[76.70542,23.40956],[76.70561,23.41014],[76.70554,23.41045],[76.70476,23.4109],[76.7054,23.41139],[76.7065,23.4116],[76.70778,23.41354],[76.70945,23.41373],[76.71088,23.4133],[76.71145,23.41336],[76.71287,23.41312],[76.71181,23.41016],[76.70983,23.41017],[76.71007,23.40847],[76.70961,23.40847],[76.70958,23.40836],[76.70986,23.40832],[76.71001,23.4079],[76.70975,23.40761],[76.70947,23.40761],[76.70953,23.40719],[76.70905,23.40721],[76.70873,23.4069],[76.7085,23.40701],[76.7081,23.40758],[76.70823,23.40838]]]}},{"type":"Feature","bbox":[76.69981,23.40854,76.70644,23.41238],"properties":{"ward":9,"name":"Rani Durgawati Ward"},"geometry":{"type":"Polygon","coordinates":[[[76.70122,23.41238],[76.7029,23.41156],[76.70293,23.41193],[76.70343,23.41177],[76.7034,23.4115],[76.7036,23.41134],[76.70554,23.41045],[76.70561,23.41014],[76.70542,23.40956],[76.70628,23.40937],[76.70644,23.40905],[76.70638,23.40854],[76.70144,23.4087],[76.69981,23.40889],[76.70122,23.41238]]]}},{"type":"Feature","bbox":[76.69907,23.4051,76.70823,23.40889],"properties":{"ward":10,"name":"Maaruti Ward"},"geometry":{"type":"Polygon","coordinates":[[[76.69981,23.40889],[76.70144,23.4087],[76.70517,23.40864],[76.70823,23.40838],[76.70805,23.40737],[76.70727,23.40549],[76.70544,23.4051],[76.70332,23.40551],[76.70356,23.40626],[76.70335,23.40673],[76.70028,23.40725],[76.70021,23.40741],[76.69907,23.40779],[76.6991,23.40807],[76.69981,23.40889]]]}},{"type":"Feature","bbox":[76.69724,23.39338,76.7108,23.40555],"properties":{"ward":11,"name":"Mahatma Gandhi Ward"},"geometry":{"type":"Polygon","coordinates":[[[76.71015,23.39585],[76.70961,23.3938],[76.70792,23.39548],[76.70773,23.39601],[76.70783,23.39677],[76.70507,23.39745],[76.70226,23.39453],[76.70152,23.39355],[76.69933,23.39362],[76.69788,23.39338],[76.69734,23.39356],[76.69742,23.39456],[76.69724,23.39485],[76.69779,23.39673],[76.69775,23.39843],[76.69795,23.39953],[76.6976,23.39966],[76.69788,23.4008],[76.69881,23.40197],[76.69981,23.40207],[76.6994,23.40313],[76.7003,23.40336],[76.70117,23.40412],[76.70128,23.4055],[76.70366,23.40552],[76.70544,23.4051],[76.70676,23.40531],[76.70715,23.40555],[76.70863,23.40535],[76.7085,23.40472],[76.70948,23.40453],[76.70925,23.40358],[76.70943,23.40344],[76.71016,23.40358],[76.71052,23.40324],[76.7108,23.40269],[76.71074,23.4022],[76.7099,23.40045],[76.70983,23.39999],[76.70997,23.39858],[76.71046,23.39783],[76.7102,23.39764],[76.71015,23.39708],[76.71039,23.39691],[76.71045,23.39587],[76.71015,23.39585]]]}},{"type":"Feature","bbox":[76.70961,23.38833,76.72309,23.40041],"properties":{"ward":12,"name":"Premchandra Ward"},"geometry":{"type":"Polygon","coordinates":[[[76.70961,23.3938],[76.71015,23.39585],[76.71045,23.39587],[76.71035,23.39689],[76.71015,23.39708],[76.7102,23.39764],[76.71046,23.39783],[76.71144,23.39745],[76.71282,23.39746],[76.71334,23.3978],[76.71355,23.39847],[76.71431,23.3997],[76.71473,23.39998],[76.71483,23.40024],[76.71515,23.40041],[76.71555,23.40039],[76.71626,23.40013],[76.71704,23.39938],[76.71802,23.39874],[76.71929,23.39817],[76.71972,23.39776],[76.7204,23.39601],[76.72066,23.39575],[76.72171,23.39551],[76.72207,23.3951],[76.72165,23.39368],[76.72189,23.39333],[76.72302,23.39304],[76.72309,23.39281],[76.72272,23.39238],[76.72263,23.39197],[76.72216,23.39155],[76.72072,23.39105],[76.72043,23.39017],[76.72017,23.38977],[76.71973,23.38948],[76.7179,23.39262],[76.71703,23.39548],[76.71708,23.39623],[76.71661,23.39632],[76.71548,23.39617],[76.71541,23.39588],[76.7156,23.39531],[76.71542,23.39385],[76.71336,23.39223],[76.71382,23.39174],[76.71361,23.39152],[76.71357,23.39115],[76.71374,23.39092],[76.71362,23.39073],[76.71397,23.39046],[76.71447,23.39035],[76.71558,23.38855],[76.71536,23.38833],[76.70961,23.3938]]]}},{"type":"Feature","bbox":[76.71336,23.38735,76.71973,23.39632],"properties":{"ward":13,"name":"Dr. Shankar Dayal Ward"},"geometry":{"type":"Polygon","coordinates":[[[76.71973,23.38948],[76.71897,23.38962],[76.71864,23.38942],[76.71841,23.38904],[76.71802,23.38914],[76.71641,23.38735],[76.71536,23.38833],[76.71558,23.38855],[76.71447,23.39035],[76.71397,23.39046],[76.71362,23.39073],[76.71374,23.39092],[76.71357,23.39115],[76.71361,23.39152],[76.71382,23.39174],[76.71336,23.39223],[76.71542,23.39385],[76.7156,23.39531],[76.71541,23.39588],[76.71548,23.39617],[76.71661,23.39632],[76.71708,23.39623],[76.71703,23.39548],[76.7179,23.39262],[76.71973,23.38948]]]}},{"type":"Feature","bbox":[76.69935,23.38502,76.71685,23.39745],"properties":{"ward":14,"name":"Ram Chandra Choubey Ward"},"geometry":{"type":"Polygon","coordinates":[[[76.71685,23.38694],[76.71635,23.38673],[76.71619,23.38638],[76.7163,23.38531],[76.71619,23.38502],[76.716,23.38502],[76.71117,23.38771],[76.71085,23.38723],[76.70714,23.38784],[76.70464,23.38806],[76.70205,23.38874],[76.69959,23.38959],[76.69945,23.38976],[76.69935,23.39062],[76.70226,23.39453],[76.70507,23.39745],[76.70783,23.39677],[76.70773,23.39601],[76.70792,23.39548],[76.71685,23.38694]]]}},{"type":"Feature","bbox":[76.716,23.38307,76.72014,23.38694],"properties":{"ward":15,"name":"Jawahar Ward"},"geometry":{"type":"Polygon","coordinates":[[[76.716,23.38502],[76.71619,23.38502],[76.7163,23.38531],[76.71619,23.38638],[76.71635,23.38673],[76.71685,23.38694],[76.72014,23.38381],[76.71956,23.38307],[76.716,23.38502]]]}},{"type":"Feature","bbox":[76.71357,23.38189,76.71956,23.38613],"properties":{"ward":16,"name":"Rajendra Prasad Ward"},"geometry":{"type":"Polygon","coordinates":[[[76.71385,23.38584],[76.71402,23.38613],[76.71617,23.38483],[76.71956,23.38307],[76.7194,23.38189],[76.71713,23.38233],[76.71727,23.38276],[76.71648,23.38299],[76.71471,23.38302],[76.71464,23.38288],[76.71362,23.38301],[76.71357,23.38349],[76.71386,23.38406],[76.71385,23.38584]]]}},{"type":"Feature","bbox":[76.71641,23.38366,76.72227,23.38962],"properties":{"ward":17,"name":"Laxmi Bai Ward"},"geometry":{"type":"Polygon","coordinates":[[[76.71641,23.38735],[76.71802,23.38914],[76.71841,23.38904],[76.71864,23.38942],[76.71897,23.38962],[76.71973,23.38948],[76.7205,23.38858],[76.72087,23.38782],[76.72143,23.38516],[76.72227,23.38483],[76.72186,23.38392],[76.72101,23.38444],[76.72049,23.38366],[76.72014,23.38381],[76.71641,23.38735]]]}},{"type":"Feature","bbox":[76.71968,23.38132,76.72383,23.38736],"properties":{"ward":18,"name":"Pratap Ward"},"geometry":{"type":"Polygon","coordinates":[[[76.72014,23.38381],[76.72049,23.38366],[76.72101,23.38444],[76.72186,23.38392],[76.72227,23.38483],[76.72143,23.38516],[76.72097,23.3873],[76.7213,23.38736],[76.72225,23.38685],[76.72211,23.38526],[76.72383,23.38461],[76.72365,23.3843],[76.72377,23.38416],[76.72367,23.38385],[76.72319,23.3832],[76.72334,23.3831],[76.72277,23.38239],[76.72332,23.38204],[76.72303,23.3817],[76.72297,23.38132],[76.72211,23.3816],[76.71968,23.38308],[76.72014,23.38381]]]}},{"type":"Feature","bbox":[76.72211,23.38286,76.72832,23.38802],"properties":{"ward":19,"name":"Arvind Ward"},"geometry":{"type":"Polygon","coordinates":[[[76.72225,23.38685],[76.72301,23.38722],[76.72329,23.38789],[76.72361,23.38802],[76.7261,23.38608],[76.72669,23.38585],[76.72727,23.38515],[76.7273,23.38502],[76.72693,23.38476],[76.72698,23.38466],[76.72789,23.3841],[76.72832,23.38357],[76.72775,23.38286],[76.72749,23.38289],[76.72589,23.38409],[76.7255,23.38384],[76.72495,23.38306],[76.72367,23.38385],[76.72377,23.38416],[76.72365,23.3843],[76.72383,23.38461],[76.72211,23.38526],[76.72225,23.38685]]]}},{"type":"Feature","bbox":[76.72277,23.37856,76.72813,23.38385],"properties":{"ward":20,"name":"Maharaja Agrasen Ward"},"geometry":{"type":"Polygon","coordinates":[[[76.72297,23.38132],[76.72303,23.3817],[76.72332,23.38204],[76.72277,23.38239],[76.72334,23.3831],[76.72319,23.3832],[76.72367,23.38385],[76.72495,23.38306],[76.7255,23.38384],[76.72591,23.38365],[76.7244,23.38146],[76.72813,23.37948],[76.72795,23.37856],[76.7249,23.38009],[76.72297,23.38132]]]}},{"type":"Feature","bbox":[76.7244,23.38064,76.72726,23.38409],"properties":{"ward":21,"name":"Moti Ward"},"geometry":{"type":"Polygon","coordinates":[[[76.72596,23.38064],[76.7244,23.38146],[76.72595,23.38354],[76.7255,23.38384],[76.72589,23.38409],[76.72726,23.38304],[76.72671,23.3823],[76.72628,23.38137],[76.72636,23.38128],[76.72596,23.38064]]]}},{"type":"Feature","bbox":[76.72596,23.37766,76.73192,23.38357],"properties":{"ward":22,"name":"Jawahar Ward"},"geometry":{"type":"Polygon","coordinates":[[[76.72726,23.38304],[76.72775,23.38286],[76.72832,23.38357],[76.73006,23.38217],[76.72965,23.38095],[76.73192,23.37922],[76.73152,23.37766],[76.72822,23.3784],[76.72795,23.37856],[76.72813,23.37948],[76.72596,23.38064],[76.72636,23.38128],[76.72628,23.38137],[76.72671,23.3823],[76.72726,23.38304]]]}},{"type":"Feature","bbox":[76.71935,23.37292,76.73457,23.38307],"properties":{"ward":23,"name":"Shahid Bhagat Singh Ward"},"geometry":{"type":"Polygon","coordinates":[[[76.72495,23.37544],[76.72422,23.37784],[76.72394,23.37778],[76.72275,23.37927],[76.72288,23.37987],[76.71949,23.38174],[76.71935,23.38223],[76.71956,23.38307],[76.72822,23.3784],[76.73327,23.3774],[76.73345,23.37622],[76.73457,23.37352],[76.73418,23.37292],[76.73336,23.37293],[76.73287,23.37313],[76.73208,23.37304],[76.73101,23.37374],[76.72743,23.37502],[76.72695,23.37544],[76.72606,23.37555],[76.72495,23.37544]]]}},{"type":"Feature","bbox":[76.72226,23.36996,76.72666,23.37927],"properties":{"ward":24,"name":"Subhash Chandra Ward"},"geometry":{"type":"Polygon","coordinates":[[[76.72226,23.37041],[76.72275,23.37688],[76.72275,23.37927],[76.72394,23.37778],[76.72422,23.37784],[76.72495,23.37544],[76.72618,23.37239],[76.72638,23.37127],[76.72628,23.37103],[76.72666,23.36996],[76.72226,23.37041]]]}},{"type":"Feature","bbox":[76.71015,23.36954,76.72288,23.38771],"properties":{"ward":25,"name":"Sardar Vallabh Bhai Patel Ward"},"geometry":{"type":"Polygon","coordinates":[[[76.71385,23.38584],[76.71386,23.38406],[76.71357,23.38349],[76.71362,23.38301],[76.71464,23.38288],[76.71471,23.38302],[76.71624,23.38303],[76.71727,23.38276],[76.71713,23.38233],[76.7194,23.38189],[76.72288,23.37987],[76.72273,23.37951],[76.72275,23.37688],[76.7222,23.36954],[76.72031,23.3697],[76.72087,23.37166],[76.71974,23.37176],[76.7168,23.3724],[76.71042,23.37433],[76.71018,23.37454],[76.71049,23.37519],[76.71055,23.37599],[76.71043,23.3782],[76.71015,23.37887],[76.71016,23.37923],[76.71133,23.38166],[76.71133,23.38197],[76.71097,23.38271],[76.71071,23.38453],[76.71063,23.38541],[76.71082,23.38717],[76.71117,23.38771],[76.71402,23.38613],[76.71385,23.38584]]]}}]}