{"type":"FeatureCollection","features":[{"type":"Feature","bbox":[75.66725,22.61802,75.6964,22.63638],"properties":{"ward":1,"name":"Gawla Ward"},"geometry":{"type":"Polygon","coordinates":[[[75.6964,22.62619],[75.69555,22.62516],[75.69491,22.62495],[75.69454,22.62461],[75.69437,22.62402],[75.69455,22.62365],[75.69364,22.62209],[75.69212,22.62194],[75.6905,22.62209],[75.69042,22.62181],[75.68976,22.62124],[75.68891,22.6208],[75.68913,22.61927],[75.68822,22.6188],[75.68755,22.61802],[75.68691,22.62107],[75.68561,22.62298],[75.6849,22.62578],[75.683,22.62599],[75.682,22.62683],[75.6802,22.62513],[75.67683,22.6253],[75.67414,22.62514],[75.67466,22.62613],[75.67465,22.62665],[75.67428,22.62753],[75.67405,22.62786],[75.67245,22.62866],[75.67133,22.62947],[75.66926,22.63139],[75.6678,22.63581],[75.66725,22.63638],[75.67252,22.63598],[75.6761,22.63631],[75.67988,22.63571],[75.68077,22.63538],[75.68409,22.6327],[75.68676,22.62977],[75.68861,22.62884],[75.69497,22.62733],[75.6964,22.62619]]]}},{"type":"Feature","bbox":[75.68755,22.61701,75.69479,22.62313],"properties":{"ward":2,"name":"Purani Dhannad Ward"},"geometry":{"type":"Polygon","coordinates":[[[75.68755,22.61802],[75.68822,22.6188],[75.68913,22.61927],[75.68891,22.6208],[75.68976,22.62124],[75.69042,22.62181],[75.6905,22.62209],[75.69212,22.62194],[75.69343,22.62201],[75.69364,22.62209],[75.69405,22.62289],[75.69434,22.62313],[75.69463,22.62306],[75.69479,22.62251],[75.69479,22.62139],[75.6939,22.62036],[75.69401,22.61981],[75.69375,22.6192],[75.69375,22.61879],[75.69297,22.61867],[75.69277,22.61909],[75.69254,22.61921],[75.69191,22.61905],[75.69192,22.61883],[75.69077,22.61847],[75.69051,22.61902],[75.68986,22.61897],[75.68963,22.61885],[75.68949,22.61849],[75.68926,22.61855],[75.68922,22.61779],[75.68894,22.61745],[75.68887,22.61702],[75.68774,22.61701],[75.68755,22.61802]]]}},{"type":"Feature","bbox":[75.68887,22.61702,75.7116,22.63884],"properties":{"ward":3,"name":"New Dhannad Ward"},"geometry":{"type":"Polygon","coordinates":[[[75.6964,22.62619],[75.69679,22.62618],[75.69937,22.62729],[75.70013,22.62786],[75.70375,22.62915],[75.70397,22.62935],[75.70401,22.63042],[75.70429,22.63058],[75.7052,22.63056],[75.70565,22.63079],[75.70587,22.63133],[75.70598,22.63245],[75.70669,22.63262],[75.70675,22.63283],[75.70652,22.63527],[75.70778,22.63571],[75.70712,22.63757],[75.70788,22.63802],[75.70811,22.63884],[75.70829,22.63864],[75.70894,22.63848],[75.70959,22.63853],[75.70988,22.63832],[75.71122,22.63611],[75.71153,22.63591],[75.7116,22.63573],[75.71138,22.63551],[75.71148,22.63503],[75.71061,22.6348],[75.71006,22.63427],[75.71018,22.63372],[75.70965,22.63331],[75.70909,22.63126],[75.70778,22.63016],[75.7055,22.62915],[75.70527,22.62855],[75.70541,22.62778],[75.70524,22.62708],[75.70515,22.62688],[75.70478,22.62674],[75.70468,22.62638],[75.70498,22.62591],[75.70486,22.6249],[75.70497,22.62465],[75.70642,22.62443],[75.70676,22.62357],[75.70961,22.62362],[75.70985,22.62281],[75.71002,22.62107],[75.70967,22.62092],[75.70995,22.6188],[75.70617,22.61729],[75.70504,22.61703],[75.68887,22.61702],[75.68894,22.61745],[75.68922,22.61779],[75.68926,22.61855],[75.68949,22.61849],[75.68963,22.61885],[75.68986,22.61897],[75.69051,22.61902],[75.69077,22.61847],[75.69192,22.61883],[75.69191,22.61905],[75.69254,22.61921],[75.69277,22.61909],[75.69297,22.61867],[75.69375,22.61879],[75.69375,22.6192],[75.69401,22.61981],[75.6939,22.62036],[75.69479,22.62139],[75.69479,22.62251],[75.69463,22.62306],[75.69428,22.62318],[75.69455,22.62365],[75.69437,22.62402],[75.69442,22.62432],[75.69491,22.62495],[75.69555,22.62516],[75.6964,22.62619]]]}},{"type":"Feature","bbox":[75.68603,22.59571,75.71342,22.62013],"properties":{"ward":4,"name":"Veer Savarkar Ward"},"geometry":{"type":"Polygon","coordinates":[[[75.71114,22.61803],[75.70987,22.61649],[75.70849,22.61517],[75.70743,22.61478],[75.70563,22.61497],[75.70467,22.6149],[75.7033,22.61323],[75.70244,22.61313],[75.70193,22.61281],[75.701,22.61267],[75.70035,22.61188],[75.6999,22.61211],[75.69899,22.61344],[75.69791,22.61377],[75.69829,22.60899],[75.6978,22.6064],[75.69742,22.60538],[75.69621,22.60318],[75.69559,22.59898],[75.69597,22.59658],[75.69583,22.59571],[75.68993,22.59602],[75.68899,22.59755],[75.68833,22.59706],[75.68804,22.59744],[75.68752,22.59707],[75.68696,22.59767],[75.68679,22.59755],[75.68603,22.59856],[75.68909,22.60069],[75.68986,22.60197],[75.68727,22.60474],[75.68776,22.60622],[75.68824,22.60707],[75.68821,22.60754],[75.69128,22.60625],[75.69215,22.60618],[75.69199,22.61702],[75.70549,22.61708],[75.71342,22.62013],[75.71336,22.61977],[75.71248,22.61931],[75.71114,22.61803]]]}},{"type":"Feature","bbox":[75.65909,22.57704,75.68993,22.59985],"properties":{"ward":5,"name":"Bhondya Ward"},"geometry":{"type":"Polygon","coordinates":[[[75.68993,22.59602],[75.68596,22.59623],[75.6849,22.59272],[75.68288,22.58736],[75.68233,22.5866],[75.67998,22.58439],[75.68058,22.58189],[75.66663,22.57704],[75.66635,22.57874],[75.66675,22.5788],[75.66702,22.57932],[75.66448,22.57988],[75.66445,22.58062],[75.66486,22.5808],[75.66568,22.58243],[75.66636,22.58222],[75.66636,22.58271],[75.66583,22.58394],[75.66536,22.58411],[75.66347,22.5842],[75.66327,22.58835],[75.66278,22.58835],[75.66226,22.58787],[75.65982,22.58831],[75.65909,22.58958],[75.66844,22.5946],[75.66928,22.59489],[75.67025,22.59506],[75.67169,22.59505],[75.67749,22.59408],[75.67884,22.59776],[75.6796,22.59925],[75.68201,22.59887],[75.68205,22.59979],[75.68382,22.59985],[75.68465,22.59738],[75.68521,22.59753],[75.68563,22.5983],[75.68603,22.59856],[75.68679,22.59755],[75.68696,22.59767],[75.68752,22.59707],[75.68804,22.59744],[75.68833,22.59706],[75.68899,22.59755],[75.68993,22.59602]]]}},{"type":"Feature","bbox":[75.68519,22.5983,75.68986,22.60527],"properties":{"ward":6,"name":"Be Housing Ward"},"geometry":{"type":"Polygon","coordinates":[[[75.68986,22.60197],[75.68909,22.60069],[75.68563,22.5983],[75.68556,22.59839],[75.68615,22.60144],[75.6861,22.60155],[75.68555,22.60141],[75.68519,22.60274],[75.68634,22.60291],[75.68604,22.60486],[75.68675,22.60527],[75.68986,22.60197]]]}},{"type":"Feature","bbox":[75.67924,22.60517,75.686,22.61026],"properties":{"ward":7,"name":"Jawahar Ward"},"geometry":{"type":"Polygon","coordinates":[[[75.67943,22.61026],[75.68061,22.60954],[75.68072,22.6095],[75.68083,22.60979],[75.68433,22.60759],[75.686,22.60607],[75.68555,22.60568],[75.68348,22.60579],[75.68346,22.60554],[75.68308,22.60553],[75.68233,22.60555],[75.6823,22.60574],[75.68195,22.60574],[75.68187,22.60522],[75.68166,22.60517],[75.68129,22.60588],[75.67924,22.60862],[75.67943,22.61026]]]}},{"type":"Feature","bbox":[75.68166,22.60246,75.68675,22.60607],"properties":{"ward":8,"name":"Chatrachaya Ward"},"geometry":{"type":"Polygon","coordinates":[[[75.686,22.60607],[75.68675,22.60527],[75.68598,22.60477],[75.68632,22.60318],[75.68366,22.60323],[75.68366,22.60247],[75.68351,22.60246],[75.68354,22.60356],[75.68189,22.60356],[75.68185,22.60464],[75.68166,22.60517],[75.68187,22.60522],[75.68195,22.60574],[75.6823,22.60574],[75.68233,22.60555],[75.68308,22.60553],[75.68346,22.60554],[75.68348,22.60579],[75.68555,22.60568],[75.686,22.60607]]]}},{"type":"Feature","bbox":[75.6796,22.59738,75.68634,22.60472],"properties":{"ward":9,"name":"Indus Ward"},"geometry":{"type":"Polygon","coordinates":[[[75.68176,22.60472],[75.68189,22.60356],[75.68354,22.60356],[75.68351,22.60246],[75.68366,22.60247],[75.68366,22.60323],[75.68632,22.60318],[75.68634,22.60291],[75.68519,22.60274],[75.68555,22.60141],[75.6861,22.60155],[75.68615,22.60144],[75.68563,22.5983],[75.68521,22.59753],[75.68465,22.59738],[75.68382,22.59985],[75.68205,22.59979],[75.68201,22.59887],[75.6796,22.59924],[75.68107,22.60251],[75.6813,22.60363],[75.68176,22.60472]]]}},{"type":"Feature","bbox":[75.67951,22.60474,75.68825,22.61215],"properties":{"ward":10,"name":"Gandhi Ward"},"geometry":{"type":"Polygon","coordinates":[[[75.68825,22.60724],[75.68727,22.60474],[75.6852,22.60691],[75.68433,22.60759],[75.67951,22.61063],[75.67976,22.61089],[75.68032,22.61106],[75.68144,22.61115],[75.68177,22.61136],[75.68316,22.61153],[75.6835,22.61171],[75.68567,22.61209],[75.68769,22.61215],[75.68776,22.60945],[75.68825,22.60724]]]}},{"type":"Feature","bbox":[75.67906,22.61063,75.6835,22.61296],"properties":{"ward":11,"name":"Sardar Patel Ward"},"geometry":{"type":"Polygon","coordinates":[[[75.68133,22.61296],[75.6832,22.61278],[75.6835,22.61167],[75.68193,22.61141],[75.68144,22.61115],[75.68032,22.61106],[75.67976,22.61089],[75.67951,22.61063],[75.67906,22.61085],[75.68005,22.61258],[75.68133,22.61296]]]}},{"type":"Feature","bbox":[75.68169,22.60618,75.69215,22.61702],"properties":{"ward":12,"name":"Bhagat Singh Ward"},"geometry":{"type":"Polygon","coordinates":[[[75.69199,22.61702],[75.69215,22.60618],[75.69128,22.60625],[75.68821,22.60754],[75.68776,22.60945],[75.68769,22.61215],[75.68567,22.61209],[75.6835,22.61171],[75.6832,22.61278],[75.68169,22.61295],[75.68174,22.61397],[75.6825,22.61457],[75.68344,22.615],[75.6848,22.61628],[75.68629,22.61699],[75.69199,22.61702]]]}},{"type":"Feature","bbox":[75.67721,22.61085,75.68629,22.61699],"properties":{"ward":13,"name":"Lal Bahadur Shastri Ward"},"geometry":{"type":"Polygon","coordinates":[[[75.67721,22.61105],[75.67762,22.6169],[75.68629,22.61699],[75.6848,22.61628],[75.68344,22.615],[75.6825,22.61457],[75.68174,22.61397],[75.68169,22.61295],[75.68112,22.61294],[75.68005,22.61258],[75.67906,22.61085],[75.67818,22.61109],[75.67721,22.61105]]]}},{"type":"Feature","bbox":[75.61569,22.60799,75.67466,22.63736],"properties":{"ward":14,"name":"Vikas Bhawan Ward"},"geometry":{"type":"Polygon","coordinates":[[[75.66725,22.63638],[75.6678,22.63581],[75.66926,22.63139],[75.67133,22.62947],[75.67245,22.62866],[75.67405,22.62786],[75.67428,22.62753],[75.67465,22.62665],[75.67466,22.62613],[75.67406,22.625],[75.67407,22.62372],[75.67351,22.62262],[75.6738,22.62205],[75.67343,22.62191],[75.66923,22.6179],[75.66668,22.61459],[75.66537,22.61331],[75.66467,22.61366],[75.66464,22.61405],[75.66364,22.61499],[75.66185,22.6146],[75.66045,22.61457],[75.65764,22.61499],[75.6521,22.61481],[75.65174,22.6145],[75.65396,22.61359],[75.65187,22.60799],[75.65172,22.6096],[75.65196,22.61026],[75.6518,22.61058],[75.64823,22.61352],[75.64765,22.6133],[75.64543,22.61358],[75.64532,22.61425],[75.64489,22.61492],[75.6381,22.61725],[75.63617,22.61843],[75.63529,22.61796],[75.63508,22.61734],[75.63366,22.61724],[75.63208,22.61748],[75.63113,22.61811],[75.63014,22.61846],[75.62588,22.61874],[75.62754,22.62346],[75.62804,22.62396],[75.62614,22.62454],[75.61828,22.62753],[75.6193,22.62967],[75.61579,22.63073],[75.61569,22.63146],[75.61571,22.63158],[75.62598,22.63119],[75.63308,22.63062],[75.63778,22.63065],[75.64512,22.63179],[75.64665,22.63253],[75.65042,22.63555],[75.6549,22.63736],[75.65873,22.63667],[75.66725,22.63638]]]}},{"type":"Feature","bbox":[75.67386,22.60562,75.67892,22.61108],"properties":{"ward":15,"name":"Lakshmi Bai Ward"},"geometry":{"type":"Polygon","coordinates":[[[75.67892,22.61092],[75.67772,22.60933],[75.678,22.6091],[75.6787,22.60922],[75.6785,22.60679],[75.67734,22.60697],[75.67744,22.60562],[75.67656,22.60567],[75.67576,22.60646],[75.67419,22.60667],[75.67423,22.60794],[75.67479,22.60824],[75.6749,22.60908],[75.67534,22.60911],[75.67534,22.6093],[75.67563,22.60932],[75.67556,22.60984],[75.67392,22.60967],[75.67386,22.61078],[75.67763,22.61108],[75.67892,22.61092]]]}},{"type":"Feature","bbox":[75.67772,22.60642,75.68083,22.61092],"properties":{"ward":16,"name":"Bajarang Nagar Ward"},"geometry":{"type":"Polygon","coordinates":[[[75.67892,22.61092],[75.68083,22.60979],[75.68072,22.6095],[75.68061,22.60954],[75.67943,22.61026],[75.67924,22.60862],[75.6808,22.60642],[75.67862,22.60666],[75.6785,22.60679],[75.67851,22.60777],[75.6787,22.60922],[75.678,22.6091],[75.67772,22.60933],[75.67892,22.61092]]]}},{"type":"Feature","bbox":[75.66738,22.59408,75.68176,22.60984],"properties":{"ward":17,"name":"Jay Nagar Ward"},"geometry":{"type":"Polygon","coordinates":[[[75.6749,22.60908],[75.67479,22.60824],[75.67423,22.60794],[75.67419,22.60667],[75.67576,22.60646],[75.67677,22.6056],[75.67744,22.60562],[75.67734,22.60697],[75.68027,22.6064],[75.6808,22.60642],[75.68129,22.60588],[75.68176,22.60472],[75.68086,22.60199],[75.67884,22.59776],[75.67749,22.59408],[75.67169,22.59505],[75.67025,22.59506],[75.66928,22.59489],[75.6677,22.59952],[75.6681,22.6024],[75.66738,22.60625],[75.66762,22.60906],[75.6711,22.60918],[75.67312,22.60877],[75.67324,22.60961],[75.67556,22.60984],[75.67563,22.60932],[75.67534,22.6093],[75.67534,22.60911],[75.6749,22.60908]]]}},{"type":"Feature","bbox":[75.66176,22.60784,75.68774,22.62683],"properties":{"ward":18,"name":"Akoliya Ward"},"geometry":{"type":"Polygon","coordinates":[[[75.6849,22.62578],[75.68572,22.62272],[75.68691,22.62107],[75.68774,22.61701],[75.67762,22.6169],[75.67721,22.61105],[75.67386,22.61078],[75.67392,22.60967],[75.67324,22.60961],[75.67312,22.60877],[75.6711,22.60918],[75.66762,22.60906],[75.66762,22.60786],[75.66566,22.60784],[75.66537,22.60806],[75.66581,22.60882],[75.66509,22.60886],[75.66508,22.60898],[75.66435,22.60889],[75.66419,22.61027],[75.66327,22.61023],[75.66176,22.61071],[75.66199,22.61141],[75.66224,22.61161],[75.66252,22.61148],[75.66334,22.61301],[75.66467,22.61366],[75.66537,22.61331],[75.66668,22.61459],[75.66923,22.6179],[75.67343,22.62191],[75.6738,22.62205],[75.67351,22.62262],[75.67407,22.62372],[75.67414,22.62514],[75.67683,22.6253],[75.6802,22.62513],[75.682,22.62683],[75.683,22.62599],[75.6849,22.62578]]]}},{"type":"Feature","bbox":[75.6435,22.58958,75.66928,22.61499],"properties":{"ward":19,"name":"Bardari Ward"},"geometry":{"type":"Polygon","coordinates":[[[75.66364,22.61499],[75.66464,22.61405],[75.66467,22.61366],[75.66334,22.61301],[75.66252,22.61148],[75.66224,22.61161],[75.66199,22.61141],[75.66176,22.61071],[75.66327,22.61023],[75.66419,22.61027],[75.66435,22.60889],[75.66508,22.60898],[75.66509,22.60886],[75.66581,22.60882],[75.66537,22.60806],[75.66566,22.60784],[75.66762,22.60786],[75.66738,22.60625],[75.6681,22.6024],[75.6677,22.59952],[75.66928,22.59489],[75.66844,22.5946],[75.65909,22.58958],[75.64669,22.59612],[75.64361,22.59702],[75.6435,22.59819],[75.6443,22.60216],[75.64676,22.60139],[75.64913,22.60216],[75.65187,22.60799],[75.65396,22.61359],[75.65174,22.6145],[75.6521,22.61481],[75.65281,22.61492],[75.65764,22.61499],[75.66045,22.61457],[75.66185,22.6146],[75.66364,22.61499]]]}},{"type":"Feature","bbox":[75.61407,22.59452,75.65196,22.62618],"properties":{"ward":20,"name":"Kheda Jamodi Ward"},"geometry":{"type":"Polygon","coordinates":[[[75.62754,22.62346],[75.62588,22.61874],[75.63014,22.61846],[75.63113,22.61811],[75.63208,22.61748],[75.63366,22.61724],[75.63508,22.61734],[75.63529,22.61796],[75.63617,22.61843],[75.6381,22.61725],[75.64489,22.61492],[75.64532,22.61425],[75.64543,22.61358],[75.64765,22.6133],[75.64823,22.61352],[75.6518,22.61058],[75.65196,22.61026],[75.65172,22.6096],[75.65187,22.60799],[75.64913,22.60216],[75.64676,22.60139],[75.6443,22.60216],[75.6435,22.59819],[75.64359,22.59574],[75.63089,22.5946],[75.6307,22.59552],[75.62741,22.595],[75.62516,22.59503],[75.61965,22.59453],[75.61737,22.59452],[75.61467,22.5955],[75.61436,22.59573],[75.61455,22.60929],[75.61407,22.61255],[75.61758,22.62119],[75.61922,22.62059],[75.62181,22.62618],[75.62804,22.62396],[75.62754,22.62346]]]}},{"type":"Feature","bbox":[75.60251,22.60576,75.62181,22.63158],"properties":{"ward":21,"name":"Kuti Ward"},"geometry":{"type":"Polygon","coordinates":[[[75.61571,22.63158],[75.61579,22.63073],[75.6193,22.62967],[75.61828,22.62753],[75.62181,22.62618],[75.61922,22.62059],[75.61758,22.62119],[75.61407,22.61255],[75.6145,22.60964],[75.61381,22.60952],[75.6118,22.61038],[75.61124,22.6104],[75.61064,22.61022],[75.61044,22.60983],[75.6103,22.60869],[75.60884,22.60637],[75.60836,22.60597],[75.60691,22.60604],[75.60651,22.60633],[75.60618,22.60605],[75.60601,22.60677],[75.60381,22.60629],[75.60384,22.60603],[75.60251,22.60576],[75.60273,22.60773],[75.60369,22.60989],[75.61326,22.62849],[75.61347,22.62933],[75.60971,22.63027],[75.60971,22.6305],[75.61571,22.63158]]]}},{"type":"Feature","bbox":[75.60195,22.59216,75.61737,22.6104],"properties":{"ward":22,"name":"Molana Abdul Kalam Aazad Ward"},"geometry":{"type":"Polygon","coordinates":[[[75.60205,22.59216],[75.60229,22.59253],[75.60288,22.59479],[75.60312,22.59504],[75.60195,22.59628],[75.6039,22.59693],[75.60432,22.59787],[75.60393,22.59935],[75.60355,22.59969],[75.60266,22.59991],[75.60284,22.60315],[75.60263,22.60379],[75.60384,22.60409],[75.60417,22.60428],[75.60451,22.60478],[75.6054,22.60499],[75.60597,22.60536],[75.60618,22.60605],[75.60651,22.60633],[75.60691,22.60604],[75.60836,22.60597],[75.60884,22.60637],[75.6103,22.60869],[75.61044,22.60983],[75.61064,22.61022],[75.61124,22.6104],[75.6118,22.61038],[75.61381,22.60952],[75.6145,22.60964],[75.61436,22.59573],[75.61467,22.5955],[75.61737,22.59452],[75.61135,22.59431],[75.60995,22.59414],[75.60537,22.59317],[75.60513,22.59251],[75.60205,22.59216]]]}},{"type":"Feature","bbox":[75.59052,22.5914,75.60312,22.59659],"properties":{"ward":23,"name":"Motinagar Ward"},"geometry":{"type":"Polygon","coordinates":[[[75.60195,22.59628],[75.60312,22.59504],[75.60288,22.59479],[75.60229,22.59253],[75.60205,22.59216],[75.59762,22.59184],[75.59498,22.5914],[75.59261,22.59184],[75.59236,22.59146],[75.59101,22.59191],[75.59152,22.59261],[75.59156,22.59352],[75.59071,22.59423],[75.59052,22.59468],[75.59112,22.59518],[75.59135,22.59566],[75.59262,22.59659],[75.59559,22.59582],[75.5978,22.59561],[75.60195,22.59628]]]}},{"type":"Feature","bbox":[75.59797,22.59567,75.60432,22.60057],"properties":{"ward":24,"name":"Bus Stand Ward"},"geometry":{"type":"Polygon","coordinates":[[[75.59884,22.60057],[75.60355,22.59969],[75.60393,22.59935],[75.60432,22.59787],[75.6039,22.59693],[75.60195,22.59628],[75.59797,22.59567],[75.59821,22.59895],[75.59872,22.59995],[75.59884,22.60057]]]}},{"type":"Feature","bbox":[75.59242,22.59561,75.60284,22.60458],"properties":{"ward":25,"name":"Shubhas Chandra Boss Ward"},"geometry":{"type":"Polygon","coordinates":[[[75.60266,22.59991],[75.59884,22.60057],[75.59872,22.59995],[75.59821,22.59895],[75.59797,22.59567],[75.5978,22.59561],[75.59559,22.59582],[75.59262,22.59659],[75.59285,22.5973],[75.59321,22.59763],[75.59264,22.59866],[75.59242,22.59954],[75.59249,22.59999],[75.59264,22.60022],[75.59364,22.60069],[75.59375,22.60095],[75.59306,22.60284],[75.59313,22.60299],[75.59363,22.6031],[75.59445,22.60277],[75.59541,22.60285],[75.59537,22.60332],[75.59464,22.60373],[75.59463,22.60414],[75.59491,22.60443],[75.59556,22.60454],[75.59606,22.60441],[75.59646,22.60458],[75.59654,22.60334],[75.59709,22.6031],[75.59786,22.60352],[75.59918,22.6034],[75.59923,22.60316],[75.59958,22.6031],[75.60062,22.6034],[75.60165,22.60345],[75.60263,22.60379],[75.60284,22.60315],[75.60266,22.59991]]]}},{"type":"Feature","bbox":[75.5799,22.6031,75.61347,22.63729],"properties":{"ward":26,"name":"Juni Sagore"},"geometry":{"type":"Polygon","coordinates":[[[75.60971,22.6305],[75.60971,22.63027],[75.61347,22.62933],[75.61307,22.62811],[75.60369,22.60989],[75.60273,22.60773],[75.60251,22.60576],[75.60384,22.60603],[75.60381,22.60629],[75.60601,22.60677],[75.60618,22.60605],[75.60597,22.60536],[75.6054,22.60499],[75.60451,22.60478],[75.60417,22.60428],[75.60384,22.60409],[75.60165,22.60345],[75.60062,22.6034],[75.59958,22.6031],[75.59923,22.60316],[75.59918,22.6034],[75.59786,22.60352],[75.59709,22.6031],[75.59682,22.60315],[75.59648,22.60352],[75.59656,22.60442],[75.59642,22.60459],[75.59606,22.60441],[75.59556,22.60454],[75.59491,22.60443],[75.59461,22.60405],[75.5947,22.60358],[75.59269,22.60435],[75.5903,22.60456],[75.58974,22.60476],[75.5856,22.60431],[75.58302,22.60435],[75.58176,22.60414],[75.58122,22.60379],[75.5799,22.60367],[75.58444,22.61288],[75.5871,22.61591],[75.58932,22.61971],[75.5907,22.6199],[75.60215,22.63729],[75.60299,22.63595],[75.60342,22.63375],[75.60353,22.63176],[75.60409,22.63047],[75.60461,22.63021],[75.60658,22.63016],[75.60971,22.6305]]]}},{"type":"Feature","bbox":[75.58147,22.63375,75.59144,22.6441],"properties":{"ward":27,"name":"New Bagdun Ward"},"geometry":{"type":"Polygon","coordinates":[[[75.58981,22.63375],[75.58665,22.63505],[75.5832,22.63741],[75.58147,22.63822],[75.58171,22.64405],[75.58213,22.6441],[75.58328,22.64372],[75.5837,22.64378],[75.58331,22.64249],[75.58416,22.64133],[75.58559,22.6404],[75.58666,22.64046],[75.58724,22.63938],[75.58967,22.63747],[75.58976,22.63771],[75.59007,22.63764],[75.59015,22.63779],[75.59144,22.63726],[75.58981,22.63375]]]}},{"type":"Feature","bbox":[75.58089,22.63076,75.60215,22.65448],"properties":{"ward":28,"name":"Purani Bagdun Ward"},"geometry":{"type":"Polygon","coordinates":[[[75.60215,22.63729],[75.59792,22.63076],[75.58981,22.63375],[75.59144,22.63726],[75.59015,22.63779],[75.59007,22.63764],[75.58976,22.63771],[75.58967,22.63747],[75.58724,22.63938],[75.58666,22.64046],[75.58559,22.6404],[75.58416,22.64133],[75.58331,22.64249],[75.5837,22.64378],[75.58328,22.64372],[75.58213,22.6441],[75.58232,22.64705],[75.58089,22.64712],[75.58103,22.64807],[75.58309,22.65188],[75.5839,22.65422],[75.58934,22.65448],[75.58997,22.65363],[75.59145,22.65256],[75.59501,22.65115],[75.59809,22.65063],[75.59917,22.64411],[75.60133,22.6386],[75.60215,22.63729]]]}},{"type":"Feature","bbox":[75.57743,22.63822,75.58232,22.64881],"properties":{"ward":29,"name":"New Mandlawda Ward"},"geometry":{"type":"Polygon","coordinates":[[[75.58132,22.64861],[75.58103,22.64807],[75.58089,22.64712],[75.58232,22.64705],[75.58213,22.6441],[75.58171,22.64405],[75.58147,22.63822],[75.57743,22.64005],[75.57815,22.64146],[75.57819,22.6422],[75.57811,22.64324],[75.57766,22.64447],[75.57773,22.6456],[75.57846,22.64553],[75.57889,22.64607],[75.57942,22.64708],[75.58003,22.64881],[75.58132,22.64861]]]}},{"type":"Feature","bbox":[75.56588,22.62249,75.59792,22.64612],"properties":{"ward":30,"name":"Indorama Ward"},"geometry":{"type":"Polygon","coordinates":[[[75.58665,22.63505],[75.59792,22.63076],[75.59241,22.62249],[75.56624,22.62289],[75.56588,22.62821],[75.56623,22.63479],[75.56613,22.63513],[75.56803,22.63666],[75.57015,22.63799],[75.57177,22.63979],[75.56685,22.64181],[75.56678,22.64424],[75.56708,22.64612],[75.57393,22.64162],[75.5832,22.63741],[75.58665,22.63505]]]}},{"type":"Feature","bbox":[75.56854,22.64005,75.5839,22.65422],"properties":{"ward":31,"name":"Purana Mandlawda Ward\\"},"geometry":{"type":"Polygon","coordinates":[[[75.58309,22.65188],[75.58132,22.64861],[75.58003,22.64881],[75.57942,22.64708],[75.57889,22.64607],[75.57846,22.64553],[75.57773,22.6456],[75.57766,22.64447],[75.57811,22.64324],[75.57819,22.6422],[75.57815,22.64146],[75.57743,22.64005],[75.57393,22.64162],[75.56854,22.64516],[75.56921,22.64845],[75.56921,22.65149],[75.56951,22.65191],[75.57107,22.65183],[75.5731,22.65119],[75.57443,22.65102],[75.57494,22.65288],[75.57568,22.65349],[75.57759,22.65377],[75.5839,22.65422],[75.58309,22.65188]]]}}]}