{"type":"FeatureCollection","features":[{"type":"Feature","bbox":[75.64983,22.1732,75.65553,22.17737],"properties":{"ward":1,"name":"Bhagat Singh Ward"},"geometry":{"type":"Polygon","coordinates":[[[75.65447,22.1732],[75.65242,22.17396],[75.64995,22.17463],[75.64983,22.17481],[75.64997,22.17536],[75.65033,22.17555],[75.65013,22.17596],[75.65004,22.17691],[75.65063,22.17701],[75.65125,22.17674],[75.65306,22.17698],[75.65383,22.17672],[75.65553,22.17737],[75.65522,22.17608],[75.65532,22.17572],[75.65512,22.17509],[75.6549,22.17503],[75.65447,22.1732]]]}},{"type":"Feature","bbox":[75.64927,22.17672,75.65553,22.17873],"properties":{"ward":2,"name":"Moulana Ajad Ward"},"geometry":{"type":"Polygon","coordinates":[[[75.65553,22.17737],[75.65383,22.17672],[75.65288,22.17698],[75.65125,22.17674],[75.65063,22.17701],[75.65004,22.17691],[75.64937,22.17751],[75.64927,22.17791],[75.64947,22.17873],[75.65148,22.17826],[75.65352,22.17813],[75.65553,22.17737]]]}},{"type":"Feature","bbox":[75.65486,22.17436,75.65999,22.17737],"properties":{"ward":3,"name":"Sardar Patel Ward"},"geometry":{"type":"Polygon","coordinates":[[[75.65999,22.17629],[75.65997,22.1756],[75.65768,22.1756],[75.65651,22.17535],[75.65656,22.17436],[75.65562,22.17437],[75.65486,22.1749],[75.65512,22.17509],[75.65532,22.17572],[75.65522,22.17608],[75.65553,22.17737],[75.65999,22.17629]]]}},{"type":"Feature","bbox":[75.65648,22.174,75.65997,22.1756],"properties":{"ward":4,"name":"Mahatma Gandhi"},"geometry":{"type":"Polygon","coordinates":[[[75.65981,22.174],[75.65656,22.17436],[75.65648,22.17533],[75.65768,22.1756],[75.65997,22.1756],[75.65981,22.174]]]}},{"type":"Feature","bbox":[75.65447,22.17217,75.65981,22.1749],"properties":{"ward":5,"name":"Mahavir Ward Ward"},"geometry":{"type":"Polygon","coordinates":[[[75.65865,22.17217],[75.65638,22.17297],[75.65534,22.1732],[75.65447,22.1732],[75.65486,22.1749],[75.65562,22.17437],[75.65981,22.17406],[75.65969,22.17308],[75.65903,22.17324],[75.65865,22.17217]]]}},{"type":"Feature","bbox":[75.65974,22.17305,75.66107,22.17518],"properties":{"ward":6,"name":"Subhaschandra Ward"},"geometry":{"type":"Polygon","coordinates":[[[75.66086,22.17492],[75.66107,22.17335],[75.66057,22.17338],[75.66052,22.17305],[75.65974,22.17327],[75.65992,22.17518],[75.66086,22.17492]]]}},{"type":"Feature","bbox":[75.65865,22.17139,75.66241,22.17338],"properties":{"ward":7,"name":"Narmada Ward"},"geometry":{"type":"Polygon","coordinates":[[[75.66057,22.17338],[75.66239,22.17336],[75.66241,22.17262],[75.66214,22.1724],[75.66177,22.17139],[75.65944,22.17214],[75.65865,22.17217],[75.65903,22.17324],[75.65969,22.17308],[75.65974,22.17327],[75.66052,22.17305],[75.66057,22.17338]]]}},{"type":"Feature","bbox":[75.66086,22.17335,75.66265,22.17506],"properties":{"ward":8,"name":"Maharana Pratap Ward"},"geometry":{"type":"Polygon","coordinates":[[[75.66239,22.17336],[75.66107,22.17335],[75.66086,22.17492],[75.6616,22.17493],[75.6617,22.17506],[75.66265,22.17492],[75.66239,22.17336]]]}},{"type":"Feature","bbox":[75.66177,22.17032,75.66737,22.17629],"properties":{"ward":9,"name":"Indira Gandhi Ward"},"geometry":{"type":"Polygon","coordinates":[[[75.66177,22.17139],[75.66214,22.1724],[75.66241,22.17262],[75.66237,22.17346],[75.66281,22.17595],[75.66535,22.17584],[75.66606,22.17597],[75.66659,22.17629],[75.66687,22.17624],[75.66737,22.17555],[75.66577,22.17471],[75.665,22.17396],[75.66426,22.17366],[75.66355,22.17298],[75.6636,22.17265],[75.66383,22.17256],[75.66436,22.17168],[75.66428,22.17117],[75.66374,22.17032],[75.66249,22.17086],[75.66177,22.17139]]]}},{"type":"Feature","bbox":[75.65992,22.17492,75.66182,22.176],"properties":{"ward":10,"name":"Jawaharlal Ward"},"geometry":{"type":"Polygon","coordinates":[[[75.66182,22.17505],[75.66086,22.17492],[75.65992,22.17518],[75.66007,22.176],[75.66074,22.17584],[75.66103,22.17542],[75.66182,22.17505]]]}},{"type":"Feature","bbox":[75.66074,22.17492,75.66281,22.17646],"properties":{"ward":11,"name":"Dr.Bhimrao Ambedkar Ward"},"geometry":{"type":"Polygon","coordinates":[[[75.66265,22.17492],[75.66197,22.17497],[75.66114,22.17536],[75.66074,22.17584],[75.66142,22.17578],[75.66149,22.17599],[75.66132,22.17601],[75.66141,22.17646],[75.66235,22.17622],[75.66281,22.17595],[75.66265,22.17492]]]}},{"type":"Feature","bbox":[75.65999,22.17578,75.66149,22.17671],"properties":{"ward":12,"name":"Maharshi Mandan Misra Ward"},"geometry":{"type":"Polygon","coordinates":[[[75.66141,22.17646],[75.66132,22.17601],[75.66149,22.17599],[75.66142,22.17578],[75.66007,22.176],[75.65999,22.17629],[75.6602,22.17671],[75.66141,22.17646]]]}},{"type":"Feature","bbox":[75.66204,22.1758,75.6663,22.17977],"properties":{"ward":13,"name":"Chandra Shekhar Ward"},"geometry":{"type":"Polygon","coordinates":[[[75.6663,22.17611],[75.66479,22.1758],[75.66274,22.17597],[75.66235,22.17622],[75.66233,22.17747],[75.66208,22.17773],[75.66204,22.17855],[75.66255,22.17863],[75.66491,22.17977],[75.6651,22.17877],[75.66375,22.17857],[75.66365,22.1784],[75.66443,22.17722],[75.66506,22.17702],[75.6663,22.17611]]]}},{"type":"Feature","bbox":[75.6602,22.17622,75.66491,22.18048],"properties":{"ward":14,"name":"Rajiv Gandhi Ward"},"geometry":{"type":"Polygon","coordinates":[[[75.66491,22.17977],[75.66255,22.17863],[75.66204,22.17855],[75.66208,22.17773],[75.66233,22.17747],[75.66235,22.17622],[75.6602,22.17671],[75.66094,22.17838],[75.66103,22.18048],[75.66307,22.18025],[75.66313,22.1798],[75.66411,22.17987],[75.6647,22.18015],[75.66491,22.17977]]]}},{"type":"Feature","bbox":[75.64947,22.17624,75.66119,22.18267],"properties":{"ward":15,"name":"Mashih Ward"},"geometry":{"type":"Polygon","coordinates":[[[75.66119,22.18178],[75.66094,22.17838],[75.66007,22.1764],[75.65987,22.17624],[75.65553,22.17737],[75.65352,22.17813],[75.65148,22.17826],[75.64947,22.17873],[75.64964,22.18053],[75.65352,22.18006],[75.65342,22.18139],[75.65269,22.18147],[75.65265,22.18121],[75.65222,22.18132],[75.65223,22.18219],[75.65281,22.1821],[75.65289,22.18267],[75.65358,22.18252],[75.65478,22.18262],[75.655,22.18223],[75.6554,22.18023],[75.65657,22.17932],[75.65756,22.17922],[75.6599,22.17938],[75.66005,22.18179],[75.66119,22.18178]]]}}]}