{"type":"FeatureCollection","features":[{"type":"Feature","bbox":[75.5857,22.16943,75.59195,22.17345],"properties":{"ward":1,"name":"Ahilya Bai Ward"},"geometry":{"type":"Polygon","coordinates":[[[75.58908,22.17314],[75.59166,22.17199],[75.59186,22.17157],[75.59195,22.17021],[75.58917,22.16986],[75.58905,22.16967],[75.58826,22.16957],[75.58824,22.16944],[75.5857,22.16943],[75.58574,22.17098],[75.58698,22.17345],[75.58902,22.17344],[75.58908,22.17314]]]}},{"type":"Feature","bbox":[75.58137,22.16943,75.58684,22.17378],"properties":{"ward":2,"name":"Tilak Ward"},"geometry":{"type":"Polygon","coordinates":[[[75.58684,22.17313],[75.58574,22.17098],[75.5857,22.16943],[75.58186,22.16958],[75.58178,22.16986],[75.58137,22.17015],[75.58137,22.17191],[75.58236,22.17339],[75.58241,22.17378],[75.58593,22.17341],[75.58633,22.1733],[75.58625,22.1729],[75.58644,22.17287],[75.58662,22.17323],[75.58684,22.17313]]]}},{"type":"Feature","bbox":[75.58241,22.17287,75.58717,22.17487],"properties":{"ward":3,"name":"Bhagat Singh Ward"},"geometry":{"type":"Polygon","coordinates":[[[75.58707,22.17344],[75.58684,22.17313],[75.58662,22.17323],[75.58644,22.17287],[75.58625,22.1729],[75.58633,22.1733],[75.58241,22.17378],[75.58242,22.17396],[75.58259,22.17449],[75.58457,22.17416],[75.58459,22.17428],[75.58652,22.17439],[75.5865,22.17486],[75.58684,22.17487],[75.58717,22.17402],[75.58707,22.17344]]]}},{"type":"Feature","bbox":[75.57163,22.16953,75.58631,22.19161],"properties":{"ward":4,"name":"Indira Gandhi Ward"},"geometry":{"type":"Polygon","coordinates":[[[75.58186,22.16958],[75.58139,22.16969],[75.57696,22.16953],[75.57576,22.16971],[75.57163,22.16966],[75.57204,22.1782],[75.57231,22.18006],[75.57209,22.18021],[75.57206,22.18255],[75.57425,22.18279],[75.57444,22.18419],[75.57485,22.18478],[75.57541,22.18489],[75.57557,22.18548],[75.57751,22.18853],[75.58225,22.18852],[75.58246,22.19131],[75.58549,22.19161],[75.58562,22.18955],[75.58455,22.18808],[75.5845,22.18765],[75.58476,22.18724],[75.58539,22.18693],[75.58631,22.18606],[75.58621,22.1857],[75.58301,22.18152],[75.58294,22.18063],[75.58319,22.18021],[75.58322,22.17927],[75.58294,22.17934],[75.58261,22.17872],[75.58223,22.17588],[75.58267,22.17471],[75.58236,22.17339],[75.5816,22.1724],[75.58135,22.17183],[75.58135,22.1702],[75.58178,22.16986],[75.58186,22.16958]]]}},{"type":"Feature","bbox":[75.58459,22.17428,75.58699,22.17632],"properties":{"ward":5,"name":"Mahatma Gandhi Ward"},"geometry":{"type":"Polygon","coordinates":[[[75.58684,22.17487],[75.5865,22.17486],[75.58652,22.17439],[75.58459,22.17428],[75.58462,22.17555],[75.58514,22.17632],[75.58656,22.17619],[75.58649,22.17581],[75.58699,22.17577],[75.58684,22.17487]]]}},{"type":"Feature","bbox":[75.58514,22.17577,75.58712,22.17832],"properties":{"ward":6,"name":"Jawahar Ward"},"geometry":{"type":"Polygon","coordinates":[[[75.58699,22.17577],[75.58649,22.17581],[75.58656,22.17619],[75.58514,22.17632],[75.58528,22.17675],[75.5858,22.17684],[75.58578,22.17738],[75.58662,22.17714],[75.58662,22.17753],[75.58647,22.17755],[75.5865,22.1783],[75.58681,22.17832],[75.58712,22.17659],[75.58699,22.17577]]]}},{"type":"Feature","bbox":[75.58223,22.17416,75.58663,22.17829],"properties":{"ward":7,"name":"Nageshwar Ward"},"geometry":{"type":"Polygon","coordinates":[[[75.58252,22.17733],[75.58328,22.17756],[75.58523,22.17721],[75.58557,22.17771],[75.58594,22.1777],[75.58616,22.1782],[75.58646,22.17829],[75.58647,22.17755],[75.58663,22.17746],[75.58661,22.17712],[75.58578,22.17738],[75.58576,22.17679],[75.58528,22.17675],[75.58492,22.17586],[75.58462,22.17555],[75.58457,22.17416],[75.58259,22.17449],[75.58267,22.17483],[75.58223,22.17579],[75.58252,22.17733]]]}},{"type":"Feature","bbox":[75.58252,22.17723,75.58697,22.17934],"properties":{"ward":8,"name":"Dr. Ambedkar Ward"},"geometry":{"type":"Polygon","coordinates":[[[75.58697,22.17914],[75.58681,22.17832],[75.58616,22.1782],[75.58594,22.1777],[75.58557,22.17771],[75.58529,22.17723],[75.58328,22.17756],[75.58252,22.17733],[75.58261,22.17872],[75.58294,22.17934],[75.58395,22.17915],[75.58697,22.17914]]]}},{"type":"Feature","bbox":[75.58294,22.17915,75.60554,22.19182],"properties":{"ward":9,"name":"Chandrashekhar Azad Ward"},"geometry":{"type":"Polygon","coordinates":[[[75.60554,22.18945],[75.60334,22.18779],[75.60057,22.18668],[75.59686,22.1844],[75.5939,22.18368],[75.59255,22.18307],[75.59099,22.18177],[75.58968,22.18112],[75.58937,22.18028],[75.58951,22.17967],[75.58809,22.1792],[75.58395,22.17915],[75.58322,22.17927],[75.58319,22.18021],[75.58294,22.18063],[75.58305,22.18163],[75.58621,22.1857],[75.58631,22.18606],[75.58539,22.18693],[75.58476,22.18724],[75.5845,22.18765],[75.58455,22.18808],[75.58562,22.18955],[75.58549,22.19161],[75.5884,22.19182],[75.58867,22.19161],[75.58871,22.19128],[75.58913,22.19121],[75.58908,22.1907],[75.59553,22.1902],[75.59645,22.18981],[75.59689,22.18924],[75.5973,22.1892],[75.59746,22.1888],[75.59923,22.18967],[75.60054,22.18994],[75.60295,22.18999],[75.60554,22.18945]]]}},{"type":"Feature","bbox":[75.58684,22.17313,75.5893,22.17665],"properties":{"ward":10,"name":"Mahaveer Ward"},"geometry":{"type":"Polygon","coordinates":[[[75.58905,22.17471],[75.58905,22.174],[75.5893,22.17313],[75.58908,22.17314],[75.58902,22.17344],[75.58707,22.17344],[75.58717,22.17402],[75.58684,22.17487],[75.58711,22.17665],[75.58905,22.17471]]]}},{"type":"Feature","bbox":[75.58681,22.17722,75.58834,22.17921],"properties":{"ward":11,"name":"Shahstrajun Ward"},"geometry":{"type":"Polygon","coordinates":[[[75.58834,22.17725],[75.587,22.17722],[75.58681,22.17832],[75.58697,22.17914],[75.58817,22.17921],[75.58834,22.17725]]]}},{"type":"Feature","bbox":[75.587,22.17471,75.58913,22.17725],"properties":{"ward":12,"name":"Shivaji Ward"},"geometry":{"type":"Polygon","coordinates":[[[75.58905,22.17471],[75.58711,22.17665],[75.587,22.17722],[75.58834,22.17725],[75.58836,22.17666],[75.58913,22.17668],[75.58905,22.17471]]]}},{"type":"Feature","bbox":[75.58819,22.17021,75.61119,22.17885],"properties":{"ward":13,"name":"Molana Azad Ward"},"geometry":{"type":"Polygon","coordinates":[[[75.58999,22.17672],[75.58964,22.17638],[75.58943,22.17529],[75.59018,22.17392],[75.59167,22.17379],[75.59522,22.17313],[75.60084,22.17277],[75.61119,22.17279],[75.61119,22.17076],[75.61094,22.17054],[75.60882,22.17031],[75.60467,22.17054],[75.5984,22.17061],[75.59331,22.17049],[75.59195,22.17021],[75.59186,22.17157],[75.59166,22.17199],[75.5893,22.17313],[75.58905,22.17406],[75.58913,22.17668],[75.58836,22.17666],[75.58819,22.17885],[75.58925,22.17829],[75.59015,22.17804],[75.58999,22.17672]]]}},{"type":"Feature","bbox":[75.58943,22.17277,75.61122,22.17665],"properties":{"ward":14,"name":"Rajiv Gandhi Ward"},"geometry":{"type":"Polygon","coordinates":[[[75.61119,22.17279],[75.60084,22.17277],[75.59522,22.17313],[75.59167,22.17379],[75.59018,22.17392],[75.58943,22.17529],[75.58964,22.17638],[75.58981,22.17646],[75.58982,22.17664],[75.59001,22.17665],[75.59038,22.17632],[75.59202,22.17608],[75.594,22.17508],[75.59616,22.17504],[75.59672,22.17482],[75.59835,22.17465],[75.60096,22.17452],[75.61122,22.17462],[75.61119,22.17279]]]}},{"type":"Feature","bbox":[75.58817,22.17452,75.61217,22.18945],"properties":{"ward":15,"name":"Sanjay Gandhi Ward"},"geometry":{"type":"Polygon","coordinates":[[[75.61122,22.17462],[75.60096,22.17452],[75.59698,22.17479],[75.59587,22.17507],[75.594,22.17508],[75.59202,22.17608],[75.59038,22.17632],[75.58999,22.17672],[75.59015,22.17804],[75.58925,22.17829],[75.58819,22.17885],[75.58817,22.17921],[75.58951,22.17967],[75.58937,22.18028],[75.58968,22.18112],[75.59099,22.18177],[75.59255,22.18307],[75.5939,22.18368],[75.59686,22.1844],[75.60057,22.18668],[75.60334,22.18779],[75.60554,22.18945],[75.60659,22.18866],[75.61058,22.18842],[75.61055,22.18742],[75.61117,22.18748],[75.61022,22.18399],[75.61081,22.18385],[75.61184,22.18327],[75.61217,22.18285],[75.61156,22.18187],[75.61061,22.18162],[75.61024,22.18126],[75.61036,22.1807],[75.61128,22.18002],[75.61186,22.17895],[75.61179,22.17861],[75.61146,22.17821],[75.61103,22.17808],[75.61122,22.17462]]]}}]}