{"type":"FeatureCollection","features":[{"type":"Feature","bbox":[76.08906,23.94782,76.09727,23.95446],"properties":{"ward":1,"name":"Netaji Shubhash Chandra Boss Ward"},"geometry":{"type":"Polygon","coordinates":[[[76.0891,23.94925],[76.08948,23.9492],[76.08955,23.94933],[76.08937,23.9494],[76.08954,23.94964],[76.08942,23.94982],[76.08952,23.95012],[76.08933,23.95028],[76.0904,23.95209],[76.09135,23.95298],[76.09375,23.95446],[76.09395,23.95396],[76.09472,23.95415],[76.09486,23.95393],[76.09574,23.95379],[76.09701,23.95311],[76.09695,23.95254],[76.09712,23.95254],[76.09727,23.95128],[76.09578,23.95042],[76.09475,23.94905],[76.09272,23.94788],[76.09215,23.94782],[76.0913,23.94815],[76.09025,23.94791],[76.09025,23.94814],[76.08953,23.94804],[76.08956,23.94877],[76.08906,23.94889],[76.0891,23.94925]]]}},{"type":"Feature","bbox":[76.08344,23.94842,76.09254,23.95503],"properties":{"ward":2,"name":"Do. Rajendra Prashad Ward"},"geometry":{"type":"MultiPolygon","coordinates":[[[[76.08818,23.94924],[76.08783,23.94925],[76.08748,23.94862],[76.08691,23.94884],[76.0861,23.94842],[76.08554,23.94897],[76.0849,23.95039],[76.08422,23.95141],[76.08344,23.9522],[76.08344,23.95244],[76.08472,23.95333],[76.08479,23.95362],[76.08601,23.95395],[76.08596,23.95476],[76.08793,23.95503],[76.0908,23.95503],[76.09106,23.95499],[76.09174,23.95435],[76.09252,23.95425],[76.09254,23.9537],[76.09087,23.95258],[76.08979,23.95124],[76.08933,23.95028],[76.08952,23.95012],[76.08942,23.94982],[76.08954,23.94964],[76.08937,23.9494],[76.08955,23.94933],[76.08948,23.9492],[76.08907,23.94926],[76.08907,23.94863],[76.08896,23.94865],[76.08892,23.94916],[76.0882,23.94925],[76.08818,23.94924]]],[[[76.08818,23.94924],[76.08818,23.94924],[76.08818,23.94924],[76.08818,23.94924]]],[[[76.08818,23.94924],[76.0882,23.94924],[76.08819,23.94923],[76.08818,23.94924]]],[[[76.0882,23.94924],[76.0882,23.94924],[76.0882,23.94924],[76.0882,23.94924]]],[[[76.0882,23.94924],[76.08819,23.94924],[76.0882,23.94924],[76.0882,23.94924]]]]}},{"type":"Feature","bbox":[76.08642,23.94723,76.08891,23.94925],"properties":{"ward":3,"name":"Lal Bahadur Shashrti Ward"},"geometry":{"type":"Polygon","coordinates":[[[76.08819,23.94923],[76.08822,23.94833],[76.08863,23.94798],[76.08891,23.94733],[76.08796,23.94723],[76.08789,23.94787],[76.08642,23.94862],[76.08691,23.94884],[76.08748,23.94862],[76.08783,23.94925],[76.08819,23.94923]]]}},{"type":"Feature","bbox":[76.08562,23.94605,76.08795,23.94862],"properties":{"ward":4,"name":"Bhagwan Mahaveer Ward"},"geometry":{"type":"Polygon","coordinates":[[[76.08767,23.9465],[76.08569,23.94728],[76.08563,23.94748],[76.08562,23.94811],[76.08642,23.94862],[76.08789,23.94787],[76.08795,23.94668],[76.08781,23.94605],[76.08755,23.94608],[76.08767,23.9465]]]}},{"type":"Feature","bbox":[76.0857,23.94458,76.08886,23.94733],"properties":{"ward":5,"name":"Do. Ambedkar Ward"},"geometry":{"type":"Polygon","coordinates":[[[76.08846,23.94684],[76.08813,23.94581],[76.08756,23.94585],[76.08756,23.94573],[76.08732,23.94574],[76.08721,23.94543],[76.08695,23.94542],[76.08697,23.94492],[76.08673,23.94482],[76.08665,23.94458],[76.08643,23.94497],[76.08664,23.94556],[76.0857,23.9458],[76.08616,23.94705],[76.08651,23.94682],[76.08767,23.9465],[76.08755,23.94608],[76.08781,23.94605],[76.08796,23.94723],[76.08882,23.94733],[76.08886,23.94707],[76.0886,23.94717],[76.08865,23.94685],[76.08846,23.94684]]]}},{"type":"Feature","bbox":[76.08121,23.93865,76.08833,23.94703],"properties":{"ward":6,"name":"Rana Pratap Ward"},"geometry":{"type":"Polygon","coordinates":[[[76.08732,23.94574],[76.08754,23.94573],[76.08739,23.94468],[76.08758,23.94467],[76.08757,23.94453],[76.08739,23.94454],[76.0873,23.94415],[76.0875,23.94375],[76.0874,23.94351],[76.08766,23.94351],[76.08749,23.9427],[76.08827,23.94237],[76.08833,23.94191],[76.08816,23.94143],[76.08764,23.94085],[76.08605,23.93968],[76.08378,23.93923],[76.08315,23.93926],[76.083,23.93865],[76.08226,23.93876],[76.08149,23.93989],[76.08171,23.94103],[76.08121,23.9411],[76.08124,23.9423],[76.08152,23.94241],[76.08145,23.94262],[76.08174,23.94272],[76.08163,23.94328],[76.08246,23.94333],[76.08411,23.94688],[76.08432,23.94703],[76.08473,23.94702],[76.08591,23.9464],[76.0857,23.9458],[76.08664,23.94556],[76.08643,23.94499],[76.08658,23.94458],[76.08697,23.94492],[76.08695,23.94542],[76.08721,23.94543],[76.08732,23.94574]]]}},{"type":"Feature","bbox":[76.08739,23.93782,76.09446,23.94488],"properties":{"ward":7,"name":"Pant. Jawaharlal Nehru Ward"},"geometry":{"type":"Polygon","coordinates":[[[76.09035,23.93914],[76.09008,23.93939],[76.08926,23.93916],[76.08947,23.93975],[76.08872,23.93968],[76.08862,23.94045],[76.08779,23.94101],[76.08826,23.94161],[76.08831,23.94221],[76.0882,23.94243],[76.08749,23.9427],[76.08766,23.94351],[76.0874,23.94351],[76.08739,23.94454],[76.08865,23.94445],[76.08931,23.94394],[76.09001,23.94385],[76.09126,23.94401],[76.09424,23.94488],[76.09446,23.94124],[76.09396,23.9388],[76.09241,23.93782],[76.09016,23.93864],[76.08998,23.93889],[76.09035,23.93914]]]}},{"type":"Feature","bbox":[76.08739,23.94385,76.09177,23.94653],"properties":{"ward":8,"name":"Mahatma Gandhi Ward"},"geometry":{"type":"Polygon","coordinates":[[[76.08824,23.94633],[76.08844,23.94653],[76.08878,23.94651],[76.08843,23.94603],[76.08863,23.94595],[76.0889,23.94641],[76.08906,23.94588],[76.09017,23.9448],[76.09103,23.94428],[76.09177,23.94414],[76.08981,23.94385],[76.08931,23.94394],[76.08866,23.94445],[76.08757,23.94453],[76.08758,23.94467],[76.08739,23.94468],[76.08747,23.94568],[76.08756,23.94585],[76.08813,23.94581],[76.08824,23.94633]]]}},{"type":"Feature","bbox":[76.08888,23.94414,76.09616,23.94861],"properties":{"ward":9,"name":"Molana Abul Kalam Ajad Ward"},"geometry":{"type":"Polygon","coordinates":[[[76.08969,23.94786],[76.09003,23.94814],[76.09025,23.94814],[76.09025,23.94791],[76.0913,23.94815],[76.0925,23.94781],[76.09393,23.94849],[76.09469,23.94861],[76.09616,23.9477],[76.09549,23.94704],[76.09555,23.94646],[76.09524,23.94573],[76.09522,23.94514],[76.09177,23.94414],[76.09103,23.94428],[76.09026,23.94473],[76.08906,23.94588],[76.08888,23.94651],[76.08918,23.9465],[76.08928,23.94677],[76.08955,23.94676],[76.08932,23.94685],[76.08933,23.94719],[76.08969,23.94734],[76.08969,23.94786]]]}},{"type":"Feature","bbox":[76.09522,23.94324,76.1008,23.9477],"properties":{"ward":10,"name":"Sardar Patel Ward"},"geometry":{"type":"Polygon","coordinates":[[[76.09549,23.94691],[76.09616,23.9477],[76.1008,23.94449],[76.10077,23.94324],[76.09705,23.94431],[76.09567,23.9451],[76.09522,23.94514],[76.09524,23.94573],[76.09555,23.94646],[76.09549,23.94691]]]}},{"type":"Feature","bbox":[76.09371,23.94449,76.10669,23.95368],"properties":{"ward":11,"name":"Indira Gandhi Ward"},"geometry":{"type":"Polygon","coordinates":[[[76.09727,23.95127],[76.10336,23.95318],[76.10587,23.95368],[76.10669,23.95337],[76.10132,23.94603],[76.10093,23.94527],[76.1008,23.94449],[76.095,23.9485],[76.09445,23.9486],[76.09371,23.9484],[76.09475,23.94905],[76.09578,23.95042],[76.09727,23.95127]]]}},{"type":"Feature","bbox":[76.0866,23.92691,76.10852,23.95337],"properties":{"ward":12,"name":"Rajev Gandhi Ward"},"geometry":{"type":"Polygon","coordinates":[[[76.09446,23.94126],[76.09439,23.94314],[76.09499,23.9425],[76.10067,23.94085],[76.10082,23.94482],[76.10123,23.94588],[76.10669,23.95337],[76.10751,23.95282],[76.1081,23.95144],[76.10852,23.94928],[76.10828,23.94886],[76.10749,23.9486],[76.1073,23.94229],[76.10655,23.93884],[76.10659,23.93735],[76.10624,23.93703],[76.1056,23.93696],[76.10531,23.93575],[76.10503,23.93555],[76.1048,23.93341],[76.10426,23.93197],[76.10381,23.93184],[76.10337,23.93105],[76.10222,23.92976],[76.1031,23.92934],[76.10288,23.92794],[76.10117,23.92709],[76.0991,23.92691],[76.09807,23.92729],[76.09819,23.92888],[76.09708,23.92892],[76.09679,23.92958],[76.09642,23.93154],[76.09445,23.93485],[76.09057,23.93513],[76.08808,23.93513],[76.08789,23.93473],[76.08762,23.93482],[76.08777,23.93513],[76.0866,23.93508],[76.08662,23.93557],[76.08683,23.93587],[76.08792,23.93622],[76.08991,23.93629],[76.09373,23.93859],[76.09402,23.9389],[76.09417,23.93937],[76.09446,23.94126]]]}},{"type":"Feature","bbox":[76.09424,23.94085,76.10077,23.94516],"properties":{"ward":13,"name":"Rani Laxmibai Ward"},"geometry":{"type":"Polygon","coordinates":[[[76.10077,23.94324],[76.10067,23.94085],[76.09488,23.94256],[76.09439,23.94314],[76.09424,23.94488],[76.0955,23.94516],[76.09695,23.94434],[76.10077,23.94324]]]}},{"type":"Feature","bbox":[76.08817,23.9465,76.08956,23.94922],"properties":{"ward":14,"name":"Vinoba Bhave Ward"},"geometry":{"type":"Polygon","coordinates":[[[76.08913,23.94733],[76.08911,23.94716],[76.08933,23.94719],[76.08932,23.94685],[76.08955,23.94676],[76.08928,23.94677],[76.08918,23.9465],[76.08888,23.94651],[76.08891,23.94733],[76.08863,23.94798],[76.08822,23.94833],[76.08817,23.94862],[76.08833,23.94861],[76.08834,23.94885],[76.08819,23.94922],[76.08891,23.94915],[76.08896,23.94865],[76.08907,23.94863],[76.08911,23.94889],[76.08956,23.94877],[76.08954,23.94825],[76.089,23.94826],[76.08881,23.94805],[76.08895,23.94771],[76.08885,23.94757],[76.08913,23.94733]]]}},{"type":"Feature","bbox":[76.08841,23.94595,76.08992,23.94827],"properties":{"ward":15,"name":"Lokmanya Tilak Ward"},"geometry":{"type":"Polygon","coordinates":[[[76.08843,23.94603],[76.08878,23.94651],[76.08841,23.9466],[76.08846,23.94684],[76.08865,23.94685],[76.0886,23.94717],[76.08894,23.94708],[76.08893,23.94717],[76.08911,23.94718],[76.08914,23.94732],[76.08885,23.94757],[76.08895,23.94771],[76.08881,23.94805],[76.089,23.94826],[76.08923,23.94827],[76.08953,23.94825],[76.08953,23.94804],[76.0899,23.94804],[76.08992,23.94787],[76.08969,23.94786],[76.08969,23.94734],[76.08931,23.94718],[76.08896,23.94716],[76.0889,23.94641],[76.08863,23.94595],[76.08843,23.94603]]]}}]}