{"type":"FeatureCollection","features":[{"type":"Feature","bbox":[76.3416,22.97489,76.34577,22.9778],"properties":{"ward":1,"name":"Kabir Ward"},"geometry":{"type":"Polygon","coordinates":[[[76.3416,22.97768],[76.34342,22.9778],[76.34475,22.97701],[76.34577,22.97702],[76.34577,22.97626],[76.34537,22.97611],[76.34537,22.97544],[76.3437,22.97534],[76.34179,22.97489],[76.3416,22.97768]]]}},{"type":"Feature","bbox":[76.34534,22.97531,76.34897,22.97735],"properties":{"ward":2,"name":"Jawahar Ward"},"geometry":{"type":"Polygon","coordinates":[[[76.34694,22.97531],[76.34537,22.97544],[76.34534,22.97603],[76.34577,22.97626],[76.34577,22.97702],[76.34651,22.97735],[76.3477,22.97661],[76.34897,22.97669],[76.3486,22.97641],[76.34823,22.97556],[76.34697,22.97572],[76.34694,22.97531]]]}},{"type":"Feature","bbox":[76.3416,22.97344,76.36639,22.98269],"properties":{"ward":3,"name":"Thakur Vijay Singh Ward"},"geometry":{"type":"Polygon","coordinates":[[[76.34975,22.98225],[76.3511,22.98209],[76.35121,22.98244],[76.3524,22.9823],[76.35243,22.98269],[76.35325,22.98265],[76.35337,22.98171],[76.35489,22.98166],[76.35696,22.98128],[76.35696,22.98104],[76.35737,22.98076],[76.35731,22.98054],[76.35758,22.98059],[76.35864,22.98023],[76.35894,22.97997],[76.35928,22.97998],[76.35926,22.97856],[76.35986,22.97838],[76.36081,22.97762],[76.36117,22.97755],[76.36115,22.9772],[76.3619,22.97703],[76.36193,22.97654],[76.36314,22.9766],[76.36347,22.97526],[76.36393,22.97527],[76.36395,22.97502],[76.3649,22.97489],[76.36491,22.97427],[76.36627,22.97427],[76.36639,22.97344],[76.34855,22.97512],[76.3486,22.97541],[76.348,22.97549],[76.34799,22.9756],[76.34823,22.97556],[76.3486,22.97641],[76.34897,22.97669],[76.3477,22.97661],[76.34651,22.97735],[76.34577,22.97702],[76.34475,22.97701],[76.34411,22.97749],[76.3433,22.97782],[76.3416,22.97768],[76.34184,22.97851],[76.34429,22.98238],[76.34613,22.98256],[76.34798,22.9816],[76.34893,22.98178],[76.34973,22.98174],[76.34975,22.98225]]]}},{"type":"Feature","bbox":[76.34179,22.9728,76.34583,22.97543],"properties":{"ward":4,"name":"Tilak Ward"},"geometry":{"type":"Polygon","coordinates":[[[76.34179,22.97489],[76.34385,22.97536],[76.34583,22.97543],[76.34568,22.97529],[76.34551,22.97423],[76.34399,22.97396],[76.34358,22.97327],[76.34239,22.9728],[76.34179,22.97489]]]}},{"type":"Feature","bbox":[76.34551,22.9742,76.34725,22.97543],"properties":{"ward":5,"name":"Mahatma Gandhi Ward"},"geometry":{"type":"Polygon","coordinates":[[[76.34715,22.97484],[76.34725,22.97446],[76.34617,22.9742],[76.34551,22.97423],[76.34568,22.97529],[76.34583,22.97543],[76.34697,22.97531],[76.34695,22.97491],[76.34715,22.97484]]]}},{"type":"Feature","bbox":[76.34695,22.97353,76.3486,22.97572],"properties":{"ward":6,"name":"Indra Gandhi Ward"},"geometry":{"type":"Polygon","coordinates":[[[76.34697,22.97572],[76.3486,22.97541],[76.34859,22.97512],[76.3479,22.97456],[76.34806,22.97353],[76.34763,22.97354],[76.34715,22.97484],[76.34695,22.97491],[76.34697,22.97572]]]}},{"type":"Feature","bbox":[76.3479,22.97152,76.36638,22.97512],"properties":{"ward":7,"name":"Subhash Ward"},"geometry":{"type":"Polygon","coordinates":[[[76.36537,22.97206],[76.36525,22.97257],[76.35989,22.97227],[76.35747,22.97152],[76.35752,22.97189],[76.3545,22.97199],[76.35197,22.97239],[76.3514,22.97223],[76.35132,22.97295],[76.34994,22.973],[76.35008,22.97355],[76.34809,22.97348],[76.3479,22.97456],[76.34859,22.97512],[76.36638,22.97344],[76.36636,22.97204],[76.36537,22.97206]]]}},{"type":"Feature","bbox":[76.34239,22.96999,76.34596,22.97421],"properties":{"ward":8,"name":"Bhagat Singh Ward"},"geometry":{"type":"Polygon","coordinates":[[[76.34239,22.9728],[76.34358,22.97327],[76.34399,22.97396],[76.34584,22.97421],[76.34596,22.97368],[76.34548,22.97243],[76.34558,22.97137],[76.34537,22.97132],[76.34529,22.97047],[76.34361,22.96999],[76.34239,22.9728]]]}},{"type":"Feature","bbox":[76.34574,22.97303,76.34776,22.97446],"properties":{"ward":9,"name":"Maulana Azad Ward"},"geometry":{"type":"Polygon","coordinates":[[[76.34585,22.97418],[76.34725,22.97446],[76.3474,22.97401],[76.34757,22.97397],[76.34776,22.97327],[76.3472,22.97303],[76.34705,22.97325],[76.34663,22.9734],[76.34574,22.97331],[76.34596,22.97368],[76.34585,22.97418]]]}},{"type":"Feature","bbox":[76.34534,22.97077,76.34718,22.9734],"properties":{"ward":10,"name":"Lal Bahadur Shashtri Ward"},"geometry":{"type":"Polygon","coordinates":[[[76.34621,22.97228],[76.34606,22.97129],[76.34635,22.97116],[76.34625,22.97077],[76.34534,22.97084],[76.34537,22.97132],[76.34557,22.97134],[76.34548,22.97241],[76.34571,22.97327],[76.34663,22.9734],[76.34705,22.97325],[76.34718,22.97277],[76.34701,22.97244],[76.34621,22.97228]]]}},{"type":"Feature","bbox":[76.34606,22.97077,76.34781,22.97327],"properties":{"ward":11,"name":"Mahavir Ward"},"geometry":{"type":"Polygon","coordinates":[[[76.34781,22.9727],[76.34755,22.971],[76.34625,22.97077],[76.34635,22.97116],[76.34606,22.97129],[76.34625,22.97161],[76.34623,22.97232],[76.34703,22.97245],[76.34718,22.97304],[76.34776,22.97327],[76.34781,22.9727]]]}},{"type":"Feature","bbox":[76.34763,22.97186,76.35008,22.97355],"properties":{"ward":12,"name":"Rajendra Ward"},"geometry":{"type":"Polygon","coordinates":[[[76.34766,22.97199],[76.34781,22.97267],[76.34763,22.97354],[76.35008,22.97355],[76.34966,22.97186],[76.34766,22.97199]]]}},{"type":"Feature","bbox":[76.34755,22.97043,76.34966,22.97199],"properties":{"ward":13,"name":"Laxmibai Ward"},"geometry":{"type":"Polygon","coordinates":[[[76.34934,22.97043],[76.34768,22.97048],[76.34755,22.97104],[76.34765,22.97199],[76.34966,22.97186],[76.34934,22.97043]]]}},{"type":"Feature","bbox":[76.34413,22.9651,76.35163,22.973],"properties":{"ward":14,"name":"Gurunanak Ward"},"geometry":{"type":"Polygon","coordinates":[[[76.34611,22.96643],[76.3443,22.96629],[76.34413,22.96838],[76.34473,22.96846],[76.34539,22.96897],[76.34647,22.96911],[76.34672,22.96883],[76.34742,22.96895],[76.34768,22.97048],[76.34934,22.97043],[76.34994,22.973],[76.35055,22.97297],[76.35054,22.9728],[76.35027,22.97281],[76.35027,22.9726],[76.35012,22.9726],[76.35016,22.97223],[76.35081,22.97224],[76.35082,22.97206],[76.35052,22.97205],[76.35042,22.97174],[76.35031,22.97062],[76.35111,22.97044],[76.35115,22.97055],[76.35163,22.97027],[76.3515,22.96983],[76.35073,22.96987],[76.35076,22.97013],[76.35014,22.97022],[76.35001,22.96975],[76.34969,22.96982],[76.34928,22.96943],[76.34937,22.96887],[76.34899,22.96821],[76.34863,22.96822],[76.34813,22.96709],[76.34829,22.96705],[76.34851,22.96625],[76.34847,22.9655],[76.34818,22.96529],[76.34652,22.9651],[76.34652,22.96524],[76.34622,22.96532],[76.34636,22.96629],[76.34611,22.96643]]]}},{"type":"Feature","bbox":[76.34361,22.96833,76.34768,22.971],"properties":{"ward":15,"name":"Pipaleshwar Ward"},"geometry":{"type":"Polygon","coordinates":[[[76.34361,22.96999],[76.34529,22.97047],[76.34534,22.97084],[76.34604,22.97073],[76.34755,22.971],[76.34768,22.97048],[76.34743,22.96896],[76.34672,22.96883],[76.34647,22.96911],[76.34539,22.96897],[76.34473,22.96846],[76.34409,22.96833],[76.34361,22.96999]]]}}]}