{"type":"FeatureCollection","features":[{"type":"Feature","bbox":[76.34873,22.64238,76.35185,22.64868],"properties":{"ward":1,"name":"Mahatma Gandhi Ward"},"geometry":{"type":"Polygon","coordinates":[[[76.34892,22.64759],[76.34905,22.64863],[76.34944,22.64868],[76.34942,22.64819],[76.34982,22.64818],[76.34967,22.64735],[76.34942,22.64723],[76.34939,22.64688],[76.34962,22.64585],[76.34986,22.64546],[76.34963,22.64536],[76.3498,22.64457],[76.35015,22.64453],[76.35009,22.64414],[76.35185,22.64383],[76.35172,22.64357],[76.35109,22.64362],[76.35111,22.64331],[76.35059,22.6433],[76.35056,22.64313],[76.35011,22.64298],[76.34913,22.64302],[76.34893,22.64238],[76.34873,22.64248],[76.34887,22.64357],[76.34936,22.64542],[76.34892,22.64759]]]}},{"type":"Feature","bbox":[76.34688,22.64226,76.34935,22.64759],"properties":{"ward":2,"name":"Shivshankar Ward"},"geometry":{"type":"Polygon","coordinates":[[[76.34688,22.64534],[76.34695,22.64586],[76.34925,22.64604],[76.34907,22.64684],[76.34865,22.64678],[76.34866,22.6473],[76.34828,22.6473],[76.34828,22.64744],[76.34892,22.64759],[76.34934,22.64588],[76.34935,22.64541],[76.34887,22.64357],[76.34878,22.64264],[76.34859,22.64226],[76.34761,22.64244],[76.34732,22.64364],[76.34776,22.64352],[76.34771,22.64438],[76.34742,22.64518],[76.34688,22.64534]]]}},{"type":"Feature","bbox":[76.33532,22.64205,76.3478,22.65124],"properties":{"ward":3,"name":"Indira Gandhi Ward"},"geometry":{"type":"Polygon","coordinates":[[[76.33532,22.65068],[76.33582,22.651],[76.33741,22.65124],[76.33754,22.65062],[76.33692,22.6502],[76.33777,22.65009],[76.3379,22.64974],[76.34103,22.64891],[76.3406,22.64814],[76.3413,22.64763],[76.34065,22.64683],[76.34088,22.64662],[76.34119,22.64685],[76.34151,22.64662],[76.3418,22.64661],[76.34214,22.64621],[76.34334,22.64676],[76.34481,22.6464],[76.34439,22.64444],[76.3453,22.64415],[76.34545,22.64448],[76.34659,22.64468],[76.34689,22.64534],[76.34741,22.64518],[76.3478,22.64387],[76.34775,22.64353],[76.34731,22.64365],[76.34761,22.64244],[76.34618,22.6427],[76.3461,22.64205],[76.34562,22.64265],[76.34586,22.64298],[76.34515,22.64326],[76.3435,22.64465],[76.34234,22.64535],[76.34165,22.64299],[76.34035,22.64322],[76.3404,22.64413],[76.34076,22.6441],[76.34093,22.64547],[76.34049,22.64567],[76.34042,22.6455],[76.33994,22.64552],[76.33995,22.64598],[76.33962,22.646],[76.33955,22.64577],[76.33912,22.64561],[76.33929,22.64615],[76.33982,22.64608],[76.33992,22.64642],[76.33886,22.64659],[76.33869,22.64623],[76.33785,22.64645],[76.33785,22.646],[76.33752,22.64602],[76.33744,22.64676],[76.33702,22.64672],[76.33706,22.64753],[76.33738,22.64758],[76.33751,22.64829],[76.33613,22.64946],[76.33532,22.65068]]]}},{"type":"Feature","bbox":[76.34167,22.63999,76.34713,22.64533],"properties":{"ward":4,"name":"Laxmibai Ward"},"geometry":{"type":"Polygon","coordinates":[[[76.34167,22.64299],[76.34235,22.64533],[76.34354,22.6446],[76.34515,22.64326],[76.34585,22.64298],[76.34562,22.64265],[76.34609,22.64205],[76.34581,22.64187],[76.34622,22.64164],[76.34645,22.6409],[76.34669,22.64082],[76.34713,22.64018],[76.34669,22.63999],[76.34605,22.64059],[76.34552,22.64249],[76.34519,22.64307],[76.34385,22.64273],[76.34394,22.64238],[76.34366,22.64238],[76.34347,22.6429],[76.34275,22.64293],[76.34256,22.64252],[76.34167,22.64299]]]}},{"type":"Feature","bbox":[76.34386,22.63639,76.34806,22.64306],"properties":{"ward":5,"name":"Jawahar Ward"},"geometry":{"type":"Polygon","coordinates":[[[76.34395,22.64126],[76.34386,22.64273],[76.34519,22.64306],[76.3455,22.6425],[76.34604,22.64058],[76.34806,22.63848],[76.3464,22.637],[76.34471,22.63639],[76.34462,22.6369],[76.34554,22.63713],[76.34563,22.63696],[76.34634,22.63744],[76.34698,22.63823],[76.34625,22.63916],[76.34542,22.63882],[76.34537,22.63948],[76.3452,22.63949],[76.34487,22.64005],[76.34587,22.64019],[76.34551,22.64075],[76.34566,22.64083],[76.34561,22.64102],[76.34526,22.64128],[76.34536,22.64172],[76.34395,22.64126]]]}},{"type":"Feature","bbox":[76.3331,22.61806,76.34603,22.63759],"properties":{"ward":6,"name":"Kalikothi Ward"},"geometry":{"type":"Polygon","coordinates":[[[76.3446,22.63689],[76.3447,22.63638],[76.34589,22.63685],[76.34603,22.63671],[76.34455,22.63545],[76.34293,22.63377],[76.34196,22.6325],[76.3416,22.63286],[76.33804,22.62915],[76.33609,22.6275],[76.33573,22.62695],[76.33466,22.6243],[76.33473,22.62315],[76.33454,22.62225],[76.33378,22.62055],[76.33324,22.61979],[76.33328,22.61956],[76.33379,22.61941],[76.33409,22.61985],[76.33422,22.61806],[76.33354,22.61819],[76.33377,22.61891],[76.33345,22.61903],[76.33374,22.61911],[76.33379,22.61938],[76.33316,22.61956],[76.3331,22.61968],[76.33366,22.62048],[76.33441,22.62211],[76.33464,22.62298],[76.3345,22.62399],[76.33461,22.62444],[76.3357,22.62694],[76.33603,22.62754],[76.338,22.62922],[76.34162,22.63298],[76.34134,22.63315],[76.34272,22.63491],[76.34246,22.63525],[76.34209,22.635],[76.34199,22.63521],[76.34039,22.63454],[76.34024,22.63473],[76.34124,22.63507],[76.34115,22.63528],[76.34173,22.63558],[76.34063,22.63675],[76.3426,22.63759],[76.34281,22.63667],[76.3446,22.63689]]]}},{"type":"Feature","bbox":[76.34582,22.63958,76.34759,22.64269],"properties":{"ward":7,"name":"Subhash Ward"},"geometry":{"type":"Polygon","coordinates":[[[76.34671,22.63998],[76.34714,22.64017],[76.34711,22.64035],[76.34646,22.6409],[76.34622,22.64164],[76.34582,22.64187],[76.3461,22.64205],[76.34619,22.64269],[76.34722,22.64251],[76.34737,22.64136],[76.3472,22.64136],[76.34724,22.64108],[76.34759,22.64073],[76.3474,22.63966],[76.34706,22.63958],[76.34671,22.63998]]]}},{"type":"Feature","bbox":[76.34371,22.63442,76.34921,22.63983],"properties":{"ward":8,"name":"Choganiya Ward"},"geometry":{"type":"Polygon","coordinates":[[[76.34864,22.63983],[76.34921,22.63478],[76.34887,22.63478],[76.34866,22.63694],[76.34786,22.63701],[76.34788,22.63738],[76.34835,22.63716],[76.34792,22.63778],[76.3476,22.63746],[76.34723,22.63743],[76.34689,22.63714],[76.34694,22.63674],[76.34647,22.63675],[76.34488,22.63549],[76.34386,22.63442],[76.34371,22.63455],[76.34598,22.63676],[76.34668,22.63719],[76.34739,22.638],[76.34806,22.63848],[76.34705,22.63957],[76.34761,22.63977],[76.34786,22.63903],[76.34848,22.63925],[76.34841,22.63981],[76.34864,22.63983]]]}},{"type":"Feature","bbox":[76.34739,22.63903,76.34894,22.64107],"properties":{"ward":9,"name":"Tilak Ward"},"geometry":{"type":"Polygon","coordinates":[[[76.34739,22.63974],[76.34754,22.64054],[76.34822,22.64033],[76.34839,22.6406],[76.34859,22.64059],[76.34867,22.64107],[76.34883,22.64104],[76.34894,22.63939],[76.34871,22.63924],[76.34864,22.63983],[76.34841,22.63981],[76.34847,22.63925],[76.34786,22.63903],[76.34761,22.63978],[76.34739,22.63974]]]}},{"type":"Feature","bbox":[76.3472,22.64033,76.34852,22.64251],"properties":{"ward":10,"name":"Hanuman Ward"},"geometry":{"type":"Polygon","coordinates":[[[76.34723,22.64251],[76.34845,22.6423],[76.34842,22.64211],[76.34802,22.64211],[76.34795,22.64165],[76.34815,22.64164],[76.34809,22.64125],[76.34852,22.64117],[76.34843,22.64076],[76.34815,22.64082],[76.34822,22.64033],[76.34754,22.64054],[76.34759,22.64073],[76.34724,22.64108],[76.3472,22.64136],[76.34738,22.64136],[76.34723,22.64251]]]}},{"type":"Feature","bbox":[76.34795,22.64039,76.35035,22.64263],"properties":{"ward":11,"name":"Mahankal Ward"},"geometry":{"type":"Polygon","coordinates":[[[76.34866,22.64241],[76.34893,22.64238],[76.34901,22.64263],[76.35035,22.64219],[76.34891,22.64232],[76.34859,22.64059],[76.34839,22.6406],[76.34835,22.64039],[76.3481,22.64061],[76.34815,22.64082],[76.34843,22.64076],[76.34852,22.64118],[76.3481,22.64125],[76.34815,22.64164],[76.34795,22.64165],[76.34802,22.64211],[76.34842,22.64211],[76.34866,22.64241]]]}},{"type":"Feature","bbox":[76.34867,22.64102,76.35039,22.64302],"properties":{"ward":12,"name":"Mahaveer Ward"},"geometry":{"type":"Polygon","coordinates":[[[76.34897,22.64102],[76.34867,22.64107],[76.34891,22.64232],[76.35035,22.64219],[76.34901,22.64263],[76.34913,22.64302],[76.35011,22.64298],[76.35039,22.64219],[76.35007,22.64217],[76.34989,22.6413],[76.3495,22.64136],[76.34954,22.64163],[76.34909,22.64171],[76.34897,22.64102]]]}},{"type":"Feature","bbox":[76.34883,22.63935,76.35021,22.64171],"properties":{"ward":13,"name":"Mukharji Ward"},"geometry":{"type":"Polygon","coordinates":[[[76.3495,22.64135],[76.35021,22.64126],[76.35017,22.64041],[76.35004,22.64043],[76.35011,22.64024],[76.34986,22.63995],[76.34975,22.64056],[76.34922,22.64034],[76.34939,22.63961],[76.34899,22.63935],[76.34883,22.64104],[76.34897,22.64102],[76.3491,22.64171],[76.34954,22.64163],[76.3495,22.64135]]]}},{"type":"Feature","bbox":[76.34696,22.63139,76.35072,22.64143],"properties":{"ward":14,"name":"Champabag Ward"},"geometry":{"type":"Polygon","coordinates":[[[76.34871,22.63924],[76.3494,22.63961],[76.34922,22.64034],[76.34974,22.64056],[76.34985,22.63995],[76.35003,22.64007],[76.35021,22.64127],[76.34989,22.6413],[76.34992,22.64143],[76.35034,22.6414],[76.35043,22.64032],[76.3503,22.64021],[76.35072,22.63968],[76.35053,22.63963],[76.35043,22.63935],[76.34995,22.63942],[76.34988,22.63918],[76.3491,22.63913],[76.34909,22.63894],[76.34895,22.63894],[76.34913,22.63854],[76.34912,22.63792],[76.34934,22.63789],[76.34934,22.63768],[76.34917,22.63768],[76.34941,22.63672],[76.34922,22.63666],[76.34944,22.6359],[76.34928,22.63592],[76.34948,22.63426],[76.34989,22.63434],[76.35003,22.63376],[76.34948,22.63375],[76.34961,22.63282],[76.35071,22.63184],[76.35019,22.63167],[76.35001,22.63142],[76.34952,22.63139],[76.34915,22.63336],[76.34728,22.63315],[76.34712,22.63428],[76.34696,22.63427],[76.34703,22.63461],[76.34922,22.63478],[76.34871,22.63924]]]}},{"type":"Feature","bbox":[76.34992,22.6385,76.3543,22.64465],"properties":{"ward":15,"name":"Maharana Pratap Ward"},"geometry":{"type":"Polygon","coordinates":[[[76.35173,22.64357],[76.35193,22.64418],[76.3523,22.64465],[76.35246,22.64445],[76.3543,22.64404],[76.35425,22.64384],[76.35325,22.64406],[76.35317,22.64381],[76.35174,22.64301],[76.35197,22.64216],[76.35216,22.64205],[76.3519,22.64115],[76.35171,22.6412],[76.35137,22.64062],[76.35101,22.64058],[76.35085,22.64019],[76.35103,22.63973],[76.35148,22.63968],[76.35186,22.63987],[76.3521,22.6401],[76.35202,22.6406],[76.35263,22.64068],[76.35298,22.64012],[76.35274,22.63917],[76.35233,22.63915],[76.35189,22.6385],[76.35043,22.63935],[76.35054,22.63963],[76.35073,22.63968],[76.3503,22.6402],[76.35044,22.64032],[76.35034,22.6414],[76.34992,22.64143],[76.35007,22.64217],[76.35039,22.64219],[76.35011,22.64298],[76.35057,22.64313],[76.35059,22.6433],[76.35111,22.64331],[76.35109,22.64362],[76.35173,22.64357]]]}}]}