{"type":"FeatureCollection","features":[{"type":"Feature","bbox":[75.99247,23.71466,76.0043,23.72452],"properties":{"ward":1,"name":"Sanjay Gandhi Ward"},"geometry":{"type":"Polygon","coordinates":[[[75.99527,23.72452],[75.99944,23.72064],[76.0043,23.71783],[76.00404,23.7166],[76.00271,23.71509],[76.00177,23.71481],[75.99647,23.71466],[75.99443,23.71501],[75.99247,23.71595],[75.99444,23.72037],[75.99516,23.72117],[75.99495,23.72147],[75.99507,23.72211],[75.99474,23.72301],[75.9949,23.72322],[75.99432,23.72396],[75.99527,23.72452]]]}},{"type":"Feature","bbox":[76.00307,23.7144,76.00872,23.71783],"properties":{"ward":2,"name":"Lal Bahadur Shastri Ward"},"geometry":{"type":"Polygon","coordinates":[[[76.0078,23.71715],[76.00832,23.71696],[76.00872,23.71656],[76.00688,23.71537],[76.00492,23.7144],[76.00307,23.71556],[76.00404,23.7166],[76.0043,23.71783],[76.00505,23.71752],[76.0078,23.71715]]]}},{"type":"Feature","bbox":[75.98543,23.67572,76.00492,23.71551],"properties":{"ward":3,"name":"Jay Prakash Narayan Ward"},"geometry":{"type":"Polygon","coordinates":[[[75.99062,23.70657],[75.99042,23.70888],[75.99054,23.70888],[75.99052,23.70926],[75.99211,23.70929],[75.99172,23.71263],[75.99233,23.71268],[75.99292,23.7141],[75.99241,23.71454],[75.99333,23.71545],[75.99487,23.71488],[75.99698,23.71464],[76.00211,23.71485],[76.00271,23.71509],[76.00316,23.71551],[76.00492,23.7144],[76.00319,23.71364],[76.00218,23.71277],[75.99936,23.70868],[75.99363,23.69992],[75.99114,23.6938],[75.9911,23.69311],[75.99139,23.6914],[75.99195,23.69021],[75.9931,23.68841],[75.99423,23.68562],[75.99529,23.68093],[75.99504,23.67748],[75.99432,23.67572],[75.99371,23.67584],[75.99383,23.67819],[75.99322,23.67871],[75.99352,23.68071],[75.99347,23.68216],[75.99326,23.68242],[75.99274,23.68254],[75.99291,23.68376],[75.99276,23.68471],[75.99227,23.68513],[75.99195,23.68576],[75.99156,23.68715],[75.99086,23.68773],[75.9903,23.68972],[75.99026,23.69128],[75.98908,23.69137],[75.98802,23.69124],[75.98712,23.6915],[75.98723,23.69353],[75.98755,23.6946],[75.99114,23.69681],[75.98993,23.69922],[75.99038,23.69936],[75.9902,23.69978],[75.99086,23.7],[75.99079,23.70021],[75.99148,23.70039],[75.99142,23.70141],[75.98839,23.70107],[75.98818,23.7016],[75.98744,23.70252],[75.98543,23.70412],[75.99019,23.70575],[75.98988,23.70667],[75.99062,23.70657]]]}},{"type":"Feature","bbox":[76.00196,23.71234,76.01368,23.71751],"properties":{"ward":4,"name":"Chandra Shekhar Ajad Ward"},"geometry":{"type":"Polygon","coordinates":[[[76.01272,23.71234],[76.01047,23.71316],[76.00973,23.71297],[76.00786,23.71366],[76.0033,23.71262],[76.00196,23.71249],[76.00319,23.71364],[76.00622,23.71501],[76.00983,23.71725],[76.01106,23.71751],[76.01093,23.71721],[76.01102,23.71698],[76.01218,23.71657],[76.01177,23.71559],[76.01216,23.71544],[76.01305,23.71549],[76.01368,23.71526],[76.01325,23.71382],[76.0135,23.71377],[76.01357,23.71331],[76.01327,23.71339],[76.01316,23.71313],[76.01333,23.71305],[76.01327,23.71291],[76.01309,23.71302],[76.01272,23.71234]]]}},{"type":"Feature","bbox":[75.99109,23.68016,76.01662,23.71366],"properties":{"ward":5,"name":"Rafi Ahamad Kidwai Ward"},"geometry":{"type":"Polygon","coordinates":[[[76.01336,23.71113],[76.01382,23.71078],[76.01404,23.71028],[76.01466,23.70978],[76.01454,23.70972],[76.01463,23.70956],[76.01547,23.70902],[76.01564,23.70841],[76.0158,23.70833],[76.0146,23.70736],[76.01409,23.70718],[76.01392,23.70689],[76.01417,23.70675],[76.01436,23.70631],[76.01502,23.70606],[76.01574,23.70517],[76.01662,23.70174],[76.01619,23.69962],[76.01531,23.69702],[76.01514,23.69575],[76.01573,23.69176],[76.01582,23.68899],[76.01517,23.68906],[76.01366,23.68851],[76.01092,23.68584],[76.00933,23.68511],[76.00763,23.68469],[76.00522,23.6845],[76.00274,23.68376],[75.99819,23.68331],[75.9965,23.68204],[75.9963,23.68172],[75.99631,23.68134],[75.99598,23.68098],[75.99579,23.68042],[75.99533,23.68016],[75.99529,23.68094],[75.99439,23.68519],[75.9931,23.68841],[75.99156,23.69094],[75.99126,23.69192],[75.99109,23.69331],[75.99137,23.69448],[75.99392,23.70043],[76.00196,23.71249],[76.0033,23.71262],[76.00786,23.71366],[76.00973,23.71297],[76.01047,23.71316],[76.01259,23.71243],[76.01207,23.71166],[76.01336,23.71113]]]}},{"type":"Feature","bbox":[76.01207,23.7067,76.01678,23.71285],"properties":{"ward":6,"name":"Swami Viveka Nand Ward"},"geometry":{"type":"Polygon","coordinates":[[[76.01368,23.71094],[76.01207,23.71166],[76.01261,23.71241],[76.01283,23.7123],[76.01311,23.71272],[76.01375,23.71285],[76.01376,23.71234],[76.01453,23.71207],[76.01439,23.71185],[76.01458,23.71177],[76.0145,23.71131],[76.01436,23.71136],[76.01425,23.7111],[76.01438,23.71075],[76.0148,23.71046],[76.01536,23.71057],[76.01591,23.71045],[76.01624,23.70876],[76.01678,23.70851],[76.01665,23.70827],[76.01594,23.70841],[76.01562,23.70805],[76.01476,23.70743],[76.01418,23.7067],[76.01392,23.70689],[76.01406,23.70716],[76.0146,23.70736],[76.0158,23.70833],[76.01564,23.70841],[76.01547,23.70902],[76.01463,23.70956],[76.01454,23.70972],[76.01466,23.70978],[76.01394,23.71039],[76.01368,23.71094]]]}},{"type":"Feature","bbox":[76.01272,23.71177,76.01825,23.71526],"properties":{"ward":7,"name":"Jyoti Ba Fule Ward"},"geometry":{"type":"Polygon","coordinates":[[[76.01584,23.71336],[76.01547,23.71296],[76.0155,23.71274],[76.0147,23.71273],[76.01458,23.71177],[76.01439,23.71185],[76.01453,23.71207],[76.01376,23.71234],[76.01375,23.71285],[76.01311,23.71272],[76.01283,23.7123],[76.01272,23.71234],[76.01309,23.71302],[76.01327,23.71291],[76.01333,23.71305],[76.01316,23.71313],[76.01327,23.71339],[76.01357,23.71331],[76.0135,23.71377],[76.01325,23.71382],[76.01368,23.71526],[76.01401,23.71523],[76.01377,23.71463],[76.01418,23.71449],[76.01413,23.71418],[76.01559,23.71414],[76.01593,23.71373],[76.01685,23.71342],[76.01779,23.71339],[76.01816,23.71386],[76.01825,23.71373],[76.01787,23.71313],[76.01635,23.71314],[76.01584,23.71336]]]}},{"type":"Feature","bbox":[76.01425,23.71046,76.01605,23.71273],"properties":{"ward":8,"name":"Jawahar Lal Nehru Ward"},"geometry":{"type":"Polygon","coordinates":[[[76.0145,23.71131],[76.0147,23.71273],[76.01597,23.71266],[76.01605,23.71248],[76.01586,23.71242],[76.01559,23.71173],[76.01531,23.71162],[76.01529,23.71131],[76.0153,23.71111],[76.01549,23.71099],[76.01539,23.7108],[76.01589,23.71046],[76.01536,23.71057],[76.0148,23.71046],[76.01438,23.71075],[76.01425,23.7111],[76.01436,23.71136],[76.0145,23.71131]]]}},{"type":"Feature","bbox":[76.01529,23.71054,76.01803,23.71336],"properties":{"ward":9,"name":"Dr. Jakir Husen Ward"},"geometry":{"type":"Polygon","coordinates":[[[76.01584,23.71336],[76.01635,23.71314],[76.01781,23.71315],[76.01803,23.71289],[76.01785,23.71256],[76.01696,23.71242],[76.01679,23.71263],[76.01638,23.71256],[76.01639,23.71166],[76.0159,23.71054],[76.01539,23.7108],[76.01549,23.71099],[76.0153,23.71111],[76.01529,23.71131],[76.01531,23.71162],[76.01559,23.71173],[76.01586,23.71242],[76.01605,23.7125],[76.01597,23.71266],[76.01545,23.71283],[76.01584,23.71336]]]}},{"type":"Feature","bbox":[76.01589,23.71034,76.01785,23.71263],"properties":{"ward":10,"name":"Dr- Rajendra Prashad Ward"},"geometry":{"type":"Polygon","coordinates":[[[76.01785,23.71256],[76.0172,23.71034],[76.01589,23.71045],[76.01639,23.71166],[76.01638,23.71256],[76.01679,23.71263],[76.01696,23.71242],[76.01785,23.71256]]]}},{"type":"Feature","bbox":[76.01591,23.70855,76.018,23.71045],"properties":{"ward":11,"name":"Saradar Bhagat Singh Ward"},"geometry":{"type":"Polygon","coordinates":[[[76.01591,23.71045],[76.018,23.71032],[76.01797,23.71],[76.01776,23.70953],[76.01733,23.70944],[76.01702,23.70864],[76.01649,23.70855],[76.01618,23.70893],[76.01591,23.71045]]]}},{"type":"Feature","bbox":[76.01418,23.68781,76.02934,23.7091],"properties":{"ward":12,"name":"Dr. Ambedkar Ward"},"geometry":{"type":"Polygon","coordinates":[[[76.01808,23.70894],[76.01808,23.70825],[76.01891,23.70829],[76.01927,23.7081],[76.0191,23.7067],[76.01877,23.70676],[76.01849,23.70727],[76.0181,23.7072],[76.01862,23.70694],[76.01841,23.7066],[76.01916,23.70589],[76.01965,23.7059],[76.02112,23.70547],[76.02173,23.70476],[76.02238,23.70449],[76.02296,23.70327],[76.02302,23.70284],[76.02632,23.7014],[76.02857,23.7008],[76.02885,23.69978],[76.02933,23.69959],[76.02934,23.69938],[76.02876,23.69899],[76.02766,23.69901],[76.02749,23.69891],[76.0274,23.69826],[76.02681,23.69788],[76.02537,23.69748],[76.02463,23.69149],[76.02408,23.68976],[76.02379,23.68966],[76.02336,23.68901],[76.0213,23.68852],[76.02072,23.68852],[76.02007,23.68799],[76.01894,23.68798],[76.01831,23.68781],[76.01748,23.68794],[76.01585,23.68782],[76.01574,23.69162],[76.01514,23.69575],[76.01531,23.69702],[76.01619,23.69962],[76.01662,23.70174],[76.01591,23.70485],[76.01502,23.70606],[76.01436,23.70631],[76.01418,23.70671],[76.01476,23.70743],[76.01594,23.70841],[76.01622,23.70827],[76.01673,23.7083],[76.01728,23.7091],[76.01808,23.70894]]]}},{"type":"Feature","bbox":[76.01728,23.70825,76.01887,23.71032],"properties":{"ward":13,"name":"Saradar Wallabh Bhai Ward"},"geometry":{"type":"Polygon","coordinates":[[[76.018,23.71032],[76.01887,23.71031],[76.01875,23.70828],[76.01808,23.70825],[76.01811,23.70894],[76.01728,23.7091],[76.01736,23.70947],[76.01779,23.70957],[76.018,23.71032]]]}},{"type":"Feature","bbox":[76.01811,23.70047,76.03196,23.71331],"properties":{"ward":14,"name":"Molana Azad Ward"},"geometry":{"type":"Polygon","coordinates":[[[76.01865,23.71331],[76.02062,23.71249],[76.02279,23.71191],[76.02093,23.71025],[76.02145,23.71002],[76.02203,23.71012],[76.02263,23.71001],[76.02369,23.70907],[76.02435,23.70902],[76.02498,23.70867],[76.02554,23.70867],[76.02567,23.70836],[76.0281,23.70635],[76.02892,23.70617],[76.0294,23.7063],[76.03196,23.70635],[76.03125,23.70465],[76.03032,23.70072],[76.02928,23.70047],[76.02872,23.70077],[76.02632,23.7014],[76.02302,23.70284],[76.02296,23.70327],[76.02238,23.70449],[76.02173,23.70476],[76.02112,23.70547],[76.01965,23.7059],[76.01916,23.70589],[76.01841,23.7066],[76.01862,23.70694],[76.01811,23.70726],[76.01849,23.70727],[76.01877,23.70676],[76.0191,23.7067],[76.01927,23.7081],[76.01875,23.70828],[76.01887,23.71031],[76.01823,23.71033],[76.01825,23.71048],[76.01857,23.71103],[76.0186,23.71162],[76.01903,23.71134],[76.01951,23.7118],[76.0199,23.7125],[76.01859,23.71301],[76.01865,23.71331]]]}},{"type":"Feature","bbox":[76.0172,23.71033,76.0199,23.71337],"properties":{"ward":15,"name":"Netaji Subhash Chandra Boss Ward"},"geometry":{"type":"Polygon","coordinates":[[[76.01865,23.71331],[76.01859,23.71301],[76.0199,23.7125],[76.01951,23.7118],[76.01903,23.71134],[76.0186,23.71162],[76.01857,23.71103],[76.01823,23.71033],[76.0172,23.71034],[76.01803,23.71285],[76.01782,23.71318],[76.01793,23.71337],[76.01865,23.71331]]]}},{"type":"Feature","bbox":[76.01793,23.70061,76.03797,23.71483],"properties":{"ward":16,"name":"Mahatama Gandhi Ward"},"geometry":{"type":"Polygon","coordinates":[[[76.0203,23.71477],[76.02131,23.71459],[76.02293,23.71394],[76.02428,23.71392],[76.0248,23.71349],[76.02469,23.71321],[76.02757,23.7139],[76.02839,23.7144],[76.02885,23.71386],[76.0287,23.71372],[76.0294,23.71255],[76.03006,23.71226],[76.0306,23.71232],[76.03086,23.71262],[76.03161,23.7122],[76.03163,23.71198],[76.03224,23.71194],[76.03189,23.71126],[76.03264,23.71083],[76.0334,23.71065],[76.0334,23.71049],[76.03376,23.71049],[76.03364,23.7101],[76.03324,23.70966],[76.03344,23.70955],[76.03523,23.70885],[76.03547,23.70947],[76.03606,23.70932],[76.0368,23.70985],[76.03797,23.70977],[76.03772,23.70864],[76.03646,23.70832],[76.03645,23.70801],[76.03617,23.70766],[76.03648,23.70739],[76.0366,23.70688],[76.03648,23.70644],[76.03608,23.70611],[76.03444,23.70607],[76.03473,23.7041],[76.03575,23.70391],[76.0351,23.70061],[76.03168,23.70126],[76.03171,23.70177],[76.03196,23.70221],[76.03074,23.7026],[76.03125,23.70465],[76.03196,23.70635],[76.0294,23.7063],[76.02892,23.70617],[76.0283,23.70627],[76.02567,23.70836],[76.02554,23.70867],[76.02498,23.70867],[76.02435,23.70902],[76.02369,23.70907],[76.02263,23.71001],[76.02203,23.71012],[76.02145,23.71002],[76.02093,23.71025],[76.02279,23.71191],[76.02062,23.71249],[76.01858,23.71333],[76.01793,23.71337],[76.01853,23.71393],[76.01879,23.71483],[76.01915,23.71463],[76.01984,23.71459],[76.0203,23.71477]]]}},{"type":"Feature","bbox":[76.01854,23.71321,76.04288,23.73848],"properties":{"ward":17,"name":"Ganeshdatt Sharam Ward"},"geometry":{"type":"Polygon","coordinates":[[[76.0187,23.71669],[76.02002,23.71956],[76.01945,23.71987],[76.01854,23.71995],[76.01871,23.72093],[76.02116,23.7232],[76.02829,23.73044],[76.03279,23.73848],[76.034,23.73812],[76.03525,23.73812],[76.03606,23.73748],[76.03628,23.73783],[76.03723,23.73784],[76.03852,23.73746],[76.03995,23.73689],[76.04112,23.73607],[76.04288,23.73544],[76.04253,23.73482],[76.04221,23.73461],[76.04047,23.73385],[76.03869,23.73336],[76.03738,23.73235],[76.03472,23.73212],[76.03472,23.7313],[76.03499,23.73058],[76.03491,23.72978],[76.03508,23.72938],[76.03494,23.72856],[76.03456,23.72853],[76.03447,23.72823],[76.03483,23.72722],[76.03403,23.72732],[76.03368,23.72718],[76.03204,23.72343],[76.03183,23.72343],[76.03112,23.72193],[76.03079,23.72211],[76.03083,23.72176],[76.03042,23.7203],[76.0296,23.71844],[76.02902,23.718],[76.02981,23.71673],[76.03057,23.71593],[76.03001,23.71542],[76.02771,23.71395],[76.02469,23.71321],[76.0248,23.71349],[76.02423,23.71394],[76.02293,23.71394],[76.02131,23.71459],[76.02029,23.71477],[76.01984,23.71459],[76.01894,23.71473],[76.01879,23.71483],[76.01896,23.71596],[76.0187,23.71669]]]}},{"type":"Feature","bbox":[76.01093,23.71373,76.01897,23.71772],"properties":{"ward":18,"name":"Mahatama Gandhi Ward"},"geometry":{"type":"Polygon","coordinates":[[[76.01218,23.71657],[76.01102,23.71698],[76.01093,23.71721],[76.01106,23.71751],[76.01312,23.71772],[76.0143,23.71766],[76.01483,23.71723],[76.0148,23.71638],[76.01491,23.71628],[76.0166,23.71624],[76.01723,23.71602],[76.01897,23.71583],[76.01866,23.7142],[76.01825,23.71373],[76.0176,23.7148],[76.01632,23.71487],[76.01611,23.71471],[76.01546,23.71485],[76.01436,23.71549],[76.01393,23.71552],[76.01385,23.71589],[76.01269,23.71596],[76.01262,23.71544],[76.01216,23.71544],[76.01177,23.71559],[76.01218,23.71657]]]}},{"type":"Feature","bbox":[76.00983,23.7162,76.01865,23.71995],"properties":{"ward":19,"name":"Ganesh Datt Indra Ward"},"geometry":{"type":"Polygon","coordinates":[[[76.01865,23.71995],[76.01837,23.7179],[76.01661,23.7179],[76.01669,23.7162],[76.01483,23.71632],[76.01483,23.71723],[76.0143,23.71766],[76.01312,23.71772],[76.01123,23.71755],[76.00983,23.71725],[76.01037,23.71806],[76.01339,23.71905],[76.01525,23.71893],[76.01865,23.71995]]]}},{"type":"Feature","bbox":[76.01661,23.71583,76.02002,23.71995],"properties":{"ward":20,"name":"Khudi Ram Boss Ward"},"geometry":{"type":"Polygon","coordinates":[[[76.0187,23.71669],[76.01897,23.71583],[76.01681,23.71611],[76.01669,23.7162],[76.01661,23.7179],[76.01837,23.7179],[76.01865,23.71995],[76.01943,23.71987],[76.02002,23.71956],[76.0187,23.71669]]]}},{"type":"Feature","bbox":[76.01181,23.72093,76.03028,23.74091],"properties":{"ward":21,"name":"Rani Laxmi Ward"},"geometry":{"type":"Polygon","coordinates":[[[76.02706,23.73993],[76.02601,23.7378],[76.0251,23.73545],[76.03028,23.7339],[76.02829,23.73044],[76.02116,23.7232],[76.01871,23.72093],[76.01871,23.72143],[76.01762,23.72305],[76.016,23.72504],[76.01589,23.72544],[76.016,23.72613],[76.01735,23.72839],[76.01767,23.72962],[76.01725,23.73027],[76.01442,23.73199],[76.01275,23.73432],[76.01246,23.73503],[76.01237,23.7363],[76.01181,23.73852],[76.0156,23.73927],[76.0174,23.73939],[76.01992,23.7404],[76.02073,23.74039],[76.02133,23.74069],[76.02245,23.74089],[76.02442,23.74074],[76.02468,23.74091],[76.02572,23.74072],[76.0262,23.74061],[76.02628,23.74036],[76.02706,23.73993]]]}},{"type":"Feature","bbox":[76.00734,23.71656,76.01872,23.73455],"properties":{"ward":22,"name":"Tatya Tope Ward"},"geometry":{"type":"Polygon","coordinates":[[[76.01056,23.73435],[76.01262,23.73455],[76.01433,23.73207],[76.01511,23.73147],[76.01725,23.73027],[76.01766,23.72964],[76.01735,23.72839],[76.016,23.72614],[76.01588,23.72546],[76.016,23.72504],[76.01762,23.72305],[76.01871,23.72143],[76.01872,23.72045],[76.01864,23.72008],[76.01844,23.7199],[76.01536,23.71895],[76.01339,23.71905],[76.01037,23.71806],[76.00983,23.71725],[76.00872,23.71656],[76.00832,23.71696],[76.0078,23.71715],[76.00734,23.71783],[76.00766,23.72319],[76.00749,23.72549],[76.00788,23.72693],[76.00905,23.72689],[76.00906,23.72907],[76.00884,23.73034],[76.00832,23.73163],[76.00845,23.73271],[76.00813,23.73387],[76.00921,23.73334],[76.0097,23.73327],[76.00982,23.73332],[76.0098,23.73367],[76.00955,23.7343],[76.01054,23.73453],[76.01056,23.73435]]]}},{"type":"Feature","bbox":[75.9964,23.71715,76.00788,23.72699],"properties":{"ward":23,"name":"Vir Shivaji Ward"},"geometry":{"type":"Polygon","coordinates":[[[76.00164,23.72532],[76.00242,23.72441],[76.00458,23.72352],[76.00388,23.72487],[76.00402,23.72529],[76.00477,23.7257],[76.00608,23.7257],[76.00696,23.72699],[76.00788,23.72693],[76.00749,23.72549],[76.00765,23.72256],[76.00735,23.71873],[76.00734,23.71783],[76.0078,23.71715],[76.00505,23.71752],[76.00433,23.71781],[75.99944,23.72064],[75.9964,23.72335],[75.99651,23.72592],[75.99938,23.72613],[75.99979,23.7253],[76.00069,23.72548],[76.00164,23.72532]]]}}]}