{"type":"FeatureCollection","features":[{"type":"Feature","bbox":[75.83172,22.97357,75.83666,22.97862],"properties":{"ward":1},"geometry":{"type":"Polygon","coordinates":[[[75.83225,22.97737],[75.83172,22.97784],[75.83263,22.97817],[75.83316,22.97862],[75.83421,22.97824],[75.83495,22.97748],[75.83549,22.97717],[75.83546,22.97704],[75.83662,22.9769],[75.83666,22.97525],[75.83637,22.97527],[75.83633,22.9751],[75.83533,22.97515],[75.83542,22.97425],[75.83569,22.97357],[75.83523,22.9736],[75.83479,22.97654],[75.83416,22.9765],[75.83409,22.97678],[75.83289,22.97653],[75.83288,22.97631],[75.83319,22.97632],[75.83319,22.97607],[75.83283,22.97605],[75.83273,22.97548],[75.83231,22.97552],[75.83225,22.97737]]]}},{"type":"Feature","bbox":[75.8315,22.97204,75.84126,22.98381],"properties":{"ward":2},"geometry":{"type":"Polygon","coordinates":[[[75.83938,22.97204],[75.83963,22.97375],[75.83939,22.97462],[75.8383,22.97455],[75.83823,22.97525],[75.8367,22.97528],[75.83664,22.97691],[75.83547,22.97705],[75.83549,22.97717],[75.83497,22.97748],[75.83422,22.97824],[75.83316,22.97864],[75.83229,22.97804],[75.83172,22.97786],[75.8315,22.97799],[75.83232,22.97847],[75.83244,22.97889],[75.83203,22.9791],[75.83266,22.98007],[75.83271,22.97959],[75.83343,22.97938],[75.83451,22.97987],[75.8357,22.98086],[75.83546,22.98121],[75.83747,22.9827],[75.83829,22.98381],[75.83854,22.98355],[75.83807,22.98292],[75.83795,22.98246],[75.83743,22.98187],[75.83747,22.98145],[75.83691,22.98127],[75.83765,22.98054],[75.83799,22.98063],[75.83827,22.98017],[75.83799,22.97971],[75.83743,22.97955],[75.83743,22.97906],[75.83753,22.97893],[75.83772,22.979],[75.83827,22.97842],[75.83914,22.97849],[75.83918,22.97813],[75.83808,22.97769],[75.83842,22.9773],[75.84123,22.9777],[75.84126,22.97745],[75.84103,22.97514],[75.8405,22.97375],[75.83938,22.97204]]]}},{"type":"Feature","bbox":[75.82886,22.97755,75.83569,22.99048],"properties":{"ward":3},"geometry":{"type":"Polygon","coordinates":[[[75.83374,22.99048],[75.83403,22.98933],[75.8339,22.98861],[75.83414,22.98858],[75.83388,22.98746],[75.83372,22.98746],[75.83363,22.98675],[75.83391,22.98671],[75.83368,22.98424],[75.83447,22.98323],[75.83465,22.98325],[75.83484,22.98256],[75.83542,22.98255],[75.83569,22.98141],[75.83544,22.98121],[75.83568,22.98086],[75.83449,22.97988],[75.83345,22.97938],[75.83273,22.9796],[75.83265,22.9801],[75.83203,22.97911],[75.83243,22.97889],[75.83231,22.97848],[75.83141,22.97804],[75.83083,22.97755],[75.82936,22.97869],[75.82929,22.97931],[75.82958,22.97927],[75.82886,22.9808],[75.82904,22.98087],[75.82962,22.98001],[75.82988,22.97909],[75.83149,22.97963],[75.83133,22.98002],[75.83162,22.98018],[75.83202,22.98086],[75.83251,22.98086],[75.8327,22.98455],[75.83207,22.98467],[75.83204,22.98516],[75.83298,22.98508],[75.83346,22.98803],[75.83315,22.98809],[75.8332,22.98857],[75.83221,22.98874],[75.83222,22.98932],[75.83291,22.98927],[75.83296,22.99006],[75.83077,22.98961],[75.83075,22.98996],[75.8329,22.99048],[75.83374,22.99048]]]}},{"type":"Feature","bbox":[75.82698,22.97437,75.83083,22.97919],"properties":{"ward":4},"geometry":{"type":"Polygon","coordinates":[[[75.82806,22.9765],[75.82722,22.97755],[75.82698,22.97919],[75.82947,22.97811],[75.83012,22.97747],[75.83068,22.97773],[75.83083,22.97754],[75.83016,22.97725],[75.83001,22.97598],[75.82909,22.97437],[75.82772,22.97479],[75.82776,22.97631],[75.82806,22.9765]]]}},{"type":"Feature","bbox":[75.82758,22.97245,75.82909,22.97479],"properties":{"ward":5},"geometry":{"type":"Polygon","coordinates":[[[75.82758,22.97368],[75.82772,22.97479],[75.82807,22.97478],[75.82909,22.97437],[75.82874,22.97352],[75.82879,22.97247],[75.82772,22.97245],[75.8276,22.97312],[75.82776,22.97349],[75.82758,22.97368]]]}},{"type":"Feature","bbox":[75.82711,22.96934,75.82926,22.97247],"properties":{"ward":6},"geometry":{"type":"Polygon","coordinates":[[[75.82711,22.97225],[75.82713,22.97243],[75.82879,22.97247],[75.82926,22.97126],[75.82901,22.97081],[75.82904,22.97046],[75.82869,22.96934],[75.82842,22.97062],[75.82817,22.97081],[75.82823,22.97118],[75.82806,22.97163],[75.82765,22.97186],[75.82772,22.97221],[75.82711,22.97225]]]}},{"type":"Feature","bbox":[75.82629,22.96163,75.83442,22.97225],"properties":{"ward":7},"geometry":{"type":"Polygon","coordinates":[[[75.82689,22.97122],[75.82711,22.97225],[75.82772,22.97221],[75.82765,22.97186],[75.82799,22.97177],[75.82823,22.97118],[75.82816,22.97081],[75.82842,22.97062],[75.82869,22.96934],[75.82927,22.96786],[75.83085,22.96535],[75.83388,22.96399],[75.83442,22.96326],[75.83247,22.96163],[75.83161,22.96226],[75.8273,22.96841],[75.82642,22.96932],[75.82629,22.9698],[75.8265,22.97068],[75.82689,22.97122]]]}},{"type":"Feature","bbox":[75.82651,22.9715,75.82776,22.97443],"properties":{"ward":8},"geometry":{"type":"Polygon","coordinates":[[[75.82713,22.97243],[75.82695,22.9715],[75.82651,22.9718],[75.82659,22.9721],[75.82681,22.9721],[75.82692,22.97359],[75.8271,22.97415],[75.82732,22.97414],[75.82766,22.97443],[75.82758,22.97368],[75.82776,22.97327],[75.8276,22.97312],[75.82772,22.97245],[75.82713,22.97243]]]}},{"type":"Feature","bbox":[75.82506,22.95779,75.83788,22.97376],"properties":{"ward":9},"geometry":{"type":"Polygon","coordinates":[[[75.82536,22.97276],[75.82506,22.97342],[75.82582,22.97349],[75.8259,22.97376],[75.82649,22.97357],[75.82605,22.97296],[75.82606,22.97268],[75.82636,22.97242],[75.82638,22.97213],[75.82659,22.9721],[75.82653,22.97167],[75.82695,22.9715],[75.82651,22.97068],[75.82629,22.9698],[75.82642,22.96932],[75.82749,22.96814],[75.8316,22.96227],[75.83331,22.96116],[75.83371,22.96135],[75.83395,22.96105],[75.83375,22.9609],[75.8376,22.95824],[75.83788,22.95779],[75.83658,22.95877],[75.83533,22.95849],[75.83517,22.95891],[75.83574,22.95915],[75.83545,22.95947],[75.83423,22.95891],[75.83379,22.95954],[75.8329,22.95921],[75.83122,22.95912],[75.83079,22.95928],[75.83064,22.95977],[75.83105,22.96174],[75.83083,22.96207],[75.83064,22.96345],[75.83005,22.96341],[75.82958,22.96364],[75.82957,22.96419],[75.82673,22.96406],[75.82669,22.96427],[75.8269,22.96449],[75.82711,22.96521],[75.82725,22.96818],[75.8264,22.96829],[75.82641,22.96868],[75.82564,22.96876],[75.8256,22.96949],[75.82612,22.96948],[75.82648,22.97119],[75.8254,22.97181],[75.82536,22.97276]]]}},{"type":"Feature","bbox":[75.82387,22.9721,75.8271,22.97469],"properties":{"ward":10},"geometry":{"type":"Polygon","coordinates":[[[75.82474,22.97385],[75.8239,22.97423],[75.82387,22.97444],[75.82417,22.97467],[75.82484,22.97469],[75.82488,22.97457],[75.82548,22.97461],[75.82553,22.97419],[75.82592,22.97417],[75.82622,22.97424],[75.82648,22.97455],[75.82695,22.97466],[75.8271,22.97405],[75.82689,22.97343],[75.82698,22.97302],[75.82681,22.9721],[75.82637,22.97212],[75.82636,22.97242],[75.82606,22.97268],[75.82604,22.97296],[75.82649,22.97358],[75.82589,22.97377],[75.82582,22.97349],[75.82505,22.97342],[75.82474,22.97385]]]}},{"type":"Feature","bbox":[75.82548,22.97417,75.8268,22.9751],"properties":{"ward":11},"geometry":{"type":"Polygon","coordinates":[[[75.82548,22.97467],[75.82607,22.97481],[75.8263,22.97502],[75.82661,22.97497],[75.82665,22.9751],[75.8268,22.97466],[75.82592,22.97417],[75.82553,22.97419],[75.82548,22.97467]]]}},{"type":"Feature","bbox":[75.82625,22.97414,75.82782,22.9764],"properties":{"ward":12},"geometry":{"type":"Polygon","coordinates":[[[75.82782,22.9764],[75.82767,22.97443],[75.82732,22.97414],[75.8271,22.97415],[75.82708,22.97447],[75.8268,22.97466],[75.8266,22.97524],[75.82639,22.97522],[75.82625,22.97595],[75.82782,22.9764]]]}},{"type":"Feature","bbox":[75.82104,22.96966,75.8251,22.97401],"properties":{"ward":13},"geometry":{"type":"Polygon","coordinates":[[[75.82104,22.96966],[75.82105,22.96994],[75.82129,22.97018],[75.82122,22.97111],[75.82144,22.97172],[75.82156,22.97354],[75.82243,22.974],[75.82272,22.97401],[75.82365,22.97388],[75.82452,22.97353],[75.8251,22.97225],[75.82501,22.97189],[75.82439,22.97136],[75.82301,22.97134],[75.82277,22.97117],[75.82268,22.97059],[75.82234,22.96998],[75.82215,22.96983],[75.82104,22.96966]]]}},{"type":"Feature","bbox":[75.81742,22.96957,75.82143,22.97333],"properties":{"ward":14},"geometry":{"type":"Polygon","coordinates":[[[75.82102,22.96994],[75.82102,22.96966],[75.82064,22.96957],[75.82056,22.96977],[75.82025,22.96971],[75.82019,22.97007],[75.8208,22.97023],[75.82064,22.97066],[75.82038,22.97067],[75.82033,22.97113],[75.82046,22.97135],[75.81931,22.97162],[75.81916,22.97159],[75.81913,22.97126],[75.8188,22.97129],[75.81856,22.97189],[75.81834,22.97191],[75.81825,22.97229],[75.81742,22.97202],[75.82143,22.97333],[75.8212,22.97112],[75.82126,22.9702],[75.82102,22.96994]]]}}]}