{"type":"FeatureCollection","features":[{"type":"Feature","bbox":[75.80145,23.79173,75.80768,23.80252],"properties":{"ward":1,"name":"Subhash Ward"},"geometry":{"type":"Polygon","coordinates":[[[75.80346,23.80252],[75.8051,23.80071],[75.80768,23.79644],[75.80596,23.79173],[75.80428,23.7921],[75.80433,23.79225],[75.80376,23.79251],[75.80147,23.79329],[75.80173,23.79568],[75.80145,23.79623],[75.80238,23.79827],[75.80269,23.7994],[75.80233,23.7998],[75.80294,23.80098],[75.80328,23.80225],[75.80346,23.80252]]]}},{"type":"Feature","bbox":[75.79719,23.76468,75.81454,23.79329],"properties":{"ward":2,"name":"Mhatma Gnadhi Ward"},"geometry":{"type":"Polygon","coordinates":[[[75.80596,23.79173],[75.80171,23.78073],[75.80171,23.77916],[75.8025,23.77814],[75.81454,23.76611],[75.8143,23.76531],[75.81383,23.76468],[75.81286,23.76469],[75.81115,23.76509],[75.8085,23.76502],[75.80821,23.76672],[75.80636,23.76685],[75.80621,23.76786],[75.80635,23.76861],[75.80462,23.76909],[75.8046,23.7704],[75.8012,23.77081],[75.8017,23.77343],[75.80044,23.77374],[75.79997,23.77494],[75.79962,23.77528],[75.79926,23.77683],[75.79882,23.77756],[75.79887,23.7803],[75.79827,23.78135],[75.79818,23.78245],[75.79775,23.78288],[75.79771,23.78331],[75.79813,23.78666],[75.79912,23.78679],[75.79925,23.78838],[75.79722,23.78844],[75.79719,23.78983],[75.79775,23.79114],[75.8013,23.79106],[75.80147,23.79329],[75.80376,23.79251],[75.80433,23.79225],[75.80428,23.7921],[75.80596,23.79173]]]}},{"type":"Feature","bbox":[75.80341,23.789,75.81176,23.80403],"properties":{"ward":3,"name":"Dr Jakir Husain Ward"},"geometry":{"type":"Polygon","coordinates":[[[75.81123,23.79399],[75.81118,23.7935],[75.81096,23.79331],[75.80934,23.79391],[75.8084,23.79345],[75.80857,23.79302],[75.8097,23.79223],[75.81018,23.79132],[75.81029,23.79072],[75.80995,23.79048],[75.80918,23.79031],[75.80808,23.79074],[75.8084,23.78992],[75.80841,23.78929],[75.80786,23.78927],[75.80757,23.789],[75.80703,23.78919],[75.80695,23.78984],[75.80643,23.79004],[75.80534,23.79013],[75.80769,23.79639],[75.8051,23.80071],[75.80356,23.80247],[75.80341,23.80302],[75.80354,23.80359],[75.80479,23.80389],[75.80682,23.80403],[75.80788,23.804],[75.80836,23.80379],[75.80865,23.80322],[75.80876,23.80241],[75.80953,23.80198],[75.80936,23.80013],[75.80963,23.79982],[75.8097,23.79936],[75.81011,23.7986],[75.81124,23.79726],[75.81123,23.7964],[75.81176,23.79572],[75.81156,23.79542],[75.81086,23.79531],[75.81054,23.79501],[75.81056,23.79471],[75.81123,23.79399]]]}},{"type":"Feature","bbox":[75.80808,23.78965,75.81074,23.79074],"properties":{"ward":4,"name":"Shyama Prasad Mukharji Ward"},"geometry":{"type":"Polygon","coordinates":[[[75.80913,23.79032],[75.80995,23.79048],[75.81029,23.79072],[75.81049,23.79062],[75.81074,23.78989],[75.80984,23.78968],[75.80891,23.78986],[75.80844,23.78965],[75.80808,23.79074],[75.80913,23.79032]]]}},{"type":"Feature","bbox":[75.80844,23.78899,75.81107,23.7939],"properties":{"ward":5,"name":"Pandit Jawahar Lal Nehru Ward"},"geometry":{"type":"Polygon","coordinates":[[[75.80929,23.7939],[75.81107,23.79034],[75.81107,23.78984],[75.81075,23.78986],[75.81052,23.78908],[75.81004,23.78916],[75.80985,23.78899],[75.80965,23.78922],[75.8094,23.78929],[75.80937,23.7891],[75.80893,23.7893],[75.80894,23.78942],[75.80845,23.78935],[75.80844,23.78965],[75.80891,23.78986],[75.80984,23.78968],[75.81074,23.78989],[75.8097,23.79223],[75.80857,23.79302],[75.80844,23.7935],[75.80929,23.7939]]]}},{"type":"Feature","bbox":[75.80807,23.78835,75.81051,23.78942],"properties":{"ward":6,"name":"Chandra Shekhar Ward"},"geometry":{"type":"Polygon","coordinates":[[[75.81051,23.78907],[75.81048,23.78861],[75.81028,23.78857],[75.80892,23.78893],[75.80902,23.78838],[75.80878,23.78835],[75.80834,23.78847],[75.80831,23.78906],[75.80807,23.7891],[75.80808,23.78927],[75.80894,23.78942],[75.80893,23.7893],[75.80937,23.7891],[75.8094,23.78929],[75.80985,23.78899],[75.81004,23.78916],[75.81051,23.78907]]]}},{"type":"Feature","bbox":[75.80802,23.78778,75.81079,23.78893],"properties":{"ward":7,"name":"Ambedkar Ward"},"geometry":{"type":"Polygon","coordinates":[[[75.81048,23.78861],[75.81079,23.78804],[75.81067,23.78782],[75.80961,23.78778],[75.80921,23.78799],[75.80802,23.78804],[75.80818,23.78825],[75.80806,23.7885],[75.80902,23.78838],[75.80892,23.78893],[75.80995,23.78858],[75.81048,23.78861]]]}},{"type":"Feature","bbox":[75.80171,23.76852,75.81302,23.79013],"properties":{"ward":8,"name":"Lal Bhadur Shastri Ward"},"geometry":{"type":"Polygon","coordinates":[[[75.80808,23.78927],[75.80807,23.7891],[75.80831,23.78906],[75.80835,23.78854],[75.80806,23.7885],[75.80818,23.78825],[75.80802,23.78804],[75.80921,23.78799],[75.80891,23.78751],[75.80906,23.7867],[75.80896,23.78562],[75.80927,23.78514],[75.80969,23.78517],[75.81042,23.78468],[75.81027,23.78431],[75.80904,23.78422],[75.8084,23.78388],[75.80845,23.78322],[75.80897,23.78195],[75.80901,23.78098],[75.80939,23.78053],[75.80997,23.78053],[75.81068,23.7809],[75.81121,23.78065],[75.81096,23.7801],[75.81127,23.77987],[75.81172,23.77997],[75.81184,23.77975],[75.81215,23.77968],[75.81185,23.77941],[75.8127,23.77881],[75.81302,23.77797],[75.81254,23.77487],[75.8129,23.77256],[75.81268,23.76966],[75.81211,23.76852],[75.8025,23.77814],[75.80171,23.77916],[75.80171,23.78073],[75.80534,23.79013],[75.80643,23.79004],[75.80695,23.78984],[75.80703,23.78919],[75.80757,23.789],[75.80786,23.78927],[75.80808,23.78927]]]}},{"type":"Feature","bbox":[75.80891,23.78586,75.81204,23.78804],"properties":{"ward":9,"name":"Sanjay Gandhi Ward"},"geometry":{"type":"Polygon","coordinates":[[[75.81204,23.7873],[75.81144,23.78612],[75.81083,23.78616],[75.81015,23.78644],[75.80892,23.78586],[75.80906,23.7867],[75.80891,23.78751],[75.8092,23.78791],[75.81008,23.78776],[75.81067,23.78782],[75.81079,23.78804],[75.81204,23.7873]]]}},{"type":"Feature","bbox":[75.81121,23.78971,75.8136,23.79237],"properties":{"ward":10,"name":"Sardar Bhagat Singh Ward"},"geometry":{"type":"Polygon","coordinates":[[[75.81329,23.79213],[75.8134,23.79137],[75.8136,23.79117],[75.81346,23.79016],[75.81204,23.79039],[75.812,23.78971],[75.81124,23.78977],[75.81121,23.79116],[75.81222,23.79121],[75.81238,23.79237],[75.81329,23.79213]]]}},{"type":"Feature","bbox":[75.812,23.78907,75.8174,23.79358],"properties":{"ward":11,"name":"Rajiv Gandhi Ward"},"geometry":{"type":"Polygon","coordinates":[[[75.8174,23.79051],[75.8164,23.79003],[75.81586,23.78948],[75.81497,23.78944],[75.81357,23.78907],[75.81334,23.78954],[75.81342,23.78972],[75.81289,23.78989],[75.812,23.78971],[75.81202,23.79039],[75.81346,23.79016],[75.8136,23.79117],[75.8134,23.79137],[75.81329,23.79215],[75.81404,23.79218],[75.81447,23.79274],[75.81453,23.79308],[75.81513,23.79358],[75.81643,23.79318],[75.81664,23.79172],[75.81684,23.7916],[75.81695,23.79113],[75.8174,23.79051]]]}},{"type":"Feature","bbox":[75.80929,23.78862,75.81495,23.7939],"properties":{"ward":12,"name":"Indra Gandhi Ward"},"geometry":{"type":"Polygon","coordinates":[[[75.81073,23.7933],[75.81074,23.79302],[75.81238,23.79237],[75.81222,23.79121],[75.81118,23.79112],[75.81124,23.78977],[75.812,23.78971],[75.81296,23.78988],[75.81342,23.78972],[75.81334,23.78954],[75.81357,23.78907],[75.81495,23.78943],[75.81494,23.78901],[75.81441,23.78893],[75.81444,23.78912],[75.8141,23.78913],[75.81412,23.78898],[75.81434,23.78895],[75.81422,23.78863],[75.81342,23.78862],[75.81327,23.7887],[75.81326,23.78908],[75.81303,23.78912],[75.81304,23.78933],[75.81281,23.78951],[75.81197,23.7892],[75.81191,23.78933],[75.81148,23.78934],[75.81133,23.78966],[75.81108,23.78973],[75.81099,23.7906],[75.80929,23.7939],[75.81073,23.7933]]]}},{"type":"Feature","bbox":[75.81149,23.78473,75.81873,23.79044],"properties":{"ward":13,"name":"Radha Krashna Ward"},"geometry":{"type":"Polygon","coordinates":[[[75.81149,23.78615],[75.81206,23.78732],[75.81286,23.78749],[75.81279,23.78806],[75.81293,23.78833],[75.81344,23.7887],[75.81422,23.78863],[75.81434,23.78895],[75.81412,23.78898],[75.8141,23.78913],[75.81444,23.78912],[75.81441,23.78893],[75.81494,23.789],[75.81495,23.78943],[75.81586,23.78948],[75.81629,23.78995],[75.81695,23.79029],[75.81743,23.79044],[75.81741,23.78982],[75.81873,23.78885],[75.81869,23.78732],[75.81835,23.78735],[75.8183,23.78703],[75.81773,23.78721],[75.81674,23.78719],[75.81681,23.78546],[75.81596,23.78537],[75.81555,23.78551],[75.81553,23.78531],[75.81434,23.78506],[75.81449,23.78484],[75.81323,23.78473],[75.81311,23.78501],[75.8125,23.78477],[75.81186,23.78545],[75.81149,23.78615]]]}},{"type":"Feature","bbox":[75.81067,23.78799,75.81336,23.78986],"properties":{"ward":14,"name":"Shivaj Ward"},"geometry":{"type":"Polygon","coordinates":[[[75.81107,23.78984],[75.81148,23.78934],[75.81191,23.78933],[75.81197,23.7892],[75.81224,23.7892],[75.81221,23.78934],[75.81271,23.78951],[75.81295,23.78944],[75.81303,23.78912],[75.81326,23.78908],[75.81336,23.78853],[75.81288,23.78828],[75.8128,23.788],[75.81241,23.78799],[75.8124,23.78838],[75.81167,23.78861],[75.81162,23.78906],[75.81111,23.78915],[75.81105,23.7894],[75.81067,23.78953],[75.81075,23.78986],[75.81107,23.78984]]]}},{"type":"Feature","bbox":[75.81049,23.7873,75.81286,23.78953],"properties":{"ward":15,"name":"Rani Laxmi Bai Ward"},"geometry":{"type":"Polygon","coordinates":[[[75.81109,23.78931],[75.81111,23.78915],[75.81162,23.78906],[75.81167,23.78861],[75.81241,23.78837],[75.81241,23.78799],[75.8128,23.788],[75.81286,23.78749],[75.81204,23.7873],[75.81079,23.78804],[75.81049,23.78855],[75.81049,23.789],[75.81067,23.78953],[75.81109,23.78931]]]}}]}