{"type":"FeatureCollection","features":[{"type":"Feature","bbox":[76.06503,22.17806,76.07359,22.18966],"properties":{"ward":1,"name":"Bhagat Singh Ward"},"geometry":{"type":"Polygon","coordinates":[[[76.06884,22.18944],[76.0695,22.18819],[76.07009,22.18827],[76.07154,22.18462],[76.07283,22.18128],[76.07359,22.17881],[76.07305,22.17857],[76.07136,22.17806],[76.07023,22.17955],[76.0691,22.18132],[76.06805,22.18511],[76.06764,22.18714],[76.06617,22.18856],[76.06503,22.18925],[76.0667,22.18942],[76.06707,22.18966],[76.06884,22.18944]]]}},{"type":"Feature","bbox":[76.07136,22.17376,76.07488,22.17881],"properties":{"ward":2,"name":"Gurunanak Ward"},"geometry":{"type":"Polygon","coordinates":[[[76.07136,22.17806],[76.07359,22.17881],[76.07488,22.17531],[76.0732,22.17376],[76.07285,22.1743],[76.07275,22.17588],[76.07136,22.17806]]]}},{"type":"Feature","bbox":[76.07198,22.16138,76.08666,22.17531],"properties":{"ward":3,"name":"Dr Ambedkar Ward"},"geometry":{"type":"Polygon","coordinates":[[[76.08666,22.16247],[76.08567,22.16215],[76.08458,22.16202],[76.08373,22.16138],[76.08267,22.16211],[76.0821,22.1632],[76.08171,22.16346],[76.08003,22.1637],[76.07793,22.16453],[76.07589,22.16413],[76.07439,22.16587],[76.07229,22.1674],[76.07198,22.16792],[76.07212,22.16866],[76.07268,22.16954],[76.07323,22.1698],[76.07465,22.16988],[76.07521,22.17035],[76.07513,22.17107],[76.0732,22.17376],[76.07488,22.17531],[76.07651,22.17094],[76.07757,22.16902],[76.07861,22.16784],[76.08312,22.16458],[76.08666,22.16247]]]}},{"type":"Feature","bbox":[76.07295,22.16974,76.07521,22.17236],"properties":{"ward":4,"name":"Moulana Azad Ward"},"geometry":{"type":"Polygon","coordinates":[[[76.07295,22.16974],[76.07314,22.17052],[76.07308,22.17162],[76.07363,22.17162],[76.07424,22.17236],[76.07513,22.17107],[76.07521,22.17035],[76.07465,22.16988],[76.07295,22.16974]]]}},{"type":"Feature","bbox":[76.07093,22.16945,76.07314,22.17162],"properties":{"ward":5,"name":"Tilak Ward"},"geometry":{"type":"Polygon","coordinates":[[[76.07308,22.17162],[76.07314,22.17052],[76.07295,22.16974],[76.07261,22.16945],[76.07193,22.17013],[76.07178,22.1708],[76.07124,22.17077],[76.07093,22.17109],[76.07094,22.17154],[76.07308,22.17162]]]}},{"type":"Feature","bbox":[76.07094,22.17154,76.07424,22.17376],"properties":{"ward":6,"name":"Nehru Ward"},"geometry":{"type":"Polygon","coordinates":[[[76.07424,22.17236],[76.07363,22.17162],[76.07094,22.17154],[76.07094,22.17238],[76.07191,22.17255],[76.0732,22.17376],[76.07424,22.17236]]]}},{"type":"Feature","bbox":[76.06903,22.16413,76.07589,22.17238],"properties":{"ward":7,"name":"Laxmi Bai Ward"},"geometry":{"type":"Polygon","coordinates":[[[76.07261,22.16945],[76.07212,22.16866],[76.07204,22.16772],[76.07439,22.16587],[76.07589,22.16413],[76.0693,22.16457],[76.06928,22.16772],[76.06903,22.16901],[76.0698,22.16927],[76.0707,22.17117],[76.07067,22.17149],[76.07018,22.17174],[76.07002,22.17213],[76.07094,22.17238],[76.07093,22.17109],[76.07124,22.17077],[76.07178,22.1708],[76.07193,22.17013],[76.07261,22.16945]]]}},{"type":"Feature","bbox":[76.06885,22.16901,76.0707,22.172],"properties":{"ward":8,"name":"Danveer Mayachand Ward"},"geometry":{"type":"Polygon","coordinates":[[[76.06903,22.16901],[76.06885,22.17041],[76.06899,22.1713],[76.07003,22.172],[76.07018,22.17174],[76.07067,22.17149],[76.0707,22.17117],[76.0698,22.16927],[76.06903,22.16901]]]}},{"type":"Feature","bbox":[76.06654,22.16466,76.06928,22.17041],"properties":{"ward":9,"name":"Dr Lohiya Ward"},"geometry":{"type":"Polygon","coordinates":[[[76.06928,22.16466],[76.06717,22.16485],[76.06732,22.16538],[76.06737,22.16824],[76.06678,22.16848],[76.06654,22.1702],[76.06885,22.17041],[76.06928,22.16772],[76.06928,22.16466]]]}},{"type":"Feature","bbox":[76.06554,22.16981,76.07002,22.17242],"properties":{"ward":10,"name":"Subhas Ward"},"geometry":{"type":"Polygon","coordinates":[[[76.07002,22.17213],[76.06988,22.17186],[76.06908,22.17145],[76.06883,22.17038],[76.0665,22.1702],[76.06565,22.16981],[76.06554,22.16988],[76.06563,22.17024],[76.0661,22.17047],[76.0658,22.17148],[76.0696,22.17242],[76.07002,22.17213]]]}},{"type":"Feature","bbox":[76.06143,22.16485,76.06737,22.17143],"properties":{"ward":11,"name":"Balwant Ward"},"geometry":{"type":"Polygon","coordinates":[[[76.06717,22.16485],[76.06555,22.16508],[76.06526,22.16747],[76.06472,22.16986],[76.06143,22.16978],[76.0617,22.17057],[76.06587,22.17143],[76.0661,22.17047],[76.06563,22.17024],[76.06554,22.16988],[76.06565,22.16981],[76.06654,22.1702],[76.06678,22.16848],[76.06737,22.16824],[76.06732,22.16538],[76.06717,22.16485]]]}},{"type":"Feature","bbox":[76.04859,22.16221,76.06555,22.16989],"properties":{"ward":12,"name":"Lal Bahadur Sastri Ward"},"geometry":{"type":"Polygon","coordinates":[[[76.06555,22.16508],[76.06109,22.16425],[76.05927,22.16443],[76.05869,22.16423],[76.05733,22.16332],[76.05586,22.16332],[76.05537,22.16265],[76.05465,22.16227],[76.05401,22.16279],[76.05352,22.16417],[76.05303,22.16421],[76.05278,22.16401],[76.05223,22.16261],[76.05195,22.16231],[76.05147,22.16221],[76.04999,22.16318],[76.04859,22.16462],[76.04895,22.16566],[76.04894,22.16617],[76.06143,22.16978],[76.0638,22.16989],[76.06472,22.16986],[76.06526,22.16747],[76.06555,22.16508]]]}},{"type":"Feature","bbox":[76.04894,22.16617,76.06171,22.17151],"properties":{"ward":13,"name":"Chandrasekhar Azad Ward"},"geometry":{"type":"Polygon","coordinates":[[[76.06143,22.16978],[76.05047,22.16653],[76.04894,22.16617],[76.04902,22.16745],[76.04968,22.1705],[76.05197,22.17086],[76.05236,22.17115],[76.05394,22.17138],[76.05897,22.17151],[76.06064,22.17116],[76.06161,22.17077],[76.06171,22.17051],[76.06143,22.16978]]]}},{"type":"Feature","bbox":[76.06086,22.17057,76.06892,22.18353],"properties":{"ward":14,"name":"Chatrapati Shivaji Ward"},"geometry":{"type":"Polygon","coordinates":[[[76.06892,22.18193],[76.06679,22.18157],[76.06676,22.18078],[76.06605,22.18061],[76.06591,22.17989],[76.06539,22.17976],[76.06571,22.17584],[76.06685,22.17602],[76.06762,22.17199],[76.06403,22.17096],[76.0617,22.17057],[76.06151,22.17137],[76.06153,22.17412],[76.06134,22.17476],[76.06102,22.17513],[76.06086,22.17675],[76.06095,22.17751],[76.0623,22.18198],[76.06544,22.18285],[76.06657,22.18332],[76.06845,22.18353],[76.06892,22.18193]]]}},{"type":"Feature","bbox":[76.06539,22.17199,76.0732,22.18193],"properties":{"ward":15,"name":"Goswami Tulsidas Ward"},"geometry":{"type":"Polygon","coordinates":[[[76.07252,22.17638],[76.07283,22.17554],[76.07285,22.1743],[76.0732,22.17376],[76.07208,22.17269],[76.07002,22.17213],[76.0696,22.17242],[76.06762,22.17199],[76.06685,22.17602],[76.06571,22.17584],[76.06539,22.17976],[76.06591,22.17989],[76.06605,22.18061],[76.06676,22.18078],[76.06679,22.18157],[76.06892,22.18193],[76.06927,22.18095],[76.07252,22.17638]]]}},{"type":"Feature","bbox":[76.04968,22.1705,76.06845,22.18941],"properties":{"ward":16,"name":"Swami Vivekanad Ward"},"geometry":{"type":"Polygon","coordinates":[[[76.06503,22.18925],[76.06617,22.18856],[76.06764,22.18714],[76.06845,22.18353],[76.06657,22.18332],[76.06544,22.18285],[76.0623,22.18198],[76.06095,22.17751],[76.06086,22.17675],[76.06102,22.17513],[76.06134,22.17476],[76.06153,22.17412],[76.06161,22.17077],[76.06064,22.17116],[76.05897,22.17151],[76.05573,22.1715],[76.05287,22.17125],[76.05236,22.17115],[76.05197,22.17086],[76.04968,22.1705],[76.04988,22.17163],[76.0505,22.17307],[76.0508,22.17417],[76.05056,22.17507],[76.05003,22.17613],[76.05,22.1844],[76.05469,22.18557],[76.05689,22.18785],[76.05653,22.18941],[76.05799,22.18915],[76.06312,22.18902],[76.06411,22.18901],[76.06503,22.18925]]]}},{"type":"Feature","bbox":[76.07009,22.17531,76.08837,22.19003],"properties":{"ward":17,"name":"Sanjay Ward"},"geometry":{"type":"Polygon","coordinates":[[[76.08581,22.18626],[76.08581,22.1846],[76.08688,22.1845],[76.08837,22.18382],[76.08784,22.18317],[76.08493,22.18189],[76.08348,22.18025],[76.08113,22.17859],[76.08032,22.17774],[76.07878,22.17674],[76.0772,22.17595],[76.07488,22.17531],[76.07398,22.17761],[76.07283,22.18128],[76.07009,22.18827],[76.07459,22.18888],[76.07517,22.18911],[76.07548,22.18961],[76.07753,22.1897],[76.07854,22.19003],[76.07946,22.18943],[76.0787,22.18762],[76.08084,22.18809],[76.08167,22.18812],[76.08257,22.1856],[76.08581,22.18626]]]}},{"type":"Feature","bbox":[76.07488,22.16247,76.09178,22.18382],"properties":{"ward":18,"name":"Mahatma Gandhi Ward"},"geometry":{"type":"Polygon","coordinates":[[[76.07488,22.17531],[76.0772,22.17595],[76.07878,22.17674],[76.08032,22.17774],[76.08113,22.17859],[76.08348,22.18025],[76.08493,22.18189],[76.08784,22.18317],[76.08837,22.18382],[76.08899,22.18376],[76.08953,22.18255],[76.09087,22.18274],[76.09122,22.17995],[76.0911,22.17739],[76.09178,22.17446],[76.09173,22.17381],[76.08864,22.16733],[76.08846,22.16553],[76.08804,22.16429],[76.08713,22.16283],[76.08666,22.16247],[76.08312,22.16458],[76.07861,22.16784],[76.07757,22.16902],[76.07651,22.17094],[76.07488,22.17531]]]}}]}