{"type":"FeatureCollection","features":[{"type":"Feature","bbox":[75.52776,23.75625,75.55315,23.77342],"properties":{"ward":1,"name":"Jagdeganj Ward"},"geometry":{"type":"Polygon","coordinates":[[[75.55075,23.76915],[75.55169,23.76659],[75.55173,23.76584],[75.55212,23.76556],[75.55139,23.76386],[75.55239,23.76351],[75.55234,23.76341],[75.55269,23.76325],[75.55249,23.76287],[75.55315,23.76277],[75.55309,23.76227],[75.54268,23.76759],[75.53067,23.75629],[75.53004,23.75625],[75.52827,23.75749],[75.52776,23.75765],[75.52899,23.7579],[75.53078,23.75862],[75.53284,23.75999],[75.5351,23.76216],[75.5356,23.76292],[75.5329,23.76442],[75.53476,23.76612],[75.53526,23.76628],[75.53695,23.76613],[75.5375,23.7675],[75.53856,23.7682],[75.54119,23.76743],[75.54746,23.77342],[75.54981,23.77097],[75.55098,23.76952],[75.55075,23.76915]]]}},{"type":"Feature","bbox":[75.55075,23.76237,75.55634,23.77062],"properties":{"ward":2,"name":"Bhabhipura Ward"},"geometry":{"type":"Polygon","coordinates":[[[75.55511,23.76494],[75.55522,23.76492],[75.55546,23.76372],[75.55421,23.76343],[75.55408,23.76237],[75.55311,23.76241],[75.55315,23.76277],[75.55249,23.76287],[75.55269,23.76325],[75.55234,23.76341],[75.55239,23.76351],[75.55139,23.76386],[75.55212,23.76556],[75.55173,23.76584],[75.55167,23.76665],[75.55075,23.76921],[75.55162,23.77062],[75.55226,23.77002],[75.55421,23.76888],[75.55634,23.76798],[75.55539,23.76676],[75.55511,23.76494]]]}},{"type":"Feature","bbox":[75.55309,23.76211,75.55557,23.76371],"properties":{"ward":3,"name":"Rukmani Ganj Ward"},"geometry":{"type":"Polygon","coordinates":[[[75.5555,23.76371],[75.55557,23.76211],[75.55309,23.76227],[75.55311,23.76241],[75.55408,23.76237],[75.55421,23.76343],[75.5555,23.76371]]]}},{"type":"Feature","bbox":[75.5555,23.76211,75.55668,23.76477],"properties":{"ward":4,"name":"Naya Bazar Ward"},"geometry":{"type":"Polygon","coordinates":[[[75.55666,23.76319],[75.55668,23.76224],[75.55557,23.76211],[75.5555,23.76371],[75.55566,23.76385],[75.55573,23.76477],[75.5563,23.76469],[75.5561,23.76386],[75.55612,23.76319],[75.55666,23.76319]]]}},{"type":"Feature","bbox":[75.5551,23.76297,75.55736,23.76693],"properties":{"ward":5,"name":"Uparli Toli Ward"},"geometry":{"type":"Polygon","coordinates":[[[75.55656,23.76669],[75.55633,23.76468],[75.55707,23.7646],[75.55705,23.76415],[75.55736,23.76386],[75.55721,23.7633],[75.55694,23.763],[75.5567,23.76297],[75.55666,23.76319],[75.55612,23.76319],[75.5561,23.76386],[75.5563,23.76469],[75.55573,23.76477],[75.55565,23.7638],[75.55546,23.76372],[75.55522,23.76492],[75.5551,23.76489],[75.55522,23.76618],[75.55548,23.76693],[75.55656,23.76669]]]}},{"type":"Feature","bbox":[75.55548,23.764,75.56665,23.77011],"properties":{"ward":6,"name":"Harijan Mohalal Ward"},"geometry":{"type":"Polygon","coordinates":[[[75.55952,23.77011],[75.56406,23.76972],[75.5659,23.76979],[75.5664,23.77002],[75.56656,23.76946],[75.56621,23.76868],[75.56635,23.76783],[75.56662,23.76754],[75.56665,23.76705],[75.56634,23.76703],[75.56622,23.76687],[75.56623,23.76669],[75.56644,23.76666],[75.56642,23.7664],[75.5661,23.76602],[75.5659,23.76628],[75.56581,23.76597],[75.56553,23.76581],[75.56543,23.76557],[75.56554,23.76532],[75.56511,23.76462],[75.55982,23.76475],[75.5589,23.7646],[75.5588,23.76524],[75.55821,23.76508],[75.55745,23.76533],[75.55727,23.764],[75.55705,23.76415],[75.55707,23.7646],[75.55633,23.76468],[75.55656,23.76669],[75.55548,23.76693],[75.55634,23.76798],[75.55682,23.77011],[75.55952,23.77011]]]}},{"type":"Feature","bbox":[75.55711,23.76314,75.5589,23.76533],"properties":{"ward":7,"name":"Junabazar Ward"},"geometry":{"type":"Polygon","coordinates":[[[75.55834,23.76509],[75.5588,23.76524],[75.5589,23.76403],[75.55864,23.76329],[75.55711,23.76314],[75.55736,23.76367],[75.55727,23.764],[75.55745,23.76533],[75.55834,23.76509]]]}},{"type":"Feature","bbox":[75.55833,23.75926,75.56604,23.76475],"properties":{"ward":8,"name":"Khudwai Mohalla Ward"},"geometry":{"type":"Polygon","coordinates":[[[75.55982,23.76475],[75.56516,23.76462],[75.56604,23.76425],[75.56593,23.76329],[75.56572,23.76295],[75.56519,23.76297],[75.56508,23.76268],[75.56448,23.76292],[75.56406,23.76257],[75.56426,23.76141],[75.56417,23.76074],[75.56371,23.76018],[75.56307,23.75979],[75.56288,23.75931],[75.56219,23.75926],[75.56153,23.75957],[75.56095,23.76049],[75.56043,23.76084],[75.5587,23.76118],[75.55833,23.76232],[75.55889,23.76396],[75.55889,23.76461],[75.55982,23.76475]]]}},{"type":"Feature","bbox":[75.5567,23.7622,75.55858,23.7633],"properties":{"ward":9,"name":"Darga Mohalla Ward"},"geometry":{"type":"Polygon","coordinates":[[[75.55835,23.76234],[75.55674,23.7622],[75.5567,23.76297],[75.55733,23.76325],[75.55858,23.7633],[75.55835,23.76234]]]}},{"type":"Feature","bbox":[75.5548,23.75391,75.55962,23.76232],"properties":{"ward":10,"name":"Bohara Bakhal Ward"},"geometry":{"type":"Polygon","coordinates":[[[75.5563,23.76219],[75.55833,23.76232],[75.55871,23.76115],[75.5596,23.76102],[75.55962,23.76055],[75.55906,23.76028],[75.55935,23.75907],[75.5592,23.75885],[75.55917,23.7581],[75.55898,23.75804],[75.55848,23.75834],[75.55809,23.75814],[75.55795,23.75672],[75.55682,23.75683],[75.55663,23.75589],[75.55578,23.75591],[75.55555,23.75394],[75.5548,23.75391],[75.55532,23.75917],[75.5551,23.76078],[75.5565,23.76091],[75.5563,23.76219]]]}},{"type":"Feature","bbox":[75.5533,23.76072,75.5565,23.76218],"properties":{"ward":11,"name":"Ranipura Ward"},"geometry":{"type":"Polygon","coordinates":[[[75.5563,23.76211],[75.5565,23.76091],[75.5551,23.76078],[75.55491,23.76164],[75.5535,23.76096],[75.5533,23.76072],[75.55331,23.76218],[75.5563,23.76211]]]}},{"type":"Feature","bbox":[75.54488,23.75311,75.55555,23.76391],"properties":{"ward":12,"name":"Anjuman Coloni Ward"},"geometry":{"type":"Polygon","coordinates":[[[75.54985,23.76391],[75.55331,23.76218],[75.5533,23.76072],[75.5535,23.76096],[75.55491,23.76164],[75.55532,23.75927],[75.5548,23.75391],[75.55555,23.75394],[75.55547,23.75353],[75.5533,23.75352],[75.54952,23.75311],[75.54616,23.75337],[75.54521,23.75369],[75.54488,23.75396],[75.54561,23.7545],[75.54542,23.75507],[75.54503,23.75522],[75.54507,23.75617],[75.54605,23.75703],[75.54647,23.75795],[75.54637,23.76086],[75.54607,23.76113],[75.54615,23.76286],[75.5482,23.76327],[75.54947,23.76324],[75.54985,23.76391]]]}},{"type":"Feature","bbox":[75.53057,23.74617,75.54985,23.76759],"properties":{"ward":13,"name":"Pramiganj Ward"},"geometry":{"type":"Polygon","coordinates":[[[75.54951,23.76332],[75.5482,23.76327],[75.54615,23.76286],[75.54607,23.76113],[75.54637,23.76086],[75.54646,23.75789],[75.54605,23.75703],[75.54519,23.75638],[75.54504,23.75602],[75.54503,23.75522],[75.54542,23.75507],[75.54561,23.7545],[75.54408,23.7534],[75.53534,23.74815],[75.53393,23.74653],[75.53318,23.74617],[75.53209,23.74617],[75.5319,23.74726],[75.5321,23.74887],[75.53287,23.7504],[75.5325,23.75137],[75.53244,23.75218],[75.53196,23.75378],[75.53058,23.75523],[75.53057,23.75624],[75.54268,23.76759],[75.54985,23.76391],[75.54951,23.76332]]]}},{"type":"Feature","bbox":[75.53913,23.77115,75.54746,23.78056],"properties":{"ward":14,"name":"Pramiganj Ward"},"geometry":{"type":"Polygon","coordinates":[[[75.5414,23.78056],[75.54197,23.78024],[75.54268,23.78027],[75.54377,23.77996],[75.54419,23.77906],[75.54483,23.77874],[75.54485,23.77838],[75.54527,23.77754],[75.5466,23.77709],[75.54736,23.77618],[75.54733,23.77394],[75.54746,23.77342],[75.54507,23.77115],[75.54471,23.77153],[75.54288,23.77555],[75.54303,23.77655],[75.54324,23.77657],[75.54299,23.77787],[75.54241,23.77777],[75.54217,23.77819],[75.54159,23.7784],[75.54131,23.77831],[75.54121,23.77792],[75.54087,23.77788],[75.54051,23.77843],[75.53913,23.77945],[75.53986,23.7805],[75.5414,23.78056]]]}},{"type":"Feature","bbox":[75.53849,23.76743,75.54507,23.77939],"properties":{"ward":15,"name":"Vikramgarh Ward"},"geometry":{"type":"Polygon","coordinates":[[[75.5391,23.77939],[75.54051,23.77843],[75.54087,23.77788],[75.54121,23.77792],[75.54131,23.77831],[75.54159,23.7784],[75.54217,23.77819],[75.54241,23.77777],[75.54299,23.77787],[75.54324,23.77657],[75.54303,23.77655],[75.54288,23.77555],[75.54471,23.77153],[75.54507,23.77115],[75.54119,23.76743],[75.53976,23.76775],[75.53913,23.76813],[75.53849,23.76818],[75.53959,23.77142],[75.53934,23.7722],[75.53935,23.77491],[75.53916,23.7754],[75.5393,23.77577],[75.53903,23.77592],[75.53887,23.77633],[75.53887,23.77651],[75.5392,23.77676],[75.53887,23.77747],[75.53916,23.77861],[75.53922,23.77929],[75.5391,23.77939]]]}}]}