{"type":"FeatureCollection","features":[{"type":"Feature","bbox":[80.35904,23.85546,80.38671,23.88435],"properties":{"ward":1,"name":"Lokmanya Balgangadhar Tilak Ward"},"geometry":{"type":"Polygon","coordinates":[[[80.38671,23.88076],[80.38414,23.87705],[80.38375,23.87625],[80.38174,23.85546],[80.3786,23.85772],[80.37707,23.8595],[80.37211,23.86356],[80.37109,23.86548],[80.36968,23.86547],[80.36915,23.8634],[80.36848,23.86373],[80.36467,23.864],[80.36443,23.86521],[80.36449,23.86629],[80.36225,23.86664],[80.36156,23.86643],[80.36086,23.86558],[80.36037,23.8662],[80.35996,23.86711],[80.3601,23.86779],[80.3606,23.8683],[80.36019,23.86881],[80.36122,23.86937],[80.36121,23.86979],[80.35997,23.8697],[80.3598,23.86984],[80.35972,23.87169],[80.35941,23.87328],[80.35914,23.87387],[80.35904,23.87555],[80.36053,23.87547],[80.36356,23.8768],[80.36388,23.87678],[80.36463,23.87536],[80.36559,23.87592],[80.36644,23.87683],[80.36699,23.87696],[80.36758,23.87676],[80.37081,23.87655],[80.37118,23.87672],[80.37415,23.87693],[80.37419,23.87731],[80.37372,23.87751],[80.37373,23.87768],[80.37399,23.87835],[80.37418,23.87838],[80.37441,23.87913],[80.37946,23.88435],[80.3804,23.88397],[80.38121,23.88384],[80.38134,23.88395],[80.38198,23.88334],[80.38232,23.88334],[80.38259,23.88291],[80.38294,23.88272],[80.38456,23.88268],[80.38466,23.88243],[80.38521,23.88229],[80.385,23.88171],[80.38671,23.88076]]]}},{"type":"Feature","bbox":[80.38157,23.8529,80.41367,23.88076],"properties":{"ward":2,"name":"Birsa Munda Ward"},"geometry":{"type":"Polygon","coordinates":[[[80.41328,23.86482],[80.41352,23.86433],[80.41342,23.86377],[80.41309,23.86334],[80.41235,23.86333],[80.4118,23.86313],[80.41194,23.86198],[80.41243,23.86154],[80.41194,23.86106],[80.41093,23.86055],[80.41027,23.86061],[80.41002,23.86118],[80.40902,23.86121],[80.40659,23.86041],[80.40607,23.85955],[80.40499,23.8591],[80.40439,23.85922],[80.40361,23.85913],[80.4025,23.85775],[80.39936,23.85655],[80.39629,23.85756],[80.39557,23.8572],[80.39486,23.85603],[80.3932,23.85607],[80.39173,23.85635],[80.39062,23.85623],[80.39049,23.85586],[80.39073,23.85539],[80.39055,23.85504],[80.39028,23.855],[80.38993,23.85466],[80.38955,23.85476],[80.38932,23.85432],[80.38904,23.85452],[80.38875,23.85392],[80.38821,23.85419],[80.38796,23.85398],[80.38742,23.85397],[80.38716,23.85379],[80.38637,23.85378],[80.38616,23.85428],[80.38502,23.8539],[80.38465,23.85353],[80.38447,23.85291],[80.38234,23.85341],[80.3821,23.85336],[80.3817,23.8529],[80.38157,23.85351],[80.38166,23.85476],[80.38375,23.87625],[80.38414,23.87705],[80.38671,23.88076],[80.38725,23.88028],[80.38746,23.88027],[80.38748,23.87969],[80.38821,23.87945],[80.38845,23.87921],[80.38909,23.8774],[80.38888,23.87702],[80.38895,23.87687],[80.38927,23.8769],[80.38939,23.87709],[80.38968,23.87695],[80.38995,23.87703],[80.39008,23.87678],[80.39064,23.8767],[80.39042,23.87638],[80.39069,23.87632],[80.39086,23.87648],[80.39163,23.87636],[80.39099,23.87579],[80.39116,23.87545],[80.39146,23.87557],[80.39155,23.87547],[80.39154,23.87476],[80.39177,23.87468],[80.39185,23.87436],[80.39231,23.87437],[80.3924,23.87393],[80.39163,23.87268],[80.39167,23.87253],[80.39208,23.87252],[80.39222,23.8723],[80.39215,23.87189],[80.39241,23.87194],[80.39253,23.87163],[80.3928,23.87164],[80.39311,23.87133],[80.39319,23.87193],[80.39428,23.8721],[80.39469,23.87201],[80.39482,23.8719],[80.39458,23.87161],[80.39464,23.87089],[80.39566,23.87037],[80.39622,23.87042],[80.39641,23.87024],[80.39634,23.87003],[80.39648,23.86981],[80.39723,23.86948],[80.39824,23.86919],[80.39861,23.86927],[80.39898,23.86879],[80.3992,23.86872],[80.39921,23.86844],[80.3999,23.86842],[80.39991,23.8681],[80.40016,23.86805],[80.40048,23.8684],[80.40025,23.86863],[80.4004,23.86878],[80.40039,23.86911],[80.40135,23.8692],[80.40242,23.86796],[80.40453,23.86804],[80.40551,23.86774],[80.40642,23.86809],[80.40662,23.86842],[80.40715,23.8686],[80.40748,23.86947],[80.40875,23.86957],[80.40912,23.8694],[80.40921,23.86914],[80.40978,23.86921],[80.40993,23.86894],[80.41039,23.86896],[80.41144,23.86915],[80.41173,23.86961],[80.41231,23.87009],[80.41286,23.86999],[80.41367,23.8694],[80.4136,23.86896],[80.4131,23.86833],[80.4126,23.868],[80.41236,23.86726],[80.41133,23.86633],[80.41106,23.86573],[80.41114,23.86528],[80.41178,23.86481],[80.41328,23.86482]]]}},{"type":"Feature","bbox":[80.36459,23.85128,80.38203,23.86548],"properties":{"ward":3,"name":"Lal Bahadur Shastri Ward"},"geometry":{"type":"Polygon","coordinates":[[[80.37211,23.86356],[80.37707,23.8595],[80.3786,23.85772],[80.38174,23.85546],[80.38159,23.85329],[80.38203,23.85172],[80.38162,23.85163],[80.38121,23.85128],[80.38045,23.85151],[80.37998,23.85187],[80.37845,23.85177],[80.37714,23.85204],[80.37669,23.85196],[80.37611,23.85152],[80.37517,23.85153],[80.37171,23.85319],[80.37053,23.85356],[80.36944,23.85462],[80.36591,23.85598],[80.36571,23.8573],[80.36586,23.85861],[80.36571,23.85897],[80.36589,23.85944],[80.36545,23.85979],[80.36562,23.86027],[80.36527,23.8606],[80.36497,23.86148],[80.36459,23.86427],[80.36467,23.864],[80.36848,23.86373],[80.36915,23.8634],[80.36968,23.86547],[80.37109,23.86548],[80.37211,23.86356]]]}},{"type":"Feature","bbox":[80.36362,23.83887,80.38511,23.85586],"properties":{"ward":4,"name":"Indira Gandhi Ward"},"geometry":{"type":"Polygon","coordinates":[[[80.36628,23.85586],[80.36944,23.85462],[80.37053,23.85356],[80.37171,23.85319],[80.37517,23.85153],[80.37611,23.85152],[80.37669,23.85196],[80.37714,23.85204],[80.37845,23.85177],[80.37998,23.85187],[80.38045,23.85151],[80.38121,23.85128],[80.38162,23.85163],[80.38203,23.85172],[80.38477,23.84207],[80.38511,23.8413],[80.38435,23.84119],[80.38262,23.8403],[80.38223,23.83956],[80.38141,23.83887],[80.37326,23.84566],[80.3731,23.84528],[80.36362,23.85317],[80.36444,23.85363],[80.36454,23.85352],[80.36487,23.85402],[80.36558,23.85361],[80.36622,23.85388],[80.36669,23.85338],[80.36738,23.85356],[80.36732,23.85389],[80.36776,23.85419],[80.36777,23.8545],[80.36702,23.85472],[80.36636,23.85467],[80.36628,23.85586]]]}},{"type":"Feature","bbox":[80.38134,23.83657,80.39486,23.85635],"properties":{"ward":5,"name":"Ram Manohar Lohiya Ward"},"geometry":{"type":"Polygon","coordinates":[[[80.38637,23.85378],[80.38796,23.85398],[80.38821,23.85419],[80.38875,23.85392],[80.38904,23.85452],[80.38932,23.85432],[80.38955,23.85476],[80.38993,23.85466],[80.39028,23.855],[80.39055,23.85504],[80.39073,23.85539],[80.39053,23.85605],[80.39091,23.85635],[80.39486,23.85603],[80.39479,23.85545],[80.39382,23.85439],[80.39309,23.85316],[80.39172,23.85293],[80.39089,23.85116],[80.39003,23.85028],[80.38947,23.84905],[80.38973,23.84828],[80.39024,23.84817],[80.39178,23.84858],[80.39277,23.8486],[80.39316,23.84841],[80.39355,23.84752],[80.39355,23.84705],[80.39303,23.84571],[80.39284,23.84544],[80.39231,23.84535],[80.39016,23.84606],[80.38936,23.84649],[80.38874,23.8464],[80.38864,23.84554],[80.39041,23.84552],[80.39059,23.84532],[80.39074,23.84435],[80.38983,23.84308],[80.38945,23.8419],[80.38872,23.84144],[80.38635,23.83928],[80.38578,23.83901],[80.38449,23.83928],[80.38421,23.83907],[80.3842,23.83865],[80.3848,23.8371],[80.38436,23.83657],[80.38134,23.83893],[80.38223,23.83956],[80.38262,23.8403],[80.38435,23.84119],[80.38511,23.8413],[80.38477,23.84207],[80.3817,23.8529],[80.3821,23.85336],[80.38234,23.85341],[80.38447,23.85291],[80.38465,23.85353],[80.38557,23.85417],[80.38616,23.85428],[80.38637,23.85378]]]}},{"type":"Feature","bbox":[80.37197,23.83245,80.38939,23.84566],"properties":{"ward":6,"name":"Chandrashekhar Azad Ward 6"},"geometry":{"type":"MultiPolygon","coordinates":[[[[80.37326,23.84566],[80.38436,23.83657],[80.38389,23.83616],[80.38238,23.83615],[80.3821,23.83602],[80.38206,23.83638],[80.38115,23.836],[80.38069,23.83505],[80.38053,23.83517],[80.3803,23.83688],[80.37965,23.83707],[80.37729,23.83657],[80.37658,23.8376],[80.37706,23.83805],[80.37725,23.83893],[80.37713,23.83962],[80.37632,23.84059],[80.3753,23.841],[80.37492,23.84098],[80.37338,23.84178],[80.37309,23.8428],[80.37197,23.84295],[80.37259,23.84559],[80.37307,23.84515],[80.37326,23.84566]]],[[[80.38436,23.83657],[80.3848,23.8371],[80.3842,23.83865],[80.38421,23.83907],[80.38449,23.83928],[80.38578,23.83901],[80.38662,23.83955],[80.38735,23.83864],[80.38747,23.83696],[80.38924,23.83493],[80.38939,23.83267],[80.38916,23.83245],[80.38436,23.83657]]]]}},{"type":"Feature","bbox":[80.38738,23.83622,80.39011,23.83923],"properties":{"ward":7,"name":"Ganesh Prasad Masurha Ward"},"geometry":{"type":"Polygon","coordinates":[[[80.38929,23.83923],[80.38902,23.83835],[80.39011,23.8377],[80.38968,23.83705],[80.38957,23.83622],[80.38791,23.83636],[80.38739,23.83718],[80.38738,23.83848],[80.38861,23.83921],[80.38929,23.83923]]]}},{"type":"Feature","bbox":[80.38844,23.83591,80.39326,23.84139],"properties":{"ward":8,"name":"Jalpa Devi Ward"},"geometry":{"type":"Polygon","coordinates":[[[80.39173,23.84139],[80.39157,23.84094],[80.39217,23.84031],[80.39229,23.83846],[80.39214,23.83809],[80.3924,23.83781],[80.39227,23.83766],[80.39326,23.83701],[80.39255,23.83591],[80.38957,23.83622],[80.38968,23.83705],[80.39011,23.8377],[80.38902,23.83835],[80.38929,23.83923],[80.38844,23.83913],[80.38848,23.83945],[80.38956,23.84113],[80.3909,23.84102],[80.39173,23.84139]]]}},{"type":"Feature","bbox":[80.39214,23.83701,80.39598,23.8403],"properties":{"ward":9,"name":"Mahatma Gandhi Ward"},"geometry":{"type":"Polygon","coordinates":[[[80.39218,23.8403],[80.39268,23.83999],[80.3945,23.83945],[80.39598,23.83928],[80.39552,23.83754],[80.39395,23.83772],[80.39352,23.83764],[80.39326,23.83701],[80.39227,23.83766],[80.3924,23.83781],[80.39214,23.83809],[80.39229,23.83846],[80.39218,23.8403]]]}},{"type":"Feature","bbox":[80.38662,23.83848,80.39714,23.84369],"properties":{"ward":10,"name":"Jai Prakash Ward"},"geometry":{"type":"Polygon","coordinates":[[[80.39714,23.84097],[80.3968,23.8389],[80.39594,23.83891],[80.39598,23.83928],[80.3945,23.83945],[80.39251,23.84006],[80.39157,23.84094],[80.39177,23.84144],[80.39098,23.84103],[80.38956,23.84113],[80.38893,23.84028],[80.38844,23.83913],[80.38738,23.83848],[80.38662,23.83955],[80.38872,23.84144],[80.38945,23.8419],[80.38983,23.84308],[80.39039,23.84369],[80.39097,23.84335],[80.39155,23.84334],[80.39196,23.84312],[80.39213,23.84335],[80.39267,23.84323],[80.39281,23.84276],[80.39252,23.84251],[80.39248,23.84154],[80.39714,23.84097]]]}},{"type":"Feature","bbox":[80.38857,23.84097,80.39936,23.85756],"properties":{"ward":11,"name":"Jagmohan Das Ward"},"geometry":{"type":"Polygon","coordinates":[[[80.398,23.84705],[80.39793,23.84583],[80.39811,23.8458],[80.39807,23.84545],[80.39828,23.8454],[80.39823,23.84384],[80.3978,23.84215],[80.39726,23.84217],[80.39714,23.84097],[80.39248,23.84154],[80.39252,23.84251],[80.39281,23.84276],[80.39267,23.84323],[80.39213,23.84335],[80.39196,23.84312],[80.39065,23.84351],[80.39039,23.84369],[80.39074,23.84435],[80.39054,23.8454],[80.38966,23.84559],[80.38864,23.84554],[80.38857,23.8457],[80.38874,23.8464],[80.38897,23.84651],[80.38936,23.84649],[80.39016,23.84606],[80.39231,23.84535],[80.39284,23.84544],[80.39303,23.84571],[80.39355,23.84705],[80.39355,23.84752],[80.39316,23.84841],[80.39277,23.8486],[80.39178,23.84858],[80.39024,23.84817],[80.38973,23.84828],[80.38947,23.84905],[80.39003,23.85028],[80.39089,23.85116],[80.39172,23.85293],[80.39309,23.85316],[80.39382,23.85439],[80.39479,23.85545],[80.39486,23.85603],[80.39557,23.8572],[80.39629,23.85756],[80.39936,23.85655],[80.3987,23.85435],[80.39851,23.85266],[80.3982,23.85253],[80.39812,23.85017],[80.39745,23.84734],[80.39787,23.84728],[80.398,23.84705]]]}},{"type":"Feature","bbox":[80.39696,23.83862,80.40399,23.85917],"properties":{"ward":12,"name":"Savarkar Ward"},"geometry":{"type":"Polygon","coordinates":[[[80.40393,23.85917],[80.40399,23.85655],[80.40354,23.85452],[80.40167,23.85035],[80.40111,23.84757],[80.40115,23.83967],[80.39868,23.83862],[80.39823,23.83938],[80.39696,23.83974],[80.39726,23.84217],[80.3978,23.84215],[80.39823,23.84384],[80.39828,23.8454],[80.39807,23.84545],[80.39811,23.8458],[80.39793,23.84583],[80.398,23.84705],[80.39787,23.84728],[80.39745,23.84734],[80.39812,23.85017],[80.3982,23.85253],[80.39851,23.85266],[80.39872,23.85445],[80.39936,23.85655],[80.4025,23.85775],[80.40361,23.85913],[80.40393,23.85917]]]}},{"type":"Feature","bbox":[80.40111,23.83967,80.41256,23.86154],"properties":{"ward":13,"name":"Venkat Ward"},"geometry":{"type":"Polygon","coordinates":[[[80.40115,23.83967],[80.40111,23.84757],[80.40167,23.85035],[80.40354,23.85452],[80.40399,23.85655],[80.40393,23.85917],[80.40499,23.8591],[80.40607,23.85955],[80.40659,23.86041],[80.40902,23.86121],[80.41002,23.86118],[80.41027,23.86061],[80.41093,23.86055],[80.41194,23.86106],[80.41243,23.86154],[80.41256,23.86111],[80.41229,23.86068],[80.41233,23.86025],[80.41188,23.8598],[80.41126,23.85981],[80.41094,23.85939],[80.40976,23.85968],[80.40921,23.85922],[80.41006,23.85878],[80.40924,23.85774],[80.40968,23.85752],[80.40947,23.85696],[80.40951,23.85659],[80.40907,23.85671],[80.40892,23.85652],[80.40927,23.8559],[80.40986,23.85563],[80.41005,23.85534],[80.40908,23.85539],[80.40857,23.85474],[80.40845,23.85421],[80.40693,23.85403],[80.4067,23.85472],[80.40732,23.85583],[80.407,23.85599],[80.4062,23.85559],[80.40603,23.855],[80.40549,23.8551],[80.40483,23.85446],[80.40467,23.85379],[80.40489,23.85296],[80.40457,23.8524],[80.40468,23.85181],[80.40432,23.8512],[80.4042,23.84985],[80.40354,23.84925],[80.40368,23.84894],[80.40429,23.8487],[80.4047,23.84874],[80.40562,23.84917],[80.40706,23.84929],[80.40763,23.84841],[80.40759,23.84788],[80.40595,23.84762],[80.40608,23.84713],[80.40688,23.84656],[80.40652,23.84617],[80.40534,23.84646],[80.40499,23.8454],[80.4057,23.84497],[80.40629,23.84417],[80.40684,23.84433],[80.40763,23.84405],[80.40737,23.84361],[80.40682,23.84333],[80.40671,23.84277],[80.40742,23.84229],[80.408,23.84152],[80.40752,23.84088],[80.40602,23.84104],[80.40606,23.83996],[80.40115,23.83967]]]}},{"type":"Feature","bbox":[80.4008,23.82917,80.41125,23.84152],"properties":{"ward":14,"name":"Rajiv Gandhi Ward"},"geometry":{"type":"Polygon","coordinates":[[[80.40472,23.83233],[80.40436,23.83222],[80.40416,23.8318],[80.40201,23.83135],[80.40088,23.82917],[80.4008,23.83086],[80.40115,23.83967],[80.40606,23.83996],[80.40602,23.84104],[80.40752,23.84088],[80.408,23.84152],[80.40843,23.84084],[80.4089,23.83926],[80.40939,23.83917],[80.40989,23.83938],[80.41008,23.8391],[80.40998,23.83876],[80.40949,23.83876],[80.40928,23.8386],[80.40958,23.83773],[80.41047,23.83794],[80.41103,23.83751],[80.41104,23.83733],[80.40988,23.83728],[80.40976,23.83713],[80.41014,23.83676],[80.41076,23.83651],[80.41063,23.8362],[80.4099,23.8361],[80.4099,23.8358],[80.41021,23.83533],[80.41121,23.83485],[80.41125,23.83459],[80.40975,23.83373],[80.41073,23.8332],[80.41043,23.83295],[80.40943,23.83302],[80.40917,23.83189],[80.40887,23.8314],[80.40858,23.83137],[80.4087,23.83192],[80.40838,23.83162],[80.40594,23.83219],[80.40472,23.83233]]]}},{"type":"Feature","bbox":[80.40354,23.84014,80.43295,23.87036],"properties":{"ward":15,"name":"Acharya Vinoba Bhave Ward"},"geometry":{"type":"Polygon","coordinates":[[[80.43042,23.84239],[80.42712,23.84166],[80.41792,23.84052],[80.41212,23.84014],[80.40861,23.84018],[80.40843,23.84084],[80.408,23.84152],[80.40742,23.84229],[80.40671,23.84277],[80.40682,23.84333],[80.40737,23.84361],[80.40763,23.84405],[80.40684,23.84433],[80.40629,23.84417],[80.4057,23.84497],[80.40499,23.8454],[80.40534,23.84646],[80.40652,23.84617],[80.40688,23.84656],[80.40608,23.84713],[80.40595,23.84762],[80.40759,23.84788],[80.40763,23.84841],[80.40706,23.84929],[80.40562,23.84917],[80.4047,23.84874],[80.40429,23.8487],[80.40368,23.84894],[80.40354,23.84925],[80.4042,23.84985],[80.40432,23.8512],[80.40468,23.85181],[80.40457,23.8524],[80.40489,23.85296],[80.40467,23.85379],[80.40483,23.85446],[80.40549,23.8551],[80.40603,23.855],[80.4062,23.85559],[80.407,23.85599],[80.40732,23.85583],[80.4067,23.85472],[80.40693,23.85403],[80.40845,23.85421],[80.40857,23.85474],[80.40908,23.85539],[80.41005,23.85534],[80.40986,23.85563],[80.40927,23.8559],[80.40892,23.85652],[80.40907,23.85671],[80.40951,23.85659],[80.40947,23.85696],[80.40968,23.85752],[80.40924,23.85774],[80.41006,23.85878],[80.40921,23.85922],[80.40976,23.85968],[80.41094,23.85939],[80.41126,23.85981],[80.41188,23.8598],[80.41233,23.86025],[80.41229,23.86068],[80.41256,23.86111],[80.41243,23.86154],[80.41194,23.86198],[80.4118,23.86313],[80.41235,23.86333],[80.41309,23.86334],[80.41342,23.86377],[80.41352,23.86433],[80.41328,23.86482],[80.41333,23.86548],[80.41398,23.86552],[80.4151,23.86447],[80.41581,23.86428],[80.41624,23.86457],[80.41685,23.86543],[80.41741,23.86733],[80.41775,23.86793],[80.41777,23.86954],[80.41806,23.87007],[80.41881,23.87036],[80.42031,23.87022],[80.42231,23.86961],[80.42387,23.86954],[80.42508,23.86916],[80.42606,23.86827],[80.42528,23.86725],[80.42432,23.86672],[80.42379,23.86618],[80.42407,23.86571],[80.42454,23.86548],[80.4244,23.86492],[80.42504,23.864],[80.42474,23.8637],[80.42473,23.86317],[80.42442,23.86313],[80.42428,23.8636],[80.42398,23.86387],[80.42296,23.86334],[80.42222,23.8633],[80.421,23.86159],[80.42119,23.86144],[80.42205,23.86151],[80.42386,23.85968],[80.42366,23.85856],[80.42398,23.85794],[80.42443,23.85749],[80.42536,23.85716],[80.42553,23.85677],[80.42541,23.85626],[80.42553,23.85578],[80.42583,23.85539],[80.42657,23.85495],[80.42683,23.85443],[80.42622,23.85385],[80.42609,23.85343],[80.4262,23.85291],[80.42669,23.8526],[80.42802,23.85297],[80.42854,23.85295],[80.42868,23.85169],[80.42798,23.84879],[80.42848,23.84797],[80.42842,23.84749],[80.42884,23.84701],[80.42954,23.84672],[80.43072,23.84689],[80.43129,23.84651],[80.43169,23.84558],[80.43208,23.84534],[80.43295,23.84534],[80.43292,23.84507],[80.43238,23.84456],[80.43106,23.84419],[80.43122,23.84359],[80.43044,23.84302],[80.43042,23.84239]]]}},{"type":"Feature","bbox":[80.41943,23.83115,80.43279,23.84239],"properties":{"ward":16,"name":"Rafi Ahmad Kidvai Ward"},"geometry":{"type":"Polygon","coordinates":[[[80.4303,23.83135],[80.42911,23.83141],[80.42906,23.83127],[80.42845,23.83115],[80.42454,23.83148],[80.42156,23.83134],[80.42106,23.83288],[80.4206,23.83343],[80.42072,23.83812],[80.41943,23.8407],[80.42712,23.84166],[80.43042,23.84239],[80.43015,23.8401],[80.43025,23.83995],[80.43143,23.83968],[80.43185,23.83999],[80.4322,23.83985],[80.43172,23.83896],[80.4313,23.8387],[80.43157,23.83813],[80.4313,23.83742],[80.43134,23.8368],[80.43157,23.83668],[80.43207,23.83717],[80.43246,23.83715],[80.43279,23.83662],[80.43256,23.83616],[80.43204,23.83574],[80.43212,23.83532],[80.43258,23.83522],[80.43266,23.83486],[80.43206,23.8345],[80.43195,23.83373],[80.43146,23.83334],[80.43148,23.83268],[80.4306,23.83273],[80.43041,23.832],[80.42991,23.83204],[80.42978,23.83193],[80.43027,23.83163],[80.4303,23.83135]]]}},{"type":"Feature","bbox":[80.40861,23.82732,80.42389,23.8407],"properties":{"ward":17,"name":"Pt. Dindyal Upadhyay Ward"},"geometry":{"type":"Polygon","coordinates":[[[80.42156,23.83134],[80.4216,23.83019],[80.42187,23.82932],[80.42385,23.82911],[80.42389,23.82802],[80.42362,23.82768],[80.42362,23.82732],[80.4215,23.8276],[80.42092,23.82744],[80.41749,23.8288],[80.41618,23.82958],[80.41618,23.83052],[80.41605,23.83082],[80.41307,23.83105],[80.4129,23.83118],[80.41304,23.83138],[80.41285,23.83144],[80.41216,23.83117],[80.41171,23.83173],[80.41129,23.83189],[80.41056,23.83181],[80.41029,23.83207],[80.40928,23.83247],[80.40948,23.83305],[80.41064,23.83304],[80.41065,23.83334],[80.40975,23.83373],[80.41125,23.83459],[80.41121,23.83485],[80.41021,23.83533],[80.4099,23.8358],[80.4099,23.8361],[80.41063,23.8362],[80.41076,23.83651],[80.41014,23.83676],[80.40976,23.83713],[80.40988,23.83728],[80.41104,23.83733],[80.41103,23.83751],[80.41047,23.83794],[80.40958,23.83773],[80.40928,23.8386],[80.40949,23.83876],[80.40998,23.83876],[80.41008,23.8391],[80.40989,23.83938],[80.40939,23.83917],[80.4089,23.83926],[80.40861,23.84018],[80.41212,23.84014],[80.41943,23.8407],[80.42072,23.83812],[80.4206,23.83343],[80.42106,23.83288],[80.42156,23.83134]]]}},{"type":"Feature","bbox":[80.40832,23.82154,80.43457,23.83247],"properties":{"ward":18,"name":"Shri Ram Janki Hanuman Ward"},"geometry":{"type":"Polygon","coordinates":[[[80.42156,23.83134],[80.42454,23.83148],[80.42845,23.83115],[80.42906,23.83127],[80.42911,23.83141],[80.4303,23.83135],[80.43054,23.82993],[80.43268,23.8286],[80.43438,23.8281],[80.43457,23.82682],[80.43437,23.82688],[80.43425,23.82639],[80.43328,23.82623],[80.43232,23.82655],[80.43201,23.82722],[80.43024,23.82727],[80.42973,23.82509],[80.4284,23.82478],[80.42837,23.82154],[80.41962,23.82298],[80.41808,23.82331],[80.41802,23.82416],[80.4164,23.82488],[80.41624,23.82568],[80.41583,23.82577],[80.41583,23.82593],[80.41555,23.82604],[80.41535,23.82586],[80.41399,23.82612],[80.41365,23.82637],[80.4132,23.8264],[80.4132,23.82658],[80.41197,23.82661],[80.41182,23.82799],[80.41118,23.8279],[80.40995,23.82801],[80.41,23.82768],[80.40987,23.82801],[80.40918,23.8279],[80.4091,23.82816],[80.4095,23.82857],[80.40917,23.83013],[80.40854,23.83087],[80.40832,23.83143],[80.40844,23.8318],[80.4087,23.83192],[80.40858,23.83137],[80.40898,23.83149],[80.40928,23.83247],[80.41029,23.83207],[80.41056,23.83181],[80.41129,23.83189],[80.41171,23.83173],[80.41216,23.83117],[80.41285,23.83144],[80.41304,23.83138],[80.4129,23.83118],[80.41307,23.83105],[80.41605,23.83082],[80.41618,23.83052],[80.41614,23.82963],[80.41749,23.8288],[80.42092,23.82744],[80.4215,23.8276],[80.42362,23.82732],[80.42362,23.82768],[80.42389,23.82802],[80.42385,23.82911],[80.42187,23.82932],[80.4216,23.83019],[80.42156,23.83134]]]}},{"type":"Feature","bbox":[80.40841,23.8135,80.42979,23.82801],"properties":{"ward":19,"name":"Babu Jagjeevan Ram Ward"},"geometry":{"type":"Polygon","coordinates":[[[80.41808,23.82331],[80.4282,23.82158],[80.42979,23.82116],[80.42898,23.81759],[80.42874,23.81449],[80.42742,23.81362],[80.42723,23.81378],[80.42683,23.8135],[80.42533,23.81485],[80.422,23.81479],[80.41996,23.8152],[80.41788,23.8173],[80.41716,23.81789],[80.41644,23.8182],[80.41439,23.81986],[80.40968,23.82201],[80.40987,23.82265],[80.40973,23.82284],[80.40884,23.82258],[80.40841,23.82304],[80.40868,23.8236],[80.40956,23.82352],[80.40986,23.8237],[80.40977,23.82413],[80.40941,23.82455],[80.40986,23.82546],[80.40995,23.82801],[80.41118,23.8279],[80.41182,23.82799],[80.41197,23.82661],[80.41226,23.82651],[80.4132,23.82658],[80.4132,23.8264],[80.41365,23.82637],[80.41399,23.82612],[80.41535,23.82586],[80.41555,23.82604],[80.41583,23.82593],[80.41583,23.82577],[80.41624,23.82568],[80.4164,23.82488],[80.41802,23.82416],[80.41808,23.82331]]]}},{"type":"Feature","bbox":[80.42383,23.80394,80.44274,23.82727],"properties":{"ward":20,"name":"Shiva Ji Ward"},"geometry":{"type":"Polygon","coordinates":[[[80.43437,23.82688],[80.43534,23.82644],[80.43492,23.82612],[80.43491,23.82558],[80.43551,23.82537],[80.43604,23.8256],[80.43643,23.82557],[80.43629,23.82499],[80.43662,23.82464],[80.43664,23.82442],[80.43641,23.8243],[80.43624,23.82362],[80.43567,23.82272],[80.43531,23.82276],[80.43496,23.82256],[80.43555,23.82239],[80.43638,23.82263],[80.43688,23.82168],[80.43663,23.82115],[80.43664,23.82064],[80.43608,23.81868],[80.43674,23.81801],[80.43671,23.81655],[80.43758,23.81578],[80.4385,23.8142],[80.43935,23.81377],[80.4396,23.81316],[80.43962,23.81248],[80.43923,23.81164],[80.4396,23.81075],[80.43952,23.81062],[80.43897,23.81079],[80.43884,23.81066],[80.43893,23.81035],[80.43961,23.80956],[80.44037,23.8097],[80.44137,23.80944],[80.4415,23.80896],[80.44217,23.80859],[80.44223,23.80831],[80.44191,23.80796],[80.44218,23.80753],[80.44274,23.80731],[80.4427,23.80708],[80.44228,23.80668],[80.44093,23.80775],[80.4405,23.80749],[80.43976,23.80752],[80.43901,23.80709],[80.43849,23.80567],[80.43775,23.80585],[80.43695,23.80564],[80.4367,23.80485],[80.4359,23.80479],[80.4347,23.80409],[80.43396,23.80435],[80.43376,23.80469],[80.43358,23.80465],[80.43353,23.80434],[80.43289,23.80444],[80.43264,23.80411],[80.43198,23.80394],[80.43081,23.80407],[80.42861,23.80598],[80.42383,23.81071],[80.42683,23.8135],[80.42723,23.81378],[80.42742,23.81362],[80.42874,23.81449],[80.42898,23.81759],[80.42979,23.82116],[80.42837,23.82154],[80.4284,23.82478],[80.42973,23.82509],[80.43024,23.82727],[80.43201,23.82722],[80.43232,23.82655],[80.43328,23.82623],[80.43425,23.82639],[80.43437,23.82688]]]}},{"type":"Feature","bbox":[80.40086,23.82139,80.41,23.83233],"properties":{"ward":21,"name":"Dr. Ambedkar Ward"},"geometry":{"type":"Polygon","coordinates":[[[80.40918,23.8279],[80.40987,23.82801],[80.41,23.82768],[80.40986,23.82546],[80.40941,23.82455],[80.40977,23.82413],[80.40986,23.8237],[80.40956,23.82352],[80.40868,23.8236],[80.40841,23.82304],[80.40884,23.82258],[80.40954,23.82285],[80.40987,23.82265],[80.40972,23.82207],[80.4093,23.82139],[80.40424,23.82392],[80.40086,23.82524],[80.40088,23.82917],[80.40121,23.82999],[80.40201,23.83135],[80.40416,23.8318],[80.40436,23.83222],[80.40472,23.83233],[80.40594,23.83219],[80.40838,23.83162],[80.40848,23.83097],[80.4091,23.83035],[80.40949,23.82881],[80.4095,23.82857],[80.4091,23.82816],[80.40918,23.8279]]]}},{"type":"Feature","bbox":[80.39656,23.83433,80.40115,23.83967],"properties":{"ward":22,"name":"Gurunanak Ward"},"geometry":{"type":"Polygon","coordinates":[[[80.40093,23.83433],[80.39667,23.83522],[80.39678,23.83551],[80.39665,23.83553],[80.39656,23.83664],[80.39684,23.8378],[80.40115,23.83967],[80.40093,23.83433]]]}},{"type":"Feature","bbox":[80.39193,23.83442,80.39868,23.83974],"properties":{"ward":23,"name":"Raghunath Ganj Ward"},"geometry":{"type":"Polygon","coordinates":[[[80.39823,23.83938],[80.39868,23.83862],[80.39684,23.8378],[80.39656,23.83664],[80.39673,23.83521],[80.39586,23.83541],[80.39569,23.83514],[80.39197,23.83442],[80.39193,23.83477],[80.39352,23.83764],[80.39395,23.83772],[80.39552,23.83754],[80.39594,23.83891],[80.3968,23.8389],[80.39696,23.83974],[80.39823,23.83938]]]}},{"type":"Feature","bbox":[80.38791,23.83426,80.39249,23.83636],"properties":{"ward":24,"name":"Ishwaripura Ward"},"geometry":{"type":"Polygon","coordinates":[[[80.38791,23.83636],[80.39249,23.83591],[80.39223,23.83512],[80.39193,23.83477],[80.39197,23.83442],[80.39115,23.83426],[80.38935,23.83433],[80.38917,23.83504],[80.38791,23.83636]]]}},{"type":"Feature","bbox":[80.39329,23.83083,80.40093,23.83541],"properties":{"ward":25,"name":"Ballabhadas Agrawal Ward"},"geometry":{"type":"Polygon","coordinates":[[[80.39586,23.83541],[80.40093,23.83433],[80.4008,23.83086],[80.39856,23.83083],[80.39837,23.83152],[80.39755,23.83147],[80.39581,23.83183],[80.39428,23.83333],[80.39329,23.83351],[80.39372,23.83482],[80.39569,23.83514],[80.39586,23.83541]]]}},{"type":"Feature","bbox":[80.38916,23.82524,80.40089,23.83484],"properties":{"ward":26,"name":"Maharani Laxmi Bai Ward"},"geometry":{"type":"Polygon","coordinates":[[[80.39373,23.83484],[80.39329,23.83351],[80.39428,23.83333],[80.39571,23.83188],[80.39755,23.83147],[80.39837,23.83152],[80.39856,23.83083],[80.40089,23.83086],[80.40086,23.82524],[80.39726,23.82679],[80.38916,23.83245],[80.38944,23.83293],[80.38935,23.83433],[80.39115,23.83426],[80.39373,23.83484]]]}},{"type":"Feature","bbox":[80.37609,23.82377,80.391,23.83657],"properties":{"ward":27,"name":"Madan Mohan Chobey Ward"},"geometry":{"type":"Polygon","coordinates":[[[80.38916,23.83245],[80.391,23.83118],[80.39015,23.83081],[80.38919,23.83069],[80.38871,23.83036],[80.38898,23.82979],[80.38866,23.8297],[80.38839,23.82911],[80.38872,23.82906],[80.38878,23.82887],[80.389,23.82882],[80.38903,23.829],[80.38953,23.82881],[80.38992,23.82938],[80.39047,23.82911],[80.38918,23.8277],[80.38904,23.82728],[80.38862,23.82699],[80.38702,23.82648],[80.38598,23.82689],[80.38381,23.82377],[80.37931,23.82514],[80.37696,23.82514],[80.37648,23.82564],[80.37672,23.82584],[80.37645,23.82655],[80.37648,23.82694],[80.37616,23.82723],[80.37636,23.82741],[80.37685,23.82748],[80.37686,23.82761],[80.37631,23.82796],[80.37654,23.8281],[80.37648,23.8285],[80.37672,23.82883],[80.37609,23.82878],[80.37613,23.82907],[80.37684,23.82983],[80.37874,23.82987],[80.37916,23.83014],[80.3795,23.83075],[80.37961,23.83185],[80.3814,23.83282],[80.38173,23.83355],[80.38207,23.83385],[80.38219,23.83473],[80.38195,23.8354],[80.38205,23.836],[80.38238,23.83615],[80.38389,23.83616],[80.38436,23.83657],[80.38916,23.83245]]]}},{"type":"Feature","bbox":[80.37231,23.81075,80.38381,23.82514],"properties":{"ward":28,"name":"Pandit Jawaharlal Nehru Ward"},"geometry":{"type":"Polygon","coordinates":[[[80.38381,23.82377],[80.37841,23.81578],[80.37491,23.81196],[80.37303,23.81075],[80.37292,23.81109],[80.37309,23.81143],[80.37303,23.81205],[80.37285,23.81227],[80.3729,23.81315],[80.37315,23.81332],[80.37297,23.81355],[80.37301,23.81397],[80.37247,23.81364],[80.37231,23.81379],[80.37231,23.8141],[80.37251,23.81427],[80.37248,23.81462],[80.37268,23.81488],[80.37249,23.8155],[80.37319,23.81602],[80.37294,23.81654],[80.37355,23.81688],[80.37324,23.81746],[80.37383,23.81766],[80.37381,23.81811],[80.37423,23.81809],[80.37442,23.81829],[80.37424,23.8194],[80.37482,23.81951],[80.37455,23.82001],[80.37496,23.82009],[80.37479,23.82088],[80.37538,23.82134],[80.37521,23.82179],[80.37577,23.82189],[80.3759,23.82219],[80.37571,23.82298],[80.376,23.82306],[80.37638,23.82263],[80.3766,23.8228],[80.37659,23.82331],[80.3763,23.82356],[80.37691,23.82439],[80.37681,23.82467],[80.37696,23.82514],[80.37931,23.82514],[80.38381,23.82377]]]}},{"type":"Feature","bbox":[80.37813,23.80796,80.39252,23.82737],"properties":{"ward":29,"name":"Babu Vashswarup Ward"},"geometry":{"type":"Polygon","coordinates":[[[80.38911,23.82737],[80.38922,23.82663],[80.38997,23.82661],[80.39041,23.82638],[80.39103,23.82641],[80.39127,23.82666],[80.39165,23.8267],[80.39235,23.82626],[80.39252,23.82636],[80.39247,23.82616],[80.39217,23.82599],[80.3918,23.82501],[80.39184,23.82445],[80.3914,23.82411],[80.39164,23.82384],[80.39151,23.82366],[80.39153,23.82298],[80.39059,23.82254],[80.39044,23.82179],[80.39116,23.82172],[80.39205,23.82076],[80.3922,23.81959],[80.39216,23.81926],[80.3914,23.81839],[80.39046,23.81793],[80.38966,23.81786],[80.38897,23.818],[80.38935,23.81442],[80.39028,23.81245],[80.38838,23.81001],[80.38815,23.80796],[80.38574,23.80976],[80.38333,23.81022],[80.38229,23.81155],[80.38084,23.8124],[80.38041,23.81462],[80.37961,23.81512],[80.37813,23.81545],[80.38598,23.82689],[80.38702,23.82648],[80.38836,23.82688],[80.38911,23.82737]]]}},{"type":"Feature","bbox":[80.38839,23.82638,80.39559,23.83118],"properties":{"ward":30,"name":"Pandit Chhakodilal Pathak Ward"},"geometry":{"type":"Polygon","coordinates":[[[80.39171,23.82712],[80.39165,23.8267],[80.39127,23.82666],[80.39103,23.82641],[80.39041,23.82638],[80.38997,23.82661],[80.38922,23.82663],[80.38911,23.82737],[80.38904,23.82728],[80.38918,23.8277],[80.39047,23.82911],[80.38992,23.82938],[80.38953,23.82881],[80.38903,23.829],[80.389,23.82882],[80.38878,23.82887],[80.38872,23.82906],[80.38839,23.82911],[80.38866,23.8297],[80.38898,23.82979],[80.38871,23.83036],[80.38919,23.83069],[80.39015,23.83081],[80.391,23.83118],[80.39559,23.82797],[80.39467,23.82728],[80.39445,23.82727],[80.39427,23.82681],[80.39294,23.8268],[80.39171,23.82712]]]}},{"type":"Feature","bbox":[80.39165,23.82346,80.39824,23.82797],"properties":{"ward":31,"name":"Ramniwas Singh Ward"},"geometry":{"type":"Polygon","coordinates":[[[80.39171,23.82712],[80.393,23.82678],[80.39427,23.82681],[80.39445,23.82727],[80.39467,23.82728],[80.39559,23.82797],[80.39824,23.82627],[80.3968,23.82533],[80.39666,23.82425],[80.39632,23.82346],[80.39593,23.82372],[80.39577,23.8242],[80.39511,23.82471],[80.39494,23.82529],[80.39428,23.82571],[80.3942,23.82535],[80.39356,23.82542],[80.39325,23.82608],[80.39251,23.82637],[80.39235,23.82626],[80.39165,23.8267],[80.39171,23.82712]]]}},{"type":"Feature","bbox":[80.39044,23.82025,80.39632,23.82636],"properties":{"ward":32,"name":"Kawasji Ward"},"geometry":{"type":"Polygon","coordinates":[[[80.39413,23.82536],[80.39428,23.82571],[80.39494,23.82529],[80.39511,23.82471],[80.39577,23.8242],[80.39593,23.82372],[80.39632,23.82346],[80.39556,23.82188],[80.39514,23.82025],[80.3943,23.82033],[80.39433,23.82057],[80.39394,23.82059],[80.39218,23.82031],[80.39205,23.82076],[80.39116,23.82172],[80.39044,23.82179],[80.39059,23.82254],[80.39153,23.82298],[80.39151,23.82366],[80.39164,23.82384],[80.3914,23.82411],[80.39184,23.82445],[80.3918,23.82501],[80.39217,23.82599],[80.39247,23.82616],[80.39252,23.82636],[80.39325,23.82608],[80.39356,23.82542],[80.39413,23.82536]]]}},{"type":"Feature","bbox":[80.39517,23.81994,80.40086,23.82627],"properties":{"ward":33,"name":"Forester Ward"},"geometry":{"type":"Polygon","coordinates":[[[80.40086,23.82524],[80.40068,23.81994],[80.39991,23.82056],[80.39903,23.82158],[80.39517,23.82044],[80.39556,23.82188],[80.39666,23.82425],[80.3968,23.82533],[80.39824,23.82627],[80.40086,23.82524]]]}},{"type":"Feature","bbox":[80.40068,23.7875,80.42115,23.82524],"properties":{"ward":34,"name":"Ramkrishna Paramhans Ward"},"geometry":{"type":"Polygon","coordinates":[[[80.4093,23.82139],[80.40902,23.82032],[80.40924,23.81954],[80.40889,23.81854],[80.40784,23.81866],[80.40769,23.81835],[80.40768,23.81698],[80.40832,23.81692],[80.40877,23.81667],[80.40905,23.81604],[80.40859,23.81472],[80.40846,23.81349],[80.40807,23.81327],[80.40817,23.81307],[80.4092,23.8131],[80.40913,23.8135],[80.40933,23.81386],[80.40975,23.81419],[80.41066,23.8157],[80.41332,23.81532],[80.41451,23.81495],[80.41633,23.81538],[80.41692,23.81541],[80.41727,23.81515],[80.41929,23.8129],[80.41796,23.81173],[80.41469,23.80807],[80.41528,23.80731],[80.41573,23.80623],[80.41669,23.80501],[80.41883,23.80329],[80.41987,23.80204],[80.42115,23.80101],[80.41626,23.79672],[80.4157,23.7964],[80.41547,23.79584],[80.41443,23.79593],[80.41421,23.7955],[80.41433,23.79461],[80.41314,23.79298],[80.40979,23.79036],[80.40674,23.78843],[80.40469,23.7875],[80.40399,23.78786],[80.40355,23.78832],[80.40339,23.78893],[80.40361,23.78946],[80.40421,23.79011],[80.4037,23.79063],[80.40453,23.79107],[80.40385,23.79194],[80.40412,23.79383],[80.40403,23.79407],[80.40356,23.79442],[80.40382,23.79543],[80.40378,23.79585],[80.40328,23.79653],[80.40317,23.79708],[80.40417,23.79868],[80.40421,23.79903],[80.4039,23.7996],[80.40283,23.79977],[80.40233,23.80012],[80.40212,23.80066],[80.40233,23.80085],[80.40279,23.8009],[80.40306,23.80135],[80.40312,23.80175],[80.40287,23.80281],[80.403,23.80323],[80.40376,23.80301],[80.40421,23.80307],[80.4042,23.80327],[80.40371,23.8037],[80.40356,23.80458],[80.40362,23.80545],[80.40479,23.80579],[80.40607,23.807],[80.40589,23.80822],[80.40524,23.8085],[80.40541,23.80943],[80.40566,23.80961],[80.40636,23.8095],[80.40762,23.81035],[80.40823,23.81046],[80.40839,23.81127],[80.40707,23.812],[80.40709,23.81238],[80.4077,23.81314],[80.40766,23.81335],[80.407,23.81379],[80.40381,23.81687],[80.4012,23.81979],[80.40068,23.81994],[80.40086,23.82524],[80.40424,23.82392],[80.4093,23.82139]]]}},{"type":"Feature","bbox":[80.40768,23.80101,80.43082,23.82201],"properties":{"ward":35,"name":"Shyamaprasad Mukherji Ward"},"geometry":{"type":"Polygon","coordinates":[[[80.42682,23.8135],[80.42383,23.81071],[80.42861,23.80598],[80.43082,23.80407],[80.42564,23.80217],[80.42394,23.80115],[80.42116,23.80101],[80.41987,23.80204],[80.41883,23.80329],[80.41669,23.80501],[80.41573,23.80623],[80.41528,23.80731],[80.41469,23.80807],[80.41796,23.81173],[80.41929,23.81299],[80.41692,23.81541],[80.41451,23.81495],[80.41332,23.81532],[80.41066,23.8157],[80.40975,23.81419],[80.40933,23.81386],[80.40913,23.8135],[80.4092,23.8131],[80.40817,23.81307],[80.40807,23.81327],[80.40846,23.81349],[80.40859,23.81472],[80.40905,23.81604],[80.40877,23.81667],[80.40832,23.81692],[80.40768,23.81698],[80.40769,23.81835],[80.40784,23.81866],[80.40889,23.81854],[80.40924,23.81954],[80.40907,23.81991],[80.40905,23.8207],[80.40968,23.82201],[80.41439,23.81986],[80.41644,23.8182],[80.41716,23.81789],[80.41788,23.8173],[80.41996,23.8152],[80.422,23.81479],[80.42547,23.81479],[80.42682,23.8135]]]}},{"type":"Feature","bbox":[80.38916,23.80519,80.40839,23.82003],"properties":{"ward":36,"name":"Dr. Rajendra Prasad Ward"},"geometry":{"type":"Polygon","coordinates":[[[80.40392,23.80562],[80.40093,23.80628],[80.39858,23.80641],[80.39737,23.80519],[80.39395,23.80703],[80.39397,23.80734],[80.39464,23.80834],[80.39499,23.80932],[80.39514,23.81109],[80.39449,23.81108],[80.39399,23.81175],[80.39341,23.81208],[80.3916,23.81217],[80.39134,23.81234],[80.39028,23.81245],[80.38935,23.81442],[80.38916,23.81626],[80.39178,23.81609],[80.3923,23.81642],[80.39253,23.81633],[80.39336,23.81671],[80.39367,23.81711],[80.39416,23.81711],[80.39425,23.81695],[80.39388,23.81609],[80.39411,23.8153],[80.39539,23.81482],[80.39522,23.81199],[80.39543,23.81199],[80.39549,23.81109],[80.39727,23.81104],[80.3978,23.81156],[80.39837,23.81175],[80.39813,23.8129],[80.39637,23.81275],[80.3964,23.81334],[80.39783,23.81317],[80.39794,23.81337],[80.3985,23.81332],[80.39912,23.81363],[80.39931,23.81395],[80.40012,23.81384],[80.40044,23.81515],[80.40047,23.82003],[80.4012,23.81979],[80.40381,23.81687],[80.407,23.81379],[80.40772,23.81328],[80.40709,23.81238],[80.40707,23.812],[80.40839,23.81127],[80.40823,23.81046],[80.40762,23.81035],[80.40636,23.8095],[80.40553,23.80959],[80.40524,23.8085],[80.40589,23.80822],[80.40607,23.807],[80.40479,23.80579],[80.40392,23.80562]]]}},{"type":"Feature","bbox":[80.38897,23.81104,80.40047,23.82158],"properties":{"ward":37,"name":"Swami Vivekanand Ward"},"geometry":{"type":"Polygon","coordinates":[[[80.39433,23.82057],[80.3943,23.82033],[80.39508,23.82023],[80.39517,23.82044],[80.39556,23.8206],[80.39903,23.82158],[80.40047,23.82003],[80.40044,23.81515],[80.40012,23.81384],[80.39931,23.81395],[80.39912,23.81363],[80.3985,23.81332],[80.39794,23.81337],[80.39783,23.81317],[80.3964,23.81334],[80.39637,23.81275],[80.39813,23.8129],[80.39837,23.81175],[80.3978,23.81156],[80.39727,23.81104],[80.39549,23.81109],[80.39543,23.81199],[80.39522,23.81199],[80.39539,23.81482],[80.39411,23.8153],[80.39388,23.81609],[80.39425,23.81695],[80.39416,23.81711],[80.39367,23.81711],[80.39336,23.81671],[80.39253,23.81633],[80.3923,23.81642],[80.39178,23.81609],[80.38916,23.81626],[80.38897,23.818],[80.38966,23.81786],[80.39046,23.81793],[80.3914,23.81839],[80.39216,23.81926],[80.39218,23.82031],[80.39433,23.82057]]]}},{"type":"Feature","bbox":[80.3871,23.79471,80.39874,23.81245],"properties":{"ward":38,"name":"Dr. Zakir Husen Ward"},"geometry":{"type":"Polygon","coordinates":[[[80.39052,23.79986],[80.39363,23.80285],[80.39197,23.80469],[80.3908,23.805],[80.38895,23.80649],[80.38815,23.80796],[80.38838,23.81001],[80.39028,23.81245],[80.39134,23.81234],[80.3916,23.81217],[80.39341,23.81208],[80.39399,23.81175],[80.39449,23.81108],[80.39514,23.81109],[80.39499,23.80932],[80.39464,23.80834],[80.39397,23.80734],[80.39395,23.80703],[80.39737,23.80519],[80.39858,23.80641],[80.39874,23.80639],[80.39694,23.79801],[80.39668,23.79813],[80.39614,23.79804],[80.39499,23.79724],[80.39391,23.79702],[80.39261,23.79647],[80.39173,23.79646],[80.39193,23.79618],[80.39147,23.79593],[80.39088,23.79598],[80.39027,23.79574],[80.39034,23.79534],[80.38962,23.7951],[80.38957,23.79488],[80.38833,23.79501],[80.3871,23.79471],[80.38734,23.79812],[80.38818,23.79813],[80.38908,23.7987],[80.39052,23.79986]]]}},{"type":"Feature","bbox":[80.38144,23.79813,80.39363,23.80649],"properties":{"ward":39,"name":"Babu Narayan Shah Ward"},"geometry":{"type":"Polygon","coordinates":[[[80.39197,23.80469],[80.39363,23.80285],[80.39052,23.79986],[80.38818,23.79813],[80.38144,23.79868],[80.38204,23.80406],[80.38196,23.80481],[80.38305,23.80501],[80.38357,23.80543],[80.38403,23.80554],[80.38497,23.80498],[80.38743,23.80422],[80.38837,23.80342],[80.38924,23.80439],[80.38932,23.80477],[80.38895,23.80649],[80.3908,23.805],[80.39197,23.80469]]]}},{"type":"Feature","bbox":[80.37303,23.80342,80.38932,23.81549],"properties":{"ward":40,"name":"Amar Shaheed Hemu Kalani Ward"},"geometry":{"type":"Polygon","coordinates":[[[80.38837,23.80342],[80.38743,23.80422],[80.38497,23.80498],[80.38403,23.80554],[80.38357,23.80543],[80.38305,23.80501],[80.38196,23.80481],[80.38173,23.80636],[80.38107,23.80633],[80.38032,23.80652],[80.37905,23.80782],[80.37814,23.80821],[80.3778,23.80872],[80.37678,23.80947],[80.37516,23.80928],[80.37403,23.8096],[80.37387,23.81018],[80.37357,23.8104],[80.37329,23.81036],[80.37303,23.81075],[80.37491,23.81196],[80.37817,23.81549],[80.37961,23.81512],[80.38047,23.81453],[80.38084,23.8124],[80.38229,23.81155],[80.38333,23.81022],[80.38574,23.80976],[80.38808,23.80808],[80.38906,23.80633],[80.38932,23.80477],[80.38924,23.80439],[80.38837,23.80342]]]}},{"type":"Feature","bbox":[80.37329,23.7995,80.38204,23.8104],"properties":{"ward":41,"name":"Acharya Kriplani Ward"},"geometry":{"type":"Polygon","coordinates":[[[80.38173,23.80636],[80.38204,23.80406],[80.38153,23.7995],[80.37563,23.8001],[80.37606,23.80502],[80.37576,23.80563],[80.37429,23.80597],[80.37432,23.80649],[80.37494,23.80652],[80.37514,23.80671],[80.37508,23.80683],[80.37439,23.80695],[80.3743,23.80767],[80.3738,23.80818],[80.37382,23.80883],[80.37359,23.80909],[80.37366,23.80931],[80.3734,23.80974],[80.37329,23.81036],[80.37357,23.8104],[80.37387,23.81018],[80.37403,23.8096],[80.37455,23.80941],[80.37516,23.80928],[80.37678,23.80947],[80.3778,23.80872],[80.37814,23.80821],[80.37905,23.80782],[80.38032,23.80652],[80.38107,23.80633],[80.38173,23.80636]]]}},{"type":"Feature","bbox":[80.37233,23.79012,80.38734,23.8001],"properties":{"ward":42,"name":"Sant Kanvar Ram Ward"},"geometry":{"type":"Polygon","coordinates":[[[80.3871,23.79471],[80.3873,23.79431],[80.3872,23.79295],[80.38707,23.79257],[80.38623,23.7929],[80.38592,23.79065],[80.38228,23.79136],[80.38167,23.79087],[80.37926,23.79018],[80.37883,23.79028],[80.37821,23.79012],[80.37716,23.79035],[80.37608,23.79146],[80.37534,23.79176],[80.37511,23.79168],[80.37523,23.79182],[80.37513,23.79192],[80.37458,23.79184],[80.37442,23.79204],[80.37416,23.79169],[80.37365,23.79182],[80.37354,23.7916],[80.37339,23.79193],[80.37277,23.79181],[80.37233,23.79207],[80.37303,23.79275],[80.37274,23.79334],[80.37331,23.79425],[80.37292,23.79513],[80.37363,23.79645],[80.37323,23.79687],[80.37378,23.7972],[80.37525,23.79692],[80.37554,23.79706],[80.3754,23.79737],[80.3754,23.79887],[80.37563,23.8001],[80.38153,23.7995],[80.38144,23.79868],[80.38734,23.79812],[80.3871,23.79471]]]}},{"type":"Feature","bbox":[80.33221,23.76937,80.37696,23.82888],"properties":{"ward":43,"name":"Maharana Pratap Ward"},"geometry":{"type":"Polygon","coordinates":[[[80.37696,23.82514],[80.37681,23.82467],[80.37691,23.82439],[80.3763,23.82356],[80.37659,23.82331],[80.3766,23.8228],[80.37638,23.82263],[80.376,23.82306],[80.37571,23.82298],[80.3759,23.82219],[80.37577,23.82189],[80.37521,23.82179],[80.37538,23.82134],[80.37479,23.82088],[80.37496,23.82009],[80.37455,23.82001],[80.37482,23.81951],[80.37424,23.8194],[80.37442,23.81829],[80.37423,23.81809],[80.37381,23.81811],[80.37383,23.81766],[80.37324,23.81746],[80.37355,23.81688],[80.37294,23.81654],[80.37319,23.81602],[80.37249,23.8155],[80.37268,23.81488],[80.37248,23.81462],[80.37251,23.81427],[80.37231,23.8141],[80.37231,23.81379],[80.37247,23.81364],[80.37301,23.81397],[80.37297,23.81355],[80.37315,23.81332],[80.3729,23.81315],[80.37285,23.81227],[80.37303,23.81205],[80.37309,23.81143],[80.37292,23.81109],[80.37303,23.81075],[80.37123,23.80969],[80.36973,23.80844],[80.36406,23.79929],[80.36105,23.79712],[80.34849,23.78242],[80.34163,23.7705],[80.34132,23.7705],[80.34099,23.77086],[80.34011,23.77076],[80.33875,23.77009],[80.33853,23.76989],[80.33842,23.76937],[80.33757,23.76943],[80.33728,23.7697],[80.33721,23.77005],[80.3376,23.77082],[80.33765,23.77152],[80.33809,23.77185],[80.33826,23.77227],[80.33819,23.77244],[80.33774,23.7723],[80.33721,23.77239],[80.33752,23.77447],[80.33738,23.77467],[80.33644,23.77411],[80.33624,23.77357],[80.3351,23.77228],[80.33452,23.77229],[80.33358,23.77348],[80.33378,23.77402],[80.33447,23.77456],[80.33432,23.77472],[80.33328,23.77501],[80.33325,23.77579],[80.33434,23.77574],[80.33493,23.77549],[80.33496,23.77566],[80.33428,23.77675],[80.33288,23.77788],[80.33256,23.77791],[80.33257,23.77812],[80.33221,23.77832],[80.33289,23.77999],[80.33328,23.78057],[80.33517,23.78046],[80.3375,23.78249],[80.33796,23.78322],[80.33888,23.78382],[80.33905,23.78465],[80.34105,23.7852],[80.34125,23.7865],[80.34102,23.78717],[80.34058,23.78765],[80.34006,23.78902],[80.33923,23.78982],[80.33861,23.79203],[80.33857,23.79478],[80.3388,23.79615],[80.33874,23.79637],[80.3385,23.7964],[80.33859,23.79719],[80.33905,23.79813],[80.33976,23.79796],[80.34016,23.79884],[80.34027,23.79957],[80.34106,23.7997],[80.34118,23.79995],[80.34152,23.80005],[80.34267,23.80139],[80.34352,23.80154],[80.34383,23.8018],[80.34521,23.80173],[80.34595,23.802],[80.34735,23.80192],[80.3475,23.80235],[80.34872,23.80229],[80.34897,23.80338],[80.34952,23.80329],[80.35013,23.8037],[80.35013,23.80456],[80.34919,23.80451],[80.34919,23.80569],[80.34941,23.80706],[80.34963,23.80808],[80.3498,23.80809],[80.34983,23.80831],[80.34973,23.8091],[80.34889,23.80928],[80.34922,23.81102],[80.3502,23.81097],[80.35036,23.81112],[80.35033,23.81187],[80.35128,23.81176],[80.35184,23.81262],[80.35165,23.81312],[80.35175,23.81351],[80.35227,23.81358],[80.35292,23.81397],[80.353,23.81418],[80.35291,23.81663],[80.35256,23.81962],[80.3525,23.81988],[80.35189,23.81992],[80.3521,23.8208],[80.3524,23.8208],[80.35247,23.82204],[80.35277,23.8222],[80.35298,23.82278],[80.35277,23.82303],[80.35277,23.82338],[80.35199,23.82418],[80.35151,23.82528],[80.35163,23.82573],[80.35389,23.82629],[80.3537,23.8266],[80.35506,23.8273],[80.35589,23.82681],[80.35655,23.82677],[80.3567,23.82681],[80.35671,23.82713],[80.36421,23.82825],[80.36578,23.8286],[80.37018,23.82859],[80.37449,23.82819],[80.37657,23.82888],[80.37672,23.82883],[80.37648,23.8285],[80.37654,23.8281],[80.37631,23.82796],[80.37676,23.82773],[80.37685,23.82748],[80.37636,23.82741],[80.37616,23.82723],[80.37648,23.82694],[80.37645,23.82655],[80.37672,23.82584],[80.37648,23.82564],[80.37696,23.82514]]]}},{"type":"Feature","bbox":[80.34163,23.76947,80.37609,23.81075],"properties":{"ward":44,"name":"Vishram Baba Ward"},"geometry":{"type":"Polygon","coordinates":[[[80.37329,23.81036],[80.3734,23.80974],[80.37366,23.80931],[80.37359,23.80909],[80.37382,23.80883],[80.3738,23.80818],[80.3743,23.80767],[80.37439,23.80695],[80.37508,23.80683],[80.37514,23.80671],[80.37494,23.80652],[80.37432,23.80649],[80.37429,23.80597],[80.37576,23.80563],[80.37609,23.80471],[80.3754,23.79887],[80.3754,23.79737],[80.37554,23.79706],[80.37525,23.79692],[80.37378,23.7972],[80.37323,23.79687],[80.37363,23.79645],[80.37292,23.79513],[80.37331,23.79425],[80.37274,23.79334],[80.37303,23.79275],[80.37233,23.79215],[80.37277,23.79181],[80.37339,23.79193],[80.37354,23.79161],[80.37336,23.79093],[80.37268,23.79082],[80.37267,23.79059],[80.37308,23.79043],[80.37318,23.79006],[80.3729,23.78954],[80.37219,23.78962],[80.37203,23.78938],[80.37149,23.78957],[80.37117,23.78943],[80.3707,23.78966],[80.37017,23.78943],[80.36871,23.78994],[80.36706,23.79022],[80.36603,23.79085],[80.36473,23.79062],[80.36421,23.7907],[80.36293,23.7895],[80.36015,23.78831],[80.35975,23.78848],[80.35922,23.78818],[80.35931,23.78755],[80.35847,23.78773],[80.3582,23.78745],[80.35778,23.78757],[80.35609,23.78693],[80.35537,23.78606],[80.35472,23.78583],[80.35341,23.78497],[80.35245,23.78274],[80.35216,23.78248],[80.35229,23.7824],[80.35135,23.78149],[80.35145,23.7812],[80.35131,23.78098],[80.35147,23.78091],[80.3513,23.78015],[80.35096,23.78019],[80.35087,23.77979],[80.35045,23.77933],[80.34916,23.7789],[80.34866,23.77817],[80.34789,23.77758],[80.34779,23.77735],[80.34791,23.77701],[80.34748,23.77654],[80.34705,23.77633],[80.34687,23.77573],[80.34651,23.77556],[80.34624,23.77513],[80.34613,23.77488],[80.34627,23.77463],[80.34571,23.77427],[80.34559,23.77381],[80.34495,23.7733],[80.34492,23.77274],[80.34414,23.77078],[80.34355,23.77044],[80.3428,23.77049],[80.34245,23.76947],[80.34163,23.7705],[80.34849,23.78242],[80.36105,23.79712],[80.36406,23.79929],[80.36973,23.80844],[80.37123,23.80969],[80.37287,23.81067],[80.37303,23.81075],[80.37329,23.81036]]]}},{"type":"Feature","bbox":[80.37968,23.78387,80.40471,23.80639],"properties":{"ward":45,"name":"Ravindra Nath Tagor Ward"},"geometry":{"type":"Polygon","coordinates":[[[80.40392,23.80562],[80.40354,23.80522],[80.40356,23.80458],[80.40371,23.8037],[80.4042,23.80327],[80.40421,23.80307],[80.40376,23.80301],[80.403,23.80323],[80.40287,23.80281],[80.40312,23.80175],[80.40306,23.80135],[80.40279,23.8009],[80.40233,23.80085],[80.40212,23.80066],[80.40233,23.80012],[80.40283,23.79977],[80.4039,23.7996],[80.40421,23.79903],[80.40417,23.79868],[80.40317,23.79708],[80.40328,23.79653],[80.40378,23.79585],[80.40382,23.79543],[80.40356,23.79442],[80.40403,23.79407],[80.40412,23.79383],[80.40385,23.79194],[80.40453,23.79107],[80.4037,23.79063],[80.40421,23.79011],[80.40361,23.78946],[80.40339,23.78893],[80.40355,23.78832],[80.40399,23.78786],[80.40469,23.7875],[80.40459,23.78695],[80.40471,23.78624],[80.40455,23.78617],[80.40428,23.78638],[80.4032,23.78532],[80.40229,23.78533],[80.40193,23.78517],[80.40169,23.78476],[80.40094,23.7848],[80.40095,23.78463],[80.40068,23.78454],[80.40056,23.78426],[80.40041,23.78441],[80.40001,23.78439],[80.39986,23.78465],[80.39967,23.78454],[80.39896,23.7851],[80.39732,23.78549],[80.39634,23.78505],[80.3953,23.78493],[80.39527,23.78454],[80.39506,23.78456],[80.39414,23.78387],[80.39112,23.785],[80.38701,23.78749],[80.38509,23.7883],[80.38311,23.78869],[80.38143,23.78929],[80.37968,23.79034],[80.38167,23.79087],[80.38228,23.79136],[80.38592,23.79065],[80.38623,23.7929],[80.38707,23.79257],[80.3872,23.79295],[80.3873,23.79431],[80.3871,23.79471],[80.38833,23.79501],[80.38957,23.79488],[80.38962,23.7951],[80.39034,23.79534],[80.39027,23.79574],[80.39088,23.79598],[80.39147,23.79593],[80.39193,23.79618],[80.39173,23.79646],[80.39261,23.79647],[80.39391,23.79702],[80.39499,23.79724],[80.39614,23.79804],[80.39668,23.79813],[80.39694,23.79801],[80.39874,23.80639],[80.40093,23.80628],[80.40392,23.80562]]]}}]}