{"type":"FeatureCollection","features":[{"type":"Feature","bbox":[79.93673,23.14104,79.94723,23.16215],"properties":{"ward":1,"name":"Ballabh Ganj Gandhi Ganj"},"geometry":{"type":"Polygon","coordinates":[[[79.94355,23.14962],[79.94454,23.14793],[79.94323,23.14474],[79.94413,23.14428],[79.94496,23.14355],[79.94467,23.14322],[79.9446,23.1428],[79.94324,23.14208],[79.9434,23.14104],[79.94212,23.14124],[79.93944,23.14252],[79.94156,23.1464],[79.93884,23.14708],[79.93864,23.14671],[79.93674,23.14692],[79.93688,23.14916],[79.93914,23.14875],[79.93911,23.14976],[79.9372,23.15023],[79.93731,23.15081],[79.93673,23.15173],[79.93789,23.15287],[79.93756,23.15312],[79.93806,23.15396],[79.93787,23.15608],[79.93806,23.15625],[79.93868,23.15888],[79.94558,23.16215],[79.94659,23.16126],[79.94705,23.16114],[79.94723,23.159],[79.94614,23.15833],[79.94473,23.15784],[79.94369,23.15796],[79.9422,23.15861],[79.94232,23.15478],[79.94194,23.15445],[79.94125,23.15418],[79.94221,23.15404],[79.94222,23.15278],[79.94148,23.15271],[79.93988,23.15202],[79.94072,23.15081],[79.94125,23.15091],[79.94159,23.1507],[79.94213,23.15105],[79.94355,23.14962]]]}},{"type":"Feature","bbox":[79.93188,23.12765,79.97084,23.1488],"properties":{"ward":2,"name":"Bazaar Area"},"geometry":{"type":"Polygon","coordinates":[[[79.94461,23.14799],[79.94475,23.14799],[79.94513,23.1488],[79.94878,23.14743],[79.94779,23.14429],[79.94798,23.14386],[79.94833,23.14143],[79.94908,23.14052],[79.95756,23.13831],[79.95923,23.13672],[79.95825,23.14562],[79.95787,23.14638],[79.96097,23.14584],[79.96268,23.1462],[79.96308,23.1461],[79.97057,23.14233],[79.97028,23.14147],[79.97036,23.14107],[79.97084,23.14041],[79.97064,23.14035],[79.97064,23.14012],[79.97026,23.14016],[79.96999,23.13994],[79.9697,23.14014],[79.96934,23.1395],[79.96971,23.139],[79.96959,23.13779],[79.96995,23.13741],[79.96992,23.13697],[79.97063,23.13655],[79.9707,23.13626],[79.97011,23.13596],[79.96979,23.13608],[79.9697,23.13594],[79.9676,23.13624],[79.96521,23.13616],[79.96345,23.13386],[79.96245,23.13394],[79.94923,23.13017],[79.94479,23.13077],[79.93861,23.12765],[79.93335,23.13131],[79.93188,23.1333],[79.93209,23.13372],[79.93318,23.13339],[79.93597,23.13577],[79.93902,23.13772],[79.93905,23.1386],[79.93945,23.14023],[79.9382,23.14068],[79.93935,23.14253],[79.94213,23.14121],[79.94341,23.14103],[79.94327,23.14208],[79.94461,23.14278],[79.94468,23.14318],[79.94499,23.14356],[79.94413,23.14433],[79.94327,23.14475],[79.94461,23.14799]]]}},{"type":"Feature","bbox":[79.94522,23.13677,79.95921,23.15452],"properties":{"ward":3,"name":"Aruna Ganj"},"geometry":{"type":"Polygon","coordinates":[[[79.9483,23.15329],[79.94842,23.15452],[79.95213,23.15449],[79.95315,23.15088],[79.95439,23.15037],[79.95546,23.1495],[79.95783,23.14618],[79.95816,23.14567],[79.9584,23.14421],[79.95921,23.13677],[79.95759,23.13831],[79.94919,23.14053],[79.94845,23.14131],[79.94803,23.14393],[79.94785,23.14429],[79.94883,23.14743],[79.94522,23.14879],[79.94552,23.14938],[79.94581,23.14936],[79.94596,23.14958],[79.94668,23.14957],[79.9467,23.15093],[79.94726,23.15073],[79.94787,23.15086],[79.94826,23.15117],[79.94848,23.15181],[79.9483,23.15329]]]}},{"type":"Feature","bbox":[79.93993,23.14803,79.94846,23.15473],"properties":{"ward":4,"name":"Tilak Ganj Gopal Ganj"},"geometry":{"type":"Polygon","coordinates":[[[79.94227,23.15403],[79.9444,23.15401],[79.94567,23.15457],[79.94731,23.15473],[79.94742,23.15417],[79.94774,23.15409],[79.9477,23.15378],[79.94806,23.15368],[79.94801,23.15338],[79.94826,23.15323],[79.94846,23.15183],[79.94824,23.15118],[79.94787,23.15088],[79.94725,23.15075],[79.94667,23.15097],[79.94667,23.14959],[79.94594,23.14962],[79.94582,23.14938],[79.94549,23.14942],[79.94475,23.14803],[79.94461,23.14805],[79.94362,23.14957],[79.94214,23.15107],[79.94156,23.15073],[79.94125,23.15093],[79.94074,23.15083],[79.93993,23.152],[79.94153,23.15267],[79.94227,23.15276],[79.94227,23.15403]]]}},{"type":"Feature","bbox":[79.94131,23.15327,79.95424,23.16109],"properties":{"ward":5,"name":"Pts Area"},"geometry":{"type":"Polygon","coordinates":[[[79.94706,23.16109],[79.94872,23.16087],[79.94956,23.15957],[79.95424,23.15864],[79.95412,23.15775],[79.95095,23.15663],[79.95192,23.15465],[79.94839,23.15457],[79.94827,23.15327],[79.94803,23.15339],[79.94808,23.1537],[79.94771,23.15379],[79.94777,23.15412],[79.94743,23.15419],[79.94745,23.15466],[79.94732,23.15476],[79.94561,23.15464],[79.94456,23.15407],[79.94131,23.15416],[79.94195,23.1544],[79.94234,23.15477],[79.94223,23.15856],[79.94368,23.15792],[79.94437,23.1578],[79.94519,23.15791],[79.94619,23.15831],[79.94728,23.15899],[79.94706,23.16109]]]}},{"type":"Feature","bbox":[79.95105,23.13042,79.99565,23.16843],"properties":{"ward":6,"name":"Nalanda"},"geometry":{"type":"Polygon","coordinates":[[[79.98242,23.13691],[79.98167,23.1368],[79.98404,23.13575],[79.98427,23.13581],[79.98448,23.13469],[79.98434,23.13352],[79.98557,23.13109],[79.98403,23.13042],[79.97866,23.13325],[79.97878,23.13395],[79.97976,23.13532],[79.97949,23.13647],[79.97999,23.13751],[79.96291,23.14627],[79.96094,23.14595],[79.958,23.14647],[79.95605,23.14909],[79.95488,23.15027],[79.95327,23.15093],[79.9522,23.15455],[79.95105,23.15657],[79.95433,23.15779],[79.95565,23.15774],[79.95614,23.15804],[79.95839,23.16148],[79.96159,23.16108],[79.96142,23.16008],[79.96573,23.15953],[79.96726,23.15813],[79.968,23.15723],[79.96879,23.15677],[79.96999,23.15556],[79.97056,23.15449],[79.97278,23.15364],[79.97301,23.15572],[79.97533,23.15539],[79.97564,23.15553],[79.97568,23.15574],[79.97585,23.15566],[79.97622,23.15581],[79.97702,23.15634],[79.97705,23.15644],[79.9768,23.15648],[79.97688,23.15665],[79.97729,23.1565],[79.9798,23.15635],[79.9794,23.15703],[79.97926,23.1584],[79.97962,23.15943],[79.98308,23.1612],[79.9842,23.16202],[79.98404,23.16243],[79.98318,23.16287],[79.9947,23.16843],[79.99565,23.16834],[79.9955,23.16759],[79.9951,23.16705],[79.9946,23.16684],[79.99382,23.16688],[79.99268,23.16613],[79.99151,23.16572],[79.99066,23.16501],[79.98993,23.16475],[79.98757,23.16224],[79.9872,23.16152],[79.98623,23.15802],[79.98508,23.15593],[79.98303,23.1559],[79.98278,23.15603],[79.98226,23.15594],[79.98157,23.15606],[79.9809,23.15527],[79.98083,23.15476],[79.98143,23.15405],[79.98033,23.15312],[79.97905,23.15282],[79.97867,23.15259],[79.97797,23.1516],[79.97847,23.15089],[79.97902,23.15079],[79.97958,23.15113],[79.98034,23.15053],[79.98015,23.14735],[79.98034,23.14681],[79.98091,23.14668],[79.98081,23.14395],[79.98167,23.14348],[79.98311,23.14205],[79.98398,23.13971],[79.98404,23.13826],[79.98352,23.13752],[79.98242,23.13691]]]}},{"type":"Feature","bbox":[79.97803,23.13579,80.00026,23.16752],"properties":{"ward":7,"name":"Army Area"},"geometry":{"type":"Polygon","coordinates":[[[79.98428,23.13586],[79.98406,23.13579],[79.98172,23.1368],[79.98244,23.13687],[79.98304,23.13716],[79.98356,23.1375],[79.98414,23.13829],[79.98397,23.13998],[79.98322,23.14201],[79.98168,23.14357],[79.98087,23.144],[79.98095,23.1467],[79.98037,23.14683],[79.98017,23.14735],[79.98035,23.15055],[79.97959,23.15115],[79.97903,23.15082],[79.97859,23.15086],[79.97829,23.15109],[79.97803,23.15163],[79.97858,23.15246],[79.97895,23.15274],[79.98041,23.1531],[79.98149,23.15403],[79.98085,23.15477],[79.98094,23.15527],[79.98163,23.15604],[79.98226,23.15588],[79.98278,23.15599],[79.98302,23.15585],[79.98513,23.15589],[79.98623,23.15772],[79.98727,23.16154],[79.98762,23.16224],[79.99,23.16476],[79.99068,23.16499],[79.99167,23.16574],[79.99274,23.16611],[79.99383,23.16683],[79.99473,23.16682],[79.99551,23.16752],[79.99495,23.16366],[79.99617,23.16284],[79.99824,23.15825],[80.00026,23.15688],[80.00009,23.15588],[79.99831,23.15464],[79.99724,23.15272],[79.99698,23.14935],[79.99648,23.14897],[79.9953,23.14848],[79.99347,23.14872],[79.99288,23.14719],[79.99311,23.14588],[79.9923,23.14475],[79.99125,23.14405],[79.99029,23.14408],[79.98924,23.14034],[79.98623,23.13803],[79.98428,23.13586]]]}}]}