{"type":"FeatureCollection","features":[{"type":"Feature","bbox":[80.04299,23.09583,80.04618,23.09754],"properties":{"ward":1,"name":"Kisani Ward Barela"},"geometry":{"type":"Polygon","coordinates":[[[80.04299,23.09697],[80.04325,23.09724],[80.04451,23.09754],[80.04593,23.09743],[80.04589,23.09681],[80.04618,23.09663],[80.04594,23.09583],[80.04411,23.09626],[80.04299,23.09697]]]}},{"type":"Feature","bbox":[80.04313,23.09567,80.04907,23.10655],"properties":{"ward":2,"name":"Sardar Patel Ward Barela"},"geometry":{"type":"Polygon","coordinates":[[[80.04888,23.10086],[80.04835,23.10023],[80.0485,23.0995],[80.04791,23.09976],[80.04683,23.09974],[80.04729,23.09843],[80.04721,23.09757],[80.04738,23.09637],[80.04714,23.09567],[80.04593,23.09584],[80.04618,23.09662],[80.04585,23.0968],[80.04593,23.09743],[80.04379,23.09821],[80.04352,23.09855],[80.04374,23.09877],[80.04313,23.09915],[80.04472,23.10184],[80.04613,23.10655],[80.04645,23.10647],[80.04628,23.10602],[80.04644,23.10499],[80.04693,23.105],[80.04747,23.1047],[80.04896,23.10438],[80.04884,23.10243],[80.04893,23.10159],[80.04907,23.10154],[80.04905,23.10084],[80.04888,23.10086]]]}},{"type":"Feature","bbox":[80.04812,23.09813,80.05044,23.10086],"properties":{"ward":3,"name":"Vyohari Ward Barela"},"geometry":{"type":"Polygon","coordinates":[[[80.04888,23.10086],[80.04928,23.1005],[80.04977,23.10032],[80.04968,23.10015],[80.05003,23.10004],[80.05001,23.09973],[80.05043,23.09954],[80.05044,23.09916],[80.04979,23.09904],[80.04863,23.09813],[80.04817,23.09858],[80.04827,23.09887],[80.04812,23.09894],[80.04816,23.09932],[80.04823,23.09952],[80.0485,23.0995],[80.04838,23.1003],[80.04865,23.10045],[80.04888,23.10086]]]}},{"type":"Feature","bbox":[80.04681,23.09691,80.04892,23.0998],"properties":{"ward":4,"name":"Gandhi Ward Barela"},"geometry":{"type":"Polygon","coordinates":[[[80.04729,23.09843],[80.04681,23.09979],[80.04778,23.0998],[80.04823,23.09961],[80.0482,23.09856],[80.04874,23.09812],[80.04861,23.09777],[80.04865,23.09749],[80.04892,23.09722],[80.04886,23.09694],[80.04778,23.09703],[80.04733,23.09691],[80.04718,23.09762],[80.04729,23.09843]]]}},{"type":"Feature","bbox":[80.04714,23.09559,80.04956,23.09714],"properties":{"ward":5,"name":"Ambedkar Ward Barela"},"geometry":{"type":"Polygon","coordinates":[[[80.0489,23.09714],[80.0494,23.09703],[80.04956,23.09684],[80.0492,23.09642],[80.04926,23.09589],[80.04777,23.09559],[80.04714,23.09563],[80.04738,23.09635],[80.04733,23.09691],[80.04821,23.09704],[80.04886,23.09693],[80.0489,23.09714]]]}},{"type":"Feature","bbox":[80.0486,23.09589,80.05034,23.09911],"properties":{"ward":6,"name":"Javahar Ward Barela"},"geometry":{"type":"Polygon","coordinates":[[[80.04974,23.09902],[80.05034,23.09911],[80.04995,23.09795],[80.05018,23.09764],[80.05032,23.09611],[80.04926,23.09589],[80.04917,23.09635],[80.04957,23.09684],[80.04863,23.09748],[80.0486,23.09784],[80.04907,23.09851],[80.04974,23.09902]]]}},{"type":"Feature","bbox":[80.04995,23.09611,80.05457,23.09872],"properties":{"ward":7,"name":"Shastri Ward Barela"},"geometry":{"type":"Polygon","coordinates":[[[80.0501,23.0985],[80.05045,23.09846],[80.05069,23.09872],[80.05088,23.0987],[80.05159,23.09775],[80.05264,23.09749],[80.05393,23.09741],[80.05457,23.09698],[80.0545,23.09678],[80.05352,23.09673],[80.05032,23.09611],[80.05017,23.09764],[80.04995,23.09801],[80.0501,23.0985]]]}},{"type":"Feature","bbox":[80.05014,23.097,80.055,23.0994],"properties":{"ward":8,"name":"Subhash Ward Barela"},"geometry":{"type":"Polygon","coordinates":[[[80.05031,23.09911],[80.05149,23.0994],[80.0531,23.09907],[80.05283,23.09852],[80.05221,23.0979],[80.05271,23.09767],[80.05291,23.09765],[80.05297,23.09797],[80.05356,23.09829],[80.05384,23.09804],[80.05392,23.09765],[80.055,23.09795],[80.05453,23.097],[80.05393,23.09741],[80.05264,23.09749],[80.05158,23.09776],[80.05082,23.09872],[80.05045,23.09845],[80.05014,23.09855],[80.05031,23.09911]]]}},{"type":"Feature","bbox":[80.04904,23.09765,80.05709,23.10167],"properties":{"ward":9,"name":"Ajad Ward Barela"},"geometry":{"type":"Polygon","coordinates":[[[80.04907,23.10153],[80.04921,23.10167],[80.051,23.10147],[80.05219,23.1008],[80.05227,23.10039],[80.0525,23.10034],[80.05282,23.1005],[80.05405,23.10055],[80.0549,23.10083],[80.05497,23.10036],[80.05536,23.10054],[80.0556,23.10124],[80.05583,23.10131],[80.05669,23.10078],[80.05661,23.10058],[80.0569,23.10046],[80.05709,23.10003],[80.05625,23.09962],[80.05528,23.09885],[80.05502,23.09796],[80.05392,23.09765],[80.05384,23.09804],[80.05356,23.09829],[80.05297,23.09797],[80.05282,23.09765],[80.0522,23.09789],[80.05273,23.09839],[80.0531,23.09906],[80.05149,23.0994],[80.05044,23.09916],[80.05043,23.09954],[80.05,23.09973],[80.05,23.10005],[80.04967,23.10014],[80.04977,23.10031],[80.04927,23.1005],[80.04904,23.10084],[80.04907,23.10153]]]}},{"type":"Feature","bbox":[80.05441,23.08942,80.06782,23.10024],"properties":{"ward":10,"name":"Sarojni Naydu Ward"},"geometry":{"type":"Polygon","coordinates":[[[80.05625,23.09967],[80.05773,23.10024],[80.06,23.09957],[80.06205,23.09935],[80.06214,23.09639],[80.06774,23.09625],[80.06782,23.095],[80.06734,23.094],[80.06691,23.09411],[80.06633,23.09321],[80.06485,23.09211],[80.06467,23.09161],[80.06595,23.09076],[80.06584,23.09041],[80.06492,23.09037],[80.06379,23.08948],[80.0628,23.09013],[80.05514,23.08942],[80.05553,23.09006],[80.05585,23.09108],[80.05624,23.09149],[80.05685,23.09373],[80.0579,23.09547],[80.05441,23.09668],[80.05489,23.09763],[80.05518,23.09876],[80.05625,23.09967]]]}},{"type":"Feature","bbox":[80.05468,23.09027,80.0579,23.09635],"properties":{"ward":11,"name":"Vinoba Bhave Ward Barela"},"geometry":{"type":"Polygon","coordinates":[[[80.05524,23.09578],[80.0555,23.09635],[80.0579,23.09547],[80.05683,23.09372],[80.05625,23.09143],[80.05555,23.09027],[80.05484,23.09056],[80.05479,23.09138],[80.05468,23.09142],[80.05508,23.09266],[80.05486,23.09367],[80.05507,23.09451],[80.05495,23.09471],[80.05504,23.09497],[80.05532,23.09507],[80.05539,23.09538],[80.05524,23.09578]]]}},{"type":"Feature","bbox":[80.05071,23.08928,80.0555,23.09668],"properties":{"ward":12,"name":"Dada Than-Than Pal Ward Barela"},"geometry":{"type":"Polygon","coordinates":[[[80.05422,23.09668],[80.0555,23.09635],[80.05525,23.09577],[80.05533,23.0951],[80.05503,23.09496],[80.05496,23.09474],[80.05507,23.09455],[80.05486,23.0937],[80.05508,23.09268],[80.05467,23.09142],[80.05484,23.09055],[80.05337,23.08928],[80.0523,23.09013],[80.05183,23.09008],[80.05186,23.08993],[80.05087,23.08987],[80.05071,23.09174],[80.051,23.09147],[80.05104,23.09342],[80.05281,23.093],[80.05315,23.0934],[80.05253,23.09368],[80.05243,23.09406],[80.05276,23.09414],[80.05261,23.09469],[80.05286,23.09512],[80.0536,23.09499],[80.05396,23.09514],[80.05422,23.09668]]]}},{"type":"Feature","bbox":[80.05099,23.093,80.05424,23.09673],"properties":{"ward":13,"name":"Vidya Sagar Ward Barela"},"geometry":{"type":"Polygon","coordinates":[[[80.05122,23.09629],[80.05351,23.09673],[80.05424,23.09672],[80.05404,23.09523],[80.05374,23.09498],[80.0528,23.0951],[80.05263,23.09472],[80.05276,23.09415],[80.05243,23.09405],[80.05249,23.09381],[80.0526,23.09361],[80.05315,23.0934],[80.05281,23.093],[80.05104,23.09341],[80.05099,23.0942],[80.05133,23.09511],[80.05106,23.09543],[80.05122,23.09559],[80.05122,23.09629]]]}},{"type":"Feature","bbox":[80.04761,23.09147,80.05133,23.09629],"properties":{"ward":14,"name":"Rajendra Prasad Ward"},"geometry":{"type":"Polygon","coordinates":[[[80.04981,23.096],[80.05125,23.09629],[80.05108,23.09543],[80.05133,23.09511],[80.05101,23.09417],[80.05101,23.09147],[80.05073,23.09173],[80.049,23.0919],[80.04761,23.09255],[80.04798,23.09333],[80.048,23.09365],[80.04769,23.094],[80.04779,23.09427],[80.04865,23.09496],[80.04981,23.09464],[80.0496,23.09504],[80.04981,23.096]]]}},{"type":"Feature","bbox":[80.04146,23.09133,80.04989,23.09744],"properties":{"ward":15,"name":"Bhagat Singh Ward"},"geometry":{"type":"Polygon","coordinates":[[[80.04232,23.09744],[80.04426,23.0962],[80.04684,23.0957],[80.0477,23.09561],[80.04985,23.09601],[80.04989,23.09572],[80.04961,23.09499],[80.04983,23.09465],[80.04875,23.09497],[80.04848,23.09492],[80.04825,23.09454],[80.04779,23.09427],[80.04769,23.094],[80.04799,23.09365],[80.04799,23.09334],[80.04704,23.09137],[80.04668,23.09133],[80.04678,23.09172],[80.04594,23.09228],[80.04459,23.09252],[80.04412,23.09307],[80.04347,23.09278],[80.04256,23.0945],[80.04146,23.09615],[80.04232,23.09744]]]}}]}