{"type":"FeatureCollection","features":[{"type":"Feature","bbox":[77.94371,23.84602,77.94889,23.85184],"properties":{"ward":1,"name":"Bhagat Singh"},"geometry":{"type":"Polygon","coordinates":[[[77.94766,23.85184],[77.94889,23.85097],[77.94785,23.85048],[77.94655,23.84938],[77.94674,23.84918],[77.94545,23.84775],[77.94529,23.8471],[77.94485,23.84693],[77.94429,23.84602],[77.94371,23.84623],[77.94402,23.84669],[77.94389,23.8468],[77.94467,23.84882],[77.94433,23.84893],[77.94442,23.84928],[77.94471,23.84922],[77.94501,23.84987],[77.94385,23.8504],[77.94466,23.85115],[77.94457,23.8515],[77.94513,23.85174],[77.94616,23.85158],[77.9472,23.85162],[77.94766,23.85184]]]}},{"type":"Feature","bbox":[77.94217,23.84623,77.945,23.8501],"properties":{"ward":2,"name":"Deendayal Upadhyay"},"geometry":{"type":"Polygon","coordinates":[[[77.94393,23.84679],[77.94402,23.84669],[77.94371,23.84623],[77.94217,23.84698],[77.94331,23.84849],[77.94368,23.84959],[77.9443,23.8501],[77.945,23.84998],[77.94471,23.84922],[77.94442,23.84928],[77.94433,23.84893],[77.94467,23.84882],[77.94393,23.84679]]]}},{"type":"Feature","bbox":[77.93936,23.84698,77.94466,23.85187],"properties":{"ward":3,"name":"Sant Raidas"},"geometry":{"type":"Polygon","coordinates":[[[77.94217,23.84876],[77.94227,23.84938],[77.9419,23.84938],[77.9413,23.85138],[77.94162,23.85148],[77.9417,23.85126],[77.94219,23.8513],[77.94332,23.85186],[77.94429,23.85187],[77.94466,23.85115],[77.94385,23.8504],[77.9443,23.8501],[77.94364,23.84954],[77.94365,23.8492],[77.94331,23.84849],[77.94217,23.84698],[77.93936,23.84871],[77.93952,23.84926],[77.94153,23.84802],[77.94217,23.84876]]]}},{"type":"Feature","bbox":[77.93952,23.84802,77.94332,23.85316],"properties":{"ward":4,"name":"Sant Raidas"},"geometry":{"type":"Polygon","coordinates":[[[77.94217,23.84876],[77.94153,23.84802],[77.93952,23.84926],[77.93973,23.85033],[77.93998,23.85033],[77.94052,23.85199],[77.94109,23.85194],[77.9416,23.85316],[77.94289,23.853],[77.94321,23.85259],[77.94317,23.85201],[77.94332,23.85186],[77.94219,23.8513],[77.9417,23.85126],[77.94162,23.85148],[77.9413,23.85138],[77.9419,23.84938],[77.94227,23.84938],[77.94217,23.84876]]]}},{"type":"Feature","bbox":[77.9371,23.84871,77.94109,23.8521],"properties":{"ward":5,"name":"Chanakya"},"geometry":{"type":"Polygon","coordinates":[[[77.93908,23.8521],[77.94109,23.85195],[77.94052,23.85199],[77.93998,23.85033],[77.93973,23.85033],[77.93936,23.84871],[77.9371,23.84941],[77.93794,23.85168],[77.93916,23.8513],[77.93908,23.8521]]]}},{"type":"Feature","bbox":[77.93794,23.8513,77.9466,23.85512],"properties":{"ward":6,"name":"Samrat Ashok"},"geometry":{"type":"Polygon","coordinates":[[[77.94306,23.85438],[77.94308,23.85452],[77.94338,23.85459],[77.9466,23.85356],[77.94645,23.85284],[77.9466,23.85168],[77.94616,23.85158],[77.94503,23.85173],[77.94461,23.8515],[77.94429,23.85187],[77.94332,23.85186],[77.94317,23.85201],[77.94321,23.85259],[77.94289,23.853],[77.9416,23.85316],[77.94114,23.85204],[77.93908,23.8521],[77.93916,23.8513],[77.93794,23.85168],[77.93967,23.85512],[77.94124,23.85457],[77.94306,23.85438]]]}},{"type":"Feature","bbox":[77.93731,23.85356,77.94804,23.86852],"properties":{"ward":7,"name":"Vivekanand"},"geometry":{"type":"Polygon","coordinates":[[[77.94306,23.85438],[77.94124,23.85457],[77.93967,23.85512],[77.94032,23.85645],[77.9398,23.85677],[77.93988,23.85702],[77.94024,23.8571],[77.93911,23.85799],[77.93914,23.85825],[77.93955,23.85858],[77.93903,23.85881],[77.93906,23.85904],[77.93945,23.85905],[77.93947,23.85935],[77.93927,23.85963],[77.93857,23.85946],[77.93848,23.8596],[77.93764,23.85958],[77.93748,23.85994],[77.93757,23.86011],[77.93732,23.86025],[77.93752,23.86073],[77.93731,23.86127],[77.93878,23.8616],[77.93933,23.8619],[77.93939,23.86254],[77.93979,23.86351],[77.94151,23.86705],[77.94258,23.86675],[77.94277,23.86682],[77.94303,23.86752],[77.94534,23.86741],[77.94563,23.86852],[77.94737,23.86848],[77.94765,23.86816],[77.94804,23.86803],[77.94743,23.86596],[77.9476,23.86592],[77.94741,23.86506],[77.94718,23.8651],[77.94694,23.86428],[77.94721,23.86411],[77.9471,23.8639],[77.94696,23.86397],[77.94648,23.86295],[77.94628,23.86285],[77.94583,23.86172],[77.94619,23.8617],[77.94609,23.861],[77.94679,23.86088],[77.94668,23.86018],[77.94724,23.86013],[77.9466,23.85356],[77.94338,23.85459],[77.94308,23.85452],[77.94306,23.85438]]]}},{"type":"Feature","bbox":[77.93172,23.84941,77.94032,23.86196],"properties":{"ward":8,"name":"Samrat Ashok"},"geometry":{"type":"Polygon","coordinates":[[[77.94032,23.85645],[77.93794,23.85168],[77.9371,23.84941],[77.93397,23.85047],[77.93467,23.85183],[77.93425,23.85209],[77.93218,23.85244],[77.93215,23.85404],[77.93172,23.85473],[77.93197,23.85565],[77.93262,23.85643],[77.93275,23.8569],[77.93266,23.85737],[77.93206,23.85825],[77.9324,23.85907],[77.93208,23.8596],[77.93217,23.85989],[77.93349,23.85973],[77.93408,23.86017],[77.93405,23.86052],[77.93315,23.86136],[77.93324,23.86188],[77.93346,23.86196],[77.93435,23.86173],[77.93422,23.86129],[77.93627,23.86105],[77.93731,23.86127],[77.93752,23.86073],[77.93732,23.86025],[77.93757,23.86011],[77.93748,23.85994],[77.93764,23.85958],[77.93848,23.8596],[77.93857,23.85946],[77.93933,23.85961],[77.93949,23.85912],[77.93908,23.85907],[77.93902,23.85887],[77.93946,23.85869],[77.93954,23.8585],[77.93917,23.85829],[77.93911,23.85799],[77.94024,23.8571],[77.93993,23.85705],[77.9398,23.8568],[77.94032,23.85645]]]}},{"type":"Feature","bbox":[77.93397,23.84575,77.9371,23.85047],"properties":{"ward":9,"name":"Neetajee Subash"},"geometry":{"type":"Polygon","coordinates":[[[77.93483,23.84575],[77.93492,23.84667],[77.93449,23.84753],[77.93512,23.84917],[77.93494,23.84957],[77.93403,23.85017],[77.93397,23.85047],[77.9371,23.84941],[77.93651,23.84711],[77.93661,23.84636],[77.93483,23.84575]]]}},{"type":"Feature","bbox":[77.9365,23.84522,77.93928,23.84935],"properties":{"ward":10,"name":"Dr Ambedkar"},"geometry":{"type":"Polygon","coordinates":[[[77.93708,23.84935],[77.93928,23.84873],[77.93859,23.84698],[77.938,23.84701],[77.93769,23.84544],[77.93721,23.84522],[77.93666,23.84622],[77.9365,23.84695],[77.93708,23.84935]]]}},{"type":"Feature","bbox":[77.93721,23.84391,77.94121,23.84873],"properties":{"ward":11,"name":"Sant Tulshidas"},"geometry":{"type":"Polygon","coordinates":[[[77.938,23.84701],[77.93859,23.84698],[77.93928,23.84873],[77.94121,23.84763],[77.94047,23.84642],[77.94016,23.84509],[77.93903,23.8447],[77.9379,23.84391],[77.93721,23.84522],[77.93771,23.84548],[77.938,23.84701]]]}},{"type":"Feature","bbox":[77.94016,23.84494,77.94299,23.84755],"properties":{"ward":12,"name":"Lokmany Tilak"},"geometry":{"type":"Polygon","coordinates":[[[77.94115,23.84755],[77.94299,23.84651],[77.94191,23.84494],[77.94099,23.84552],[77.94066,23.84497],[77.94016,23.84509],[77.94047,23.84642],[77.94115,23.84755]]]}},{"type":"Feature","bbox":[77.9379,23.84111,77.94429,23.84651],"properties":{"ward":13,"name":"Sardar Ballbh Bhai Patel"},"geometry":{"type":"Polygon","coordinates":[[[77.94191,23.84494],[77.94299,23.84651],[77.94429,23.84602],[77.9429,23.84311],[77.94261,23.84202],[77.94312,23.84193],[77.94302,23.84117],[77.94247,23.84126],[77.94239,23.84111],[77.94083,23.84148],[77.94105,23.84235],[77.94043,23.84211],[77.93898,23.84211],[77.9379,23.84391],[77.93903,23.8447],[77.93989,23.84506],[77.94066,23.84497],[77.94099,23.84552],[77.94191,23.84494]]]}},{"type":"Feature","bbox":[77.93469,23.83465,77.94312,23.84636],"properties":{"ward":14,"name":"Indra Gandhi"},"geometry":{"type":"Polygon","coordinates":[[[77.93661,23.84636],[77.93898,23.84211],[77.94043,23.84211],[77.94105,23.84235],[77.94083,23.84148],[77.94239,23.84111],[77.94245,23.84123],[77.94234,23.84038],[77.94251,23.84004],[77.9427,23.83793],[77.94295,23.83769],[77.94312,23.83698],[77.94273,23.83685],[77.94293,23.83522],[77.94252,23.83487],[77.94196,23.83509],[77.94191,23.83546],[77.94155,23.8355],[77.94163,23.83615],[77.94107,23.83622],[77.94088,23.83613],[77.94097,23.83583],[77.94082,23.83569],[77.93837,23.83521],[77.93706,23.83465],[77.93695,23.83476],[77.93677,23.83529],[77.93734,23.83611],[77.93726,23.83717],[77.93588,23.83787],[77.93542,23.83869],[77.93555,23.83928],[77.93588,23.83977],[77.93589,23.84018],[77.93565,23.84073],[77.93527,23.8411],[77.93528,23.84186],[77.93601,23.84346],[77.9358,23.8438],[77.93505,23.84348],[77.93469,23.84368],[77.93471,23.84408],[77.93513,23.84467],[77.93481,23.84575],[77.93661,23.84636]]]}},{"type":"Feature","bbox":[77.9244,23.8438,77.93513,23.85199],"properties":{"ward":15,"name":"Lal Bahadur"},"geometry":{"type":"Polygon","coordinates":[[[77.93395,23.85028],[77.93498,23.84952],[77.93512,23.84917],[77.93449,23.84753],[77.9349,23.84673],[77.93479,23.84576],[77.93513,23.84467],[77.93477,23.84418],[77.93355,23.84401],[77.92885,23.84404],[77.92666,23.8438],[77.9244,23.84405],[77.92694,23.84992],[77.92822,23.85058],[77.92854,23.85099],[77.93012,23.85035],[77.93027,23.85109],[77.93009,23.85117],[77.93024,23.85151],[77.92995,23.85164],[77.93015,23.85199],[77.93135,23.8514],[77.93397,23.85047],[77.93395,23.85028]]]}},{"type":"Feature","bbox":[77.92694,23.84992,77.93027,23.85251],"properties":{"ward":16,"name":"Gurunanak"},"geometry":{"type":"Polygon","coordinates":[[[77.92855,23.85235],[77.92925,23.85234],[77.93015,23.85199],[77.92995,23.85164],[77.93024,23.85151],[77.93009,23.85117],[77.93027,23.85109],[77.93012,23.85035],[77.92854,23.85099],[77.92822,23.85058],[77.92694,23.84992],[77.92706,23.85059],[77.92701,23.85227],[77.92741,23.85213],[77.92833,23.85251],[77.92855,23.85235]]]}},{"type":"Feature","bbox":[77.9223,23.84977,77.92701,23.85189],"properties":{"ward":17,"name":"Mahatma Gandhi"},"geometry":{"type":"Polygon","coordinates":[[[77.92257,23.85017],[77.9223,23.85077],[77.92264,23.85088],[77.92389,23.85103],[77.92463,23.85088],[77.92495,23.85189],[77.92696,23.85182],[77.92701,23.85159],[77.92652,23.85153],[77.92657,23.85081],[77.92621,23.85075],[77.92599,23.84977],[77.92575,23.8498],[77.92577,23.85002],[77.92531,23.85025],[77.92471,23.85022],[77.9245,23.84991],[77.92257,23.85017]]]}},{"type":"Feature","bbox":[77.92257,23.84405,77.92706,23.85159],"properties":{"ward":18,"name":"Chatra Pati Shivajee"},"geometry":{"type":"Polygon","coordinates":[[[77.92314,23.84898],[77.92257,23.85017],[77.9245,23.84991],[77.92471,23.85022],[77.92531,23.85025],[77.92577,23.85002],[77.92575,23.8498],[77.92599,23.84977],[77.92621,23.85075],[77.92657,23.85081],[77.92652,23.85153],[77.92701,23.85159],[77.92706,23.85054],[77.9269,23.84969],[77.9244,23.84405],[77.92413,23.84415],[77.92436,23.8448],[77.9232,23.84517],[77.92365,23.84788],[77.92413,23.84783],[77.9245,23.8485],[77.92314,23.84898]]]}},{"type":"Feature","bbox":[77.92204,23.85077,77.92571,23.85324],"properties":{"ward":19,"name":"Maharana Pratap"},"geometry":{"type":"Polygon","coordinates":[[[77.92463,23.85088],[77.92389,23.85103],[77.9223,23.85077],[77.92204,23.85133],[77.92244,23.85208],[77.92349,23.85324],[77.9243,23.85278],[77.92517,23.85285],[77.92528,23.8524],[77.92567,23.8524],[77.92571,23.85192],[77.92495,23.85189],[77.92463,23.85088]]]}},{"type":"Feature","bbox":[77.91245,23.84726,77.9245,23.85349],"properties":{"ward":20,"name":"Dr Rajendra Prasad"},"geometry":{"type":"Polygon","coordinates":[[[77.92194,23.85154],[77.92312,23.84899],[77.9245,23.8485],[77.92413,23.84783],[77.92365,23.84788],[77.9236,23.84747],[77.92297,23.84757],[77.92293,23.84796],[77.92283,23.84796],[77.92255,23.84726],[77.92161,23.84732],[77.92172,23.84847],[77.92077,23.84854],[77.92068,23.84801],[77.91795,23.8486],[77.91358,23.84871],[77.91362,23.84946],[77.91296,23.84937],[77.91292,23.84952],[77.91312,23.84957],[77.91245,23.85063],[77.9126,23.85092],[77.91389,23.85085],[77.91425,23.85137],[77.91604,23.85143],[77.91637,23.85247],[77.91737,23.85349],[77.91967,23.85304],[77.92011,23.85282],[77.92158,23.8516],[77.92194,23.85154]]]}},{"type":"Feature","bbox":[77.91807,23.85133,77.92567,23.86479],"properties":{"ward":21,"name":"Mahaveer Swami"},"geometry":{"type":"Polygon","coordinates":[[[77.92454,23.85529],[77.92551,23.85321],[77.92567,23.8524],[77.92528,23.8524],[77.92517,23.85285],[77.9243,23.85278],[77.92349,23.85324],[77.92244,23.85208],[77.92204,23.85133],[77.92194,23.85154],[77.92158,23.8516],[77.91973,23.85302],[77.91807,23.85334],[77.91852,23.85433],[77.91813,23.85454],[77.91846,23.85508],[77.91899,23.8555],[77.9186,23.85587],[77.91895,23.85672],[77.91922,23.85836],[77.91904,23.85855],[77.91939,23.85967],[77.91874,23.86016],[77.9194,23.86086],[77.92051,23.86054],[77.92071,23.86165],[77.92113,23.86237],[77.92159,23.86229],[77.92202,23.86357],[77.92141,23.86347],[77.9214,23.86454],[77.92313,23.86412],[77.92318,23.86459],[77.92382,23.86479],[77.92425,23.86407],[77.92432,23.86366],[77.924,23.86147],[77.92393,23.85958],[77.92454,23.85529]]]}},{"type":"Feature","bbox":[77.92515,23.85182,77.9277,23.85414],"properties":{"ward":22,"name":"Nehru"},"geometry":{"type":"Polygon","coordinates":[[[77.92696,23.85182],[77.92572,23.85193],[77.92563,23.85285],[77.92515,23.85394],[77.92698,23.85414],[77.9277,23.85392],[77.92735,23.85349],[77.92696,23.85182]]]}},{"type":"Feature","bbox":[77.92393,23.85213,77.93273,23.86394],"properties":{"ward":23,"name":"Veer Sawarkar"},"geometry":{"type":"Polygon","coordinates":[[[77.92536,23.86378],[77.92522,23.86185],[77.93121,23.86038],[77.93165,23.86006],[77.93182,23.85922],[77.9324,23.85907],[77.93206,23.85825],[77.93273,23.85716],[77.93262,23.85643],[77.93188,23.85543],[77.93089,23.85562],[77.9298,23.85556],[77.92914,23.8545],[77.92909,23.85398],[77.92951,23.85347],[77.92966,23.85299],[77.92939,23.85282],[77.92939,23.85257],[77.92966,23.85256],[77.92952,23.85227],[77.92857,23.85231],[77.92833,23.85251],[77.92741,23.85213],[77.92713,23.85217],[77.92702,23.85237],[77.92735,23.85349],[77.9277,23.85392],[77.92698,23.85414],[77.92515,23.85394],[77.92478,23.85464],[77.9243,23.8563],[77.92393,23.85958],[77.92429,23.86394],[77.92536,23.86378]]]}},{"type":"Feature","bbox":[77.92911,23.85047,77.93469,23.85559],"properties":{"ward":24,"name":"Krishna Pura"},"geometry":{"type":"Polygon","coordinates":[[[77.92952,23.85227],[77.92966,23.85256],[77.92939,23.85257],[77.92939,23.85282],[77.92966,23.85299],[77.92951,23.85347],[77.92911,23.85387],[77.92914,23.8545],[77.9298,23.85556],[77.93125,23.85559],[77.93188,23.85543],[77.93172,23.85473],[77.93215,23.85404],[77.93218,23.85244],[77.93425,23.85209],[77.93469,23.85175],[77.93397,23.85047],[77.93135,23.8514],[77.92952,23.85227]]]}}]}