{"type":"FeatureCollection","features":[{"type":"Feature","bbox":[80.67179,22.07565,80.70298,22.09276],"properties":{"ward":1},"geometry":{"type":"Polygon","coordinates":[[[80.67179,22.0812],[80.67353,22.08205],[80.67564,22.08254],[80.6783,22.08366],[80.67922,22.08446],[80.67956,22.08499],[80.67952,22.08533],[80.68014,22.08707],[80.68134,22.08862],[80.68205,22.08893],[80.68232,22.0894],[80.68341,22.09009],[80.68534,22.09099],[80.6863,22.09255],[80.68683,22.09276],[80.6877,22.0926],[80.68784,22.09186],[80.6884,22.09133],[80.68906,22.09098],[80.69098,22.09061],[80.6928,22.08985],[80.69323,22.08948],[80.69512,22.08912],[80.69575,22.08913],[80.69701,22.08862],[80.69752,22.0881],[80.69835,22.08776],[80.69875,22.08742],[80.69999,22.08708],[80.7022,22.08371],[80.70298,22.08323],[80.70284,22.08256],[80.70129,22.08162],[80.70005,22.08031],[80.69953,22.07924],[80.69842,22.07772],[80.6979,22.07581],[80.69742,22.07566],[80.69695,22.07565],[80.69581,22.07606],[80.69428,22.07733],[80.69254,22.07776],[80.69244,22.07791],[80.69009,22.07867],[80.68872,22.07884],[80.68763,22.0793],[80.68664,22.07946],[80.68508,22.07946],[80.68431,22.0793],[80.68296,22.07811],[80.68103,22.07721],[80.67834,22.07718],[80.67792,22.07747],[80.67632,22.07791],[80.67599,22.07821],[80.67517,22.07851],[80.6741,22.0785],[80.67284,22.07909],[80.67218,22.07953],[80.67179,22.0812]]]}},{"type":"Feature","bbox":[80.66327,22.06261,80.69847,22.08112],"properties":{"ward":2},"geometry":{"type":"Polygon","coordinates":[[[80.69736,22.06675],[80.69745,22.06687],[80.69613,22.06764],[80.69524,22.06856],[80.69497,22.06907],[80.69417,22.06893],[80.69354,22.06854],[80.69283,22.06853],[80.69255,22.06891],[80.69138,22.06902],[80.69109,22.06941],[80.68893,22.06938],[80.68805,22.06911],[80.68572,22.06897],[80.68479,22.06834],[80.68114,22.06821],[80.68059,22.06757],[80.68024,22.06757],[80.67985,22.06782],[80.67905,22.06781],[80.67871,22.06768],[80.67841,22.0673],[80.67691,22.06728],[80.67628,22.06791],[80.67539,22.0679],[80.67432,22.06639],[80.67395,22.06554],[80.67426,22.06384],[80.67487,22.06287],[80.67423,22.06263],[80.67341,22.06289],[80.67259,22.06358],[80.67191,22.06357],[80.67064,22.06273],[80.66956,22.06261],[80.66925,22.06284],[80.66862,22.0645],[80.66827,22.06486],[80.66775,22.06486],[80.66715,22.06449],[80.6666,22.06497],[80.66581,22.06606],[80.66542,22.06627],[80.66492,22.06615],[80.66467,22.06648],[80.66445,22.07047],[80.66414,22.07168],[80.66373,22.07222],[80.66345,22.07333],[80.66383,22.0755],[80.66331,22.07683],[80.66327,22.0774],[80.66419,22.07755],[80.66511,22.07858],[80.66597,22.07905],[80.66715,22.0794],[80.66747,22.07971],[80.6681,22.08095],[80.66876,22.08112],[80.66921,22.08082],[80.6695,22.07931],[80.67034,22.07694],[80.67068,22.0762],[80.67102,22.0759],[80.67241,22.07607],[80.67429,22.07564],[80.67524,22.07564],[80.67564,22.0755],[80.67593,22.0748],[80.67705,22.07424],[80.67856,22.07418],[80.67981,22.07392],[80.68111,22.07398],[80.68256,22.07444],[80.68386,22.07456],[80.68426,22.07648],[80.68508,22.07691],[80.68652,22.07689],[80.68702,22.07659],[80.68875,22.07641],[80.68953,22.07598],[80.69107,22.07556],[80.69194,22.075],[80.69269,22.07501],[80.69392,22.07474],[80.69543,22.0739],[80.69719,22.07257],[80.69765,22.07255],[80.69792,22.07205],[80.69791,22.07164],[80.69753,22.07122],[80.69733,22.07],[80.69776,22.06907],[80.69847,22.06841],[80.69843,22.067],[80.69815,22.06662],[80.69736,22.06675]]]}},{"type":"Feature","bbox":[80.67541,22.05981,80.69854,22.06698],"properties":{"ward":3},"geometry":{"type":"MultiPolygon","coordinates":[[[[80.67608,22.06559],[80.67656,22.06555],[80.67675,22.06525],[80.67641,22.06532],[80.67608,22.06559]]],[[[80.67608,22.06559],[80.67589,22.06543],[80.67641,22.06532],[80.67749,22.06468],[80.67809,22.06469],[80.67814,22.06494],[80.67831,22.06494],[80.67815,22.06497],[80.67834,22.06593],[80.67902,22.06544],[80.68146,22.06545],[80.68234,22.0662],[80.68335,22.06658],[80.68555,22.06659],[80.68606,22.06685],[80.68685,22.06696],[80.69056,22.06698],[80.69137,22.06662],[80.69454,22.06663],[80.6956,22.066],[80.69603,22.06551],[80.69809,22.06406],[80.69817,22.0637],[80.69756,22.06311],[80.69755,22.06264],[80.69763,22.06229],[80.69838,22.06174],[80.69854,22.06141],[80.69778,22.06127],[80.69542,22.06129],[80.69533,22.06083],[80.69492,22.06059],[80.69163,22.06135],[80.69045,22.06145],[80.68406,22.06128],[80.6835,22.06105],[80.6827,22.05995],[80.68064,22.05981],[80.67967,22.06024],[80.67727,22.06066],[80.67624,22.06134],[80.67599,22.0618],[80.67541,22.06518],[80.67543,22.06555],[80.67583,22.06579],[80.67608,22.06559]]],[[[80.67675,22.06525],[80.67815,22.06497],[80.67814,22.06494],[80.67707,22.06493],[80.67675,22.06525]]]]}},{"type":"Feature","bbox":[80.6663,22.05403,80.69805,22.06395],"properties":{"ward":4},"geometry":{"type":"Polygon","coordinates":[[[80.66731,22.06324],[80.66748,22.06379],[80.66796,22.06395],[80.66836,22.06286],[80.66845,22.06188],[80.66936,22.06126],[80.67091,22.06125],[80.67159,22.06148],[80.67222,22.06202],[80.67321,22.06136],[80.67477,22.06128],[80.67538,22.06038],[80.67647,22.05983],[80.67718,22.05977],[80.67814,22.0593],[80.67856,22.05944],[80.679,22.05938],[80.67935,22.05897],[80.67944,22.05843],[80.67985,22.0587],[80.68119,22.0587],[80.68284,22.059],[80.68478,22.05971],[80.68538,22.06014],[80.68772,22.06],[80.68834,22.06049],[80.69046,22.06023],[80.69084,22.06009],[80.69124,22.05968],[80.69171,22.05954],[80.69253,22.05956],[80.69312,22.05999],[80.69384,22.05921],[80.69415,22.05914],[80.69562,22.05922],[80.69656,22.05965],[80.6969,22.06007],[80.69723,22.06007],[80.6978,22.05929],[80.69805,22.05922],[80.69708,22.05793],[80.69741,22.0574],[80.69726,22.0566],[80.69757,22.05629],[80.69741,22.05596],[80.6974,22.05508],[80.69752,22.05465],[80.698,22.05422],[80.69801,22.05404],[80.69756,22.05403],[80.69691,22.05438],[80.69556,22.05448],[80.6952,22.0551],[80.69483,22.05535],[80.69314,22.05534],[80.69225,22.05559],[80.69109,22.05523],[80.69012,22.05524],[80.68892,22.05487],[80.68786,22.05488],[80.68502,22.05592],[80.68358,22.05575],[80.68223,22.05625],[80.68136,22.05611],[80.68113,22.05553],[80.67891,22.05516],[80.67871,22.05443],[80.67609,22.05664],[80.67444,22.05695],[80.67277,22.05761],[80.66875,22.05772],[80.66652,22.05861],[80.6663,22.05889],[80.66635,22.05934],[80.66814,22.05974],[80.66764,22.06202],[80.66723,22.06262],[80.66703,22.06324],[80.66731,22.06324]],[[80.6674,22.06324],[80.66739,22.06316],[80.66746,22.06324],[80.6674,22.06324]],[[80.66746,22.06324],[80.66754,22.06324],[80.66766,22.06348],[80.66746,22.06324]]]}},{"type":"Feature","bbox":[80.66365,22.04105,80.69113,22.05867],"properties":{"ward":5},"geometry":{"type":"Polygon","coordinates":[[[80.6643,22.05644],[80.66523,22.05867],[80.66581,22.05796],[80.66731,22.05708],[80.66839,22.05708],[80.67053,22.05673],[80.67257,22.05674],[80.67373,22.05634],[80.67391,22.05612],[80.67527,22.05588],[80.67613,22.05526],[80.67709,22.05426],[80.67825,22.05377],[80.67874,22.05323],[80.68028,22.0521],[80.68092,22.05204],[80.68129,22.05184],[80.68203,22.05185],[80.68317,22.05126],[80.6858,22.05065],[80.68638,22.05025],[80.68802,22.04966],[80.68923,22.04951],[80.69049,22.04904],[80.691,22.04903],[80.69113,22.0489],[80.69096,22.04798],[80.68834,22.04369],[80.68719,22.04226],[80.68598,22.04105],[80.68579,22.04105],[80.68572,22.04196],[80.68587,22.04327],[80.68664,22.04413],[80.68661,22.04502],[80.68584,22.04588],[80.68457,22.04641],[80.68392,22.04695],[80.68304,22.04713],[80.68298,22.04768],[80.68227,22.04768],[80.68181,22.04744],[80.6805,22.04726],[80.67999,22.04677],[80.67955,22.04731],[80.67555,22.04725],[80.674,22.04741],[80.6731,22.04812],[80.67139,22.05019],[80.67081,22.05333],[80.6698,22.05461],[80.66893,22.05453],[80.6671,22.05393],[80.66452,22.05397],[80.66367,22.05417],[80.66365,22.05543],[80.6643,22.05644]]]}},{"type":"Feature","bbox":[80.67923,22.04941,80.69733,22.05566],"properties":{"ward":6},"geometry":{"type":"Polygon","coordinates":[[[80.67934,22.05364],[80.67923,22.05405],[80.67974,22.05484],[80.68002,22.05486],[80.68062,22.05446],[80.68089,22.05446],[80.68085,22.05468],[80.68102,22.0549],[80.68168,22.05463],[80.68185,22.05485],[80.68188,22.05551],[80.68206,22.05566],[80.68293,22.05523],[80.68521,22.05515],[80.68655,22.05464],[80.68885,22.05411],[80.68956,22.0541],[80.69053,22.05461],[80.6934,22.0549],[80.69482,22.05453],[80.69644,22.05346],[80.6971,22.05391],[80.69733,22.05327],[80.6972,22.05298],[80.69601,22.05191],[80.69298,22.0502],[80.69205,22.04947],[80.6905,22.04941],[80.68917,22.05009],[80.68815,22.05024],[80.68734,22.05078],[80.68355,22.05215],[80.68068,22.05292],[80.68019,22.05291],[80.67971,22.05317],[80.67934,22.05364]],[[80.67934,22.05392],[80.6795,22.05372],[80.67972,22.05366],[80.67934,22.05392]]]}},{"type":"Feature","bbox":[80.68462,22.03213,80.70567,22.04877],"properties":{"ward":7},"geometry":{"type":"Polygon","coordinates":[[[80.68623,22.04057],[80.68613,22.04044],[80.68765,22.04219],[80.68868,22.04296],[80.68896,22.04368],[80.68975,22.04471],[80.69052,22.04615],[80.69098,22.04645],[80.69187,22.04843],[80.69235,22.04877],[80.69288,22.04871],[80.69304,22.04847],[80.69339,22.0484],[80.69576,22.04819],[80.69629,22.04771],[80.69867,22.04727],[80.70012,22.04654],[80.70021,22.04567],[80.70075,22.04552],[80.70089,22.04469],[80.702,22.04374],[80.70151,22.04316],[80.70168,22.04259],[80.70162,22.04114],[80.702,22.04114],[80.70222,22.04094],[80.70232,22.04035],[80.7028,22.03989],[80.70429,22.0391],[80.70499,22.03897],[80.7056,22.03791],[80.70567,22.03718],[80.70551,22.03694],[80.70439,22.03711],[80.70416,22.03675],[80.70268,22.03639],[80.70203,22.03638],[80.70179,22.03668],[80.69997,22.03689],[80.69912,22.03718],[80.69902,22.03657],[80.69624,22.03662],[80.69607,22.03686],[80.69554,22.03944],[80.69488,22.03899],[80.69413,22.03878],[80.6939,22.03778],[80.69261,22.03532],[80.6914,22.03367],[80.69087,22.03245],[80.6903,22.03213],[80.68948,22.03276],[80.68892,22.03296],[80.68868,22.03301],[80.68849,22.03266],[80.68831,22.03271],[80.68817,22.03308],[80.68711,22.03402],[80.68673,22.03398],[80.68724,22.03527],[80.68575,22.03627],[80.685,22.03644],[80.68468,22.03686],[80.68462,22.0371],[80.68518,22.03933],[80.68577,22.04043],[80.68623,22.04057]]]}},{"type":"Feature","bbox":[80.70105,22.02594,80.72755,22.04608],"properties":{"ward":8},"geometry":{"type":"Polygon","coordinates":[[[80.70512,22.03926],[80.70441,22.04005],[80.70354,22.04006],[80.7027,22.0408],[80.70276,22.04113],[80.70298,22.04121],[80.70305,22.04145],[80.70276,22.04203],[80.70246,22.04204],[80.70226,22.04306],[80.70275,22.04338],[80.70258,22.04426],[80.70105,22.04581],[80.70118,22.04608],[80.70176,22.04599],[80.70447,22.04394],[80.70588,22.04384],[80.7069,22.04348],[80.71019,22.04311],[80.71106,22.04284],[80.71285,22.04282],[80.71359,22.04237],[80.71425,22.04238],[80.71429,22.04272],[80.715,22.04282],[80.71689,22.04427],[80.71987,22.04449],[80.72182,22.04443],[80.72224,22.04418],[80.72308,22.04401],[80.72417,22.04316],[80.72497,22.04181],[80.72541,22.04147],[80.7263,22.04034],[80.72647,22.0397],[80.7274,22.03824],[80.72755,22.03764],[80.72747,22.03689],[80.72589,22.03672],[80.72478,22.03541],[80.72378,22.03519],[80.72324,22.03604],[80.72223,22.03667],[80.72189,22.03667],[80.72149,22.03638],[80.72094,22.03623],[80.71971,22.03513],[80.71835,22.03428],[80.71782,22.03373],[80.71851,22.03361],[80.71866,22.03108],[80.71805,22.03095],[80.71675,22.02982],[80.71576,22.02945],[80.71419,22.02812],[80.71397,22.02782],[80.71368,22.02631],[80.71342,22.02594],[80.71296,22.02638],[80.71232,22.02655],[80.71127,22.02651],[80.71109,22.02641],[80.71107,22.02618],[80.71087,22.02659],[80.7086,22.02766],[80.70822,22.02818],[80.70881,22.02961],[80.70953,22.0307],[80.71072,22.03352],[80.71079,22.03386],[80.7098,22.03409],[80.70962,22.0343],[80.70986,22.03542],[80.71028,22.03614],[80.71051,22.03703],[80.71077,22.03726],[80.71139,22.03657],[80.71201,22.03649],[80.71209,22.03747],[80.71192,22.03814],[80.71146,22.03831],[80.71096,22.03877],[80.71042,22.03963],[80.70974,22.0401],[80.70873,22.04034],[80.70798,22.04076],[80.70651,22.04085],[80.70612,22.0403],[80.70568,22.04016],[80.70512,22.03926]]]}},{"type":"Feature","bbox":[80.6918,22.04316,80.71484,22.05801],"properties":{"ward":9},"geometry":{"type":"MultiPolygon","coordinates":[[[[80.69188,22.04911],[80.6918,22.04917],[80.69201,22.04934],[80.69188,22.04911]]],[[[80.69188,22.04911],[80.69198,22.04903],[80.69182,22.04901],[80.69188,22.04911]]],[[[80.69198,22.04903],[80.692,22.04903],[80.692,22.04901],[80.69198,22.04903]]],[[[80.692,22.04903],[80.69201,22.04934],[80.69222,22.04952],[80.69222,22.0491],[80.69233,22.04907],[80.692,22.04903]]],[[[80.69233,22.04907],[80.7111,22.05149],[80.71094,22.04978],[80.71128,22.04847],[80.71123,22.04744],[80.71227,22.04606],[80.71269,22.04584],[80.71305,22.04433],[80.71293,22.04341],[80.71279,22.0432],[80.71003,22.04316],[80.70781,22.04389],[80.70602,22.04411],[80.704,22.04492],[80.70345,22.0456],[80.70278,22.04607],[80.70187,22.04661],[80.70153,22.04663],[80.70079,22.04702],[80.69726,22.04783],[80.69642,22.0483],[80.6947,22.04867],[80.69319,22.04872],[80.69233,22.04907]]],[[[80.7111,22.05149],[80.71114,22.05187],[80.71133,22.05203],[80.71254,22.05202],[80.71347,22.05228],[80.7142,22.05228],[80.71456,22.05247],[80.71464,22.05194],[80.7111,22.05149]]],[[[80.71456,22.05247],[80.71419,22.05491],[80.71447,22.05473],[80.71484,22.05378],[80.71456,22.05247]]],[[[80.71419,22.05491],[80.714,22.05496],[80.71402,22.05561],[80.69254,22.0497],[80.69348,22.05021],[80.69543,22.05084],[80.69622,22.05207],[80.69733,22.05254],[80.69783,22.05338],[80.6986,22.05386],[80.70565,22.05391],[80.70624,22.05475],[80.70705,22.05475],[80.70797,22.05437],[80.70896,22.05435],[80.71066,22.05475],[80.71074,22.05558],[80.71058,22.05673],[80.71063,22.05747],[80.71083,22.05765],[80.71138,22.05747],[80.71272,22.05801],[80.7129,22.0578],[80.71296,22.05728],[80.71342,22.05722],[80.71367,22.05651],[80.71416,22.05627],[80.71419,22.05491]]]]}},{"type":"Feature","bbox":[80.66187,22.02713,80.68752,22.04721],"properties":{"ward":10},"geometry":{"type":"Polygon","coordinates":[[[80.66347,22.03203],[80.66431,22.0325],[80.66467,22.03327],[80.66462,22.03462],[80.66375,22.03635],[80.66292,22.03989],[80.66212,22.04113],[80.66187,22.042],[80.66224,22.04248],[80.66239,22.04325],[80.66264,22.04336],[80.66302,22.04393],[80.66593,22.044],[80.66823,22.04441],[80.66946,22.04443],[80.67033,22.04387],[80.67163,22.0438],[80.67215,22.04352],[80.67454,22.04337],[80.6748,22.04366],[80.6748,22.04415],[80.67414,22.04619],[80.67507,22.04632],[80.67534,22.0461],[80.67593,22.04599],[80.67746,22.04602],[80.67866,22.04608],[80.67927,22.04642],[80.6793,22.0456],[80.67942,22.0455],[80.68059,22.04614],[80.6811,22.04678],[80.68227,22.04721],[80.68259,22.04624],[80.68326,22.04624],[80.68535,22.04483],[80.68613,22.04482],[80.68636,22.04461],[80.68645,22.0443],[80.68622,22.044],[80.68596,22.044],[80.68557,22.04299],[80.68538,22.04151],[80.68556,22.03991],[80.68524,22.03742],[80.68507,22.03708],[80.68455,22.03725],[80.68518,22.03649],[80.68685,22.03539],[80.68698,22.03513],[80.68677,22.03376],[80.6862,22.03265],[80.68705,22.03095],[80.68752,22.02917],[80.68708,22.0272],[80.6856,22.02719],[80.68395,22.02751],[80.68089,22.02762],[80.68009,22.02762],[80.67944,22.02735],[80.6758,22.02748],[80.67316,22.02713],[80.67304,22.02794],[80.67272,22.02821],[80.67213,22.02814],[80.67156,22.02779],[80.67061,22.02778],[80.67049,22.02798],[80.67069,22.0282],[80.67029,22.02868],[80.67027,22.0291],[80.66959,22.02945],[80.66915,22.02959],[80.6679,22.0296],[80.66695,22.02982],[80.66653,22.03019],[80.66556,22.03049],[80.66398,22.03077],[80.6636,22.03114],[80.6634,22.03173],[80.66347,22.03203]]]}},{"type":"Feature","bbox":[80.64532,22.0106,80.67018,22.03123],"properties":{"ward":11},"geometry":{"type":"MultiPolygon","coordinates":[[[[80.66901,22.02664],[80.67013,22.02657],[80.66983,22.02642],[80.66958,22.02601],[80.66799,22.02609],[80.66568,22.02546],[80.66521,22.02518],[80.66439,22.02424],[80.66346,22.02391],[80.66083,22.02204],[80.66065,22.02179],[80.66048,22.02046],[80.66024,22.02047],[80.65991,22.02011],[80.65935,22.01862],[80.65872,22.01795],[80.65843,22.01707],[80.65831,22.01523],[80.65791,22.01467],[80.65774,22.01408],[80.65769,22.01311],[80.65794,22.01292],[80.65865,22.01282],[80.65906,22.0124],[80.65914,22.0118],[80.65901,22.01126],[80.65826,22.01095],[80.65753,22.01095],[80.6564,22.0106],[80.65602,22.01064],[80.65594,22.011],[80.65648,22.01153],[80.65645,22.01212],[80.65599,22.01272],[80.6552,22.01323],[80.65507,22.01342],[80.65508,22.0145],[80.65454,22.01526],[80.65403,22.01556],[80.65195,22.01562],[80.65159,22.01536],[80.65042,22.015],[80.65017,22.01469],[80.64822,22.01406],[80.64658,22.01312],[80.64622,22.01316],[80.64612,22.0136],[80.64595,22.01384],[80.64592,22.01374],[80.64532,22.01792],[80.64588,22.01798],[80.64629,22.01821],[80.64736,22.0194],[80.64874,22.01993],[80.64962,22.02075],[80.65065,22.02106],[80.65221,22.02112],[80.65421,22.02255],[80.6559,22.02269],[80.65705,22.02452],[80.65778,22.02671],[80.65888,22.02772],[80.65983,22.02794],[80.66071,22.02855],[80.66231,22.03011],[80.66318,22.03123],[80.66348,22.03084],[80.66427,22.0303],[80.66637,22.0299],[80.6684,22.02897],[80.66902,22.02897],[80.66944,22.02829],[80.66985,22.02814],[80.66992,22.02792],[80.66987,22.0277],[80.66955,22.02748],[80.66903,22.02734],[80.66883,22.02713],[80.66883,22.02685],[80.66901,22.02664]]],[[[80.67013,22.02657],[80.67013,22.02657],[80.67018,22.02657],[80.67013,22.02657]]]]}},{"type":"Feature","bbox":[80.68666,22.00217,80.72984,22.04049],"properties":{"ward":12},"geometry":{"type":"Polygon","coordinates":[[[80.68729,22.02771],[80.68798,22.0285],[80.68826,22.02994],[80.68809,22.03085],[80.68668,22.03284],[80.68666,22.03325],[80.68737,22.03362],[80.68835,22.03251],[80.68919,22.03249],[80.68983,22.0321],[80.69072,22.03209],[80.69143,22.03286],[80.69159,22.03357],[80.69239,22.0353],[80.69347,22.03619],[80.69392,22.03688],[80.69386,22.03734],[80.69418,22.03812],[80.69468,22.03858],[80.69556,22.03861],[80.69603,22.03725],[80.69654,22.0368],[80.69744,22.03636],[80.69904,22.03639],[80.6993,22.0365],[80.69967,22.03706],[80.70175,22.03712],[80.70236,22.03703],[80.7029,22.0366],[80.70451,22.03661],[80.70572,22.03704],[80.70579,22.03747],[80.70534,22.03881],[80.70534,22.03925],[80.70596,22.03965],[80.70652,22.03974],[80.70765,22.04049],[80.70897,22.04048],[80.70923,22.04013],[80.7102,22.04002],[80.71046,22.0398],[80.7108,22.03868],[80.71114,22.03867],[80.7114,22.03844],[80.71174,22.03678],[80.71147,22.03667],[80.71114,22.03678],[80.71052,22.03748],[80.7103,22.03714],[80.70957,22.03386],[80.70974,22.03355],[80.71045,22.03352],[80.7105,22.03323],[80.70935,22.03113],[80.70853,22.02837],[80.70856,22.02783],[80.70964,22.02676],[80.71047,22.02665],[80.71163,22.02544],[80.71184,22.02536],[80.71241,22.02602],[80.71309,22.02619],[80.71331,22.02554],[80.71361,22.02557],[80.71423,22.02665],[80.71453,22.02771],[80.71541,22.02886],[80.71622,22.02932],[80.7181,22.02924],[80.71817,22.02871],[80.71862,22.02832],[80.7191,22.02748],[80.71919,22.02686],[80.71914,22.02733],[80.71927,22.02611],[80.71923,22.02468],[80.71851,22.02132],[80.71904,22.02038],[80.71961,22.0203],[80.72024,22.0212],[80.72103,22.02158],[80.72122,22.0219],[80.72171,22.02192],[80.72308,22.02259],[80.7235,22.02252],[80.72403,22.02266],[80.72414,22.02237],[80.72451,22.02213],[80.72546,22.02209],[80.72584,22.02188],[80.72698,22.02211],[80.72752,22.02183],[80.7284,22.02175],[80.72967,22.02064],[80.72984,22.01953],[80.7296,22.01886],[80.7297,22.01832],[80.7281,22.01346],[80.72792,22.01322],[80.7272,22.01314],[80.7271,22.01297],[80.72721,22.01278],[80.72666,22.01205],[80.72542,22.01175],[80.72462,22.01092],[80.7239,22.00933],[80.72348,22.00766],[80.7236,22.00711],[80.72267,22.00707],[80.72222,22.00673],[80.72162,22.00669],[80.72145,22.00655],[80.72087,22.00522],[80.7217,22.00404],[80.72183,22.00342],[80.72166,22.00255],[80.72117,22.00217],[80.72088,22.00277],[80.71969,22.00402],[80.7193,22.00472],[80.71789,22.00443],[80.71767,22.00453],[80.71566,22.00614],[80.71523,22.00702],[80.71398,22.00855],[80.71319,22.00916],[80.71244,22.01005],[80.71019,22.01159],[80.70919,22.01271],[80.70773,22.01291],[80.70735,22.01423],[80.70695,22.01467],[80.70666,22.01544],[80.70276,22.01689],[80.70202,22.01688],[80.70032,22.01728],[80.69921,22.01727],[80.6986,22.01699],[80.69784,22.01724],[80.69776,22.0175],[80.69807,22.01821],[80.69764,22.01889],[80.69718,22.0192],[80.69673,22.0198],[80.69637,22.0211],[80.69673,22.02141],[80.69727,22.02281],[80.6976,22.02492],[80.69753,22.02722],[80.69665,22.02906],[80.69246,22.02914],[80.69207,22.02888],[80.69199,22.02775],[80.69102,22.02775],[80.68989,22.02834],[80.68921,22.02843],[80.68894,22.02825],[80.68872,22.02747],[80.68814,22.02737],[80.68789,22.02711],[80.68723,22.0271],[80.68729,22.02771]],[[80.68786,22.02812],[80.68775,22.0278],[80.68792,22.02815],[80.68786,22.02812]]]}},{"type":"Feature","bbox":[80.659,22.0147,80.69788,22.02936],"properties":{"ward":13},"geometry":{"type":"Polygon","coordinates":[[[80.659,22.0153],[80.65901,22.01601],[80.65929,22.01695],[80.65927,22.01743],[80.65962,22.01775],[80.65999,22.01846],[80.66044,22.01997],[80.66038,22.02026],[80.66067,22.02055],[80.6607,22.02114],[80.66103,22.02174],[80.66154,22.02199],[80.66258,22.02294],[80.66479,22.02401],[80.66581,22.025],[80.66645,22.0254],[80.66733,22.02561],[80.66918,22.02567],[80.66985,22.02594],[80.6702,22.02628],[80.6704,22.02656],[80.67028,22.02683],[80.66942,22.02676],[80.66925,22.02697],[80.6699,22.02767],[80.67004,22.02818],[80.66995,22.02877],[80.66931,22.02921],[80.66941,22.02936],[80.66986,22.02921],[80.67067,22.0276],[80.67106,22.02733],[80.67138,22.02761],[80.67208,22.02783],[80.67284,22.02784],[80.6734,22.02692],[80.67573,22.02708],[80.67693,22.02744],[80.67736,22.0273],[80.68224,22.0273],[80.68245,22.02716],[80.68512,22.02685],[80.68792,22.02679],[80.68815,22.02687],[80.68863,22.02771],[80.68918,22.02772],[80.68938,22.02821],[80.69042,22.02815],[80.69107,22.02787],[80.69156,22.02787],[80.6922,22.02851],[80.6932,22.02902],[80.69464,22.02905],[80.69511,22.02892],[80.69611,22.02908],[80.69699,22.02846],[80.69693,22.02788],[80.69742,22.02676],[80.69765,22.02441],[80.69706,22.02167],[80.69664,22.02129],[80.69634,22.02051],[80.69682,22.0199],[80.69707,22.01925],[80.69772,22.01855],[80.69788,22.01806],[80.69774,22.0174],[80.69608,22.01642],[80.6928,22.01617],[80.69111,22.01561],[80.68913,22.01523],[80.68799,22.01471],[80.68647,22.0147],[80.68514,22.01524],[80.68465,22.01525],[80.68308,22.01612],[80.68304,22.01653],[80.68336,22.01713],[80.68312,22.01775],[80.68317,22.01848],[80.67643,22.01895],[80.67407,22.01844],[80.67359,22.01844],[80.67344,22.01861],[80.67071,22.01852],[80.66905,22.0178],[80.66656,22.01755],[80.6643,22.01691],[80.6636,22.01611],[80.66255,22.01581],[80.66184,22.01567],[80.66001,22.01565],[80.659,22.0153]]]}},{"type":"Feature","bbox":[80.69756,22.05394,80.71477,22.08127],"properties":{"ward":14},"geometry":{"type":"Polygon","coordinates":[[[80.69874,22.05441],[80.69842,22.05394],[80.69809,22.05441],[80.69818,22.05673],[80.69763,22.05747],[80.69756,22.05822],[80.69805,22.05845],[80.69809,22.05887],[80.69868,22.0591],[80.69837,22.05965],[80.69786,22.06003],[80.69821,22.06041],[80.69867,22.06047],[80.69907,22.06079],[80.69907,22.06181],[80.69891,22.06233],[80.6986,22.06207],[80.69833,22.06206],[80.6979,22.06272],[80.6979,22.06292],[80.69848,22.06306],[80.6983,22.06429],[80.69784,22.06521],[80.69876,22.06606],[80.69881,22.0674],[80.69863,22.06785],[80.69954,22.06853],[80.69908,22.06913],[80.69931,22.06937],[80.69931,22.06969],[80.69837,22.07029],[80.69836,22.07097],[80.699,22.07179],[80.69882,22.07264],[80.69912,22.07272],[80.69924,22.07307],[80.6988,22.07478],[80.69916,22.07542],[80.69941,22.07653],[80.69985,22.07729],[80.70005,22.07787],[80.70005,22.07866],[80.70025,22.07893],[80.70188,22.07965],[80.70208,22.07995],[80.7019,22.08055],[80.70256,22.08056],[80.70331,22.08118],[80.70391,22.08127],[80.70417,22.08117],[80.70431,22.0802],[80.70467,22.07968],[80.705,22.07968],[80.70554,22.08],[80.70572,22.07972],[80.70563,22.07933],[80.70523,22.07927],[80.70493,22.0786],[80.70514,22.07773],[80.70548,22.07725],[80.70809,22.07735],[80.70832,22.07714],[80.70848,22.07563],[80.70989,22.07348],[80.71128,22.07262],[80.71318,22.07211],[80.71364,22.07134],[80.71386,22.07126],[80.7143,22.07013],[80.71477,22.06952],[80.71317,22.06522],[80.71233,22.06238],[80.71185,22.06008],[80.71061,22.05843],[80.71006,22.05797],[80.71031,22.05588],[80.71,22.05483],[80.70725,22.05486],[80.70623,22.05507],[80.70579,22.05491],[80.70523,22.05439],[80.70456,22.0542],[80.70066,22.05418],[80.70028,22.05434],[80.69874,22.05441]]]}},{"type":"Feature","bbox":[80.7105,22.05139,80.72904,22.06947],"properties":{"ward":15},"geometry":{"type":"MultiPolygon","coordinates":[[[[80.72438,22.05386],[80.72442,22.05383],[80.72423,22.05392],[80.72438,22.05386]]],[[[80.72442,22.05383],[80.72457,22.05379],[80.7246,22.05378],[80.72457,22.05373],[80.72442,22.05383]]],[[[80.7246,22.05378],[80.72475,22.05398],[80.72472,22.05475],[80.7242,22.05522],[80.72348,22.05542],[80.72266,22.05635],[80.72176,22.05635],[80.72132,22.05607],[80.71989,22.05605],[80.71972,22.05585],[80.71981,22.05538],[80.71966,22.05558],[80.7184,22.05543],[80.71828,22.05495],[80.71709,22.0543],[80.71647,22.05418],[80.7171,22.0525],[80.7171,22.05162],[80.71666,22.05139],[80.71467,22.05153],[80.71452,22.05281],[80.71465,22.05356],[80.71455,22.0546],[80.71438,22.05516],[80.7139,22.0554],[80.71419,22.0558],[80.7141,22.05665],[80.71363,22.05661],[80.71255,22.05804],[80.71131,22.05807],[80.7105,22.05832],[80.71119,22.0586],[80.71186,22.05917],[80.71186,22.06053],[80.7126,22.06297],[80.71338,22.06489],[80.71456,22.06675],[80.71484,22.06748],[80.71514,22.06775],[80.71536,22.06897],[80.71536,22.06878],[80.71541,22.06916],[80.7156,22.06934],[80.71579,22.06903],[80.71641,22.06894],[80.71722,22.06947],[80.71797,22.06946],[80.71872,22.06897],[80.71932,22.0682],[80.71942,22.06701],[80.72061,22.06628],[80.72265,22.06615],[80.72316,22.06653],[80.72362,22.06633],[80.72428,22.06487],[80.72438,22.06387],[80.72482,22.06298],[80.72484,22.06259],[80.72529,22.06182],[80.72597,22.0613],[80.72711,22.06005],[80.72814,22.05938],[80.72826,22.05909],[80.72866,22.05881],[80.72854,22.05726],[80.72885,22.05546],[80.72904,22.05534],[80.72889,22.05507],[80.72768,22.05503],[80.72712,22.05482],[80.72681,22.05443],[80.7261,22.05456],[80.72579,22.05411],[80.7257,22.05335],[80.72547,22.05316],[80.7246,22.05378]]]]}},{"type":"Feature","bbox":[80.71657,22.0493,80.72505,22.0564],"properties":{"ward":16},"geometry":{"type":"Polygon","coordinates":[[[80.71697,22.05216],[80.71703,22.05202],[80.71699,22.05261],[80.71657,22.05365],[80.71663,22.05438],[80.717,22.0547],[80.71773,22.05493],[80.71839,22.05552],[80.71967,22.05545],[80.71996,22.05554],[80.72023,22.05612],[80.72169,22.05614],[80.7221,22.0564],[80.72263,22.0564],[80.72315,22.05615],[80.7235,22.05558],[80.72465,22.05509],[80.72481,22.05484],[80.72434,22.05398],[80.72439,22.05375],[80.72505,22.05327],[80.72465,22.05289],[80.72431,22.05289],[80.72334,22.05131],[80.72263,22.05123],[80.72208,22.05065],[80.72165,22.05065],[80.72128,22.04987],[80.72058,22.05],[80.71947,22.0493],[80.71894,22.04931],[80.71882,22.04951],[80.71878,22.05137],[80.7186,22.05158],[80.71805,22.05155],[80.71763,22.05132],[80.71713,22.05138],[80.71695,22.0516],[80.71697,22.05216]]]}},{"type":"Feature","bbox":[80.71136,22.0456,80.71562,22.05138],"properties":{"ward":17},"geometry":{"type":"Polygon","coordinates":[[[80.71137,22.05137],[80.71548,22.05138],[80.71562,22.05114],[80.71557,22.0506],[80.71504,22.04972],[80.71528,22.0475],[80.71493,22.04637],[80.7145,22.04636],[80.71296,22.0456],[80.71177,22.04704],[80.71136,22.04825],[80.71137,22.05137]]]}},{"type":"Feature","bbox":[80.71304,22.0426,80.71868,22.05146],"properties":{"ward":18},"geometry":{"type":"Polygon","coordinates":[[[80.71304,22.0454],[80.71317,22.04526],[80.71327,22.04567],[80.71407,22.04643],[80.71454,22.04651],[80.71515,22.04722],[80.71499,22.04965],[80.71541,22.05045],[80.71533,22.05121],[80.71548,22.05146],[80.7185,22.05146],[80.71868,22.05131],[80.71866,22.04516],[80.71579,22.0435],[80.71385,22.04304],[80.7133,22.0426],[80.71304,22.0454]]]}},{"type":"Feature","bbox":[80.71686,22.01268,80.73275,22.04422],"properties":{"ward":19},"geometry":{"type":"Polygon","coordinates":[[[80.72424,22.04269],[80.72406,22.04343],[80.72566,22.04356],[80.72596,22.04422],[80.72694,22.04347],[80.72721,22.04347],[80.72762,22.04315],[80.72878,22.04201],[80.72913,22.04118],[80.73076,22.04035],[80.73153,22.03892],[80.73194,22.03688],[80.73234,22.02917],[80.73214,22.02211],[80.73233,22.01919],[80.73275,22.0168],[80.73165,22.01366],[80.73083,22.01361],[80.7297,22.01326],[80.72912,22.01268],[80.72827,22.01273],[80.72794,22.01313],[80.72812,22.01317],[80.72837,22.01376],[80.72882,22.01551],[80.72914,22.01593],[80.72935,22.01691],[80.72977,22.01769],[80.72977,22.0182],[80.73005,22.01896],[80.72988,22.02104],[80.72921,22.02134],[80.728,22.02229],[80.72644,22.02246],[80.7252,22.02304],[80.72284,22.02313],[80.72252,22.02286],[80.7225,22.02261],[80.72125,22.02229],[80.72049,22.0218],[80.72073,22.02132],[80.7201,22.02125],[80.71936,22.02051],[80.7189,22.02054],[80.71865,22.02106],[80.71885,22.02259],[80.71943,22.02323],[80.71933,22.02397],[80.71978,22.02458],[80.71958,22.02606],[80.71922,22.02745],[80.71871,22.02837],[80.7177,22.02934],[80.71686,22.02967],[80.71687,22.02992],[80.7174,22.03011],[80.71787,22.03072],[80.71879,22.03117],[80.71861,22.03267],[80.71885,22.03358],[80.71874,22.03389],[80.71816,22.03412],[80.7183,22.03438],[80.72007,22.03519],[80.72069,22.03614],[80.72123,22.03623],[80.7215,22.03605],[80.72261,22.03607],[80.72312,22.03581],[80.7238,22.03502],[80.72523,22.03566],[80.72539,22.03593],[80.72541,22.03667],[80.72565,22.03686],[80.72733,22.03688],[80.72757,22.03707],[80.72745,22.03869],[80.72659,22.03944],[80.72606,22.04093],[80.72424,22.04269]]]}},{"type":"Feature","bbox":[80.71838,22.01704,80.75159,22.05509],"properties":{"ward":20},"geometry":{"type":"MultiPolygon","coordinates":[[[[80.72777,22.05489],[80.72863,22.05504],[80.72912,22.05319],[80.72974,22.05212],[80.73015,22.05179],[80.73062,22.05103],[80.73119,22.04949],[80.73128,22.04801],[80.73243,22.04698],[80.73353,22.0467],[80.73371,22.04639],[80.73359,22.0455],[80.73323,22.04479],[80.73297,22.04469],[80.73289,22.0443],[80.73287,22.0438],[80.73308,22.04307],[80.73349,22.04251],[80.7338,22.04242],[80.73646,22.03906],[80.73693,22.03895],[80.73748,22.03911],[80.73839,22.03869],[80.73894,22.03736],[80.73898,22.03678],[80.7394,22.036],[80.74122,22.03657],[80.74221,22.03736],[80.74313,22.03759],[80.74438,22.03826],[80.74496,22.0391],[80.74518,22.03901],[80.7454,22.03807],[80.74707,22.03631],[80.74728,22.03575],[80.74792,22.03529],[80.74831,22.03459],[80.74877,22.0346],[80.74998,22.03552],[80.75075,22.03543],[80.75088,22.03314],[80.7512,22.03251],[80.7512,22.03194],[80.75159,22.0304],[80.75044,22.02802],[80.75114,22.02726],[80.75115,22.027],[80.75045,22.02669],[80.75003,22.02584],[80.75047,22.02501],[80.75076,22.02483],[80.75016,22.02373],[80.74991,22.02402],[80.74924,22.02374],[80.74884,22.02273],[80.74845,22.02224],[80.74872,22.02158],[80.74809,22.02137],[80.74796,22.02095],[80.74872,22.01967],[80.74862,22.01937],[80.74792,22.01932],[80.74774,22.01917],[80.74703,22.01768],[80.74619,22.0182],[80.74608,22.01941],[80.74774,22.02503],[80.74791,22.02641],[80.74751,22.02758],[80.74693,22.02771],[80.74626,22.02835],[80.74586,22.02841],[80.74503,22.02822],[80.74435,22.02725],[80.74396,22.02529],[80.74308,22.02419],[80.74252,22.02249],[80.74174,22.02316],[80.74127,22.02395],[80.74017,22.02466],[80.73999,22.02507],[80.7396,22.02537],[80.73881,22.02514],[80.73813,22.02415],[80.73746,22.02352],[80.73699,22.02404],[80.73654,22.02398],[80.73625,22.02358],[80.73514,22.02365],[80.73449,22.02342],[80.73357,22.02341],[80.73305,22.02363],[80.73298,22.02193],[80.73329,22.02029],[80.73329,22.01845],[80.7337,22.01746],[80.73353,22.01704],[80.73305,22.01708],[80.73273,22.01787],[80.73274,22.01852],[80.73243,22.01863],[80.73244,22.02054],[80.73224,22.02142],[80.73249,22.02259],[80.73268,22.02617],[80.73247,22.02727],[80.73257,22.02978],[80.73239,22.03089],[80.7328,22.03358],[80.73258,22.03523],[80.73167,22.03849],[80.73073,22.03981],[80.72971,22.04171],[80.72915,22.04225],[80.72718,22.04343],[80.72511,22.04433],[80.72388,22.04446],[80.72159,22.04442],[80.72011,22.04465],[80.71937,22.04496],[80.71838,22.04582],[80.71891,22.0474],[80.71889,22.04862],[80.7195,22.0487],[80.72071,22.04961],[80.72152,22.04963],[80.72188,22.04981],[80.72295,22.05068],[80.7262,22.05424],[80.72731,22.05456],[80.72777,22.05489]]],[[[80.72863,22.05504],[80.72863,22.05509],[80.72883,22.05505],[80.72863,22.05504]]]]}},{"type":"Feature","bbox":[80.72134,21.9932,80.74812,22.01669],"properties":{"ward":21},"geometry":{"type":"MultiPolygon","coordinates":[[[[80.73215,22.01526],[80.73287,22.01636],[80.7332,22.01559],[80.73387,22.01516],[80.73462,22.01495],[80.73546,22.01398],[80.73726,22.0127],[80.73846,22.01],[80.73908,22.00942],[80.73977,22.00819],[80.74064,22.00593],[80.7416,22.00511],[80.74203,22.00448],[80.74313,22.00422],[80.74413,22.00333],[80.74569,22.00152],[80.74627,22.00059],[80.74662,22.00042],[80.74739,21.99951],[80.74812,21.99893],[80.74798,21.99822],[80.74733,21.99728],[80.74704,21.99713],[80.74685,21.99652],[80.74677,21.99554],[80.74715,21.9945],[80.74712,21.99414],[80.74651,21.99327],[80.74617,21.9932],[80.74526,21.99355],[80.74393,21.99376],[80.74025,21.99381],[80.73824,21.99439],[80.73722,21.99513],[80.73619,21.99552],[80.73534,21.99644],[80.73387,21.99708],[80.73364,21.99739],[80.73249,21.99809],[80.731,21.99835],[80.73012,21.99874],[80.72899,21.99968],[80.72816,22.00011],[80.72578,22.00081],[80.72514,22.0013],[80.72419,22.00246],[80.72346,22.00298],[80.72226,22.00265],[80.72201,22.00283],[80.72148,22.00484],[80.72134,22.00573],[80.72144,22.00609],[80.72208,22.00637],[80.72292,22.00635],[80.72318,22.00662],[80.72369,22.00801],[80.7238,22.0091],[80.72446,22.01011],[80.72475,22.01113],[80.72616,22.01159],[80.72694,22.01246],[80.72837,22.01251],[80.72959,22.01323],[80.73192,22.01334],[80.73215,22.01366],[80.73215,22.01526]]],[[[80.73287,22.01636],[80.73283,22.01647],[80.73307,22.01669],[80.73287,22.01636]]]]}},{"type":"Feature","bbox":[80.74271,21.99845,80.75851,22.01114],"properties":{"ward":22},"geometry":{"type":"Polygon","coordinates":[[[80.74278,22.00467],[80.74288,22.00512],[80.74319,22.00549],[80.74321,22.00595],[80.74271,22.0065],[80.74275,22.00754],[80.74331,22.008],[80.74492,22.008],[80.74529,22.00771],[80.74636,22.0077],[80.74676,22.01093],[80.74693,22.01113],[80.7474,22.01114],[80.748,22.01064],[80.74939,22.01034],[80.75028,22.00993],[80.75049,22.00963],[80.7509,22.00778],[80.75167,22.00592],[80.75355,22.0059],[80.75425,22.00608],[80.7546,22.00635],[80.75471,22.00766],[80.755,22.00803],[80.75684,22.00842],[80.75678,22.00672],[80.7565,22.00598],[80.75674,22.00471],[80.75633,22.00235],[80.7566,22.00218],[80.75834,22.0021],[80.75851,22.00185],[80.75829,22.00076],[80.75808,22.00042],[80.75732,22.00016],[80.7537,21.99991],[80.75256,21.99941],[80.74969,21.99916],[80.74922,21.99868],[80.74863,21.99845],[80.74716,22.00007],[80.7466,22.00025],[80.74641,22.0005],[80.7462,22.00151],[80.74553,22.00237],[80.74461,22.00272],[80.74427,22.00333],[80.74334,22.00395],[80.74278,22.00467]]]}},{"type":"Feature","bbox":[80.73322,22.00457,80.74705,22.01692],"properties":{"ward":23},"geometry":{"type":"Polygon","coordinates":[[[80.73322,22.01692],[80.73448,22.0165],[80.73606,22.01647],[80.73821,22.01603],[80.74152,22.01618],[80.7429,22.01555],[80.74414,22.01557],[80.74516,22.01613],[80.74583,22.01624],[80.74657,22.01623],[80.74689,22.01601],[80.74684,22.01535],[80.74705,22.01491],[80.74687,22.01033],[80.7464,22.00924],[80.74626,22.00846],[80.74608,22.00808],[80.74285,22.0081],[80.74269,22.00613],[80.74297,22.00558],[80.74293,22.00467],[80.74226,22.00457],[80.74108,22.00547],[80.74043,22.00687],[80.73945,22.0079],[80.73915,22.00913],[80.73846,22.0101],[80.73798,22.01128],[80.73678,22.01219],[80.73629,22.01291],[80.73564,22.01334],[80.73513,22.01408],[80.73447,22.0144],[80.73343,22.01581],[80.73322,22.01692]]]}},{"type":"Feature","bbox":[80.73309,22.00059,80.76611,22.0282],"properties":{"ward":24},"geometry":{"type":"Polygon","coordinates":[[[80.74724,22.02334],[80.74655,22.02221],[80.74642,22.02148],[80.7462,22.01812],[80.74686,22.0179],[80.74728,22.018],[80.74742,22.01878],[80.74801,22.01972],[80.74835,22.01972],[80.74854,22.01996],[80.74845,22.02091],[80.74811,22.02102],[80.74805,22.02138],[80.74879,22.02188],[80.74855,22.02212],[80.74911,22.02362],[80.75064,22.02399],[80.75074,22.02501],[80.7505,22.02526],[80.75005,22.02526],[80.75011,22.0259],[80.75065,22.02681],[80.75101,22.02682],[80.75142,22.02642],[80.75238,22.02615],[80.75271,22.02588],[80.75315,22.02588],[80.75346,22.02549],[80.75571,22.02562],[80.75625,22.02498],[80.75659,22.02486],[80.75703,22.02486],[80.75775,22.0255],[80.75813,22.02563],[80.75858,22.02564],[80.75892,22.02499],[80.75931,22.02523],[80.75975,22.02521],[80.76023,22.02441],[80.76089,22.02416],[80.761,22.02379],[80.7616,22.0232],[80.76253,22.02297],[80.76341,22.02213],[80.76364,22.02115],[80.76385,22.02092],[80.76485,22.02034],[80.76537,22.02036],[80.76567,22.02013],[80.76582,22.0193],[80.76573,22.01745],[80.76609,22.01578],[80.76611,22.01449],[80.76596,22.01386],[80.76515,22.01282],[80.76466,22.01037],[80.76463,22.0092],[80.7641,22.00605],[80.76342,22.00506],[80.76272,22.00234],[80.76218,22.00098],[80.76007,22.00061],[80.75848,22.00059],[80.75831,22.00084],[80.75844,22.00151],[80.75817,22.00202],[80.75664,22.00243],[80.75645,22.00304],[80.7566,22.00391],[80.75662,22.00851],[80.75594,22.00861],[80.75462,22.00756],[80.75445,22.00635],[80.75419,22.00617],[80.75101,22.00609],[80.75082,22.00846],[80.75023,22.01013],[80.74911,22.01074],[80.74761,22.01073],[80.747,22.01103],[80.74701,22.01546],[80.74688,22.0159],[80.74626,22.01646],[80.7456,22.01657],[80.74407,22.01589],[80.74373,22.01557],[80.74183,22.01553],[80.74142,22.01563],[80.74111,22.01607],[80.74045,22.0164],[80.73854,22.01648],[80.73821,22.01625],[80.73631,22.01614],[80.73523,22.01638],[80.73407,22.01638],[80.73381,22.01672],[80.7333,22.01899],[80.73309,22.02392],[80.73363,22.02368],[80.73768,22.02367],[80.73803,22.0238],[80.73891,22.02493],[80.73972,22.02532],[80.74086,22.02468],[80.74103,22.02417],[80.74232,22.02304],[80.74267,22.02304],[80.7429,22.02467],[80.74425,22.02698],[80.74575,22.02806],[80.74686,22.0282],[80.74735,22.02739],[80.74744,22.02621],[80.74767,22.02558],[80.74759,22.02457],[80.74724,22.02334]]]}}]}