{"type":"FeatureCollection","features":[{"type":"Feature","bbox":[78.22855,23.00737,78.23838,23.01254],"properties":{"ward":1,"name":"Rajput Colony Ward No 1"},"geometry":{"type":"Polygon","coordinates":[[[78.22874,23.0099],[78.22855,23.01002],[78.22856,23.01029],[78.22917,23.01198],[78.22989,23.01228],[78.23207,23.01254],[78.23295,23.01227],[78.23343,23.01112],[78.23436,23.01065],[78.23575,23.01006],[78.23838,23.00984],[78.23568,23.00737],[78.23535,23.00766],[78.23428,23.00801],[78.2323,23.00806],[78.22991,23.00766],[78.22912,23.00823],[78.22874,23.0099]]]}},{"type":"Feature","bbox":[78.2294,23.00614,78.23565,23.00805],"properties":{"ward":2,"name":"Molana Azad Ward -2"},"geometry":{"type":"Polygon","coordinates":[[[78.23565,23.00734],[78.23475,23.00651],[78.234,23.00693],[78.23269,23.00676],[78.23032,23.00614],[78.2294,23.00625],[78.23009,23.00742],[78.22993,23.00764],[78.23075,23.00782],[78.23274,23.00805],[78.23429,23.00797],[78.23532,23.00762],[78.23565,23.00734]]]}},{"type":"Feature","bbox":[78.22899,23.00348,78.23473,23.00689],"properties":{"ward":3,"name":"Mahatma Gandhi Ward - 3"},"geometry":{"type":"Polygon","coordinates":[[[78.22938,23.00622],[78.23032,23.00611],[78.23271,23.00674],[78.23399,23.00689],[78.23473,23.00648],[78.23183,23.00361],[78.22951,23.00348],[78.2294,23.00511],[78.22899,23.00525],[78.22938,23.00622]]]}},{"type":"Feature","bbox":[78.2339,23.00502,78.24593,23.00983],"properties":{"ward":4,"name":"Saket Nagar Ward- 4"},"geometry":{"type":"Polygon","coordinates":[[[78.23843,23.00983],[78.24137,23.00957],[78.24593,23.0087],[78.24504,23.00618],[78.24114,23.00534],[78.23844,23.00502],[78.23833,23.00625],[78.23693,23.00725],[78.2367,23.00725],[78.23691,23.00628],[78.23681,23.00532],[78.23614,23.00525],[78.23612,23.00537],[78.23587,23.00539],[78.23566,23.00512],[78.23493,23.00516],[78.2345,23.00521],[78.2339,23.0056],[78.23843,23.00983]]]}},{"type":"Feature","bbox":[78.23191,23.00365,78.2384,23.00722],"properties":{"ward":5,"name":"Police Line Ward - 5"},"geometry":{"type":"Polygon","coordinates":[[[78.23332,23.00371],[78.23191,23.00365],[78.23387,23.00557],[78.23449,23.00518],[78.23493,23.00513],[78.23568,23.00508],[78.23588,23.00536],[78.23609,23.00535],[78.23611,23.00522],[78.23684,23.0053],[78.23695,23.00627],[78.23675,23.00722],[78.23829,23.00624],[78.2384,23.00502],[78.23332,23.00371]]]}},{"type":"Feature","bbox":[78.23095,22.99881,78.24502,23.00614],"properties":{"ward":6,"name":"Civil Ward -6"},"geometry":{"type":"Polygon","coordinates":[[[78.23188,23.00361],[78.23402,23.00375],[78.23844,23.00498],[78.24115,23.00531],[78.24502,23.00614],[78.24378,23.0036],[78.24069,22.99881],[78.23754,22.99928],[78.2381,23.00115],[78.23698,23.00194],[78.23214,23.00289],[78.23189,23.00155],[78.23158,23.00105],[78.23095,23.0013],[78.23188,23.00361]]]}},{"type":"Feature","bbox":[78.23082,22.99467,78.24066,23.00284],"properties":{"ward":7,"name":"Sardar Patel Ward -7"},"geometry":{"type":"Polygon","coordinates":[[[78.23092,23.00127],[78.23159,23.001],[78.23191,23.00153],[78.23217,23.00284],[78.23695,23.00192],[78.23805,23.00114],[78.23748,22.99925],[78.24066,22.99877],[78.23767,22.99467],[78.23687,22.9956],[78.23511,22.99681],[78.2325,22.9974],[78.23181,22.9977],[78.23082,23.00052],[78.23092,23.00127]]]}},{"type":"Feature","bbox":[78.22941,22.99056,78.23765,22.99768],"properties":{"ward":8,"name":"Galla Mandi Ward - 8"},"geometry":{"type":"Polygon","coordinates":[[[78.23181,22.99768],[78.23249,22.99737],[78.23509,22.99677],[78.23685,22.99557],[78.23765,22.99463],[78.23465,22.99056],[78.22941,22.99269],[78.23181,22.99768]]]}},{"type":"Feature","bbox":[78.22534,22.9927,78.23177,23.00009],"properties":{"ward":9,"name":"Bidua Colony Ward -9"},"geometry":{"type":"Polygon","coordinates":[[[78.23097,22.99993],[78.23177,22.99768],[78.22937,22.9927],[78.2278,22.99364],[78.22606,22.99508],[78.22667,22.99588],[78.22534,22.99665],[78.22581,22.99744],[78.22614,22.99896],[78.22693,22.99858],[78.2276,22.99851],[78.22764,22.99876],[78.22786,22.99878],[78.22862,23.00009],[78.22978,22.99979],[78.23097,22.99993]]]}},{"type":"Feature","bbox":[78.22746,22.9988,78.23096,23.00271],"properties":{"ward":10,"name":"Shubhash Ward -10"},"geometry":{"type":"Polygon","coordinates":[[[78.22783,22.99881],[78.22764,22.9988],[78.22763,22.99911],[78.22798,23.00103],[78.22749,23.00106],[78.22746,23.00148],[78.22753,23.00177],[78.22785,23.00172],[78.22805,23.00244],[78.22824,23.0025],[78.22836,23.00217],[78.22857,23.00216],[78.22865,23.00271],[78.2309,23.00131],[78.23074,23.00083],[78.23096,22.99995],[78.22978,22.99982],[78.2286,23.00012],[78.22783,22.99881]]]}},{"type":"Feature","bbox":[78.22567,22.99855,78.22792,23.00215],"properties":{"ward":11,"name":"Rajendra Ward - 11"},"geometry":{"type":"Polygon","coordinates":[[[78.2275,23.00178],[78.22736,23.00116],[78.22792,23.001],[78.22758,22.99855],[78.22693,22.99861],[78.22614,22.999],[78.22599,23.00007],[78.22567,23.00055],[78.22588,23.00215],[78.22683,23.00212],[78.2275,23.00178]]]}},{"type":"Feature","bbox":[78.22826,23.00133,78.2318,23.00355],"properties":{"ward":12,"name":"Tilak Ward -12"},"geometry":{"type":"Polygon","coordinates":[[[78.22993,23.00348],[78.2318,23.00355],[78.23092,23.00133],[78.22888,23.00266],[78.22862,23.00275],[78.22854,23.00219],[78.22826,23.0024],[78.22828,23.00308],[78.22993,23.00348]]]}},{"type":"Feature","bbox":[78.22339,23.00206,78.22688,23.0055],"properties":{"ward":13,"name":"Rani Durgawanti Ward -13"},"geometry":{"type":"Polygon","coordinates":[[[78.22349,23.0051],[78.22386,23.0052],[78.22406,23.0055],[78.22452,23.00478],[78.22611,23.00426],[78.22644,23.0043],[78.22644,23.00319],[78.22688,23.00305],[78.2268,23.0027],[78.2264,23.00222],[78.225,23.00206],[78.2242,23.00257],[78.22339,23.00425],[78.22349,23.0051]]]}},{"type":"Feature","bbox":[78.22362,23.00175,78.2283,23.00646],"properties":{"ward":14,"name":"Dr Ambedakar Ward -14"},"geometry":{"type":"Polygon","coordinates":[[[78.22648,23.00434],[78.22611,23.0043],[78.22455,23.00481],[78.22405,23.00555],[78.22384,23.00524],[78.22366,23.00525],[78.22362,23.0061],[78.22586,23.00646],[78.22667,23.00533],[78.22816,23.00411],[78.2283,23.00276],[78.22794,23.00231],[78.22783,23.00175],[78.22645,23.00221],[78.22684,23.00268],[78.22692,23.00307],[78.22648,23.00321],[78.22648,23.00434]]]}},{"type":"Feature","bbox":[78.22303,23.00311,78.23005,23.01086],"properties":{"ward":15,"name":"Jawaharlal Nehru Ward -15"},"geometry":{"type":"Polygon","coordinates":[[[78.22592,23.01086],[78.22718,23.01076],[78.22871,23.00987],[78.22909,23.00821],[78.23005,23.00742],[78.22896,23.00524],[78.22937,23.00509],[78.22952,23.00391],[78.22948,23.00343],[78.22898,23.0032],[78.22827,23.00311],[78.22818,23.00412],[78.22669,23.00536],[78.22588,23.00649],[78.2236,23.00613],[78.22303,23.00691],[78.22326,23.00776],[78.22546,23.00981],[78.22592,23.01086]]]}}]}