{"type":"FeatureCollection","features":[{"type":"Feature","bbox":[78.72185,22.19067,78.73841,22.20612],"properties":{"ward":1,"name":"Chanda Ward"},"geometry":{"type":"MultiPolygon","coordinates":[[[[78.72315,22.19198],[78.72316,22.19197],[78.72317,22.19195],[78.72315,22.19198]]],[[[78.72316,22.19197],[78.72319,22.19299],[78.72381,22.19363],[78.72359,22.19465],[78.72369,22.19517],[78.72501,22.19786],[78.72502,22.19847],[78.72466,22.19893],[78.72385,22.19904],[78.72309,22.19864],[78.72228,22.19845],[78.72185,22.19897],[78.72212,22.19958],[78.72263,22.20008],[78.72228,22.20118],[78.72236,22.20159],[78.72298,22.20145],[78.72248,22.20226],[78.72281,22.20289],[78.72326,22.20333],[78.72348,22.20415],[78.72576,22.2056],[78.72841,22.20612],[78.72905,22.20601],[78.7292,22.20475],[78.72987,22.20394],[78.73165,22.20316],[78.73245,22.2031],[78.73292,22.20279],[78.73454,22.20278],[78.73559,22.20254],[78.73651,22.20139],[78.73779,22.20099],[78.73841,22.20054],[78.73799,22.19982],[78.73696,22.19911],[78.73671,22.19585],[78.73641,22.19596],[78.73575,22.19577],[78.7356,22.19596],[78.73522,22.19595],[78.73518,22.19616],[78.73491,22.19627],[78.7338,22.19628],[78.73357,22.19593],[78.73354,22.19507],[78.73386,22.19437],[78.73387,22.19387],[78.73336,22.19374],[78.73293,22.19328],[78.73241,22.19163],[78.73153,22.19222],[78.73028,22.19251],[78.72677,22.19067],[78.7264,22.19082],[78.72568,22.19081],[78.7259,22.19198],[78.72457,22.19169],[78.72369,22.19173],[78.72316,22.19197]]]]}},{"type":"Feature","bbox":[78.71591,22.18584,78.73273,22.19253],"properties":{"ward":2,"name":"Sardar Patel Ward"},"geometry":{"type":"Polygon","coordinates":[[[78.71826,22.18737],[78.71591,22.18777],[78.71599,22.18859],[78.71687,22.18912],[78.71998,22.18926],[78.7216,22.18965],[78.72142,22.19012],[78.72297,22.1914],[78.72316,22.19196],[78.72369,22.19172],[78.72454,22.19169],[78.72589,22.19198],[78.72568,22.1908],[78.72634,22.19082],[78.72676,22.19066],[78.73046,22.19253],[78.73169,22.19216],[78.73234,22.19169],[78.732,22.19069],[78.73273,22.19],[78.73273,22.18977],[78.73039,22.1895],[78.72979,22.18994],[78.72827,22.19005],[78.72489,22.18933],[78.72462,22.18902],[78.72517,22.18867],[78.72484,22.18838],[78.72483,22.18713],[78.72419,22.18641],[78.72495,22.18589],[78.72476,22.18584],[78.72264,22.18594],[78.72081,22.18638],[78.71826,22.18737]]]}},{"type":"Feature","bbox":[78.72419,22.18592,78.73348,22.19118],"properties":{"ward":3,"name":"Laal Bahadur Shashtri Ward"},"geometry":{"type":"Polygon","coordinates":[[[78.72505,22.18592],[78.72419,22.18638],[78.72482,22.18712],[78.72478,22.18807],[78.72486,22.1884],[78.72517,22.18865],[78.72462,22.189],[78.72487,22.18929],[78.72827,22.19007],[78.7299,22.18991],[78.73052,22.18949],[78.73258,22.18973],[78.73274,22.18981],[78.73269,22.19005],[78.73198,22.19066],[78.73214,22.19118],[78.73325,22.19103],[78.73326,22.19004],[78.73348,22.18946],[78.72928,22.18858],[78.72505,22.18592]]]}},{"type":"Feature","bbox":[78.73218,22.18946,78.735,22.19392],"properties":{"ward":4,"name":"Sardar Bhagat Singh Ward"},"geometry":{"type":"Polygon","coordinates":[[[78.73326,22.191],[78.73218,22.19131],[78.73231,22.19167],[78.73265,22.19148],[78.73245,22.19183],[78.73293,22.19328],[78.73338,22.19377],[78.73411,22.19392],[78.73424,22.1907],[78.73482,22.19044],[78.735,22.18974],[78.73349,22.18946],[78.73326,22.19007],[78.73326,22.191]]]}},{"type":"Feature","bbox":[78.73354,22.19203,78.73792,22.19629],"properties":{"ward":5,"name":"Mahrani Laxmi Bai Ward"},"geometry":{"type":"Polygon","coordinates":[[[78.73427,22.19206],[78.73411,22.19392],[78.7339,22.19386],[78.73358,22.1951],[78.73354,22.19588],[78.73382,22.19629],[78.73496,22.19626],[78.7352,22.19614],[78.73521,22.19593],[78.73563,22.19595],[78.73578,22.19577],[78.73652,22.19595],[78.73674,22.19561],[78.73739,22.19549],[78.73792,22.19464],[78.73686,22.19451],[78.73638,22.19317],[78.73496,22.193],[78.73504,22.19233],[78.7349,22.19203],[78.73427,22.19206]]]}},{"type":"Feature","bbox":[78.73417,22.18974,78.73956,22.19317],"properties":{"ward":6,"name":"Dr Rajendra Prashad Ward"},"geometry":{"type":"Polygon","coordinates":[[[78.73504,22.18974],[78.73482,22.19044],[78.73425,22.19066],[78.73417,22.19189],[78.73437,22.1921],[78.7349,22.19203],[78.73504,22.19232],[78.73496,22.19299],[78.73508,22.19304],[78.73638,22.19317],[78.73649,22.19155],[78.73676,22.19136],[78.73888,22.19179],[78.73921,22.19165],[78.73923,22.19136],[78.73954,22.19115],[78.73956,22.19103],[78.73801,22.19016],[78.73504,22.18974]]]}},{"type":"Feature","bbox":[78.73639,22.19106,78.74138,22.19585],"properties":{"ward":7,"name":"Dr Ambedkar Ward"},"geometry":{"type":"Polygon","coordinates":[[[78.73966,22.19106],[78.73923,22.19136],[78.73918,22.19167],[78.7389,22.19179],[78.7368,22.19135],[78.73652,22.19154],[78.73639,22.19327],[78.73685,22.1945],[78.73794,22.1947],[78.73738,22.1955],[78.73909,22.19585],[78.73967,22.19542],[78.74064,22.19538],[78.74138,22.19465],[78.74108,22.19318],[78.74049,22.19235],[78.74022,22.19163],[78.73966,22.19106]]]}},{"type":"Feature","bbox":[78.73588,22.18609,78.73825,22.19007],"properties":{"ward":8,"name":"Pandit Jawaharlal Nehru Ward"},"geometry":{"type":"Polygon","coordinates":[[[78.7379,22.19007],[78.73745,22.18923],[78.7377,22.18821],[78.73816,22.18741],[78.7379,22.18672],[78.73825,22.18651],[78.73675,22.18609],[78.73632,22.1869],[78.73588,22.18986],[78.7379,22.19007]]]}},{"type":"Feature","bbox":[78.73422,22.18692,78.73632,22.18987],"properties":{"ward":9,"name":"Indra Gandhi Ward"},"geometry":{"type":"Polygon","coordinates":[[[78.73426,22.18948],[78.73449,22.18964],[78.73588,22.18987],[78.73632,22.18692],[78.73596,22.18693],[78.73555,22.18761],[78.73535,22.18763],[78.73422,22.18879],[78.73426,22.18948]]]}},{"type":"Feature","bbox":[78.73121,22.18714,78.73496,22.18959],"properties":{"ward":10,"name":"Mahatma Gandhi Ward"},"geometry":{"type":"Polygon","coordinates":[[[78.73274,22.18899],[78.73285,22.18937],[78.73427,22.18959],[78.73422,22.18879],[78.73496,22.18803],[78.73431,22.18801],[78.73427,22.18779],[78.7345,22.18769],[78.73438,22.18743],[78.7337,22.18714],[78.733,22.1875],[78.7313,22.18754],[78.73121,22.18795],[78.73274,22.18899]]]}},{"type":"Feature","bbox":[78.73427,22.18554,78.73676,22.18803],"properties":{"ward":11,"name":"Abdul Hamid Ward"},"geometry":{"type":"Polygon","coordinates":[[[78.73428,22.18723],[78.7345,22.18769],[78.73427,22.18779],[78.73431,22.18801],[78.73497,22.18803],[78.73537,22.18762],[78.73555,22.18761],[78.73596,22.18693],[78.73632,22.18692],[78.73676,22.18609],[78.73432,22.18554],[78.73449,22.18629],[78.73428,22.18723]]]}},{"type":"Feature","bbox":[78.72793,22.18609,78.7335,22.18936],"properties":{"ward":12,"name":"Molana Azad Ward"},"geometry":{"type":"Polygon","coordinates":[[[78.72793,22.18771],[78.72927,22.18857],[78.73285,22.18936],[78.73274,22.18899],[78.73121,22.18795],[78.73124,22.18767],[78.7313,22.18754],[78.73299,22.1875],[78.7335,22.18714],[78.73307,22.18705],[78.73266,22.18629],[78.73093,22.18632],[78.72918,22.18609],[78.72808,22.18619],[78.72793,22.18771]]]}},{"type":"Feature","bbox":[78.7143,22.17899,78.73786,22.18778],"properties":{"ward":13,"name":"Subhash Chandra Boss Ward"},"geometry":{"type":"Polygon","coordinates":[[[78.71858,22.17999],[78.7143,22.17899],[78.71466,22.1793],[78.71473,22.18016],[78.71495,22.18056],[78.71538,22.18084],[78.71621,22.1811],[78.71621,22.18164],[78.71678,22.18258],[78.71668,22.18377],[78.71701,22.18421],[78.71751,22.18449],[78.71685,22.18517],[78.7168,22.18624],[78.71587,22.18636],[78.71573,22.18676],[78.71598,22.18738],[78.71589,22.18778],[78.71827,22.18737],[78.72175,22.18613],[78.72426,22.18582],[78.72506,22.18591],[78.72794,22.18771],[78.72809,22.18617],[78.72859,22.18623],[78.72913,22.18608],[78.73095,22.18632],[78.73265,22.18628],[78.73242,22.18488],[78.73416,22.18535],[78.73409,22.18472],[78.73441,22.18439],[78.73466,22.18486],[78.73523,22.18493],[78.7357,22.18448],[78.73652,22.18432],[78.7366,22.18393],[78.73731,22.18406],[78.73786,22.1839],[78.73763,22.18257],[78.73736,22.1824],[78.73673,22.18241],[78.73644,22.18304],[78.73489,22.18309],[78.73447,22.1829],[78.73447,22.18222],[78.73384,22.18187],[78.73279,22.18221],[78.73291,22.18297],[78.7332,22.18354],[78.73272,22.1843],[78.73203,22.18448],[78.73164,22.18401],[78.73086,22.18402],[78.72991,22.18454],[78.72877,22.18445],[78.72789,22.18457],[78.72569,22.18431],[78.7227,22.18423],[78.72234,22.18268],[78.72202,22.18214],[78.72099,22.1818],[78.72014,22.18182],[78.71932,22.18116],[78.71858,22.17999]]]}},{"type":"Feature","bbox":[78.73243,22.18391,78.73734,22.18727],"properties":{"ward":14,"name":"Rajiv Gandhi Ward"},"geometry":{"type":"Polygon","coordinates":[[[78.73243,22.18489],[78.73259,22.18612],[78.73306,22.18703],[78.73423,22.18727],[78.73447,22.18662],[78.73432,22.18554],[78.73675,22.18609],[78.7369,22.18576],[78.73625,22.18559],[78.7361,22.18524],[78.73734,22.18436],[78.73729,22.18405],[78.73664,22.18391],[78.73651,22.18432],[78.7357,22.18448],[78.73544,22.18484],[78.73507,22.18494],[78.73466,22.18486],[78.73442,22.18439],[78.73408,22.18472],[78.73416,22.18535],[78.73243,22.18489]]]}},{"type":"Feature","bbox":[78.7361,22.18259,78.73943,22.18655],"properties":{"ward":15,"name":"Pandit Baldev Prasad Ward"},"geometry":{"type":"Polygon","coordinates":[[[78.739,22.18313],[78.73764,22.18259],[78.73786,22.1839],[78.73729,22.18405],[78.73734,22.18436],[78.7361,22.18526],[78.73625,22.18558],[78.73689,22.18577],[78.73676,22.1861],[78.73798,22.18637],[78.73826,22.18655],[78.73896,22.18629],[78.73898,22.18563],[78.73943,22.18484],[78.73923,22.18431],[78.73921,22.18347],[78.739,22.18313]]]}}]}