{"type":"FeatureCollection","features":[{"type":"Feature","bbox":[78.8557,21.58098,78.85897,21.58499],"properties":{"ward":1,"name":"Bhagatsing Ward"},"geometry":{"type":"Polygon","coordinates":[[[78.85647,21.58324],[78.8557,21.58354],[78.85581,21.5838],[78.85674,21.58337],[78.85732,21.5845],[78.85786,21.58443],[78.85894,21.58499],[78.85897,21.58347],[78.85726,21.58333],[78.85735,21.58195],[78.85792,21.58159],[78.85779,21.58111],[78.85742,21.58098],[78.85603,21.58153],[78.85591,21.58214],[78.85647,21.58324]]]}},{"type":"Feature","bbox":[78.85894,21.58305,78.86162,21.58499],"properties":{"ward":2,"name":"Pandit Jawaharlal Nehru"},"geometry":{"type":"Polygon","coordinates":[[[78.86119,21.58398],[78.86099,21.58395],[78.86089,21.58365],[78.86128,21.58361],[78.86138,21.58377],[78.86162,21.58366],[78.86135,21.58305],[78.86016,21.58362],[78.85897,21.58347],[78.85894,21.58499],[78.86089,21.58497],[78.86081,21.58455],[78.86119,21.58398]]]}},{"type":"Feature","bbox":[78.86081,21.58311,78.86325,21.58497],"properties":{"ward":3,"name":"Radhakrushnan"},"geometry":{"type":"Polygon","coordinates":[[[78.86325,21.58402],[78.86247,21.58347],[78.86239,21.58325],[78.8622,21.58333],[78.86209,21.58311],[78.86174,21.58324],[78.86187,21.58358],[78.86138,21.58377],[78.86128,21.58361],[78.86089,21.58365],[78.86099,21.58395],[78.8612,21.58396],[78.86081,21.58455],[78.86089,21.58497],[78.86325,21.58402]]]}},{"type":"Feature","bbox":[78.86113,21.582,78.86278,21.58366],"properties":{"ward":4,"name":"Jagjivanram"},"geometry":{"type":"Polygon","coordinates":[[[78.86207,21.58312],[78.86245,21.58336],[78.86278,21.58298],[78.86259,21.582],[78.86195,21.58221],[78.86148,21.58272],[78.86113,21.58284],[78.86163,21.58366],[78.86187,21.58358],[78.86174,21.58324],[78.86207,21.58312]]]}},{"type":"Feature","bbox":[78.86111,21.57766,78.86579,21.58402],"properties":{"ward":5,"name":"Dr. Ambedkar"},"geometry":{"type":"Polygon","coordinates":[[[78.86432,21.58217],[78.86429,21.58063],[78.86446,21.58007],[78.86478,21.57972],[78.86579,21.57925],[78.8655,21.5785],[78.86511,21.57824],[78.86511,21.57798],[78.86459,21.57766],[78.86391,21.57794],[78.86379,21.57869],[78.86294,21.57878],[78.86245,21.57854],[78.86254,21.58019],[78.86111,21.58008],[78.86119,21.58076],[78.8614,21.58112],[78.86196,21.58101],[78.86245,21.5815],[78.86266,21.58142],[78.86258,21.58208],[78.86279,21.58296],[78.86244,21.58338],[78.86325,21.58402],[78.86409,21.58286],[78.86432,21.58217]]]}},{"type":"Feature","bbox":[78.86087,21.58142,78.86266,21.58284],"properties":{"ward":6,"name":"Lalbahadur Shastri"},"geometry":{"type":"Polygon","coordinates":[[[78.86195,21.58221],[78.86259,21.582],[78.86266,21.58142],[78.86192,21.58161],[78.86188,21.58185],[78.86148,21.5821],[78.86087,21.58214],[78.86113,21.58284],[78.86148,21.58272],[78.86195,21.58221]]]}},{"type":"Feature","bbox":[78.86056,21.58069,78.86245,21.58214],"properties":{"ward":7,"name":"Sant Gadgebaba"},"geometry":{"type":"Polygon","coordinates":[[[78.86087,21.58214],[78.86148,21.5821],[78.86188,21.58185],[78.86192,21.58161],[78.86245,21.58149],[78.86196,21.58101],[78.8614,21.58112],[78.86119,21.58076],[78.8607,21.58069],[78.86118,21.58165],[78.86056,21.58169],[78.86087,21.58214]]]}},{"type":"Feature","bbox":[78.85975,21.58133,78.86108,21.58275],"properties":{"ward":8,"name":"GURUDEV Ward"},"geometry":{"type":"Polygon","coordinates":[[[78.86108,21.58275],[78.8609,21.58219],[78.86041,21.5815],[78.85975,21.58133],[78.85981,21.58197],[78.8603,21.58204],[78.86019,21.5826],[78.86108,21.58275]]]}},{"type":"Feature","bbox":[78.85972,21.58197,78.86122,21.58362],"properties":{"ward":9,"name":"JAGDAMBA Ward"},"geometry":{"type":"Polygon","coordinates":[[[78.86122,21.58309],[78.86108,21.58275],[78.86019,21.5826],[78.86029,21.58203],[78.85981,21.58197],[78.85972,21.58271],[78.85994,21.58362],[78.86122,21.58309]]]}},{"type":"Feature","bbox":[78.85726,21.58147,78.85841,21.58339],"properties":{"ward":10,"name":"Kali WARD"},"geometry":{"type":"Polygon","coordinates":[[[78.85735,21.58195],[78.85726,21.58333],[78.85821,21.58339],[78.85819,21.58265],[78.85841,21.58219],[78.8581,21.58147],[78.85735,21.58195]]]}},{"type":"Feature","bbox":[78.85779,21.58111,78.85927,21.58351],"properties":{"ward":11,"name":"Maharana Pratap WARD"},"geometry":{"type":"Polygon","coordinates":[[[78.85927,21.58351],[78.85895,21.58126],[78.85779,21.58111],[78.85784,21.58146],[78.85792,21.58159],[78.8581,21.58147],[78.85841,21.58219],[78.85819,21.58265],[78.85821,21.58339],[78.85927,21.58351]]]}},{"type":"Feature","bbox":[78.85043,21.57041,78.85787,21.58238],"properties":{"ward":12,"name":"Dr Rajendra Prasad WARD"},"geometry":{"type":"Polygon","coordinates":[[[78.85741,21.58098],[78.85787,21.58105],[78.85518,21.57831],[78.85356,21.57462],[78.85225,21.57296],[78.85204,21.57233],[78.85399,21.57195],[78.85369,21.57053],[78.85344,21.57041],[78.85243,21.57085],[78.85129,21.57088],[78.85043,21.57155],[78.85376,21.57823],[78.85337,21.5784],[78.85403,21.57979],[78.85345,21.57976],[78.85345,21.57958],[78.85229,21.57937],[78.85235,21.58048],[78.85342,21.58055],[78.85343,21.58068],[78.85445,21.58061],[78.85533,21.58238],[78.85595,21.5821],[78.85603,21.58153],[78.85741,21.58098]]]}},{"type":"Feature","bbox":[78.85204,21.57195,78.85955,21.58126],"properties":{"ward":13,"name":"Satynarayan Ward"},"geometry":{"type":"Polygon","coordinates":[[[78.85759,21.57865],[78.85685,21.57878],[78.85627,21.57816],[78.85718,21.57798],[78.85674,21.5762],[78.85743,21.57613],[78.85734,21.57543],[78.85664,21.57543],[78.85651,21.57464],[78.85592,21.57474],[78.85485,21.57462],[78.85458,21.57331],[78.8543,21.57335],[78.85399,21.57195],[78.85204,21.57233],[78.85246,21.57336],[78.85365,21.57477],[78.85523,21.57838],[78.85797,21.58114],[78.85904,21.58126],[78.85895,21.58083],[78.85955,21.58053],[78.85939,21.57988],[78.85859,21.58058],[78.85796,21.5793],[78.85818,21.57915],[78.85808,21.57885],[78.85779,21.57894],[78.85759,21.57865]]]}},{"type":"Feature","bbox":[78.85895,21.58126,78.85994,21.58358],"properties":{"ward":14,"name":"Tapsvibaba Ward"},"geometry":{"type":"Polygon","coordinates":[[[78.85972,21.58271],[78.85975,21.58133],[78.85895,21.58126],[78.85927,21.58351],[78.85994,21.58358],[78.85972,21.58271]]]}},{"type":"Feature","bbox":[78.85895,21.57878,78.86135,21.58175],"properties":{"ward":15,"name":"Ranilaxmibai Ward"},"geometry":{"type":"Polygon","coordinates":[[[78.85948,21.5788],[78.85939,21.58005],[78.85955,21.58053],[78.85895,21.58083],[78.85904,21.58126],[78.8602,21.58139],[78.86056,21.58169],[78.86103,21.58175],[78.86118,21.58164],[78.8607,21.58069],[78.86117,21.5808],[78.86111,21.58005],[78.86135,21.58],[78.85997,21.57984],[78.85995,21.57878],[78.85948,21.5788]]]}}]}