{"type":"FeatureCollection","features":[{"type":"Feature","bbox":[77.71088,24.57867,77.73294,24.59592],"properties":{"ward":1},"geometry":{"type":"Polygon","coordinates":[[[77.72157,24.59418],[77.7221,24.59326],[77.72195,24.59236],[77.72228,24.59211],[77.72276,24.59206],[77.72333,24.59235],[77.72381,24.59228],[77.72365,24.59186],[77.72389,24.59166],[77.72416,24.59166],[77.72424,24.59019],[77.72619,24.58984],[77.72633,24.58862],[77.72762,24.58813],[77.73256,24.58801],[77.73195,24.58771],[77.73175,24.5872],[77.73238,24.58691],[77.73272,24.5872],[77.73288,24.5871],[77.73282,24.58686],[77.73294,24.58687],[77.73276,24.58654],[77.73109,24.58661],[77.7309,24.58615],[77.73088,24.5842],[77.73067,24.58422],[77.73028,24.5838],[77.7298,24.58376],[77.72983,24.58437],[77.72904,24.58427],[77.729,24.58443],[77.7288,24.58445],[77.7287,24.58489],[77.7281,24.58492],[77.72805,24.58516],[77.72679,24.58499],[77.72708,24.58386],[77.72666,24.58376],[77.72691,24.58326],[77.72745,24.58241],[77.72986,24.57971],[77.72977,24.57964],[77.72991,24.57949],[77.72927,24.57867],[77.71908,24.58548],[77.71956,24.58625],[77.71985,24.58732],[77.71876,24.58795],[77.7186,24.58769],[77.71709,24.58856],[77.71729,24.5889],[77.71091,24.59249],[77.71103,24.59292],[77.71088,24.59306],[77.71113,24.59306],[77.71145,24.59332],[77.7117,24.59331],[77.71182,24.5931],[77.71211,24.59331],[77.71273,24.59295],[77.71301,24.59303],[77.71277,24.59323],[77.71304,24.59351],[77.71368,24.59356],[77.71395,24.59342],[77.71399,24.59249],[77.71464,24.5926],[77.71598,24.59251],[77.71687,24.59177],[77.71746,24.59101],[77.71763,24.5915],[77.71787,24.59139],[77.71798,24.5915],[77.71852,24.59278],[77.71934,24.59234],[77.71945,24.59279],[77.71925,24.59281],[77.7193,24.59303],[77.71909,24.59304],[77.71928,24.59316],[77.71976,24.59308],[77.71962,24.59342],[77.71913,24.59333],[77.71872,24.59355],[77.71889,24.5938],[77.71949,24.59395],[77.71941,24.59434],[77.72002,24.59498],[77.72005,24.59592],[77.72105,24.59559],[77.72153,24.59496],[77.72122,24.59473],[77.72162,24.59454],[77.72157,24.59418]]]}},{"type":"Feature","bbox":[77.72974,24.58046,77.7356,24.58694],"properties":{"ward":2},"geometry":{"type":"Polygon","coordinates":[[[77.73329,24.58694],[77.7337,24.58642],[77.73504,24.5862],[77.73518,24.58632],[77.7352,24.58561],[77.7356,24.58519],[77.73536,24.58443],[77.7347,24.58415],[77.73404,24.58411],[77.73403,24.58397],[77.73354,24.58395],[77.73347,24.58387],[77.73388,24.58344],[77.7332,24.58352],[77.73185,24.58111],[77.73173,24.58125],[77.73071,24.58046],[77.73046,24.58076],[77.73015,24.58058],[77.72997,24.58075],[77.73021,24.58089],[77.73015,24.58129],[77.73,24.58129],[77.72988,24.58218],[77.73001,24.58217],[77.73001,24.58239],[77.73021,24.58238],[77.73025,24.5828],[77.72974,24.58294],[77.72992,24.58343],[77.72978,24.58356],[77.72981,24.58376],[77.73028,24.5838],[77.73067,24.58422],[77.73088,24.5842],[77.73096,24.58641],[77.73109,24.58661],[77.73276,24.58654],[77.73295,24.58689],[77.73329,24.58694]]]}},{"type":"Feature","bbox":[77.72666,24.57719,77.73534,24.58516],"properties":{"ward":3},"geometry":{"type":"Polygon","coordinates":[[[77.73173,24.58125],[77.73185,24.58111],[77.7332,24.58352],[77.73445,24.5834],[77.73435,24.58287],[77.73457,24.58292],[77.73483,24.5826],[77.73474,24.58236],[77.73534,24.58184],[77.73522,24.58166],[77.73534,24.58147],[77.73373,24.58007],[77.73384,24.57996],[77.73304,24.57917],[77.73357,24.57835],[77.73182,24.57756],[77.73148,24.57719],[77.72927,24.57867],[77.72991,24.57949],[77.72977,24.57964],[77.72986,24.57971],[77.72745,24.58241],[77.72691,24.58326],[77.72666,24.58376],[77.72708,24.58386],[77.72679,24.58499],[77.72805,24.58516],[77.7281,24.58492],[77.7287,24.58489],[77.7288,24.58445],[77.729,24.58443],[77.72904,24.58427],[77.72983,24.58437],[77.72978,24.58356],[77.72992,24.58343],[77.72974,24.58294],[77.73025,24.5828],[77.73021,24.58238],[77.73001,24.58239],[77.73001,24.58217],[77.72988,24.58218],[77.73,24.58129],[77.73015,24.58129],[77.73021,24.58089],[77.72997,24.58075],[77.73015,24.58058],[77.73046,24.58076],[77.73071,24.58046],[77.73173,24.58125]]]}},{"type":"Feature","bbox":[77.73304,24.57651,77.74538,24.5838],"properties":{"ward":4},"geometry":{"type":"Polygon","coordinates":[[[77.73372,24.58006],[77.73533,24.58146],[77.73556,24.58125],[77.73603,24.5814],[77.73625,24.58126],[77.73663,24.58132],[77.73675,24.58118],[77.73734,24.58119],[77.73762,24.5808],[77.73803,24.58056],[77.74074,24.58145],[77.74149,24.58183],[77.74172,24.58213],[77.74246,24.5838],[77.74281,24.58368],[77.74282,24.58275],[77.74311,24.58233],[77.74295,24.58197],[77.74538,24.58183],[77.74507,24.58154],[77.74442,24.5815],[77.74356,24.58117],[77.74363,24.58087],[77.74231,24.57888],[77.74249,24.57884],[77.7427,24.57696],[77.74148,24.57663],[77.74021,24.57651],[77.73794,24.57911],[77.73688,24.57999],[77.73357,24.57835],[77.73304,24.57917],[77.73384,24.57996],[77.73372,24.58006]]]}},{"type":"Feature","bbox":[77.73148,24.56986,77.74338,24.57999],"properties":{"ward":5},"geometry":{"type":"Polygon","coordinates":[[[77.74017,24.57657],[77.74148,24.57663],[77.7423,24.57685],[77.74234,24.57594],[77.74186,24.57595],[77.74217,24.57276],[77.74338,24.57117],[77.74244,24.56986],[77.73148,24.57719],[77.73182,24.57756],[77.73509,24.57901],[77.73688,24.57999],[77.73794,24.57911],[77.74017,24.57657]]]}},{"type":"Feature","bbox":[77.74231,24.57519,77.75262,24.58186],"properties":{"ward":6},"geometry":{"type":"Polygon","coordinates":[[[77.74799,24.57595],[77.74751,24.57559],[77.74688,24.57573],[77.74574,24.57533],[77.74561,24.57591],[77.74573,24.57664],[77.7456,24.57664],[77.74519,24.57756],[77.7427,24.57696],[77.74249,24.57884],[77.74231,24.57888],[77.74363,24.58087],[77.74356,24.58117],[77.74442,24.5815],[77.74507,24.58154],[77.74546,24.58186],[77.74785,24.5816],[77.74914,24.58121],[77.75085,24.5801],[77.75262,24.57933],[77.75221,24.57897],[77.75221,24.57836],[77.75179,24.57836],[77.75175,24.57727],[77.75129,24.57736],[77.7515,24.57655],[77.74907,24.57705],[77.74893,24.57685],[77.74877,24.57519],[77.74794,24.57528],[77.74799,24.57595]]]}},{"type":"Feature","bbox":[77.74186,24.5728,77.74798,24.57756],"properties":{"ward":7},"geometry":{"type":"Polygon","coordinates":[[[77.74561,24.57591],[77.74574,24.57533],[77.74682,24.57572],[77.74751,24.57559],[77.7476,24.57579],[77.74781,24.57573],[77.74798,24.57408],[77.74634,24.57386],[77.74604,24.57368],[77.7456,24.57372],[77.74537,24.57325],[77.74322,24.57322],[77.74312,24.5728],[77.74216,24.57287],[77.74186,24.57595],[77.74234,24.57594],[77.7423,24.57685],[77.74519,24.57756],[77.7456,24.57664],[77.74573,24.57664],[77.74561,24.57591]]]}},{"type":"Feature","bbox":[77.73328,24.55556,77.75055,24.57402],"properties":{"ward":8},"geometry":{"type":"Polygon","coordinates":[[[77.74606,24.57369],[77.74634,24.57386],[77.74772,24.57402],[77.74805,24.57383],[77.74806,24.57358],[77.74845,24.57345],[77.74941,24.57341],[77.74972,24.57359],[77.75044,24.57328],[77.75055,24.57339],[77.74982,24.5712],[77.75044,24.57106],[77.75004,24.56953],[77.74928,24.56964],[77.74897,24.56787],[77.74831,24.56759],[77.74758,24.56644],[77.74672,24.56701],[77.74604,24.56582],[77.7458,24.56514],[77.74638,24.56478],[77.74646,24.56433],[77.74575,24.56139],[77.74552,24.55947],[77.74357,24.5566],[77.74245,24.55556],[77.73904,24.56032],[77.73404,24.56949],[77.73328,24.57163],[77.73379,24.57181],[77.73543,24.57182],[77.73825,24.5723],[77.73843,24.57255],[77.74244,24.56986],[77.74338,24.57117],[77.74216,24.57287],[77.74312,24.5728],[77.74322,24.57322],[77.74537,24.57325],[77.74559,24.57371],[77.74606,24.57369]]]}},{"type":"Feature","bbox":[77.73285,24.57163,77.73809,24.5737],"properties":{"ward":9},"geometry":{"type":"Polygon","coordinates":[[[77.73589,24.57368],[77.73809,24.57231],[77.73543,24.57182],[77.73378,24.57181],[77.73328,24.57163],[77.73285,24.57239],[77.73344,24.57262],[77.73428,24.57267],[77.73426,24.5737],[77.73589,24.57368]]]}},{"type":"Feature","bbox":[77.73225,24.57231,77.73843,24.57505],"properties":{"ward":10},"geometry":{"type":"Polygon","coordinates":[[[77.73468,24.57505],[77.7368,24.57362],[77.73843,24.57255],[77.73809,24.57231],[77.73589,24.57368],[77.73462,24.57371],[77.73426,24.5737],[77.73428,24.57267],[77.73344,24.57262],[77.73285,24.57239],[77.73225,24.57345],[77.73262,24.5737],[77.73257,24.57412],[77.73283,24.57472],[77.73359,24.57492],[77.73406,24.57491],[77.73426,24.57474],[77.73468,24.57505]]]}},{"type":"Feature","bbox":[77.73019,24.57223,77.73468,24.57719],"properties":{"ward":11},"geometry":{"type":"Polygon","coordinates":[[[77.73468,24.57505],[77.73426,24.57474],[77.73406,24.57491],[77.73359,24.57492],[77.73283,24.57472],[77.73257,24.57412],[77.73262,24.5737],[77.73225,24.57345],[77.73288,24.57233],[77.73255,24.57223],[77.73108,24.57239],[77.73019,24.57324],[77.73068,24.57441],[77.73061,24.57544],[77.73074,24.57612],[77.73148,24.57719],[77.73468,24.57505]]]}},{"type":"Feature","bbox":[77.73115,24.56079,77.7383,24.57166],"properties":{"ward":12},"geometry":{"type":"Polygon","coordinates":[[[77.7383,24.56173],[77.73735,24.56153],[77.73729,24.56117],[77.73681,24.5611],[77.73667,24.56079],[77.73623,24.56147],[77.73586,24.56107],[77.73525,24.56083],[77.73488,24.56228],[77.73345,24.56507],[77.73306,24.56666],[77.73303,24.5675],[77.73352,24.56862],[77.73168,24.56979],[77.73115,24.57091],[77.73326,24.57166],[77.73404,24.56949],[77.7383,24.56173]]]}},{"type":"Feature","bbox":[77.7294,24.57019,77.73326,24.57239],"properties":{"ward":13},"geometry":{"type":"Polygon","coordinates":[[[77.73111,24.57239],[77.73288,24.57233],[77.73326,24.57166],[77.73064,24.57063],[77.7302,24.57063],[77.72984,24.5703],[77.7294,24.57019],[77.72956,24.57102],[77.73002,24.57147],[77.73097,24.57124],[77.73111,24.57239]]]}},{"type":"Feature","bbox":[77.72866,24.56649,77.73352,24.57083],"properties":{"ward":14},"geometry":{"type":"Polygon","coordinates":[[[77.73117,24.57083],[77.73168,24.56979],[77.73352,24.56862],[77.73303,24.5675],[77.73304,24.56673],[77.73208,24.56649],[77.72866,24.56754],[77.7294,24.57019],[77.72984,24.5703],[77.7302,24.57063],[77.73117,24.57083]]]}},{"type":"Feature","bbox":[77.72423,24.56021,77.73462,24.56761],"properties":{"ward":15},"geometry":{"type":"Polygon","coordinates":[[[77.73211,24.56649],[77.73304,24.56673],[77.73345,24.56507],[77.73462,24.56286],[77.73398,24.56264],[77.73388,24.56161],[77.73319,24.56157],[77.73295,24.5617],[77.73283,24.56208],[77.73219,24.56212],[77.73203,24.56089],[77.73059,24.56044],[77.72845,24.56074],[77.72804,24.56034],[77.72758,24.56021],[77.72668,24.56078],[77.7249,24.56073],[77.72485,24.56061],[77.7245,24.56071],[77.72461,24.56104],[77.72423,24.56116],[77.72616,24.56418],[77.7273,24.56692],[77.72777,24.5675],[77.72846,24.56761],[77.73211,24.56649]]]}},{"type":"Feature","bbox":[77.72308,24.56227,77.72927,24.57101],"properties":{"ward":16},"geometry":{"type":"Polygon","coordinates":[[[77.72416,24.57101],[77.7256,24.5708],[77.72662,24.57029],[77.72637,24.56979],[77.72756,24.57014],[77.72927,24.56991],[77.72866,24.56754],[77.72789,24.56758],[77.72732,24.56696],[77.72621,24.56427],[77.72495,24.56227],[77.72438,24.5634],[77.72457,24.56397],[77.72437,24.5647],[77.72471,24.56525],[77.72425,24.56561],[77.72397,24.56611],[77.72428,24.56638],[77.72422,24.56667],[77.72448,24.56772],[77.72379,24.56802],[77.72362,24.56853],[77.72308,24.56907],[77.72341,24.5695],[77.72356,24.5703],[77.72416,24.57101]]]}},{"type":"Feature","bbox":[77.72633,24.5698,77.73111,24.57339],"properties":{"ward":17},"geometry":{"type":"Polygon","coordinates":[[[77.73005,24.57302],[77.73016,24.57323],[77.73041,24.57311],[77.73111,24.57239],[77.73097,24.57124],[77.73001,24.57146],[77.7295,24.57094],[77.72927,24.56991],[77.72756,24.57014],[77.72633,24.5698],[77.72729,24.57133],[77.72777,24.57177],[77.72782,24.57317],[77.72855,24.57339],[77.73005,24.57302]]]}},{"type":"Feature","bbox":[77.72732,24.57301,77.73066,24.57551],"properties":{"ward":18},"geometry":{"type":"Polygon","coordinates":[[[77.72785,24.57534],[77.72967,24.57551],[77.73063,24.57529],[77.73066,24.57429],[77.73005,24.57301],[77.72792,24.57347],[77.72732,24.57551],[77.72785,24.57534]]]}},{"type":"Feature","bbox":[77.72422,24.57529,77.73148,24.58151],"properties":{"ward":19},"geometry":{"type":"Polygon","coordinates":[[[77.72742,24.57557],[77.72609,24.57713],[77.72568,24.57712],[77.72501,24.57745],[77.72512,24.57845],[77.72499,24.57943],[77.72427,24.5794],[77.72422,24.57971],[77.72493,24.58016],[77.72519,24.58055],[77.72458,24.58095],[77.72503,24.58151],[77.73148,24.57719],[77.73078,24.57623],[77.73063,24.57529],[77.72967,24.57551],[77.72781,24.57534],[77.72742,24.57557]]]}},{"type":"Feature","bbox":[77.72437,24.57029,77.72811,24.57659],"properties":{"ward":20},"geometry":{"type":"Polygon","coordinates":[[[77.72769,24.57166],[77.72729,24.57133],[77.72662,24.57029],[77.7256,24.5708],[77.72437,24.57106],[77.72477,24.57186],[77.72503,24.57171],[77.72521,24.57263],[77.72538,24.5728],[77.72523,24.57319],[77.7256,24.57529],[77.72604,24.57614],[77.72663,24.57659],[77.72742,24.57557],[77.72732,24.57551],[77.72789,24.57351],[77.72811,24.57334],[77.72776,24.57305],[77.72785,24.57203],[77.72769,24.57166]]]}},{"type":"Feature","bbox":[77.71613,24.57284,77.72595,24.5788],"properties":{"ward":21},"geometry":{"type":"Polygon","coordinates":[[[77.7234,24.57878],[77.72376,24.57838],[77.72385,24.57779],[77.72393,24.57688],[77.7237,24.57596],[77.72404,24.57561],[77.72428,24.57568],[77.72463,24.57647],[77.72595,24.57597],[77.72558,24.57524],[77.72523,24.57322],[77.72472,24.57289],[77.72428,24.57313],[77.72292,24.57308],[77.72224,24.57336],[77.72001,24.57284],[77.72019,24.57419],[77.71921,24.57423],[77.71889,24.57395],[77.71801,24.57361],[77.71752,24.57359],[77.71743,24.57417],[77.71682,24.57425],[77.71683,24.57445],[77.71613,24.5745],[77.71661,24.57565],[77.71697,24.57558],[77.71693,24.57596],[77.71663,24.57609],[77.71682,24.57655],[77.71665,24.57672],[77.71693,24.57741],[77.71663,24.57787],[77.71733,24.57764],[77.71742,24.57786],[77.71799,24.57763],[77.71809,24.57794],[77.71919,24.57738],[77.71958,24.57804],[77.72025,24.57801],[77.72088,24.57762],[77.72163,24.57805],[77.72195,24.5786],[77.72242,24.57829],[77.72312,24.5788],[77.7234,24.57878]]]}},{"type":"Feature","bbox":[77.72014,24.57561,77.72663,24.58423],"properties":{"ward":22},"geometry":{"type":"Polygon","coordinates":[[[77.72503,24.58151],[77.72458,24.58095],[77.72519,24.58055],[77.72493,24.58016],[77.72422,24.57971],[77.72427,24.5794],[77.72499,24.57943],[77.72512,24.57845],[77.72501,24.57745],[77.72568,24.57712],[77.72609,24.57713],[77.72663,24.57659],[77.72595,24.57597],[77.72463,24.57647],[77.72428,24.57568],[77.72404,24.57561],[77.7237,24.57596],[77.72393,24.57688],[77.72376,24.57838],[77.72344,24.57857],[77.7234,24.57878],[77.72312,24.5788],[77.72242,24.57829],[77.72148,24.579],[77.72157,24.57936],[77.7213,24.57975],[77.72153,24.57994],[77.72152,24.58024],[77.72199,24.58036],[77.72216,24.58086],[77.72226,24.5808],[77.72283,24.58128],[77.72274,24.58148],[77.72331,24.58237],[77.72129,24.5838],[77.72048,24.58327],[77.7202,24.58332],[77.72014,24.58347],[77.72096,24.58423],[77.72503,24.58151]]]}}]}