{"type":"FeatureCollection","features":[{"type":"Feature","bbox":[71.77694,22.56208,71.80815,22.58093],"properties":{"ward":1},"geometry":{"type":"Polygon","coordinates":[[[71.77813,22.57253],[71.77801,22.57319],[71.77774,22.57314],[71.77776,22.57494],[71.77834,22.57504],[71.77858,22.57524],[71.78029,22.57524],[71.78104,22.57551],[71.78343,22.57583],[71.78318,22.57643],[71.78846,22.57777],[71.78972,22.57822],[71.78955,22.57957],[71.79001,22.57974],[71.78996,22.58047],[71.79214,22.58093],[71.79253,22.57979],[71.79497,22.57489],[71.79645,22.57529],[71.79802,22.57529],[71.80098,22.57615],[71.80343,22.57728],[71.80533,22.57757],[71.80583,22.57735],[71.80675,22.57732],[71.80815,22.57582],[71.80747,22.57086],[71.80434,22.5718],[71.80205,22.57168],[71.80117,22.57185],[71.79776,22.56615],[71.79355,22.56764],[71.79219,22.56393],[71.79263,22.56369],[71.79352,22.56273],[71.79357,22.56223],[71.79335,22.56208],[71.79046,22.56215],[71.79048,22.56256],[71.78784,22.56235],[71.78791,22.56265],[71.78685,22.56281],[71.78595,22.5627],[71.78599,22.56313],[71.78427,22.56318],[71.78424,22.56343],[71.78207,22.56353],[71.78207,22.56326],[71.78027,22.56339],[71.78028,22.56404],[71.77886,22.56405],[71.77879,22.56329],[71.7771,22.56322],[71.77694,22.56741],[71.77718,22.56909],[71.77715,22.57162],[71.77813,22.57253]]]}},{"type":"Feature","bbox":[71.80675,22.5686,71.83026,22.57774],"properties":{"ward":2},"geometry":{"type":"Polygon","coordinates":[[[71.80715,22.56883],[71.80815,22.57582],[71.80675,22.57732],[71.81257,22.5768],[71.81277,22.57693],[71.81601,22.57704],[71.8208,22.57706],[71.82346,22.57739],[71.82486,22.57774],[71.82496,22.5773],[71.82813,22.57739],[71.83026,22.57204],[71.82721,22.57151],[71.82734,22.57113],[71.82622,22.57077],[71.82625,22.57063],[71.82493,22.57004],[71.82461,22.57083],[71.81985,22.57017],[71.81782,22.56924],[71.81741,22.56939],[71.81617,22.56937],[71.81483,22.56919],[71.81464,22.56897],[71.8126,22.56922],[71.80889,22.5686],[71.80715,22.56883]]]}},{"type":"Feature","bbox":[71.81464,22.56102,71.83078,22.57204],"properties":{"ward":3},"geometry":{"type":"Polygon","coordinates":[[[71.81464,22.56897],[71.81483,22.56919],[71.81617,22.56937],[71.81741,22.56939],[71.81782,22.56924],[71.81985,22.57017],[71.82461,22.57083],[71.82493,22.57004],[71.82625,22.57063],[71.82622,22.57077],[71.82734,22.57113],[71.82721,22.57151],[71.83026,22.57204],[71.83078,22.57056],[71.82931,22.57033],[71.82941,22.57052],[71.82881,22.57047],[71.8288,22.57021],[71.82814,22.56995],[71.82846,22.56911],[71.82941,22.56791],[71.82938,22.56697],[71.82869,22.56708],[71.82886,22.56581],[71.82939,22.56586],[71.82952,22.56494],[71.82898,22.56453],[71.82868,22.56383],[71.82792,22.56351],[71.82494,22.56102],[71.82328,22.56255],[71.82196,22.56333],[71.82113,22.56354],[71.81984,22.56327],[71.8186,22.56279],[71.81753,22.56213],[71.81713,22.56362],[71.81595,22.56332],[71.81577,22.5641],[71.81479,22.56397],[71.81464,22.56897]]]}},{"type":"Feature","bbox":[71.80715,22.5626,71.81595,22.56922],"properties":{"ward":4},"geometry":{"type":"Polygon","coordinates":[[[71.8151,22.56292],[71.8124,22.5626],[71.81239,22.56332],[71.81205,22.56335],[71.81252,22.56447],[71.81157,22.56458],[71.81216,22.56634],[71.80715,22.56635],[71.80715,22.56883],[71.80889,22.5686],[71.8126,22.56922],[71.81464,22.56897],[71.81479,22.56397],[71.81577,22.5641],[71.81595,22.56332],[71.8151,22.56292]]]}},{"type":"Feature","bbox":[71.79262,22.563,71.81252,22.57185],"properties":{"ward":5},"geometry":{"type":"Polygon","coordinates":[[[71.79776,22.56615],[71.80117,22.57185],[71.80205,22.57168],[71.80434,22.5718],[71.80747,22.57086],[71.80715,22.56883],[71.80715,22.56635],[71.81216,22.56634],[71.81157,22.56458],[71.81252,22.56447],[71.81205,22.56335],[71.81137,22.56335],[71.81135,22.563],[71.80436,22.56336],[71.79496,22.56473],[71.79262,22.56538],[71.79355,22.56764],[71.79776,22.56615]]]}},{"type":"Feature","bbox":[71.78012,22.54713,71.81049,22.56537],"properties":{"ward":6},"geometry":{"type":"Polygon","coordinates":[[[71.79262,22.56537],[71.79496,22.56472],[71.80436,22.56335],[71.8079,22.56316],[71.80786,22.56087],[71.80835,22.55882],[71.80898,22.55452],[71.80925,22.55462],[71.80928,22.55487],[71.81049,22.55504],[71.8093,22.55134],[71.80863,22.5516],[71.80845,22.55325],[71.80703,22.55258],[71.80505,22.55201],[71.8023,22.55146],[71.79884,22.55109],[71.7986,22.55101],[71.7985,22.54903],[71.79708,22.54876],[71.79691,22.5476],[71.79368,22.54742],[71.79263,22.54713],[71.7919,22.54728],[71.793,22.54952],[71.79298,22.55254],[71.79185,22.55497],[71.78964,22.55874],[71.79044,22.56077],[71.78719,22.56018],[71.78478,22.55993],[71.78207,22.56005],[71.78066,22.55982],[71.78047,22.56091],[71.78017,22.56094],[71.78012,22.56123],[71.78027,22.56338],[71.78207,22.56325],[71.78207,22.56352],[71.78424,22.56342],[71.78427,22.56317],[71.78599,22.56312],[71.78595,22.56269],[71.78685,22.5628],[71.78791,22.56264],[71.78784,22.56234],[71.79048,22.56255],[71.79046,22.56214],[71.79335,22.56207],[71.79357,22.56222],[71.79352,22.56272],[71.79263,22.56368],[71.79219,22.56392],[71.79262,22.56537]]]}},{"type":"Feature","bbox":[71.80786,22.54854,71.82494,22.56362],"properties":{"ward":7},"geometry":{"type":"Polygon","coordinates":[[[71.81713,22.56362],[71.81753,22.56213],[71.8193,22.56308],[71.82113,22.56354],[71.82277,22.56291],[71.82494,22.56102],[71.82413,22.55988],[71.82405,22.55756],[71.8237,22.55746],[71.82363,22.55404],[71.82376,22.55209],[71.82115,22.55115],[71.81726,22.5511],[71.81479,22.5505],[71.81484,22.55107],[71.8144,22.55173],[71.81453,22.55089],[71.81296,22.55098],[71.81218,22.54999],[71.81175,22.54854],[71.8093,22.55135],[71.81049,22.55506],[71.80928,22.55488],[71.80925,22.55463],[71.80898,22.55453],[71.80835,22.55883],[71.80786,22.56088],[71.8079,22.56317],[71.81135,22.563],[71.81137,22.56335],[71.81239,22.56332],[71.8124,22.5626],[71.8151,22.56292],[71.81713,22.56362]]]}}]}