{"type":"FeatureCollection","features":[{"type":"Feature","bbox":[74.57021,22.98846,74.58433,23.00646],"properties":{"ward":1,"name":"Bhagat Singh Ward"},"geometry":{"type":"Polygon","coordinates":[[[74.57789,23.00632],[74.57772,23.00588],[74.57743,23.00588],[74.57715,23.00563],[74.57708,23.00494],[74.57724,23.00434],[74.57669,23.00414],[74.57668,23.00399],[74.57747,23.00395],[74.57749,23.00354],[74.57775,23.00346],[74.57744,23.00267],[74.57978,23.00172],[74.57949,23.00033],[74.5808,23.00068],[74.58163,23.00068],[74.58374,22.99935],[74.58431,22.9988],[74.58414,22.99855],[74.58433,22.99827],[74.5841,22.99821],[74.58376,22.99855],[74.5834,22.99859],[74.5833,22.99811],[74.58259,22.99833],[74.58262,22.99782],[74.58238,22.99779],[74.58226,22.99804],[74.58211,22.99798],[74.58209,22.99741],[74.58186,22.99716],[74.58108,22.99747],[74.58071,22.99725],[74.58074,22.99696],[74.5799,22.99697],[74.58011,22.99655],[74.58002,22.99634],[74.57894,22.99635],[74.5794,22.99583],[74.57928,22.99554],[74.57856,22.99605],[74.57794,22.99605],[74.57768,22.99641],[74.57708,22.99666],[74.57687,22.99691],[74.57644,22.99684],[74.57666,22.99617],[74.57582,22.99584],[74.57617,22.9952],[74.57633,22.99417],[74.57827,22.99314],[74.58107,22.98975],[74.57906,22.98863],[74.578,22.98846],[74.57771,22.98871],[74.57702,22.98882],[74.57713,22.98908],[74.57696,22.98926],[74.57605,22.98926],[74.57534,22.98968],[74.57549,22.99005],[74.57538,22.99016],[74.57473,22.99009],[74.57418,22.99086],[74.57407,22.99138],[74.57447,22.99159],[74.57468,22.99208],[74.57419,22.99281],[74.57373,22.99288],[74.57341,22.99255],[74.57298,22.99243],[74.57289,22.99256],[74.57308,22.99296],[74.57284,22.99306],[74.57237,22.99273],[74.57239,22.99207],[74.57193,22.99197],[74.57204,22.99231],[74.57193,22.99246],[74.57125,22.99235],[74.57074,22.99166],[74.57037,22.99178],[74.57063,22.99224],[74.57021,22.99246],[74.57059,22.9927],[74.57031,22.99304],[74.57046,22.99328],[74.57037,22.99357],[74.57069,22.99396],[74.57039,22.99426],[74.57122,22.99611],[74.57131,22.99682],[74.57268,22.99704],[74.57247,22.99766],[74.57272,22.99888],[74.57201,22.99904],[74.57223,23.00139],[74.57181,23.00119],[74.57317,23.00473],[74.57371,23.00553],[74.57395,23.00567],[74.57425,23.00549],[74.57501,23.00586],[74.57511,23.0061],[74.57668,23.00618],[74.57693,23.00646],[74.57789,23.00632]]]}},{"type":"Feature","bbox":[74.57645,23.00618,74.57795,23.00879],"properties":{"ward":2,"name":"Chandra Shekhar Azad Ward"},"geometry":{"type":"Polygon","coordinates":[[[74.57743,23.00874],[74.57738,23.00824],[74.57761,23.00812],[74.57732,23.00699],[74.57795,23.00674],[74.57789,23.00632],[74.57693,23.00646],[74.57668,23.00618],[74.57667,23.00647],[74.57645,23.00649],[74.57669,23.00748],[74.57656,23.00751],[74.57672,23.00767],[74.57659,23.00792],[74.57675,23.00801],[74.57692,23.00879],[74.57743,23.00874]]]}},{"type":"Feature","bbox":[74.56955,23.00253,74.57672,23.00897],"properties":{"ward":3,"name":"Abbas Taiyabji Ward"},"geometry":{"type":"Polygon","coordinates":[[[74.5757,23.00723],[74.57614,23.0081],[74.57662,23.00799],[74.57659,23.00772],[74.57672,23.00767],[74.57656,23.00751],[74.57669,23.00748],[74.57645,23.00649],[74.57667,23.00647],[74.57668,23.00618],[74.57553,23.0062],[74.57511,23.0061],[74.57501,23.00586],[74.57425,23.00549],[74.57395,23.00567],[74.57367,23.00551],[74.57284,23.00406],[74.57241,23.00253],[74.57187,23.00261],[74.57169,23.00345],[74.5711,23.00376],[74.56955,23.00413],[74.5704,23.00515],[74.57225,23.00668],[74.57228,23.00685],[74.57199,23.00716],[74.57069,23.00808],[74.57057,23.0084],[74.57104,23.00878],[74.57275,23.00897],[74.57384,23.00863],[74.57416,23.00824],[74.57545,23.00822],[74.5748,23.00635],[74.57513,23.00624],[74.57547,23.00637],[74.5755,23.00659],[74.57565,23.00656],[74.5757,23.00723]]]}},{"type":"Feature","bbox":[74.57275,23.00624,74.57611,23.00923],"properties":{"ward":4,"name":"Tatya Tope Ward"},"geometry":{"type":"Polygon","coordinates":[[[74.57388,23.00923],[74.57486,23.00893],[74.57476,23.00858],[74.57565,23.00849],[74.5758,23.00815],[74.57611,23.00803],[74.5757,23.00723],[74.57565,23.00656],[74.5755,23.00659],[74.57547,23.00637],[74.57513,23.00624],[74.5748,23.00635],[74.57545,23.00822],[74.57416,23.00824],[74.57384,23.00863],[74.57275,23.00897],[74.57388,23.00923]]]}},{"type":"Feature","bbox":[74.57388,23.00801,74.57688,23.00957],"properties":{"ward":5,"name":"Laxmi Bai Ward"},"geometry":{"type":"Polygon","coordinates":[[[74.57688,23.00868],[74.57675,23.00801],[74.57607,23.00804],[74.5758,23.00815],[74.57565,23.00849],[74.57476,23.00858],[74.57486,23.00893],[74.57388,23.00923],[74.57433,23.00957],[74.57465,23.00918],[74.57568,23.00927],[74.57595,23.00915],[74.57583,23.00851],[74.5763,23.00851],[74.57636,23.00875],[74.5766,23.00874],[74.57688,23.00868]]]}},{"type":"Feature","bbox":[74.57626,23.00836,74.57852,23.00997],"properties":{"ward":6,"name":"Sardar Patel Ward"},"geometry":{"type":"Polygon","coordinates":[[[74.57663,23.00997],[74.57754,23.00988],[74.57761,23.00952],[74.57787,23.00922],[74.57852,23.00909],[74.57838,23.00836],[74.57715,23.00886],[74.57688,23.00868],[74.57636,23.00875],[74.57648,23.00901],[74.57626,23.00907],[74.57643,23.00955],[74.57663,23.00997]]]}},{"type":"Feature","bbox":[74.57433,23.00846,74.57655,23.0105],"properties":{"ward":7,"name":"Sant Bhoolak Das Ward"},"geometry":{"type":"Polygon","coordinates":[[[74.57655,23.0098],[74.57626,23.00907],[74.57648,23.00901],[74.5763,23.00851],[74.57603,23.00857],[74.57599,23.00846],[74.57583,23.00851],[74.57591,23.0092],[74.57465,23.00918],[74.57433,23.00957],[74.57521,23.0105],[74.57549,23.01049],[74.57575,23.01043],[74.57577,23.00995],[74.57655,23.0098]]]}},{"type":"Feature","bbox":[74.57719,23.00828,74.57921,23.01075],"properties":{"ward":8,"name":"Subhash Ward"},"geometry":{"type":"Polygon","coordinates":[[[74.57739,23.01075],[74.57802,23.01053],[74.57801,23.01037],[74.57843,23.01035],[74.57851,23.00979],[74.57875,23.00978],[74.57876,23.00935],[74.57921,23.00929],[74.5789,23.00828],[74.57862,23.00843],[74.57867,23.0087],[74.57846,23.00875],[74.57852,23.00909],[74.57787,23.00922],[74.57761,23.00952],[74.57754,23.00988],[74.57719,23.01004],[74.57739,23.01075]]]}},{"type":"Feature","bbox":[74.57668,22.99877,74.59147,23.00985],"properties":{"ward":9,"name":"Ashfakullah Ward"},"geometry":{"type":"Polygon","coordinates":[[[74.57848,23.00874],[74.57867,23.0087],[74.57862,23.00843],[74.5789,23.00828],[74.57917,23.00889],[74.57904,23.00828],[74.58159,23.00967],[74.58299,23.00985],[74.58508,23.0095],[74.58558,23.00903],[74.58786,23.0088],[74.59063,23.00827],[74.59061,23.00708],[74.59087,23.00714],[74.59147,23.00514],[74.59069,23.00459],[74.59028,23.00345],[74.59002,23.0032],[74.58956,23.00308],[74.58938,23.00278],[74.58957,23.00264],[74.58951,23.00249],[74.58893,23.00258],[74.5881,23.00229],[74.58738,23.00168],[74.58696,23.00167],[74.58692,23.00141],[74.58618,23.0015],[74.58593,23.00134],[74.58558,23.00173],[74.58533,23.00166],[74.58529,23.00155],[74.58574,23.00122],[74.58543,23.0011],[74.58524,23.0008],[74.5851,22.99988],[74.58475,22.9999],[74.58473,22.99951],[74.58406,22.99942],[74.58445,22.99894],[74.58435,22.99877],[74.58334,22.9997],[74.58163,23.00068],[74.5808,23.00068],[74.57949,23.00033],[74.57978,23.00172],[74.57744,23.00267],[74.57775,23.00346],[74.57749,23.00354],[74.57747,23.00395],[74.57668,23.00399],[74.57669,23.00414],[74.57724,23.00434],[74.57708,23.00494],[74.57715,23.00563],[74.57738,23.00586],[74.57782,23.00596],[74.57791,23.00639],[74.57795,23.00674],[74.57732,23.00699],[74.57761,23.00812],[74.57737,23.00832],[74.5775,23.00863],[74.57838,23.00836],[74.57848,23.00874]]]}},{"type":"Feature","bbox":[74.57844,23.00828,74.58991,23.01349],"properties":{"ward":10,"name":"Jawahar Ward"},"geometry":{"type":"Polygon","coordinates":[[[74.58643,23.01349],[74.58988,23.01338],[74.58972,23.01167],[74.58991,23.01067],[74.58965,23.01067],[74.58979,23.00973],[74.58972,23.00841],[74.58786,23.0088],[74.58558,23.00903],[74.58508,23.0095],[74.58392,23.00977],[74.5826,23.00985],[74.58159,23.00967],[74.57904,23.00828],[74.57921,23.00929],[74.57876,23.00935],[74.57875,23.00978],[74.57851,23.00979],[74.57844,23.01052],[74.5786,23.01057],[74.57861,23.01083],[74.57965,23.01079],[74.57965,23.01094],[74.58043,23.01103],[74.58045,23.01126],[74.58033,23.01127],[74.58043,23.01233],[74.5823,23.01258],[74.58336,23.01295],[74.58339,23.01258],[74.58485,23.01317],[74.58643,23.01349]]]}},{"type":"Feature","bbox":[74.57521,23.00986,74.57734,23.01138],"properties":{"ward":11,"name":"Maharana Pratap Ward"},"geometry":{"type":"Polygon","coordinates":[[[74.57678,23.01119],[74.57719,23.01085],[74.57734,23.01095],[74.57719,23.01004],[74.57732,23.00986],[74.57586,23.0099],[74.57569,23.01002],[74.57574,23.01045],[74.57521,23.0105],[74.57576,23.01123],[74.57611,23.01119],[74.57618,23.01138],[74.57678,23.01119]]]}},{"type":"Feature","bbox":[74.57576,23.01035,74.58046,23.0123],"properties":{"ward":12,"name":"Vinoba Bhave Ward"},"geometry":{"type":"Polygon","coordinates":[[[74.58046,23.0123],[74.58033,23.01127],[74.58045,23.01126],[74.58043,23.01103],[74.57965,23.01094],[74.57965,23.01079],[74.57861,23.01083],[74.57844,23.01035],[74.57801,23.01037],[74.57802,23.01053],[74.57726,23.01079],[74.57734,23.01096],[74.57719,23.01085],[74.57663,23.01131],[74.57618,23.01138],[74.57611,23.01119],[74.57576,23.01123],[74.57608,23.01189],[74.57686,23.01171],[74.57678,23.01158],[74.57739,23.01102],[74.57838,23.01116],[74.57943,23.01096],[74.57948,23.01195],[74.57962,23.01224],[74.58046,23.0123]]]}},{"type":"Feature","bbox":[74.57606,23.01101,74.57808,23.01258],"properties":{"ward":13,"name":"Rajeev Ward"},"geometry":{"type":"Polygon","coordinates":[[[74.57752,23.01219],[74.57808,23.01181],[74.57788,23.0116],[74.57778,23.01101],[74.57739,23.01102],[74.57678,23.01158],[74.57686,23.01171],[74.57606,23.01194],[74.57634,23.01258],[74.57752,23.01219]]]}},{"type":"Feature","bbox":[74.57634,23.01096,74.57956,23.01424],"properties":{"ward":14,"name":"Dr. Bhimrao Ambedkar Ward"},"geometry":{"type":"Polygon","coordinates":[[[74.57913,23.01376],[74.57887,23.01329],[74.5792,23.01316],[74.57914,23.0127],[74.57878,23.01205],[74.57956,23.01207],[74.57943,23.01096],[74.57789,23.01116],[74.57801,23.01194],[74.57764,23.01207],[74.57766,23.01219],[74.57634,23.01258],[74.57718,23.01376],[74.57702,23.01386],[74.57733,23.01424],[74.57769,23.01401],[74.57846,23.01405],[74.57913,23.01376]]]}},{"type":"Feature","bbox":[74.57733,23.01205,74.59181,23.01894],"properties":{"ward":15,"name":"Mahatma Gandhi Ward"},"geometry":{"type":"Polygon","coordinates":[[[74.58281,23.01874],[74.58466,23.01853],[74.58477,23.01799],[74.58502,23.01771],[74.58629,23.01792],[74.58699,23.01837],[74.58789,23.0185],[74.58847,23.01823],[74.58942,23.01729],[74.59041,23.0174],[74.59071,23.01632],[74.59058,23.01494],[74.59097,23.01453],[74.59166,23.01437],[74.59181,23.01332],[74.59158,23.01276],[74.59038,23.01344],[74.58643,23.01349],[74.58485,23.01317],[74.58339,23.01258],[74.58336,23.01295],[74.5823,23.01258],[74.57962,23.01224],[74.57958,23.01207],[74.57878,23.01205],[74.57914,23.0127],[74.5792,23.01316],[74.57887,23.01329],[74.57913,23.01376],[74.57843,23.01406],[74.57765,23.01402],[74.57733,23.01424],[74.57828,23.01533],[74.57832,23.01593],[74.57889,23.01603],[74.57909,23.01627],[74.57911,23.01775],[74.57977,23.01818],[74.58014,23.01886],[74.58162,23.01873],[74.58226,23.01894],[74.58281,23.01874]]]}}]}