{"type":"FeatureCollection","features":[{"type":"Feature","bbox":[69.32205,22.82951,69.34282,22.85348],"properties":{"ward":1},"geometry":{"type":"Polygon","coordinates":[[[69.33315,22.85336],[69.33399,22.85287],[69.33637,22.85015],[69.33484,22.8493],[69.33377,22.84902],[69.33449,22.84741],[69.33522,22.84801],[69.33562,22.84609],[69.33555,22.84555],[69.33578,22.8438],[69.33632,22.84373],[69.33753,22.84112],[69.33753,22.84002],[69.33789,22.83983],[69.33873,22.83977],[69.33854,22.83782],[69.3414,22.83761],[69.34168,22.83525],[69.34145,22.83492],[69.3416,22.83451],[69.34281,22.83326],[69.34282,22.83285],[69.34169,22.83273],[69.33897,22.8315],[69.33921,22.83028],[69.33877,22.82997],[69.33872,22.82951],[69.33813,22.82997],[69.33034,22.83361],[69.32354,22.83579],[69.32376,22.83834],[69.32205,22.84817],[69.32896,22.8484],[69.32907,22.84879],[69.32991,22.84883],[69.32965,22.85005],[69.32893,22.84985],[69.32787,22.85254],[69.32889,22.8529],[69.33032,22.85284],[69.33168,22.85304],[69.33194,22.85292],[69.33193,22.85348],[69.33315,22.85336]]]}},{"type":"Feature","bbox":[69.33377,22.83715,69.35344,22.85878],"properties":{"ward":2},"geometry":{"type":"Polygon","coordinates":[[[69.35059,22.84271],[69.34944,22.84296],[69.34933,22.84278],[69.34889,22.84275],[69.34874,22.83836],[69.34851,22.83715],[69.34552,22.83756],[69.33854,22.83782],[69.33873,22.83977],[69.33789,22.83983],[69.33753,22.84002],[69.33753,22.84112],[69.33632,22.84373],[69.33578,22.8438],[69.33555,22.84555],[69.33562,22.84609],[69.33522,22.84801],[69.33449,22.84741],[69.33377,22.84902],[69.33484,22.8493],[69.33637,22.85015],[69.33442,22.85233],[69.33536,22.85427],[69.33751,22.85506],[69.33813,22.85372],[69.33869,22.85381],[69.33995,22.85449],[69.34005,22.85475],[69.34254,22.85643],[69.34221,22.85698],[69.34271,22.85744],[69.34392,22.85809],[69.34577,22.85863],[69.34699,22.85856],[69.34727,22.85872],[69.34799,22.85878],[69.35113,22.85822],[69.35115,22.85133],[69.35227,22.84631],[69.35344,22.84485],[69.35102,22.84442],[69.35098,22.84361],[69.35071,22.84343],[69.35059,22.84271]]]}},{"type":"Feature","bbox":[69.3478,22.83423,69.35861,22.84485],"properties":{"ward":3},"geometry":{"type":"Polygon","coordinates":[[[69.35344,22.84485],[69.35701,22.84025],[69.35839,22.83632],[69.35861,22.83525],[69.35723,22.83519],[69.3541,22.8356],[69.35072,22.83632],[69.35055,22.83616],[69.35043,22.83425],[69.34909,22.83423],[69.3487,22.83479],[69.3478,22.83511],[69.34846,22.83677],[69.34874,22.83836],[69.34889,22.84275],[69.34933,22.84278],[69.34944,22.84296],[69.35059,22.84271],[69.35071,22.84343],[69.35098,22.84361],[69.35102,22.84442],[69.35344,22.84485]]]}},{"type":"Feature","bbox":[69.35113,22.82844,69.38537,22.85895],"properties":{"ward":4},"geometry":{"type":"Polygon","coordinates":[[[69.36736,22.8305],[69.36625,22.82923],[69.36477,22.82848],[69.36361,22.82844],[69.36479,22.83324],[69.35902,22.83207],[69.35769,22.83218],[69.35837,22.83322],[69.35878,22.83441],[69.35839,22.83632],[69.35701,22.84025],[69.35227,22.84631],[69.35115,22.85133],[69.35113,22.85822],[69.3537,22.85774],[69.35532,22.85831],[69.35538,22.85859],[69.35556,22.85854],[69.35566,22.85666],[69.35693,22.85658],[69.35709,22.85562],[69.35758,22.8545],[69.35885,22.85613],[69.35899,22.85592],[69.35903,22.85517],[69.35923,22.85513],[69.35931,22.85459],[69.36025,22.85395],[69.3611,22.8547],[69.36117,22.85263],[69.36181,22.85129],[69.36369,22.84953],[69.36523,22.8495],[69.36496,22.84842],[69.36552,22.84874],[69.36652,22.84726],[69.36766,22.8478],[69.36931,22.84899],[69.36971,22.84901],[69.37047,22.84943],[69.37019,22.84962],[69.37036,22.84983],[69.37024,22.8505],[69.37066,22.85129],[69.37311,22.85269],[69.37392,22.85126],[69.37583,22.8517],[69.37606,22.85156],[69.37731,22.852],[69.37722,22.85226],[69.37836,22.85366],[69.37828,22.8545],[69.37726,22.85496],[69.37726,22.85519],[69.37749,22.85522],[69.37744,22.85584],[69.37696,22.85577],[69.37685,22.85635],[69.37728,22.85653],[69.37798,22.85639],[69.37853,22.8566],[69.37907,22.85762],[69.37905,22.85866],[69.37957,22.85895],[69.38097,22.85786],[69.38139,22.85686],[69.38235,22.85632],[69.38147,22.85521],[69.38171,22.85503],[69.38325,22.85489],[69.38537,22.854],[69.38452,22.85154],[69.38327,22.84577],[69.38202,22.84542],[69.38224,22.84444],[69.38221,22.84369],[69.38182,22.84364],[69.38192,22.84331],[69.3813,22.84258],[69.38001,22.84176],[69.37959,22.84172],[69.37977,22.8412],[69.37876,22.84113],[69.37859,22.84151],[69.37606,22.84086],[69.37621,22.83981],[69.37685,22.83922],[69.3769,22.83895],[69.37666,22.83857],[69.3771,22.83814],[69.37713,22.83769],[69.37761,22.83677],[69.37769,22.83627],[69.37661,22.83621],[69.37485,22.83551],[69.37262,22.83527],[69.37184,22.83499],[69.37045,22.83287],[69.3716,22.8328],[69.37164,22.83134],[69.37131,22.83089],[69.37035,22.83094],[69.36736,22.8305]]]}},{"type":"Feature","bbox":[69.35318,22.82266,69.37098,22.83281],"properties":{"ward":5},"geometry":{"type":"Polygon","coordinates":[[[69.36813,22.82266],[69.35318,22.82352],[69.35787,22.83167],[69.36448,22.83281],[69.36356,22.82863],[69.36546,22.8283],[69.36784,22.83024],[69.37087,22.83064],[69.37098,22.83005],[69.37079,22.82935],[69.37086,22.82798],[69.37015,22.82774],[69.36986,22.82726],[69.36823,22.82691],[69.36813,22.82266]]]}},{"type":"Feature","bbox":[69.34676,22.82348,69.35878,22.83567],"properties":{"ward":6},"geometry":{"type":"Polygon","coordinates":[[[69.34834,22.82884],[69.34993,22.82905],[69.34991,22.82878],[69.35191,22.82907],[69.35262,22.83049],[69.3529,22.8318],[69.35337,22.83289],[69.35373,22.83567],[69.35723,22.83519],[69.35861,22.83525],[69.35878,22.83441],[69.35837,22.83322],[69.35513,22.82806],[69.35303,22.8236],[69.35135,22.82348],[69.3486,22.82413],[69.34799,22.82538],[69.34676,22.82903],[69.34834,22.82884]]]}},{"type":"Feature","bbox":[69.34845,22.83127,69.35373,22.83632],"properties":{"ward":7},"geometry":{"type":"Polygon","coordinates":[[[69.35373,22.83567],[69.35337,22.83289],[69.3529,22.8318],[69.35227,22.83187],[69.35152,22.83148],[69.35031,22.83127],[69.34846,22.83144],[69.34845,22.83158],[69.34969,22.83234],[69.34949,22.83366],[69.34909,22.83423],[69.35043,22.83425],[69.35055,22.83616],[69.35072,22.83632],[69.35373,22.83567]]]}},{"type":"Feature","bbox":[69.34702,22.82993,69.3497,22.83511],"properties":{"ward":8},"geometry":{"type":"Polygon","coordinates":[[[69.34704,22.83143],[69.34702,22.83271],[69.34745,22.83277],[69.34755,22.83416],[69.3478,22.83511],[69.3487,22.83479],[69.34941,22.8339],[69.34969,22.83234],[69.34845,22.83158],[69.34846,22.83144],[69.34964,22.83131],[69.34954,22.8307],[69.34969,22.8307],[69.3497,22.8303],[69.34892,22.82993],[69.34866,22.83014],[69.34862,22.83052],[69.34818,22.83127],[69.34704,22.83143]]]}},{"type":"Feature","bbox":[69.33897,22.82408,69.3529,22.83761],"properties":{"ward":9},"geometry":{"type":"Polygon","coordinates":[[[69.34704,22.83143],[69.34818,22.83127],[69.34862,22.83052],[69.34866,22.83014],[69.34892,22.82993],[69.3497,22.8303],[69.34969,22.8307],[69.34954,22.8307],[69.34964,22.83131],[69.35152,22.83148],[69.35227,22.83187],[69.3529,22.8318],[69.35262,22.83049],[69.35191,22.82907],[69.34991,22.82878],[69.34993,22.82905],[69.34765,22.82883],[69.34676,22.82903],[69.34837,22.82408],[69.33904,22.82932],[69.33921,22.83028],[69.33897,22.8315],[69.34169,22.83273],[69.34282,22.83285],[69.34281,22.83326],[69.3416,22.83451],[69.34145,22.83492],[69.34168,22.83525],[69.3414,22.83761],[69.34552,22.83756],[69.34851,22.83715],[69.34759,22.83441],[69.34745,22.83277],[69.34702,22.83271],[69.34704,22.83143]]]}}]}