{"type":"FeatureCollection","features":[{"type":"Feature","bbox":[71.87082,23.68596,71.91147,23.71846],"properties":{"ward":1,"name":"Khemasar"},"geometry":{"type":"Polygon","coordinates":[[[71.89824,23.71846],[71.89835,23.71713],[71.8985,23.71712],[71.89916,23.71594],[71.89918,23.71505],[71.90282,23.71399],[71.9018,23.71114],[71.90227,23.71045],[71.90348,23.7101],[71.90235,23.70681],[71.90426,23.70628],[71.90363,23.70447],[71.90418,23.70419],[71.90605,23.70455],[71.90621,23.70345],[71.90698,23.70346],[71.90685,23.70191],[71.90725,23.70025],[71.90698,23.7],[71.90743,23.69984],[71.90873,23.69979],[71.90888,23.70023],[71.90885,23.70087],[71.90927,23.70154],[71.90977,23.70114],[71.90987,23.70029],[71.91067,23.69994],[71.91141,23.70003],[71.91147,23.69959],[71.90686,23.69608],[71.9066,23.69583],[71.90653,23.6952],[71.90177,23.69487],[71.90171,23.69676],[71.89956,23.69667],[71.89958,23.69639],[71.89841,23.69646],[71.89843,23.69667],[71.89715,23.69638],[71.89596,23.69671],[71.89293,23.69712],[71.8926,23.69739],[71.88634,23.69774],[71.88222,23.69846],[71.8794,23.69855],[71.87811,23.69786],[71.87837,23.69779],[71.87811,23.69542],[71.87803,23.69515],[71.87737,23.69536],[71.87672,23.69464],[71.87712,23.69351],[71.87655,23.69321],[71.87678,23.69257],[71.87543,23.69205],[71.87655,23.69199],[71.87615,23.68972],[71.87638,23.68967],[71.87629,23.68866],[71.87672,23.68871],[71.8766,23.68713],[71.87536,23.68596],[71.87536,23.68656],[71.875,23.68686],[71.87314,23.68713],[71.87311,23.68932],[71.87322,23.68933],[71.87347,23.69067],[71.8732,23.69218],[71.87293,23.69219],[71.87239,23.69457],[71.87091,23.69445],[71.87082,23.69577],[71.87132,23.69579],[71.87196,23.69636],[71.87284,23.69861],[71.87503,23.69848],[71.87519,23.70012],[71.87855,23.69926],[71.88007,23.69926],[71.88067,23.70112],[71.88213,23.70096],[71.88242,23.70205],[71.88425,23.70173],[71.88453,23.70109],[71.88636,23.70084],[71.88679,23.70207],[71.89227,23.70053],[71.89231,23.70037],[71.89319,23.70012],[71.89308,23.69976],[71.89583,23.69908],[71.89613,23.70039],[71.89683,23.70038],[71.89816,23.70113],[71.89794,23.70184],[71.89986,23.70217],[71.90059,23.702],[71.90176,23.70219],[71.90171,23.70249],[71.90056,23.70231],[71.89968,23.70241],[71.89797,23.70427],[71.89443,23.70725],[71.8935,23.71023],[71.89379,23.71095],[71.89563,23.71063],[71.89674,23.71394],[71.89498,23.71451],[71.89609,23.71787],[71.89655,23.71836],[71.89824,23.71846]]]}},{"type":"Feature","bbox":[71.90431,23.6908,71.91558,23.69981],"properties":{"ward":2,"name":"Ganpati Mandir"},"geometry":{"type":"Polygon","coordinates":[[[71.91405,23.69914],[71.91403,23.69791],[71.91429,23.69795],[71.91467,23.69619],[71.91503,23.69595],[71.91535,23.69544],[71.91558,23.69539],[71.91556,23.69523],[71.91465,23.69501],[71.91478,23.69462],[71.91458,23.6942],[71.91284,23.69417],[71.91231,23.69431],[71.91243,23.6939],[71.91294,23.6937],[71.91287,23.69304],[71.91072,23.69293],[71.91007,23.6923],[71.90959,23.69226],[71.90941,23.69202],[71.90712,23.69233],[71.90705,23.6921],[71.90616,23.692],[71.90586,23.69183],[71.90602,23.69099],[71.90431,23.6908],[71.90475,23.69132],[71.90559,23.69166],[71.90554,23.69229],[71.90589,23.69245],[71.90589,23.69267],[71.90555,23.69286],[71.90551,23.69346],[71.90573,23.69375],[71.90674,23.69417],[71.90653,23.6952],[71.9066,23.69583],[71.9084,23.69734],[71.91147,23.69959],[71.91261,23.69981],[71.91405,23.69914]]]}},{"type":"Feature","bbox":[71.87543,23.68911,71.90674,23.69859],"properties":{"ward":3,"name":"Gam Darvaja"},"geometry":{"type":"Polygon","coordinates":[[[71.87973,23.69859],[71.88222,23.69846],[71.88634,23.69774],[71.8926,23.69739],[71.89293,23.69712],[71.89596,23.69671],[71.89715,23.69638],[71.89843,23.69667],[71.89841,23.69646],[71.89958,23.69639],[71.89956,23.69667],[71.90171,23.69676],[71.90177,23.69487],[71.90653,23.6952],[71.90674,23.69417],[71.90573,23.69375],[71.90551,23.69346],[71.90555,23.69286],[71.90589,23.69267],[71.90589,23.69245],[71.90554,23.69229],[71.90559,23.69166],[71.90481,23.69129],[71.90421,23.69199],[71.90395,23.69261],[71.90272,23.69235],[71.90226,23.69351],[71.89962,23.69133],[71.89727,23.69025],[71.89653,23.68942],[71.89518,23.68911],[71.89506,23.68928],[71.89496,23.69108],[71.89449,23.69214],[71.8944,23.69307],[71.89474,23.69314],[71.89478,23.69449],[71.87985,23.69195],[71.87543,23.69205],[71.87678,23.69257],[71.87655,23.69321],[71.87712,23.69351],[71.87672,23.69464],[71.87737,23.69536],[71.87803,23.69515],[71.87837,23.69779],[71.87811,23.69786],[71.87865,23.69826],[71.87866,23.69816],[71.87973,23.69859]]]}},{"type":"Feature","bbox":[71.89653,23.67924,71.91748,23.69192],"properties":{"ward":4,"name":"Amratpura"},"geometry":{"type":"Polygon","coordinates":[[[71.90109,23.68953],[71.90171,23.68979],[71.90202,23.68922],[71.90246,23.68887],[71.90081,23.68774],[71.89989,23.68684],[71.90118,23.68725],[71.90292,23.68738],[71.90354,23.6872],[71.9037,23.68489],[71.90379,23.68445],[71.90401,23.68421],[71.90554,23.68433],[71.90538,23.68655],[71.90586,23.68717],[71.90567,23.68833],[71.90721,23.68825],[71.90725,23.6885],[71.91263,23.68838],[71.91301,23.68836],[71.91303,23.68815],[71.91677,23.68799],[71.91695,23.68573],[71.91748,23.68552],[71.91642,23.6848],[71.9162,23.68503],[71.91391,23.68439],[71.91242,23.68439],[71.91249,23.68303],[71.91195,23.68305],[71.9121,23.68172],[71.9115,23.68176],[71.91157,23.68094],[71.91015,23.68099],[71.91032,23.68065],[71.91012,23.68047],[71.91012,23.67933],[71.90893,23.67924],[71.90895,23.6797],[71.90728,23.67975],[71.90637,23.67961],[71.90623,23.68182],[71.90444,23.68172],[71.89995,23.6821],[71.9,23.68328],[71.89915,23.68297],[71.8985,23.68456],[71.8982,23.68494],[71.8986,23.68551],[71.89821,23.6861],[71.89807,23.68707],[71.89757,23.68686],[71.89746,23.68699],[71.89653,23.68942],[71.89727,23.69025],[71.89962,23.69133],[71.90034,23.69192],[71.90109,23.68953]]]}},{"type":"Feature","bbox":[71.89989,23.68421,71.9063,23.69351],"properties":{"ward":5,"name":"Tran Darvaja"},"geometry":{"type":"Polygon","coordinates":[[[71.90475,23.69132],[71.90431,23.6908],[71.90602,23.69099],[71.9063,23.68912],[71.90567,23.68908],[71.90572,23.68748],[71.90586,23.68717],[71.90538,23.68655],[71.90554,23.68433],[71.90401,23.68421],[71.90379,23.68445],[71.9037,23.68489],[71.90354,23.6872],[71.90292,23.68738],[71.90118,23.68725],[71.89989,23.68684],[71.90081,23.68774],[71.90246,23.68887],[71.90202,23.68922],[71.90171,23.68979],[71.9011,23.68951],[71.90034,23.69192],[71.90226,23.69351],[71.90272,23.69235],[71.90395,23.69261],[71.90421,23.69199],[71.90475,23.69132]]]}},{"type":"Feature","bbox":[71.90567,23.68799,71.91693,23.69431],"properties":{"ward":6,"name":"Somnath Nagar"},"geometry":{"type":"Polygon","coordinates":[[[71.91231,23.69431],[71.91284,23.69417],[71.91458,23.6942],[71.91456,23.69371],[71.91484,23.69334],[71.91563,23.69331],[71.9159,23.69258],[71.91693,23.69262],[71.91675,23.69223],[71.91685,23.69203],[71.91654,23.69179],[71.91636,23.69183],[71.91595,23.6906],[71.91657,23.69035],[71.91677,23.68799],[71.91303,23.68815],[71.91301,23.68836],[71.91263,23.68838],[71.90725,23.6885],[71.90721,23.68825],[71.90567,23.68833],[71.90567,23.68908],[71.9063,23.68912],[71.90586,23.69183],[71.90616,23.692],[71.90705,23.6921],[71.90712,23.69233],[71.90941,23.69202],[71.90959,23.69226],[71.91007,23.6923],[71.91072,23.69293],[71.91287,23.69304],[71.91294,23.6937],[71.91243,23.6939],[71.91231,23.69431]]]}}]}