{"type":"FeatureCollection","features":[{"type":"Feature","bbox":[72.39977,24.17415,72.43942,24.22018],"properties":{"ward":1},"geometry":{"type":"Polygon","coordinates":[[[72.39977,24.19751],[72.40034,24.19785],[72.40022,24.19852],[72.40117,24.20021],[72.40081,24.20157],[72.40078,24.2028],[72.40155,24.20333],[72.40105,24.2046],[72.40175,24.20603],[72.40226,24.20595],[72.40363,24.20672],[72.40435,24.20651],[72.40506,24.20562],[72.4055,24.20535],[72.40953,24.20459],[72.41147,24.20532],[72.4119,24.20578],[72.41192,24.20623],[72.41219,24.20677],[72.41209,24.20732],[72.41167,24.20802],[72.4119,24.20846],[72.41164,24.20962],[72.41134,24.20965],[72.41038,24.20927],[72.41018,24.20955],[72.40835,24.20932],[72.40787,24.20992],[72.41025,24.21104],[72.41164,24.2119],[72.41363,24.21223],[72.41374,24.21171],[72.41518,24.21039],[72.41518,24.20861],[72.41606,24.20901],[72.41653,24.20953],[72.41705,24.20897],[72.41699,24.20865],[72.41731,24.20848],[72.41908,24.20903],[72.41917,24.20992],[72.41992,24.21011],[72.4208,24.21075],[72.4211,24.2106],[72.42173,24.21071],[72.42344,24.21133],[72.42376,24.2109],[72.42421,24.21081],[72.42516,24.21125],[72.42572,24.21279],[72.42728,24.21252],[72.42891,24.21312],[72.42979,24.21408],[72.42802,24.21772],[72.43069,24.2195],[72.43067,24.22017],[72.43346,24.22018],[72.43386,24.21848],[72.43504,24.21877],[72.43518,24.21814],[72.43635,24.21835],[72.43802,24.21951],[72.43823,24.21928],[72.43793,24.21731],[72.43798,24.21615],[72.43897,24.21617],[72.43874,24.21479],[72.43898,24.21367],[72.43942,24.21321],[72.43923,24.21246],[72.43649,24.21151],[72.43628,24.21051],[72.43659,24.20932],[72.43423,24.20823],[72.43312,24.20831],[72.43307,24.20813],[72.43441,24.20283],[72.43573,24.19922],[72.43661,24.19811],[72.43876,24.19462],[72.43433,24.18969],[72.43356,24.18778],[72.43288,24.18489],[72.43238,24.18185],[72.43178,24.18008],[72.43036,24.17415],[72.42948,24.17433],[72.42957,24.17471],[72.42786,24.1747],[72.42788,24.17522],[72.42881,24.17638],[72.42913,24.17762],[72.42677,24.17795],[72.41871,24.18175],[72.41772,24.18174],[72.41776,24.18194],[72.41714,24.18223],[72.41559,24.18361],[72.41539,24.18359],[72.41533,24.18389],[72.4142,24.1851],[72.41302,24.18681],[72.41122,24.18834],[72.41102,24.1888],[72.40773,24.19136],[72.40229,24.19487],[72.39977,24.19751]]]}},{"type":"Feature","bbox":[72.43036,24.17338,72.44457,24.19462],"properties":{"ward":2},"geometry":{"type":"Polygon","coordinates":[[[72.43876,24.19462],[72.43944,24.19387],[72.43909,24.19388],[72.43893,24.19185],[72.43936,24.19075],[72.43908,24.19064],[72.43913,24.18904],[72.44029,24.18809],[72.44397,24.18676],[72.44457,24.18278],[72.44264,24.18297],[72.44011,24.18285],[72.43914,24.18517],[72.43896,24.18125],[72.44022,24.18049],[72.43936,24.17839],[72.43984,24.17802],[72.43755,24.17572],[72.43774,24.17338],[72.43569,24.17383],[72.43426,24.17448],[72.43427,24.17387],[72.43105,24.17443],[72.43086,24.17402],[72.43036,24.17415],[72.43178,24.18008],[72.43238,24.18185],[72.43288,24.18489],[72.43356,24.18778],[72.43433,24.18969],[72.43876,24.19462]]]}},{"type":"Feature","bbox":[72.43755,24.17336,72.45153,24.19388],"properties":{"ward":3},"geometry":{"type":"Polygon","coordinates":[[[72.43936,24.17839],[72.44022,24.18049],[72.43896,24.18125],[72.43914,24.18517],[72.44011,24.18285],[72.44264,24.18297],[72.44457,24.18278],[72.44397,24.18676],[72.44029,24.18809],[72.43913,24.18904],[72.43908,24.19064],[72.43936,24.19075],[72.43893,24.19185],[72.43909,24.19388],[72.44341,24.19362],[72.44475,24.19321],[72.44608,24.19218],[72.44645,24.19206],[72.44721,24.19113],[72.44769,24.19023],[72.4485,24.18989],[72.44825,24.18887],[72.44842,24.18799],[72.44899,24.1879],[72.44922,24.1881],[72.45153,24.18771],[72.45098,24.18554],[72.45023,24.18411],[72.44992,24.18388],[72.44884,24.18232],[72.44873,24.18088],[72.44796,24.18003],[72.44686,24.17832],[72.44598,24.17775],[72.44632,24.17611],[72.44338,24.17594],[72.44339,24.17569],[72.44241,24.17519],[72.44223,24.17488],[72.44152,24.17442],[72.4408,24.17461],[72.43952,24.17457],[72.43804,24.17336],[72.43774,24.17338],[72.43755,24.17572],[72.43984,24.17802],[72.43936,24.17839]]]}},{"type":"Feature","bbox":[72.4419,24.16844,72.47244,24.18456],"properties":{"ward":4},"geometry":{"type":"Polygon","coordinates":[[[72.45049,24.18456],[72.45172,24.18395],[72.45296,24.18406],[72.4531,24.1843],[72.45385,24.18422],[72.45638,24.18309],[72.45686,24.182],[72.45671,24.1815],[72.45746,24.1807],[72.46195,24.18164],[72.46225,24.18212],[72.46394,24.18196],[72.46572,24.18215],[72.46641,24.18203],[72.46605,24.18105],[72.46631,24.17986],[72.46602,24.17967],[72.4669,24.17777],[72.46719,24.17679],[72.46921,24.17677],[72.47062,24.17656],[72.47222,24.17605],[72.47244,24.17482],[72.47211,24.17431],[72.47194,24.17342],[72.47034,24.17312],[72.4688,24.17333],[72.46821,24.17324],[72.4669,24.17374],[72.46621,24.17367],[72.46441,24.17435],[72.46302,24.17328],[72.46183,24.17643],[72.45951,24.17542],[72.4598,24.17449],[72.46114,24.17452],[72.46112,24.174],[72.46032,24.17249],[72.45865,24.17258],[72.45821,24.17236],[72.4574,24.1724],[72.45666,24.17434],[72.4556,24.17412],[72.45536,24.17386],[72.45286,24.17384],[72.45243,24.17314],[72.45239,24.17245],[72.45265,24.17221],[72.45589,24.17222],[72.45589,24.17168],[72.45605,24.17144],[72.45567,24.16999],[72.455,24.16907],[72.45501,24.16847],[72.45512,24.16844],[72.44654,24.17029],[72.44441,24.17113],[72.44383,24.17098],[72.44282,24.17018],[72.4419,24.17031],[72.44212,24.17139],[72.44262,24.17215],[72.443,24.17238],[72.44308,24.1732],[72.44346,24.17374],[72.44338,24.17594],[72.44632,24.17611],[72.44598,24.17775],[72.44686,24.17832],[72.44796,24.18003],[72.44873,24.18088],[72.44884,24.18232],[72.45049,24.18456]]]}},{"type":"Feature","bbox":[72.43752,24.16792,72.44346,24.17569],"properties":{"ward":5},"geometry":{"type":"Polygon","coordinates":[[[72.43774,24.17338],[72.43804,24.17336],[72.43952,24.17457],[72.4408,24.17461],[72.44152,24.17442],[72.44223,24.17488],[72.44241,24.17519],[72.44339,24.17569],[72.44346,24.17374],[72.44308,24.1732],[72.443,24.17238],[72.44262,24.17215],[72.44212,24.17139],[72.4419,24.17031],[72.44159,24.17018],[72.44226,24.16792],[72.43823,24.16855],[72.43799,24.16915],[72.43786,24.17023],[72.43798,24.17096],[72.43835,24.17163],[72.43816,24.17193],[72.43805,24.17276],[72.43752,24.17299],[72.43774,24.17338]]]}},{"type":"Feature","bbox":[72.4267,24.15679,72.43835,24.17448],"properties":{"ward":6},"geometry":{"type":"Polygon","coordinates":[[[72.4267,24.15679],[72.42766,24.16229],[72.42812,24.16352],[72.42825,24.16552],[72.42874,24.16789],[72.42887,24.1679],[72.42956,24.17057],[72.43036,24.17415],[72.43086,24.17402],[72.43105,24.17443],[72.43427,24.17387],[72.43426,24.17448],[72.43569,24.17383],[72.43774,24.17338],[72.43752,24.17299],[72.43805,24.17276],[72.43816,24.17193],[72.43835,24.17163],[72.43798,24.17096],[72.43786,24.17023],[72.43799,24.16915],[72.43823,24.16855],[72.4369,24.16748],[72.43488,24.16502],[72.43432,24.16407],[72.43418,24.16408],[72.43365,24.16283],[72.43363,24.16236],[72.43336,24.16194],[72.43264,24.16217],[72.43111,24.15978],[72.42879,24.15838],[72.42911,24.15785],[72.4289,24.15718],[72.42744,24.15734],[72.4267,24.15679]]]}},{"type":"Feature","bbox":[72.41713,24.17096,72.43036,24.18109],"properties":{"ward":7},"geometry":{"type":"Polygon","coordinates":[[[72.42008,24.18109],[72.42677,24.17795],[72.42913,24.17762],[72.42881,24.17638],[72.42788,24.17522],[72.42786,24.1747],[72.42957,24.17471],[72.42948,24.17433],[72.43036,24.17415],[72.42965,24.17096],[72.4264,24.17145],[72.42369,24.17207],[72.41876,24.17392],[72.41713,24.17436],[72.42008,24.18109]]]}},{"type":"Feature","bbox":[72.39256,24.14426,72.42779,24.19801],"properties":{"ward":8},"geometry":{"type":"Polygon","coordinates":[[[72.42263,24.16484],[72.4232,24.16205],[72.42347,24.16207],[72.42436,24.16267],[72.42479,24.16219],[72.42568,24.16261],[72.42595,24.16326],[72.4267,24.16321],[72.42694,24.16262],[72.42779,24.16264],[72.42561,24.15033],[72.42508,24.14631],[72.42438,24.14426],[72.4228,24.14476],[72.42093,24.14484],[72.41829,24.14457],[72.41822,24.14469],[72.4188,24.14556],[72.41998,24.14675],[72.4192,24.14733],[72.41748,24.14741],[72.41753,24.14893],[72.41699,24.14888],[72.41625,24.1492],[72.41576,24.15001],[72.41525,24.14982],[72.41426,24.15045],[72.41374,24.15099],[72.41332,24.15083],[72.41177,24.15131],[72.41068,24.15093],[72.40936,24.15088],[72.40938,24.15144],[72.40881,24.15139],[72.40832,24.15159],[72.40501,24.1509],[72.40491,24.15234],[72.40438,24.15281],[72.40404,24.15378],[72.40112,24.15345],[72.39988,24.15299],[72.39934,24.1534],[72.39906,24.15404],[72.39851,24.15424],[72.39819,24.15488],[72.39744,24.15782],[72.3966,24.15956],[72.39764,24.16],[72.39832,24.16117],[72.39997,24.1625],[72.3992,24.16297],[72.3967,24.16253],[72.39661,24.16312],[72.39715,24.16327],[72.3978,24.16419],[72.39864,24.16676],[72.39916,24.1672],[72.39933,24.16763],[72.39952,24.16905],[72.40086,24.16851],[72.40236,24.16991],[72.40368,24.17152],[72.40367,24.17201],[72.40337,24.17226],[72.40328,24.17294],[72.40334,24.17346],[72.40421,24.17525],[72.40373,24.17658],[72.40427,24.17676],[72.40391,24.17774],[72.40235,24.17746],[72.39936,24.17635],[72.39889,24.17717],[72.39846,24.17711],[72.39828,24.17729],[72.39724,24.17697],[72.39667,24.17738],[72.39686,24.17813],[72.39537,24.17859],[72.39479,24.17843],[72.39385,24.17927],[72.39371,24.17919],[72.39344,24.18123],[72.39291,24.18103],[72.39256,24.183],[72.39307,24.18302],[72.39454,24.18524],[72.39434,24.18566],[72.39481,24.1872],[72.3944,24.18756],[72.3934,24.18934],[72.39331,24.19127],[72.39368,24.19188],[72.39356,24.19306],[72.39492,24.19365],[72.39554,24.19438],[72.39696,24.19448],[72.3973,24.19601],[72.39752,24.19644],[72.39813,24.19637],[72.39843,24.19778],[72.39898,24.19801],[72.3994,24.19744],[72.39977,24.19751],[72.40229,24.19487],[72.40773,24.19136],[72.41102,24.1888],[72.41122,24.18834],[72.41302,24.18681],[72.4142,24.1851],[72.41533,24.18389],[72.41539,24.18359],[72.41559,24.18361],[72.41714,24.18223],[72.41776,24.18194],[72.41772,24.18174],[72.41871,24.18175],[72.42008,24.18109],[72.41713,24.17436],[72.41862,24.17396],[72.41813,24.17278],[72.41861,24.17132],[72.41732,24.17093],[72.41591,24.17073],[72.41311,24.16402],[72.41258,24.16094],[72.41492,24.16119],[72.41559,24.16158],[72.41722,24.16206],[72.42004,24.16439],[72.4209,24.16491],[72.42248,24.16541],[72.4228,24.16492],[72.42263,24.16484]]]}},{"type":"Feature","bbox":[72.41258,24.16094,72.42965,24.17396],"properties":{"ward":9},"geometry":{"type":"Polygon","coordinates":[[[72.42612,24.16384],[72.42564,24.16507],[72.42621,24.16604],[72.4262,24.16694],[72.42432,24.16659],[72.42332,24.16659],[72.42302,24.16625],[72.42345,24.16523],[72.4228,24.16492],[72.42248,24.16541],[72.4209,24.16491],[72.42004,24.16439],[72.41722,24.16206],[72.41559,24.16158],[72.41492,24.16119],[72.41258,24.16094],[72.41311,24.16402],[72.41591,24.17073],[72.41732,24.17093],[72.41861,24.17132],[72.41813,24.17278],[72.41862,24.17396],[72.42369,24.17207],[72.4264,24.17145],[72.42965,24.17096],[72.42887,24.1679],[72.42874,24.16789],[72.42825,24.16552],[72.42812,24.16352],[72.42779,24.16264],[72.42694,24.16262],[72.4267,24.16321],[72.42612,24.16384]]]}},{"type":"Feature","bbox":[72.42438,24.13834,72.44781,24.16855],"properties":{"ward":10},"geometry":{"type":"Polygon","coordinates":[[[72.42438,24.14426],[72.42508,24.14631],[72.4267,24.15679],[72.42744,24.15734],[72.4289,24.15718],[72.42911,24.15785],[72.42879,24.15838],[72.43111,24.15978],[72.43264,24.16217],[72.43336,24.16194],[72.43363,24.16236],[72.43365,24.16283],[72.43418,24.16408],[72.43432,24.16407],[72.43488,24.16502],[72.4369,24.16748],[72.43823,24.16855],[72.44226,24.16792],[72.44235,24.16759],[72.44302,24.16749],[72.44386,24.16775],[72.44424,24.16642],[72.44509,24.16617],[72.44781,24.16432],[72.44558,24.16321],[72.44587,24.16072],[72.4469,24.15878],[72.44729,24.15575],[72.44745,24.15578],[72.4477,24.15256],[72.4441,24.15204],[72.44272,24.15209],[72.44113,24.15183],[72.44094,24.15238],[72.44019,24.15239],[72.44009,24.15133],[72.43947,24.15091],[72.43943,24.14978],[72.43963,24.14953],[72.44144,24.14979],[72.44131,24.14762],[72.43891,24.14702],[72.43875,24.14552],[72.4389,24.14497],[72.43934,24.14435],[72.43742,24.14368],[72.43674,24.14181],[72.43557,24.14139],[72.43496,24.14089],[72.43416,24.13974],[72.43405,24.1386],[72.4322,24.13834],[72.43226,24.1386],[72.43145,24.14087],[72.43055,24.14062],[72.4297,24.14086],[72.42834,24.14249],[72.42621,24.14329],[72.42482,24.14328],[72.42438,24.14426]]]}},{"type":"Feature","bbox":[72.44159,24.15575,72.46403,24.17113],"properties":{"ward":11},"geometry":{"type":"Polygon","coordinates":[[[72.4419,24.17031],[72.44282,24.17018],[72.44383,24.17098],[72.44441,24.17113],[72.44654,24.17029],[72.45605,24.16822],[72.457,24.16823],[72.45743,24.16561],[72.45689,24.16507],[72.45889,24.16364],[72.46036,24.16444],[72.46163,24.16398],[72.46372,24.16425],[72.46403,24.16402],[72.46361,24.16069],[72.46134,24.16019],[72.46009,24.16109],[72.46,24.16215],[72.45923,24.16234],[72.45866,24.16285],[72.45716,24.16207],[72.45512,24.1614],[72.4541,24.1604],[72.45452,24.15988],[72.45673,24.15914],[72.45682,24.15579],[72.45384,24.15576],[72.45262,24.15656],[72.44989,24.15793],[72.44936,24.15732],[72.44909,24.15656],[72.44729,24.15575],[72.4469,24.15878],[72.44587,24.16072],[72.44558,24.16321],[72.44781,24.16432],[72.44509,24.16617],[72.44424,24.16642],[72.44386,24.16775],[72.44302,24.16749],[72.44235,24.16759],[72.44159,24.17018],[72.4419,24.17031]]]}}]}