{"type":"FeatureCollection","features":[{"type":"Feature","bbox":[71.59134,22.72132,71.64054,22.78615],"properties":{"ward":1},"geometry":{"type":"Polygon","coordinates":[[[71.6255,22.7768],[71.63228,22.76655],[71.63346,22.76753],[71.6351,22.76662],[71.63564,22.76447],[71.63627,22.76295],[71.63666,22.7604],[71.63699,22.75941],[71.63753,22.75809],[71.63832,22.75815],[71.63882,22.75471],[71.6394,22.75315],[71.64054,22.7519],[71.63701,22.75071],[71.62932,22.74953],[71.62734,22.74903],[71.62429,22.74773],[71.62214,22.74752],[71.62259,22.74407],[71.62011,22.74396],[71.62029,22.74126],[71.61954,22.74125],[71.61965,22.73974],[71.61835,22.7397],[71.61848,22.73578],[71.61644,22.73558],[71.61322,22.73615],[71.61298,22.73528],[71.61399,22.73512],[71.614,22.73276],[71.61438,22.73268],[71.61438,22.73308],[71.61483,22.73305],[71.61483,22.73254],[71.61642,22.73217],[71.6162,22.72625],[71.61633,22.72542],[71.61705,22.72543],[71.61698,22.72489],[71.61638,22.72494],[71.61582,22.72132],[71.59984,22.72566],[71.59924,22.72859],[71.59496,22.73704],[71.59556,22.73719],[71.59608,22.7443],[71.59666,22.74658],[71.59698,22.75103],[71.59696,22.75451],[71.59715,22.7547],[71.5969,22.75782],[71.59611,22.76053],[71.59562,22.76166],[71.59175,22.76846],[71.59134,22.77243],[71.59342,22.77821],[71.59535,22.77997],[71.59738,22.78144],[71.6007,22.7833],[71.60292,22.78421],[71.60414,22.78493],[71.60423,22.78542],[71.60557,22.78557],[71.60695,22.78615],[71.60728,22.78472],[71.616,22.78613],[71.61794,22.78529],[71.61924,22.78496],[71.62124,22.7845],[71.62201,22.78464],[71.6255,22.7768]]]}},{"type":"Feature","bbox":[71.613,22.72573,71.62855,22.74126],"properties":{"ward":2},"geometry":{"type":"Polygon","coordinates":[[[71.62539,22.73656],[71.62855,22.73109],[71.62851,22.72614],[71.62553,22.72612],[71.62555,22.72774],[71.62122,22.72767],[71.62125,22.72692],[71.62046,22.72692],[71.62049,22.72573],[71.61995,22.72575],[71.61996,22.72691],[71.61704,22.72691],[71.61703,22.72761],[71.61621,22.72763],[71.61643,22.73219],[71.61484,22.73255],[71.61484,22.73306],[71.61436,22.73309],[71.61437,22.73269],[71.61401,22.73276],[71.614,22.73513],[71.613,22.73525],[71.61324,22.73613],[71.61646,22.73555],[71.61849,22.73576],[71.61836,22.73969],[71.61966,22.73974],[71.61955,22.74124],[71.6203,22.74126],[71.6204,22.73702],[71.62244,22.73744],[71.62258,22.73722],[71.62253,22.73681],[71.62488,22.73657],[71.62494,22.73634],[71.62539,22.73656]]]}},{"type":"Feature","bbox":[71.62012,22.73384,71.64447,22.75189],"properties":{"ward":3},"geometry":{"type":"Polygon","coordinates":[[[71.64055,22.75189],[71.64172,22.75066],[71.64447,22.74851],[71.64346,22.74752],[71.64261,22.74623],[71.63987,22.74074],[71.63782,22.73982],[71.63717,22.74024],[71.63561,22.73991],[71.63493,22.73986],[71.63479,22.73999],[71.63359,22.73965],[71.63378,22.73908],[71.63342,22.73904],[71.63088,22.7409],[71.63047,22.74076],[71.63166,22.73751],[71.62895,22.73697],[71.62935,22.73422],[71.62701,22.73384],[71.62539,22.73657],[71.62495,22.73636],[71.62489,22.73658],[71.62253,22.73682],[71.62259,22.73722],[71.62244,22.73745],[71.62041,22.73703],[71.62012,22.74394],[71.6226,22.74405],[71.62217,22.74749],[71.6243,22.74771],[71.62722,22.74896],[71.62897,22.74943],[71.63382,22.7503],[71.63556,22.7504],[71.637,22.75071],[71.64055,22.75189]]]}},{"type":"Feature","bbox":[71.62701,22.72501,71.64002,22.74089],"properties":{"ward":4},"geometry":{"type":"Polygon","coordinates":[[[71.64002,22.7405],[71.63743,22.73746],[71.63698,22.73584],[71.63641,22.72982],[71.6365,22.72511],[71.62851,22.72501],[71.62856,22.73108],[71.62701,22.73383],[71.62936,22.73422],[71.62896,22.73697],[71.63167,22.7375],[71.63048,22.74075],[71.63088,22.74089],[71.63342,22.73904],[71.63379,22.73907],[71.63361,22.73964],[71.63478,22.73998],[71.63492,22.73985],[71.63561,22.73989],[71.63688,22.74019],[71.63698,22.74007],[71.63717,22.74023],[71.63781,22.7398],[71.63985,22.74069],[71.64002,22.7405]]]}},{"type":"Feature","bbox":[71.63642,22.72261,71.65298,22.7485],"properties":{"ward":5},"geometry":{"type":"Polygon","coordinates":[[[71.64447,22.7485],[71.6461,22.74748],[71.64678,22.74529],[71.64741,22.7447],[71.64772,22.74355],[71.6499,22.74389],[71.64971,22.7453],[71.65083,22.74553],[71.65079,22.74513],[71.65094,22.745],[71.65109,22.74388],[71.65134,22.74389],[71.65141,22.74365],[71.65191,22.7437],[71.65197,22.74276],[71.65232,22.74285],[71.65298,22.74159],[71.65273,22.7407],[71.65236,22.74026],[71.65064,22.74032],[71.65065,22.73523],[71.64924,22.73515],[71.64938,22.73313],[71.64852,22.73284],[71.64877,22.73218],[71.64735,22.73118],[71.64716,22.7317],[71.64608,22.73143],[71.6451,22.73051],[71.64446,22.73085],[71.64331,22.72978],[71.64277,22.72777],[71.64347,22.72762],[71.64301,22.72663],[71.64486,22.72584],[71.6455,22.72572],[71.64535,22.72517],[71.64585,22.72508],[71.64518,22.72261],[71.64422,22.72291],[71.64207,22.72306],[71.64006,22.72401],[71.63697,22.7251],[71.63651,22.72511],[71.63645,22.7267],[71.63642,22.72982],[71.63698,22.73584],[71.63744,22.73745],[71.63984,22.74017],[71.64002,22.7405],[71.63986,22.74069],[71.6427,22.74636],[71.64346,22.74751],[71.64447,22.7485]]]}},{"type":"Feature","bbox":[71.64511,22.71486,71.6923,22.74032],"properties":{"ward":6},"geometry":{"type":"Polygon","coordinates":[[[71.65064,22.74032],[71.65236,22.74026],[71.65348,22.73909],[71.65327,22.73683],[71.65551,22.73699],[71.65727,22.73385],[71.65887,22.7331],[71.65942,22.73483],[71.66081,22.73484],[71.66077,22.73545],[71.6629,22.73563],[71.66305,22.73504],[71.66504,22.73546],[71.66528,22.73401],[71.66871,22.73484],[71.67126,22.73496],[71.67099,22.73347],[71.67111,22.73216],[71.67131,22.73208],[71.67601,22.73281],[71.6762,22.7311],[71.68013,22.73061],[71.67999,22.7301],[71.68252,22.72972],[71.68299,22.73094],[71.68487,22.73092],[71.68444,22.72926],[71.68511,22.72776],[71.68517,22.72624],[71.68594,22.72349],[71.6857,22.72348],[71.68496,22.72132],[71.68762,22.72135],[71.69042,22.72097],[71.68971,22.72031],[71.69089,22.71728],[71.6923,22.71738],[71.6916,22.71486],[71.68642,22.71648],[71.68341,22.71706],[71.68222,22.71775],[71.6813,22.71805],[71.68016,22.71808],[71.68015,22.71822],[71.67898,22.71849],[71.67711,22.71836],[71.67688,22.71905],[71.67521,22.72049],[71.67173,22.72175],[71.66961,22.72106],[71.66881,22.72315],[71.66778,22.72432],[71.66618,22.7271],[71.66383,22.72726],[71.66255,22.72757],[71.66122,22.72391],[71.66131,22.72331],[71.66007,22.72309],[71.65907,22.72191],[71.64798,22.72914],[71.64511,22.73051],[71.64608,22.73143],[71.64716,22.7317],[71.64735,22.73118],[71.64877,22.73218],[71.64852,22.73284],[71.64938,22.73313],[71.64924,22.73515],[71.65065,22.73523],[71.65064,22.74032]]]}},{"type":"Feature","bbox":[71.64279,22.71398,71.67711,22.73083],"properties":{"ward":7},"geometry":{"type":"Polygon","coordinates":[[[71.64895,22.72095],[71.64522,22.72259],[71.64587,22.72509],[71.64536,22.72517],[71.64551,22.72573],[71.64486,22.72584],[71.64303,22.72663],[71.64349,22.72762],[71.64279,22.72779],[71.64332,22.72976],[71.64446,22.73083],[71.64803,22.72907],[71.65908,22.72187],[71.6601,22.72306],[71.66135,22.7233],[71.66126,22.72392],[71.66257,22.72753],[71.66382,22.72722],[71.66614,22.72707],[71.66778,22.72431],[71.66879,22.72314],[71.6696,22.72104],[71.67173,22.72172],[71.67444,22.72083],[71.67519,22.72046],[71.67687,22.71904],[71.67711,22.71805],[71.67275,22.71623],[71.66791,22.71463],[71.66522,22.71409],[71.66372,22.71398],[71.66019,22.7142],[71.65705,22.71469],[71.65438,22.71583],[71.65354,22.71637],[71.65395,22.71721],[71.65257,22.71748],[71.65263,22.7177],[71.65205,22.7179],[71.65159,22.71835],[71.65168,22.71869],[71.6514,22.71887],[71.65131,22.71877],[71.65038,22.71915],[71.64992,22.7191],[71.6495,22.71926],[71.64938,22.71977],[71.64967,22.72044],[71.6489,22.72081],[71.64895,22.72095]]]}},{"type":"Feature","bbox":[71.61584,22.71885,71.64894,22.72773],"properties":{"ward":8},"geometry":{"type":"Polygon","coordinates":[[[71.64464,22.7228],[71.64894,22.72094],[71.64821,22.71885],[71.64616,22.71907],[71.64386,22.72034],[71.64118,22.72103],[71.6384,22.72139],[71.63647,22.72139],[71.63629,22.72152],[71.62852,22.72205],[71.61865,22.72105],[71.61632,22.72121],[71.61584,22.72133],[71.61639,22.72493],[71.61698,22.72488],[71.61706,22.72543],[71.61633,22.72543],[71.61622,22.72762],[71.61703,22.7276],[71.61703,22.7269],[71.61995,22.72691],[71.61994,22.72574],[71.6205,22.72572],[71.62047,22.72691],[71.62125,22.72692],[71.62122,22.72766],[71.62554,22.72773],[71.62553,22.72612],[71.62851,22.72614],[71.62851,22.72501],[71.63697,22.72509],[71.64008,22.724],[71.64207,22.72305],[71.64464,22.7228]]]}},{"type":"Feature","bbox":[71.60472,22.69466,71.64459,22.72425],"properties":{"ward":9},"geometry":{"type":"Polygon","coordinates":[[[71.60472,22.72425],[71.61615,22.72119],[71.61867,22.72099],[71.62851,22.72202],[71.62842,22.71949],[71.6306,22.7178],[71.63415,22.71708],[71.63421,22.71433],[71.63619,22.71439],[71.63617,22.71424],[71.63781,22.71419],[71.63804,22.71218],[71.63842,22.71221],[71.63836,22.71307],[71.63898,22.71311],[71.63889,22.71365],[71.64036,22.71294],[71.64099,22.71075],[71.64296,22.71102],[71.64312,22.70924],[71.64459,22.70928],[71.64453,22.70718],[71.64279,22.70694],[71.64261,22.7082],[71.6424,22.7082],[71.6423,22.70896],[71.64191,22.70894],[71.64199,22.70795],[71.64131,22.7079],[71.64136,22.70696],[71.64088,22.70695],[71.64109,22.70503],[71.63737,22.70481],[71.63746,22.70367],[71.63618,22.70373],[71.63609,22.70171],[71.63783,22.7017],[71.63799,22.7015],[71.63802,22.70026],[71.63721,22.70006],[71.63722,22.69951],[71.63589,22.69926],[71.63252,22.69746],[71.63062,22.69684],[71.62988,22.69686],[71.62772,22.69538],[71.62471,22.69466],[71.62455,22.69548],[71.62258,22.69568],[71.62194,22.69716],[71.62058,22.69691],[71.62027,22.69792],[71.6182,22.6975],[71.61804,22.69832],[71.61901,22.69865],[71.61859,22.70014],[71.61779,22.7],[71.61737,22.70188],[71.61762,22.70204],[71.61676,22.70806],[71.6156,22.7086],[71.61519,22.70922],[71.61176,22.70989],[71.6118,22.7104],[71.61091,22.71053],[71.61078,22.71098],[71.61043,22.71099],[71.61075,22.7142],[71.61076,22.71664],[71.6102,22.7168],[71.61041,22.71919],[71.60744,22.71954],[71.60591,22.72012],[71.60485,22.72032],[71.60472,22.72425]]]}},{"type":"Feature","bbox":[71.62844,22.71152,71.64639,22.72203],"properties":{"ward":10},"geometry":{"type":"Polygon","coordinates":[[[71.64118,22.72102],[71.64249,22.72067],[71.64197,22.7183],[71.64249,22.71818],[71.64213,22.71658],[71.64312,22.71638],[71.64301,22.71596],[71.64351,22.71587],[71.64333,22.71505],[71.64639,22.7144],[71.64601,22.71328],[71.64515,22.71342],[71.64498,22.71253],[71.64624,22.71228],[71.64612,22.71152],[71.64006,22.71304],[71.63886,22.7137],[71.63897,22.71312],[71.63835,22.71308],[71.63841,22.71222],[71.63804,22.71218],[71.63782,22.7142],[71.63618,22.71424],[71.6362,22.7144],[71.63423,22.71434],[71.63416,22.71709],[71.63061,22.71782],[71.62844,22.7195],[71.62856,22.72203],[71.63629,22.7215],[71.63646,22.72138],[71.63839,22.72138],[71.64118,22.72102]]]}},{"type":"Feature","bbox":[71.64038,22.69071,71.67672,22.72067],"properties":{"ward":11},"geometry":{"type":"Polygon","coordinates":[[[71.66778,22.71173],[71.67318,22.71351],[71.67349,22.7109],[71.67395,22.70889],[71.67388,22.70598],[71.67672,22.70601],[71.67635,22.70287],[71.67396,22.70309],[71.67397,22.70071],[71.6735,22.70083],[71.67151,22.69993],[71.66997,22.69717],[71.66857,22.69383],[71.66761,22.69071],[71.66594,22.69106],[71.666,22.69126],[71.66527,22.69129],[71.66536,22.69173],[71.66517,22.69192],[71.66315,22.69258],[71.65962,22.69287],[71.65961,22.6942],[71.65871,22.69427],[71.65904,22.69648],[71.6583,22.69648],[71.65763,22.6967],[71.6572,22.6961],[71.65663,22.69587],[71.65673,22.69654],[71.65706,22.69678],[71.657,22.69742],[71.65672,22.69741],[71.65676,22.69921],[71.65636,22.69934],[71.65609,22.69985],[71.65667,22.70065],[71.6587,22.70138],[71.6582,22.70429],[71.65691,22.70362],[71.65566,22.70267],[71.65463,22.70226],[71.65232,22.70224],[71.64348,22.70064],[71.64331,22.70128],[71.64371,22.70149],[71.64371,22.70184],[71.64453,22.70253],[71.64379,22.70394],[71.64346,22.70523],[71.65194,22.70852],[71.65168,22.70926],[71.65203,22.70937],[71.65162,22.7108],[71.65133,22.71081],[71.65131,22.71134],[71.65114,22.71083],[71.65121,22.70953],[71.64558,22.70876],[71.64557,22.70915],[71.64313,22.70925],[71.64297,22.71103],[71.64102,22.71077],[71.64038,22.71292],[71.64613,22.7115],[71.64627,22.71229],[71.645,22.71255],[71.64517,22.7134],[71.64602,22.71325],[71.64643,22.71442],[71.64334,22.71506],[71.64352,22.71588],[71.64302,22.71597],[71.64313,22.71639],[71.64214,22.71659],[71.64251,22.71819],[71.64199,22.71831],[71.64251,22.72067],[71.64385,22.72032],[71.64616,22.71902],[71.64844,22.7188],[71.65035,22.71479],[71.65223,22.7139],[71.6604,22.71248],[71.66778,22.71173]]]}},{"type":"Feature","bbox":[71.67322,22.70599,71.68228,22.71663],"properties":{"ward":12},"geometry":{"type":"Polygon","coordinates":[[[71.67322,22.71335],[71.67336,22.7136],[71.67489,22.71457],[71.67532,22.71507],[71.67688,22.71591],[71.6774,22.71583],[71.67997,22.71663],[71.68174,22.71652],[71.68228,22.71615],[71.68197,22.71384],[71.68074,22.7139],[71.68073,22.71378],[71.68043,22.71378],[71.68043,22.7136],[71.67942,22.71357],[71.67971,22.70882],[71.68108,22.70844],[71.68027,22.70664],[71.67944,22.70646],[71.67678,22.70658],[71.67671,22.70601],[71.67388,22.70599],[71.67395,22.70889],[71.67349,22.71089],[71.67322,22.71335]]]}},{"type":"Feature","bbox":[71.66773,22.68795,71.69733,22.71615],"properties":{"ward":13},"geometry":{"type":"Polygon","coordinates":[[[71.67679,22.70657],[71.67944,22.70646],[71.68027,22.70664],[71.68085,22.70767],[71.68108,22.70845],[71.67971,22.70882],[71.67942,22.71356],[71.68043,22.7136],[71.68044,22.71378],[71.68073,22.71377],[71.68074,22.7139],[71.68197,22.71384],[71.68229,22.71615],[71.68883,22.71337],[71.68982,22.71227],[71.69448,22.70887],[71.69733,22.70717],[71.69717,22.70656],[71.69678,22.70658],[71.69682,22.70642],[71.69714,22.70636],[71.69714,22.70606],[71.69668,22.70589],[71.69623,22.70369],[71.69606,22.70104],[71.69639,22.70102],[71.69663,22.69964],[71.69702,22.69849],[71.69704,22.69785],[71.69683,22.69627],[71.69594,22.69567],[71.69635,22.69455],[71.69127,22.69347],[71.69152,22.69292],[71.68943,22.69261],[71.68902,22.69175],[71.68966,22.6906],[71.68783,22.68993],[71.68788,22.68978],[71.68708,22.6891],[71.68565,22.6887],[71.68514,22.68827],[71.68492,22.68828],[71.68462,22.68899],[71.68419,22.68893],[71.6837,22.68838],[71.68287,22.68795],[71.6824,22.6887],[71.68193,22.68856],[71.68162,22.68872],[71.68018,22.6884],[71.68002,22.68902],[71.67765,22.68913],[71.6776,22.68995],[71.67027,22.69021],[71.67031,22.69048],[71.66773,22.69113],[71.66858,22.69383],[71.67005,22.69734],[71.67151,22.69993],[71.6735,22.70083],[71.67397,22.70071],[71.67396,22.70309],[71.67636,22.70286],[71.67679,22.70657]]]}}]}