{"type":"FeatureCollection","features":[{"type":"Feature","bbox":[71.88196,22.15249,71.89147,22.1631],"properties":{"ward":1},"geometry":{"type":"MultiPolygon","coordinates":[[[[71.88844,22.15273],[71.88855,22.15282],[71.8886,22.15284],[71.88844,22.15273]]],[[[71.88844,22.15273],[71.88811,22.15249],[71.88734,22.15249],[71.88697,22.15311],[71.8853,22.15346],[71.88408,22.1544],[71.8835,22.15519],[71.88234,22.15609],[71.88196,22.15663],[71.88229,22.15763],[71.88253,22.15785],[71.88518,22.1567],[71.88613,22.15986],[71.88582,22.16217],[71.88584,22.16274],[71.88616,22.1631],[71.8873,22.16164],[71.88787,22.16123],[71.88791,22.16136],[71.88793,22.16108],[71.8883,22.16063],[71.89052,22.15823],[71.8906,22.15786],[71.89113,22.1575],[71.89147,22.15647],[71.89094,22.15646],[71.89085,22.15456],[71.88825,22.1526],[71.88844,22.15273]]],[[[71.8906,22.15795],[71.89063,22.15795],[71.89063,22.15795],[71.8906,22.15795]]],[[[71.89063,22.15793],[71.89063,22.15793],[71.89063,22.15792],[71.89063,22.15793]]],[[[71.89063,22.15793],[71.89063,22.15795],[71.89063,22.15795],[71.89063,22.15793]]],[[[71.8886,22.15284],[71.88864,22.15287],[71.88863,22.15285],[71.8886,22.15284]]],[[[71.88864,22.15287],[71.88866,22.1529],[71.88875,22.15294],[71.88864,22.15287]]],[[[71.88875,22.15294],[71.8889,22.15305],[71.88885,22.15298],[71.88875,22.15294]]]]}},{"type":"Feature","bbox":[71.88639,22.15556,71.89863,22.1643],"properties":{"ward":2},"geometry":{"type":"Polygon","coordinates":[[[71.89147,22.15735],[71.8908,22.15787],[71.89042,22.15859],[71.88873,22.16036],[71.88693,22.16202],[71.88639,22.1631],[71.88642,22.16341],[71.88711,22.16392],[71.89135,22.1643],[71.89458,22.16427],[71.8964,22.16372],[71.89697,22.16269],[71.8975,22.15934],[71.89863,22.15591],[71.89651,22.15556],[71.89566,22.15559],[71.89552,22.15688],[71.89496,22.15882],[71.89462,22.15897],[71.89368,22.15896],[71.89308,22.15864],[71.89172,22.15877],[71.89156,22.15845],[71.89176,22.15746],[71.89147,22.15735]],[[71.89129,22.15757],[71.8913,22.15754],[71.89144,22.1574],[71.89129,22.15757]]]}},{"type":"Feature","bbox":[71.89096,22.15264,71.89614,22.15895],"properties":{"ward":3},"geometry":{"type":"MultiPolygon","coordinates":[[[[71.89612,22.15271],[71.89612,22.15273],[71.89614,22.15274],[71.89612,22.15271]]],[[[71.89612,22.15273],[71.89482,22.15264],[71.89464,22.15275],[71.89453,22.15317],[71.89427,22.15319],[71.89392,22.15375],[71.89177,22.154],[71.8911,22.15463],[71.89096,22.15521],[71.89104,22.15637],[71.89122,22.15648],[71.89174,22.1563],[71.89134,22.15729],[71.89166,22.15758],[71.89148,22.15877],[71.89271,22.15873],[71.89434,22.15895],[71.89492,22.15886],[71.89577,22.15533],[71.89612,22.15273]]]]}},{"type":"Feature","bbox":[71.88756,22.15012,71.89366,22.15474],"properties":{"ward":4},"geometry":{"type":"Polygon","coordinates":[[[71.89122,22.15474],[71.89179,22.15407],[71.89349,22.15382],[71.89366,22.1527],[71.89362,22.15164],[71.8929,22.15144],[71.89236,22.15158],[71.89182,22.15145],[71.89202,22.15109],[71.89195,22.15023],[71.89182,22.15012],[71.89088,22.15013],[71.89042,22.1505],[71.89022,22.15044],[71.88975,22.15076],[71.88983,22.15119],[71.88956,22.15137],[71.88887,22.15144],[71.88888,22.15115],[71.88913,22.15091],[71.88845,22.15111],[71.88777,22.15186],[71.88756,22.15263],[71.8885,22.15275],[71.88865,22.15299],[71.89045,22.15408],[71.89122,22.15474]]]}},{"type":"Feature","bbox":[71.89039,22.14839,71.89537,22.15164],"properties":{"ward":5,"name":"Barwala"},"geometry":{"type":"MultiPolygon","coordinates":[[[[71.89039,22.15047],[71.89041,22.1505],[71.89044,22.15049],[71.89039,22.15047]]],[[[71.89039,22.15047],[71.89088,22.15013],[71.89193,22.15012],[71.892,22.15118],[71.89177,22.15153],[71.89373,22.15164],[71.8938,22.15086],[71.89416,22.15063],[71.89433,22.15022],[71.89537,22.14966],[71.89516,22.1485],[71.89329,22.14839],[71.89247,22.14852],[71.89157,22.14916],[71.89039,22.15047]]]]}},{"type":"Feature","bbox":[71.89351,22.14889,71.89936,22.15594],"properties":{"ward":6},"geometry":{"type":"Polygon","coordinates":[[[71.89936,22.15008],[71.89522,22.14889],[71.89538,22.14966],[71.89435,22.15016],[71.89408,22.15068],[71.8937,22.15093],[71.89351,22.15376],[71.89396,22.15368],[71.89456,22.15272],[71.89604,22.15274],[71.89564,22.15544],[71.89861,22.15594],[71.89936,22.15008]]]}}]}