{"type":"FeatureCollection","features":[{"type":"Feature","bbox":[70.06541,23.06415,70.07727,23.07486],"properties":{"ward":1},"geometry":{"type":"Polygon","coordinates":[[[70.06541,23.07223],[70.07337,23.07486],[70.07374,23.07171],[70.07258,23.07148],[70.0729,23.06787],[70.07651,23.06815],[70.07649,23.06828],[70.07721,23.06842],[70.07727,23.06765],[70.07714,23.06739],[70.07635,23.06742],[70.07519,23.06608],[70.07538,23.06483],[70.07157,23.06415],[70.06605,23.07095],[70.06541,23.07223]]]}},{"type":"Feature","bbox":[70.07337,23.07169,70.10707,23.08413],"properties":{"ward":2},"geometry":{"type":"Polygon","coordinates":[[[70.07372,23.07172],[70.07337,23.07495],[70.09518,23.08245],[70.09973,23.08329],[70.10559,23.08413],[70.10707,23.07539],[70.08169,23.07239],[70.07757,23.07217],[70.07536,23.07169],[70.07372,23.07172]]]}},{"type":"Feature","bbox":[70.10559,23.07541,70.12532,23.08667],"properties":{"ward":3},"geometry":{"type":"Polygon","coordinates":[[[70.10709,23.07541],[70.10559,23.08413],[70.1237,23.08667],[70.12354,23.08601],[70.12532,23.08563],[70.12524,23.08524],[70.12342,23.08561],[70.12227,23.08107],[70.12181,23.08086],[70.12078,23.07696],[70.10709,23.07541]]]}},{"type":"Feature","bbox":[70.12228,23.07783,70.13108,23.08669],"properties":{"ward":4},"geometry":{"type":"Polygon","coordinates":[[[70.12228,23.08103],[70.12371,23.08669],[70.13108,23.08571],[70.13066,23.08327],[70.12982,23.08346],[70.12917,23.08091],[70.13013,23.08073],[70.12981,23.07945],[70.12609,23.08011],[70.12542,23.07783],[70.12328,23.07846],[70.12333,23.07895],[70.1241,23.0788],[70.12442,23.07988],[70.12369,23.08009],[70.12376,23.08064],[70.12228,23.08103]]]}},{"type":"Feature","bbox":[70.12548,23.06481,70.13934,23.08576],"properties":{"ward":5},"geometry":{"type":"Polygon","coordinates":[[[70.13107,23.08576],[70.13934,23.08453],[70.13879,23.08094],[70.13811,23.07878],[70.13595,23.07579],[70.13546,23.07439],[70.13537,23.07353],[70.13205,23.07377],[70.13164,23.07187],[70.13127,23.06986],[70.13515,23.06969],[70.13532,23.0669],[70.13554,23.06621],[70.13554,23.06495],[70.13018,23.06481],[70.12548,23.06582],[70.12947,23.0776],[70.13013,23.08077],[70.12918,23.08092],[70.12983,23.08343],[70.13068,23.08324],[70.13107,23.08576]]]}},{"type":"Feature","bbox":[70.13882,23.03749,70.14838,23.08453],"properties":{"ward":6},"geometry":{"type":"Polygon","coordinates":[[[70.13935,23.08453],[70.14511,23.08371],[70.14568,23.0835],[70.14646,23.08316],[70.1475,23.0822],[70.14827,23.08079],[70.14838,23.0741],[70.14824,23.06736],[70.14758,23.05791],[70.14668,23.03778],[70.139,23.03749],[70.13904,23.03929],[70.14047,23.04225],[70.14187,23.04586],[70.14291,23.04932],[70.14359,23.05233],[70.14422,23.05638],[70.14484,23.06836],[70.1448,23.07068],[70.14417,23.07076],[70.14374,23.07491],[70.14418,23.07538],[70.14384,23.07747],[70.14236,23.07729],[70.13882,23.0811],[70.13935,23.08453]]]}},{"type":"Feature","bbox":[70.12991,23.05965,70.14483,23.0811],"properties":{"ward":7},"geometry":{"type":"Polygon","coordinates":[[[70.13882,23.0811],[70.14236,23.0773],[70.14384,23.07748],[70.14418,23.07538],[70.14374,23.07493],[70.14417,23.07075],[70.1448,23.07067],[70.14483,23.06847],[70.14446,23.05965],[70.14205,23.05989],[70.1312,23.06022],[70.12991,23.0649],[70.13552,23.06498],[70.13555,23.0662],[70.13522,23.06725],[70.13514,23.06969],[70.13128,23.06986],[70.13206,23.07375],[70.13532,23.07349],[70.1357,23.07526],[70.13637,23.07639],[70.13807,23.07866],[70.13882,23.0811]]]}},{"type":"Feature","bbox":[70.11927,23.07254,70.12979,23.08106],"properties":{"ward":8},"geometry":{"type":"Polygon","coordinates":[[[70.11927,23.07412],[70.11992,23.07682],[70.12082,23.07695],[70.12182,23.08088],[70.12227,23.08106],[70.12377,23.08064],[70.12369,23.08009],[70.12442,23.07988],[70.1241,23.07881],[70.12334,23.07894],[70.12328,23.07846],[70.12541,23.07784],[70.12611,23.08012],[70.12979,23.07942],[70.1295,23.07764],[70.12777,23.07254],[70.11927,23.07412]]]}},{"type":"Feature","bbox":[70.10713,23.06584,70.1278,23.07682],"properties":{"ward":9},"geometry":{"type":"Polygon","coordinates":[[[70.10713,23.07532],[70.11992,23.07682],[70.11926,23.07413],[70.1278,23.07253],[70.12548,23.06584],[70.10994,23.06921],[70.10808,23.06942],[70.10713,23.07532]]]}},{"type":"Feature","bbox":[70.07258,23.06172,70.1081,23.07539],"properties":{"ward":10},"geometry":{"type":"Polygon","coordinates":[[[70.0817,23.07239],[70.10707,23.07539],[70.1081,23.06942],[70.10542,23.06915],[70.10688,23.06201],[70.10302,23.06172],[70.10186,23.06861],[70.08153,23.06557],[70.07524,23.06484],[70.07519,23.06609],[70.07635,23.06741],[70.07714,23.06739],[70.07727,23.06765],[70.07721,23.06842],[70.07648,23.06828],[70.07651,23.06814],[70.07288,23.06787],[70.07258,23.07158],[70.0773,23.07214],[70.0817,23.07239]]]}},{"type":"Feature","bbox":[70.11323,23.05172,70.1321,23.06838],"properties":{"ward":11},"geometry":{"type":"Polygon","coordinates":[[[70.11323,23.06581],[70.11385,23.06838],[70.1299,23.06489],[70.13124,23.06022],[70.1321,23.05582],[70.12604,23.05397],[70.11782,23.05172],[70.11447,23.0569],[70.11323,23.06581]]]}},{"type":"Feature","bbox":[70.1178,23.04648,70.14444,23.06022],"properties":{"ward":12},"geometry":{"type":"Polygon","coordinates":[[[70.14188,23.0599],[70.14444,23.05965],[70.14411,23.05545],[70.14372,23.05307],[70.13248,23.05349],[70.13222,23.04912],[70.12553,23.05015],[70.1256,23.04961],[70.12593,23.04924],[70.12523,23.04648],[70.12174,23.04734],[70.12012,23.04837],[70.11868,23.04974],[70.11822,23.05049],[70.1178,23.0517],[70.13209,23.05582],[70.1312,23.06022],[70.14188,23.0599]]]}},{"type":"Feature","bbox":[70.12173,23.03762,70.14372,23.05349],"properties":{"ward":13},"geometry":{"type":"Polygon","coordinates":[[[70.12553,23.05016],[70.13222,23.04912],[70.13248,23.05349],[70.14372,23.05307],[70.14193,23.04606],[70.13956,23.04028],[70.13815,23.03762],[70.12492,23.0436],[70.12265,23.04485],[70.12173,23.04734],[70.12523,23.04648],[70.12592,23.04925],[70.1256,23.04961],[70.12553,23.05016]]]}}]}