{"type":"FeatureCollection","features":[{"type":"Feature","bbox":[70.63149,23.56011,70.64469,23.57331],"properties":{"ward":1,"name":"Devala Gate"},"geometry":{"type":"Polygon","coordinates":[[[70.63371,23.5641],[70.63411,23.56353],[70.63326,23.56514],[70.63342,23.5652],[70.63373,23.566],[70.63366,23.56668],[70.63291,23.56725],[70.63194,23.5692],[70.63238,23.56935],[70.63251,23.5699],[70.63235,23.57059],[70.63167,23.57188],[70.63149,23.57275],[70.63164,23.57331],[70.63266,23.57331],[70.63376,23.57284],[70.63512,23.57251],[70.63693,23.57251],[70.6373,23.57238],[70.63838,23.57238],[70.63965,23.57265],[70.64157,23.57279],[70.64177,23.57265],[70.64192,23.57201],[70.64241,23.57162],[70.64343,23.57153],[70.64349,23.57114],[70.64277,23.57097],[70.64251,23.57076],[70.64214,23.57026],[70.64206,23.56982],[70.64279,23.56848],[70.6437,23.56794],[70.64459,23.56773],[70.64469,23.56745],[70.64449,23.56553],[70.64369,23.56298],[70.64295,23.56303],[70.64166,23.5641],[70.6407,23.56433],[70.63978,23.56476],[70.63937,23.56476],[70.63909,23.5645],[70.63884,23.5638],[70.63798,23.56288],[70.63781,23.56173],[70.63727,23.5612],[70.63695,23.56011],[70.6364,23.56124],[70.63507,23.56278],[70.63412,23.56332],[70.63371,23.5641]]]}},{"type":"Feature","bbox":[70.64072,23.57293,70.64743,23.59474],"properties":{"ward":2},"geometry":{"type":"Polygon","coordinates":[[[70.64523,23.58391],[70.64659,23.57714],[70.64668,23.57513],[70.64743,23.57344],[70.64712,23.57337],[70.64664,23.57293],[70.64557,23.57296],[70.64558,23.57332],[70.64521,23.57312],[70.64473,23.57326],[70.64444,23.57302],[70.64393,23.57319],[70.6436,23.57301],[70.64323,23.57353],[70.64305,23.57356],[70.64294,23.57315],[70.64231,23.57319],[70.64241,23.57438],[70.64326,23.57433],[70.64396,23.57566],[70.6439,23.57639],[70.64351,23.57681],[70.64375,23.57765],[70.64393,23.57781],[70.64386,23.57818],[70.64452,23.57882],[70.64407,23.57892],[70.64418,23.58091],[70.64291,23.58206],[70.64332,23.58253],[70.64306,23.58274],[70.64257,23.58277],[70.64136,23.58253],[70.64072,23.58664],[70.64125,23.5875],[70.64212,23.58986],[70.64201,23.59167],[70.64107,23.59271],[70.64399,23.59471],[70.64449,23.59474],[70.6446,23.59458],[70.64579,23.59176],[70.64615,23.58987],[70.64612,23.5866],[70.64534,23.58439],[70.64523,23.58391]]]}},{"type":"Feature","bbox":[70.64571,23.57397,70.65368,23.58763],"properties":{"ward":3},"geometry":{"type":"Polygon","coordinates":[[[70.64769,23.57397],[70.64702,23.57644],[70.64675,23.579],[70.64581,23.58241],[70.64571,23.58372],[70.64602,23.58492],[70.6473,23.58737],[70.64752,23.58763],[70.64815,23.58762],[70.64872,23.58749],[70.64981,23.58631],[70.65012,23.585],[70.65037,23.58477],[70.65162,23.58461],[70.65181,23.58336],[70.65347,23.58336],[70.65368,23.58293],[70.65342,23.58106],[70.65303,23.58068],[70.65278,23.58003],[70.653,23.57909],[70.65346,23.57849],[70.65333,23.57789],[70.65291,23.57712],[70.65181,23.57578],[70.64966,23.57487],[70.64845,23.5741],[70.64769,23.57397]]]}},{"type":"Feature","bbox":[70.64828,23.56864,70.66626,23.58314],"properties":{"ward":4},"geometry":{"type":"Polygon","coordinates":[[[70.65792,23.58267],[70.65607,23.58059],[70.65708,23.58056],[70.65754,23.57872],[70.65728,23.57828],[70.65952,23.57717],[70.66625,23.57652],[70.66626,23.57589],[70.66596,23.57489],[70.66548,23.57432],[70.66476,23.57431],[70.66307,23.57373],[70.66341,23.57359],[70.6634,23.57342],[70.6628,23.5733],[70.66392,23.57284],[70.66396,23.57269],[70.66368,23.57261],[70.66368,23.57237],[70.66336,23.57236],[70.66296,23.57206],[70.66321,23.57089],[70.66248,23.57097],[70.66196,23.56972],[70.66102,23.56978],[70.65861,23.56954],[70.65839,23.5704],[70.65772,23.57047],[70.65764,23.57086],[70.65641,23.57046],[70.65617,23.56977],[70.65556,23.56937],[70.65393,23.5691],[70.65397,23.56875],[70.65358,23.56864],[70.65295,23.56956],[70.65217,23.5715],[70.65229,23.57156],[70.65188,23.57229],[70.65108,23.57213],[70.6492,23.57127],[70.64842,23.57113],[70.64828,23.57157],[70.64893,23.57222],[70.64936,23.57221],[70.64908,23.57306],[70.64939,23.57318],[70.64897,23.57384],[70.65091,23.57481],[70.65163,23.57542],[70.65263,23.57593],[70.65298,23.57651],[70.65308,23.57705],[70.65445,23.5791],[70.65362,23.57963],[70.65381,23.58003],[70.65354,23.58042],[70.6543,23.58116],[70.65389,23.58124],[70.65389,23.58193],[70.65433,23.5831],[70.65519,23.58314],[70.65792,23.58267]]]}},{"type":"Feature","bbox":[70.6429,23.56927,70.65257,23.57384],"properties":{"ward":5},"geometry":{"type":"Polygon","coordinates":[[[70.64908,23.57305],[70.64935,23.57222],[70.64893,23.57223],[70.64828,23.57157],[70.64841,23.57114],[70.64919,23.57128],[70.65108,23.57214],[70.65188,23.57229],[70.65257,23.57069],[70.65168,23.57015],[70.65179,23.56975],[70.6512,23.5702],[70.64898,23.56975],[70.64839,23.57063],[70.64557,23.56948],[70.64544,23.56927],[70.64301,23.56937],[70.6429,23.57021],[70.64491,23.56982],[70.64475,23.57042],[70.64458,23.57043],[70.64416,23.57142],[70.64414,23.57234],[70.6436,23.57301],[70.64393,23.57319],[70.64444,23.57302],[70.64473,23.57326],[70.64521,23.57312],[70.64558,23.57332],[70.64557,23.57296],[70.64664,23.57293],[70.64712,23.57337],[70.64815,23.5735],[70.64897,23.57384],[70.64938,23.57319],[70.64908,23.57305]]]}},{"type":"Feature","bbox":[70.63187,23.56083,70.64494,23.5734],"properties":{"ward":6},"geometry":{"type":"Polygon","coordinates":[[[70.63682,23.56176],[70.63622,23.56231],[70.63443,23.56346],[70.63288,23.56645],[70.63223,23.56887],[70.63191,23.57089],[70.63187,23.57215],[70.63216,23.5734],[70.63502,23.57267],[70.6373,23.57262],[70.63809,23.57243],[70.64187,23.57239],[70.64255,23.57174],[70.64333,23.57179],[70.64337,23.5712],[70.6424,23.57072],[70.64225,23.57046],[70.6422,23.56975],[70.64276,23.5686],[70.64344,23.56856],[70.64451,23.56883],[70.64483,23.56856],[70.64494,23.56737],[70.64447,23.56498],[70.64377,23.56329],[70.64288,23.56332],[70.64153,23.56461],[70.63987,23.56492],[70.63926,23.56437],[70.63843,23.56202],[70.63783,23.56105],[70.63733,23.56083],[70.637,23.5609],[70.63682,23.56176]],[[70.6368,23.56179],[70.63682,23.56176],[70.6368,23.56187],[70.6368,23.56179]]]}},{"type":"Feature","bbox":[70.63951,23.5417,70.66986,23.57086],"properties":{"ward":7},"geometry":{"type":"Polygon","coordinates":[[[70.65838,23.5704],[70.65861,23.56955],[70.66102,23.56978],[70.66195,23.56973],[70.66181,23.56958],[70.6619,23.56939],[70.66155,23.56919],[70.66206,23.56729],[70.6637,23.56682],[70.66483,23.56605],[70.66603,23.56547],[70.66678,23.56483],[70.66559,23.56353],[70.66467,23.56295],[70.66419,23.56295],[70.66513,23.56107],[70.66625,23.55827],[70.66613,23.55795],[70.66863,23.55561],[70.66698,23.55369],[70.66986,23.55079],[70.66844,23.54901],[70.66827,23.54797],[70.66678,23.54957],[70.66607,23.54745],[70.66501,23.54736],[70.66447,23.54588],[70.66368,23.54621],[70.66351,23.54796],[70.66372,23.54807],[70.66304,23.55129],[70.66127,23.55163],[70.66066,23.55239],[70.66061,23.55311],[70.65946,23.55396],[70.65796,23.5542],[70.65585,23.55492],[70.65461,23.55479],[70.65286,23.55343],[70.65174,23.55281],[70.65152,23.55117],[70.65164,23.55059],[70.65093,23.55021],[70.6512,23.54946],[70.65126,23.54794],[70.65088,23.54683],[70.65019,23.54605],[70.64927,23.54604],[70.64905,23.54528],[70.6501,23.54509],[70.65005,23.54474],[70.64948,23.54416],[70.64862,23.54363],[70.64775,23.54264],[70.64792,23.54239],[70.64772,23.54207],[70.64661,23.5417],[70.64648,23.54226],[70.6446,23.5462],[70.64463,23.54828],[70.64231,23.5486],[70.63986,23.54956],[70.63972,23.5506],[70.6455,23.55243],[70.6448,23.55527],[70.64465,23.55521],[70.64454,23.55563],[70.64513,23.55707],[70.6464,23.55798],[70.64702,23.55863],[70.64572,23.5604],[70.64378,23.56211],[70.64369,23.56242],[70.64101,23.56402],[70.63982,23.56433],[70.63951,23.56495],[70.63999,23.56615],[70.64075,23.56776],[70.64127,23.56822],[70.64253,23.56823],[70.64253,23.56791],[70.64339,23.56796],[70.64352,23.5676],[70.64444,23.56776],[70.64442,23.56802],[70.64463,23.56804],[70.6453,23.56773],[70.64557,23.56948],[70.64839,23.57063],[70.64898,23.56975],[70.6512,23.5702],[70.65179,23.56975],[70.65168,23.57015],[70.65257,23.57069],[70.65295,23.56957],[70.65357,23.56865],[70.65396,23.56876],[70.65392,23.56911],[70.65555,23.56937],[70.65616,23.56978],[70.6564,23.57047],[70.65763,23.57086],[70.65771,23.57048],[70.65838,23.5704]]]}}]}