{"type":"FeatureCollection","features":[{"type":"Feature","bbox":[72.62384,23.4257,72.6651,23.46129],"properties":{"ward":1,"name":"Rashiklal Park"},"geometry":{"type":"Polygon","coordinates":[[[72.6651,23.46123],[72.66415,23.45685],[72.66442,23.45593],[72.66323,23.45532],[72.6624,23.45463],[72.66143,23.45426],[72.66143,23.45403],[72.66144,23.45261],[72.66215,23.45225],[72.66266,23.45172],[72.66227,23.4509],[72.66254,23.44942],[72.66432,23.4495],[72.66428,23.44895],[72.66453,23.44887],[72.6648,23.44795],[72.66505,23.44811],[72.66465,23.44736],[72.65934,23.44032],[72.66036,23.44033],[72.66048,23.44027],[72.66022,23.43976],[72.66089,23.43972],[72.66064,23.43785],[72.66034,23.4378],[72.66029,23.43652],[72.65837,23.43638],[72.65837,23.43568],[72.65871,23.43516],[72.65872,23.43384],[72.65772,23.43361],[72.65668,23.43291],[72.65763,23.4309],[72.6588,23.42943],[72.65897,23.42883],[72.65894,23.42826],[72.65784,23.42818],[72.65773,23.42776],[72.65733,23.42777],[72.65734,23.42804],[72.65708,23.42805],[72.65708,23.42793],[72.65682,23.42793],[72.65672,23.42754],[72.65619,23.42897],[72.65328,23.42917],[72.65323,23.42872],[72.65251,23.42886],[72.65085,23.42695],[72.64904,23.42703],[72.6477,23.42685],[72.64777,23.42766],[72.64656,23.42794],[72.64347,23.42816],[72.64332,23.42657],[72.63749,23.42645],[72.63521,23.42672],[72.63512,23.42628],[72.63305,23.42649],[72.63077,23.42622],[72.62964,23.42631],[72.62962,23.42615],[72.6283,23.42592],[72.62816,23.42571],[72.62772,23.4257],[72.62788,23.42573],[72.6277,23.42661],[72.62788,23.42881],[72.6267,23.42881],[72.62663,23.42807],[72.62589,23.42798],[72.62537,23.42936],[72.62532,23.43005],[72.62411,23.43024],[72.62384,23.4324],[72.62409,23.43288],[72.62626,23.43262],[72.62634,23.43278],[72.62698,23.43273],[72.62687,23.43169],[72.62773,23.43132],[72.62775,23.43104],[72.62996,23.4309],[72.62982,23.43018],[72.63207,23.43009],[72.63219,23.43025],[72.63283,23.43026],[72.63293,23.42957],[72.63331,23.42962],[72.6333,23.4278],[72.63404,23.42747],[72.6353,23.42736],[72.63574,23.42879],[72.63817,23.42876],[72.63814,23.42982],[72.63869,23.43011],[72.6391,23.43028],[72.64078,23.43029],[72.64094,23.43168],[72.64007,23.43181],[72.64008,23.43229],[72.63995,23.43232],[72.64012,23.43273],[72.63896,23.43292],[72.63913,23.43373],[72.639,23.43383],[72.63758,23.43382],[72.63753,23.43397],[72.63772,23.43431],[72.63804,23.43449],[72.63804,23.4347],[72.63857,23.43529],[72.63853,23.43541],[72.63911,23.43535],[72.63963,23.43503],[72.63998,23.43542],[72.64096,23.43708],[72.6405,23.43744],[72.64122,23.43799],[72.64061,23.4387],[72.6418,23.43961],[72.64279,23.43975],[72.64323,23.43871],[72.64403,23.43899],[72.64362,23.4401],[72.64425,23.4404],[72.64367,23.44089],[72.64345,23.44124],[72.64358,23.44143],[72.64498,23.44225],[72.64492,23.44266],[72.64648,23.44291],[72.64653,23.44313],[72.64671,23.4432],[72.64659,23.44426],[72.64816,23.44438],[72.64813,23.44293],[72.64843,23.4425],[72.64776,23.44053],[72.64855,23.44027],[72.64852,23.43868],[72.6489,23.43864],[72.64927,23.43764],[72.64968,23.43769],[72.64981,23.43782],[72.64978,23.43852],[72.65098,23.43865],[72.6509,23.43987],[72.64959,23.43984],[72.6496,23.44108],[72.64972,23.44127],[72.6501,23.44116],[72.65014,23.44157],[72.65001,23.4419],[72.64943,23.44225],[72.64947,23.44423],[72.64913,23.44429],[72.64872,23.44578],[72.65168,23.44689],[72.65202,23.44692],[72.65224,23.44521],[72.65254,23.44488],[72.65242,23.44358],[72.6531,23.44359],[72.6543,23.44321],[72.65464,23.44477],[72.65428,23.44478],[72.65438,23.44538],[72.65428,23.44601],[72.65432,23.44621],[72.65461,23.44633],[72.65425,23.44793],[72.65287,23.44735],[72.65206,23.44988],[72.65167,23.44987],[72.6516,23.4504],[72.65161,23.45093],[72.65208,23.4511],[72.6521,23.45191],[72.65265,23.45208],[72.65263,23.45268],[72.65317,23.45267],[72.65304,23.45354],[72.65253,23.45362],[72.65267,23.45494],[72.6524,23.45503],[72.65268,23.45652],[72.65451,23.45642],[72.65444,23.45784],[72.65968,23.45853],[72.65972,23.45931],[72.65944,23.46072],[72.65963,23.46121],[72.66062,23.46127],[72.66127,23.46111],[72.66357,23.46129],[72.6651,23.46123]]]}},{"type":"Feature","bbox":[72.65668,23.42546,72.68953,23.44811],"properties":{"ward":2,"name":"Sajjanpura"},"geometry":{"type":"Polygon","coordinates":[[[72.66578,23.44568],[72.66681,23.44531],[72.66786,23.44558],[72.66901,23.44557],[72.66913,23.44787],[72.67087,23.44775],[72.67068,23.44659],[72.66989,23.44703],[72.66962,23.4467],[72.66962,23.44528],[72.67013,23.44522],[72.67028,23.44576],[72.67142,23.4454],[72.67146,23.44555],[72.67296,23.44491],[72.67337,23.44506],[72.6742,23.44431],[72.67445,23.44339],[72.67571,23.44307],[72.67576,23.44488],[72.67717,23.44486],[72.67714,23.44615],[72.67844,23.44643],[72.67982,23.44638],[72.67995,23.44533],[72.68025,23.44445],[72.68146,23.4419],[72.68083,23.44139],[72.67985,23.44251],[72.67952,23.44228],[72.68042,23.44116],[72.68132,23.44032],[72.68258,23.44149],[72.68566,23.44286],[72.6863,23.44158],[72.68605,23.44148],[72.68704,23.43918],[72.68776,23.43841],[72.68839,23.43837],[72.68853,23.43725],[72.68907,23.43726],[72.68919,23.43607],[72.68951,23.43607],[72.68953,23.43492],[72.6874,23.43507],[72.68744,23.43477],[72.68635,23.43462],[72.68455,23.4335],[72.6841,23.43303],[72.68265,23.43244],[72.68091,23.43199],[72.67968,23.43123],[72.67535,23.43051],[72.67234,23.42941],[72.67143,23.42932],[72.6705,23.42894],[72.66867,23.4286],[72.66795,23.42824],[72.66808,23.42792],[72.668,23.42707],[72.66722,23.42709],[72.6655,23.42598],[72.66536,23.42601],[72.66544,23.42547],[72.66402,23.42546],[72.66378,23.42576],[72.66246,23.4263],[72.66246,23.42615],[72.66169,23.42639],[72.6616,23.42613],[72.66115,23.42628],[72.66124,23.42652],[72.66106,23.42677],[72.65943,23.42714],[72.65955,23.42731],[72.65949,23.42776],[72.65894,23.42826],[72.65897,23.42883],[72.6588,23.42943],[72.65763,23.4309],[72.65668,23.43291],[72.65772,23.43361],[72.65872,23.43384],[72.65871,23.43516],[72.65837,23.43568],[72.65837,23.43638],[72.66029,23.43652],[72.66034,23.4378],[72.66064,23.43785],[72.66089,23.43972],[72.66022,23.43976],[72.66048,23.44027],[72.66036,23.44033],[72.65934,23.44032],[72.66465,23.44736],[72.66505,23.44811],[72.66521,23.44778],[72.66694,23.44734],[72.66664,23.44669],[72.66578,23.44568]]]}},{"type":"Feature","bbox":[72.65672,23.41861,72.69568,23.43507],"properties":{"ward":3,"name":"Makavana Vas"},"geometry":{"type":"Polygon","coordinates":[[[72.6874,23.43507],[72.68954,23.435],[72.69147,23.43391],[72.69304,23.43343],[72.69553,23.43352],[72.69568,23.43218],[72.69554,23.43134],[72.69542,23.43142],[72.69513,23.43033],[72.69323,23.43062],[72.69294,23.42852],[72.6931,23.42849],[72.69292,23.42758],[72.69315,23.42756],[72.69283,23.42441],[72.69145,23.42537],[72.6901,23.42523],[72.68994,23.42404],[72.69035,23.42401],[72.69062,23.42372],[72.69042,23.42297],[72.68764,23.42256],[72.68763,23.42099],[72.68406,23.42074],[72.68428,23.41967],[72.6848,23.41966],[72.68565,23.41936],[72.68569,23.41861],[72.67914,23.42065],[72.66942,23.42322],[72.66464,23.42369],[72.66214,23.42341],[72.66191,23.42325],[72.66101,23.42321],[72.65944,23.42347],[72.65864,23.42378],[72.65846,23.42422],[72.65875,23.42483],[72.65882,23.42574],[72.65871,23.42595],[72.65745,23.4262],[72.65672,23.42754],[72.65682,23.42793],[72.65708,23.42793],[72.65708,23.42805],[72.65734,23.42804],[72.65733,23.42777],[72.65773,23.42776],[72.65784,23.42818],[72.65894,23.42826],[72.65949,23.42776],[72.65955,23.42731],[72.65943,23.42714],[72.66106,23.42677],[72.66124,23.42652],[72.66115,23.42628],[72.6616,23.42613],[72.66169,23.42639],[72.66246,23.42615],[72.66246,23.4263],[72.66378,23.42576],[72.66402,23.42546],[72.66544,23.42547],[72.66536,23.42601],[72.6655,23.42598],[72.66722,23.42709],[72.668,23.42707],[72.66808,23.42792],[72.66795,23.42824],[72.66867,23.4286],[72.6705,23.42894],[72.67143,23.42932],[72.67234,23.42941],[72.67535,23.43051],[72.67968,23.43123],[72.68091,23.43199],[72.68265,23.43244],[72.6841,23.43303],[72.68455,23.4335],[72.68635,23.43462],[72.68744,23.43477],[72.6874,23.43507]]]}},{"type":"Feature","bbox":[72.65092,23.42289,72.65883,23.42917],"properties":{"ward":4,"name":"Darabar Gadh"},"geometry":{"type":"Polygon","coordinates":[[[72.65825,23.42289],[72.65778,23.42302],[72.65787,23.42332],[72.65836,23.42327],[72.65851,23.42351],[72.65829,23.42366],[72.65735,23.42372],[72.65734,23.42398],[72.65659,23.42397],[72.65654,23.42424],[72.65461,23.42378],[72.65443,23.42392],[72.65414,23.42499],[72.65395,23.4252],[72.65468,23.42531],[72.65456,23.42606],[72.65446,23.42602],[72.65443,23.42697],[72.65364,23.42709],[72.65092,23.42703],[72.65251,23.42886],[72.65323,23.42872],[72.65328,23.42917],[72.65619,23.42897],[72.65737,23.42629],[72.65788,23.42606],[72.65859,23.426],[72.65882,23.42574],[72.65875,23.42483],[72.65846,23.42426],[72.65861,23.42381],[72.65883,23.42368],[72.65825,23.42289]]]}},{"type":"Feature","bbox":[72.62361,23.41072,72.65492,23.42816],"properties":{"ward":5,"name":"Kapurivask"},"geometry":{"type":"Polygon","coordinates":[[[72.63156,23.41921],[72.63253,23.42175],[72.63053,23.42202],[72.63028,23.42039],[72.62961,23.42039],[72.62957,23.41992],[72.62825,23.41998],[72.62822,23.41973],[72.62743,23.41982],[72.62739,23.41934],[72.62417,23.41936],[72.624,23.42067],[72.62372,23.42069],[72.62361,23.42173],[72.62463,23.42177],[72.62524,23.42334],[72.62548,23.42484],[72.62613,23.42485],[72.62652,23.4257],[72.62816,23.42571],[72.6283,23.42592],[72.62962,23.42615],[72.62956,23.4263],[72.63077,23.42622],[72.63305,23.42649],[72.63512,23.42628],[72.63521,23.42672],[72.63749,23.42645],[72.64332,23.42657],[72.64347,23.42816],[72.64656,23.42794],[72.64777,23.42766],[72.6477,23.42685],[72.64904,23.42703],[72.65085,23.42695],[72.65268,23.42709],[72.65443,23.42697],[72.65446,23.42602],[72.65456,23.42606],[72.65468,23.42531],[72.65395,23.4252],[72.65414,23.42499],[72.65492,23.42278],[72.64989,23.42217],[72.64985,23.42104],[72.64806,23.42109],[72.64824,23.42208],[72.64702,23.42225],[72.63678,23.41072],[72.63634,23.41072],[72.63625,23.41208],[72.63698,23.4121],[72.63691,23.4129],[72.63735,23.41329],[72.63734,23.41344],[72.63849,23.41384],[72.63847,23.41417],[72.63861,23.4143],[72.63843,23.41454],[72.63826,23.41447],[72.63786,23.41548],[72.63872,23.41581],[72.63841,23.41666],[72.64045,23.41716],[72.64008,23.41843],[72.6389,23.41828],[72.63887,23.41801],[72.63821,23.41807],[72.63603,23.41769],[72.63561,23.41859],[72.63477,23.41851],[72.63432,23.41839],[72.63451,23.41684],[72.63275,23.4165],[72.63158,23.41649],[72.63153,23.41667],[72.63133,23.41667],[72.63183,23.41796],[72.63156,23.41921]],[[72.63253,23.42175],[72.63257,23.42189],[72.63252,23.42178],[72.63253,23.42175]]]}},{"type":"Feature","bbox":[72.63515,23.38817,72.66137,23.42424],"properties":{"ward":6,"name":"Maheshwari So."},"geometry":{"type":"Polygon","coordinates":[[[72.65654,23.42424],[72.65659,23.42397],[72.65734,23.42398],[72.65735,23.42372],[72.65829,23.42366],[72.65851,23.42351],[72.65836,23.42327],[72.65787,23.42332],[72.65778,23.42302],[72.65825,23.42289],[72.65794,23.42286],[72.65779,23.42251],[72.65699,23.42271],[72.65709,23.42293],[72.65645,23.42296],[72.65607,23.42193],[72.65723,23.4211],[72.65659,23.41999],[72.65615,23.42002],[72.65451,23.41831],[72.65588,23.41778],[72.65611,23.41831],[72.65743,23.41778],[72.65766,23.41732],[72.66064,23.41691],[72.66107,23.41484],[72.66101,23.41406],[72.66125,23.41276],[72.66137,23.41019],[72.66114,23.40916],[72.66102,23.40706],[72.66125,23.40444],[72.66105,23.40185],[72.65992,23.40168],[72.65796,23.40055],[72.65602,23.40025],[72.65609,23.39855],[72.6559,23.3985],[72.65604,23.39782],[72.65693,23.39781],[72.65679,23.3966],[72.65719,23.39454],[72.65837,23.39448],[72.66032,23.39475],[72.66039,23.39397],[72.65968,23.39377],[72.65951,23.3914],[72.65755,23.39134],[72.6574,23.39006],[72.66027,23.38999],[72.66049,23.38888],[72.66025,23.38817],[72.65948,23.3884],[72.65775,23.38852],[72.65637,23.38888],[72.65642,23.3896],[72.65549,23.39007],[72.65485,23.39119],[72.65366,23.39232],[72.65488,23.39328],[72.65297,23.39448],[72.6535,23.39533],[72.65332,23.39593],[72.65347,23.39688],[72.65206,23.39711],[72.65175,23.39607],[72.65034,23.39673],[72.64924,23.39694],[72.64903,23.3965],[72.6481,23.39671],[72.6484,23.39768],[72.64786,23.39748],[72.64809,23.40063],[72.64706,23.40064],[72.64716,23.40149],[72.64567,23.4017],[72.64467,23.40165],[72.64481,23.40008],[72.64096,23.4008],[72.64116,23.40179],[72.643,23.40168],[72.64331,23.40253],[72.64338,23.40328],[72.64222,23.40375],[72.64262,23.40463],[72.64266,23.40531],[72.64218,23.4056],[72.64183,23.40542],[72.64065,23.40572],[72.63877,23.40332],[72.63865,23.40284],[72.63708,23.40286],[72.63723,23.40193],[72.63717,23.401],[72.63595,23.40143],[72.63604,23.40204],[72.6355,23.40225],[72.63515,23.40334],[72.63654,23.4044],[72.63615,23.40501],[72.63588,23.40505],[72.63542,23.40631],[72.6368,23.40692],[72.63625,23.4084],[72.63724,23.40872],[72.63695,23.41062],[72.63678,23.41072],[72.64702,23.42225],[72.64824,23.42208],[72.64806,23.42109],[72.64985,23.42104],[72.64989,23.42217],[72.65492,23.42278],[72.65461,23.42378],[72.65654,23.42424]]]}},{"type":"Feature","bbox":[72.65451,23.39528,72.68581,23.42369],"properties":{"ward":7,"name":"Vijay Nagar Patel Vas"},"geometry":{"type":"Polygon","coordinates":[[[72.66464,23.42369],[72.66997,23.4231],[72.67914,23.42065],[72.68569,23.41861],[72.68574,23.41809],[72.68581,23.41635],[72.68557,23.41566],[72.68568,23.41519],[72.68464,23.4149],[72.68443,23.41333],[72.68492,23.41323],[72.68495,23.41216],[72.68318,23.41216],[72.68279,23.41321],[72.68304,23.41349],[72.68268,23.41366],[72.68282,23.41439],[72.68108,23.41512],[72.68029,23.41314],[72.68064,23.41294],[72.68036,23.41239],[72.68077,23.4122],[72.68058,23.41194],[72.67967,23.41254],[72.67949,23.41235],[72.67926,23.4117],[72.67975,23.41141],[72.67858,23.40933],[72.68097,23.4089],[72.68078,23.40787],[72.67778,23.40793],[72.67784,23.40917],[72.677,23.40904],[72.67549,23.40851],[72.67505,23.40476],[72.67361,23.40465],[72.67398,23.40198],[72.67335,23.40166],[72.67302,23.40169],[72.67308,23.40111],[72.67115,23.40075],[72.67191,23.39871],[72.6711,23.39837],[72.67131,23.3974],[72.67147,23.39747],[72.67152,23.39707],[72.67138,23.39703],[72.67166,23.39553],[72.6703,23.39547],[72.67009,23.39528],[72.66812,23.39551],[72.66616,23.39594],[72.66588,23.39581],[72.66574,23.39762],[72.66478,23.39762],[72.66465,23.39887],[72.66335,23.39886],[72.66328,23.4004],[72.66124,23.40024],[72.66097,23.40184],[72.66115,23.40239],[72.66125,23.40444],[72.66102,23.40706],[72.66135,23.41103],[72.66101,23.41406],[72.66107,23.41484],[72.66064,23.41691],[72.65766,23.41732],[72.65743,23.41778],[72.65611,23.41831],[72.65588,23.41778],[72.65451,23.41831],[72.65615,23.42002],[72.65659,23.41999],[72.65723,23.4211],[72.65607,23.42193],[72.65645,23.42296],[72.65709,23.42293],[72.65699,23.42271],[72.65779,23.42251],[72.65794,23.42286],[72.65816,23.42283],[72.65843,23.42323],[72.65857,23.42318],[72.65883,23.42368],[72.66101,23.42321],[72.66464,23.42369]]]}}]}