{"type":"FeatureCollection","features":[{"type":"Feature","bbox":[71.56405,24.06416,71.59736,24.08975],"properties":{"ward":1,"name":"Ambica Society"},"geometry":{"type":"Polygon","coordinates":[[[71.58202,24.06441],[71.58139,24.06632],[71.58005,24.06619],[71.57936,24.06656],[71.57688,24.06627],[71.57724,24.06482],[71.57351,24.06416],[71.57329,24.06465],[71.57229,24.06507],[71.57214,24.06544],[71.57168,24.06566],[71.57124,24.06578],[71.57001,24.06564],[71.5696,24.06611],[71.56928,24.06774],[71.56831,24.06778],[71.56832,24.06888],[71.56812,24.06924],[71.56861,24.07069],[71.56833,24.07082],[71.56816,24.07203],[71.56651,24.07233],[71.56581,24.07185],[71.56448,24.0717],[71.56405,24.07311],[71.56419,24.074],[71.56642,24.07358],[71.56732,24.07377],[71.56748,24.0747],[71.56875,24.07472],[71.56992,24.07767],[71.56944,24.07794],[71.56895,24.0786],[71.56938,24.07915],[71.57044,24.07944],[71.57149,24.08068],[71.57207,24.08087],[71.57349,24.08272],[71.57376,24.08276],[71.57443,24.08336],[71.57567,24.08386],[71.57643,24.08435],[71.57659,24.08511],[71.57641,24.0856],[71.57596,24.08595],[71.57585,24.08702],[71.57604,24.08712],[71.57606,24.08776],[71.57626,24.08797],[71.57669,24.08805],[71.57752,24.08802],[71.57821,24.08889],[71.57969,24.08939],[71.57973,24.08975],[71.58023,24.08954],[71.58117,24.08881],[71.58288,24.08689],[71.58386,24.08639],[71.58641,24.08375],[71.58824,24.08251],[71.59151,24.08234],[71.59517,24.08275],[71.595,24.08023],[71.59532,24.07813],[71.59736,24.0783],[71.59706,24.07561],[71.5956,24.07496],[71.59577,24.07384],[71.5951,24.07385],[71.59507,24.07519],[71.59358,24.07497],[71.59505,24.07312],[71.59457,24.07205],[71.59506,24.07078],[71.59158,24.07004],[71.59156,24.06929],[71.59022,24.06891],[71.59068,24.06715],[71.59003,24.06724],[71.5905,24.06551],[71.58442,24.06461],[71.58202,24.06441]]]}},{"type":"Feature","bbox":[71.59358,24.07199,71.63557,24.09999],"properties":{"ward":2,"name":"Chandralok Society"},"geometry":{"type":"Polygon","coordinates":[[[71.59517,24.08275],[71.59806,24.08342],[71.60219,24.08505],[71.6049,24.08563],[71.6076,24.08589],[71.60787,24.08635],[71.60862,24.09037],[71.61085,24.09403],[71.61178,24.0954],[71.61202,24.09539],[71.61213,24.09658],[71.61255,24.09672],[71.6131,24.09815],[71.61414,24.09898],[71.61517,24.09877],[71.61588,24.09882],[71.61627,24.0986],[71.61691,24.09893],[71.61718,24.09955],[71.61787,24.09999],[71.61822,24.09978],[71.6187,24.09895],[71.61919,24.09846],[71.61919,24.09778],[71.62305,24.09531],[71.62416,24.09516],[71.62648,24.09629],[71.62851,24.09654],[71.63039,24.09741],[71.63266,24.09906],[71.63341,24.09943],[71.63338,24.09791],[71.63365,24.09718],[71.63513,24.09722],[71.63541,24.09704],[71.63532,24.09638],[71.63557,24.09562],[71.63448,24.0946],[71.63346,24.09328],[71.63208,24.09192],[71.63129,24.09078],[71.63044,24.08999],[71.62976,24.0913],[71.62923,24.09095],[71.62922,24.09043],[71.62788,24.08964],[71.62596,24.0911],[71.62477,24.09236],[71.6224,24.09113],[71.6223,24.09089],[71.62303,24.0906],[71.62338,24.09013],[71.62308,24.08939],[71.62481,24.08881],[71.62503,24.08892],[71.62597,24.08877],[71.62579,24.08764],[71.6254,24.08745],[71.62547,24.08725],[71.62565,24.08725],[71.62556,24.08716],[71.6248,24.08692],[71.62248,24.08568],[71.61941,24.08345],[71.61683,24.08091],[71.61559,24.08021],[71.61426,24.07905],[71.61189,24.07747],[71.61091,24.07624],[71.61007,24.07563],[71.60805,24.07477],[71.59624,24.07199],[71.59458,24.0736],[71.59358,24.07497],[71.59507,24.07519],[71.5951,24.07385],[71.59577,24.07384],[71.5956,24.07496],[71.59658,24.07534],[71.5971,24.07576],[71.59736,24.0783],[71.59532,24.07813],[71.595,24.08023],[71.59517,24.08275]]]}},{"type":"Feature","bbox":[71.6002,24.0526,71.63095,24.08725],"properties":{"ward":3,"name":"Bhabhar Juna"},"geometry":{"type":"Polygon","coordinates":[[[71.62565,24.08725],[71.62721,24.08718],[71.62725,24.08704],[71.62732,24.08553],[71.62669,24.08464],[71.62681,24.08404],[71.62665,24.08343],[71.62682,24.08275],[71.62722,24.0827],[71.62741,24.08199],[71.62807,24.08211],[71.62825,24.08237],[71.62871,24.08254],[71.62926,24.08243],[71.62937,24.08185],[71.62909,24.08137],[71.62906,24.081],[71.62857,24.0807],[71.63031,24.08086],[71.63052,24.08065],[71.63061,24.08015],[71.63046,24.07992],[71.63051,24.07958],[71.63095,24.07902],[71.63083,24.07822],[71.63024,24.07815],[71.63,24.07711],[71.62955,24.07611],[71.62906,24.07295],[71.62864,24.07169],[71.62908,24.07164],[71.62917,24.07104],[71.62977,24.07018],[71.63061,24.0698],[71.62844,24.06859],[71.62781,24.06786],[71.62674,24.06723],[71.62575,24.06632],[71.62539,24.06584],[71.62514,24.06462],[71.62564,24.06156],[71.62547,24.06023],[71.62606,24.05939],[71.62657,24.05726],[71.62798,24.05463],[71.62435,24.05537],[71.62319,24.0549],[71.62008,24.05478],[71.61655,24.05393],[71.61313,24.0526],[71.61224,24.05445],[71.6101,24.05698],[71.60812,24.05885],[71.60505,24.06107],[71.60316,24.06283],[71.60259,24.06393],[71.60286,24.06392],[71.60258,24.06488],[71.60158,24.06616],[71.60147,24.06671],[71.60039,24.06716],[71.60032,24.06762],[71.60063,24.06822],[71.60061,24.06958],[71.60029,24.07063],[71.6008,24.07087],[71.60111,24.07151],[71.60098,24.07239],[71.60068,24.07229],[71.6002,24.07292],[71.60805,24.07477],[71.61007,24.07563],[71.61091,24.07624],[71.61189,24.07747],[71.61426,24.07905],[71.61559,24.08021],[71.61683,24.08091],[71.61941,24.08345],[71.62248,24.08568],[71.62565,24.08725]]]}},{"type":"Feature","bbox":[71.59022,24.06674,71.60111,24.07312],"properties":{"ward":4,"name":"Khadiya Vistar"},"geometry":{"type":"Polygon","coordinates":[[[71.59068,24.06715],[71.59022,24.06891],[71.59156,24.06929],[71.59158,24.07004],[71.59506,24.07078],[71.59457,24.07205],[71.59505,24.07312],[71.59624,24.07199],[71.6002,24.07292],[71.60068,24.07229],[71.60098,24.07239],[71.60111,24.07151],[71.6008,24.07087],[71.60029,24.07063],[71.60061,24.06958],[71.60063,24.06822],[71.59898,24.06814],[71.59894,24.06848],[71.59853,24.06826],[71.59771,24.06822],[71.59617,24.06888],[71.59588,24.06934],[71.59558,24.06945],[71.59483,24.06835],[71.59463,24.06847],[71.59456,24.06816],[71.59394,24.06758],[71.59386,24.06733],[71.59364,24.06743],[71.59329,24.06693],[71.59268,24.06674],[71.59068,24.06715]]]}},{"type":"Feature","bbox":[71.59386,24.06182,71.60286,24.06945],"properties":{"ward":5,"name":"Shethiya Sheri"},"geometry":{"type":"Polygon","coordinates":[[[71.60286,24.06392],[71.59909,24.06338],[71.59937,24.06283],[71.59944,24.06226],[71.5983,24.06182],[71.59787,24.06236],[71.59792,24.06289],[71.59774,24.0629],[71.59741,24.06393],[71.59718,24.06562],[71.59659,24.06567],[71.59534,24.06517],[71.59516,24.06569],[71.59542,24.06606],[71.59512,24.06645],[71.59422,24.06649],[71.59427,24.06669],[71.59404,24.06686],[71.59401,24.06724],[71.59386,24.06733],[71.59394,24.06758],[71.59456,24.06816],[71.59463,24.06847],[71.59483,24.06835],[71.59558,24.06945],[71.59588,24.06934],[71.59617,24.06888],[71.59771,24.06822],[71.59853,24.06826],[71.59894,24.06848],[71.59898,24.06814],[71.60063,24.06822],[71.60032,24.06762],[71.60039,24.06716],[71.60148,24.0667],[71.60158,24.06616],[71.60258,24.06488],[71.60286,24.06392]]]}},{"type":"Feature","bbox":[71.5779,24.03424,71.61534,24.06743],"properties":{"ward":6,"name":"Darbar Madh"},"geometry":{"type":"Polygon","coordinates":[[[71.61313,24.0526],[71.61534,24.05038],[71.61445,24.04892],[71.61252,24.04691],[71.61229,24.04633],[71.61139,24.04506],[71.61019,24.04201],[71.60951,24.03933],[71.6094,24.0381],[71.60932,24.03538],[71.60978,24.03424],[71.6081,24.03463],[71.6075,24.0346],[71.60687,24.03529],[71.606,24.03544],[71.60544,24.03571],[71.60226,24.03551],[71.59752,24.03576],[71.59538,24.03499],[71.59533,24.03556],[71.5949,24.03558],[71.59482,24.03654],[71.5939,24.03724],[71.5924,24.03706],[71.59169,24.03728],[71.58863,24.03669],[71.58761,24.03685],[71.58778,24.03761],[71.58757,24.03772],[71.58789,24.03917],[71.58749,24.03935],[71.58748,24.04021],[71.58833,24.04032],[71.58842,24.04051],[71.58792,24.0417],[71.58709,24.04186],[71.58688,24.04213],[71.58558,24.04258],[71.58543,24.04254],[71.58541,24.0418],[71.58408,24.04169],[71.58387,24.04291],[71.5842,24.04309],[71.58493,24.04415],[71.58352,24.04457],[71.58299,24.04449],[71.58282,24.0447],[71.58276,24.04547],[71.5822,24.04536],[71.5821,24.04577],[71.58114,24.04657],[71.58004,24.04703],[71.58009,24.04718],[71.57974,24.04785],[71.58061,24.04933],[71.58051,24.04977],[71.58014,24.04996],[71.57962,24.04997],[71.57901,24.04947],[71.57802,24.05055],[71.57862,24.05099],[71.57866,24.05156],[71.57833,24.05208],[71.57841,24.05295],[71.5779,24.0546],[71.57794,24.05517],[71.5803,24.0556],[71.58033,24.05609],[71.58189,24.05599],[71.58246,24.0557],[71.58241,24.05545],[71.58284,24.05536],[71.58324,24.05503],[71.58367,24.05515],[71.58402,24.05476],[71.58476,24.05507],[71.58496,24.05465],[71.58765,24.05724],[71.58681,24.05815],[71.58647,24.05803],[71.58569,24.0581],[71.58537,24.05902],[71.58748,24.05994],[71.58876,24.06125],[71.58978,24.06204],[71.5896,24.06273],[71.58934,24.0631],[71.58935,24.06341],[71.58685,24.06333],[71.58588,24.0637],[71.58493,24.06377],[71.58477,24.06339],[71.5847,24.06169],[71.58394,24.06166],[71.5836,24.06179],[71.58332,24.06236],[71.58236,24.0629],[71.58234,24.06425],[71.58199,24.06424],[71.58196,24.06441],[71.58442,24.06461],[71.5905,24.06551],[71.59003,24.06724],[71.59193,24.06699],[71.59268,24.06674],[71.59329,24.06693],[71.59364,24.06743],[71.59401,24.06724],[71.59422,24.06649],[71.59512,24.06645],[71.59542,24.06606],[71.59516,24.06569],[71.59534,24.06517],[71.59659,24.06567],[71.59718,24.06562],[71.59741,24.06393],[71.59774,24.0629],[71.59792,24.06289],[71.59787,24.06236],[71.5983,24.06182],[71.59944,24.06226],[71.59937,24.06283],[71.59909,24.06338],[71.60259,24.06393],[71.60316,24.06283],[71.60505,24.06107],[71.60812,24.05885],[71.61098,24.05606],[71.61224,24.05445],[71.61313,24.0526]]]}}]}