{"type":"FeatureCollection","features":[{"type":"Feature","bbox":[70.46161,20.84686,70.48375,20.86771],"properties":{"ward":1},"geometry":{"type":"Polygon","coordinates":[[[70.46893,20.85903],[70.46997,20.85979],[70.47055,20.86062],[70.47167,20.86135],[70.47228,20.86203],[70.47407,20.86342],[70.47459,20.86378],[70.47575,20.86413],[70.47807,20.86589],[70.48108,20.86771],[70.48149,20.86771],[70.48169,20.86745],[70.48293,20.86527],[70.48305,20.86406],[70.48338,20.86335],[70.48324,20.86139],[70.48353,20.85961],[70.48353,20.85609],[70.48375,20.85573],[70.48363,20.85484],[70.4834,20.85439],[70.4824,20.85352],[70.48159,20.85169],[70.48129,20.85132],[70.47992,20.85024],[70.4786,20.85006],[70.47848,20.84993],[70.47834,20.84914],[70.47776,20.84773],[70.47644,20.84756],[70.47357,20.84816],[70.4718,20.84799],[70.47022,20.84803],[70.4695,20.84719],[70.4695,20.84686],[70.46757,20.84736],[70.46726,20.84753],[70.467,20.84808],[70.46501,20.84898],[70.46407,20.84968],[70.46213,20.85026],[70.46191,20.85048],[70.46161,20.85125],[70.46161,20.85167],[70.46184,20.85199],[70.46288,20.85227],[70.4639,20.85288],[70.46495,20.85316],[70.46558,20.85359],[70.46639,20.85466],[70.46749,20.8554],[70.46826,20.85672],[70.46859,20.85839],[70.46893,20.85903]]]}},{"type":"Feature","bbox":[70.4781,20.84436,70.50363,20.87576],"properties":{"ward":2},"geometry":{"type":"Polygon","coordinates":[[[70.47842,20.84717],[70.47849,20.84673],[70.47861,20.84763],[70.47892,20.84808],[70.47911,20.84901],[70.48044,20.84962],[70.48085,20.85031],[70.48226,20.85157],[70.48288,20.85264],[70.48294,20.85323],[70.48362,20.85323],[70.48423,20.85345],[70.48568,20.85495],[70.48526,20.85503],[70.48483,20.85542],[70.48425,20.85683],[70.48414,20.8582],[70.48489,20.85944],[70.48496,20.86106],[70.48482,20.86123],[70.48433,20.86123],[70.484,20.8615],[70.48445,20.86292],[70.48448,20.86346],[70.48418,20.86578],[70.4828,20.86752],[70.48181,20.86822],[70.48187,20.86831],[70.48301,20.86902],[70.48569,20.86993],[70.48699,20.87096],[70.48744,20.87159],[70.49533,20.87519],[70.49675,20.87553],[70.49817,20.87553],[70.49882,20.87576],[70.50363,20.87575],[70.50286,20.8744],[70.50257,20.87352],[70.49966,20.8688],[70.49903,20.86731],[70.49879,20.86372],[70.49902,20.86061],[70.49883,20.85876],[70.49825,20.85818],[70.49623,20.85729],[70.49495,20.85642],[70.49377,20.85611],[70.49253,20.85603],[70.49119,20.85487],[70.49108,20.85419],[70.49131,20.85367],[70.4907,20.85278],[70.49034,20.85071],[70.49002,20.85002],[70.48875,20.84874],[70.48837,20.84729],[70.487,20.84436],[70.48617,20.84448],[70.4858,20.84522],[70.48263,20.84522],[70.48265,20.84455],[70.48185,20.84479],[70.48135,20.84461],[70.48057,20.84467],[70.48022,20.84528],[70.47919,20.8459],[70.47893,20.84628],[70.4781,20.84685],[70.47842,20.84717]]]}},{"type":"Feature","bbox":[70.48326,20.84405,70.52171,20.89374],"properties":{"ward":3},"geometry":{"type":"MultiPolygon","coordinates":[[[[70.51897,20.88303],[70.51939,20.88104],[70.51989,20.88091],[70.52025,20.87993],[70.5207,20.87956],[70.52089,20.87883],[70.52121,20.87835],[70.52118,20.87751],[70.52171,20.87585],[70.5217,20.87514],[70.52144,20.87479],[70.52051,20.87456],[70.51942,20.87329],[70.51901,20.87318],[70.51845,20.87272],[70.518,20.8717],[70.51712,20.87102],[70.51563,20.86936],[70.51528,20.86892],[70.51441,20.8661],[70.51291,20.86546],[70.51247,20.86503],[70.51146,20.86451],[70.51088,20.86357],[70.5106,20.86274],[70.51077,20.86181],[70.51067,20.86099],[70.5113,20.86008],[70.5089,20.86009],[70.50683,20.85879],[70.50505,20.8583],[70.50456,20.8579],[70.50365,20.85693],[70.50261,20.85519],[70.50193,20.85339],[70.50143,20.85264],[70.50068,20.85209],[70.50009,20.85117],[70.49951,20.84918],[70.49814,20.84802],[70.49639,20.84758],[70.49367,20.84627],[70.49323,20.84593],[70.49234,20.84447],[70.4919,20.84405],[70.49156,20.84405],[70.49158,20.84473],[70.49108,20.84507],[70.49091,20.84541],[70.48963,20.84481],[70.48912,20.84482],[70.48827,20.84524],[70.48776,20.84465],[70.48776,20.84422],[70.48666,20.84405],[70.48734,20.84439],[70.48742,20.84473],[70.48802,20.84516],[70.48879,20.84611],[70.48888,20.84637],[70.48854,20.84689],[70.48854,20.84724],[70.48897,20.84741],[70.48941,20.84821],[70.48993,20.84839],[70.49162,20.85018],[70.49166,20.85192],[70.4924,20.85322],[70.49242,20.85397],[70.49216,20.85435],[70.49226,20.85473],[70.49289,20.85473],[70.49389,20.85501],[70.49435,20.85549],[70.49634,20.85558],[70.49817,20.85616],[70.49882,20.85654],[70.49966,20.8583],[70.50014,20.8587],[70.50098,20.8589],[70.50076,20.8597],[70.50039,20.8597],[70.50013,20.8599],[70.49981,20.8607],[70.49963,20.86213],[70.49937,20.86254],[70.49937,20.864],[70.49972,20.86516],[70.49981,20.86665],[70.50039,20.86828],[70.50083,20.86905],[70.5028,20.87093],[70.50325,20.87172],[70.5036,20.8724],[70.50401,20.87389],[70.5046,20.87505],[70.50501,20.87517],[70.50589,20.87505],[70.50617,20.87481],[70.50733,20.87446],[70.51119,20.87446],[70.51233,20.87492],[70.51412,20.87492],[70.51594,20.87445],[70.51643,20.87445],[70.51696,20.87468],[70.51685,20.87527],[70.51703,20.87656],[70.51775,20.87811],[70.51784,20.87871],[70.51749,20.88054],[70.51701,20.88153],[70.51732,20.88153],[70.51717,20.88266],[70.51752,20.88519],[70.51724,20.88545],[70.51712,20.8861],[70.51708,20.8874],[70.51726,20.88872],[70.51632,20.89127],[70.51487,20.89346],[70.51523,20.89374],[70.51564,20.8936],[70.51651,20.89277],[70.51726,20.89113],[70.5184,20.89005],[70.51821,20.88872],[70.51839,20.88623],[70.51864,20.88506],[70.5186,20.88404],[70.51897,20.88303]]],[[[70.48513,20.84473],[70.48632,20.84405],[70.48573,20.84405],[70.48497,20.84431],[70.48395,20.84431],[70.48326,20.84474],[70.48385,20.84491],[70.48513,20.84473]]]]}},{"type":"Feature","bbox":[70.49348,20.83646,70.52815,20.87599],"properties":{"ward":4},"geometry":{"type":"Polygon","coordinates":[[[70.49348,20.84497],[70.49436,20.8457],[70.49493,20.84657],[70.49708,20.84698],[70.49846,20.84775],[70.49984,20.84787],[70.50009,20.84805],[70.50008,20.84866],[70.50198,20.85249],[70.50374,20.85501],[70.5064,20.85768],[70.50847,20.85812],[70.50924,20.8585],[70.51046,20.8588],[70.51144,20.8588],[70.51283,20.85948],[70.51396,20.85979],[70.51418,20.86018],[70.51277,20.86057],[70.51175,20.86152],[70.51134,20.8616],[70.51126,20.86192],[70.51147,20.86232],[70.51125,20.86249],[70.51117,20.86298],[70.51154,20.8638],[70.51175,20.86405],[70.51392,20.86464],[70.51572,20.86541],[70.51589,20.86628],[70.51612,20.86663],[70.51626,20.86769],[70.51619,20.8686],[70.51798,20.8697],[70.51833,20.87036],[70.51881,20.87055],[70.52036,20.87306],[70.52304,20.87445],[70.52409,20.87476],[70.52474,20.87537],[70.52598,20.87589],[70.52815,20.87599],[70.52794,20.87445],[70.52711,20.87159],[70.52632,20.87035],[70.52501,20.86896],[70.52459,20.86814],[70.52439,20.86715],[70.52449,20.86558],[70.52419,20.86413],[70.52308,20.8628],[70.52245,20.86143],[70.52205,20.8594],[70.52211,20.85887],[70.5219,20.85752],[70.5207,20.85686],[70.52037,20.85628],[70.52054,20.85514],[70.52092,20.85451],[70.5208,20.85362],[70.52095,20.85274],[70.5208,20.85201],[70.5209,20.84989],[70.52075,20.8484],[70.52057,20.84828],[70.52094,20.84762],[70.52136,20.84744],[70.52094,20.84644],[70.52117,20.84472],[70.52181,20.84324],[70.52151,20.84196],[70.52148,20.84021],[70.5206,20.83669],[70.51992,20.83646],[70.5185,20.83646],[70.51702,20.83693],[70.51621,20.83739],[70.51373,20.83806],[70.51214,20.83806],[70.51048,20.83782],[70.51038,20.83869],[70.51022,20.83888],[70.50985,20.83883],[70.50945,20.83854],[70.5082,20.8383],[70.50689,20.83859],[70.50656,20.83927],[70.50587,20.83922],[70.50498,20.83883],[70.50273,20.83923],[70.5012,20.83923],[70.50113,20.84202],[70.50083,20.84314],[70.50082,20.84374],[70.50105,20.84446],[70.49997,20.84451],[70.49876,20.84396],[70.4966,20.84418],[70.49595,20.84363],[70.49604,20.84298],[70.49542,20.84293],[70.49512,20.84304],[70.49482,20.8438],[70.49406,20.84402],[70.49348,20.84497]]]}},{"type":"Feature","bbox":[70.48184,20.8246,70.52075,20.84477],"properties":{"ward":5},"geometry":{"type":"MultiPolygon","coordinates":[[[[70.48877,20.8436],[70.48997,20.84443],[70.48985,20.84401],[70.49015,20.84384],[70.49062,20.84383],[70.49098,20.8435],[70.49164,20.84343],[70.49205,20.84358],[70.49275,20.84427],[70.49316,20.84443],[70.4935,20.84437],[70.49383,20.84354],[70.49461,20.84288],[70.49518,20.84266],[70.49611,20.84264],[70.49689,20.84299],[70.49679,20.84321],[70.49716,20.84353],[70.50054,20.84394],[70.50064,20.84067],[70.50115,20.83901],[70.50208,20.83874],[70.50659,20.83869],[70.50694,20.8381],[70.50846,20.83783],[70.50944,20.83785],[70.50981,20.83756],[70.51062,20.83735],[70.51268,20.83726],[70.5134,20.83705],[70.51559,20.83701],[70.51595,20.83681],[70.51744,20.83659],[70.51921,20.83608],[70.52075,20.83596],[70.52027,20.83367],[70.51995,20.83307],[70.51945,20.83291],[70.51943,20.83231],[70.51973,20.83201],[70.51954,20.83089],[70.51896,20.82953],[70.51853,20.82734],[70.51817,20.82664],[70.51791,20.82545],[70.5174,20.8249],[70.51627,20.8246],[70.51299,20.82468],[70.51168,20.82502],[70.50936,20.82607],[70.50921,20.8264],[70.50881,20.82633],[70.50864,20.82648],[70.509,20.82785],[70.51017,20.82921],[70.50975,20.83001],[70.50141,20.83161],[70.4987,20.83175],[70.49845,20.83226],[70.49852,20.8331],[70.49948,20.83356],[70.50037,20.83375],[70.50157,20.83456],[70.50242,20.83576],[70.50267,20.83668],[70.5026,20.8371],[70.50161,20.83783],[70.49958,20.8385],[70.49584,20.83883],[70.49488,20.83934],[70.49079,20.83953],[70.48853,20.84088],[70.48559,20.84202],[70.48508,20.8424],[70.48323,20.84244],[70.48309,20.84324],[70.48184,20.84397],[70.48212,20.84451],[70.48554,20.84367],[70.48809,20.8434],[70.48877,20.8436]]],[[[70.48997,20.84443],[70.49012,20.84466],[70.4903,20.84477],[70.49036,20.84466],[70.48997,20.84443]]]]}},{"type":"Feature","bbox":[70.4613,20.83761,70.49209,20.84921],"properties":{"ward":6},"geometry":{"type":"Polygon","coordinates":[[[70.49209,20.8387],[70.49194,20.83854],[70.48546,20.83874],[70.48428,20.83845],[70.48253,20.83839],[70.48165,20.838],[70.48128,20.83765],[70.48058,20.83761],[70.47949,20.83799],[70.47896,20.83841],[70.4766,20.83924],[70.47609,20.83962],[70.47369,20.84041],[70.47107,20.84068],[70.46961,20.84013],[70.46837,20.84016],[70.46678,20.84056],[70.46532,20.8407],[70.46415,20.84154],[70.46208,20.84426],[70.46195,20.84514],[70.46216,20.84554],[70.46226,20.84679],[70.46215,20.84734],[70.4613,20.84897],[70.46151,20.84921],[70.46262,20.84913],[70.46517,20.84789],[70.46669,20.84736],[70.46722,20.84692],[70.46989,20.84561],[70.47014,20.8456],[70.47022,20.84578],[70.47035,20.8468],[70.47158,20.84713],[70.47615,20.84697],[70.47739,20.84664],[70.4788,20.84601],[70.48003,20.84422],[70.48204,20.84298],[70.48269,20.84201],[70.48333,20.84161],[70.48411,20.84138],[70.48585,20.84134],[70.48667,20.8411],[70.48815,20.84058],[70.48857,20.8402],[70.49082,20.83951],[70.49209,20.8387]]]}}]}