{"type":"FeatureCollection","features":[{"type":"Feature","bbox":[69.58473,21.65307,69.62863,21.69751],"properties":{"ward":1,"name":"Ward 1 Bokhira"},"geometry":{"type":"Polygon","coordinates":[[[69.59303,21.66117],[69.58473,21.67296],[69.59159,21.67808],[69.59288,21.67835],[69.59142,21.68143],[69.59705,21.68596],[69.59274,21.69239],[69.59325,21.69318],[69.59108,21.69751],[69.59647,21.69465],[69.60325,21.69317],[69.61223,21.68952],[69.61361,21.69622],[69.62315,21.69363],[69.62863,21.69456],[69.62698,21.6891],[69.62797,21.68868],[69.62855,21.6852],[69.6266,21.68189],[69.62543,21.67939],[69.62554,21.678],[69.62461,21.67338],[69.62121,21.67268],[69.61867,21.67183],[69.6185,21.67129],[69.61758,21.66995],[69.61707,21.66971],[69.61691,21.66926],[69.61586,21.66857],[69.6147,21.66663],[69.61398,21.66585],[69.61295,21.66512],[69.61214,21.66385],[69.61238,21.6636],[69.61271,21.66241],[69.61261,21.66013],[69.61277,21.65967],[69.61325,21.65915],[69.61515,21.65788],[69.61513,21.65587],[69.61598,21.65546],[69.61671,21.65364],[69.6166,21.65307],[69.61451,21.65365],[69.61165,21.65309],[69.6103,21.65338],[69.60936,21.6534],[69.60712,21.65402],[69.60571,21.65352],[69.60264,21.65379],[69.59694,21.65341],[69.59356,21.6561],[69.59346,21.65888],[69.59303,21.66117]]]}},{"type":"Feature","bbox":[69.61214,21.64517,69.65048,21.6768],"properties":{"ward":2,"name":"Ward 2 Khapat"},"geometry":{"type":"Polygon","coordinates":[[[69.61214,21.66385],[69.61295,21.66512],[69.61398,21.66585],[69.6147,21.66663],[69.61586,21.66857],[69.61691,21.66926],[69.61707,21.66971],[69.61758,21.66995],[69.6185,21.67129],[69.61867,21.67183],[69.62121,21.67268],[69.6226,21.67298],[69.62461,21.67338],[69.62452,21.67304],[69.62612,21.67317],[69.62866,21.67395],[69.62924,21.674],[69.63037,21.67473],[69.63005,21.67541],[69.63074,21.67588],[69.63053,21.67634],[69.63132,21.6768],[69.63187,21.6756],[69.63168,21.67541],[69.63189,21.67499],[69.63258,21.67512],[69.63283,21.67487],[69.63301,21.67411],[69.6322,21.67368],[69.63218,21.67191],[69.63189,21.67112],[69.6318,21.67025],[69.632,21.66957],[69.63289,21.66946],[69.63314,21.66969],[69.63375,21.66982],[69.6365,21.67016],[69.63909,21.67095],[69.63939,21.66935],[69.64124,21.66957],[69.64172,21.66818],[69.64426,21.66869],[69.64444,21.66809],[69.64899,21.66863],[69.65048,21.66563],[69.64632,21.66352],[69.64687,21.6622],[69.64595,21.66157],[69.6464,21.65877],[69.63914,21.65853],[69.63692,21.65867],[69.63507,21.65905],[69.63358,21.65988],[69.63192,21.65997],[69.63178,21.65884],[69.63102,21.65674],[69.63101,21.65532],[69.63043,21.65343],[69.6312,21.65245],[69.63221,21.6532],[69.63496,21.6515],[69.63651,21.64815],[69.63695,21.6476],[69.6328,21.64517],[69.63042,21.64734],[69.6277,21.64939],[69.62359,21.65103],[69.62108,21.65174],[69.61605,21.65369],[69.61598,21.65546],[69.61513,21.65587],[69.61515,21.65788],[69.61325,21.65915],[69.61277,21.65967],[69.61261,21.66013],[69.61271,21.66241],[69.61238,21.6636],[69.61214,21.66385]]]}},{"type":"Feature","bbox":[69.63043,21.62118,69.69613,21.68589],"properties":{"ward":3,"name":"Ward 3, Rajivnagar"},"geometry":{"type":"Polygon","coordinates":[[[69.63043,21.65343],[69.63101,21.65532],[69.63102,21.65674],[69.63178,21.65884],[69.63192,21.65997],[69.63358,21.65988],[69.63507,21.65905],[69.63692,21.65867],[69.63914,21.65853],[69.6464,21.65877],[69.64595,21.66157],[69.64687,21.6622],[69.64632,21.66352],[69.65048,21.66563],[69.64899,21.66863],[69.65006,21.6707],[69.64981,21.67235],[69.65057,21.67267],[69.65079,21.67429],[69.65298,21.67405],[69.65933,21.67262],[69.66629,21.67819],[69.67132,21.68159],[69.67048,21.68519],[69.67278,21.68589],[69.67469,21.68551],[69.67696,21.68582],[69.6816,21.68529],[69.68479,21.68438],[69.68494,21.68264],[69.68517,21.68246],[69.68572,21.68231],[69.68642,21.68267],[69.68846,21.68204],[69.68899,21.68075],[69.68939,21.68048],[69.69196,21.67967],[69.69272,21.67923],[69.69555,21.67705],[69.69613,21.67629],[69.69585,21.67526],[69.69515,21.67404],[69.69512,21.67346],[69.69352,21.67246],[69.69248,21.66978],[69.6921,21.66673],[69.69116,21.66288],[69.69069,21.66177],[69.69004,21.65775],[69.68955,21.65691],[69.68897,21.65532],[69.689,21.65443],[69.68933,21.6541],[69.68972,21.65433],[69.69037,21.65381],[69.6841,21.64991],[69.68078,21.64869],[69.67822,21.64804],[69.68267,21.63898],[69.68628,21.63679],[69.68015,21.63312],[69.68125,21.63212],[69.68114,21.63188],[69.68045,21.63134],[69.67839,21.62899],[69.67772,21.62867],[69.67704,21.62803],[69.67708,21.62756],[69.6754,21.62548],[69.67444,21.62552],[69.67023,21.62634],[69.66797,21.62521],[69.66717,21.6246],[69.66064,21.62133],[69.65999,21.62118],[69.65909,21.62167],[69.65877,21.62205],[69.65532,21.62387],[69.65292,21.6254],[69.65194,21.62446],[69.65096,21.62504],[69.65029,21.62609],[69.6497,21.6265],[69.64936,21.6267],[69.64814,21.62689],[69.64737,21.62777],[69.64678,21.6288],[69.64573,21.62986],[69.64446,21.63175],[69.64396,21.63221],[69.64222,21.63369],[69.63917,21.6351],[69.63513,21.63824],[69.63424,21.63972],[69.63137,21.64247],[69.63067,21.64372],[69.63695,21.6476],[69.63651,21.64815],[69.63496,21.6515],[69.63221,21.6532],[69.6312,21.65245],[69.63043,21.65343]]]}},{"type":"Feature","bbox":[69.60955,21.64266,69.63063,21.64906],"properties":{"ward":4,"name":"Ward 4 Kadiya Plote"},"geometry":{"type":"Polygon","coordinates":[[[69.60955,21.64457],[69.61272,21.64419],[69.6128,21.64605],[69.61475,21.64594],[69.61497,21.6473],[69.61554,21.6476],[69.61338,21.64765],[69.61358,21.64818],[69.61402,21.6482],[69.61401,21.648],[69.61424,21.648],[69.6142,21.64906],[69.62002,21.6484],[69.62198,21.64779],[69.62376,21.64713],[69.63063,21.64373],[69.63,21.64337],[69.62807,21.64277],[69.62499,21.64266],[69.6128,21.64325],[69.61217,21.64339],[69.60955,21.64457]]]}},{"type":"Feature","bbox":[69.60251,21.63652,69.61554,21.64947],"properties":{"ward":5,"name":"Ward 5 Limda Chowk"},"geometry":{"type":"Polygon","coordinates":[[[69.60251,21.64082],[69.60255,21.64127],[69.604,21.64122],[69.60402,21.64166],[69.60484,21.64174],[69.60464,21.64326],[69.60441,21.6434],[69.60436,21.64523],[69.60471,21.64513],[69.60466,21.64575],[69.60483,21.64587],[69.60516,21.64573],[69.60551,21.6464],[69.60443,21.64682],[69.60443,21.64697],[69.60675,21.64771],[69.60673,21.64681],[69.60863,21.64676],[69.60988,21.64947],[69.61046,21.64922],[69.61363,21.6492],[69.61422,21.64902],[69.61428,21.64791],[69.614,21.64792],[69.61402,21.6482],[69.61358,21.64818],[69.61338,21.64765],[69.61554,21.6476],[69.61497,21.6473],[69.61475,21.64594],[69.6128,21.64605],[69.61272,21.64419],[69.60951,21.64449],[69.60961,21.64282],[69.60986,21.64215],[69.61148,21.64208],[69.61135,21.63943],[69.61259,21.63926],[69.60811,21.63652],[69.60676,21.63713],[69.60724,21.63881],[69.60651,21.63895],[69.60682,21.64042],[69.60251,21.64082]]]}},{"type":"Feature","bbox":[69.59496,21.64082,69.60984,21.64952],"properties":{"ward":6,"name":"Ward 6 Thakkar Plote"},"geometry":{"type":"Polygon","coordinates":[[[69.59496,21.64569],[69.59821,21.64642],[69.59824,21.64802],[69.60017,21.64881],[69.60237,21.64944],[69.60578,21.64901],[69.60984,21.64952],[69.60863,21.64676],[69.60673,21.64681],[69.60675,21.64771],[69.60443,21.64697],[69.60443,21.64682],[69.60551,21.6464],[69.60516,21.64573],[69.60483,21.64587],[69.60466,21.64575],[69.60471,21.64513],[69.60436,21.64523],[69.60441,21.6434],[69.60464,21.64326],[69.60484,21.64174],[69.60402,21.64166],[69.604,21.64122],[69.60255,21.64127],[69.60251,21.64082],[69.60109,21.64082],[69.60122,21.64612],[69.59631,21.64489],[69.5957,21.64452],[69.59533,21.64399],[69.59499,21.6449],[69.59496,21.64569]]]}},{"type":"Feature","bbox":[69.59449,21.63868,69.60123,21.64612],"properties":{"ward":7,"name":"Ward 7 Kharvavad"},"geometry":{"type":"Polygon","coordinates":[[[69.59512,21.6429],[69.59449,21.6449],[69.59497,21.64569],[69.59499,21.6449],[69.59533,21.64399],[69.5957,21.64452],[69.59631,21.64489],[69.60122,21.64612],[69.60102,21.64111],[69.60123,21.63986],[69.60054,21.63995],[69.60042,21.6397],[69.59896,21.63926],[69.59876,21.6393],[69.5988,21.63958],[69.59762,21.63978],[69.59761,21.6402],[69.59743,21.64002],[69.59699,21.63997],[69.59699,21.63921],[69.59701,21.63899],[69.59759,21.6391],[69.59766,21.63868],[69.59665,21.63874],[69.59632,21.64066],[69.59602,21.64146],[69.59512,21.6429]]]}},{"type":"Feature","bbox":[69.59699,21.63758,69.60436,21.64082],"properties":{"ward":8,"name":"Ward 8 Vekudi Plote"},"geometry":{"type":"Polygon","coordinates":[[[69.6014,21.63828],[69.59703,21.63876],[69.59699,21.63997],[69.59743,21.64002],[69.59761,21.6402],[69.59762,21.63978],[69.5988,21.63958],[69.59876,21.6393],[69.59926,21.63925],[69.59955,21.63949],[69.60042,21.6397],[69.60054,21.63995],[69.60123,21.63986],[69.60109,21.64082],[69.60436,21.64062],[69.6043,21.63988],[69.60297,21.63986],[69.603,21.63935],[69.60425,21.6394],[69.6041,21.63767],[69.60281,21.63758],[69.60271,21.63783],[69.60145,21.63807],[69.6014,21.63828]]]}},{"type":"Feature","bbox":[69.60276,21.62921,69.6313,21.64449],"properties":{"ward":9,"name":"Ward 9 Wadi Plote"},"geometry":{"type":"Polygon","coordinates":[[[69.60287,21.637],[69.60276,21.63762],[69.6041,21.63767],[69.60425,21.6394],[69.603,21.63935],[69.60297,21.63986],[69.6043,21.63988],[69.60436,21.64062],[69.60682,21.64042],[69.60651,21.63895],[69.60724,21.63881],[69.60676,21.63713],[69.60811,21.63652],[69.61259,21.63926],[69.61135,21.63943],[69.61148,21.64208],[69.60986,21.64215],[69.60961,21.64282],[69.60951,21.64449],[69.6128,21.64325],[69.62498,21.64255],[69.62747,21.64256],[69.6285,21.64272],[69.63081,21.64361],[69.6313,21.64261],[69.62291,21.6385],[69.6232,21.63793],[69.62247,21.63705],[69.62376,21.63638],[69.62328,21.63576],[69.61881,21.6384],[69.61814,21.63865],[69.61396,21.63908],[69.61582,21.63582],[69.61543,21.63379],[69.6151,21.63392],[69.6135,21.6328],[69.6105,21.63032],[69.61188,21.62967],[69.61137,21.62921],[69.60861,21.63122],[69.60757,21.63254],[69.60553,21.63465],[69.60487,21.63491],[69.60372,21.63571],[69.60287,21.637]]]}},{"type":"Feature","bbox":[69.61255,21.62971,69.63747,21.64261],"properties":{"ward":10},"geometry":{"type":"Polygon","coordinates":[[[69.61255,21.63201],[69.6151,21.63392],[69.61543,21.63379],[69.61582,21.63582],[69.61396,21.63908],[69.61814,21.63865],[69.61881,21.6384],[69.62328,21.63576],[69.62376,21.63638],[69.62247,21.63705],[69.6232,21.63793],[69.62291,21.6385],[69.6313,21.64261],[69.63424,21.63972],[69.63513,21.63824],[69.63747,21.63652],[69.63597,21.63572],[69.63452,21.6357],[69.63449,21.63539],[69.63324,21.6353],[69.6325,21.63529],[69.6324,21.63586],[69.63203,21.63631],[69.62949,21.63616],[69.62954,21.63637],[69.62931,21.63638],[69.62931,21.6362],[69.62797,21.63632],[69.62748,21.6351],[69.62616,21.63337],[69.62304,21.63539],[69.62242,21.63458],[69.62091,21.63151],[69.61982,21.63213],[69.61894,21.63102],[69.62025,21.63029],[69.61981,21.6301],[69.6176,21.62971],[69.61505,21.62973],[69.61419,21.63138],[69.61414,21.63186],[69.61255,21.63201]]]}},{"type":"Feature","bbox":[69.6105,21.60213,69.64856,21.63539],"properties":{"ward":11,"name":"Ward 11 Zuribag"},"geometry":{"type":"Polygon","coordinates":[[[69.6105,21.63032],[69.61255,21.63201],[69.61414,21.63186],[69.61419,21.63138],[69.61505,21.62973],[69.6176,21.62971],[69.62007,21.63018],[69.62025,21.63029],[69.61894,21.63102],[69.61982,21.63213],[69.62091,21.63151],[69.62242,21.63458],[69.62304,21.63539],[69.6276,21.63237],[69.62743,21.63206],[69.62984,21.63006],[69.63241,21.62644],[69.63345,21.62696],[69.63426,21.62648],[69.63491,21.6264],[69.63686,21.6243],[69.63862,21.62356],[69.63893,21.62313],[69.63913,21.62313],[69.63993,21.6221],[69.64008,21.6213],[69.64199,21.6202],[69.64361,21.61889],[69.64466,21.61538],[69.64665,21.6108],[69.64856,21.60914],[69.64613,21.60658],[69.64506,21.60678],[69.64451,21.60628],[69.6423,21.60543],[69.64116,21.60479],[69.64113,21.6045],[69.64024,21.60335],[69.64016,21.60304],[69.63934,21.60213],[69.63797,21.60379],[69.61956,21.62191],[69.61688,21.62531],[69.6115,21.62924],[69.61188,21.62967],[69.6105,21.63032]]]}},{"type":"Feature","bbox":[69.62616,21.62736,69.63904,21.63652],"properties":{"ward":12,"name":"Ward 12 Panchayat Chwoki Chhaya"},"geometry":{"type":"Polygon","coordinates":[[[69.62616,21.63337],[69.62748,21.6351],[69.62797,21.63632],[69.62931,21.6362],[69.62931,21.63638],[69.62954,21.63637],[69.62949,21.63616],[69.63203,21.63631],[69.6324,21.63586],[69.6325,21.63529],[69.63324,21.6353],[69.63449,21.63539],[69.63452,21.6357],[69.63597,21.63572],[69.63747,21.63652],[69.63904,21.63525],[69.63845,21.6341],[69.6373,21.63359],[69.63531,21.63204],[69.6337,21.63002],[69.63393,21.62982],[69.63449,21.63036],[69.6351,21.6305],[69.63604,21.62782],[69.6353,21.62756],[69.63291,21.62928],[69.63228,21.62853],[69.63173,21.62736],[69.62984,21.63006],[69.62743,21.63206],[69.6276,21.63237],[69.62616,21.63337]]]}},{"type":"Feature","bbox":[69.63173,21.60914,69.6615,21.63524],"properties":{"ward":13,"name":"Ward 13 Navapara Chhaya School"},"geometry":{"type":"Polygon","coordinates":[[[69.63173,21.62736],[69.63228,21.62853],[69.63291,21.62928],[69.6353,21.62756],[69.63604,21.62782],[69.6351,21.6305],[69.63449,21.63036],[69.63393,21.62982],[69.6337,21.63002],[69.63531,21.63204],[69.6373,21.63359],[69.63845,21.6341],[69.63903,21.63524],[69.63979,21.63471],[69.64222,21.63369],[69.64337,21.63272],[69.64446,21.63175],[69.64573,21.62986],[69.64678,21.6288],[69.64737,21.62777],[69.64814,21.62689],[69.64936,21.6267],[69.6497,21.6265],[69.65029,21.62609],[69.65096,21.62504],[69.65194,21.62446],[69.65292,21.6254],[69.65532,21.62387],[69.65877,21.62205],[69.65951,21.62141],[69.65999,21.62118],[69.66064,21.62133],[69.6601,21.62067],[69.66064,21.6191],[69.66105,21.61905],[69.6615,21.61857],[69.65806,21.61611],[69.65715,21.61563],[69.65665,21.61573],[69.65461,21.61452],[69.65449,21.61466],[69.65406,21.61442],[69.65275,21.61307],[69.65197,21.6126],[69.65129,21.61197],[69.64856,21.60914],[69.64665,21.6108],[69.64466,21.61538],[69.64361,21.61889],[69.64199,21.6202],[69.64008,21.6213],[69.63993,21.6221],[69.63913,21.62313],[69.63893,21.62313],[69.63862,21.62356],[69.63686,21.6243],[69.63491,21.6264],[69.63426,21.62648],[69.63345,21.62696],[69.63241,21.62644],[69.63173,21.62736]]]}}]}