{"type":"FeatureCollection","features":[{"type":"Feature","bbox":[70.1152,21.48673,70.13333,21.52411],"properties":{"ward":1},"geometry":{"type":"Polygon","coordinates":[[[70.11884,21.49368],[70.11832,21.50098],[70.11738,21.50912],[70.11694,21.5108],[70.11552,21.51456],[70.1152,21.51737],[70.11829,21.51946],[70.11814,21.51995],[70.12285,21.52197],[70.12511,21.52342],[70.12654,21.52411],[70.12766,21.52178],[70.12839,21.51757],[70.12879,21.51643],[70.12969,21.5144],[70.13107,21.51202],[70.13287,21.5078],[70.13178,21.50687],[70.13151,21.5059],[70.13116,21.50545],[70.13165,21.50354],[70.1308,21.50282],[70.13188,21.50138],[70.13271,21.49952],[70.13315,21.49889],[70.1319,21.49805],[70.13333,21.49319],[70.13205,21.49243],[70.13206,21.49213],[70.12885,21.49128],[70.12891,21.49049],[70.12759,21.49012],[70.12768,21.4873],[70.11909,21.48673],[70.11884,21.49368]]]}},{"type":"Feature","bbox":[70.12633,21.49715,70.13916,21.53107],"properties":{"ward":2},"geometry":{"type":"Polygon","coordinates":[[[70.13916,21.49804],[70.13618,21.49715],[70.13577,21.49872],[70.13224,21.49716],[70.1319,21.49805],[70.13315,21.49889],[70.13271,21.49952],[70.13188,21.50138],[70.1308,21.50282],[70.13165,21.50354],[70.13116,21.50545],[70.13151,21.5059],[70.13178,21.50687],[70.13287,21.5078],[70.13107,21.51202],[70.12969,21.5144],[70.12879,21.51643],[70.12839,21.51757],[70.12766,21.52178],[70.12654,21.52411],[70.12775,21.52465],[70.12701,21.52571],[70.12633,21.52722],[70.12861,21.52818],[70.13194,21.52913],[70.1315,21.53064],[70.13287,21.53107],[70.13315,21.53046],[70.13339,21.53055],[70.1328,21.5275],[70.13319,21.52702],[70.1336,21.526],[70.133,21.52562],[70.13294,21.5248],[70.13389,21.52237],[70.13414,21.52112],[70.13458,21.51995],[70.13585,21.51718],[70.13709,21.51394],[70.13735,21.5122],[70.13804,21.50974],[70.13812,21.50877],[70.13769,21.50515],[70.13793,21.50285],[70.13916,21.49804]]]}},{"type":"Feature","bbox":[70.1328,21.49804,70.16421,21.53432],"properties":{"ward":3},"geometry":{"type":"Polygon","coordinates":[[[70.16136,21.50238],[70.15845,21.50299],[70.15521,21.50315],[70.15435,21.50306],[70.14093,21.49994],[70.14102,21.49855],[70.13916,21.49804],[70.13793,21.50285],[70.13769,21.50515],[70.13812,21.50877],[70.13804,21.50974],[70.13735,21.5122],[70.13709,21.51394],[70.13585,21.51718],[70.13458,21.51995],[70.13414,21.52112],[70.13389,21.52237],[70.13294,21.5248],[70.133,21.52562],[70.1336,21.526],[70.13319,21.52702],[70.1328,21.5275],[70.13339,21.53055],[70.13407,21.5308],[70.13426,21.5306],[70.13884,21.53211],[70.13902,21.53203],[70.14086,21.53243],[70.14096,21.53227],[70.14199,21.53283],[70.14137,21.53361],[70.14272,21.53432],[70.14382,21.53293],[70.14251,21.53193],[70.14059,21.53083],[70.14213,21.5284],[70.14263,21.52796],[70.14477,21.5249],[70.14729,21.52315],[70.14851,21.52175],[70.14887,21.52153],[70.14923,21.51935],[70.1482,21.51841],[70.15146,21.51936],[70.15168,21.51874],[70.15028,21.51821],[70.15031,21.51797],[70.14854,21.51738],[70.1493,21.5153],[70.14973,21.51456],[70.1498,21.51407],[70.15014,21.51413],[70.15029,21.51364],[70.15063,21.51356],[70.15074,21.51271],[70.15051,21.51262],[70.15053,21.51225],[70.15115,21.51015],[70.15519,21.51037],[70.157,21.51074],[70.16027,21.51082],[70.16198,21.51013],[70.16421,21.50693],[70.16136,21.50238]]]}},{"type":"Feature","bbox":[70.13916,21.493,70.16136,21.50315],"properties":{"ward":4},"geometry":{"type":"Polygon","coordinates":[[[70.13928,21.49616],[70.13963,21.49629],[70.13916,21.49804],[70.14102,21.49855],[70.14093,21.49994],[70.14132,21.50007],[70.15435,21.50306],[70.15521,21.50315],[70.15845,21.50299],[70.16136,21.50238],[70.16066,21.50134],[70.15963,21.49926],[70.15819,21.49583],[70.1576,21.4935],[70.15735,21.49304],[70.15501,21.493],[70.15148,21.49344],[70.15107,21.49377],[70.14986,21.49385],[70.14745,21.49437],[70.14464,21.49435],[70.14427,21.49445],[70.14406,21.49469],[70.14354,21.49465],[70.14308,21.49529],[70.14185,21.49588],[70.14156,21.4962],[70.13963,21.49574],[70.13928,21.49616]]]}},{"type":"Feature","bbox":[70.13239,21.49367,70.13941,21.49845],"properties":{"ward":5},"geometry":{"type":"Polygon","coordinates":[[[70.13328,21.49367],[70.13239,21.49702],[70.13568,21.49845],[70.13615,21.49696],[70.13908,21.49787],[70.13941,21.49638],[70.13328,21.49367]]]}},{"type":"Feature","bbox":[70.11216,21.45237,70.14507,21.49504],"properties":{"ward":6},"geometry":{"type":"Polygon","coordinates":[[[70.12843,21.46853],[70.12825,21.46785],[70.12798,21.46783],[70.12806,21.46663],[70.1279,21.46654],[70.1279,21.46614],[70.12811,21.46597],[70.12781,21.46466],[70.1325,21.46341],[70.13319,21.46112],[70.13469,21.46158],[70.13455,21.46175],[70.13507,21.46183],[70.13511,21.46207],[70.13582,21.46141],[70.13865,21.45792],[70.13937,21.45676],[70.14212,21.4549],[70.1424,21.45312],[70.14325,21.45312],[70.1434,21.45258],[70.1397,21.45237],[70.13617,21.45242],[70.13321,21.4529],[70.12717,21.45435],[70.12122,21.45605],[70.11626,21.45788],[70.11419,21.45827],[70.1144,21.45878],[70.11323,21.4614],[70.11479,21.46229],[70.11245,21.46552],[70.11216,21.46629],[70.11535,21.46745],[70.11474,21.47056],[70.11459,21.4728],[70.11375,21.47249],[70.11374,21.47629],[70.11477,21.47684],[70.11524,21.47686],[70.11507,21.47764],[70.11564,21.47795],[70.11568,21.47841],[70.1169,21.47908],[70.11767,21.47975],[70.11834,21.48044],[70.11883,21.48153],[70.11965,21.48176],[70.11945,21.4833],[70.11964,21.48338],[70.11943,21.48542],[70.11909,21.48673],[70.12768,21.4873],[70.12759,21.49012],[70.12891,21.49049],[70.12885,21.49128],[70.13206,21.49213],[70.13205,21.49243],[70.13333,21.49319],[70.13321,21.49354],[70.13682,21.49504],[70.13818,21.49238],[70.13979,21.49011],[70.14277,21.48434],[70.14507,21.47946],[70.14395,21.47937],[70.14021,21.47858],[70.14065,21.47771],[70.14117,21.47549],[70.14103,21.47545],[70.14169,21.47307],[70.14141,21.47298],[70.14131,21.47273],[70.14139,21.47165],[70.13879,21.47081],[70.13941,21.46862],[70.13521,21.4679],[70.13502,21.46857],[70.13528,21.46862],[70.13528,21.46953],[70.13426,21.46917],[70.13385,21.47016],[70.13107,21.46936],[70.13061,21.47028],[70.1304,21.47016],[70.12923,21.47079],[70.12833,21.47047],[70.12883,21.46892],[70.12876,21.46856],[70.12843,21.46853]]]}},{"type":"Feature","bbox":[70.13682,21.47784,70.15735,21.4962],"properties":{"ward":7},"geometry":{"type":"Polygon","coordinates":[[[70.13682,21.49504],[70.13928,21.49616],[70.13963,21.49574],[70.14156,21.4962],[70.14185,21.49588],[70.14308,21.49529],[70.14354,21.49465],[70.14406,21.49469],[70.14427,21.49445],[70.14464,21.49435],[70.14745,21.49437],[70.14986,21.49385],[70.15107,21.49377],[70.15148,21.49344],[70.15501,21.493],[70.15735,21.49304],[70.15636,21.49111],[70.15511,21.48945],[70.15364,21.48673],[70.15263,21.48533],[70.15262,21.48467],[70.15179,21.48185],[70.15195,21.48075],[70.15287,21.47884],[70.15308,21.47799],[70.15254,21.47784],[70.15056,21.47813],[70.14507,21.47946],[70.14277,21.48434],[70.13979,21.49011],[70.13818,21.49238],[70.13682,21.49504]]]}}]}