{"type":"FeatureCollection","features":[{"type":"Feature","bbox":[72.87213,22.40923,72.89914,22.42344],"properties":{"ward":1,"name":"Krushn Nagar"},"geometry":{"type":"Polygon","coordinates":[[[72.89432,22.4217],[72.89805,22.42344],[72.89801,22.42207],[72.89888,22.42023],[72.89872,22.41922],[72.89822,22.4189],[72.89812,22.41747],[72.8984,22.41539],[72.89892,22.41456],[72.89914,22.4132],[72.89902,22.41215],[72.89872,22.41189],[72.89639,22.41171],[72.89513,22.41189],[72.89471,22.41148],[72.89417,22.40983],[72.89338,22.40934],[72.89289,22.40923],[72.89028,22.40994],[72.88761,22.41204],[72.88668,22.41221],[72.88452,22.41299],[72.87906,22.41382],[72.87774,22.4142],[72.8743,22.41442],[72.87374,22.4147],[72.87314,22.4146],[72.87236,22.41499],[72.87216,22.41534],[72.87213,22.41632],[72.87269,22.41706],[72.87446,22.41786],[72.8767,22.41813],[72.87748,22.41849],[72.88077,22.41934],[72.88139,22.41937],[72.88232,22.41973],[72.89101,22.41987],[72.89176,22.42035],[72.89271,22.42064],[72.89432,22.4217]]]}},{"type":"Feature","bbox":[72.90026,22.41569,72.92826,22.43811],"properties":{"ward":2,"name":"Singlaw Road Ward-2"},"geometry":{"type":"Polygon","coordinates":[[[72.9281,22.42935],[72.92766,22.42982],[72.92754,22.43031],[72.92685,22.43009],[72.92656,22.43059],[72.92556,22.43019],[72.9256,22.43001],[72.92427,22.42996],[72.92451,22.42921],[72.9237,22.42893],[72.92342,22.42856],[72.92364,22.42795],[72.92328,22.42787],[72.9234,22.42731],[72.92246,22.42709],[72.9227,22.42689],[72.92287,22.42625],[72.9225,22.42614],[72.92256,22.42596],[72.92216,22.42581],[72.92215,22.42592],[72.92164,22.42558],[72.92162,22.4249],[72.92187,22.42406],[72.9208,22.42228],[72.92034,22.42194],[72.91899,22.42181],[72.91892,22.42204],[72.91766,22.42178],[72.91761,22.42156],[72.91707,22.42155],[72.91682,22.4218],[72.91638,22.42162],[72.91482,22.42157],[72.91488,22.4209],[72.91515,22.42052],[72.91525,22.41922],[72.91522,22.41891],[72.91486,22.41883],[72.91491,22.41784],[72.91565,22.41788],[72.91571,22.41659],[72.91509,22.41659],[72.91353,22.41737],[72.91351,22.4175],[72.91233,22.41788],[72.91191,22.41767],[72.911,22.41787],[72.90793,22.41741],[72.90733,22.41683],[72.90557,22.41607],[72.90514,22.41569],[72.90081,22.4181],[72.90089,22.41966],[72.90035,22.42004],[72.90026,22.42161],[72.90093,22.42164],[72.90097,22.4225],[72.9012,22.42249],[72.9013,22.42324],[72.90053,22.42336],[72.90103,22.42637],[72.90188,22.42885],[72.90294,22.43089],[72.90327,22.4324],[72.90394,22.43416],[72.90399,22.43502],[72.90459,22.4352],[72.90824,22.43516],[72.90909,22.43558],[72.90922,22.43598],[72.9118,22.43665],[72.91212,22.43696],[72.91683,22.43811],[72.91725,22.43809],[72.91776,22.43767],[72.91956,22.43675],[72.92053,22.43646],[72.92258,22.43545],[72.92515,22.43574],[72.92548,22.43509],[72.92625,22.4342],[72.92625,22.43367],[72.9265,22.43304],[72.9279,22.4309],[72.92801,22.43063],[72.92772,22.43008],[72.92826,22.42941],[72.9281,22.42935]]]}},{"type":"Feature","bbox":[72.90514,22.40846,72.93173,22.43059],"properties":{"ward":3,"name":"Tornavmata Road Ward-3"},"geometry":{"type":"Polygon","coordinates":[[[72.9281,22.42935],[72.92761,22.42914],[72.92743,22.42883],[72.92629,22.4282],[72.926,22.42786],[72.92594,22.42748],[72.92648,22.42606],[72.9265,22.42516],[72.92701,22.42323],[72.92918,22.42338],[72.92975,22.42135],[72.93056,22.42046],[72.93158,22.41976],[72.93173,22.41941],[72.93162,22.41889],[72.93102,22.41855],[72.92924,22.41873],[72.92888,22.41856],[72.92881,22.4176],[72.92947,22.41457],[72.92919,22.41425],[72.92826,22.41379],[72.9271,22.41349],[72.92221,22.41267],[72.9192,22.41276],[72.91479,22.412],[72.9126,22.41193],[72.91296,22.40969],[72.91269,22.40962],[72.91285,22.40884],[72.90965,22.40846],[72.90738,22.40858],[72.90715,22.40882],[72.90812,22.41314],[72.90801,22.41378],[72.9076,22.41425],[72.90514,22.41569],[72.90557,22.41607],[72.90733,22.41683],[72.90793,22.41741],[72.911,22.41787],[72.91191,22.41767],[72.91233,22.41788],[72.91351,22.4175],[72.91353,22.41737],[72.91509,22.41659],[72.91571,22.41659],[72.91565,22.41788],[72.91491,22.41784],[72.91486,22.41883],[72.91522,22.41891],[72.91525,22.41922],[72.91515,22.42052],[72.91488,22.4209],[72.91482,22.42157],[72.91638,22.42162],[72.91682,22.4218],[72.91707,22.42155],[72.91761,22.42156],[72.91766,22.42178],[72.91892,22.42204],[72.91899,22.42181],[72.92034,22.42194],[72.9208,22.42228],[72.92187,22.42406],[72.92162,22.4249],[72.92164,22.42558],[72.92215,22.42592],[72.92216,22.42581],[72.92256,22.42596],[72.9225,22.42614],[72.92287,22.42625],[72.9227,22.42689],[72.92246,22.42709],[72.9234,22.42731],[72.92328,22.42787],[72.92364,22.42795],[72.92342,22.42856],[72.9237,22.42893],[72.92451,22.42921],[72.92427,22.42996],[72.9256,22.43001],[72.92556,22.43019],[72.92656,22.43059],[72.92685,22.43009],[72.92754,22.43031],[72.92766,22.42982],[72.9281,22.42935]]]}},{"type":"Feature","bbox":[72.89719,22.40778,72.90812,22.41941],"properties":{"ward":4,"name":"Brahmanvada Ward-4"},"geometry":{"type":"Polygon","coordinates":[[[72.89873,22.4194],[72.9076,22.41425],[72.90801,22.41378],[72.90812,22.41314],[72.90715,22.40882],[72.90661,22.4085],[72.90397,22.40862],[72.9021,22.40827],[72.90136,22.40844],[72.89925,22.40786],[72.89825,22.40778],[72.8983,22.40842],[72.89855,22.40864],[72.89886,22.40956],[72.89816,22.4096],[72.89799,22.41065],[72.89774,22.41086],[72.89719,22.41089],[72.89722,22.41174],[72.8994,22.4119],[72.8992,22.41283],[72.89927,22.41402],[72.89849,22.4167],[72.89814,22.41941],[72.89873,22.4194]]]}},{"type":"Feature","bbox":[72.89433,22.40296,72.90021,22.4118],"properties":{"ward":5,"name":"Tower Road"},"geometry":{"type":"Polygon","coordinates":[[[72.89881,22.41159],[72.89903,22.4118],[72.89928,22.40907],[72.89916,22.40785],[72.90021,22.40697],[72.90017,22.40642],[72.8997,22.40529],[72.89917,22.40455],[72.89836,22.40432],[72.89738,22.40377],[72.89646,22.40298],[72.89552,22.40296],[72.89433,22.40324],[72.8947,22.4093],[72.895,22.41106],[72.89539,22.41144],[72.89881,22.41159]]]}},{"type":"Feature","bbox":[72.85763,22.38776,72.89734,22.41072],"properties":{"ward":6,"name":"Townhall Vistar Ward-6"},"geometry":{"type":"Polygon","coordinates":[[[72.89565,22.41061],[72.8954,22.40905],[72.89492,22.40909],[72.89492,22.40558],[72.89621,22.40626],[72.89709,22.40524],[72.89734,22.40455],[72.89549,22.4045],[72.89554,22.40363],[72.89224,22.40202],[72.89029,22.40125],[72.88948,22.4],[72.88777,22.39941],[72.88165,22.39358],[72.8805,22.39224],[72.87985,22.39058],[72.87843,22.3892],[72.8765,22.38836],[72.87555,22.38797],[72.87497,22.38814],[72.87232,22.38776],[72.87169,22.38889],[72.8701,22.3888],[72.86961,22.38903],[72.86898,22.39042],[72.86806,22.39047],[72.86787,22.3906],[72.86755,22.39179],[72.86667,22.39189],[72.86629,22.39438],[72.86259,22.39286],[72.86116,22.39274],[72.86041,22.39279],[72.85871,22.39343],[72.85818,22.39448],[72.85763,22.39452],[72.85781,22.3957],[72.85803,22.39569],[72.85854,22.39609],[72.85845,22.39732],[72.85968,22.39753],[72.86498,22.3991],[72.86757,22.39938],[72.86771,22.3992],[72.86876,22.39913],[72.86959,22.39938],[72.86959,22.39956],[72.87059,22.40021],[72.87025,22.40119],[72.87096,22.40172],[72.87142,22.40272],[72.87166,22.4036],[72.87158,22.40547],[72.87194,22.40568],[72.87189,22.40598],[72.87298,22.40707],[72.87312,22.40702],[72.8735,22.41057],[72.87418,22.41029],[72.8758,22.41034],[72.8762,22.41001],[72.87719,22.40983],[72.87814,22.40926],[72.87888,22.4092],[72.87952,22.40885],[72.88107,22.40866],[72.88301,22.40879],[72.88521,22.4093],[72.88726,22.40946],[72.89017,22.41072],[72.8909,22.41071],[72.89308,22.41008],[72.89435,22.4107],[72.89565,22.41061]]]}},{"type":"Feature","bbox":[72.88635,22.37472,72.90177,22.4068],"properties":{"ward":7,"name":"Fatepur Ward-7"},"geometry":{"type":"Polygon","coordinates":[[[72.90046,22.40441],[72.89977,22.4043],[72.89955,22.40397],[72.89944,22.40353],[72.89997,22.40273],[72.89907,22.40265],[72.89877,22.4022],[72.89871,22.39951],[72.89856,22.39931],[72.89871,22.39826],[72.89942,22.39824],[72.89943,22.39841],[72.89964,22.39824],[72.90161,22.39806],[72.90128,22.39691],[72.90119,22.39541],[72.90142,22.3933],[72.90133,22.39212],[72.90177,22.38953],[72.90173,22.38674],[72.90131,22.38416],[72.90031,22.38013],[72.90018,22.37885],[72.89877,22.37843],[72.89836,22.37864],[72.89779,22.3785],[72.8962,22.37777],[72.89506,22.37774],[72.89387,22.37701],[72.8939,22.37574],[72.89349,22.37472],[72.8918,22.37506],[72.89251,22.37636],[72.89284,22.37823],[72.89272,22.37969],[72.89282,22.38172],[72.89253,22.38316],[72.89197,22.3832],[72.89168,22.38366],[72.89135,22.38363],[72.891,22.38439],[72.89081,22.38632],[72.89011,22.38614],[72.89005,22.38689],[72.88957,22.38779],[72.88956,22.38886],[72.88843,22.38887],[72.88832,22.38941],[72.88775,22.38937],[72.88772,22.38972],[72.8891,22.39109],[72.88919,22.39202],[72.88837,22.39191],[72.8883,22.3924],[72.88701,22.39225],[72.88663,22.3932],[72.88635,22.39348],[72.8868,22.39486],[72.88783,22.39633],[72.88897,22.39861],[72.88873,22.39976],[72.88948,22.4],[72.89029,22.40125],[72.89224,22.40202],[72.89554,22.40363],[72.89549,22.4045],[72.89734,22.40455],[72.89709,22.40524],[72.89621,22.40626],[72.89798,22.40648],[72.89827,22.40666],[72.90011,22.4068],[72.90029,22.40663],[72.90046,22.40441]]]}},{"type":"Feature","bbox":[72.89895,22.40351,72.90369,22.40805],"properties":{"ward":8,"name":"Rajafadi"},"geometry":{"type":"MultiPolygon","coordinates":[[[[72.89904,22.40434],[72.89906,22.40434],[72.89895,22.4043],[72.89904,22.40434]]],[[[72.89906,22.40434],[72.90003,22.40557],[72.90046,22.40705],[72.90116,22.40749],[72.90133,22.40794],[72.90237,22.40805],[72.90317,22.40746],[72.90352,22.40654],[72.9035,22.40454],[72.90369,22.40417],[72.90347,22.40351],[72.90066,22.40383],[72.89906,22.40434]]]]}},{"type":"Feature","bbox":[72.90337,22.39831,72.92404,22.40954],"properties":{"ward":9,"name":"Vaghavala"},"geometry":{"type":"Polygon","coordinates":[[[72.90727,22.40945],[72.90752,22.40931],[72.90756,22.40887],[72.90795,22.40854],[72.9089,22.40847],[72.90936,22.40848],[72.91004,22.40881],[72.9113,22.40858],[72.9127,22.40858],[72.9146,22.40891],[72.91528,22.40918],[72.91663,22.40911],[72.91747,22.40935],[72.91941,22.40903],[72.92082,22.40927],[72.92221,22.4093],[72.92285,22.40954],[72.92404,22.40941],[72.92372,22.4087],[72.92316,22.40824],[72.9223,22.40701],[72.92122,22.40446],[72.91921,22.39889],[72.9188,22.39846],[72.9183,22.39831],[72.91718,22.39871],[72.91619,22.39875],[72.91461,22.39939],[72.91228,22.40007],[72.90878,22.40082],[72.9072,22.4015],[72.90625,22.40237],[72.90499,22.40267],[72.90446,22.40306],[72.90423,22.40352],[72.90386,22.40553],[72.90385,22.40677],[72.90337,22.40761],[72.90337,22.40794],[72.9038,22.40859],[72.90605,22.40898],[72.90727,22.40945]]]}}]}