{"type":"FeatureCollection","features":[{"type":"Feature","bbox":[71.34498,20.85973,71.36502,20.86831],"properties":{"ward":1},"geometry":{"type":"Polygon","coordinates":[[[71.36205,20.8644],[71.36146,20.86356],[71.36103,20.8634],[71.36065,20.86284],[71.36023,20.86262],[71.36006,20.86334],[71.35921,20.86278],[71.35756,20.86215],[71.35711,20.86145],[71.35595,20.86107],[71.3558,20.8613],[71.35593,20.86149],[71.35562,20.86187],[71.35579,20.8621],[71.35632,20.86233],[71.35634,20.86262],[71.35597,20.86247],[71.35623,20.86335],[71.35587,20.86336],[71.35576,20.86354],[71.35489,20.86295],[71.3544,20.86322],[71.35321,20.86285],[71.35155,20.861],[71.35099,20.86142],[71.35173,20.86239],[71.35153,20.86254],[71.35042,20.86166],[71.3508,20.86115],[71.35134,20.86075],[71.35021,20.85983],[71.35004,20.85997],[71.3508,20.86083],[71.35056,20.86101],[71.35027,20.86096],[71.34965,20.86049],[71.34977,20.86081],[71.34976,20.86112],[71.34963,20.86115],[71.34858,20.8605],[71.34809,20.85982],[71.34766,20.85973],[71.34707,20.85986],[71.34741,20.86028],[71.34821,20.86081],[71.34859,20.86147],[71.34895,20.86166],[71.34855,20.86171],[71.34852,20.86191],[71.34901,20.86222],[71.34862,20.86281],[71.34955,20.86276],[71.35028,20.86358],[71.35019,20.8637],[71.34963,20.86334],[71.34949,20.86339],[71.3495,20.86362],[71.349,20.86367],[71.3482,20.86327],[71.34812,20.86274],[71.34747,20.86251],[71.34791,20.86227],[71.34801,20.8619],[71.34788,20.86169],[71.34733,20.86163],[71.34718,20.86194],[71.34695,20.86202],[71.34683,20.86172],[71.34602,20.86131],[71.34563,20.86067],[71.34531,20.86075],[71.34518,20.86095],[71.3457,20.86142],[71.34596,20.86204],[71.34704,20.86264],[71.34692,20.86281],[71.34581,20.8627],[71.34582,20.86291],[71.3466,20.86305],[71.34685,20.86316],[71.34681,20.86334],[71.34663,20.86373],[71.34615,20.86351],[71.34556,20.86394],[71.34519,20.864],[71.345,20.86414],[71.34498,20.86456],[71.34588,20.86444],[71.34604,20.86407],[71.34668,20.86419],[71.34691,20.86434],[71.34682,20.86453],[71.3472,20.865],[71.34787,20.86531],[71.34769,20.86646],[71.34598,20.86661],[71.34596,20.86676],[71.35267,20.86737],[71.3586,20.86831],[71.36257,20.86811],[71.36302,20.86768],[71.36438,20.868],[71.36502,20.86747],[71.36458,20.86717],[71.3645,20.86591],[71.36409,20.86636],[71.36364,20.86658],[71.36168,20.86463],[71.36205,20.8644]]]}},{"type":"Feature","bbox":[71.35851,20.86655,71.36854,20.87031],"properties":{"ward":2},"geometry":{"type":"Polygon","coordinates":[[[71.36854,20.86847],[71.36798,20.8676],[71.36773,20.86655],[71.36701,20.86658],[71.36648,20.86676],[71.36642,20.86695],[71.3658,20.86703],[71.36438,20.868],[71.36302,20.86768],[71.36257,20.86811],[71.35851,20.86829],[71.35851,20.86845],[71.364,20.86987],[71.36476,20.86994],[71.36532,20.87031],[71.36854,20.86847]]]}},{"type":"Feature","bbox":[71.36657,20.86995,71.37398,20.87504],"properties":{"ward":3},"geometry":{"type":"Polygon","coordinates":[[[71.37398,20.87359],[71.37318,20.87286],[71.37244,20.87364],[71.3718,20.87334],[71.37239,20.87277],[71.37136,20.87215],[71.37038,20.87119],[71.37007,20.87128],[71.3693,20.86995],[71.36761,20.87085],[71.36657,20.8717],[71.36778,20.87302],[71.36866,20.87361],[71.36994,20.87403],[71.37184,20.87504],[71.3723,20.87453],[71.37259,20.87376],[71.37338,20.87425],[71.37398,20.87359]],[[71.36793,20.87301],[71.36794,20.87302],[71.3679,20.87301],[71.36793,20.87301]]]}},{"type":"Feature","bbox":[71.3693,20.86876,71.37513,20.87364],"properties":{"ward":4},"geometry":{"type":"Polygon","coordinates":[[[71.37157,20.86902],[71.3693,20.86995],[71.37007,20.87128],[71.37038,20.87119],[71.37136,20.87215],[71.37239,20.87277],[71.3718,20.87334],[71.37244,20.87364],[71.37318,20.87286],[71.37398,20.87359],[71.37439,20.87314],[71.37493,20.87352],[71.37513,20.87332],[71.37423,20.87252],[71.375,20.87187],[71.37461,20.87133],[71.37497,20.87092],[71.37468,20.87055],[71.3741,20.86876],[71.3719,20.86963],[71.37157,20.86902]]]}},{"type":"Feature","bbox":[71.3645,20.86413,71.36773,20.86747],"properties":{"ward":5},"geometry":{"type":"Polygon","coordinates":[[[71.36658,20.86457],[71.36549,20.86458],[71.36547,20.86423],[71.36476,20.86413],[71.3645,20.86591],[71.36458,20.86717],[71.36502,20.86747],[71.3658,20.86703],[71.36642,20.86695],[71.36648,20.86676],[71.36701,20.86658],[71.36773,20.86655],[71.36765,20.86501],[71.36702,20.86497],[71.36701,20.86482],[71.3666,20.86479],[71.36658,20.86457]]]}},{"type":"Feature","bbox":[71.3575,20.86061,71.36832,20.86658],"properties":{"ward":6},"geometry":{"type":"Polygon","coordinates":[[[71.36449,20.8659],[71.36476,20.86413],[71.36547,20.86423],[71.36549,20.86458],[71.3662,20.86451],[71.36652,20.86361],[71.36678,20.86366],[71.36686,20.86403],[71.36785,20.86413],[71.36832,20.86314],[71.36756,20.86286],[71.36689,20.86229],[71.36593,20.86093],[71.36451,20.86061],[71.36423,20.86063],[71.36414,20.86088],[71.36434,20.86103],[71.36432,20.86148],[71.36525,20.86176],[71.36586,20.86241],[71.3657,20.86257],[71.36395,20.86272],[71.36345,20.86223],[71.36331,20.8623],[71.36281,20.86206],[71.36251,20.86234],[71.36136,20.86174],[71.36119,20.862],[71.36055,20.86197],[71.35987,20.86143],[71.35976,20.86173],[71.3594,20.8616],[71.35892,20.86111],[71.35838,20.86095],[71.35846,20.86119],[71.3583,20.86123],[71.35851,20.86165],[71.35796,20.86164],[71.3575,20.86195],[71.35756,20.86215],[71.358,20.8624],[71.3592,20.86278],[71.36006,20.86334],[71.36022,20.86262],[71.36064,20.86284],[71.36103,20.8634],[71.36145,20.86356],[71.36183,20.86402],[71.36205,20.8644],[71.36168,20.86463],[71.36363,20.86658],[71.36409,20.86636],[71.36449,20.8659]]]}},{"type":"Feature","bbox":[71.3662,20.85698,71.3767,20.86847],"properties":{"ward":7},"geometry":{"type":"Polygon","coordinates":[[[71.36833,20.86314],[71.36786,20.86413],[71.36687,20.86403],[71.36679,20.86366],[71.36653,20.86361],[71.3662,20.86451],[71.36658,20.86457],[71.3666,20.86479],[71.36701,20.86482],[71.36702,20.86497],[71.36765,20.86501],[71.36773,20.86655],[71.36798,20.8676],[71.36854,20.86847],[71.37076,20.86751],[71.37064,20.86729],[71.37019,20.86747],[71.36984,20.86712],[71.37064,20.86643],[71.37113,20.86636],[71.37135,20.86571],[71.37185,20.86536],[71.37143,20.86496],[71.37231,20.86387],[71.37245,20.86386],[71.37305,20.86295],[71.37469,20.86149],[71.3767,20.86008],[71.37514,20.85887],[71.37471,20.85879],[71.37293,20.85781],[71.3727,20.85817],[71.37223,20.85789],[71.37234,20.85755],[71.37085,20.85698],[71.37049,20.85705],[71.36988,20.85863],[71.36988,20.85932],[71.36976,20.85944],[71.36956,20.85925],[71.36916,20.85954],[71.36967,20.86027],[71.36951,20.86047],[71.36938,20.86028],[71.36877,20.86007],[71.369,20.86037],[71.36864,20.86111],[71.36881,20.86172],[71.36837,20.86169],[71.36837,20.86221],[71.3682,20.86251],[71.36837,20.8628],[71.3686,20.86285],[71.36861,20.86326],[71.36833,20.86314]]]}}]}