{"type":"FeatureCollection","features":[{"type":"Feature","bbox":[71.4907,21.69463,71.51752,21.71535],"properties":{"ward":1},"geometry":{"type":"Polygon","coordinates":[[[71.51257,21.69463],[71.50936,21.6947],[71.50857,21.6956],[71.50677,21.69595],[71.50392,21.69609],[71.4962,21.69534],[71.49586,21.69685],[71.49658,21.69769],[71.49591,21.69811],[71.49604,21.69992],[71.49736,21.69998],[71.49738,21.70073],[71.49801,21.70105],[71.49808,21.70169],[71.4978,21.70273],[71.4981,21.70275],[71.49755,21.70465],[71.49576,21.70437],[71.49497,21.70601],[71.49445,21.7067],[71.49497,21.70676],[71.49563,21.7072],[71.49456,21.70896],[71.49353,21.70876],[71.49351,21.70948],[71.49317,21.70943],[71.4907,21.71034],[71.49088,21.71419],[71.49271,21.71408],[71.49366,21.71319],[71.49554,21.71349],[71.49549,21.71535],[71.49882,21.71527],[71.49892,21.71486],[71.50325,21.71459],[71.50594,21.71523],[71.50635,21.71468],[71.50775,21.71508],[71.51059,21.70731],[71.51133,21.70574],[71.51156,21.70578],[71.51279,21.70314],[71.51372,21.70181],[71.51375,21.69844],[71.51582,21.6982],[71.51611,21.6955],[71.51648,21.69553],[71.51681,21.69696],[71.51752,21.69684],[71.51733,21.69543],[71.51703,21.69542],[71.5171,21.69493],[71.51325,21.69481],[71.51257,21.69463]]]}},{"type":"Feature","bbox":[71.50775,21.69387,71.52007,21.71542],"properties":{"ward":2},"geometry":{"type":"Polygon","coordinates":[[[71.50939,21.71542],[71.50974,21.71423],[71.5118,21.71446],[71.51216,21.71321],[71.51353,21.71342],[71.51609,21.7143],[71.5187,21.71455],[71.5184,21.71192],[71.519,21.70564],[71.51925,21.70445],[71.51939,21.70442],[71.52007,21.70108],[71.51845,21.70105],[71.51791,21.69667],[71.51747,21.69601],[71.51734,21.69494],[71.51883,21.69424],[71.51748,21.69387],[71.51711,21.69418],[71.51703,21.69542],[71.51733,21.69543],[71.51752,21.69684],[71.51681,21.69696],[71.51648,21.69553],[71.51611,21.6955],[71.51582,21.6982],[71.51375,21.69844],[71.51372,21.70181],[71.51279,21.70314],[71.51156,21.70578],[71.51133,21.70574],[71.51059,21.70731],[71.50775,21.71508],[71.50939,21.71542]]]}},{"type":"Feature","bbox":[71.51503,21.69309,71.54838,21.72661],"properties":{"ward":3},"geometry":{"type":"Polygon","coordinates":[[[71.5171,21.69493],[71.51711,21.69418],[71.51748,21.69387],[71.51883,21.69424],[71.51734,21.69494],[71.51747,21.69601],[71.51791,21.69667],[71.51845,21.70105],[71.52007,21.70108],[71.51939,21.70442],[71.51925,21.70445],[71.519,21.70564],[71.5184,21.71192],[71.51849,21.7133],[71.51946,21.71343],[71.51949,21.71294],[71.52274,21.71332],[71.52571,21.71331],[71.5254,21.7148],[71.52715,21.71489],[71.5267,21.71928],[71.52682,21.72256],[71.5285,21.72296],[71.529,21.72229],[71.53259,21.72307],[71.53276,21.7232],[71.53243,21.72523],[71.53375,21.72569],[71.53432,21.72568],[71.53609,21.72661],[71.53647,21.72177],[71.53689,21.71959],[71.53976,21.72048],[71.54084,21.71795],[71.5398,21.71714],[71.54037,21.71574],[71.54196,21.71678],[71.5427,21.7155],[71.54317,21.71589],[71.54336,21.71569],[71.5442,21.71585],[71.54454,21.71492],[71.54577,21.71559],[71.546,21.71523],[71.54689,21.71543],[71.54813,21.71234],[71.54654,21.71209],[71.54838,21.70623],[71.54595,21.70591],[71.546,21.705],[71.54465,21.70488],[71.54483,21.70369],[71.54435,21.70352],[71.5445,21.70299],[71.54422,21.70285],[71.54456,21.70109],[71.5446,21.69897],[71.54418,21.69807],[71.54392,21.69765],[71.53972,21.69635],[71.53713,21.69573],[71.52916,21.69475],[71.52561,21.69494],[71.52324,21.69487],[71.52324,21.69468],[71.51938,21.69434],[71.51944,21.69332],[71.51724,21.69309],[71.51726,21.69386],[71.51695,21.69401],[71.51512,21.6941],[71.51503,21.69475],[71.5171,21.69493]]]}},{"type":"Feature","bbox":[71.49265,21.68354,71.51572,21.69605],"properties":{"ward":4},"geometry":{"type":"Polygon","coordinates":[[[71.50936,21.6947],[71.51257,21.69463],[71.51325,21.69481],[71.51571,21.69488],[71.51572,21.69472],[71.51479,21.69468],[71.5142,21.69428],[71.51411,21.69377],[71.51442,21.69371],[71.51436,21.69301],[71.51449,21.69281],[71.51504,21.6926],[71.51477,21.69213],[71.51477,21.69174],[71.51373,21.69183],[71.51388,21.69054],[71.51266,21.68999],[71.51261,21.68886],[71.50818,21.68812],[71.5067,21.68736],[71.50681,21.68712],[71.50008,21.68375],[71.49925,21.68354],[71.49873,21.68522],[71.49624,21.68455],[71.49557,21.68747],[71.49486,21.68741],[71.49345,21.68685],[71.49265,21.68836],[71.49343,21.68862],[71.49307,21.69195],[71.49465,21.69265],[71.4952,21.6931],[71.49552,21.69378],[71.49648,21.69417],[71.49622,21.69534],[71.50319,21.69605],[71.50574,21.696],[71.50857,21.6956],[71.50936,21.6947]]]}},{"type":"Feature","bbox":[71.51246,21.68833,71.52022,21.69371],"properties":{"ward":5},"geometry":{"type":"Polygon","coordinates":[[[71.51266,21.68999],[71.51388,21.69054],[71.51373,21.69183],[71.51477,21.69174],[71.51477,21.69213],[71.51504,21.6926],[71.51449,21.69281],[71.51436,21.69301],[71.51442,21.69371],[71.51567,21.69367],[71.51571,21.69331],[71.51526,21.69318],[71.51538,21.69199],[71.5172,21.69182],[71.51883,21.69254],[71.51975,21.69265],[71.52022,21.69189],[71.51882,21.69169],[71.518,21.69069],[71.51663,21.69025],[71.51539,21.68867],[71.51251,21.68833],[71.51246,21.68884],[71.51261,21.68886],[71.51274,21.68962],[71.51266,21.68999]]]}},{"type":"Feature","bbox":[71.50011,21.6579,71.54392,21.69765],"properties":{"ward":6},"geometry":{"type":"Polygon","coordinates":[[[71.50011,21.68378],[71.50681,21.68712],[71.5067,21.68736],[71.50818,21.68812],[71.51246,21.68884],[71.51251,21.68833],[71.51539,21.68867],[71.51663,21.69025],[71.518,21.69069],[71.51882,21.69169],[71.52022,21.69189],[71.51975,21.69265],[71.51883,21.69254],[71.5172,21.69182],[71.51538,21.69199],[71.51526,21.69318],[71.51571,21.69331],[71.51567,21.69367],[71.51411,21.69377],[71.5142,21.69428],[71.51479,21.69468],[71.51503,21.69475],[71.51512,21.6941],[71.51686,21.69404],[71.51726,21.69386],[71.51724,21.69309],[71.51944,21.69332],[71.51938,21.69434],[71.52324,21.69468],[71.52324,21.69487],[71.52561,21.69494],[71.52916,21.69475],[71.53713,21.69573],[71.53972,21.69635],[71.54392,21.69765],[71.54331,21.69664],[71.54331,21.6961],[71.54306,21.69521],[71.54254,21.69423],[71.54263,21.6941],[71.54176,21.6931],[71.54016,21.69291],[71.53877,21.69225],[71.53819,21.69215],[71.53738,21.69265],[71.53646,21.69295],[71.53436,21.69204],[71.53029,21.69074],[71.52952,21.68761],[71.52763,21.68703],[71.5275,21.68623],[71.5267,21.68576],[71.52633,21.68505],[71.52631,21.68482],[71.53159,21.68067],[71.53294,21.67994],[71.53398,21.67882],[71.53726,21.67436],[71.53842,21.67205],[71.53962,21.67051],[71.53521,21.6686],[71.53442,21.67097],[71.53299,21.67025],[71.53448,21.6646],[71.53553,21.6619],[71.53628,21.65938],[71.53636,21.65849],[71.53527,21.65849],[71.53253,21.6579],[71.53228,21.65996],[71.5312,21.66429],[71.52822,21.6636],[71.52838,21.66503],[71.52654,21.66551],[71.52732,21.6659],[71.52761,21.66621],[71.52705,21.66708],[71.52648,21.66677],[71.52563,21.66911],[71.52495,21.67022],[71.52331,21.66969],[71.52292,21.67066],[71.52173,21.6703],[71.52091,21.67042],[71.52026,21.67023],[71.51984,21.6719],[71.52098,21.67228],[71.52073,21.6732],[71.51876,21.67254],[71.51881,21.67226],[71.51846,21.67219],[71.51844,21.67196],[71.51585,21.67164],[71.51548,21.66846],[71.51525,21.66775],[71.5134,21.66713],[71.51237,21.66698],[71.51226,21.66729],[71.51254,21.67003],[71.51287,21.67133],[71.51376,21.67815],[71.5113,21.67986],[71.50783,21.68187],[71.50662,21.68196],[71.50649,21.68317],[71.50315,21.68285],[71.50285,21.68384],[71.50411,21.68415],[71.5037,21.68537],[71.50181,21.68459],[71.50195,21.6843],[71.50011,21.68378]]]}}]}