{"type":"FeatureCollection","features":[{"type":"Feature","bbox":[72.83077,22.69204,72.85314,22.70838],"properties":{"ward":1},"geometry":{"type":"Polygon","coordinates":[[[72.84473,22.70838],[72.85314,22.69823],[72.85057,22.69809],[72.84708,22.6975],[72.8464,22.69718],[72.84628,22.6968],[72.84583,22.69653],[72.84418,22.69618],[72.84287,22.69552],[72.843,22.69494],[72.84226,22.69466],[72.84226,22.69449],[72.84055,22.69397],[72.83932,22.69334],[72.83839,22.69339],[72.83738,22.69313],[72.83706,22.69266],[72.83431,22.69204],[72.83118,22.69572],[72.83077,22.6969],[72.83091,22.69759],[72.83418,22.6998],[72.83573,22.70222],[72.83606,22.70252],[72.83788,22.70252],[72.8392,22.70277],[72.84041,22.70342],[72.84118,22.70419],[72.84197,22.7046],[72.84205,22.70489],[72.84374,22.70581],[72.84439,22.70709],[72.84473,22.70838]]]}},{"type":"Feature","bbox":[72.84476,22.69428,72.86259,22.71373],"properties":{"ward":2},"geometry":{"type":"Polygon","coordinates":[[[72.85543,22.69569],[72.84476,22.70847],[72.84513,22.70916],[72.84537,22.70943],[72.8468,22.71002],[72.84742,22.71002],[72.8497,22.71055],[72.84994,22.71111],[72.84947,22.7115],[72.84942,22.71201],[72.84993,22.71293],[72.85033,22.71297],[72.85157,22.71362],[72.85235,22.71373],[72.85444,22.7129],[72.85463,22.71276],[72.85517,22.71152],[72.85545,22.70911],[72.85394,22.70762],[72.8549,22.70664],[72.85417,22.70601],[72.85594,22.70381],[72.85737,22.70418],[72.85789,22.70367],[72.85785,22.70349],[72.85674,22.70264],[72.85794,22.70066],[72.85915,22.69912],[72.86116,22.70004],[72.86228,22.69882],[72.86259,22.6974],[72.86145,22.69707],[72.86126,22.69664],[72.86022,22.69614],[72.86005,22.69443],[72.85947,22.69428],[72.85851,22.6959],[72.85752,22.69647],[72.85643,22.69778],[72.85604,22.69594],[72.85543,22.69569]]]}},{"type":"Feature","bbox":[72.85403,22.69919,72.863,22.71318],"properties":{"ward":3,"name":"S.R.P.Camp"},"geometry":{"type":"MultiPolygon","coordinates":[[[[72.85427,22.70599],[72.85427,22.70598],[72.85427,22.70597],[72.85427,22.70599]]],[[[72.85427,22.70598],[72.85499,22.70662],[72.85403,22.70764],[72.85551,22.70908],[72.85524,22.71154],[72.85472,22.71275],[72.8555,22.71289],[72.85821,22.7129],[72.85874,22.71318],[72.85938,22.71317],[72.86064,22.71189],[72.86106,22.71213],[72.863,22.71245],[72.86213,22.71048],[72.85813,22.70401],[72.85842,22.70401],[72.86,22.70134],[72.86116,22.70025],[72.86107,22.70007],[72.85916,22.69919],[72.858,22.70069],[72.85684,22.7026],[72.85791,22.70345],[72.85796,22.70369],[72.85739,22.70426],[72.85596,22.70389],[72.85512,22.70476],[72.85427,22.70598]]]]}},{"type":"Feature","bbox":[72.85815,22.70008,72.86893,22.71936],"properties":{"ward":4,"name":"Manoharnagar"},"geometry":{"type":"Polygon","coordinates":[[[72.86728,22.71853],[72.86748,22.71604],[72.8678,22.71439],[72.86874,22.71373],[72.86893,22.71374],[72.86824,22.71053],[72.86821,22.7099],[72.8685,22.70987],[72.86838,22.70901],[72.86813,22.70902],[72.86804,22.70636],[72.86708,22.70631],[72.86676,22.70467],[72.86652,22.70465],[72.86598,22.70264],[72.8636,22.70262],[72.86339,22.70054],[72.86122,22.70008],[72.86001,22.70134],[72.85842,22.70403],[72.85815,22.70403],[72.86215,22.71047],[72.86303,22.71248],[72.86106,22.71215],[72.86064,22.71191],[72.85939,22.71318],[72.86082,22.71381],[72.86149,22.71427],[72.86184,22.71475],[72.86093,22.7163],[72.86189,22.7169],[72.86303,22.71711],[72.86556,22.71889],[72.86695,22.71936],[72.86728,22.71853]]]}},{"type":"Feature","bbox":[72.86122,22.69688,72.87626,22.7189],"properties":{"ward":5,"name":"Amdawadi Darwaja"},"geometry":{"type":"Polygon","coordinates":[[[72.87134,22.70505],[72.87136,22.70451],[72.87111,22.70456],[72.87034,22.70377],[72.86998,22.70292],[72.86938,22.70253],[72.86931,22.70167],[72.86824,22.70163],[72.86777,22.7009],[72.86721,22.69981],[72.86746,22.69907],[72.86703,22.69815],[72.86698,22.69708],[72.86516,22.69746],[72.86343,22.69722],[72.86321,22.69688],[72.86266,22.69739],[72.86233,22.69885],[72.86122,22.70006],[72.8634,22.70052],[72.86361,22.7026],[72.86599,22.70263],[72.86653,22.70463],[72.86677,22.70466],[72.86709,22.7063],[72.86802,22.70628],[72.86807,22.70642],[72.86814,22.709],[72.86839,22.709],[72.86851,22.70988],[72.86822,22.70991],[72.86824,22.71037],[72.86895,22.71376],[72.86875,22.71375],[72.86781,22.7144],[72.86749,22.71605],[72.86736,22.71827],[72.86938,22.71829],[72.86976,22.71851],[72.87057,22.71839],[72.87264,22.71882],[72.87415,22.7189],[72.87594,22.7185],[72.87626,22.71658],[72.87579,22.71507],[72.87607,22.71438],[72.87565,22.71259],[72.875,22.71256],[72.87482,22.71201],[72.87452,22.71192],[72.87443,22.71164],[72.87374,22.71096],[72.87393,22.71075],[72.87383,22.71061],[72.87346,22.71062],[72.87324,22.70864],[72.87256,22.70634],[72.87216,22.70646],[72.87181,22.70544],[72.87134,22.70505]]]}},{"type":"Feature","bbox":[72.86703,22.69565,72.89307,22.71451],"properties":{"ward":6,"name":"Malarpura"},"geometry":{"type":"Polygon","coordinates":[[[72.88088,22.71064],[72.88136,22.71049],[72.88229,22.70978],[72.88281,22.70918],[72.88391,22.7086],[72.88533,22.70837],[72.88599,22.70851],[72.88823,22.70763],[72.88921,22.7076],[72.89038,22.70729],[72.89173,22.70603],[72.89307,22.70441],[72.89306,22.70423],[72.89088,22.70364],[72.89052,22.70323],[72.8897,22.70313],[72.88975,22.7028],[72.88929,22.70255],[72.88868,22.70245],[72.88845,22.70272],[72.88564,22.70172],[72.88561,22.7014],[72.88414,22.70088],[72.88426,22.70039],[72.88324,22.70002],[72.88328,22.69974],[72.8819,22.69936],[72.88175,22.69967],[72.88119,22.6994],[72.88125,22.69926],[72.87986,22.69881],[72.87657,22.6984],[72.87636,22.69828],[72.87666,22.69691],[72.87652,22.69655],[72.87471,22.69641],[72.87309,22.69656],[72.87264,22.69636],[72.87256,22.69565],[72.87024,22.69568],[72.86703,22.69709],[72.86705,22.69813],[72.8675,22.69906],[72.86726,22.69982],[72.86781,22.70089],[72.86826,22.7016],[72.86933,22.70165],[72.86941,22.70251],[72.87001,22.70291],[72.87037,22.70374],[72.87111,22.70453],[72.87139,22.70448],[72.87138,22.70503],[72.87184,22.70543],[72.87218,22.70641],[72.87257,22.7063],[72.87326,22.70864],[72.87349,22.71059],[72.87383,22.71056],[72.87398,22.71075],[72.8738,22.71097],[72.87446,22.71161],[72.87454,22.71189],[72.87485,22.71199],[72.87503,22.71253],[72.87568,22.71256],[72.87607,22.71451],[72.87787,22.71365],[72.87875,22.71272],[72.87915,22.71255],[72.8799,22.71171],[72.88041,22.71141],[72.88088,22.71064]]]}},{"type":"Feature","bbox":[72.86323,22.69295,72.90343,22.70451],"properties":{"ward":7,"name":"Vahorvad"},"geometry":{"type":"Polygon","coordinates":[[[72.8909,22.70362],[72.89309,22.70422],[72.89312,22.70451],[72.89343,22.70441],[72.89574,22.7026],[72.89616,22.70191],[72.89665,22.70159],[72.89711,22.70158],[72.89782,22.70185],[72.89916,22.70255],[72.90002,22.70242],[72.90182,22.70113],[72.90267,22.70019],[72.90343,22.69894],[72.90207,22.69843],[72.90211,22.69831],[72.90121,22.69774],[72.89993,22.69726],[72.89857,22.69707],[72.89383,22.69486],[72.88961,22.69572],[72.88961,22.6955],[72.88749,22.69477],[72.88643,22.69485],[72.88473,22.69455],[72.88417,22.6946],[72.88322,22.69431],[72.88302,22.69447],[72.88126,22.69432],[72.88118,22.69405],[72.87669,22.694],[72.87549,22.69417],[72.87454,22.69455],[72.87422,22.69425],[72.87292,22.69386],[72.87216,22.69382],[72.86967,22.69295],[72.86761,22.69373],[72.86711,22.6942],[72.86618,22.69423],[72.86539,22.69388],[72.86476,22.69429],[72.86366,22.69416],[72.86341,22.69373],[72.86323,22.69377],[72.86334,22.69628],[72.86323,22.69686],[72.86345,22.6972],[72.86517,22.69744],[72.86744,22.69696],[72.86887,22.69618],[72.87024,22.69566],[72.87259,22.69561],[72.87266,22.69634],[72.8731,22.69654],[72.87471,22.69639],[72.87655,22.69652],[72.87668,22.69691],[72.87639,22.69826],[72.87658,22.69837],[72.87987,22.69878],[72.8813,22.69924],[72.8812,22.69937],[72.88174,22.6996],[72.88185,22.69932],[72.88332,22.69973],[72.88327,22.7],[72.88429,22.70037],[72.88417,22.70087],[72.88564,22.70139],[72.88567,22.7017],[72.88844,22.70268],[72.88866,22.70241],[72.88931,22.70252],[72.88978,22.70278],[72.88973,22.7031],[72.89056,22.70321],[72.8909,22.70362]]]}},{"type":"Feature","bbox":[72.85545,22.68196,72.86969,22.69772],"properties":{"ward":8},"geometry":{"type":"Polygon","coordinates":[[[72.85645,22.69772],[72.85751,22.69643],[72.85849,22.69587],[72.85945,22.69424],[72.86007,22.69441],[72.86025,22.69613],[72.86128,22.69663],[72.86147,22.69705],[72.86264,22.69738],[72.86322,22.69683],[72.86333,22.69629],[72.86321,22.69375],[72.86342,22.69372],[72.86367,22.69414],[72.86476,22.69428],[72.86539,22.69387],[72.86617,22.69421],[72.8671,22.69418],[72.8676,22.69372],[72.86969,22.69292],[72.86942,22.69266],[72.86917,22.69268],[72.86916,22.6905],[72.86669,22.68989],[72.86616,22.69042],[72.86622,22.69063],[72.86557,22.69115],[72.86441,22.69121],[72.86391,22.69051],[72.8644,22.68965],[72.86435,22.68926],[72.86486,22.68802],[72.86542,22.68717],[72.86567,22.68718],[72.86595,22.68682],[72.86602,22.68405],[72.8667,22.68259],[72.86671,22.68196],[72.85545,22.69562],[72.85607,22.69591],[72.85645,22.69772]]]}},{"type":"Feature","bbox":[72.83474,22.6853,72.85786,22.69821],"properties":{"ward":9},"geometry":{"type":"Polygon","coordinates":[[[72.85322,22.69821],[72.85786,22.69267],[72.8533,22.69143],[72.85026,22.6912],[72.85101,22.68802],[72.84771,22.68727],[72.84449,22.68624],[72.83912,22.6853],[72.83875,22.68636],[72.83873,22.68692],[72.83818,22.68805],[72.83538,22.69094],[72.83474,22.69204],[72.8361,22.6925],[72.83709,22.69262],[72.8374,22.6931],[72.8384,22.69337],[72.83931,22.6933],[72.84055,22.69393],[72.84231,22.69448],[72.84231,22.69465],[72.84306,22.6949],[72.8429,22.6955],[72.84446,22.69622],[72.84584,22.69649],[72.84633,22.69678],[72.84645,22.69716],[72.84711,22.69747],[72.85056,22.69804],[72.85322,22.69821]]]}},{"type":"Feature","bbox":[72.83901,22.67735,72.86067,22.69265],"properties":{"ward":10,"name":"Petlad Road"},"geometry":{"type":"Polygon","coordinates":[[[72.83901,22.6848],[72.83912,22.68528],[72.84449,22.68623],[72.84771,22.68725],[72.85103,22.68801],[72.85029,22.6912],[72.8533,22.69142],[72.85785,22.69265],[72.86067,22.68924],[72.8602,22.68887],[72.86021,22.68863],[72.85953,22.68755],[72.85851,22.6868],[72.85797,22.6861],[72.85653,22.68498],[72.85586,22.68467],[72.85428,22.68316],[72.85306,22.6817],[72.85204,22.68118],[72.85117,22.67961],[72.85143,22.67892],[72.85049,22.67827],[72.84991,22.67744],[72.84668,22.67735],[72.84554,22.67787],[72.84323,22.67787],[72.8421,22.67821],[72.84071,22.68005],[72.84001,22.68172],[72.83901,22.6848]]]}},{"type":"Feature","bbox":[72.85003,22.66166,72.88148,22.68917],"properties":{"ward":11,"name":"Mai Mandir Road"},"geometry":{"type":"Polygon","coordinates":[[[72.86067,22.68917],[72.87567,22.67115],[72.88148,22.66385],[72.87804,22.66166],[72.87503,22.66192],[72.87395,22.66233],[72.87216,22.66357],[72.87075,22.66485],[72.86874,22.66751],[72.86768,22.66971],[72.86721,22.66997],[72.86581,22.67007],[72.86566,22.6704],[72.86597,22.67134],[72.86597,22.67187],[72.86531,22.67258],[72.86484,22.67292],[72.86255,22.67366],[72.86184,22.67459],[72.86129,22.67488],[72.86054,22.67475],[72.86044,22.67418],[72.86063,22.67342],[72.86064,22.67137],[72.86091,22.67019],[72.86143,22.66933],[72.86178,22.66825],[72.86178,22.66751],[72.86127,22.66651],[72.85992,22.66525],[72.85718,22.66467],[72.85551,22.66448],[72.85536,22.66463],[72.85525,22.66565],[72.85464,22.66694],[72.85486,22.66882],[72.85467,22.67047],[72.85356,22.67299],[72.85322,22.6743],[72.85373,22.67519],[72.85368,22.67643],[72.85264,22.67737],[72.85211,22.67752],[72.85003,22.6775],[72.85079,22.67849],[72.85149,22.67888],[72.85123,22.67962],[72.85207,22.68115],[72.85333,22.68188],[72.85431,22.68312],[72.85586,22.68463],[72.8565,22.68492],[72.85798,22.68603],[72.85854,22.68677],[72.85956,22.68751],[72.86025,22.68861],[72.86025,22.68885],[72.86067,22.68917]]]}},{"type":"Feature","bbox":[72.864,22.66386,72.88841,22.69117],"properties":{"ward":12,"name":"Swaminarayan Mandir"},"geometry":{"type":"Polygon","coordinates":[[[72.86401,22.69067],[72.86442,22.69117],[72.86557,22.69113],[72.86619,22.69062],[72.86613,22.69041],[72.86668,22.68987],[72.86919,22.6905],[72.8705,22.68973],[72.87138,22.68942],[72.87329,22.68792],[72.87504,22.6862],[72.87569,22.68512],[72.8759,22.68519],[72.87655,22.68476],[72.87693,22.68429],[72.87878,22.68118],[72.88002,22.67871],[72.88027,22.67834],[72.88062,22.67817],[72.88086,22.67742],[72.88206,22.67527],[72.88215,22.67467],[72.88512,22.6723],[72.88841,22.6689],[72.88759,22.66876],[72.88717,22.66896],[72.88611,22.66895],[72.88516,22.66866],[72.88454,22.66771],[72.8834,22.66645],[72.88301,22.66489],[72.8815,22.66386],[72.87569,22.67117],[72.86673,22.68196],[72.86672,22.68259],[72.86631,22.68329],[72.86598,22.68449],[72.86597,22.68683],[72.86568,22.6872],[72.86543,22.68719],[72.86488,22.68803],[72.86438,22.68925],[72.86442,22.68966],[72.864,22.69029],[72.86401,22.69067]]]}},{"type":"Feature","bbox":[72.86919,22.66892,72.90347,22.69892],"properties":{"ward":13,"name":"Mahagujarat Hospital"},"geometry":{"type":"Polygon","coordinates":[[[72.87187,22.68927],[72.86921,22.69057],[72.86919,22.69263],[72.8719,22.69372],[72.87292,22.69383],[72.87425,22.69423],[72.87454,22.69452],[72.87549,22.69415],[72.87671,22.69398],[72.8812,22.69403],[72.88127,22.6943],[72.88301,22.69444],[72.88321,22.69429],[72.88417,22.69457],[72.88474,22.69453],[72.88642,22.69484],[72.88751,22.69475],[72.889,22.6952],[72.88962,22.69549],[72.88963,22.69569],[72.89383,22.69484],[72.89857,22.69704],[72.89995,22.69723],[72.90122,22.69771],[72.90214,22.6983],[72.9021,22.69842],[72.90343,22.69892],[72.90347,22.69836],[72.90326,22.69761],[72.90208,22.69579],[72.90139,22.69417],[72.89943,22.68737],[72.89932,22.6838],[72.89854,22.68283],[72.89815,22.68185],[72.89723,22.68065],[72.8967,22.67878],[72.89673,22.67819],[72.89711,22.67785],[72.89815,22.67717],[72.89899,22.67684],[72.89926,22.67651],[72.89937,22.67598],[72.89905,22.67467],[72.89911,22.67421],[72.89938,22.6739],[72.90108,22.67379],[72.90107,22.67296],[72.90147,22.67173],[72.90155,22.67093],[72.90129,22.67063],[72.89919,22.67073],[72.89769,22.67166],[72.89439,22.67177],[72.89315,22.6713],[72.89175,22.67034],[72.88842,22.66892],[72.88504,22.6724],[72.88217,22.67468],[72.88208,22.67526],[72.88088,22.67743],[72.88064,22.67819],[72.88013,22.67859],[72.87689,22.68439],[72.87591,22.68522],[72.87571,22.68515],[72.87553,22.68568],[72.87459,22.68674],[72.87187,22.68927]]]}}]}