{"type":"FeatureCollection","features":[{"type":"Feature","bbox":[70.08422,21.11442,70.11428,21.13468],"properties":{"ward":1,"name":"Shakti Nagar"},"geometry":{"type":"Polygon","coordinates":[[[70.10577,21.13449],[70.10575,21.13468],[70.10672,21.13418],[70.10995,21.13424],[70.11311,21.13353],[70.11358,21.13178],[70.11395,21.13174],[70.1142,21.1315],[70.11428,21.13028],[70.11337,21.13019],[70.11338,21.1287],[70.11155,21.12856],[70.112,21.12785],[70.11205,21.12729],[70.11174,21.12691],[70.11192,21.12647],[70.11135,21.12639],[70.11124,21.12617],[70.11156,21.12498],[70.11214,21.12507],[70.11274,21.12542],[70.1131,21.1254],[70.11137,21.12404],[70.11166,21.12361],[70.11193,21.12353],[70.11181,21.12323],[70.11189,21.1227],[70.11204,21.12233],[70.11221,21.12232],[70.11233,21.12137],[70.11256,21.12137],[70.11276,21.12093],[70.11292,21.12002],[70.11247,21.12128],[70.11227,21.12134],[70.11225,21.1215],[70.11178,21.12157],[70.11044,21.12158],[70.10838,21.12196],[70.10849,21.12139],[70.10678,21.12116],[70.10585,21.12123],[70.10366,21.12205],[70.10165,21.12168],[70.10024,21.12123],[70.09848,21.12041],[70.09811,21.12041],[70.09572,21.11932],[70.09557,21.119],[70.09573,21.11868],[70.09519,21.11837],[70.09469,21.11853],[70.09299,21.11762],[70.09354,21.11673],[70.09324,21.11656],[70.09312,21.11562],[70.09174,21.11442],[70.08425,21.12145],[70.08422,21.12208],[70.08876,21.12448],[70.08859,21.12496],[70.091,21.12604],[70.09205,21.12674],[70.09371,21.12725],[70.09392,21.12715],[70.09605,21.1285],[70.0968,21.12866],[70.09699,21.12978],[70.09739,21.13029],[70.09886,21.12966],[70.10172,21.13118],[70.10162,21.13201],[70.10276,21.13235],[70.10255,21.13332],[70.10261,21.13363],[70.10364,21.13378],[70.10368,21.13432],[70.10386,21.13449],[70.10488,21.13361],[70.10555,21.13374],[70.10549,21.1345],[70.10577,21.13449]]]}},{"type":"Feature","bbox":[70.1111,21.12317,70.12624,21.13589],"properties":{"ward":2,"name":"Bhavani Nagar"},"geometry":{"type":"Polygon","coordinates":[[[70.11682,21.12434],[70.11556,21.12455],[70.11462,21.12439],[70.1143,21.12447],[70.11408,21.12517],[70.11418,21.12562],[70.11408,21.12583],[70.11156,21.12498],[70.11124,21.12617],[70.11135,21.12639],[70.11192,21.12647],[70.11174,21.12691],[70.11205,21.12729],[70.112,21.12785],[70.11155,21.12856],[70.11338,21.1287],[70.11337,21.13019],[70.11428,21.13028],[70.1142,21.1315],[70.11395,21.13174],[70.11358,21.13178],[70.11311,21.13353],[70.1111,21.13401],[70.11144,21.13428],[70.11398,21.13503],[70.11428,21.1355],[70.11513,21.1357],[70.11522,21.13553],[70.11714,21.13589],[70.11734,21.13582],[70.11721,21.13493],[70.11704,21.13466],[70.11832,21.1347],[70.12042,21.13423],[70.11968,21.13232],[70.1201,21.13189],[70.12057,21.13173],[70.1206,21.13142],[70.12107,21.13132],[70.12206,21.13181],[70.12241,21.1306],[70.1232,21.12939],[70.12355,21.12907],[70.12399,21.12943],[70.12624,21.12704],[70.12229,21.12486],[70.12049,21.12337],[70.12005,21.12317],[70.11944,21.12434],[70.11682,21.12434]]]}},{"type":"Feature","bbox":[70.11137,21.11962,70.12005,21.12583],"properties":{"ward":3,"name":"Saiyedwada"},"geometry":{"type":"Polygon","coordinates":[[[70.11408,21.12583],[70.1143,21.12447],[70.11462,21.12439],[70.11556,21.12455],[70.11682,21.12434],[70.11944,21.12434],[70.12005,21.12317],[70.11991,21.12286],[70.11852,21.12256],[70.1169,21.12253],[70.1169,21.12234],[70.11632,21.1223],[70.11639,21.12169],[70.11663,21.1217],[70.11665,21.12125],[70.11636,21.12123],[70.11639,21.12106],[70.11688,21.12108],[70.11693,21.12038],[70.11721,21.11982],[70.11702,21.11973],[70.11676,21.12032],[70.11531,21.11996],[70.11525,21.1197],[70.11512,21.11972],[70.11511,21.11994],[70.11356,21.11962],[70.11291,21.11977],[70.11276,21.12093],[70.11256,21.12137],[70.11233,21.12137],[70.11221,21.12232],[70.11204,21.12233],[70.11189,21.1227],[70.11181,21.12323],[70.11193,21.12353],[70.11166,21.12361],[70.11137,21.12404],[70.1131,21.1254],[70.11408,21.12583]]]}},{"type":"Feature","bbox":[70.09557,21.11366,70.11289,21.12205],"properties":{"ward":4,"name":"Cha Bazar"},"geometry":{"type":"Polygon","coordinates":[[[70.11225,21.1215],[70.11267,21.12094],[70.11289,21.11982],[70.11269,21.11979],[70.11274,21.11944],[70.11182,21.11947],[70.11185,21.11905],[70.11275,21.11769],[70.11288,21.11677],[70.11258,21.11649],[70.1123,21.11646],[70.11217,21.11606],[70.11079,21.11546],[70.1106,21.11618],[70.11083,21.11759],[70.11225,21.11724],[70.1127,21.11721],[70.11272,21.11741],[70.11163,21.11767],[70.11166,21.11811],[70.1111,21.11825],[70.10989,21.11822],[70.1095,21.11837],[70.10909,21.11808],[70.10695,21.11724],[70.10455,21.1165],[70.1047,21.11575],[70.10428,21.11528],[70.1026,21.11471],[70.10256,21.1144],[70.10072,21.11366],[70.09914,21.1148],[70.09899,21.11505],[70.09919,21.11519],[70.09875,21.11611],[70.09788,21.11677],[70.09671,21.11828],[70.09621,21.1186],[70.09573,21.11868],[70.09557,21.119],[70.09572,21.11932],[70.10024,21.12123],[70.10165,21.12168],[70.10366,21.12205],[70.10585,21.12123],[70.10678,21.12116],[70.10849,21.12139],[70.10838,21.12196],[70.11044,21.12158],[70.11225,21.1215]]]}},{"type":"Feature","bbox":[70.09174,21.10723,70.10302,21.11871],"properties":{"ward":5,"name":"Mangrol Bandar"},"geometry":{"type":"Polygon","coordinates":[[[70.10302,21.11071],[70.10298,21.10935],[70.10279,21.10933],[70.10278,21.10775],[70.10183,21.10723],[70.10083,21.10741],[70.0988,21.10816],[70.09845,21.10858],[70.09675,21.1097],[70.09262,21.11326],[70.09174,21.11441],[70.09312,21.11562],[70.09324,21.11656],[70.09354,21.11673],[70.09299,21.11762],[70.09469,21.11853],[70.09519,21.11837],[70.09588,21.11871],[70.09671,21.11828],[70.09788,21.11677],[70.09875,21.11611],[70.09919,21.11519],[70.09899,21.11505],[70.09914,21.1148],[70.10072,21.11366],[70.10115,21.11283],[70.10254,21.11157],[70.10302,21.11071]]]}},{"type":"Feature","bbox":[70.10072,21.10942,70.11702,21.12032],"properties":{"ward":6,"name":"Nagina Vadi"},"geometry":{"type":"Polygon","coordinates":[[[70.11702,21.11973],[70.11627,21.1194],[70.11631,21.11908],[70.11546,21.11867],[70.11571,21.11819],[70.11596,21.11831],[70.11606,21.11815],[70.11581,21.11793],[70.11512,21.11761],[70.11295,21.11727],[70.11489,21.11733],[70.11563,21.11644],[70.11409,21.11585],[70.11343,21.11606],[70.11309,21.11666],[70.11287,21.11665],[70.11278,21.11574],[70.11126,21.11527],[70.11026,21.11454],[70.10826,21.11357],[70.10821,21.11329],[70.10871,21.11221],[70.10863,21.11178],[70.10573,21.11058],[70.10419,21.10942],[70.10298,21.10969],[70.10302,21.11071],[70.10273,21.1113],[70.10115,21.11283],[70.10072,21.11366],[70.10256,21.1144],[70.1026,21.11471],[70.10428,21.11528],[70.1047,21.11575],[70.10455,21.1165],[70.10695,21.11724],[70.10909,21.11808],[70.1095,21.11837],[70.10989,21.11822],[70.1111,21.11825],[70.11166,21.11811],[70.11163,21.11767],[70.11272,21.11741],[70.1127,21.11721],[70.11225,21.11724],[70.11083,21.11759],[70.1106,21.11618],[70.11079,21.11546],[70.11217,21.11606],[70.1123,21.11646],[70.11258,21.11649],[70.11288,21.11677],[70.11275,21.11769],[70.11192,21.11891],[70.11182,21.11947],[70.11274,21.11944],[70.11269,21.11979],[70.11289,21.11982],[70.11356,21.11962],[70.11511,21.11994],[70.11512,21.11972],[70.11525,21.1197],[70.11531,21.11996],[70.11676,21.12032],[70.11702,21.11973]]]}},{"type":"Feature","bbox":[70.10183,21.09294,70.12303,21.11933],"properties":{"ward":7,"name":"Vankar Vas"},"geometry":{"type":"Polygon","coordinates":[[[70.11015,21.10033],[70.10716,21.10375],[70.10548,21.10528],[70.10333,21.10665],[70.10297,21.10706],[70.10183,21.10723],[70.10278,21.10775],[70.10279,21.10933],[70.10298,21.10935],[70.10298,21.10969],[70.10419,21.10942],[70.10573,21.11058],[70.10863,21.11178],[70.10871,21.11221],[70.10821,21.11329],[70.10826,21.11357],[70.11026,21.11454],[70.11126,21.11527],[70.11278,21.11574],[70.11287,21.11665],[70.11309,21.11666],[70.11343,21.11606],[70.11409,21.11585],[70.11563,21.11644],[70.11489,21.11733],[70.11588,21.11751],[70.11784,21.11871],[70.1182,21.11809],[70.11889,21.11849],[70.11923,21.11797],[70.12034,21.11848],[70.12142,21.11737],[70.12162,21.11773],[70.12085,21.11916],[70.12123,21.11933],[70.12303,21.11748],[70.12183,21.1165],[70.12141,21.11592],[70.12043,21.11536],[70.11959,21.11434],[70.11844,21.11523],[70.11766,21.11452],[70.11841,21.1139],[70.11776,21.11344],[70.11702,21.11411],[70.11665,21.11393],[70.11617,21.1147],[70.11603,21.11469],[70.11563,21.11565],[70.11439,21.11527],[70.1148,21.11341],[70.11419,21.11299],[70.11404,21.11296],[70.11387,21.1133],[70.11162,21.11248],[70.11076,21.11209],[70.11076,21.11173],[70.11057,21.1116],[70.10929,21.11168],[70.10969,21.10964],[70.11016,21.10845],[70.10997,21.10673],[70.11013,21.1061],[70.11071,21.10548],[70.11328,21.10409],[70.11505,21.10348],[70.11765,21.10123],[70.11952,21.10071],[70.12053,21.0994],[70.12083,21.09849],[70.12055,21.09739],[70.1191,21.0938],[70.11856,21.09294],[70.11015,21.10033]]]}},{"type":"Feature","bbox":[70.11294,21.1172,70.1309,21.12719],"properties":{"ward":8,"name":"Indra Nagar"},"geometry":{"type":"Polygon","coordinates":[[[70.12711,21.12719],[70.12778,21.12499],[70.127,21.12469],[70.1274,21.12339],[70.12737,21.12272],[70.12856,21.12278],[70.1309,21.12247],[70.13079,21.12224],[70.1261,21.12144],[70.12608,21.12083],[70.12526,21.11862],[70.12212,21.12039],[70.12077,21.12056],[70.11974,21.1201],[70.11829,21.11898],[70.11588,21.11751],[70.11294,21.1172],[70.11512,21.11761],[70.11581,21.11793],[70.11606,21.11815],[70.11596,21.11831],[70.11571,21.11819],[70.11546,21.11867],[70.11631,21.11908],[70.11627,21.1194],[70.11721,21.11982],[70.11693,21.12038],[70.11688,21.12108],[70.11639,21.12106],[70.11636,21.12123],[70.11665,21.12125],[70.11663,21.1217],[70.11639,21.12169],[70.11632,21.1223],[70.1169,21.12234],[70.1169,21.12253],[70.11852,21.12256],[70.11991,21.12286],[70.12005,21.12317],[70.12049,21.12337],[70.12229,21.12486],[70.12624,21.12704],[70.1264,21.12682],[70.12711,21.12719]]]}},{"type":"Feature","bbox":[70.10929,21.09881,70.13964,21.12206],"properties":{"ward":9,"name":"Ganesh Sociaety"},"geometry":{"type":"Polygon","coordinates":[[[70.13122,21.11902],[70.13166,21.11884],[70.13233,21.11809],[70.1325,21.11819],[70.13265,21.11804],[70.13283,21.11693],[70.13339,21.11553],[70.13406,21.11528],[70.1344,21.11471],[70.13525,21.1142],[70.13542,21.11374],[70.13569,21.11374],[70.13667,21.11279],[70.13708,21.11298],[70.13724,21.1123],[70.13765,21.11203],[70.13792,21.11144],[70.13867,21.11177],[70.13945,21.11079],[70.1396,21.11079],[70.13964,21.11058],[70.13841,21.10974],[70.13867,21.1095],[70.13776,21.10898],[70.13752,21.10924],[70.13715,21.10905],[70.13692,21.10924],[70.13691,21.10947],[70.13652,21.10942],[70.1363,21.10906],[70.13512,21.10903],[70.1332,21.10821],[70.1325,21.1083],[70.12976,21.10684],[70.12648,21.10441],[70.12679,21.10371],[70.1257,21.1032],[70.12607,21.1022],[70.12554,21.10212],[70.12524,21.10227],[70.12454,21.10211],[70.1243,21.10171],[70.12363,21.10115],[70.12324,21.09994],[70.12303,21.09972],[70.12159,21.09963],[70.12099,21.09881],[70.11952,21.10071],[70.11765,21.10123],[70.11505,21.10348],[70.11328,21.10409],[70.11071,21.10548],[70.11001,21.1063],[70.11016,21.10845],[70.10969,21.10964],[70.10929,21.11168],[70.11057,21.1116],[70.11076,21.11173],[70.11076,21.11209],[70.11162,21.11248],[70.11387,21.1133],[70.11404,21.11296],[70.11419,21.11299],[70.1148,21.11341],[70.11439,21.11527],[70.11563,21.11565],[70.11603,21.11469],[70.11617,21.1147],[70.11665,21.11393],[70.11702,21.11411],[70.11776,21.11344],[70.11841,21.1139],[70.11766,21.11452],[70.11844,21.11523],[70.11959,21.11434],[70.12043,21.11536],[70.12141,21.11592],[70.12183,21.1165],[70.12303,21.11748],[70.12123,21.11933],[70.12085,21.11916],[70.12162,21.11773],[70.12142,21.11737],[70.12034,21.11848],[70.11923,21.11797],[70.11889,21.11849],[70.1182,21.11809],[70.11785,21.11869],[70.11974,21.1201],[70.12077,21.12056],[70.12212,21.12039],[70.12526,21.11862],[70.12608,21.12083],[70.1261,21.12144],[70.12958,21.12206],[70.13041,21.12013],[70.13122,21.11902]]]}}]}