{"type":"FeatureCollection","features":[{"type":"Feature","bbox":[76.83747,21.02026,76.86554,21.04784],"properties":{"ward":1},"geometry":{"type":"Polygon","coordinates":[[[76.84903,21.02463],[76.84999,21.03003],[76.84568,21.02888],[76.84269,21.02872],[76.84036,21.02889],[76.83888,21.02875],[76.83777,21.02839],[76.83747,21.02858],[76.83833,21.02908],[76.84112,21.03343],[76.84132,21.03665],[76.84237,21.03925],[76.8428,21.04126],[76.84417,21.04159],[76.84604,21.04678],[76.86117,21.04784],[76.86081,21.0428],[76.86363,21.0386],[76.86554,21.03856],[76.86551,21.03753],[76.85682,21.03351],[76.85472,21.03241],[76.85228,21.03085],[76.85194,21.02639],[76.85207,21.02612],[76.85189,21.02426],[76.85198,21.02026],[76.84958,21.02373],[76.84903,21.02463]]]}},{"type":"Feature","bbox":[76.83845,21.02501,76.84988,21.02991],"properties":{"ward":2},"geometry":{"type":"Polygon","coordinates":[[[76.84395,21.02868],[76.84671,21.02895],[76.84869,21.02966],[76.84988,21.02991],[76.84897,21.02501],[76.84244,21.02612],[76.8393,21.02643],[76.83898,21.02775],[76.83882,21.02778],[76.83845,21.02842],[76.84021,21.02884],[76.84395,21.02868]]]}},{"type":"Feature","bbox":[76.83606,21.0254,76.84031,21.02848],"properties":{"ward":3},"geometry":{"type":"Polygon","coordinates":[[[76.83705,21.02848],[76.83727,21.02825],[76.8384,21.02843],[76.83876,21.02774],[76.83895,21.02771],[76.83925,21.02637],[76.84023,21.02633],[76.84031,21.02563],[76.83685,21.0254],[76.83705,21.02611],[76.83606,21.02609],[76.83607,21.02648],[76.83626,21.02714],[76.83705,21.02848]]]}},{"type":"Feature","bbox":[76.82002,21.02638,76.84577,21.0547],"properties":{"ward":4},"geometry":{"type":"Polygon","coordinates":[[[76.8338,21.02778],[76.83316,21.02776],[76.8318,21.02683],[76.8273,21.02638],[76.82587,21.02645],[76.82002,21.02724],[76.82359,21.04689],[76.83449,21.04655],[76.83654,21.0547],[76.84577,21.05309],[76.84502,21.0474],[76.84568,21.04682],[76.844,21.04183],[76.84262,21.04205],[76.84199,21.03944],[76.84107,21.03701],[76.84071,21.03383],[76.83814,21.02937],[76.83715,21.02864],[76.83683,21.02879],[76.83653,21.02868],[76.83643,21.02816],[76.83563,21.02846],[76.83514,21.02828],[76.83499,21.02741],[76.83541,21.02706],[76.83538,21.02672],[76.83499,21.0267],[76.83504,21.02683],[76.8338,21.02778]]]}},{"type":"Feature","bbox":[76.81546,21.01745,76.83706,21.0286],"properties":{"ward":5},"geometry":{"type":"Polygon","coordinates":[[[76.82659,21.02615],[76.83207,21.02685],[76.83314,21.02767],[76.83365,21.02778],[76.83471,21.02687],[76.83499,21.02682],[76.83494,21.02667],[76.83541,21.02664],[76.83539,21.02725],[76.83503,21.0274],[76.8352,21.0282],[76.8357,21.02834],[76.83646,21.02807],[76.8366,21.0286],[76.83706,21.02859],[76.83606,21.02687],[76.83588,21.02575],[76.83544,21.02483],[76.83386,21.02382],[76.8333,21.02226],[76.83273,21.01951],[76.83219,21.01935],[76.83221,21.01922],[76.83141,21.0187],[76.83118,21.01819],[76.83137,21.01757],[76.8291,21.01745],[76.82696,21.01778],[76.82583,21.0202],[76.82435,21.02195],[76.82411,21.02355],[76.82114,21.02377],[76.82102,21.0219],[76.81848,21.02134],[76.81961,21.01892],[76.81546,21.01986],[76.81561,21.02202],[76.81604,21.02324],[76.81675,21.02721],[76.82659,21.02615]]]}},{"type":"Feature","bbox":[76.83277,21.0146,76.83845,21.02608],"properties":{"ward":6},"geometry":{"type":"Polygon","coordinates":[[[76.83277,21.019],[76.83338,21.02225],[76.83396,21.02377],[76.83568,21.02496],[76.83606,21.02606],[76.83703,21.02608],[76.83683,21.02538],[76.83836,21.02548],[76.83845,21.02442],[76.83817,21.02444],[76.83803,21.02197],[76.83795,21.01468],[76.83296,21.0146],[76.83277,21.019]]]}},{"type":"Feature","bbox":[76.83799,21.01452,76.84193,21.02559],"properties":{"ward":7},"geometry":{"type":"Polygon","coordinates":[[[76.84157,21.01706],[76.8415,21.01452],[76.83799,21.01467],[76.83805,21.02201],[76.8382,21.02443],[76.83848,21.0244],[76.83839,21.02547],[76.84029,21.02559],[76.84052,21.02504],[76.84047,21.02279],[76.84075,21.02275],[76.84078,21.02137],[76.84101,21.02101],[76.84167,21.0206],[76.84193,21.01986],[76.84157,21.01706]]]}},{"type":"Feature","bbox":[76.84032,21.0138,76.85374,21.02623],"properties":{"ward":8},"geometry":{"type":"Polygon","coordinates":[[[76.84162,21.01494],[76.84163,21.01704],[76.84198,21.01987],[76.84173,21.02064],[76.84103,21.02105],[76.84085,21.02143],[76.84085,21.02247],[76.84077,21.02278],[76.84054,21.02286],[76.84058,21.02504],[76.84037,21.0254],[76.84032,21.02623],[76.84243,21.02606],[76.84889,21.02491],[76.84886,21.02463],[76.85374,21.01737],[76.85345,21.01396],[76.84804,21.0138],[76.84567,21.01425],[76.84569,21.0145],[76.84162,21.01494]]]}}]}