{"type":"FeatureCollection","features":[{"type":"Feature","bbox":[72.72626,21.19555,72.89434,21.30747],"properties":{"ward":1,"name":"Jahangirpura-Variyav-Chhaprabhatha-Kosad"},"geometry":{"type":"Polygon","coordinates":[[[72.72626,21.20271],[72.72658,21.20428],[72.72653,21.20493],[72.7268,21.20507],[72.72948,21.2051],[72.73345,21.20463],[72.73584,21.20465],[72.73595,21.20494],[72.73811,21.20534],[72.73824,21.20551],[72.74233,21.2056],[72.74298,21.20819],[72.74263,21.21201],[72.74233,21.21343],[72.74107,21.21749],[72.7413,21.21853],[72.74028,21.224],[72.74302,21.22498],[72.74302,21.22518],[72.74403,21.22562],[72.74409,21.22523],[72.74522,21.22549],[72.74707,21.22629],[72.74743,21.22646],[72.74725,21.22701],[72.74786,21.22716],[72.74797,21.22738],[72.75267,21.22801],[72.7521,21.2306],[72.75183,21.23062],[72.75056,21.23919],[72.74824,21.23889],[72.74805,21.23959],[72.74738,21.23957],[72.74713,21.24077],[72.74634,21.24084],[72.74532,21.24452],[72.74492,21.24463],[72.74453,21.24686],[72.7442,21.24679],[72.74418,21.25209],[72.75231,21.25294],[72.75624,21.25352],[72.75636,21.25355],[72.75632,21.25375],[72.75757,21.254],[72.75761,21.2547],[72.76041,21.2548],[72.76651,21.25548],[72.76882,21.25536],[72.77048,21.25571],[72.78017,21.25601],[72.78057,21.25374],[72.78846,21.25456],[72.79139,21.25503],[72.7956,21.25518],[72.79575,21.25522],[72.79528,21.25764],[72.79491,21.26146],[72.79751,21.26177],[72.7984,21.26206],[72.7984,21.26254],[72.80251,21.26298],[72.80367,21.26326],[72.80893,21.26334],[72.80864,21.26477],[72.81076,21.26505],[72.81069,21.26652],[72.81136,21.26693],[72.81137,21.26728],[72.81091,21.26953],[72.81039,21.27108],[72.81432,21.27152],[72.81645,21.27217],[72.81569,21.27668],[72.81541,21.28088],[72.81501,21.28314],[72.81373,21.28309],[72.81304,21.28673],[72.81325,21.28685],[72.81334,21.29105],[72.81383,21.29268],[72.81346,21.3035],[72.81346,21.3062],[72.81357,21.3061],[72.81364,21.3063],[72.81776,21.30613],[72.81775,21.30585],[72.82115,21.30538],[72.82115,21.30509],[72.8223,21.30488],[72.8226,21.30441],[72.82388,21.30441],[72.82587,21.30415],[72.82608,21.30428],[72.82863,21.30438],[72.83388,21.30441],[72.83447,21.3045],[72.83447,21.30495],[72.835,21.30485],[72.83769,21.30398],[72.83723,21.30262],[72.83794,21.30242],[72.83789,21.30154],[72.83816,21.30148],[72.83824,21.30026],[72.84161,21.30001],[72.84431,21.29951],[72.84643,21.2994],[72.84831,21.29973],[72.84845,21.29997],[72.84997,21.30006],[72.85214,21.2999],[72.85231,21.30021],[72.85301,21.30039],[72.85318,21.30024],[72.85385,21.30025],[72.85778,21.30055],[72.85785,21.3012],[72.85814,21.30122],[72.85868,21.30295],[72.86066,21.3073],[72.86099,21.30747],[72.8612,21.30747],[72.86227,21.30674],[72.86545,21.30351],[72.86764,21.30226],[72.86786,21.30256],[72.87115,21.30243],[72.8728,21.30261],[72.873,21.3027],[72.87299,21.30286],[72.87424,21.30342],[72.87717,21.30449],[72.8806,21.30479],[72.88153,21.30421],[72.8821,21.30405],[72.88221,21.30301],[72.88422,21.30204],[72.88554,21.30063],[72.88607,21.29977],[72.88673,21.29793],[72.88677,21.29675],[72.88773,21.29339],[72.8884,21.28975],[72.89133,21.28886],[72.89333,21.28882],[72.89354,21.28816],[72.89407,21.28761],[72.89434,21.28409],[72.8931,21.28386],[72.89303,21.28368],[72.89328,21.283],[72.89242,21.28205],[72.8905,21.28145],[72.89058,21.28099],[72.88944,21.28077],[72.88943,21.28056],[72.88489,21.2801],[72.88246,21.28003],[72.88227,21.2798],[72.88065,21.27934],[72.87857,21.279],[72.87833,21.27875],[72.87704,21.27873],[72.87705,21.27851],[72.87261,21.27827],[72.87196,21.27816],[72.87187,21.27776],[72.87064,21.27776],[72.87036,21.27738],[72.86699,21.27721],[72.86642,21.27698],[72.86303,21.27659],[72.86228,21.27642],[72.8623,21.27544],[72.86152,21.27541],[72.86145,21.27521],[72.86113,21.27517],[72.85814,21.27498],[72.8503,21.27273],[72.85059,21.27162],[72.85069,21.27018],[72.85012,21.27013],[72.85021,21.26567],[72.85039,21.26567],[72.85041,21.26516],[72.84951,21.26484],[72.84842,21.26471],[72.84841,21.26334],[72.8457,21.2626],[72.84839,21.25529],[72.85094,21.25532],[72.85084,21.25426],[72.85147,21.2527],[72.85475,21.25299],[72.85528,21.25507],[72.85704,21.2551],[72.85699,21.25577],[72.85854,21.25579],[72.85841,21.25671],[72.85854,21.25771],[72.8582,21.25809],[72.85832,21.25922],[72.85943,21.26031],[72.86017,21.26553],[72.86787,21.26294],[72.86795,21.26311],[72.86913,21.26204],[72.86974,21.26195],[72.86999,21.26093],[72.8713,21.26078],[72.87139,21.26023],[72.87237,21.26036],[72.87247,21.25999],[72.87326,21.25998],[72.87491,21.2603],[72.87571,21.25703],[72.87575,21.25604],[72.87591,21.25605],[72.87596,21.25578],[72.87602,21.25477],[72.87572,21.25441],[72.87587,21.25302],[72.87608,21.25292],[72.87627,21.25217],[72.87503,21.25142],[72.87268,21.25036],[72.87247,21.2499],[72.87099,21.25008],[72.87045,21.24897],[72.86939,21.24582],[72.86906,21.23952],[72.86877,21.23934],[72.86905,21.23554],[72.86885,21.23489],[72.86774,21.23462],[72.86671,21.23464],[72.8664,21.23448],[72.86638,21.23428],[72.86327,21.23447],[72.86327,21.23511],[72.86277,21.23551],[72.86285,21.23644],[72.85961,21.23689],[72.85539,21.23697],[72.85526,21.23667],[72.85338,21.23676],[72.85252,21.23613],[72.852,21.23618],[72.85214,21.23664],[72.85211,21.23778],[72.852,21.23809],[72.85162,21.23821],[72.85137,21.24009],[72.85143,21.24095],[72.8511,21.24098],[72.84812,21.24065],[72.84805,21.24039],[72.84754,21.23999],[72.84774,21.2396],[72.84661,21.23933],[72.84613,21.24016],[72.84513,21.23991],[72.84267,21.23681],[72.84233,21.23743],[72.84092,21.23912],[72.84077,21.23963],[72.83945,21.2411],[72.83917,21.24114],[72.83806,21.2419],[72.83751,21.24251],[72.8362,21.2428],[72.83329,21.24738],[72.82603,21.25439],[72.8243,21.25556],[72.81901,21.25746],[72.81897,21.25803],[72.81744,21.25805],[72.81529,21.25769],[72.81213,21.25654],[72.80783,21.25425],[72.80645,21.25325],[72.80312,21.25029],[72.80286,21.25029],[72.80212,21.24958],[72.80141,21.24858],[72.7981,21.24636],[72.79654,21.24547],[72.796,21.24539],[72.79589,21.2449],[72.79427,21.24397],[72.7944,21.2437],[72.79424,21.24338],[72.79354,21.243],[72.79227,21.24157],[72.79169,21.23851],[72.79134,21.23852],[72.79118,21.23931],[72.79122,21.23803],[72.79082,21.2359],[72.78944,21.23598],[72.78507,21.23552],[72.78218,21.23545],[72.77165,21.23455],[72.77149,21.23435],[72.7713,21.23242],[72.77039,21.2276],[72.77024,21.22573],[72.76548,21.2245],[72.76694,21.2188],[72.76748,21.21896],[72.76788,21.21572],[72.76757,21.21512],[72.7674,21.21484],[72.76621,21.21465],[72.76619,21.21439],[72.7656,21.21429],[72.76548,21.2132],[72.76487,21.2132],[72.76434,21.21114],[72.76441,21.21018],[72.76275,21.20998],[72.76272,21.20949],[72.75958,21.20918],[72.75412,21.20801],[72.75413,21.20781],[72.75368,21.20721],[72.7536,21.20663],[72.75332,21.20639],[72.75368,21.20438],[72.75433,21.20349],[72.75404,21.20349],[72.75384,21.20386],[72.75364,21.20384],[72.75366,21.20346],[72.75322,21.20319],[72.7538,21.20288],[72.75374,21.20245],[72.75345,21.20206],[72.75266,21.20221],[72.75254,21.2019],[72.75317,21.2017],[72.75222,21.20127],[72.75223,21.20107],[72.75306,21.20121],[72.75341,21.20108],[72.75436,21.20157],[72.75482,21.20159],[72.75493,21.20146],[72.75433,21.20105],[72.75314,21.20063],[72.74984,21.20005],[72.75011,21.19816],[72.75068,21.19587],[72.74945,21.19555],[72.74869,21.1986],[72.74762,21.19837],[72.74751,21.19853],[72.74447,21.19973],[72.74403,21.19862],[72.74247,21.19772],[72.7386,21.19699],[72.73638,21.19569],[72.73518,21.19588],[72.73474,21.1958],[72.73234,21.19717],[72.73052,21.19794],[72.7299,21.19883],[72.73002,21.19894],[72.72882,21.20046],[72.72729,21.20186],[72.72724,21.20211],[72.72626,21.20271]]]}},{"type":"Feature","bbox":[72.84267,21.22595,72.9544,21.31864],"properties":{"ward":2,"name":"Amroli-Mota Varachha-Kathor"},"geometry":{"type":"Polygon","coordinates":[[[72.93329,21.31864],[72.93618,21.31392],[72.93653,21.31385],[72.93709,21.31333],[72.93772,21.312],[72.93851,21.31105],[72.93945,21.31158],[72.94013,21.31176],[72.94128,21.31184],[72.94126,21.31159],[72.94182,21.31164],[72.94426,21.31225],[72.94472,21.31086],[72.94435,21.31069],[72.94436,21.31085],[72.94406,21.31079],[72.94403,21.30746],[72.94286,21.30725],[72.94294,21.30662],[72.94157,21.30626],[72.94231,21.30313],[72.94621,21.30289],[72.94839,21.3026],[72.95275,21.3026],[72.95298,21.30087],[72.95366,21.29816],[72.95357,21.29699],[72.9544,21.29486],[72.9539,21.29264],[72.9534,21.29265],[72.95326,21.29137],[72.95274,21.29146],[72.95228,21.29073],[72.95137,21.29092],[72.95081,21.2905],[72.95032,21.29043],[72.95009,21.29087],[72.94946,21.29071],[72.9494,21.29095],[72.94914,21.291],[72.94822,21.29057],[72.94823,21.2903],[72.94869,21.2901],[72.9487,21.28994],[72.94832,21.28984],[72.94763,21.28988],[72.94754,21.29052],[72.94726,21.29051],[72.94729,21.29029],[72.94705,21.29052],[72.94688,21.29045],[72.94682,21.29018],[72.9471,21.29002],[72.94681,21.2889],[72.94759,21.28851],[72.9475,21.28749],[72.94675,21.28742],[72.94674,21.28727],[72.94639,21.28737],[72.94613,21.28775],[72.94631,21.2878],[72.94591,21.28801],[72.94549,21.28763],[72.9452,21.28712],[72.94656,21.28628],[72.9455,21.2854],[72.94554,21.28517],[72.94312,21.28589],[72.93826,21.28659],[72.93371,21.28534],[72.93356,21.28515],[72.93108,21.28438],[72.92824,21.28305],[72.92839,21.28272],[72.92389,21.28096],[72.91902,21.27932],[72.91906,21.27921],[72.9173,21.27826],[72.91648,21.277],[72.91612,21.27712],[72.91572,21.27582],[72.9147,21.27519],[72.91338,21.27377],[72.91116,21.26968],[72.9115,21.26933],[72.91023,21.26704],[72.90981,21.26667],[72.90657,21.26181],[72.90331,21.25533],[72.90293,21.25577],[72.89905,21.24874],[72.89874,21.24878],[72.89835,21.24926],[72.89807,21.24932],[72.89548,21.24447],[72.89391,21.2419],[72.89406,21.24184],[72.89249,21.23904],[72.89097,21.23735],[72.88918,21.23605],[72.88722,21.2347],[72.88709,21.23492],[72.88531,21.23357],[72.88508,21.23347],[72.885,21.23364],[72.88232,21.23165],[72.8801,21.23056],[72.88014,21.23036],[72.87838,21.22947],[72.87469,21.22808],[72.87302,21.22727],[72.87206,21.22724],[72.87147,21.22694],[72.87021,21.22665],[72.86985,21.22687],[72.86793,21.22625],[72.86722,21.22625],[72.86657,21.22605],[72.86352,21.22614],[72.86352,21.22595],[72.86287,21.22597],[72.85973,21.22677],[72.85841,21.22686],[72.85844,21.22708],[72.85814,21.2271],[72.85821,21.22745],[72.85553,21.22851],[72.85284,21.23015],[72.85229,21.23035],[72.85061,21.22896],[72.84853,21.23126],[72.84854,21.23101],[72.8453,21.23403],[72.8441,21.23478],[72.84267,21.23681],[72.84513,21.23991],[72.84613,21.24016],[72.84661,21.23933],[72.84774,21.2396],[72.84754,21.23999],[72.84805,21.24039],[72.84812,21.24065],[72.85047,21.24098],[72.85143,21.24095],[72.85137,21.24009],[72.85162,21.23821],[72.85203,21.23805],[72.85215,21.23746],[72.852,21.23618],[72.85252,21.23613],[72.85338,21.23676],[72.85526,21.23667],[72.85539,21.23697],[72.85961,21.23689],[72.86285,21.23644],[72.86277,21.23551],[72.86327,21.23511],[72.86327,21.23447],[72.86638,21.23428],[72.8664,21.23448],[72.86671,21.23464],[72.86774,21.23462],[72.86885,21.23489],[72.86905,21.23554],[72.86877,21.23934],[72.86906,21.23952],[72.86939,21.24582],[72.87045,21.24897],[72.87099,21.25008],[72.87247,21.2499],[72.87268,21.25036],[72.87503,21.25142],[72.87627,21.25217],[72.87608,21.25292],[72.87587,21.25302],[72.87572,21.25441],[72.87602,21.25477],[72.87596,21.25578],[72.87591,21.25605],[72.87575,21.25604],[72.87571,21.25703],[72.87491,21.2603],[72.87326,21.25998],[72.87247,21.25999],[72.87237,21.26036],[72.87139,21.26023],[72.8713,21.26078],[72.86999,21.26093],[72.86974,21.26195],[72.86913,21.26204],[72.86795,21.26311],[72.86787,21.26294],[72.86017,21.26553],[72.85943,21.26031],[72.85832,21.25922],[72.8582,21.25809],[72.85854,21.25771],[72.85841,21.25671],[72.85854,21.25579],[72.85699,21.25577],[72.85704,21.2551],[72.85528,21.25507],[72.85475,21.25299],[72.85152,21.25268],[72.85084,21.25425],[72.85094,21.25532],[72.84839,21.25529],[72.8457,21.2626],[72.84841,21.26334],[72.84842,21.26471],[72.84951,21.26484],[72.85041,21.26516],[72.85039,21.26567],[72.85021,21.26567],[72.85012,21.27009],[72.85069,21.27018],[72.85059,21.27162],[72.8503,21.27273],[72.85041,21.27284],[72.85814,21.27498],[72.86113,21.27517],[72.86145,21.27521],[72.86152,21.27541],[72.8623,21.27544],[72.86228,21.27642],[72.86303,21.27659],[72.86642,21.27698],[72.86699,21.27721],[72.87036,21.27738],[72.87064,21.27776],[72.87187,21.27776],[72.87196,21.27816],[72.87261,21.27827],[72.87705,21.27851],[72.87704,21.27873],[72.87833,21.27875],[72.87857,21.279],[72.88065,21.27934],[72.88227,21.2798],[72.88246,21.28003],[72.88489,21.2801],[72.88943,21.28056],[72.88944,21.28077],[72.89058,21.28099],[72.8905,21.28145],[72.89242,21.28205],[72.89328,21.283],[72.89303,21.28368],[72.8931,21.28386],[72.89434,21.28409],[72.89407,21.28761],[72.89354,21.28816],[72.89337,21.2888],[72.89133,21.28886],[72.8884,21.28975],[72.88773,21.29339],[72.88677,21.29675],[72.88673,21.29793],[72.88607,21.29977],[72.88554,21.30063],[72.88422,21.30204],[72.88221,21.30301],[72.8821,21.30405],[72.88134,21.30435],[72.88259,21.30716],[72.88311,21.30878],[72.88929,21.30781],[72.89443,21.30674],[72.90027,21.30603],[72.90068,21.30606],[72.90146,21.3085],[72.90169,21.31006],[72.90486,21.3098],[72.91263,21.30646],[72.91679,21.30338],[72.92137,21.30844],[72.92131,21.30916],[72.92149,21.31046],[72.92177,21.31103],[72.92176,21.31132],[72.92149,21.31223],[72.92133,21.31223],[72.92076,21.31431],[72.92408,21.31492],[72.92435,21.31353],[72.92326,21.31313],[72.92333,21.3127],[72.92314,21.31262],[72.9232,21.31226],[72.92283,21.31217],[72.92287,21.31183],[72.92317,21.31182],[72.92323,21.3114],[72.9243,21.31209],[72.92433,21.31194],[72.92649,21.31379],[72.9274,21.31433],[72.92722,21.31482],[72.92704,21.31488],[72.92613,21.31456],[72.92601,21.31481],[72.92612,21.3151],[72.9266,21.31516],[72.92663,21.31502],[72.92726,21.31516],[72.92766,21.31457],[72.93015,21.31613],[72.93329,21.31864]]]}},{"type":"Feature","bbox":[72.87922,21.2088,72.96863,21.2789],"properties":{"ward":3,"name":"Varachha-Sarthana-Simada-Laskana"},"geometry":{"type":"Polygon","coordinates":[[[72.93087,21.27428],[72.93178,21.27047],[72.93245,21.26636],[72.93269,21.26581],[72.93278,21.26437],[72.93349,21.26279],[72.93332,21.26092],[72.93299,21.25999],[72.93364,21.26018],[72.93375,21.25991],[72.93362,21.2597],[72.93455,21.25968],[72.93465,21.25952],[72.93547,21.25965],[72.93554,21.26006],[72.93608,21.26008],[72.93616,21.25968],[72.93646,21.25959],[72.93674,21.25992],[72.93716,21.26004],[72.93742,21.25986],[72.93758,21.2602],[72.93797,21.25981],[72.93851,21.25962],[72.93894,21.26011],[72.93979,21.26],[72.94015,21.2597],[72.94043,21.26],[72.94084,21.2598],[72.94212,21.25973],[72.94292,21.25988],[72.94319,21.25959],[72.94261,21.25903],[72.94294,21.25755],[72.94362,21.25627],[72.9439,21.25621],[72.94417,21.2554],[72.94588,21.25575],[72.94703,21.25397],[72.94711,21.25349],[72.94687,21.2513],[72.94663,21.2504],[72.94674,21.24946],[72.94318,21.24916],[72.94322,21.24776],[72.94217,21.2476],[72.94218,21.24738],[72.9414,21.2471],[72.94138,21.24655],[72.94092,21.2465],[72.94114,21.24618],[72.94241,21.24107],[72.94315,21.23686],[72.94636,21.23675],[72.94655,21.23635],[72.94908,21.23715],[72.94918,21.23639],[72.94964,21.23642],[72.95078,21.23581],[72.95121,21.23475],[72.95313,21.23434],[72.95335,21.23412],[72.95428,21.23123],[72.95464,21.23112],[72.95486,21.23003],[72.95504,21.22753],[72.95617,21.22732],[72.95615,21.22686],[72.9588,21.22671],[72.96017,21.22647],[72.96335,21.22648],[72.96541,21.22615],[72.96863,21.22609],[72.96855,21.22031],[72.96834,21.22016],[72.96831,21.21991],[72.96835,21.2175],[72.96629,21.21631],[72.96443,21.21596],[72.96174,21.21572],[72.9591,21.21599],[72.95705,21.21678],[72.95573,21.21696],[72.954,21.21681],[72.95383,21.21676],[72.95379,21.21295],[72.95045,21.2128],[72.94365,21.21209],[72.94289,21.21235],[72.94213,21.21555],[72.94035,21.21541],[72.94035,21.21569],[72.93924,21.2155],[72.93867,21.21849],[72.93851,21.22041],[72.93482,21.22017],[72.92567,21.22064],[72.91787,21.21928],[72.91749,21.22061],[72.91638,21.22047],[72.91627,21.22022],[72.91235,21.21963],[72.91126,21.21931],[72.90566,21.21899],[72.90672,21.21314],[72.90668,21.21182],[72.90591,21.21144],[72.90263,21.2106],[72.90233,21.21041],[72.90211,21.21],[72.89764,21.2088],[72.89675,21.21282],[72.89633,21.2159],[72.89502,21.2213],[72.89461,21.22262],[72.89424,21.22226],[72.89441,21.22181],[72.89417,21.22201],[72.89405,21.22228],[72.89421,21.22295],[72.89398,21.22329],[72.8926,21.22277],[72.89154,21.22163],[72.89067,21.22138],[72.88974,21.22083],[72.88952,21.22098],[72.88886,21.22092],[72.88758,21.22018],[72.88713,21.22016],[72.88678,21.22043],[72.88642,21.22029],[72.88617,21.22011],[72.88618,21.21931],[72.88521,21.21895],[72.88502,21.2181],[72.88376,21.21795],[72.88297,21.21761],[72.88122,21.21622],[72.88023,21.21618],[72.88004,21.21673],[72.88012,21.21759],[72.87995,21.21951],[72.87948,21.22193],[72.87922,21.2247],[72.8805,21.22517],[72.8878,21.22989],[72.88993,21.23206],[72.89201,21.23341],[72.8921,21.23302],[72.89246,21.23324],[72.89262,21.23301],[72.8981,21.23878],[72.8985,21.23872],[72.89867,21.23842],[72.89955,21.23926],[72.8998,21.23926],[72.90039,21.23974],[72.90062,21.23938],[72.90078,21.2394],[72.90061,21.23964],[72.90173,21.24081],[72.90194,21.24059],[72.90232,21.24052],[72.90239,21.24074],[72.9021,21.2408],[72.90224,21.24083],[72.90221,21.24118],[72.90275,21.24146],[72.90257,21.24181],[72.90294,21.24197],[72.90308,21.2423],[72.90501,21.24411],[72.90492,21.24424],[72.90559,21.245],[72.90584,21.24508],[72.90654,21.24619],[72.90725,21.24691],[72.90795,21.24842],[72.90903,21.25141],[72.9097,21.25402],[72.90964,21.2546],[72.91032,21.25707],[72.91079,21.25792],[72.9111,21.25953],[72.91079,21.26035],[72.91181,21.26292],[72.91205,21.26287],[72.91264,21.26405],[72.91287,21.26392],[72.91584,21.26821],[72.91606,21.26812],[72.91624,21.26864],[72.91736,21.26994],[72.91778,21.27086],[72.92109,21.27405],[72.92118,21.27395],[72.92161,21.27421],[72.92446,21.27625],[72.92965,21.27865],[72.92992,21.2789],[72.93024,21.27593],[72.93087,21.27428]]]}},{"type":"Feature","bbox":[72.85565,21.20996,72.88023,21.22484],"properties":{"ward":4,"name":"Kapodra"},"geometry":{"type":"Polygon","coordinates":[[[72.87956,21.22153],[72.87983,21.22049],[72.88012,21.21759],[72.88004,21.21673],[72.88023,21.21618],[72.8794,21.21634],[72.87872,21.21673],[72.8784,21.21666],[72.87786,21.21623],[72.87729,21.21525],[72.87653,21.21536],[72.87619,21.21512],[72.87536,21.21504],[72.87521,21.21422],[72.87477,21.21438],[72.87474,21.21485],[72.87448,21.21522],[72.87319,21.21513],[72.87297,21.215],[72.87296,21.21454],[72.87265,21.21469],[72.8722,21.21437],[72.87214,21.21259],[72.87095,21.21178],[72.86909,21.21141],[72.86794,21.21306],[72.86716,21.21253],[72.86353,21.21111],[72.8611,21.21081],[72.85982,21.21043],[72.85666,21.20996],[72.85617,21.2116],[72.85565,21.21203],[72.85598,21.21205],[72.85608,21.21225],[72.86161,21.21464],[72.86302,21.21595],[72.85784,21.21725],[72.85769,21.22],[72.85781,21.2216],[72.86201,21.22078],[72.86283,21.22079],[72.86284,21.22108],[72.86644,21.22103],[72.8665,21.22138],[72.87137,21.22202],[72.87332,21.22258],[72.87891,21.22484],[72.87924,21.22471],[72.87956,21.22153]]]}},{"type":"Feature","bbox":[72.83886,21.20385,72.86302,21.23403],"properties":{"ward":5,"name":"Fulpada-Ashwinikumar"},"geometry":{"type":"Polygon","coordinates":[[[72.84473,21.23139],[72.84487,21.23146],[72.84667,21.22945],[72.84753,21.22812],[72.84839,21.22729],[72.84828,21.22718],[72.84936,21.22637],[72.84952,21.22658],[72.85012,21.22591],[72.85402,21.2234],[72.85686,21.22248],[72.85878,21.22205],[72.86051,21.22141],[72.86284,21.22108],[72.86283,21.22079],[72.86201,21.22078],[72.85781,21.2216],[72.85769,21.22],[72.85784,21.21725],[72.86302,21.21595],[72.86161,21.21464],[72.85608,21.21225],[72.85598,21.21205],[72.85565,21.21203],[72.85617,21.2116],[72.85666,21.20996],[72.85645,21.20982],[72.85483,21.20941],[72.85382,21.20902],[72.85342,21.20865],[72.85175,21.20816],[72.84989,21.20655],[72.84911,21.20617],[72.84683,21.2057],[72.84144,21.20385],[72.84069,21.20685],[72.84039,21.20915],[72.84047,21.21344],[72.84065,21.21435],[72.84125,21.21639],[72.84278,21.21931],[72.845,21.22238],[72.84626,21.22352],[72.84581,21.22373],[72.84575,21.2241],[72.84462,21.22393],[72.84461,21.22381],[72.84362,21.22407],[72.84209,21.22415],[72.84212,21.22432],[72.84161,21.22436],[72.8416,21.22448],[72.84102,21.22439],[72.84103,21.22528],[72.84258,21.22565],[72.84244,21.227],[72.84188,21.22698],[72.8417,21.22794],[72.8407,21.22793],[72.84066,21.22924],[72.83989,21.22921],[72.83986,21.23011],[72.83886,21.23094],[72.84272,21.23403],[72.84473,21.23139]]]}},{"type":"Feature","bbox":[72.82134,21.20295,72.84626,21.23261],"properties":{"ward":6,"name":"Katargam"},"geometry":{"type":"Polygon","coordinates":[[[72.83986,21.23011],[72.83989,21.22921],[72.84066,21.22924],[72.8407,21.22793],[72.8417,21.22794],[72.84188,21.22698],[72.84244,21.227],[72.84258,21.22565],[72.84103,21.22528],[72.84102,21.22439],[72.8416,21.22448],[72.84161,21.22436],[72.84212,21.22432],[72.84209,21.22415],[72.84362,21.22407],[72.84461,21.22381],[72.84462,21.22393],[72.84575,21.2241],[72.84581,21.22373],[72.84626,21.22352],[72.845,21.22238],[72.84278,21.21931],[72.84125,21.21639],[72.84065,21.21435],[72.84047,21.21344],[72.84039,21.20915],[72.84069,21.20685],[72.84144,21.20385],[72.84004,21.2034],[72.8393,21.20295],[72.83644,21.20514],[72.83561,21.20622],[72.83461,21.20608],[72.83347,21.20631],[72.83103,21.20648],[72.83098,21.20406],[72.8295,21.20409],[72.82823,21.20384],[72.82823,21.20402],[72.82872,21.20411],[72.82877,21.20427],[72.82951,21.20444],[72.82954,21.20669],[72.8277,21.20662],[72.82757,21.20817],[72.82774,21.20817],[72.82773,21.20829],[72.82736,21.20834],[72.82741,21.2092],[72.82725,21.20934],[72.82743,21.20947],[72.82738,21.20971],[72.82802,21.20973],[72.82762,21.21052],[72.82894,21.2109],[72.82865,21.2112],[72.82735,21.21155],[72.82909,21.21458],[72.82772,21.215],[72.82743,21.2162],[72.82741,21.21691],[72.82763,21.21692],[72.8275,21.21734],[72.82766,21.21795],[72.82748,21.21846],[72.82619,21.21855],[72.82617,21.21839],[72.82306,21.21865],[72.8222,21.21857],[72.82142,21.22229],[72.82134,21.22385],[72.82818,21.22361],[72.82908,21.22401],[72.82913,21.22417],[72.83165,21.22459],[72.83118,21.22668],[72.83411,21.22681],[72.83427,21.22769],[72.83473,21.22773],[72.83363,21.23012],[72.83333,21.23143],[72.83359,21.23169],[72.83542,21.23199],[72.83549,21.23238],[72.83641,21.23261],[72.83706,21.2324],[72.83986,21.23011]]]}},{"type":"Feature","bbox":[72.80658,21.22361,72.84272,21.25207],"properties":{"ward":7,"name":"Katargam-Vedroad"},"geometry":{"type":"Polygon","coordinates":[[[72.81965,21.25207],[72.82116,21.25183],[72.8253,21.25005],[72.82706,21.24912],[72.82868,21.24796],[72.82889,21.24801],[72.83076,21.24619],[72.83158,21.24499],[72.83187,21.24496],[72.83371,21.24361],[72.83527,21.24224],[72.83796,21.23918],[72.83813,21.23917],[72.8404,21.23664],[72.84143,21.23576],[72.84272,21.23403],[72.83886,21.23094],[72.83706,21.2324],[72.83641,21.23261],[72.83549,21.23238],[72.83542,21.23199],[72.83359,21.23169],[72.83333,21.23143],[72.83363,21.23012],[72.83473,21.22773],[72.83427,21.22769],[72.83411,21.22681],[72.83118,21.22668],[72.83165,21.22459],[72.82913,21.22417],[72.82908,21.22401],[72.82818,21.22361],[72.82134,21.22385],[72.82168,21.23052],[72.82029,21.23694],[72.82021,21.23841],[72.81978,21.24028],[72.81703,21.23941],[72.81674,21.24018],[72.81418,21.23909],[72.8134,21.24014],[72.81224,21.23959],[72.812,21.24003],[72.8108,21.23975],[72.81068,21.24081],[72.81038,21.24141],[72.80933,21.24152],[72.80971,21.24225],[72.81094,21.24345],[72.80968,21.24483],[72.80914,21.24458],[72.80901,21.24468],[72.80812,21.24595],[72.80688,21.24469],[72.80658,21.24489],[72.81045,21.24849],[72.8141,21.25096],[72.81638,21.25188],[72.81965,21.25207]]]}},{"type":"Feature","bbox":[72.7965,21.20339,72.82459,21.24595],"properties":{"ward":8,"name":"Dabholi-Singanpor"},"geometry":{"type":"Polygon","coordinates":[[[72.80812,21.24595],[72.80914,21.24458],[72.80968,21.24483],[72.81094,21.24345],[72.80971,21.24225],[72.80933,21.24152],[72.81038,21.24141],[72.81068,21.24081],[72.8108,21.23975],[72.812,21.24003],[72.81224,21.23959],[72.8134,21.24014],[72.81418,21.23909],[72.81674,21.24018],[72.81703,21.23941],[72.81978,21.24028],[72.82021,21.23841],[72.82029,21.23694],[72.82168,21.23052],[72.82132,21.223],[72.8227,21.21578],[72.82264,21.21505],[72.8224,21.21483],[72.82235,21.21406],[72.82246,21.21191],[72.8233,21.21084],[72.82397,21.2096],[72.82414,21.2094],[72.82438,21.20948],[72.82427,21.20907],[72.82454,21.20865],[72.82459,21.2076],[72.82401,21.2056],[72.82358,21.20579],[72.82249,21.20524],[72.82251,21.2051],[72.82148,21.20409],[72.8207,21.20364],[72.82071,21.20385],[72.81942,21.20339],[72.81756,21.20615],[72.81601,21.20798],[72.81555,21.20781],[72.81524,21.20854],[72.81498,21.20875],[72.81496,21.20905],[72.8137,21.21102],[72.81022,21.21472],[72.8098,21.21456],[72.80898,21.21521],[72.80939,21.21565],[72.80888,21.21661],[72.80844,21.21659],[72.80705,21.21829],[72.80722,21.21835],[72.80492,21.22322],[72.80365,21.22276],[72.80173,21.2253],[72.79949,21.22774],[72.7965,21.23243],[72.79973,21.23237],[72.79973,21.23444],[72.80171,21.23435],[72.80243,21.23681],[72.80263,21.23706],[72.80263,21.23795],[72.80281,21.23856],[72.80356,21.24028],[72.80456,21.24203],[72.80616,21.24414],[72.80602,21.24426],[72.80658,21.24489],[72.80688,21.24469],[72.80812,21.24595]]]}},{"type":"Feature","bbox":[72.76434,21.2032,72.80468,21.23598],"properties":{"ward":9,"name":"Rander-Jahangirabad-Palanpur"},"geometry":{"type":"Polygon","coordinates":[[[72.79074,21.23594],[72.79056,21.23486],[72.79091,21.23308],[72.79178,21.23034],[72.79266,21.22856],[72.79451,21.22608],[72.79502,21.22596],[72.796,21.2251],[72.79708,21.2238],[72.79749,21.22285],[72.79929,21.22043],[72.79979,21.22034],[72.80076,21.21895],[72.8004,21.21878],[72.80118,21.21755],[72.8011,21.21746],[72.80149,21.21665],[72.80207,21.21652],[72.80468,21.21282],[72.80285,21.21265],[72.80192,21.21396],[72.80093,21.21333],[72.79888,21.21611],[72.7964,21.21482],[72.79594,21.21573],[72.79435,21.21692],[72.79157,21.21559],[72.79174,21.21485],[72.79158,21.2148],[72.78713,21.21439],[72.78685,21.21531],[72.78517,21.21504],[72.79034,21.2114],[72.78947,21.2112],[72.78929,21.20698],[72.78697,21.20665],[72.78705,21.20476],[72.78518,21.20462],[72.78491,21.20834],[72.78104,21.20786],[72.77851,21.2072],[72.77628,21.20598],[72.77585,21.20527],[72.77468,21.20449],[72.77197,21.20336],[72.77107,21.2032],[72.7707,21.20532],[72.76979,21.20542],[72.76988,21.20589],[72.76942,21.20623],[72.76901,21.20603],[72.76883,21.20672],[72.76902,21.20677],[72.76874,21.20871],[72.76866,21.20917],[72.76845,21.20913],[72.76835,21.20995],[72.76624,21.20992],[72.76441,21.21018],[72.76434,21.21114],[72.76487,21.2132],[72.76548,21.2132],[72.7656,21.21429],[72.76619,21.21439],[72.76621,21.21465],[72.7674,21.21484],[72.76788,21.21572],[72.76748,21.21896],[72.76694,21.2188],[72.76548,21.2245],[72.77024,21.22573],[72.77039,21.2276],[72.7713,21.23242],[72.77149,21.23435],[72.77165,21.23455],[72.78218,21.23545],[72.78507,21.23552],[72.78944,21.23598],[72.79074,21.23594]]]}},{"type":"Feature","bbox":[72.72383,21.1427,72.80039,21.21018],"properties":{"ward":10,"name":"Adajan-Pal-Ichchhapor"},"geometry":{"type":"Polygon","coordinates":[[[72.72383,21.19151],[72.724,21.19198],[72.72994,21.19726],[72.73058,21.19799],[72.73474,21.1958],[72.73518,21.19588],[72.73638,21.19569],[72.7386,21.19699],[72.74247,21.19772],[72.74403,21.19862],[72.74447,21.19973],[72.74751,21.19853],[72.74762,21.19837],[72.74869,21.1986],[72.74945,21.19555],[72.75068,21.19586],[72.75011,21.19816],[72.74984,21.20005],[72.75314,21.20063],[72.75433,21.20105],[72.75493,21.20146],[72.75482,21.20159],[72.75436,21.20157],[72.75341,21.20108],[72.75306,21.20121],[72.75223,21.20107],[72.75222,21.20127],[72.75317,21.2017],[72.75254,21.2019],[72.75266,21.20221],[72.75345,21.20206],[72.75374,21.20245],[72.7538,21.20288],[72.75322,21.20319],[72.75366,21.20346],[72.75364,21.20384],[72.75384,21.20386],[72.75404,21.20349],[72.75433,21.20349],[72.75368,21.20438],[72.75332,21.20639],[72.7536,21.20663],[72.75368,21.20721],[72.75413,21.20781],[72.75412,21.20801],[72.75958,21.20918],[72.76272,21.20949],[72.76275,21.20998],[72.76441,21.21018],[72.76624,21.20992],[72.76835,21.20995],[72.76845,21.20913],[72.76866,21.20917],[72.76874,21.20871],[72.76902,21.20677],[72.76883,21.20672],[72.76901,21.20603],[72.76942,21.20623],[72.76988,21.20589],[72.76979,21.20542],[72.7707,21.20532],[72.77107,21.2032],[72.77197,21.20336],[72.77468,21.20449],[72.77585,21.20527],[72.77628,21.20598],[72.77851,21.2072],[72.78104,21.20786],[72.78491,21.20834],[72.78518,21.20462],[72.78705,21.20476],[72.78697,21.20665],[72.78929,21.20698],[72.78916,21.2049],[72.78938,21.20279],[72.79397,21.20338],[72.79411,21.20257],[72.79432,21.20238],[72.7946,21.20158],[72.79482,21.19979],[72.79567,21.19793],[72.79533,21.19741],[72.79451,21.19685],[72.79501,21.19619],[72.79477,21.19596],[72.79512,21.19313],[72.79382,21.19294],[72.79367,21.19172],[72.795,21.19178],[72.79498,21.19118],[72.7944,21.19047],[72.79654,21.18997],[72.79899,21.18855],[72.79995,21.18735],[72.80039,21.18649],[72.79761,21.18495],[72.79405,21.18346],[72.79116,21.18299],[72.79116,21.18322],[72.78072,21.18116],[72.77906,21.18105],[72.77694,21.17966],[72.77205,21.17754],[72.76998,21.17309],[72.76812,21.16986],[72.76703,21.16723],[72.76608,21.16556],[72.76386,21.16342],[72.76008,21.1614],[72.75662,21.15907],[72.75602,21.15887],[72.75384,21.15875],[72.75347,21.15844],[72.75259,21.16001],[72.74883,21.15638],[72.74733,21.1553],[72.74829,21.15397],[72.74484,21.1502],[72.74365,21.14947],[72.74325,21.14948],[72.73951,21.14752],[72.73425,21.14428],[72.73251,21.1434],[72.72839,21.1427],[72.72801,21.14279],[72.73166,21.14348],[72.73383,21.14463],[72.73674,21.14701],[72.74193,21.15224],[72.74346,21.15264],[72.74466,21.15359],[72.74615,21.1545],[72.74567,21.15538],[72.74557,21.15616],[72.74599,21.15652],[72.74477,21.15979],[72.74508,21.16031],[72.74436,21.16286],[72.74408,21.16512],[72.74421,21.16867],[72.74359,21.16862],[72.7433,21.16903],[72.74181,21.16881],[72.74164,21.1692],[72.74026,21.16875],[72.74005,21.1697],[72.73895,21.16931],[72.73887,21.16965],[72.73821,21.16946],[72.73817,21.17013],[72.739,21.17018],[72.73877,21.1731],[72.73889,21.17343],[72.73844,21.17526],[72.73785,21.17533],[72.73804,21.17613],[72.73735,21.17803],[72.73932,21.17915],[72.73982,21.17978],[72.74045,21.18007],[72.74249,21.18051],[72.74271,21.18044],[72.74443,21.1824],[72.74369,21.18286],[72.74419,21.18328],[72.74422,21.18383],[72.74514,21.18319],[72.7486,21.18762],[72.74901,21.18798],[72.74924,21.18786],[72.74952,21.18851],[72.75252,21.19216],[72.7489,21.19393],[72.74864,21.1928],[72.74766,21.1931],[72.74785,21.19421],[72.74549,21.19447],[72.74113,21.19131],[72.73979,21.19053],[72.73889,21.19032],[72.73815,21.19052],[72.73225,21.19014],[72.73006,21.19103],[72.72949,21.1911],[72.72667,21.19069],[72.72411,21.19087],[72.72388,21.19096],[72.72383,21.19151]]]}},{"type":"Feature","bbox":[72.78517,21.18649,72.81311,21.21692],"properties":{"ward":11,"name":"Adajan-Gorat"},"geometry":{"type":"Polygon","coordinates":[[[72.79594,21.21573],[72.7964,21.21482],[72.79888,21.21611],[72.80093,21.21333],[72.80192,21.21396],[72.80285,21.21265],[72.8047,21.21282],[72.80504,21.21212],[72.8068,21.21072],[72.80977,21.20731],[72.81145,21.20416],[72.81215,21.20184],[72.81151,21.20189],[72.81263,21.19952],[72.81311,21.19799],[72.8128,21.19503],[72.8123,21.19423],[72.81118,21.19393],[72.80985,21.19216],[72.80962,21.19163],[72.80039,21.18649],[72.79995,21.18735],[72.79899,21.18855],[72.79654,21.18997],[72.7944,21.19047],[72.79498,21.19118],[72.795,21.19178],[72.79367,21.19172],[72.79382,21.19294],[72.79512,21.19313],[72.79477,21.19596],[72.79501,21.19619],[72.79451,21.19685],[72.79533,21.19741],[72.79567,21.19793],[72.79482,21.19979],[72.7946,21.20158],[72.79432,21.20238],[72.79411,21.20257],[72.79397,21.20338],[72.78938,21.20279],[72.78916,21.2049],[72.78947,21.2112],[72.79034,21.2114],[72.78517,21.21504],[72.78685,21.21531],[72.78713,21.21439],[72.79158,21.2148],[72.79174,21.21485],[72.79157,21.21559],[72.79435,21.21692],[72.79594,21.21573]]]}},{"type":"Feature","bbox":[72.81667,21.19542,72.83909,21.21857],"properties":{"ward":12,"name":"Nanavat-Saiyadpura-Kubernagar-Mahidharpura"},"geometry":{"type":"Polygon","coordinates":[[[72.8222,21.21857],[72.82617,21.21839],[72.82619,21.21855],[72.82748,21.21846],[72.82766,21.21795],[72.8275,21.21734],[72.82763,21.21692],[72.82741,21.21691],[72.82743,21.2162],[72.82772,21.215],[72.82909,21.21458],[72.82735,21.21155],[72.82865,21.2112],[72.82894,21.2109],[72.82762,21.21052],[72.82802,21.20973],[72.82738,21.20971],[72.82743,21.20947],[72.82725,21.20934],[72.82741,21.2092],[72.82736,21.20834],[72.82773,21.20829],[72.82774,21.20817],[72.82757,21.20817],[72.8277,21.20662],[72.82954,21.20669],[72.82951,21.20444],[72.82877,21.20427],[72.82872,21.20411],[72.82823,21.20402],[72.82823,21.20384],[72.8295,21.20409],[72.83098,21.20406],[72.83103,21.20648],[72.83347,21.20631],[72.83461,21.20608],[72.83561,21.20622],[72.83644,21.20514],[72.83909,21.20304],[72.83887,21.20277],[72.83757,21.20226],[72.83511,21.20063],[72.83234,21.20004],[72.83125,21.19892],[72.83009,21.19852],[72.82982,21.19801],[72.82717,21.19874],[72.82637,21.19883],[72.82521,21.19866],[72.82414,21.19816],[72.82378,21.1976],[72.8226,21.1975],[72.81944,21.19684],[72.81915,21.1956],[72.81899,21.19546],[72.8172,21.19542],[72.81667,21.19574],[72.81767,21.19724],[72.81826,21.19777],[72.81948,21.20006],[72.82001,21.20248],[72.82002,21.20357],[72.82071,21.20385],[72.8207,21.20364],[72.82148,21.20409],[72.82251,21.2051],[72.82249,21.20524],[72.82305,21.20554],[72.82358,21.20579],[72.82401,21.2056],[72.82451,21.20722],[72.82454,21.20865],[72.82427,21.20907],[72.82438,21.20948],[72.82414,21.2094],[72.82397,21.2096],[72.8233,21.21084],[72.82246,21.21191],[72.82234,21.21354],[72.8224,21.21483],[72.82264,21.21505],[72.82271,21.21554],[72.8222,21.21857]]]}},{"type":"Feature","bbox":[72.81064,21.1806,72.84512,21.20385],"properties":{"ward":13,"name":"Wadi Falia-Navapura-Begumpura-Salabatpura"},"geometry":{"type":"Polygon","coordinates":[[[72.84144,21.20385],[72.84177,21.20215],[72.84257,21.20009],[72.84428,21.19693],[72.84512,21.19452],[72.84344,21.19478],[72.84341,21.19309],[72.83912,21.18696],[72.83713,21.18616],[72.8345,21.18404],[72.83352,21.18528],[72.83316,21.18613],[72.83248,21.18836],[72.83236,21.18952],[72.83159,21.18924],[72.83057,21.1902],[72.82946,21.19036],[72.82933,21.19098],[72.83008,21.19138],[72.82966,21.19197],[72.8269,21.1894],[72.82533,21.18901],[72.82516,21.18838],[72.82405,21.18741],[72.82146,21.18582],[72.82108,21.18494],[72.82008,21.1847],[72.81937,21.18409],[72.81897,21.18345],[72.81857,21.18186],[72.81852,21.1806],[72.81585,21.18151],[72.81525,21.18191],[72.81467,21.18247],[72.81487,21.18261],[72.81334,21.18404],[72.81064,21.18595],[72.81074,21.18615],[72.81432,21.18719],[72.815,21.18762],[72.81606,21.18767],[72.81621,21.18722],[72.81847,21.18721],[72.82018,21.18833],[72.82002,21.19068],[72.82095,21.19073],[72.82214,21.19019],[72.82222,21.19072],[72.82419,21.19099],[72.82418,21.19151],[72.82321,21.19195],[72.82346,21.19243],[72.82408,21.19253],[72.82375,21.19355],[72.82353,21.19356],[72.82325,21.19397],[72.82402,21.1941],[72.82368,21.19486],[72.82247,21.19442],[72.82183,21.19482],[72.8217,21.19511],[72.82118,21.19512],[72.82142,21.19579],[72.82004,21.19605],[72.81976,21.1956],[72.81915,21.1956],[72.81944,21.19684],[72.8226,21.1975],[72.82378,21.1976],[72.82437,21.19833],[72.82521,21.19866],[72.82637,21.19883],[72.82982,21.19801],[72.83009,21.19852],[72.83125,21.19892],[72.83234,21.20004],[72.83511,21.20063],[72.83757,21.20226],[72.83887,21.20277],[72.83909,21.20304],[72.8393,21.20295],[72.84004,21.2034],[72.84144,21.20385]]]}},{"type":"Feature","bbox":[72.83682,21.18351,72.85921,21.20982],"properties":{"ward":14,"name":"Umarwada-Matawadi"},"geometry":{"type":"Polygon","coordinates":[[[72.85458,21.20551],[72.85482,21.20416],[72.85701,21.20438],[72.85692,21.20395],[72.85761,21.20389],[72.8578,21.20403],[72.85807,21.20318],[72.8589,21.20241],[72.85869,21.20216],[72.85778,21.20188],[72.8577,21.20151],[72.85783,21.20128],[72.859,21.20065],[72.85921,21.20003],[72.85842,21.19947],[72.8559,21.19863],[72.85496,21.19798],[72.85479,21.19824],[72.85136,21.19768],[72.84823,21.19774],[72.84838,21.19417],[72.85235,21.19335],[72.85193,21.19301],[72.85047,21.19284],[72.84987,21.1917],[72.85051,21.19087],[72.85107,21.19061],[72.85148,21.18996],[72.85081,21.18966],[72.84964,21.18995],[72.84877,21.18971],[72.84842,21.18928],[72.84759,21.18917],[72.84689,21.1883],[72.84652,21.1874],[72.84556,21.1866],[72.84346,21.18736],[72.84326,21.18698],[72.83941,21.18351],[72.83682,21.18592],[72.83713,21.18616],[72.83883,21.18677],[72.83943,21.18736],[72.84341,21.19309],[72.84344,21.19478],[72.84512,21.19452],[72.84428,21.19693],[72.84257,21.20009],[72.84177,21.20215],[72.84144,21.20385],[72.84683,21.2057],[72.84911,21.20617],[72.84989,21.20655],[72.85175,21.20816],[72.85342,21.20865],[72.85382,21.20902],[72.85483,21.20941],[72.85645,21.20982],[72.85708,21.20774],[72.85717,21.20685],[72.85649,21.2066],[72.85657,21.206],[72.85458,21.20551]]]}},{"type":"Feature","bbox":[72.84823,21.19183,72.86956,21.21306],"properties":{"ward":15,"name":"Karanj-Magob"},"geometry":{"type":"Polygon","coordinates":[[[72.86794,21.21306],[72.86956,21.21032],[72.86921,21.20941],[72.86829,21.20937],[72.86736,21.20903],[72.8673,21.20764],[72.86623,21.20655],[72.86411,21.20522],[72.86322,21.20391],[72.86327,21.20342],[72.86207,21.20207],[72.86225,21.20118],[72.86286,21.19955],[72.8634,21.19711],[72.86443,21.19704],[72.86322,21.19623],[72.86243,21.19625],[72.86213,21.19651],[72.86157,21.19644],[72.86142,21.19667],[72.86085,21.19603],[72.86007,21.19607],[72.86005,21.19625],[72.85945,21.19575],[72.8591,21.19578],[72.85886,21.1953],[72.85891,21.19515],[72.85945,21.19504],[72.85923,21.1948],[72.85948,21.19439],[72.8591,21.19449],[72.85901,21.19467],[72.85889,21.19461],[72.85913,21.19423],[72.8588,21.19419],[72.85853,21.19438],[72.8583,21.19418],[72.85865,21.19411],[72.85857,21.19373],[72.85896,21.19384],[72.85907,21.19329],[72.85842,21.1934],[72.85842,21.19317],[72.8588,21.19318],[72.85797,21.19283],[72.85779,21.19305],[72.85771,21.19276],[72.85669,21.19295],[72.85651,21.19266],[72.85664,21.19183],[72.85509,21.19227],[72.85274,21.19341],[72.85235,21.19335],[72.84838,21.19417],[72.84823,21.19774],[72.85136,21.19768],[72.85479,21.19824],[72.85496,21.19798],[72.8559,21.19863],[72.85842,21.19947],[72.85921,21.20003],[72.859,21.20065],[72.85783,21.20128],[72.8577,21.20151],[72.85778,21.20188],[72.85869,21.20216],[72.8589,21.20241],[72.85807,21.20318],[72.8578,21.20403],[72.85761,21.20389],[72.85692,21.20395],[72.85701,21.20438],[72.85482,21.20416],[72.85458,21.20551],[72.85657,21.206],[72.85649,21.2066],[72.85717,21.20685],[72.85708,21.20774],[72.85649,21.20992],[72.85982,21.21043],[72.8611,21.21081],[72.86353,21.21111],[72.86716,21.21253],[72.86794,21.21306]]]}},{"type":"Feature","bbox":[72.86207,21.19199,72.88389,21.21527],"properties":{"ward":16,"name":"Puna(West)"},"geometry":{"type":"Polygon","coordinates":[[[72.87448,21.21522],[72.87477,21.21438],[72.87521,21.21422],[72.87588,21.21026],[72.8749,21.21],[72.87515,21.20798],[72.87496,21.20777],[72.87513,21.20614],[72.87497,21.20536],[72.87469,21.20504],[72.87505,21.20391],[72.8755,21.20316],[72.87579,21.20005],[72.87743,21.20001],[72.87832,21.1997],[72.879,21.19814],[72.88071,21.19781],[72.88389,21.19642],[72.88368,21.19621],[72.8835,21.19531],[72.88366,21.1941],[72.88312,21.19324],[72.88286,21.1932],[72.88289,21.19284],[72.88264,21.19261],[72.88204,21.19238],[72.8818,21.19263],[72.88161,21.1926],[72.88139,21.19212],[72.88071,21.19258],[72.8806,21.19283],[72.88037,21.19283],[72.88025,21.19231],[72.87982,21.19246],[72.87874,21.19241],[72.8751,21.19199],[72.87524,21.19451],[72.8723,21.19512],[72.87098,21.19582],[72.87078,21.1957],[72.86852,21.1967],[72.8675,21.19984],[72.86729,21.20219],[72.86458,21.20188],[72.8623,21.20108],[72.86225,21.20118],[72.86207,21.20207],[72.86327,21.20342],[72.86322,21.20391],[72.86411,21.20522],[72.86623,21.20655],[72.8673,21.20764],[72.86736,21.20903],[72.86829,21.20937],[72.86921,21.20941],[72.86956,21.21032],[72.86908,21.21142],[72.87095,21.21178],[72.87214,21.21259],[72.8722,21.21437],[72.87265,21.21469],[72.87296,21.21454],[72.87306,21.21507],[72.8739,21.21527],[72.87448,21.21522]]]}},{"type":"Feature","bbox":[72.87469,21.19642,72.89764,21.22328],"properties":{"ward":17,"name":"Puna(East)"},"geometry":{"type":"Polygon","coordinates":[[[72.89429,21.22186],[72.89445,21.22186],[72.89424,21.22226],[72.89431,21.22244],[72.89461,21.22262],[72.89633,21.2159],[72.89675,21.21282],[72.89764,21.2088],[72.89697,21.20874],[72.89738,21.20642],[72.89702,21.20584],[72.89546,21.20493],[72.89514,21.20454],[72.89471,21.20435],[72.89448,21.20386],[72.89354,21.20339],[72.89274,21.20161],[72.89236,21.20151],[72.89185,21.20085],[72.89179,21.20039],[72.89148,21.20054],[72.89101,21.20044],[72.89053,21.19981],[72.88944,21.19939],[72.88803,21.19916],[72.8877,21.19881],[72.88706,21.19855],[72.88656,21.19883],[72.88624,21.19857],[72.88544,21.19862],[72.88545,21.19817],[72.88509,21.19816],[72.88499,21.19728],[72.88444,21.19657],[72.88389,21.19642],[72.88071,21.19781],[72.879,21.19814],[72.87832,21.1997],[72.8778,21.19992],[72.87579,21.20005],[72.8755,21.20316],[72.87505,21.20391],[72.87469,21.20504],[72.87497,21.20536],[72.87513,21.20614],[72.87496,21.20777],[72.87515,21.20798],[72.8749,21.21],[72.87588,21.21026],[72.8752,21.21411],[72.87536,21.21504],[72.87619,21.21512],[72.87653,21.21536],[72.87729,21.21525],[72.87786,21.21623],[72.87855,21.21671],[72.88037,21.21612],[72.88122,21.21622],[72.88297,21.21761],[72.88376,21.21795],[72.88502,21.2181],[72.88521,21.21895],[72.88618,21.21931],[72.88617,21.22011],[72.88642,21.22029],[72.88678,21.22043],[72.88713,21.22016],[72.88758,21.22018],[72.88886,21.22092],[72.88952,21.22098],[72.88974,21.22083],[72.89067,21.22138],[72.89154,21.22163],[72.89244,21.22266],[72.89385,21.22328],[72.89421,21.22295],[72.89405,21.22228],[72.89429,21.22186]]]}},{"type":"Feature","bbox":[72.85016,21.17554,72.91522,21.21369],"properties":{"ward":18,"name":"Limbayat-Parvat-Kumbhariya"},"geometry":{"type":"Polygon","coordinates":[[[72.85016,21.18005],[72.85176,21.18191],[72.85391,21.18345],[72.85453,21.18364],[72.85569,21.18321],[72.8574,21.18423],[72.85787,21.18414],[72.85733,21.18273],[72.85536,21.18252],[72.85504,21.18154],[72.85521,21.18043],[72.85553,21.17997],[72.85684,21.17959],[72.85672,21.18127],[72.85799,21.18019],[72.85908,21.17978],[72.85928,21.17988],[72.8596,21.18102],[72.8599,21.1815],[72.86153,21.18207],[72.86165,21.18327],[72.86201,21.18381],[72.86253,21.18383],[72.86286,21.18365],[72.86366,21.18249],[72.86411,21.1822],[72.86508,21.18231],[72.86651,21.18455],[72.86737,21.1854],[72.86746,21.18561],[72.86717,21.18589],[72.86543,21.18616],[72.86514,21.18673],[72.86537,21.18721],[72.86377,21.19279],[72.86285,21.19478],[72.86175,21.19642],[72.86213,21.19651],[72.86243,21.19625],[72.86322,21.19623],[72.86443,21.19704],[72.8634,21.19711],[72.86286,21.19955],[72.8623,21.20108],[72.86458,21.20188],[72.86729,21.20219],[72.8675,21.19984],[72.86852,21.1967],[72.87078,21.1957],[72.87098,21.19582],[72.8723,21.19512],[72.87524,21.19451],[72.8751,21.19199],[72.87874,21.19241],[72.87982,21.19246],[72.88025,21.19231],[72.88037,21.19283],[72.8806,21.19283],[72.88071,21.19258],[72.88139,21.19212],[72.88161,21.1926],[72.8818,21.19263],[72.88204,21.19238],[72.88289,21.19284],[72.88286,21.1932],[72.88312,21.19324],[72.88366,21.1941],[72.8835,21.19531],[72.88368,21.19621],[72.88479,21.19689],[72.88499,21.19728],[72.88509,21.19816],[72.88545,21.19817],[72.88544,21.19862],[72.88624,21.19857],[72.88656,21.19883],[72.88706,21.19855],[72.8877,21.19881],[72.88803,21.19916],[72.88944,21.19939],[72.89053,21.19981],[72.89101,21.20044],[72.89148,21.20054],[72.89179,21.20039],[72.89185,21.20085],[72.89236,21.20151],[72.89274,21.20161],[72.89354,21.20339],[72.89448,21.20386],[72.89471,21.20435],[72.89514,21.20454],[72.89546,21.20493],[72.89702,21.20584],[72.89738,21.20642],[72.89697,21.20874],[72.89935,21.20916],[72.90211,21.21],[72.90242,21.21048],[72.90345,21.2109],[72.90591,21.21144],[72.90668,21.21182],[72.90678,21.21255],[72.90837,21.21281],[72.91005,21.21331],[72.91014,21.213],[72.91266,21.21369],[72.91348,21.21106],[72.91321,21.20777],[72.91366,21.20402],[72.91451,21.20007],[72.91508,21.19899],[72.91522,21.19789],[72.91487,21.19702],[72.9133,21.19519],[72.91267,21.19414],[72.91218,21.19407],[72.91118,21.19359],[72.91107,21.19356],[72.91075,21.19432],[72.91117,21.19495],[72.9104,21.19571],[72.90965,21.19594],[72.9096,21.19515],[72.90704,21.19514],[72.90672,21.19435],[72.9063,21.1944],[72.90565,21.19392],[72.90519,21.19401],[72.90405,21.19373],[72.90414,21.19314],[72.90381,21.19276],[72.90106,21.19279],[72.90208,21.19074],[72.90211,21.18924],[72.90254,21.18901],[72.90259,21.18819],[72.90303,21.18642],[72.90378,21.18088],[72.90378,21.17994],[72.90325,21.17949],[72.90239,21.17957],[72.9018,21.17993],[72.90024,21.18024],[72.89182,21.17938],[72.88711,21.17853],[72.88243,21.17794],[72.88232,21.17797],[72.88229,21.17854],[72.88202,21.17852],[72.88202,21.17863],[72.87965,21.17855],[72.87924,21.17792],[72.87923,21.17708],[72.87941,21.17658],[72.87756,21.17697],[72.87411,21.17727],[72.87155,21.17677],[72.87147,21.17637],[72.86885,21.17627],[72.86838,21.17628],[72.86789,21.17901],[72.86731,21.17926],[72.86693,21.17888],[72.86706,21.17883],[72.8671,21.17836],[72.86572,21.17827],[72.86551,21.17895],[72.86452,21.17877],[72.86464,21.17804],[72.86252,21.17752],[72.86256,21.17736],[72.86021,21.17701],[72.86028,21.17672],[72.85656,21.17588],[72.85435,21.17554],[72.85404,21.17742],[72.8535,21.17922],[72.85238,21.17955],[72.85061,21.1798],[72.85016,21.18005]]]}},{"type":"Feature","bbox":[72.83273,21.17249,72.86746,21.19667],"properties":{"ward":19,"name":"Aanjana-Dumbhal"},"geometry":{"type":"Polygon","coordinates":[[[72.86177,21.1964],[72.86285,21.19478],[72.86377,21.19279],[72.86537,21.18721],[72.86514,21.18673],[72.86543,21.18616],[72.86717,21.18589],[72.86746,21.18561],[72.86651,21.18455],[72.86508,21.18231],[72.86411,21.1822],[72.86366,21.18249],[72.86286,21.18365],[72.86253,21.18383],[72.86201,21.18381],[72.86165,21.18327],[72.86153,21.18207],[72.8599,21.1815],[72.8596,21.18102],[72.85928,21.17988],[72.85908,21.17978],[72.85799,21.18019],[72.85672,21.18127],[72.85684,21.17959],[72.85534,21.18009],[72.85504,21.18154],[72.85536,21.18252],[72.85733,21.18273],[72.85787,21.18414],[72.8574,21.18423],[72.85569,21.18321],[72.85453,21.18364],[72.85424,21.18361],[72.85176,21.18191],[72.84988,21.17972],[72.84954,21.17956],[72.84888,21.17968],[72.84778,21.17941],[72.84682,21.17805],[72.84723,21.17684],[72.84694,21.17603],[72.84662,21.17589],[72.84677,21.17493],[72.8435,21.17376],[72.84306,21.17373],[72.84315,21.17317],[72.83911,21.17249],[72.83782,21.17405],[72.83589,21.17584],[72.83604,21.17593],[72.83394,21.17824],[72.83273,21.18041],[72.83569,21.18184],[72.83598,21.18104],[72.83697,21.18168],[72.83814,21.18211],[72.83962,21.18333],[72.83941,21.18351],[72.84326,21.18698],[72.84346,21.18736],[72.84556,21.1866],[72.84652,21.1874],[72.84689,21.1883],[72.84759,21.18917],[72.84842,21.18928],[72.84877,21.18971],[72.84964,21.18995],[72.85081,21.18966],[72.85148,21.18996],[72.85107,21.19061],[72.85051,21.19087],[72.84989,21.19159],[72.85047,21.19284],[72.85193,21.19301],[72.85249,21.19344],[72.85274,21.19341],[72.85509,21.19227],[72.85664,21.19183],[72.85651,21.19266],[72.85669,21.19295],[72.85771,21.19276],[72.85779,21.19305],[72.85797,21.19283],[72.8588,21.19318],[72.85842,21.19317],[72.85842,21.1934],[72.85907,21.19329],[72.85896,21.19384],[72.85857,21.19373],[72.85865,21.19411],[72.8583,21.19418],[72.85853,21.19438],[72.8588,21.19419],[72.85913,21.19423],[72.85889,21.19461],[72.85901,21.19467],[72.8591,21.19449],[72.85948,21.19439],[72.85923,21.1948],[72.85945,21.19504],[72.85891,21.19515],[72.85886,21.1953],[72.8591,21.19578],[72.85945,21.19575],[72.86005,21.19625],[72.86007,21.19607],[72.86085,21.19603],[72.86142,21.19667],[72.86177,21.1964]]]}},{"type":"Feature","bbox":[72.80044,21.1624,72.83962,21.19197],"properties":{"ward":20,"name":"Khatodara-Majura-Sagrampura"},"geometry":{"type":"Polygon","coordinates":[[[72.83159,21.18924],[72.83236,21.18952],[72.83248,21.18836],[72.83316,21.18613],[72.83352,21.18528],[72.8345,21.18404],[72.83682,21.18592],[72.83962,21.18333],[72.83814,21.18211],[72.83697,21.18168],[72.83598,21.18104],[72.83569,21.18184],[72.83273,21.18041],[72.83394,21.17824],[72.83604,21.17593],[72.83533,21.17541],[72.83435,21.1728],[72.83373,21.17271],[72.83286,21.17395],[72.83275,21.17388],[72.83247,21.17427],[72.83223,21.17418],[72.83206,21.17486],[72.83101,21.17549],[72.82928,21.17364],[72.82761,21.17216],[72.8269,21.17072],[72.82679,21.17245],[72.8207,21.16772],[72.81994,21.17196],[72.81584,21.17085],[72.81349,21.16584],[72.8133,21.16601],[72.81241,21.16574],[72.81229,21.16512],[72.81203,21.16518],[72.81185,21.16444],[72.81171,21.16441],[72.81111,21.16291],[72.80989,21.16267],[72.80987,21.16283],[72.80795,21.16262],[72.80284,21.16268],[72.80287,21.1624],[72.80231,21.16243],[72.80219,21.16351],[72.80147,21.16344],[72.80111,21.16522],[72.80193,21.16532],[72.80181,21.16602],[72.80196,21.16607],[72.80178,21.16694],[72.80158,21.16705],[72.80124,21.17005],[72.80044,21.17248],[72.80122,21.17295],[72.80228,21.17304],[72.80285,21.17346],[72.80413,21.17401],[72.80794,21.17518],[72.80819,21.17538],[72.80826,21.1757],[72.80805,21.1765],[72.80774,21.17645],[72.80756,21.17704],[72.80833,21.1772],[72.80862,21.1766],[72.80986,21.17698],[72.81011,21.17628],[72.81177,21.17726],[72.81172,21.17747],[72.81337,21.17817],[72.81308,21.17891],[72.81227,21.17872],[72.81206,21.17971],[72.81337,21.18008],[72.81291,21.18085],[72.81268,21.1821],[72.81467,21.18247],[72.81585,21.18151],[72.81852,21.1806],[72.81857,21.18186],[72.81897,21.18345],[72.81937,21.18409],[72.82008,21.1847],[72.82108,21.18494],[72.82146,21.18582],[72.82405,21.18741],[72.82516,21.18838],[72.82533,21.18901],[72.8269,21.1894],[72.82966,21.19197],[72.83008,21.19138],[72.82933,21.19098],[72.82946,21.19036],[72.83057,21.1902],[72.83159,21.18924]]]}},{"type":"Feature","bbox":[72.76591,21.15676,72.82419,21.19605],"properties":{"ward":21,"name":"Soni Falia-Nanpura-Athwa-Piplod"},"geometry":{"type":"Polygon","coordinates":[[[72.82142,21.19579],[72.82118,21.19512],[72.8217,21.19511],[72.82183,21.19482],[72.82247,21.19442],[72.82368,21.19486],[72.82402,21.1941],[72.82325,21.19397],[72.82353,21.19356],[72.82375,21.19355],[72.82408,21.19253],[72.82346,21.19243],[72.82321,21.19195],[72.82418,21.19151],[72.82419,21.19099],[72.82222,21.19072],[72.82214,21.19019],[72.82095,21.19073],[72.82002,21.19068],[72.82018,21.18833],[72.81847,21.18721],[72.81621,21.18722],[72.81606,21.18767],[72.815,21.18762],[72.81485,21.18743],[72.81359,21.18693],[72.81321,21.18682],[72.81317,21.18696],[72.81063,21.18604],[72.81334,21.18404],[72.81487,21.18261],[72.81452,21.18239],[72.81268,21.1821],[72.81291,21.18085],[72.81337,21.18008],[72.81206,21.17971],[72.81227,21.17872],[72.81308,21.17891],[72.81337,21.17817],[72.81172,21.17747],[72.81177,21.17726],[72.81011,21.17628],[72.80986,21.17698],[72.80862,21.1766],[72.80833,21.1772],[72.80756,21.17704],[72.80774,21.17645],[72.80805,21.1765],[72.80826,21.1757],[72.80819,21.17538],[72.80794,21.17518],[72.80413,21.17401],[72.80285,21.17346],[72.80228,21.17304],[72.80122,21.17295],[72.80044,21.17248],[72.80124,21.17005],[72.80158,21.16705],[72.80178,21.16694],[72.80196,21.16607],[72.80181,21.16602],[72.80193,21.16532],[72.80111,21.16522],[72.80147,21.16344],[72.80219,21.16351],[72.80227,21.16262],[72.79971,21.16244],[72.79967,21.16275],[72.79748,21.16255],[72.79725,21.16225],[72.795,21.16193],[72.79096,21.161],[72.78533,21.15808],[72.78267,21.15761],[72.78119,21.15762],[72.7785,21.1573],[72.77847,21.15862],[72.77795,21.15857],[72.77794,21.15902],[72.77635,21.15894],[72.77318,21.15918],[72.77184,21.15902],[72.76784,21.15676],[72.7676,21.15712],[72.76724,21.15684],[72.76661,21.15805],[72.76591,21.16018],[72.76679,21.16069],[72.76697,21.16103],[72.76809,21.16146],[72.76815,21.16162],[72.7687,21.16169],[72.76909,21.162],[72.7692,21.16191],[72.77013,21.16219],[72.7707,21.16263],[72.77138,21.16287],[72.77203,21.16343],[72.77205,21.16369],[72.7732,21.16484],[72.77583,21.16902],[72.77624,21.16938],[72.77648,21.17162],[72.7762,21.17198],[72.77662,21.17237],[72.77667,21.17263],[72.77692,21.17266],[72.7782,21.17391],[72.78064,21.17546],[72.78378,21.17618],[72.78711,21.17735],[72.7905,21.17789],[72.79043,21.17819],[72.79264,21.17852],[72.79262,21.17865],[72.79502,21.17924],[72.79705,21.18013],[72.80034,21.18199],[72.80244,21.18353],[72.80329,21.18458],[72.80683,21.18671],[72.80758,21.18769],[72.80839,21.18821],[72.80872,21.18866],[72.81099,21.18971],[72.8124,21.1909],[72.81382,21.1918],[72.81393,21.19172],[72.81383,21.19196],[72.81463,21.19262],[72.81538,21.19267],[72.81549,21.1925],[72.81583,21.19264],[72.81549,21.19303],[72.81549,21.19324],[72.81556,21.19316],[72.81583,21.19364],[72.81549,21.19392],[72.81667,21.19573],[72.8172,21.19542],[72.81976,21.1956],[72.82004,21.19605],[72.82142,21.19579]]]}},{"type":"Feature","bbox":[72.70146,21.07864,72.82027,21.16503],"properties":{"ward":22,"name":"Bhatar-Vesu-Dumas"},"geometry":{"type":"Polygon","coordinates":[[[72.71375,21.13732],[72.71568,21.13892],[72.717,21.13925],[72.71939,21.13923],[72.72368,21.13829],[72.72823,21.13776],[72.73285,21.13803],[72.73527,21.13861],[72.73836,21.13997],[72.73927,21.14053],[72.74063,21.14071],[72.74335,21.14226],[72.74694,21.14387],[72.74787,21.14458],[72.75003,21.1467],[72.75367,21.14849],[72.75736,21.1509],[72.76078,21.15376],[72.76078,21.15512],[72.76147,21.15657],[72.76375,21.15742],[72.7649,21.15802],[72.76576,21.1591],[72.76683,21.15662],[72.76694,21.15651],[72.76728,21.15677],[72.76759,21.15631],[72.77151,21.15871],[72.77305,21.15887],[72.77608,21.15864],[72.77757,21.15871],[72.77759,21.15827],[72.77815,21.15834],[72.77816,21.157],[72.7809,21.15733],[72.78236,21.15731],[72.78505,21.1578],[72.79067,21.16072],[72.79494,21.16176],[72.79722,21.16214],[72.79747,21.16243],[72.7996,21.16265],[72.79963,21.16234],[72.80217,21.1625],[72.80222,21.16232],[72.80288,21.16228],[72.80289,21.16257],[72.80786,21.16251],[72.80978,21.16271],[72.80981,21.16256],[72.81114,21.16282],[72.81172,21.1643],[72.81185,21.1643],[72.81204,21.16503],[72.8122,21.165],[72.81216,21.16415],[72.81308,21.16428],[72.81353,21.16317],[72.81383,21.16322],[72.81395,21.1629],[72.81492,21.16309],[72.81638,21.16384],[72.81721,21.16407],[72.81852,21.15932],[72.81977,21.15942],[72.82027,21.15927],[72.81916,21.15739],[72.81836,21.15715],[72.81766,21.15592],[72.81692,21.1556],[72.81623,21.15505],[72.81419,21.15271],[72.81262,21.15018],[72.81126,21.14956],[72.80996,21.15338],[72.81026,21.15366],[72.81059,21.15521],[72.80939,21.15533],[72.80942,21.1559],[72.80696,21.15613],[72.80678,21.15474],[72.80624,21.15471],[72.80625,21.15613],[72.80461,21.15604],[72.80465,21.15567],[72.80333,21.1553],[72.8032,21.15547],[72.80245,21.15538],[72.80254,21.15462],[72.80216,21.15439],[72.7991,21.15387],[72.79713,21.15331],[72.79723,21.15238],[72.79763,21.15237],[72.79897,21.14826],[72.79906,21.1467],[72.79962,21.14378],[72.79895,21.14354],[72.79833,21.14452],[72.79662,21.14424],[72.79664,21.14301],[72.79518,21.14226],[72.79555,21.13957],[72.79571,21.13674],[72.79326,21.13513],[72.79347,21.13114],[72.79409,21.12859],[72.795,21.12812],[72.79577,21.12805],[72.79687,21.12939],[72.79742,21.12948],[72.79728,21.12857],[72.7986,21.12794],[72.79931,21.12533],[72.79941,21.12254],[72.7985,21.12229],[72.79704,21.12245],[72.79682,21.1231],[72.79589,21.12314],[72.79498,21.12294],[72.79201,21.12169],[72.79159,21.12135],[72.79157,21.12075],[72.78942,21.12061],[72.78575,21.1205],[72.78578,21.1212],[72.78251,21.12135],[72.78229,21.12174],[72.7787,21.12184],[72.7788,21.128],[72.77283,21.12701],[72.77231,21.12667],[72.77047,21.12628],[72.76991,21.126],[72.76798,21.12597],[72.76768,21.12708],[72.76581,21.12814],[72.7636,21.128],[72.76321,21.12949],[72.76207,21.13004],[72.75886,21.1294],[72.75363,21.12788],[72.75122,21.12735],[72.74808,21.12718],[72.74706,21.12116],[72.74742,21.11505],[72.74677,21.10594],[72.74734,21.1039],[72.74581,21.09647],[72.7459,21.09486],[72.74315,21.08972],[72.74248,21.08921],[72.73973,21.0862],[72.73401,21.08092],[72.73164,21.07914],[72.72913,21.07864],[72.72434,21.07891],[72.72386,21.07907],[72.72352,21.07972],[72.71383,21.081],[72.71078,21.08235],[72.70838,21.08587],[72.70794,21.08699],[72.70441,21.09302],[72.70172,21.09866],[72.70146,21.10291],[72.70256,21.10489],[72.70428,21.10573],[72.70619,21.10613],[72.70652,21.10884],[72.70813,21.1124],[72.70749,21.11649],[72.70743,21.11773],[72.70653,21.11799],[72.70751,21.127],[72.7078,21.12836],[72.70963,21.13252],[72.71375,21.13732]]]}},{"type":"Feature","bbox":[72.81224,21.14938,72.84123,21.17584],"properties":{"ward":23,"name":"Bamroli-Udhna(North)"},"geometry":{"type":"Polygon","coordinates":[[[72.83589,21.17584],[72.83821,21.17359],[72.83911,21.17244],[72.83934,21.17187],[72.84087,21.16494],[72.84063,21.16486],[72.84123,21.16264],[72.84043,21.1625],[72.84018,21.16341],[72.83891,21.16332],[72.83762,21.16304],[72.83767,21.16286],[72.83564,21.16265],[72.83519,21.16194],[72.83509,21.16229],[72.83466,21.16236],[72.83467,21.16284],[72.833,21.16252],[72.83188,21.16256],[72.83035,21.16279],[72.82873,21.16331],[72.82882,21.16234],[72.82977,21.15922],[72.82995,21.15786],[72.82971,21.15779],[72.82997,21.15465],[72.82989,21.15298],[72.83014,21.1509],[72.82944,21.15096],[72.82911,21.15161],[72.82709,21.15149],[72.82731,21.15019],[72.82129,21.14948],[72.82123,21.14982],[72.82034,21.1497],[72.82035,21.14946],[72.81915,21.14938],[72.81845,21.14945],[72.81626,21.15019],[72.81576,21.15],[72.81358,21.1504],[72.81466,21.15145],[72.81551,21.15168],[72.81662,21.15263],[72.81671,21.15308],[72.81627,21.1545],[72.81829,21.1559],[72.81984,21.158],[72.82056,21.1593],[72.81986,21.15954],[72.81868,21.15941],[72.81861,21.16011],[72.81845,21.16013],[72.81735,21.16423],[72.8163,21.164],[72.81516,21.16326],[72.81404,21.16303],[72.81394,21.16331],[72.81362,21.16325],[72.81316,21.16438],[72.81224,21.16424],[72.81241,21.16574],[72.8133,21.16601],[72.81349,21.16584],[72.81584,21.17085],[72.81994,21.17196],[72.8207,21.16772],[72.82679,21.17245],[72.8269,21.17072],[72.82761,21.17216],[72.82928,21.17364],[72.83101,21.17549],[72.83206,21.17486],[72.83223,21.17418],[72.83247,21.17427],[72.83275,21.17388],[72.83286,21.17395],[72.83373,21.17271],[72.83435,21.1728],[72.83533,21.17541],[72.83589,21.17584]]]}},{"type":"Feature","bbox":[72.82873,21.15079,72.85448,21.18005],"properties":{"ward":24,"name":"Udhna(South)"},"geometry":{"type":"Polygon","coordinates":[[[72.85061,21.1798],[72.8535,21.17922],[72.85404,21.17742],[72.85448,21.17496],[72.85313,21.17472],[72.85317,21.1745],[72.85032,21.17407],[72.8532,21.16302],[72.85259,21.16345],[72.85222,21.16272],[72.85134,21.162],[72.84813,21.16172],[72.84844,21.15962],[72.84832,21.15943],[72.84665,21.15928],[72.84326,21.15835],[72.84432,21.15574],[72.83988,21.15482],[72.83991,21.15455],[72.83816,21.15423],[72.8383,21.15131],[72.83348,21.15079],[72.83336,21.15094],[72.83014,21.1509],[72.82989,21.15298],[72.82997,21.15465],[72.82971,21.15779],[72.82995,21.15786],[72.82977,21.15922],[72.82882,21.16234],[72.82873,21.16331],[72.83035,21.16279],[72.83188,21.16256],[72.833,21.16252],[72.83467,21.16284],[72.83466,21.16236],[72.83509,21.16229],[72.83519,21.16194],[72.83564,21.16265],[72.83767,21.16286],[72.83762,21.16304],[72.83891,21.16332],[72.84018,21.16341],[72.84043,21.1625],[72.84123,21.16264],[72.84063,21.16486],[72.84087,21.16494],[72.83965,21.17073],[72.83907,21.17248],[72.84315,21.17317],[72.84306,21.17373],[72.8435,21.17376],[72.84677,21.17493],[72.84662,21.17589],[72.84694,21.17603],[72.84723,21.17684],[72.84682,21.17805],[72.84778,21.17941],[72.84888,21.17968],[72.84954,21.17956],[72.85016,21.18005],[72.85061,21.1798]]]}},{"type":"Feature","bbox":[72.85032,21.15534,72.86883,21.17926],"properties":{"ward":25,"name":"Limbayat-Udhna Yard"},"geometry":{"type":"Polygon","coordinates":[[[72.86789,21.17901],[72.86841,21.17606],[72.86883,21.1751],[72.86655,21.17506],[72.86741,21.17137],[72.86567,21.17114],[72.86581,21.16979],[72.85965,21.16872],[72.85892,21.16788],[72.85862,21.16398],[72.85819,21.16388],[72.85813,21.16302],[72.85709,21.16314],[72.85684,21.16169],[72.85655,21.16128],[72.85614,21.1554],[72.85524,21.15534],[72.85032,21.17407],[72.85317,21.1745],[72.85313,21.17472],[72.85448,21.17496],[72.85435,21.17554],[72.85656,21.17588],[72.86028,21.17672],[72.86021,21.17701],[72.86256,21.17736],[72.86252,21.17752],[72.86464,21.17804],[72.86452,21.17877],[72.86551,21.17895],[72.86572,21.17827],[72.8671,21.17836],[72.86706,21.17883],[72.86693,21.17888],[72.86731,21.17926],[72.86789,21.17901]]]}},{"type":"Feature","bbox":[72.85813,21.16003,72.88455,21.17727],"properties":{"ward":26,"name":"Godadara-Dindoli(North)"},"geometry":{"type":"Polygon","coordinates":[[[72.87932,21.1766],[72.88245,21.17542],[72.88233,21.17295],[72.88244,21.1708],[72.88306,21.16886],[72.88352,21.1661],[72.8837,21.16613],[72.88455,21.16003],[72.87248,21.16125],[72.86869,21.16187],[72.85813,21.16302],[72.85819,21.16388],[72.85862,21.16398],[72.85892,21.16788],[72.85965,21.16872],[72.86581,21.16979],[72.86567,21.17114],[72.86741,21.17137],[72.86655,21.17506],[72.86883,21.1751],[72.86838,21.17628],[72.87147,21.17637],[72.87155,21.17677],[72.87411,21.17727],[72.87756,21.17697],[72.87932,21.1766]]]}},{"type":"Feature","bbox":[72.85524,21.13791,72.88732,21.16314],"properties":{"ward":27,"name":"Dindoli(South)"},"geometry":{"type":"Polygon","coordinates":[[[72.88485,21.15879],[72.8853,21.15459],[72.88511,21.15118],[72.88483,21.14925],[72.88476,21.14732],[72.88496,21.14558],[72.88577,21.14188],[72.88708,21.13995],[72.88732,21.13892],[72.88527,21.1382],[72.88214,21.13791],[72.88194,21.13958],[72.88148,21.1415],[72.88018,21.1438],[72.87339,21.1439],[72.87166,21.14369],[72.86865,21.14367],[72.86736,21.14347],[72.86735,21.1431],[72.86687,21.14307],[72.86728,21.13869],[72.86607,21.13876],[72.86603,21.13907],[72.86411,21.13905],[72.86239,21.13961],[72.86237,21.14016],[72.86075,21.14054],[72.86074,21.14073],[72.85988,21.141],[72.8598,21.14135],[72.85922,21.14157],[72.85852,21.1454],[72.85699,21.14983],[72.85689,21.14981],[72.857,21.14996],[72.85614,21.15301],[72.85524,21.15534],[72.85614,21.1554],[72.85655,21.16128],[72.85684,21.16169],[72.85709,21.16314],[72.86869,21.16187],[72.87248,21.16125],[72.88455,21.16003],[72.88459,21.15944],[72.88485,21.15879]]]}},{"type":"Feature","bbox":[72.82597,21.10919,72.87411,21.16345],"properties":{"ward":28,"name":"Pandesara-Bhestan"},"geometry":{"type":"Polygon","coordinates":[[[72.85326,21.16299],[72.85525,21.1553],[72.85614,21.15301],[72.857,21.14996],[72.85689,21.14981],[72.85699,21.14983],[72.85852,21.1454],[72.85922,21.14157],[72.8598,21.14135],[72.85988,21.141],[72.86074,21.14073],[72.86075,21.14054],[72.86237,21.14016],[72.86239,21.13961],[72.86411,21.13905],[72.86603,21.13907],[72.86607,21.13876],[72.86825,21.13873],[72.86837,21.13757],[72.86868,21.13739],[72.86999,21.13538],[72.87184,21.13184],[72.87264,21.12964],[72.87285,21.12875],[72.87257,21.1287],[72.87306,21.12803],[72.87364,21.12565],[72.87411,21.12297],[72.87407,21.1219],[72.87374,21.12186],[72.87384,21.11929],[72.87175,21.11917],[72.8697,21.1193],[72.86973,21.11905],[72.86989,21.11906],[72.87036,21.11612],[72.87094,21.11459],[72.87058,21.11331],[72.86974,21.11134],[72.86668,21.11143],[72.8639,21.11095],[72.86317,21.10932],[72.86231,21.10919],[72.85818,21.11986],[72.85537,21.12577],[72.85472,21.12816],[72.85333,21.13219],[72.84831,21.14452],[72.84795,21.14751],[72.84668,21.14761],[72.84572,21.14667],[72.84481,21.14626],[72.84387,21.14625],[72.84285,21.1465],[72.84193,21.14629],[72.84219,21.14493],[72.84206,21.1447],[72.84098,21.14426],[72.84043,21.14447],[72.84015,21.14578],[72.83846,21.1463],[72.83813,21.14616],[72.8381,21.14566],[72.83778,21.14507],[72.83734,21.14484],[72.83662,21.14521],[72.83635,21.14515],[72.83613,21.14502],[72.83568,21.14404],[72.83522,21.14398],[72.83499,21.14419],[72.83043,21.14471],[72.83001,21.14437],[72.83095,21.14183],[72.83159,21.13945],[72.82908,21.13994],[72.82796,21.13991],[72.82597,21.13952],[72.82756,21.14492],[72.82762,21.14858],[72.82709,21.15149],[72.82911,21.15161],[72.82944,21.15096],[72.83336,21.15094],[72.8334,21.15079],[72.8383,21.15131],[72.83816,21.15423],[72.83991,21.15455],[72.83988,21.15482],[72.84432,21.15574],[72.84326,21.15835],[72.84665,21.15928],[72.84834,21.15944],[72.84844,21.15962],[72.84813,21.16172],[72.85134,21.162],[72.85222,21.16272],[72.85259,21.16345],[72.85326,21.16299]]]}},{"type":"Feature","bbox":[72.79727,21.11697,72.85869,21.1561],"properties":{"ward":29,"name":"Althan-Bamroli-Vadod"},"geometry":{"type":"Polygon","coordinates":[[[72.8061,21.1561],[72.80611,21.15458],[72.8069,21.15458],[72.80707,21.15605],[72.80901,21.15592],[72.80931,21.15582],[72.80927,21.15523],[72.81047,21.15516],[72.81023,21.15378],[72.80986,21.15341],[72.80999,21.15259],[72.81122,21.14935],[72.81229,21.15005],[72.81302,21.15004],[72.81339,21.15043],[72.81576,21.15],[72.81626,21.15019],[72.81845,21.14945],[72.81915,21.14938],[72.82035,21.14946],[72.82034,21.1497],[72.82123,21.14982],[72.82129,21.14948],[72.82731,21.15019],[72.82762,21.14849],[72.82756,21.14492],[72.82597,21.13952],[72.82796,21.13991],[72.82908,21.13994],[72.83159,21.13945],[72.83095,21.14183],[72.83001,21.14437],[72.83043,21.14471],[72.83499,21.14419],[72.83522,21.14398],[72.83568,21.14404],[72.83613,21.14502],[72.83635,21.14515],[72.83662,21.14521],[72.83734,21.14484],[72.83778,21.14507],[72.8381,21.14566],[72.83813,21.14616],[72.83846,21.1463],[72.84015,21.14578],[72.84043,21.14447],[72.84098,21.14426],[72.84206,21.1447],[72.84219,21.14493],[72.84193,21.14629],[72.84285,21.1465],[72.84387,21.14625],[72.84481,21.14626],[72.84572,21.14667],[72.84668,21.14761],[72.84795,21.14751],[72.84848,21.14403],[72.85333,21.13219],[72.85472,21.12816],[72.85537,21.12577],[72.85818,21.11986],[72.85869,21.11833],[72.85284,21.11774],[72.84776,21.11763],[72.84764,21.11697],[72.84632,21.11754],[72.84579,21.11827],[72.84574,21.11897],[72.84607,21.11968],[72.8447,21.11999],[72.84471,21.11986],[72.84423,21.11991],[72.84362,21.12046],[72.84335,21.12093],[72.84286,21.12079],[72.84209,21.12092],[72.84196,21.12101],[72.84185,21.12233],[72.83934,21.12212],[72.83568,21.12135],[72.83526,21.12114],[72.83527,21.1209],[72.83426,21.12076],[72.83435,21.12037],[72.83145,21.11987],[72.82492,21.11966],[72.82213,21.12003],[72.81763,21.11984],[72.81701,21.11985],[72.81668,21.12007],[72.81644,21.1199],[72.81454,21.11951],[72.81509,21.11923],[72.81274,21.11852],[72.8077,21.12003],[72.80757,21.12225],[72.80849,21.12447],[72.80835,21.12619],[72.80776,21.12891],[72.80688,21.12977],[72.80671,21.13044],[72.80797,21.13299],[72.80806,21.13432],[72.80774,21.13506],[72.80775,21.13539],[72.80729,21.13585],[72.80695,21.13665],[72.80668,21.1381],[72.80681,21.13845],[72.80716,21.13842],[72.80694,21.13892],[72.80737,21.13933],[72.80642,21.14025],[72.80589,21.13971],[72.80237,21.13935],[72.80204,21.13943],[72.80201,21.13965],[72.80075,21.14013],[72.79994,21.14184],[72.7997,21.14362],[72.79982,21.1436],[72.79919,21.14713],[72.79919,21.14856],[72.79802,21.15223],[72.7977,21.15255],[72.79744,21.15245],[72.79727,21.15319],[72.80039,21.15398],[72.80237,21.15429],[72.80242,21.15444],[72.80271,21.1545],[72.80253,21.15534],[72.80317,21.15538],[72.80323,21.15517],[72.80487,21.15561],[72.80488,21.15603],[72.8061,21.1561]]]}},{"type":"Feature","bbox":[72.74333,21.05573,72.8962,21.14444],"properties":{"ward":30,"name":"Kansad-Sachin-Unn-Aabhva"},"geometry":{"type":"Polygon","coordinates":[[[72.74333,21.08966],[72.74359,21.08975],[72.74636,21.09492],[72.74641,21.09672],[72.74789,21.10406],[72.74725,21.10633],[72.74794,21.11495],[72.74761,21.12133],[72.74837,21.12711],[72.74999,21.12709],[72.75245,21.12751],[72.75812,21.12913],[72.76212,21.12998],[72.76307,21.12947],[72.76358,21.12796],[72.76597,21.12802],[72.76746,21.12717],[72.76788,21.12585],[72.76879,21.12598],[72.76884,21.12585],[72.76961,21.12589],[72.77059,21.12615],[72.77059,21.12627],[72.77278,21.12671],[72.77304,21.12703],[72.77861,21.12794],[72.77866,21.12393],[72.77844,21.12245],[72.77855,21.12171],[72.78023,21.12158],[72.78212,21.12168],[72.78227,21.12134],[72.78273,21.12124],[72.7856,21.12116],[72.78577,21.12041],[72.7887,21.12052],[72.78948,21.12039],[72.79179,21.12077],[72.79183,21.12133],[72.79564,21.12301],[72.7965,21.12296],[72.79695,21.1224],[72.79832,21.12203],[72.79988,21.12243],[72.79992,21.12538],[72.79909,21.12841],[72.79778,21.12892],[72.79745,21.12985],[72.79722,21.12992],[72.79604,21.12852],[72.79531,21.12853],[72.79497,21.12899],[72.79466,21.12883],[72.79432,21.12938],[72.79446,21.12978],[72.79403,21.13124],[72.79383,21.13269],[72.79371,21.13531],[72.79595,21.13669],[72.79596,21.13901],[72.79583,21.13901],[72.79584,21.14005],[72.79548,21.14221],[72.79566,21.14243],[72.79684,21.14288],[72.79673,21.14364],[72.79685,21.14416],[72.79755,21.14435],[72.79762,21.14422],[72.79814,21.14444],[72.79888,21.14342],[72.79979,21.14369],[72.79994,21.14184],[72.80076,21.14013],[72.80201,21.13965],[72.80204,21.13943],[72.80237,21.13935],[72.80589,21.13971],[72.80642,21.14025],[72.80737,21.13933],[72.80694,21.13892],[72.80716,21.13842],[72.80681,21.13845],[72.80668,21.1381],[72.80695,21.13665],[72.80729,21.13585],[72.80775,21.13539],[72.80774,21.13506],[72.80806,21.13432],[72.80797,21.13299],[72.80671,21.13044],[72.80688,21.12977],[72.80776,21.12891],[72.80835,21.12619],[72.80849,21.12447],[72.80757,21.12225],[72.8077,21.12003],[72.81274,21.11852],[72.81509,21.11923],[72.81454,21.11951],[72.81644,21.1199],[72.81668,21.12007],[72.81701,21.11985],[72.81763,21.11984],[72.82213,21.12003],[72.82492,21.11966],[72.83145,21.11987],[72.83435,21.12037],[72.83426,21.12076],[72.83527,21.1209],[72.83526,21.12114],[72.83568,21.12135],[72.83934,21.12212],[72.84185,21.12233],[72.84196,21.12101],[72.84209,21.12092],[72.84286,21.12079],[72.84335,21.12093],[72.84362,21.12046],[72.84423,21.11991],[72.84471,21.11986],[72.8447,21.11999],[72.84607,21.11968],[72.84574,21.11897],[72.84579,21.11827],[72.84632,21.11754],[72.84764,21.11697],[72.84776,21.11763],[72.85284,21.11774],[72.85869,21.11833],[72.86231,21.10919],[72.8633,21.10938],[72.8639,21.11095],[72.86668,21.11143],[72.86974,21.11134],[72.86937,21.11],[72.86875,21.10938],[72.86863,21.10812],[72.86885,21.1057],[72.869,21.10569],[72.86922,21.10456],[72.87006,21.10214],[72.87131,21.09921],[72.87518,21.09995],[72.8861,21.10086],[72.88623,21.10048],[72.88605,21.09916],[72.88612,21.09832],[72.88538,21.09847],[72.88533,21.09786],[72.88551,21.09773],[72.88538,21.0976],[72.88474,21.09759],[72.88463,21.09738],[72.88491,21.09698],[72.88539,21.09543],[72.88532,21.09429],[72.88556,21.0921],[72.88605,21.08968],[72.88618,21.08978],[72.88685,21.08817],[72.88916,21.08818],[72.89133,21.08786],[72.89221,21.08787],[72.89554,21.08848],[72.89578,21.08701],[72.89556,21.08649],[72.89587,21.08594],[72.89533,21.08592],[72.8962,21.07962],[72.89561,21.0798],[72.89532,21.07934],[72.8948,21.07926],[72.89489,21.07899],[72.8947,21.07877],[72.89443,21.079],[72.89423,21.07863],[72.89373,21.07849],[72.89352,21.07876],[72.89365,21.07837],[72.89347,21.07827],[72.89286,21.07871],[72.89246,21.07878],[72.89224,21.07843],[72.89202,21.07841],[72.8913,21.07773],[72.8906,21.0779],[72.8904,21.07767],[72.88986,21.07779],[72.88969,21.07761],[72.8897,21.07727],[72.88906,21.07679],[72.88874,21.07628],[72.88851,21.07627],[72.88818,21.07662],[72.88788,21.07667],[72.88775,21.07702],[72.88722,21.07712],[72.88665,21.07703],[72.88608,21.07727],[72.88526,21.07573],[72.8853,21.07401],[72.88501,21.07388],[72.88497,21.07368],[72.88535,21.07343],[72.88522,21.07321],[72.88466,21.07295],[72.88443,21.07219],[72.88367,21.07173],[72.88364,21.0716],[72.88437,21.07126],[72.88438,21.07101],[72.88359,21.07049],[72.88279,21.06947],[72.8833,21.0689],[72.88361,21.06877],[72.88389,21.06828],[72.88502,21.06383],[72.88496,21.06189],[72.88526,21.05918],[72.88437,21.0586],[72.88231,21.05954],[72.87975,21.05864],[72.87802,21.05891],[72.87495,21.05978],[72.87331,21.05903],[72.871,21.05876],[72.87012,21.05982],[72.86936,21.06029],[72.86881,21.06115],[72.86637,21.06068],[72.86469,21.05947],[72.86055,21.05906],[72.85827,21.05755],[72.85552,21.05653],[72.84961,21.05687],[72.84192,21.05573],[72.83992,21.05821],[72.83471,21.06175],[72.82713,21.06449],[72.82404,21.06616],[72.82274,21.06596],[72.81667,21.06399],[72.81656,21.06606],[72.81239,21.0651],[72.8119,21.06718],[72.81,21.07046],[72.80567,21.06879],[72.80262,21.07106],[72.80387,21.07209],[72.80492,21.07255],[72.80521,21.07309],[72.80547,21.07443],[72.80664,21.07547],[72.80698,21.07682],[72.80693,21.07766],[72.80745,21.0782],[72.80805,21.07852],[72.80853,21.07936],[72.80954,21.0801],[72.81089,21.08072],[72.81232,21.08234],[72.81329,21.08237],[72.81443,21.08466],[72.81539,21.08702],[72.8085,21.08809],[72.80849,21.0868],[72.80327,21.08973],[72.79933,21.08917],[72.79765,21.08644],[72.79814,21.08225],[72.79718,21.08122],[72.79624,21.0812],[72.79275,21.08011],[72.79156,21.07994],[72.79036,21.07845],[72.79034,21.07859],[72.77019,21.0788],[72.76131,21.07679],[72.75583,21.07633],[72.75576,21.0774],[72.74695,21.07678],[72.74643,21.07745],[72.74613,21.07841],[72.74483,21.08962],[72.74333,21.08966]]]}}]}