{"type":"FeatureCollection","features":[{"type":"Feature","bbox":[77.75319,20.9474,77.79874,20.99019],"properties":{"ward":1,"name":"Shegoan Rahatgaon"},"geometry":{"type":"Polygon","coordinates":[[[77.75475,20.97669],[77.75563,20.98159],[77.75558,20.98281],[77.75855,20.98216],[77.75866,20.98457],[77.76644,20.98428],[77.76677,20.98531],[77.76919,20.9856],[77.7691,20.98424],[77.77021,20.98262],[77.77051,20.9823],[77.7721,20.9821],[77.77238,20.98184],[77.77229,20.98091],[77.77313,20.9802],[77.77446,20.97954],[77.77484,20.97846],[77.77511,20.97815],[77.77554,20.97798],[77.77689,20.97808],[77.77732,20.97857],[77.77793,20.97891],[77.78057,20.97982],[77.78272,20.98112],[77.78573,20.98416],[77.79023,20.98728],[77.79498,20.99019],[77.79546,20.99009],[77.79586,20.9894],[77.79659,20.98899],[77.79733,20.9879],[77.79777,20.98751],[77.79874,20.98706],[77.79825,20.98422],[77.79778,20.98275],[77.79698,20.98086],[77.79447,20.97656],[77.78495,20.96418],[77.77914,20.95771],[77.7777,20.95586],[77.77585,20.95206],[77.77329,20.9474],[77.77276,20.94778],[77.77253,20.94846],[77.77108,20.94906],[77.76949,20.95022],[77.76873,20.95045],[77.76741,20.95241],[77.76722,20.95292],[77.76727,20.95345],[77.76612,20.95556],[77.76517,20.95667],[77.76355,20.95473],[77.76156,20.95184],[77.75569,20.95676],[77.75438,20.95865],[77.75319,20.96002],[77.75376,20.96036],[77.75464,20.96036],[77.75389,20.96901],[77.75626,20.96887],[77.75607,20.97555],[77.75475,20.97669]]]}},{"type":"Feature","bbox":[77.76154,20.93675,77.81079,20.98699],"properties":{"ward":2,"name":"Pdmc"},"geometry":{"type":"Polygon","coordinates":[[[77.79826,20.98409],[77.79872,20.98699],[77.79955,20.98645],[77.80011,20.98651],[77.80135,20.98516],[77.80179,20.98442],[77.80239,20.98392],[77.80372,20.98359],[77.80452,20.98303],[77.8053,20.98239],[77.80619,20.98135],[77.80424,20.98135],[77.80426,20.98102],[77.80364,20.98103],[77.80348,20.97986],[77.80369,20.97611],[77.80557,20.97073],[77.80597,20.96811],[77.80664,20.9655],[77.81055,20.96522],[77.80948,20.95711],[77.80892,20.95464],[77.80743,20.95112],[77.81079,20.95054],[77.81048,20.9492],[77.81064,20.94743],[77.80827,20.94799],[77.80927,20.9447],[77.80744,20.94448],[77.80347,20.94335],[77.79758,20.94293],[77.79547,20.94178],[77.79296,20.94105],[77.78088,20.93858],[77.77481,20.93792],[77.77079,20.93675],[77.77041,20.93728],[77.7703,20.9384],[77.7697,20.93943],[77.76882,20.94037],[77.76861,20.94127],[77.76985,20.94297],[77.76733,20.9447],[77.76443,20.94699],[77.76404,20.94829],[77.76154,20.95191],[77.76353,20.95472],[77.76517,20.95664],[77.76611,20.95559],[77.76728,20.95336],[77.76718,20.95296],[77.76741,20.95241],[77.76869,20.95046],[77.76947,20.95024],[77.77105,20.94912],[77.77251,20.94847],[77.77282,20.94772],[77.77334,20.9474],[77.77588,20.95205],[77.77771,20.95586],[77.77908,20.95771],[77.78493,20.96419],[77.79438,20.97641],[77.7972,20.98127],[77.79826,20.98409]]]}},{"type":"Feature","bbox":[77.71873,20.94851,77.76147,20.97864],"properties":{"ward":3,"name":"Nawasari"},"geometry":{"type":"Polygon","coordinates":[[[77.72224,20.97806],[77.72526,20.97864],[77.72767,20.97851],[77.72902,20.97817],[77.73082,20.97811],[77.73198,20.97706],[77.7331,20.97683],[77.73435,20.97629],[77.73838,20.97594],[77.73856,20.97695],[77.74098,20.97672],[77.74879,20.97449],[77.75266,20.97364],[77.75412,20.97349],[77.75415,20.97602],[77.75462,20.97638],[77.75604,20.97557],[77.75622,20.96888],[77.75392,20.96901],[77.7546,20.96038],[77.75376,20.96036],[77.75318,20.96001],[77.75565,20.95679],[77.76147,20.95188],[77.75928,20.94851],[77.75697,20.94961],[77.75181,20.95258],[77.74983,20.94917],[77.74679,20.94958],[77.7405,20.94902],[77.73905,20.95235],[77.73763,20.9518],[77.7356,20.95176],[77.73043,20.95118],[77.72955,20.95145],[77.7278,20.9524],[77.725,20.95419],[77.72164,20.95494],[77.72065,20.95957],[77.71873,20.96298],[77.7188,20.96908],[77.71919,20.96975],[77.72224,20.97806]]]}},{"type":"Feature","bbox":[77.71976,20.94086,77.74339,20.95475],"properties":{"ward":4,"name":"Jamil Colony"},"geometry":{"type":"Polygon","coordinates":[[[77.72043,20.94928],[77.72162,20.95475],[77.72337,20.9546],[77.72511,20.95414],[77.72604,20.95367],[77.72775,20.95243],[77.72952,20.95146],[77.73045,20.9512],[77.73534,20.95173],[77.73763,20.95181],[77.73902,20.95235],[77.74339,20.94264],[77.7431,20.9425],[77.7425,20.94265],[77.74183,20.94219],[77.74082,20.94216],[77.74023,20.9419],[77.7397,20.94194],[77.73918,20.94169],[77.73706,20.94169],[77.73512,20.94147],[77.73448,20.9418],[77.73396,20.94177],[77.73353,20.94123],[77.73272,20.94132],[77.73223,20.9412],[77.73157,20.94137],[77.73078,20.94126],[77.73012,20.94149],[77.72817,20.94095],[77.72754,20.94132],[77.72731,20.94119],[77.72699,20.94137],[77.72619,20.94119],[77.72506,20.94131],[77.724,20.94086],[77.72377,20.94101],[77.72311,20.94216],[77.71976,20.9422],[77.72024,20.9446],[77.72043,20.94928]]]}},{"type":"Feature","bbox":[77.7405,20.94026,77.75925,20.95257],"properties":{"ward":5,"name":"Mahendra Colony"},"geometry":{"type":"Polygon","coordinates":[[[77.74228,20.94524],[77.7405,20.94904],[77.74682,20.94957],[77.74981,20.94919],[77.75182,20.95257],[77.75696,20.94967],[77.75925,20.94858],[77.75806,20.94539],[77.75608,20.94597],[77.75434,20.94445],[77.75424,20.94424],[77.75435,20.94416],[77.75314,20.94323],[77.75335,20.94308],[77.75281,20.94244],[77.75232,20.9425],[77.75042,20.94061],[77.74997,20.94062],[77.74909,20.94099],[77.74747,20.94195],[77.74656,20.94209],[77.74627,20.9406],[77.7457,20.94071],[77.7443,20.94026],[77.74228,20.94524]]]}},{"type":"Feature","bbox":[77.74761,20.93242,77.76749,20.95185],"properties":{"ward":6,"name":"Vilas Nagar"},"geometry":{"type":"Polygon","coordinates":[[[77.75023,20.93277],[77.74855,20.93338],[77.7486,20.93352],[77.74807,20.9338],[77.7477,20.93423],[77.74829,20.93407],[77.74873,20.93501],[77.74937,20.93475],[77.74969,20.93534],[77.74928,20.93628],[77.74883,20.9367],[77.74761,20.93738],[77.75043,20.94062],[77.75234,20.94252],[77.75285,20.94245],[77.7534,20.94306],[77.75314,20.94323],[77.75436,20.94416],[77.75425,20.94423],[77.75435,20.94445],[77.75609,20.94596],[77.75807,20.94539],[77.75862,20.94707],[77.75933,20.9485],[77.76159,20.95185],[77.76405,20.94824],[77.76457,20.94694],[77.76749,20.94463],[77.76572,20.94331],[77.7657,20.94348],[77.76422,20.94394],[77.76217,20.94432],[77.76208,20.94395],[77.76083,20.94394],[77.76035,20.94412],[77.76013,20.94333],[77.76012,20.94101],[77.75874,20.94068],[77.75697,20.93972],[77.75584,20.93638],[77.75564,20.93475],[77.7547,20.93456],[77.75303,20.93459],[77.75292,20.93437],[77.75224,20.93451],[77.75212,20.93414],[77.75175,20.93419],[77.75165,20.93401],[77.75184,20.93393],[77.75143,20.93242],[77.75124,20.93262],[77.75025,20.93295],[77.75023,20.93277]]]}},{"type":"Feature","bbox":[77.75142,20.92709,77.781,20.9446],"properties":{"ward":7,"name":"Jawahar Stadium"},"geometry":{"type":"Polygon","coordinates":[[[77.76218,20.94432],[77.76569,20.94346],[77.76573,20.9433],[77.76742,20.9446],[77.76986,20.943],[77.7686,20.94128],[77.76881,20.9404],[77.76967,20.93945],[77.77031,20.9384],[77.77041,20.9373],[77.7708,20.93677],[77.77483,20.93787],[77.7809,20.93856],[77.781,20.93743],[77.78053,20.93125],[77.77693,20.93169],[77.77191,20.93099],[77.76856,20.93002],[77.76848,20.92709],[77.76033,20.92894],[77.75821,20.92856],[77.75814,20.92939],[77.76011,20.93363],[77.75254,20.93212],[77.75229,20.93196],[77.75142,20.93246],[77.75184,20.93393],[77.75167,20.93403],[77.75176,20.93421],[77.75213,20.93418],[77.75224,20.93451],[77.75293,20.93438],[77.75302,20.93459],[77.75386,20.93449],[77.75563,20.9348],[77.75584,20.93638],[77.75696,20.93977],[77.75882,20.94071],[77.76012,20.94105],[77.76003,20.94213],[77.76027,20.94408],[77.76087,20.94395],[77.7621,20.94399],[77.76218,20.94432]]]}},{"type":"Feature","bbox":[77.76851,20.9252,77.79582,20.94107],"properties":{"ward":8,"name":"Jog Stadium"},"geometry":{"type":"Polygon","coordinates":[[[77.77193,20.92548],[77.77145,20.9252],[77.77128,20.92655],[77.76851,20.92706],[77.7686,20.93001],[77.77189,20.93097],[77.77692,20.93169],[77.78051,20.93124],[77.78097,20.9375],[77.78086,20.93857],[77.79297,20.94107],[77.79547,20.93666],[77.79582,20.93581],[77.78905,20.9303],[77.78649,20.92528],[77.78166,20.92546],[77.77922,20.92578],[77.77844,20.92605],[77.77623,20.92529],[77.7752,20.9254],[77.77418,20.92583],[77.7736,20.92554],[77.77237,20.92555],[77.77193,20.92548]]]}},{"type":"Feature","bbox":[77.76628,20.88986,77.82773,20.94471],"properties":{"ward":9,"name":"Srpf Wadali"},"geometry":{"type":"Polygon","coordinates":[[[77.77967,20.90078],[77.77854,20.89363],[77.77763,20.88986],[77.77264,20.89071],[77.77083,20.8912],[77.76628,20.89332],[77.76808,20.89812],[77.76993,20.90236],[77.78098,20.91379],[77.78254,20.91571],[77.78384,20.91806],[77.78594,20.92406],[77.78906,20.93027],[77.79583,20.93584],[77.79295,20.94103],[77.79548,20.94177],[77.79757,20.94293],[77.80341,20.94335],[77.80727,20.94444],[77.80918,20.9447],[77.80932,20.94431],[77.81069,20.94471],[77.81195,20.94226],[77.81102,20.94202],[77.81274,20.93993],[77.81652,20.93704],[77.8198,20.93556],[77.82194,20.93555],[77.82402,20.92555],[77.82773,20.9098],[77.82249,20.90882],[77.82157,20.90759],[77.81955,20.89952],[77.81835,20.89824],[77.81706,20.89878],[77.8163,20.89888],[77.81402,20.89965],[77.80966,20.8993],[77.80951,20.8995],[77.80882,20.89902],[77.80757,20.89862],[77.80526,20.89806],[77.80302,20.89788],[77.79866,20.90152],[77.79364,20.89913],[77.78986,20.90025],[77.7875,20.90022],[77.78595,20.9006],[77.78382,20.90052],[77.77967,20.90078]]]}},{"type":"Feature","bbox":[77.76179,20.89813,77.78652,20.92562],"properties":{"ward":10,"name":"Benoda"},"geometry":{"type":"Polygon","coordinates":[[[77.76428,20.89856],[77.76307,20.89871],[77.76179,20.89942],[77.76788,20.9094],[77.77389,20.91861],[77.77463,20.91954],[77.77556,20.92119],[77.776,20.92261],[77.77644,20.92342],[77.77719,20.92409],[77.7801,20.92507],[77.78027,20.92562],[77.78169,20.92546],[77.78392,20.92552],[77.78652,20.92527],[77.78524,20.9224],[77.78383,20.91807],[77.78258,20.91585],[77.78183,20.91479],[77.77764,20.91029],[77.76995,20.90231],[77.76805,20.89813],[77.76716,20.89871],[77.76632,20.89897],[77.76574,20.89963],[77.7651,20.89888],[77.76428,20.89856]]]}},{"type":"Feature","bbox":[77.76448,20.90788,77.78031,20.9261],"properties":{"ward":11,"name":"Frezarpura"},"geometry":{"type":"MultiPolygon","coordinates":[[[[77.7651,20.9172],[77.76549,20.91915],[77.76999,20.9174],[77.7707,20.91967],[77.77074,20.92036],[77.77154,20.92016],[77.77166,20.92077],[77.77069,20.92113],[77.76884,20.9223],[77.76591,20.92267],[77.76628,20.92341],[77.76739,20.92418],[77.76908,20.92443],[77.77077,20.92513],[77.77152,20.92523],[77.77201,20.92553],[77.77338,20.92551],[77.7739,20.92565],[77.77402,20.92583],[77.77519,20.92541],[77.77629,20.92529],[77.77846,20.9261],[77.78031,20.92564],[77.78006,20.92508],[77.77719,20.92409],[77.77651,20.92348],[77.77614,20.92293],[77.77555,20.9212],[77.77493,20.9201],[77.76696,20.90788],[77.76497,20.91155],[77.76618,20.91209],[77.76679,20.91255],[77.76741,20.91373],[77.76616,20.91457],[77.76608,20.91444],[77.76582,20.91455],[77.76488,20.91539],[77.7657,20.91642],[77.76448,20.91682],[77.76459,20.91729],[77.7651,20.9172]]],[[[77.76526,20.91833],[77.76525,20.9183],[77.76526,20.91833],[77.76526,20.91833]]]]}},{"type":"Feature","bbox":[77.75627,20.91739,77.77166,20.92893],"properties":{"ward":12,"name":"Rukhmini Nagar - Swami Vivikanand"},"geometry":{"type":"Polygon","coordinates":[[[77.76106,20.92246],[77.75754,20.92322],[77.75666,20.92446],[77.75627,20.9245],[77.75712,20.92829],[77.75759,20.92828],[77.75821,20.92857],[77.76035,20.92893],[77.77125,20.92653],[77.77148,20.92519],[77.7708,20.92512],[77.76907,20.92444],[77.76732,20.92415],[77.7663,20.92343],[77.76594,20.92267],[77.76877,20.92231],[77.77069,20.92112],[77.77166,20.92077],[77.77154,20.92016],[77.77074,20.92036],[77.7707,20.91966],[77.76999,20.91739],[77.76105,20.92072],[77.76106,20.92246]]]}},{"type":"Feature","bbox":[77.74123,20.91029,77.76007,20.9336],"properties":{"ward":13,"name":"Ambapeth"},"geometry":{"type":"Polygon","coordinates":[[[77.74937,20.91265],[77.74887,20.91406],[77.74823,20.91439],[77.74772,20.91438],[77.74734,20.91463],[77.74735,20.91563],[77.74819,20.91587],[77.74822,20.916],[77.74791,20.91674],[77.74782,20.91761],[77.74751,20.91827],[77.74645,20.91835],[77.74574,20.91864],[77.74549,20.91897],[77.74554,20.91914],[77.74464,20.91924],[77.7446,20.92016],[77.74393,20.92035],[77.74364,20.92002],[77.74205,20.9199],[77.74123,20.92438],[77.74129,20.9262],[77.74415,20.92626],[77.74395,20.92689],[77.74579,20.9269],[77.74559,20.9277],[77.7472,20.92762],[77.74787,20.9278],[77.74808,20.92868],[77.74938,20.92847],[77.75025,20.93297],[77.75125,20.93263],[77.75229,20.93194],[77.75296,20.93224],[77.76007,20.9336],[77.75816,20.92939],[77.75822,20.92857],[77.75712,20.92827],[77.75271,20.91029],[77.75189,20.91087],[77.75195,20.91099],[77.75083,20.91205],[77.74937,20.91265]]]}},{"type":"Feature","bbox":[77.73919,20.9279,77.75023,20.93649],"properties":{"ward":14,"name":"Budhawara"},"geometry":{"type":"Polygon","coordinates":[[[77.73983,20.9354],[77.74186,20.93649],[77.74302,20.93639],[77.74342,20.93592],[77.74553,20.93461],[77.75023,20.93276],[77.74937,20.92846],[77.74807,20.92867],[77.7479,20.9279],[77.74606,20.92828],[77.74376,20.92911],[77.74251,20.92931],[77.74184,20.93089],[77.73933,20.9328],[77.73919,20.93468],[77.73983,20.9354]]]}},{"type":"Feature","bbox":[77.73828,20.93336,77.75032,20.94262],"properties":{"ward":15,"name":"Gawalipura"},"geometry":{"type":"Polygon","coordinates":[[[77.73902,20.9347],[77.7395,20.93721],[77.73946,20.93873],[77.73906,20.94037],[77.73828,20.94176],[77.73912,20.94168],[77.73975,20.94197],[77.74022,20.94192],[77.74084,20.94216],[77.74186,20.94217],[77.74235,20.94262],[77.74312,20.94251],[77.74339,20.94262],[77.74431,20.94026],[77.74565,20.94071],[77.74627,20.9406],[77.74654,20.94211],[77.74733,20.94196],[77.74995,20.94056],[77.75032,20.94061],[77.74761,20.93738],[77.74879,20.93676],[77.74931,20.93624],[77.74969,20.93539],[77.74939,20.93475],[77.74874,20.93501],[77.7483,20.93406],[77.74771,20.93423],[77.74811,20.93376],[77.74866,20.93351],[77.74859,20.93336],[77.74557,20.93457],[77.74334,20.93597],[77.743,20.93634],[77.74218,20.93647],[77.74184,20.93649],[77.73986,20.93539],[77.73921,20.93469],[77.73922,20.93379],[77.73904,20.93379],[77.73902,20.9347]]]}},{"type":"Feature","bbox":[77.72594,20.93378,77.73955,20.94182],"properties":{"ward":16,"name":"Alim Nagar"},"geometry":{"type":"Polygon","coordinates":[[[77.73697,20.93396],[77.73434,20.9347],[77.73392,20.93467],[77.73377,20.93494],[77.73242,20.93491],[77.73063,20.93582],[77.73038,20.93678],[77.72756,20.93768],[77.72729,20.9385],[77.72733,20.93881],[77.72764,20.93905],[77.72763,20.9395],[77.72657,20.94028],[77.72597,20.94093],[77.72594,20.94122],[77.72678,20.94139],[77.7273,20.94123],[77.72752,20.94134],[77.7282,20.94096],[77.73017,20.94151],[77.73078,20.94127],[77.73156,20.9414],[77.73219,20.94119],[77.73268,20.94133],[77.73327,20.94122],[77.73352,20.94125],[77.73405,20.94178],[77.73452,20.94182],[77.73534,20.94148],[77.73832,20.94172],[77.73905,20.9404],[77.73955,20.93802],[77.73924,20.93518],[77.73904,20.9347],[77.73906,20.93378],[77.73786,20.93511],[77.7367,20.93449],[77.73708,20.93433],[77.73697,20.93396]]]}},{"type":"Feature","bbox":[77.70834,20.9099,77.74904,20.941],"properties":{"ward":17,"name":"Gadgadeshwar"},"geometry":{"type":"Polygon","coordinates":[[[77.72129,20.934],[77.72326,20.93363],[77.72346,20.93453],[77.72403,20.93442],[77.7242,20.93549],[77.72489,20.9366],[77.72535,20.93906],[77.72597,20.941],[77.72653,20.9403],[77.72765,20.93951],[77.72764,20.93905],[77.72732,20.9388],[77.72728,20.93849],[77.72757,20.93768],[77.73035,20.93679],[77.73064,20.93583],[77.73245,20.93492],[77.73376,20.93495],[77.73391,20.93468],[77.73433,20.93471],[77.73695,20.93396],[77.73709,20.93432],[77.73673,20.93449],[77.73787,20.93509],[77.73905,20.93378],[77.73924,20.93378],[77.73939,20.93277],[77.74187,20.93086],[77.7425,20.92931],[77.74314,20.92914],[77.74322,20.92925],[77.74603,20.92832],[77.74788,20.92793],[77.74788,20.92778],[77.74722,20.9276],[77.74661,20.92775],[77.74559,20.92769],[77.74579,20.92689],[77.744,20.9269],[77.7441,20.9262],[77.74124,20.92621],[77.74124,20.92439],[77.74143,20.92245],[77.74204,20.91991],[77.74364,20.92001],[77.74394,20.92037],[77.7446,20.92015],[77.74463,20.91925],[77.74551,20.91916],[77.74575,20.91866],[77.74641,20.91835],[77.7475,20.91828],[77.74783,20.91756],[77.74792,20.91674],[77.74825,20.91617],[77.74817,20.91587],[77.74734,20.91561],[77.74733,20.91464],[77.7477,20.91436],[77.7482,20.91437],[77.74886,20.91405],[77.74904,20.91372],[77.74849,20.91364],[77.74817,20.91378],[77.74657,20.91385],[77.74634,20.91385],[77.7463,20.91368],[77.74513,20.91383],[77.74362,20.91376],[77.74346,20.9149],[77.7423,20.91494],[77.7409,20.91531],[77.73956,20.91066],[77.7386,20.9099],[77.73091,20.91094],[77.72391,20.91309],[77.72414,20.91377],[77.72326,20.91588],[77.7231,20.91665],[77.71784,20.91717],[77.71797,20.91846],[77.70946,20.91997],[77.70834,20.91992],[77.70882,20.92331],[77.70928,20.92513],[77.70961,20.92943],[77.71219,20.92951],[77.71475,20.92912],[77.71641,20.92927],[77.7172,20.93358],[77.71832,20.93348],[77.71837,20.93382],[77.71882,20.93408],[77.71838,20.93474],[77.71859,20.93545],[77.71939,20.93538],[77.71948,20.93412],[77.72129,20.934]]]}},{"type":"Feature","bbox":[77.7527,20.9037,77.76742,20.9245],"properties":{"ward":18,"name":"Rajapeth"},"geometry":{"type":"Polygon","coordinates":[[[77.7552,20.90951],[77.7527,20.91028],[77.75627,20.9245],[77.75667,20.92445],[77.75735,20.92343],[77.7579,20.92304],[77.76107,20.92245],[77.76105,20.92072],[77.76548,20.91914],[77.76509,20.91719],[77.76459,20.91729],[77.76447,20.91682],[77.76572,20.91642],[77.76487,20.91541],[77.76583,20.91454],[77.76608,20.91442],[77.76615,20.91458],[77.76742,20.91372],[77.76678,20.91254],[77.76621,20.91208],[77.76497,20.91155],[77.76699,20.9079],[77.76443,20.9037],[77.76422,20.90378],[77.764,20.9056],[77.7613,20.90757],[77.76136,20.90785],[77.75986,20.90897],[77.75861,20.90818],[77.75843,20.90789],[77.75793,20.90811],[77.75724,20.90801],[77.75649,20.90839],[77.7552,20.90951]]]}},{"type":"Feature","bbox":[77.71866,20.87851,77.75271,20.91528],"properties":{"ward":19,"name":"Sai Nagar"},"geometry":{"type":"Polygon","coordinates":[[[77.71963,20.88945],[77.71866,20.89968],[77.71914,20.90212],[77.72027,20.9047],[77.72469,20.91329],[77.73094,20.91099],[77.73869,20.90999],[77.73955,20.91067],[77.7409,20.91528],[77.74233,20.91492],[77.7434,20.91492],[77.74361,20.9138],[77.74631,20.9137],[77.74634,20.91386],[77.74905,20.91368],[77.74938,20.91265],[77.75085,20.91205],[77.75156,20.91122],[77.75271,20.91026],[77.74978,20.89849],[77.74846,20.8988],[77.74584,20.88912],[77.74305,20.88781],[77.74313,20.88728],[77.74158,20.88626],[77.74134,20.88612],[77.74055,20.88637],[77.73979,20.8864],[77.73757,20.88542],[77.73684,20.88489],[77.7365,20.8841],[77.73587,20.88387],[77.73556,20.88317],[77.7348,20.88257],[77.73461,20.88215],[77.73424,20.88193],[77.7339,20.88194],[77.73365,20.88156],[77.73084,20.88093],[77.72866,20.88085],[77.72777,20.88108],[77.72754,20.88095],[77.72677,20.88099],[77.72578,20.88036],[77.72541,20.88038],[77.72374,20.87958],[77.72236,20.87961],[77.72114,20.87851],[77.72072,20.87926],[77.7208,20.88008],[77.72058,20.88097],[77.72005,20.88201],[77.71886,20.88317],[77.72032,20.88522],[77.71969,20.88711],[77.71963,20.88945]]]}},{"type":"Feature","bbox":[77.74858,20.89296,77.76804,20.91037],"properties":{"ward":20,"name":"Sutgirni"},"geometry":{"type":"Polygon","coordinates":[[[77.74945,20.89318],[77.74858,20.89314],[77.75085,20.90301],[77.75273,20.91037],[77.75349,20.90994],[77.75519,20.90948],[77.75723,20.908],[77.75794,20.90813],[77.75846,20.90789],[77.75857,20.90817],[77.75989,20.90895],[77.76138,20.90784],[77.76131,20.90759],[77.76398,20.90564],[77.76421,20.9038],[77.76446,20.90372],[77.76181,20.89945],[77.76306,20.8987],[77.76426,20.89855],[77.76512,20.89887],[77.76573,20.89965],[77.76633,20.89897],[77.76717,20.89868],[77.76804,20.89815],[77.76635,20.89341],[77.76445,20.89395],[77.76186,20.89495],[77.75973,20.8962],[77.75925,20.89531],[77.75905,20.89369],[77.75624,20.89455],[77.75649,20.89339],[77.75388,20.89296],[77.75294,20.89309],[77.75293,20.89341],[77.75134,20.8931],[77.74953,20.89306],[77.74945,20.89318]]]}},{"type":"Feature","bbox":[77.70797,20.8567,77.77229,20.8988],"properties":{"ward":21,"name":"Old Town, Badnera"},"geometry":{"type":"Polygon","coordinates":[[[77.71307,20.87358],[77.71469,20.87441],[77.71566,20.87564],[77.71713,20.87843],[77.71706,20.88162],[77.71686,20.88223],[77.71798,20.88285],[77.7188,20.88352],[77.72005,20.88201],[77.72058,20.88097],[77.7208,20.88008],[77.72072,20.87926],[77.72114,20.87851],[77.72236,20.87961],[77.72374,20.87958],[77.72541,20.88038],[77.72578,20.88036],[77.72677,20.88099],[77.72754,20.88095],[77.72777,20.88108],[77.72866,20.88085],[77.73084,20.88093],[77.73365,20.88156],[77.7339,20.88194],[77.73424,20.88193],[77.73461,20.88215],[77.7348,20.88257],[77.73556,20.88317],[77.73587,20.88387],[77.7365,20.8841],[77.73684,20.88489],[77.73757,20.88542],[77.73979,20.8864],[77.74055,20.88637],[77.74134,20.88612],[77.74313,20.88728],[77.74305,20.88781],[77.74584,20.88912],[77.74846,20.8988],[77.74978,20.89849],[77.74861,20.89315],[77.75139,20.89312],[77.75293,20.89341],[77.75293,20.89314],[77.7539,20.89301],[77.75506,20.89314],[77.75646,20.8934],[77.75626,20.89452],[77.75904,20.89377],[77.75965,20.89624],[77.76198,20.89503],[77.76635,20.89343],[77.77085,20.89119],[77.77229,20.89067],[77.7697,20.88566],[77.76632,20.88542],[77.7663,20.88214],[77.76382,20.88217],[77.76282,20.88155],[77.76258,20.8784],[77.76239,20.8778],[77.76182,20.87783],[77.76088,20.87552],[77.76298,20.87],[77.76317,20.86755],[77.76142,20.8668],[77.76042,20.86661],[77.75907,20.8657],[77.75802,20.86431],[77.75762,20.86437],[77.75757,20.86469],[77.75672,20.86518],[77.75578,20.86516],[77.75493,20.86534],[77.75489,20.86647],[77.75468,20.86669],[77.75195,20.86671],[77.75141,20.86647],[77.75137,20.86734],[77.7506,20.86736],[77.75019,20.86784],[77.74959,20.86765],[77.7483,20.86802],[77.74535,20.86804],[77.74466,20.8672],[77.74404,20.86763],[77.74255,20.85871],[77.74182,20.85749],[77.74105,20.8567],[77.73852,20.85693],[77.73667,20.85742],[77.73464,20.85906],[77.73382,20.85887],[77.73234,20.85894],[77.73114,20.85833],[77.73001,20.85805],[77.72893,20.8583],[77.73007,20.86087],[77.72957,20.86137],[77.72872,20.86181],[77.72819,20.86283],[77.72725,20.86322],[77.72729,20.86355],[77.72675,20.86388],[77.72564,20.8638],[77.72444,20.86399],[77.723,20.86372],[77.72229,20.8639],[77.72166,20.86378],[77.71873,20.86546],[77.71693,20.86547],[77.71646,20.8662],[77.71652,20.86667],[77.71624,20.86695],[77.71554,20.86706],[77.71536,20.86729],[77.71536,20.86763],[77.70984,20.86898],[77.70838,20.86907],[77.70797,20.86933],[77.70876,20.8698],[77.71028,20.87006],[77.71084,20.87052],[77.71214,20.87197],[77.71307,20.87358]]]}},{"type":"Feature","bbox":[77.70835,20.83753,77.76582,20.86805],"properties":{"ward":22,"name":"New Town, Badnera"},"geometry":{"type":"MultiPolygon","coordinates":[[[[77.7199,20.86492],[77.72,20.86453],[77.7199,20.86458],[77.7199,20.86492]]],[[[77.72,20.86453],[77.72169,20.86378],[77.72226,20.86392],[77.72287,20.8637],[77.7239,20.86397],[77.72457,20.86396],[77.72567,20.86381],[77.72681,20.86387],[77.72729,20.86358],[77.72726,20.86326],[77.72821,20.86281],[77.72872,20.86179],[77.72956,20.86137],[77.73007,20.86089],[77.72891,20.85828],[77.72986,20.85815],[77.7312,20.85837],[77.73234,20.85894],[77.73464,20.85896],[77.73667,20.85742],[77.73852,20.85693],[77.74044,20.85673],[77.74108,20.85683],[77.7419,20.85744],[77.74257,20.85858],[77.74339,20.86275],[77.74398,20.86765],[77.74469,20.86717],[77.74534,20.86805],[77.74828,20.86801],[77.74958,20.8676],[77.75021,20.86786],[77.75065,20.86731],[77.75133,20.86743],[77.75141,20.86651],[77.75238,20.86673],[77.75461,20.86669],[77.75485,20.8664],[77.75488,20.86535],[77.75573,20.86513],[77.75665,20.86516],[77.758,20.86427],[77.759,20.86561],[77.76039,20.86641],[77.76064,20.86547],[77.7616,20.86366],[77.76409,20.86343],[77.76475,20.86171],[77.76527,20.85598],[77.76537,20.85254],[77.76582,20.85235],[77.76561,20.85208],[77.76526,20.85206],[77.76524,20.85179],[77.75901,20.8517],[77.75683,20.85136],[77.74974,20.85157],[77.7484,20.84243],[77.74878,20.83753],[77.74278,20.83826],[77.74183,20.83862],[77.73622,20.83898],[77.73105,20.84028],[77.7275,20.84102],[77.72667,20.84102],[77.72458,20.84185],[77.72221,20.84237],[77.7208,20.84287],[77.71946,20.84373],[77.71828,20.8442],[77.71751,20.84428],[77.70886,20.84711],[77.70835,20.84714],[77.70973,20.84785],[77.71006,20.84898],[77.71067,20.85584],[77.71502,20.85614],[77.71721,20.85689],[77.72005,20.85705],[77.72042,20.85965],[77.7201,20.86128],[77.7202,20.86356],[77.72,20.86453]]]]}}]}