{"type":"FeatureCollection","features":[{"type":"Feature","bbox":[77.47319,20.47061,77.52483,20.50256],"properties":{"ward":1},"geometry":{"type":"Polygon","coordinates":[[[77.47319,20.49807],[77.47861,20.50185],[77.48076,20.50256],[77.48355,20.50146],[77.49514,20.4947],[77.49987,20.49236],[77.50794,20.48906],[77.51118,20.48906],[77.51214,20.48947],[77.52483,20.48856],[77.52366,20.48634],[77.52213,20.48446],[77.52211,20.48354],[77.52139,20.48244],[77.52186,20.48191],[77.52261,20.48167],[77.52208,20.48009],[77.52206,20.47928],[77.52159,20.47755],[77.52113,20.47748],[77.52102,20.47648],[77.52027,20.47579],[77.52038,20.47564],[77.52,20.47321],[77.51932,20.47269],[77.51765,20.47061],[77.50906,20.47728],[77.50129,20.48275],[77.48508,20.48893],[77.48363,20.48891],[77.48292,20.4891],[77.48242,20.48961],[77.48153,20.49155],[77.48065,20.49119],[77.47606,20.49578],[77.47319,20.49807]]]}},{"type":"Feature","bbox":[77.49465,20.47991,77.50445,20.48494],"properties":{"ward":2},"geometry":{"type":"Polygon","coordinates":[[[77.49488,20.48352],[77.49512,20.48349],[77.49468,20.48355],[77.49485,20.48419],[77.49544,20.48435],[77.49563,20.48494],[77.50131,20.48273],[77.50436,20.48068],[77.50445,20.48041],[77.50158,20.48083],[77.49927,20.48086],[77.49924,20.48055],[77.49891,20.48062],[77.4987,20.47999],[77.49839,20.47991],[77.49782,20.48022],[77.49543,20.48069],[77.49565,20.4812],[77.49541,20.48069],[77.49505,20.48077],[77.49507,20.48218],[77.49535,20.48277],[77.49465,20.48305],[77.49488,20.48352]],[[77.49512,20.48349],[77.49547,20.48341],[77.4952,20.48348],[77.49512,20.48349]]]}},{"type":"Feature","bbox":[77.49035,20.48283,77.49557,20.48688],"properties":{"ward":3},"geometry":{"type":"Polygon","coordinates":[[[77.49071,20.48688],[77.49557,20.48497],[77.49544,20.48436],[77.49483,20.48419],[77.4947,20.48356],[77.49487,20.48355],[77.49468,20.48311],[77.49416,20.4832],[77.4942,20.48364],[77.4938,20.48369],[77.49156,20.48299],[77.49037,20.48283],[77.49035,20.48474],[77.49071,20.48688]]]}},{"type":"Feature","bbox":[77.48532,20.48284,77.49069,20.48813],"properties":{"ward":4},"geometry":{"type":"Polygon","coordinates":[[[77.48717,20.48813],[77.49069,20.48687],[77.49033,20.48473],[77.49036,20.48284],[77.48734,20.48359],[77.48765,20.48436],[77.48613,20.48485],[77.48615,20.48498],[77.48532,20.48561],[77.48559,20.48646],[77.48546,20.48672],[77.48711,20.48633],[77.48745,20.48651],[77.48754,20.48664],[77.4873,20.48688],[77.48717,20.48813]]]}},{"type":"Feature","bbox":[77.48068,20.48341,77.48762,20.49156],"properties":{"ward":5},"geometry":{"type":"Polygon","coordinates":[[[77.48613,20.48499],[77.48612,20.48485],[77.48762,20.48437],[77.48733,20.4836],[77.48608,20.48417],[77.4841,20.48341],[77.48403,20.48365],[77.4824,20.48363],[77.48246,20.48486],[77.48306,20.48495],[77.48391,20.4859],[77.48203,20.48773],[77.48228,20.48748],[77.48127,20.48907],[77.48094,20.49078],[77.48068,20.4912],[77.48154,20.49156],[77.48242,20.4896],[77.48291,20.4891],[77.48363,20.48892],[77.48506,20.48894],[77.48717,20.48814],[77.4873,20.48688],[77.48755,20.48664],[77.48743,20.48651],[77.48717,20.48632],[77.48658,20.48652],[77.48638,20.4864],[77.48547,20.48672],[77.48557,20.48646],[77.48531,20.48561],[77.48613,20.48499]]]}},{"type":"Feature","bbox":[77.4691,20.48357,77.48388,20.49808],"properties":{"ward":6},"geometry":{"type":"Polygon","coordinates":[[[77.4691,20.49343],[77.47323,20.49808],[77.47603,20.49582],[77.48049,20.49146],[77.48092,20.49076],[77.48125,20.489],[77.482,20.48771],[77.48388,20.48588],[77.48308,20.48497],[77.48241,20.4849],[77.48234,20.48357],[77.48081,20.48359],[77.48086,20.48473],[77.47734,20.48442],[77.47506,20.48464],[77.47466,20.48855],[77.47472,20.48935],[77.47548,20.48986],[77.47325,20.4906],[77.47216,20.49169],[77.47189,20.49233],[77.4691,20.49343]]]}},{"type":"Feature","bbox":[77.47065,20.47139,77.48676,20.48472],"properties":{"ward":7},"geometry":{"type":"Polygon","coordinates":[[[77.47508,20.48462],[77.47735,20.4844],[77.48082,20.48472],[77.48081,20.48358],[77.48402,20.4836],[77.48407,20.48337],[77.48365,20.48315],[77.4837,20.48262],[77.48579,20.4821],[77.48509,20.48087],[77.4848,20.4793],[77.48676,20.47829],[77.48597,20.47667],[77.48548,20.47668],[77.48528,20.47644],[77.48502,20.47562],[77.48482,20.47407],[77.48506,20.4722],[77.48473,20.47139],[77.47884,20.47865],[77.47776,20.47623],[77.4773,20.47633],[77.47558,20.47685],[77.47622,20.47818],[77.47307,20.47851],[77.47314,20.47926],[77.47294,20.47931],[77.47291,20.47951],[77.47252,20.47955],[77.47271,20.48062],[77.4719,20.48061],[77.47191,20.47999],[77.47065,20.48057],[77.47144,20.48075],[77.47146,20.4833],[77.4735,20.48428],[77.47508,20.48462]]]}},{"type":"Feature","bbox":[77.48368,20.47831,77.48912,20.48421],"properties":{"ward":8},"geometry":{"type":"Polygon","coordinates":[[[77.48376,20.48259],[77.48368,20.48314],[77.48609,20.48421],[77.48744,20.48357],[77.48867,20.48319],[77.48815,20.48122],[77.48757,20.48117],[77.48782,20.48094],[77.48912,20.48068],[77.48893,20.47936],[77.48862,20.47935],[77.48855,20.479],[77.48811,20.47898],[77.48712,20.47936],[77.48676,20.47831],[77.48483,20.47931],[77.48507,20.48081],[77.48582,20.48212],[77.48376,20.48259]]]}},{"type":"Feature","bbox":[77.48758,20.48021,77.49237,20.48328],"properties":{"ward":9},"geometry":{"type":"Polygon","coordinates":[[[77.48758,20.48116],[77.48816,20.48123],[77.48868,20.48322],[77.49037,20.48283],[77.49158,20.48299],[77.49237,20.48328],[77.49216,20.48103],[77.4919,20.48021],[77.48809,20.4809],[77.48758,20.48116]]]}},{"type":"Feature","bbox":[77.49215,20.47966,77.49534,20.48369],"properties":{"ward":10},"geometry":{"type":"MultiPolygon","coordinates":[[[[77.49215,20.48101],[77.49237,20.48327],[77.4938,20.48369],[77.4942,20.48364],[77.49416,20.48321],[77.49534,20.48277],[77.49506,20.48217],[77.49506,20.48078],[77.49444,20.48093],[77.49408,20.47966],[77.49377,20.47989],[77.49303,20.48006],[77.49279,20.48023],[77.49283,20.48083],[77.49215,20.48101]]],[[[77.4922,20.48177],[77.4922,20.48176],[77.4922,20.48179],[77.4922,20.48177]]]]}},{"type":"Feature","bbox":[77.4919,20.47792,77.49837,20.48101],"properties":{"ward":11},"geometry":{"type":"Polygon","coordinates":[[[77.49443,20.48093],[77.49831,20.48003],[77.49837,20.47863],[77.49799,20.47792],[77.49577,20.478],[77.49237,20.4784],[77.49192,20.47967],[77.4919,20.4802],[77.49215,20.48101],[77.49283,20.48083],[77.49279,20.48023],[77.49302,20.48005],[77.49378,20.47989],[77.49408,20.47966],[77.49443,20.48093]]]}},{"type":"Feature","bbox":[77.48953,20.47625,77.49482,20.48044],"properties":{"ward":12},"geometry":{"type":"Polygon","coordinates":[[[77.49236,20.47841],[77.49473,20.47813],[77.49467,20.47764],[77.49482,20.47707],[77.49469,20.47625],[77.49125,20.47665],[77.49129,20.47753],[77.49013,20.47774],[77.48981,20.47826],[77.48983,20.47849],[77.48953,20.47864],[77.48958,20.47897],[77.48996,20.47899],[77.49015,20.47955],[77.49028,20.47953],[77.49037,20.48044],[77.49083,20.48041],[77.49189,20.4802],[77.49204,20.47917],[77.49236,20.47841]]]}},{"type":"Feature","bbox":[77.48475,20.46538,77.49226,20.48067],"properties":{"ward":13},"geometry":{"type":"Polygon","coordinates":[[[77.48815,20.46718],[77.48475,20.47141],[77.48507,20.4722],[77.48483,20.47407],[77.48502,20.47563],[77.48548,20.47668],[77.48598,20.47667],[77.48714,20.47934],[77.48811,20.47899],[77.48857,20.479],[77.48864,20.47937],[77.48895,20.47939],[77.48912,20.48067],[77.49037,20.48043],[77.49029,20.47953],[77.49015,20.47956],[77.48996,20.47899],[77.48958,20.47897],[77.48953,20.47864],[77.48983,20.47848],[77.48981,20.47826],[77.49013,20.47774],[77.49129,20.47752],[77.49126,20.47665],[77.49226,20.47658],[77.49095,20.46953],[77.49012,20.46992],[77.49035,20.46541],[77.48853,20.46538],[77.48815,20.46718]]]}},{"type":"Feature","bbox":[77.49011,20.46193,77.52286,20.48085],"properties":{"ward":14},"geometry":{"type":"Polygon","coordinates":[[[77.49225,20.46435],[77.49037,20.46553],[77.49011,20.46993],[77.49096,20.46953],[77.49226,20.47659],[77.4947,20.47626],[77.49482,20.47706],[77.49473,20.47813],[77.49798,20.47792],[77.49837,20.47864],[77.4984,20.47991],[77.49867,20.48001],[77.49894,20.4806],[77.49924,20.48057],[77.49928,20.48085],[77.50158,20.48082],[77.50468,20.48042],[77.52098,20.46806],[77.52286,20.46717],[77.50598,20.46843],[77.50551,20.46779],[77.50532,20.46393],[77.50188,20.46429],[77.50178,20.46403],[77.5006,20.46394],[77.50059,20.46282],[77.49814,20.46282],[77.49796,20.4633],[77.49696,20.46337],[77.49665,20.46289],[77.4956,20.46297],[77.49577,20.46385],[77.49494,20.46373],[77.49465,20.46362],[77.49444,20.46259],[77.49356,20.46257],[77.49339,20.46193],[77.49222,20.4624],[77.49225,20.46435]]]}}]}