{"type":"FeatureCollection","features":[{"type":"Feature","bbox":[75.77271,21.05182,75.79173,21.06764],"properties":{"ward":1},"geometry":{"type":"Polygon","coordinates":[[[75.77924,21.06764],[75.78387,21.06458],[75.78556,21.06329],[75.78693,21.06265],[75.79173,21.05987],[75.79128,21.05911],[75.79071,21.05756],[75.79041,21.05537],[75.78615,21.05575],[75.78592,21.05182],[75.78308,21.05202],[75.78298,21.05526],[75.77709,21.0561],[75.77704,21.05664],[75.775,21.05699],[75.7748,21.05673],[75.77323,21.05682],[75.77321,21.0574],[75.77271,21.05745],[75.77277,21.05915],[75.77408,21.05877],[75.77429,21.05986],[75.77275,21.06027],[75.77304,21.06223],[75.77347,21.06296],[75.77357,21.06476],[75.77552,21.06457],[75.77691,21.06762],[75.77924,21.06764]]]}},{"type":"Feature","bbox":[75.78593,21.05118,75.79954,21.05993],"properties":{"ward":2},"geometry":{"type":"Polygon","coordinates":[[[75.79064,21.05748],[75.79179,21.05993],[75.79497,21.05752],[75.79477,21.05702],[75.79517,21.05519],[75.79596,21.05482],[75.79797,21.05683],[75.79849,21.05614],[75.79952,21.05601],[75.79954,21.05499],[75.7981,21.05609],[75.79819,21.05452],[75.79804,21.05298],[75.79746,21.05282],[75.79528,21.05146],[75.79424,21.05127],[75.79137,21.05118],[75.78649,21.05159],[75.78593,21.05176],[75.78614,21.05574],[75.79041,21.05542],[75.79064,21.05748]]]}},{"type":"Feature","bbox":[75.79801,21.04662,75.81302,21.05644],"properties":{"ward":3},"geometry":{"type":"Polygon","coordinates":[[[75.79818,21.05429],[75.79809,21.05608],[75.79956,21.0549],[75.79956,21.05418],[75.80143,21.05445],[75.8021,21.05597],[75.80304,21.05644],[75.80262,21.05557],[75.80266,21.05533],[75.80456,21.05499],[75.80766,21.05496],[75.80772,21.05525],[75.80888,21.05532],[75.80885,21.05597],[75.80912,21.05597],[75.8092,21.05553],[75.81057,21.05555],[75.81063,21.05572],[75.81159,21.05574],[75.81173,21.05502],[75.81155,21.05459],[75.81178,21.05311],[75.81265,21.05296],[75.81302,21.05314],[75.81274,21.05216],[75.81281,21.04997],[75.81249,21.04986],[75.81267,21.04851],[75.81247,21.04662],[75.81227,21.04845],[75.81089,21.04858],[75.81049,21.04901],[75.80733,21.04864],[75.80531,21.04866],[75.80057,21.04994],[75.79934,21.04988],[75.79867,21.05095],[75.79913,21.05171],[75.79924,21.05299],[75.79891,21.0531],[75.79801,21.05302],[75.79818,21.05429]]]}},{"type":"Feature","bbox":[75.7808,21.04732,75.79932,21.05312],"properties":{"ward":4},"geometry":{"type":"Polygon","coordinates":[[[75.7808,21.04992],[75.78082,21.05184],[75.78275,21.05205],[75.78864,21.05146],[75.79346,21.05119],[75.79513,21.05143],[75.79737,21.05279],[75.79853,21.05312],[75.79924,21.05302],[75.79912,21.05173],[75.79862,21.05092],[75.79932,21.04992],[75.79782,21.04987],[75.79612,21.04895],[75.79535,21.04832],[75.79426,21.0479],[75.78988,21.04818],[75.7872,21.04803],[75.7822,21.04732],[75.78239,21.04929],[75.78211,21.04987],[75.7808,21.04992]]]}},{"type":"Feature","bbox":[75.77599,21.04624,75.78228,21.0518],"properties":{"ward":5},"geometry":{"type":"Polygon","coordinates":[[[75.77938,21.05137],[75.78082,21.0518],[75.78082,21.04995],[75.78215,21.04982],[75.78228,21.04927],[75.7819,21.04921],[75.7808,21.04945],[75.78069,21.04865],[75.78019,21.04826],[75.78051,21.04785],[75.78006,21.04756],[75.78017,21.04749],[75.77997,21.04692],[75.77969,21.04685],[75.77989,21.04654],[75.77922,21.04624],[75.77791,21.04637],[75.77749,21.04654],[75.77766,21.04734],[75.77599,21.04772],[75.77601,21.04839],[75.77656,21.04864],[75.77704,21.04929],[75.77938,21.05137]]]}},{"type":"Feature","bbox":[75.7716,21.04929,75.78306,21.05745],"properties":{"ward":6},"geometry":{"type":"MultiPolygon","coordinates":[[[[75.77694,21.04929],[75.77694,21.04929],[75.77695,21.04929],[75.77694,21.04929]]],[[[75.77694,21.04929],[75.77594,21.04957],[75.77583,21.04943],[75.77494,21.04977],[75.77498,21.05001],[75.77474,21.05007],[75.77499,21.05127],[75.77217,21.05189],[75.77203,21.05326],[75.77242,21.05328],[75.7716,21.05426],[75.7717,21.05478],[75.77246,21.05542],[75.77278,21.05745],[75.77327,21.05734],[75.77324,21.05687],[75.77481,21.05673],[75.77494,21.05708],[75.77706,21.05671],[75.77699,21.05605],[75.78306,21.05524],[75.78295,21.05202],[75.7811,21.05188],[75.77945,21.05134],[75.77694,21.04929]]]]}},{"type":"Feature","bbox":[75.76548,21.03696,75.77693,21.05281],"properties":{"ward":7},"geometry":{"type":"Polygon","coordinates":[[[75.77143,21.05119],[75.77153,21.05096],[75.77218,21.05187],[75.77502,21.05128],[75.77477,21.0501],[75.77499,21.04999],[75.77493,21.04978],[75.77582,21.04943],[75.77594,21.04957],[75.77693,21.04927],[75.77645,21.04866],[75.77488,21.04817],[75.77268,21.04669],[75.76875,21.04593],[75.76873,21.0458],[75.76979,21.046],[75.76976,21.04472],[75.77101,21.04457],[75.77101,21.04369],[75.77232,21.04353],[75.77253,21.04478],[75.77402,21.04436],[75.77408,21.04475],[75.77523,21.04463],[75.77512,21.04378],[75.77486,21.04327],[75.76693,21.03696],[75.76555,21.03897],[75.76589,21.03905],[75.76548,21.04218],[75.76714,21.04199],[75.76779,21.047],[75.76774,21.0482],[75.76796,21.04979],[75.76772,21.05281],[75.76936,21.05275],[75.77006,21.05191],[75.77143,21.05119]]]}},{"type":"Feature","bbox":[75.76976,21.0433,75.7792,21.0484],"properties":{"ward":8},"geometry":{"type":"Polygon","coordinates":[[[75.76976,21.04472],[75.7698,21.04603],[75.77305,21.04667],[75.77353,21.04715],[75.77486,21.04802],[75.77598,21.0484],[75.77598,21.04774],[75.77764,21.0474],[75.77749,21.04653],[75.7792,21.04622],[75.7777,21.04535],[75.77489,21.0433],[75.77519,21.04462],[75.77409,21.04474],[75.77398,21.04433],[75.77251,21.04474],[75.77231,21.04353],[75.77102,21.0437],[75.771,21.0446],[75.76976,21.04472]]]}},{"type":"Feature","bbox":[75.77121,21.03837,75.78101,21.04668],"properties":{"ward":9},"geometry":{"type":"Polygon","coordinates":[[[75.77987,21.04633],[75.78093,21.04668],[75.78101,21.04655],[75.78074,21.04223],[75.77951,21.04228],[75.77923,21.04211],[75.77894,21.04153],[75.7792,21.04137],[75.77916,21.04099],[75.7788,21.04019],[75.7765,21.04071],[75.77642,21.04041],[75.77448,21.04069],[75.77438,21.03935],[75.77463,21.03936],[75.77484,21.03906],[75.7742,21.03837],[75.7736,21.03841],[75.77351,21.03932],[75.77273,21.03932],[75.77121,21.0396],[75.77385,21.04195],[75.77746,21.04457],[75.7779,21.04508],[75.77987,21.04633]]]}},{"type":"Feature","bbox":[75.77967,21.04338,75.78641,21.04946],"properties":{"ward":10},"geometry":{"type":"Polygon","coordinates":[[[75.78077,21.04946],[75.78241,21.04926],[75.78233,21.04796],[75.78199,21.04676],[75.78224,21.04695],[75.78229,21.04683],[75.78353,21.04668],[75.78519,21.04622],[75.78641,21.04566],[75.78634,21.0446],[75.78586,21.04443],[75.78585,21.04415],[75.78521,21.04418],[75.78483,21.04351],[75.78431,21.04364],[75.78427,21.04338],[75.78378,21.04374],[75.78331,21.04364],[75.78276,21.04377],[75.78288,21.04425],[75.7821,21.04518],[75.78098,21.04624],[75.77989,21.04653],[75.77967,21.04684],[75.78,21.0469],[75.78018,21.04751],[75.78001,21.04757],[75.78049,21.04783],[75.78017,21.0483],[75.78041,21.0483],[75.78054,21.04863],[75.78066,21.0486],[75.78077,21.04946]]]}},{"type":"Feature","bbox":[75.78228,21.04257,75.79211,21.04704],"properties":{"ward":11},"geometry":{"type":"Polygon","coordinates":[[[75.78264,21.04704],[75.78609,21.04652],[75.79007,21.04656],[75.79211,21.04595],[75.79184,21.04493],[75.79103,21.04489],[75.7909,21.04457],[75.78899,21.04472],[75.78881,21.04375],[75.78779,21.04394],[75.78776,21.04369],[75.78682,21.0437],[75.78675,21.04336],[75.78728,21.04349],[75.7873,21.04317],[75.78627,21.04305],[75.78652,21.04283],[75.78654,21.04257],[75.78511,21.04258],[75.78452,21.0428],[75.78427,21.04338],[75.78432,21.04362],[75.7848,21.04354],[75.78521,21.04418],[75.78582,21.04416],[75.78603,21.04458],[75.78634,21.04461],[75.78645,21.0457],[75.78386,21.04662],[75.7823,21.04683],[75.78228,21.04696],[75.78264,21.04704]]]}},{"type":"Feature","bbox":[75.79091,21.03513,75.81413,21.04649],"properties":{"ward":12},"geometry":{"type":"Polygon","coordinates":[[[75.79182,21.04494],[75.79212,21.04597],[75.79549,21.04601],[75.79914,21.04561],[75.80014,21.04588],[75.80234,21.04578],[75.80895,21.04649],[75.81337,21.04648],[75.81318,21.04526],[75.81186,21.04523],[75.81165,21.04437],[75.81413,21.04417],[75.81378,21.04224],[75.81357,21.04208],[75.81326,21.04003],[75.80922,21.04045],[75.80943,21.04008],[75.80937,21.03513],[75.80277,21.03544],[75.80239,21.03742],[75.80241,21.03928],[75.80207,21.03986],[75.79895,21.04036],[75.79931,21.04165],[75.79845,21.04201],[75.7986,21.04227],[75.79815,21.0423],[75.79805,21.04248],[75.79609,21.04275],[75.79505,21.04332],[75.79378,21.04357],[75.79395,21.04262],[75.79353,21.04242],[75.79235,21.04235],[75.79238,21.04384],[75.79253,21.04387],[75.79257,21.04448],[75.79091,21.04456],[75.79102,21.04489],[75.79182,21.04494]]]}},{"type":"Feature","bbox":[75.79171,21.03089,75.8027,21.04355],"properties":{"ward":13},"geometry":{"type":"Polygon","coordinates":[[[75.79413,21.04196],[75.79378,21.04355],[75.79498,21.04337],[75.79657,21.0426],[75.79859,21.04229],[75.79843,21.04199],[75.7993,21.04164],[75.79896,21.04037],[75.80207,21.03987],[75.80241,21.03929],[75.80235,21.03753],[75.8027,21.03562],[75.80165,21.03562],[75.8016,21.03089],[75.80105,21.03098],[75.80034,21.0314],[75.79713,21.03431],[75.79641,21.03582],[75.79621,21.03597],[75.7934,21.03713],[75.79171,21.0381],[75.79228,21.03955],[75.79246,21.04057],[75.79391,21.04042],[75.79379,21.04182],[75.79413,21.04196]]]}},{"type":"Feature","bbox":[75.78968,21.03816,75.79412,21.04286],"properties":{"ward":14},"geometry":{"type":"Polygon","coordinates":[[[75.79247,21.04057],[75.79228,21.03962],[75.79171,21.03816],[75.79124,21.03842],[75.78968,21.0401],[75.79005,21.04286],[75.79076,21.04247],[75.79096,21.04254],[75.79106,21.04235],[75.79218,21.04213],[75.79236,21.04233],[75.79351,21.04241],[75.79391,21.04262],[75.7941,21.0424],[75.79412,21.04196],[75.79381,21.04182],[75.79393,21.04042],[75.79247,21.04057]]]}},{"type":"Feature","bbox":[75.78628,21.04215,75.79256,21.04473],"properties":{"ward":15},"geometry":{"type":"Polygon","coordinates":[[[75.78899,21.04473],[75.79256,21.04447],[75.79253,21.04387],[75.79238,21.04384],[75.79233,21.04234],[75.79216,21.04215],[75.79106,21.04235],[75.79095,21.04255],[75.79075,21.04247],[75.79005,21.04286],[75.78995,21.04237],[75.78904,21.0427],[75.78913,21.043],[75.7878,21.0428],[75.78778,21.04294],[75.78731,21.0429],[75.78655,21.04258],[75.78628,21.04306],[75.78731,21.04317],[75.78728,21.04347],[75.78676,21.04335],[75.7868,21.04372],[75.78776,21.04367],[75.7878,21.04392],[75.7888,21.04376],[75.78899,21.04473]]]}},{"type":"Feature","bbox":[75.78081,21.03984,75.78999,21.04622],"properties":{"ward":16},"geometry":{"type":"Polygon","coordinates":[[[75.78905,21.0427],[75.78994,21.04236],[75.78999,21.04217],[75.78968,21.04012],[75.78907,21.04061],[75.78868,21.03984],[75.78724,21.04007],[75.78691,21.03999],[75.78729,21.04142],[75.78586,21.04155],[75.78556,21.04118],[75.78492,21.04126],[75.78422,21.04171],[75.78441,21.0419],[75.78412,21.04204],[75.78399,21.04189],[75.78277,21.04261],[75.782,21.0412],[75.78081,21.0416],[75.78097,21.04622],[75.78213,21.04517],[75.78203,21.04508],[75.7829,21.04419],[75.7828,21.0438],[75.78326,21.04365],[75.78379,21.0437],[75.78427,21.0434],[75.78452,21.0428],[75.78501,21.0426],[75.78624,21.04252],[75.78732,21.04292],[75.78778,21.04293],[75.78781,21.0428],[75.78865,21.04301],[75.78913,21.04299],[75.78905,21.0427]]]}},{"type":"Feature","bbox":[75.78465,21.03612,75.79108,21.04159],"properties":{"ward":17},"geometry":{"type":"Polygon","coordinates":[[[75.78719,21.03992],[75.78724,21.04009],[75.78867,21.03982],[75.78907,21.04062],[75.79105,21.03864],[75.79108,21.03786],[75.78944,21.03788],[75.78939,21.03754],[75.78851,21.03756],[75.78841,21.03744],[75.78861,21.03721],[75.78865,21.03662],[75.78736,21.03616],[75.78566,21.03612],[75.78491,21.03767],[75.78465,21.03966],[75.78477,21.04136],[75.78558,21.04117],[75.78593,21.04159],[75.78726,21.04138],[75.78691,21.04003],[75.78719,21.03992]]]}},{"type":"Feature","bbox":[75.78076,21.03786,75.78473,21.04258],"properties":{"ward":18},"geometry":{"type":"Polygon","coordinates":[[[75.78109,21.03803],[75.78076,21.04163],[75.78197,21.04119],[75.78282,21.04258],[75.78398,21.04188],[75.78411,21.04204],[75.78441,21.04187],[75.78422,21.04172],[75.78473,21.04133],[75.78468,21.03938],[75.7831,21.03958],[75.78255,21.03786],[75.78109,21.03803]]]}},{"type":"Feature","bbox":[75.77042,21.03477,75.78115,21.0423],"properties":{"ward":19},"geometry":{"type":"Polygon","coordinates":[[[75.7795,21.0423],[75.78074,21.04222],[75.78115,21.03623],[75.77831,21.03632],[75.77813,21.03528],[75.77718,21.03535],[75.77706,21.03477],[75.77641,21.03483],[75.77651,21.03541],[75.77713,21.03655],[75.77636,21.03685],[75.77649,21.03705],[75.77385,21.03725],[75.77383,21.03704],[75.77339,21.03706],[75.77275,21.03727],[75.77292,21.03777],[75.77217,21.03815],[75.77042,21.03859],[75.77098,21.03965],[75.77273,21.03931],[75.77437,21.03937],[75.77449,21.04068],[75.77641,21.0404],[75.77647,21.04069],[75.77879,21.04019],[75.77915,21.04097],[75.7792,21.04139],[75.77895,21.04154],[75.77919,21.04208],[75.7795,21.0423]]]}},{"type":"Feature","bbox":[75.7688,21.02968,75.78019,21.03859],"properties":{"ward":20},"geometry":{"type":"Polygon","coordinates":[[[75.78019,21.03197],[75.77943,21.02968],[75.77854,21.02978],[75.77797,21.03027],[75.77759,21.02977],[75.77674,21.03009],[75.77663,21.0299],[75.77553,21.03085],[75.77319,21.03356],[75.77389,21.03442],[75.77452,21.03425],[75.77482,21.0347],[75.77462,21.0356],[75.77391,21.03552],[75.77398,21.03498],[75.77369,21.03488],[75.77368,21.03462],[75.7688,21.03478],[75.77047,21.03859],[75.77227,21.03813],[75.77291,21.03777],[75.77272,21.03729],[75.7734,21.03705],[75.77383,21.03705],[75.77386,21.03724],[75.77652,21.03705],[75.7764,21.03683],[75.77713,21.03658],[75.77642,21.03484],[75.77709,21.03477],[75.77718,21.03532],[75.77813,21.03527],[75.7783,21.03632],[75.77986,21.03616],[75.77955,21.03537],[75.77818,21.03326],[75.77919,21.03301],[75.77895,21.03209],[75.78019,21.03197]]]}},{"type":"Feature","bbox":[75.77816,21.02869,75.78641,21.03623],"properties":{"ward":21},"geometry":{"type":"Polygon","coordinates":[[[75.77816,21.03326],[75.77986,21.03596],[75.77989,21.03623],[75.78115,21.03621],[75.78122,21.0352],[75.78074,21.03366],[75.78214,21.0333],[75.78231,21.03411],[75.78353,21.03398],[75.78343,21.03314],[75.78474,21.03291],[75.78467,21.03202],[75.78641,21.03175],[75.78624,21.0305],[75.78512,21.03001],[75.7825,21.02928],[75.77928,21.02869],[75.78026,21.03194],[75.7789,21.0321],[75.77921,21.03301],[75.77816,21.03326]]]}},{"type":"Feature","bbox":[75.78083,21.02974,75.79182,21.03958],"properties":{"ward":22},"geometry":{"type":"Polygon","coordinates":[[[75.78899,21.0309],[75.78864,21.02974],[75.78624,21.03008],[75.78612,21.03044],[75.78627,21.0305],[75.7864,21.03176],[75.78467,21.03201],[75.78475,21.03296],[75.78345,21.03314],[75.78352,21.03401],[75.78232,21.0341],[75.78212,21.0333],[75.78083,21.03365],[75.78131,21.03525],[75.7811,21.03798],[75.78252,21.03787],[75.78309,21.03958],[75.78469,21.03938],[75.78502,21.03732],[75.78569,21.03616],[75.78752,21.03621],[75.78839,21.03649],[75.78919,21.03407],[75.78975,21.03326],[75.7906,21.03234],[75.79121,21.0326],[75.79182,21.03165],[75.79129,21.03057],[75.78899,21.0309]]]}},{"type":"Feature","bbox":[75.78838,21.03147,75.8001,21.03868],"properties":{"ward":23},"geometry":{"type":"Polygon","coordinates":[[[75.79177,21.03168],[75.7912,21.03259],[75.79058,21.03232],[75.78991,21.03306],[75.78915,21.03415],[75.78858,21.0355],[75.78838,21.03652],[75.78863,21.03666],[75.78848,21.03762],[75.78933,21.03755],[75.78943,21.03794],[75.79108,21.03783],[75.79101,21.03868],[75.79299,21.03732],[75.79628,21.03595],[75.7971,21.03436],[75.8001,21.03147],[75.79628,21.03283],[75.7933,21.03346],[75.79331,21.0327],[75.79282,21.03251],[75.79274,21.03193],[75.79238,21.03164],[75.79177,21.03168]]]}},{"type":"Feature","bbox":[75.768,21.01965,75.78996,21.03563],"properties":{"ward":24},"geometry":{"type":"Polygon","coordinates":[[[75.78291,21.02933],[75.78607,21.0304],[75.78634,21.02877],[75.78727,21.0268],[75.78996,21.02422],[75.78547,21.02384],[75.78546,21.02302],[75.78263,21.02513],[75.7826,21.02469],[75.78217,21.02447],[75.78148,21.02355],[75.78094,21.01982],[75.77872,21.01965],[75.77826,21.01978],[75.77819,21.02087],[75.77532,21.02109],[75.77244,21.02197],[75.77265,21.02252],[75.76972,21.02295],[75.76993,21.02566],[75.76971,21.02788],[75.76832,21.02783],[75.768,21.03317],[75.76886,21.03459],[75.77368,21.0346],[75.7737,21.03492],[75.77395,21.03505],[75.77392,21.03548],[75.77463,21.03563],[75.77483,21.03472],[75.77453,21.03426],[75.77392,21.03438],[75.77321,21.0336],[75.77531,21.03108],[75.77654,21.02995],[75.77674,21.03013],[75.7776,21.02978],[75.77794,21.0303],[75.77855,21.02984],[75.77936,21.02968],[75.77923,21.02864],[75.78291,21.02933]]]}}]}