{"type":"FeatureCollection","features":[{"type":"Feature","bbox":[75.88883,21.14983,75.89814,21.15808],"properties":{"ward":1},"geometry":{"type":"Polygon","coordinates":[[[75.89619,21.15174],[75.89479,21.15122],[75.89278,21.15082],[75.89238,21.15055],[75.89238,21.1499],[75.89205,21.14989],[75.89204,21.15013],[75.89149,21.15015],[75.89104,21.14983],[75.89081,21.14985],[75.89099,21.1503],[75.89088,21.15092],[75.89059,21.15112],[75.88949,21.15137],[75.88946,21.15183],[75.88883,21.15187],[75.88952,21.15477],[75.88935,21.15617],[75.88953,21.15808],[75.89322,21.15772],[75.89429,21.15747],[75.89417,21.15625],[75.89377,21.15591],[75.89281,21.154],[75.89532,21.15393],[75.89565,21.15396],[75.89577,21.15437],[75.89814,21.15441],[75.89659,21.15205],[75.89619,21.15174]]]}},{"type":"Feature","bbox":[75.89162,21.14841,75.8959,21.15144],"properties":{"ward":2},"geometry":{"type":"Polygon","coordinates":[[[75.89352,21.14841],[75.89248,21.1487],[75.89236,21.14848],[75.89162,21.14866],[75.8917,21.14907],[75.89196,21.14915],[75.89203,21.14968],[75.89257,21.14971],[75.89255,21.15052],[75.8959,21.15144],[75.89554,21.14993],[75.89502,21.14979],[75.89473,21.14889],[75.89359,21.14902],[75.89352,21.14841]]]}},{"type":"Feature","bbox":[75.88906,21.1483,75.89199,21.15053],"properties":{"ward":3},"geometry":{"type":"Polygon","coordinates":[[[75.89129,21.1483],[75.8903,21.14869],[75.89035,21.1489],[75.8892,21.14884],[75.88906,21.14955],[75.8901,21.14959],[75.89015,21.14977],[75.88989,21.14989],[75.88992,21.15006],[75.8904,21.14995],[75.89037,21.15053],[75.89094,21.15049],[75.89076,21.14982],[75.89114,21.14979],[75.89146,21.15005],[75.89199,21.15007],[75.89192,21.14919],[75.89162,21.14912],[75.89155,21.1486],[75.89176,21.14856],[75.89169,21.14843],[75.89129,21.1483]]]}},{"type":"Feature","bbox":[75.88874,21.14957,75.89094,21.15136],"properties":{"ward":4},"geometry":{"type":"Polygon","coordinates":[[[75.88912,21.14957],[75.88874,21.15135],[75.88941,21.15136],[75.89082,21.15094],[75.89094,21.1505],[75.89039,21.15052],[75.89042,21.14994],[75.88992,21.15006],[75.89012,21.14959],[75.88912,21.14957]]]}},{"type":"Feature","bbox":[75.88615,21.14934,75.88943,21.15235],"properties":{"ward":5},"geometry":{"type":"Polygon","coordinates":[[[75.88907,21.14956],[75.88657,21.14934],[75.88648,21.14998],[75.88668,21.14994],[75.88671,21.15025],[75.88653,21.15107],[75.88615,21.15124],[75.8863,21.15169],[75.88692,21.15148],[75.8871,21.15202],[75.88732,21.152],[75.88738,21.15235],[75.88877,21.15204],[75.88872,21.15181],[75.88943,21.15173],[75.88942,21.15136],[75.88874,21.15135],[75.88907,21.14956]]]}},{"type":"Feature","bbox":[75.88515,21.14882,75.88702,21.15178],"properties":{"ward":6},"geometry":{"type":"Polygon","coordinates":[[[75.88515,21.14924],[75.88527,21.15178],[75.88623,21.15176],[75.88614,21.15124],[75.88654,21.15107],[75.88672,21.15025],[75.88668,21.14994],[75.88648,21.14998],[75.88657,21.14934],[75.88691,21.14935],[75.88702,21.14882],[75.88623,21.14927],[75.88515,21.14924]]]}},{"type":"Feature","bbox":[75.8766,21.14687,75.8893,21.15632],"properties":{"ward":7},"geometry":{"type":"Polygon","coordinates":[[[75.87905,21.14687],[75.87916,21.14921],[75.87895,21.14932],[75.8766,21.14941],[75.87676,21.15011],[75.87741,21.15034],[75.87749,21.15102],[75.87731,21.15208],[75.87751,21.1528],[75.87834,21.15421],[75.87928,21.15465],[75.88012,21.15481],[75.88051,21.15632],[75.88114,21.15622],[75.88108,21.15558],[75.8814,21.15536],[75.88303,21.15511],[75.88483,21.1551],[75.88523,21.15543],[75.88624,21.15554],[75.88683,21.1553],[75.88697,21.15485],[75.88753,21.15485],[75.88787,21.15542],[75.88897,21.15536],[75.8893,21.15466],[75.88874,21.15223],[75.88735,21.15241],[75.88685,21.15165],[75.88566,21.15191],[75.88523,21.15182],[75.88509,21.14932],[75.88291,21.1487],[75.88178,21.14744],[75.87905,21.14687]]]}},{"type":"Feature","bbox":[75.87821,21.13898,75.89446,21.14943],"properties":{"ward":8},"geometry":{"type":"Polygon","coordinates":[[[75.88256,21.14769],[75.88296,21.14838],[75.88402,21.14884],[75.88592,21.14907],[75.88657,21.14877],[75.88706,21.14874],[75.88714,21.14889],[75.88698,21.14927],[75.88851,21.14943],[75.88903,21.14939],[75.88912,21.14874],[75.89026,21.1488],[75.89024,21.14864],[75.89087,21.14827],[75.89144,21.14819],[75.89182,21.14845],[75.89248,21.14835],[75.89254,21.14857],[75.89435,21.14804],[75.89397,21.14705],[75.89326,21.14718],[75.8932,21.14609],[75.89214,21.14608],[75.89264,21.14364],[75.89446,21.1432],[75.89388,21.14132],[75.8928,21.13904],[75.89237,21.13898],[75.89264,21.13994],[75.89181,21.14011],[75.89173,21.14127],[75.8905,21.14127],[75.89033,21.14165],[75.88979,21.14164],[75.88974,21.14231],[75.88843,21.14239],[75.88842,21.143],[75.8878,21.14292],[75.88782,21.14522],[75.88437,21.14553],[75.88353,21.14552],[75.88332,21.14535],[75.8826,21.14564],[75.88126,21.14452],[75.88098,21.14448],[75.87928,21.14514],[75.87861,21.14492],[75.87821,21.14458],[75.87833,21.14572],[75.8791,21.14578],[75.87926,21.14658],[75.88008,21.14659],[75.88149,21.1469],[75.88256,21.14769]]]}}]}