{"type":"FeatureCollection","features":[{"type":"Feature","bbox":[75.761,20.81486,75.80855,20.84612],"properties":{"ward":1},"geometry":{"type":"Polygon","coordinates":[[[75.77995,20.8159],[75.77848,20.81486],[75.77566,20.81938],[75.77511,20.82047],[75.7741,20.82363],[75.77358,20.82628],[75.77315,20.82722],[75.77245,20.82814],[75.77182,20.82858],[75.77102,20.82889],[75.76926,20.82889],[75.76777,20.82856],[75.76654,20.82774],[75.76572,20.82749],[75.76158,20.82687],[75.76147,20.82788],[75.76157,20.82837],[75.761,20.82895],[75.76254,20.83525],[75.76204,20.83753],[75.76221,20.84102],[75.76166,20.84321],[75.76301,20.84463],[75.76451,20.84507],[75.76579,20.84612],[75.76923,20.84517],[75.77141,20.84219],[75.77554,20.84281],[75.77845,20.84251],[75.78105,20.84098],[75.78307,20.84131],[75.78678,20.8414],[75.78882,20.84116],[75.78927,20.84176],[75.79358,20.84255],[75.79415,20.84223],[75.79471,20.8412],[75.79612,20.83979],[75.79782,20.83928],[75.80099,20.83892],[75.80207,20.83836],[75.80269,20.83822],[75.80359,20.83809],[75.80493,20.83842],[75.80575,20.83806],[75.80631,20.83761],[75.80665,20.83725],[75.80664,20.83676],[75.80832,20.83623],[75.80855,20.83566],[75.80504,20.83289],[75.79989,20.8293],[75.7987,20.82735],[75.79637,20.8241],[75.79537,20.82366],[75.79254,20.82095],[75.7919,20.81957],[75.78912,20.82015],[75.78892,20.81955],[75.78686,20.8199],[75.78737,20.82131],[75.78616,20.82134],[75.78581,20.8202],[75.78381,20.8207],[75.78266,20.81709],[75.77995,20.8159]]]}},{"type":"Feature","bbox":[75.77878,20.81108,75.78578,20.82065],"properties":{"ward":2},"geometry":{"type":"Polygon","coordinates":[[[75.77981,20.81567],[75.78229,20.8167],[75.78271,20.81705],[75.78384,20.82065],[75.78578,20.82016],[75.7836,20.8143],[75.78424,20.81377],[75.78385,20.81355],[75.78358,20.81273],[75.78298,20.81229],[75.78348,20.81108],[75.78135,20.8124],[75.77878,20.81479],[75.77981,20.81567]]]}},{"type":"Feature","bbox":[75.78426,20.78751,75.85773,20.83385],"properties":{"ward":3},"geometry":{"type":"Polygon","coordinates":[[[75.7908,20.81021],[75.78426,20.81231],[75.78673,20.81861],[75.79223,20.81898],[75.8,20.82805],[75.80929,20.83385],[75.8131,20.83211],[75.81369,20.82977],[75.81794,20.82771],[75.81825,20.82544],[75.82126,20.82465],[75.82354,20.82437],[75.82777,20.82767],[75.83022,20.82656],[75.83514,20.82515],[75.83687,20.82547],[75.83876,20.82468],[75.84642,20.82615],[75.84872,20.82728],[75.85233,20.82633],[75.85586,20.82403],[75.85768,20.82229],[75.85773,20.8191],[75.85669,20.81686],[75.85654,20.81443],[75.85672,20.81138],[75.85457,20.80943],[75.84947,20.80315],[75.84316,20.79954],[75.84131,20.79641],[75.83896,20.78785],[75.82716,20.78751],[75.81411,20.79165],[75.81109,20.7973],[75.80936,20.80375],[75.80099,20.80509],[75.7908,20.81021]]]}},{"type":"Feature","bbox":[75.78386,20.80816,75.78894,20.81053],"properties":{"ward":4},"geometry":{"type":"Polygon","coordinates":[[[75.78442,20.81002],[75.78442,20.81053],[75.78894,20.80967],[75.7887,20.80816],[75.78638,20.80834],[75.78414,20.80875],[75.78386,20.809],[75.78395,20.80958],[75.78487,20.8091],[75.78518,20.80904],[75.78531,20.80921],[75.78523,20.80948],[75.78442,20.81002]]]}},{"type":"Feature","bbox":[75.7795,20.80684,75.78625,20.81126],"properties":{"ward":5},"geometry":{"type":"Polygon","coordinates":[[[75.78024,20.81101],[75.78085,20.81126],[75.78081,20.81065],[75.78144,20.81016],[75.78162,20.80948],[75.78271,20.80945],[75.78293,20.80967],[75.78363,20.80975],[75.78336,20.80926],[75.78367,20.80866],[75.78625,20.80813],[75.78615,20.80684],[75.78453,20.80706],[75.78422,20.80748],[75.78339,20.80745],[75.78321,20.80703],[75.78149,20.80723],[75.78165,20.80822],[75.78205,20.80825],[75.78209,20.80904],[75.7795,20.80971],[75.78006,20.80985],[75.78003,20.81055],[75.78024,20.81101]]]}},{"type":"Feature","bbox":[75.77916,20.80934,75.785,20.81337],"properties":{"ward":6},"geometry":{"type":"Polygon","coordinates":[[[75.77937,20.81292],[75.77981,20.81337],[75.78392,20.81062],[75.78402,20.81021],[75.785,20.80934],[75.78379,20.81],[75.78303,20.81],[75.78263,20.80979],[75.78176,20.80968],[75.78187,20.81021],[75.7812,20.81072],[75.7812,20.81141],[75.78037,20.81153],[75.78012,20.8114],[75.77916,20.81159],[75.77959,20.81232],[75.77937,20.81292]]]}},{"type":"Feature","bbox":[75.75932,20.80965,75.77969,20.82889],"properties":{"ward":7,"name":"Sane Guruji Colony"},"geometry":{"type":"Polygon","coordinates":[[[75.77848,20.81487],[75.77969,20.81376],[75.77923,20.81282],[75.77935,20.81245],[75.77876,20.81145],[75.77777,20.81161],[75.77745,20.80965],[75.77408,20.80993],[75.77454,20.81211],[75.7755,20.81194],[75.7757,20.81379],[75.7709,20.81462],[75.77108,20.81535],[75.77039,20.81543],[75.76832,20.81641],[75.76582,20.81885],[75.76396,20.82167],[75.7617,20.82388],[75.76121,20.82457],[75.75932,20.82544],[75.75947,20.82719],[75.76009,20.82698],[75.7616,20.82687],[75.7639,20.82716],[75.76649,20.82772],[75.76776,20.82855],[75.76938,20.82889],[75.77103,20.82889],[75.77183,20.82857],[75.77246,20.82813],[75.77316,20.82717],[75.77357,20.82629],[75.77408,20.82366],[75.77511,20.82045],[75.77848,20.81487]]]}},{"type":"Feature","bbox":[75.75514,20.81039,75.7751,20.82457],"properties":{"ward":8},"geometry":{"type":"Polygon","coordinates":[[[75.75794,20.81842],[75.75983,20.82457],[75.76855,20.81581],[75.77036,20.81501],[75.77077,20.81398],[75.77505,20.81337],[75.7751,20.81252],[75.77405,20.81209],[75.77365,20.81039],[75.76368,20.81159],[75.7638,20.81282],[75.76473,20.8146],[75.76467,20.81551],[75.76335,20.81612],[75.75801,20.81688],[75.75514,20.81603],[75.75554,20.81854],[75.75738,20.81834],[75.75794,20.81842]]]}},{"type":"Feature","bbox":[75.75458,20.80738,75.76609,20.81595],"properties":{"ward":9,"name":"Iti Colony"},"geometry":{"type":"Polygon","coordinates":[[[75.76234,20.80738],[75.76231,20.80808],[75.76203,20.80891],[75.76165,20.80948],[75.76127,20.80972],[75.76006,20.81008],[75.75935,20.81004],[75.75629,20.81078],[75.75471,20.81097],[75.75458,20.81112],[75.75479,20.81169],[75.75483,20.8132],[75.75525,20.81512],[75.75693,20.81537],[75.75769,20.81595],[75.75843,20.81594],[75.75893,20.81579],[75.7605,20.81576],[75.76115,20.8155],[75.762,20.81547],[75.76374,20.81505],[75.76373,20.8141],[75.76327,20.81382],[75.76282,20.81315],[75.76265,20.81176],[75.76273,20.81104],[75.76395,20.81068],[75.76607,20.81059],[75.76609,20.81025],[75.76436,20.80815],[75.76234,20.80738]]]}},{"type":"Feature","bbox":[75.76255,20.80168,75.77594,20.81043],"properties":{"ward":10,"name":"Dhanpushpa Colony"},"geometry":{"type":"Polygon","coordinates":[[[75.76633,20.81043],[75.76703,20.81043],[75.76812,20.81014],[75.76892,20.81016],[75.77118,20.80969],[75.77235,20.80971],[75.77594,20.80933],[75.77525,20.80863],[75.77346,20.8082],[75.77204,20.80752],[75.77152,20.80747],[75.77144,20.80689],[75.77158,20.80634],[75.77196,20.80608],[75.77305,20.80597],[75.773,20.80554],[75.77317,20.80497],[75.77346,20.80469],[75.7732,20.80321],[75.77249,20.80168],[75.77116,20.80182],[75.77129,20.80437],[75.77072,20.80479],[75.77092,20.80677],[75.76967,20.80648],[75.76334,20.80324],[75.76271,20.80585],[75.76255,20.80719],[75.76279,20.80742],[75.76371,20.80756],[75.76461,20.808],[75.76592,20.80926],[75.76633,20.80989],[75.76633,20.81043]]]}},{"type":"Feature","bbox":[75.76908,20.79164,75.78347,20.80963],"properties":{"ward":11,"name":"Shrikrishna Nagar"},"geometry":{"type":"Polygon","coordinates":[[[75.77926,20.80963],[75.78196,20.80891],[75.7819,20.80832],[75.7815,20.80837],[75.78136,20.80807],[75.78129,20.80715],[75.78325,20.80683],[75.78311,20.80599],[75.78226,20.80609],[75.78181,20.80345],[75.78199,20.80275],[75.78217,20.80277],[75.78236,20.80343],[75.78347,20.80332],[75.78324,20.80179],[75.77921,20.80212],[75.77778,20.80174],[75.77722,20.80142],[75.77652,20.80041],[75.77598,20.79909],[75.77466,20.7971],[75.77236,20.79448],[75.76908,20.79164],[75.77181,20.79748],[75.77403,20.80174],[75.77446,20.80305],[75.77564,20.80307],[75.77625,20.80592],[75.77823,20.80554],[75.77896,20.8095],[75.77926,20.80963]]]}},{"type":"Feature","bbox":[75.76433,20.77722,75.80613,20.80745],"properties":{"ward":12,"name":"Shriram Nagar(Pachora Road)"},"geometry":{"type":"Polygon","coordinates":[[[75.7928,20.80609],[75.79084,20.80587],[75.79295,20.80579],[75.79405,20.80471],[75.79587,20.80422],[75.79781,20.80338],[75.7994,20.80155],[75.80081,20.80093],[75.8029,20.80059],[75.80351,20.80013],[75.80439,20.79882],[75.80606,20.79886],[75.80613,20.79868],[75.80541,20.79646],[75.8037,20.79486],[75.80223,20.79295],[75.8019,20.7917],[75.80195,20.7891],[75.80113,20.78879],[75.7989,20.78876],[75.7978,20.78788],[75.79646,20.78754],[75.79417,20.78732],[75.79255,20.7869],[75.79106,20.78603],[75.78965,20.78603],[75.78872,20.78583],[75.78811,20.78193],[75.78783,20.78158],[75.78677,20.78103],[75.78596,20.78095],[75.78575,20.77967],[75.78523,20.77959],[75.78477,20.7786],[75.78471,20.77779],[75.78487,20.77742],[75.78446,20.77722],[75.7814,20.77737],[75.77939,20.77793],[75.77425,20.77809],[75.77337,20.77827],[75.7732,20.77838],[75.77339,20.77887],[75.77367,20.78111],[75.7736,20.78225],[75.77314,20.78324],[75.77153,20.78388],[75.77046,20.78397],[75.76979,20.7844],[75.76719,20.78467],[75.76446,20.78569],[75.76433,20.78605],[75.76451,20.78651],[75.76556,20.78763],[75.76616,20.78796],[75.7676,20.78937],[75.7695,20.79052],[75.7727,20.79338],[75.77326,20.79373],[75.77353,20.7943],[75.77503,20.7959],[75.77589,20.79738],[75.77658,20.79794],[75.7781,20.79988],[75.77944,20.80069],[75.7816,20.80028],[75.78245,20.80088],[75.78352,20.80115],[75.78389,20.8015],[75.78408,20.80292],[75.78403,20.80393],[75.78289,20.80436],[75.7831,20.80525],[75.78368,20.8057],[75.78402,20.80593],[75.7857,20.80573],[75.78659,20.8063],[75.78698,20.80718],[75.78924,20.80724],[75.78978,20.80745],[75.78981,20.80682],[75.79017,20.80658],[75.79189,20.80633],[75.79223,20.80607],[75.7928,20.80609]]]}}]}