{"type":"FeatureCollection","features":[{"type":"Feature","bbox":[78.83714,20.55186,78.84169,20.5651],"properties":{"ward":1,"name":"Bhimnagarwardkhandobawardnannashahward"},"geometry":{"type":"Polygon","coordinates":[[[78.83799,20.5651],[78.84026,20.56495],[78.84114,20.56162],[78.8416,20.55828],[78.84169,20.55687],[78.84155,20.55546],[78.84078,20.55497],[78.8402,20.55186],[78.83899,20.55193],[78.8393,20.55465],[78.83841,20.55489],[78.83754,20.55539],[78.83722,20.55533],[78.8378,20.55579],[78.83849,20.55565],[78.83886,20.55576],[78.83888,20.5564],[78.83907,20.55684],[78.8384,20.55744],[78.83744,20.55769],[78.83775,20.5589],[78.83714,20.55982],[78.83746,20.56031],[78.83721,20.56128],[78.83799,20.5651]]]}},{"type":"Feature","bbox":[78.84043,20.5519,78.84763,20.56349],"properties":{"ward":2,"name":"Matamandirwardsantchokhobaward"},"geometry":{"type":"Polygon","coordinates":[[[78.84134,20.56349],[78.84196,20.56239],[78.84305,20.56145],[78.84425,20.56152],[78.84483,20.56128],[78.84567,20.55773],[78.84574,20.55579],[78.8476,20.55573],[78.84763,20.55484],[78.84572,20.55522],[78.84551,20.55382],[78.84617,20.55337],[78.84648,20.5527],[78.8456,20.55213],[78.84358,20.5519],[78.84043,20.55201],[78.84097,20.55468],[78.84203,20.55553],[78.84134,20.56349]]]}},{"type":"Feature","bbox":[78.84512,20.55266,78.85223,20.56219],"properties":{"ward":3,"name":"Santdnyaneshwarward"},"geometry":{"type":"Polygon","coordinates":[[[78.84594,20.55762],[78.84512,20.56219],[78.85205,20.56154],[78.85223,20.55885],[78.85173,20.55781],[78.85059,20.55838],[78.84959,20.55848],[78.84941,20.55707],[78.85032,20.55708],[78.85034,20.55593],[78.85146,20.55595],[78.85162,20.55574],[78.84722,20.55266],[78.84631,20.55373],[78.84576,20.55409],[78.84589,20.55494],[78.84775,20.55464],[78.84785,20.55519],[78.84775,20.55598],[78.84589,20.55594],[78.84594,20.55762]]]}},{"type":"Feature","bbox":[78.85097,20.55616,78.85891,20.56225],"properties":{"ward":4,"name":"Santnyaneswarward"},"geometry":{"type":"Polygon","coordinates":[[[78.85246,20.56043],[78.85862,20.56225],[78.85891,20.56094],[78.85717,20.55969],[78.85502,20.55851],[78.85165,20.55616],[78.85097,20.55735],[78.85202,20.55769],[78.85269,20.55892],[78.85246,20.56043]]]}},{"type":"Feature","bbox":[78.84898,20.54999,78.86076,20.56065],"properties":{"ward":5,"name":"Santtukadojiward"},"geometry":{"type":"Polygon","coordinates":[[[78.85927,20.56065],[78.85864,20.55737],[78.86076,20.55683],[78.86049,20.55564],[78.85994,20.55554],[78.85959,20.5533],[78.85979,20.55155],[78.8592,20.55095],[78.85784,20.55101],[78.85772,20.54999],[78.85673,20.55043],[78.84898,20.55173],[78.85131,20.55486],[78.85927,20.56065]]]}},{"type":"Feature","bbox":[78.84528,20.54366,78.85783,20.55157],"properties":{"ward":6,"name":"Santtukadojiward"},"geometry":{"type":"Polygon","coordinates":[[[78.84867,20.55157],[78.85685,20.55027],[78.85783,20.54969],[78.85671,20.54904],[78.85597,20.54783],[78.85576,20.54366],[78.85323,20.54385],[78.84974,20.54502],[78.84815,20.54534],[78.84746,20.54565],[78.84721,20.54617],[78.84528,20.54714],[78.84867,20.55157]]]}},{"type":"Feature","bbox":[78.83889,20.5486,78.85083,20.55504],"properties":{"ward":7,"name":"Dattamandirwardramnagarward"},"geometry":{"type":"Polygon","coordinates":[[[78.839,20.55192],[78.84439,20.55166],[78.84726,20.55261],[78.85083,20.55504],[78.84703,20.55032],[78.84588,20.5486],[78.84385,20.54927],[78.84064,20.54949],[78.84075,20.55071],[78.8399,20.55076],[78.83986,20.55043],[78.83942,20.55063],[78.83923,20.55108],[78.83889,20.55132],[78.839,20.55192]]]}},{"type":"Feature","bbox":[78.83637,20.54894,78.84072,20.55216],"properties":{"ward":8,"name":"Shiwajiwardgurunanakwardtahashilwardfuleward"},"geometry":{"type":"Polygon","coordinates":[[[78.83762,20.55216],[78.83896,20.55184],[78.83892,20.5513],[78.83925,20.5511],[78.83944,20.55063],[78.83988,20.55043],[78.83992,20.55075],[78.84072,20.55066],[78.84059,20.54894],[78.83808,20.54922],[78.83791,20.54908],[78.83637,20.54943],[78.83655,20.55169],[78.83753,20.55169],[78.83762,20.55216]]]}},{"type":"Feature","bbox":[78.83594,20.55187,78.8393,20.55767],"properties":{"ward":9,"name":"Hanumanwardgautamward"},"geometry":{"type":"Polygon","coordinates":[[[78.83744,20.5556],[78.83723,20.55533],[78.83755,20.55539],[78.83841,20.55489],[78.8393,20.55466],[78.83901,20.55187],[78.83762,20.55217],[78.83594,20.55324],[78.83663,20.5545],[78.83691,20.55468],[78.83714,20.55549],[78.83692,20.55601],[78.83725,20.55745],[78.83745,20.55767],[78.83842,20.55741],[78.83907,20.55686],[78.83887,20.55636],[78.83886,20.55576],[78.83744,20.5556]],[[78.83742,20.5556],[78.83744,20.5556],[78.83782,20.55581],[78.83742,20.5556]]]}},{"type":"Feature","bbox":[78.83162,20.55323,78.83774,20.56625],"properties":{"ward":10,"name":"Tilakwardcentralwardnetajiwar"},"geometry":{"type":"Polygon","coordinates":[[[78.83162,20.56253],[78.83351,20.56474],[78.83554,20.56582],[78.83751,20.56625],[78.83668,20.56132],[78.83686,20.56036],[78.83774,20.55889],[78.83692,20.55602],[78.83714,20.55548],[78.83691,20.55471],[78.83663,20.55448],[78.83594,20.55323],[78.83481,20.55391],[78.83543,20.55534],[78.83462,20.55564],[78.83375,20.55845],[78.83254,20.5586],[78.83269,20.55911],[78.83214,20.56017],[78.83196,20.56022],[78.83162,20.56253]]]}},{"type":"Feature","bbox":[78.82898,20.55433,78.83461,20.56254],"properties":{"ward":11,"name":"Nishanpuraward"},"geometry":{"type":"Polygon","coordinates":[[[78.82898,20.561],[78.83159,20.56254],[78.83195,20.56024],[78.83213,20.56017],[78.83269,20.5591],[78.83253,20.5586],[78.83376,20.55844],[78.83461,20.55565],[78.83409,20.55584],[78.83404,20.55433],[78.83078,20.55627],[78.8298,20.55814],[78.82989,20.55829],[78.83058,20.55821],[78.8303,20.55887],[78.83042,20.55891],[78.8304,20.55949],[78.82924,20.55957],[78.82898,20.561]]]}},{"type":"Feature","bbox":[78.81699,20.54595,78.8354,20.56103],"properties":{"ward":12,"name":"Ramnagarwardmajumdarward"},"geometry":{"type":"Polygon","coordinates":[[[78.82836,20.54776],[78.8226,20.55308],[78.81705,20.55537],[78.81699,20.55607],[78.81862,20.55767],[78.82289,20.56013],[78.82683,20.56098],[78.82895,20.56103],[78.82922,20.55959],[78.83041,20.5595],[78.83031,20.55867],[78.83058,20.55847],[78.83056,20.55822],[78.82987,20.5583],[78.82982,20.55816],[78.83075,20.55629],[78.83405,20.55432],[78.83409,20.55586],[78.8354,20.55532],[78.83482,20.5539],[78.83466,20.5539],[78.83398,20.54857],[78.83189,20.54878],[78.83168,20.5471],[78.83051,20.54722],[78.83041,20.54642],[78.83008,20.54595],[78.82836,20.54776]]]}},{"type":"Feature","bbox":[78.8304,20.5451,78.83759,20.55392],"properties":{"ward":13,"name":"Neharuwardjagannathwardjainmandirward"},"geometry":{"type":"Polygon","coordinates":[[[78.8304,20.54638],[78.83053,20.5472],[78.83169,20.54713],[78.83194,20.54881],[78.83405,20.54859],[78.83469,20.55392],[78.83759,20.55215],[78.83744,20.55167],[78.83658,20.55174],[78.83639,20.54936],[78.83575,20.5451],[78.83083,20.54605],[78.8304,20.54638]]]}},{"type":"Feature","bbox":[78.83006,20.54177,78.84116,20.54939],"properties":{"ward":14,"name":"Chaudhariwardmarotiward"},"geometry":{"type":"Polygon","coordinates":[[[78.8355,20.54398],[78.83414,20.54245],[78.83329,20.54341],[78.83136,20.5448],[78.83006,20.54595],[78.83037,20.54639],[78.83081,20.54607],[78.83575,20.54505],[78.8364,20.54939],[78.8378,20.54908],[78.84055,20.54892],[78.84041,20.54749],[78.84018,20.54672],[78.84078,20.54654],[78.84046,20.54516],[78.84074,20.54435],[78.84116,20.54386],[78.83976,20.54392],[78.83951,20.54177],[78.83807,20.54183],[78.83767,20.54365],[78.8355,20.54398]]]}},{"type":"Feature","bbox":[78.83949,20.54142,78.84584,20.54949],"properties":{"ward":15,"name":"Yashavantnagarwardchaudhariwardsantgomajiward"},"geometry":{"type":"Polygon","coordinates":[[[78.84044,20.5452],[78.84079,20.54659],[78.84017,20.54669],[78.84041,20.54746],[78.84065,20.54949],[78.84385,20.54924],[78.84584,20.54859],[78.84386,20.54561],[78.84169,20.54161],[78.83949,20.54142],[78.83976,20.5439],[78.84117,20.54386],[78.84072,20.54438],[78.84044,20.5452]],[[78.84079,20.54659],[78.84079,20.54659],[78.84079,20.54659],[78.84079,20.54659]]]}},{"type":"Feature","bbox":[78.83958,20.53146,78.85531,20.54677],"properties":{"ward":16,"name":"Santtukadojiward"},"geometry":{"type":"Polygon","coordinates":[[[78.84548,20.54677],[78.84722,20.54536],[78.84805,20.54502],[78.84969,20.54473],[78.85325,20.54344],[78.85508,20.54335],[78.85531,20.54259],[78.85408,20.53823],[78.85325,20.53629],[78.85239,20.53498],[78.85157,20.53437],[78.85142,20.53346],[78.8509,20.533],[78.84998,20.53254],[78.84929,20.53146],[78.84663,20.53171],[78.84371,20.53225],[78.84104,20.53191],[78.841,20.53448],[78.84054,20.53562],[78.83958,20.53713],[78.84151,20.53982],[78.84467,20.54501],[78.84548,20.54677]]]}},{"type":"Feature","bbox":[78.83414,20.53942,78.84169,20.54398],"properties":{"ward":17,"name":"Gomajiwardstationfail"},"geometry":{"type":"Polygon","coordinates":[[[78.83723,20.54035],[78.83649,20.54075],[78.83647,20.54023],[78.83635,20.54017],[78.83414,20.54244],[78.83553,20.54398],[78.83767,20.54366],[78.83809,20.54182],[78.8395,20.54174],[78.83946,20.54141],[78.8406,20.54146],[78.84058,20.54161],[78.84169,20.5416],[78.84039,20.53942],[78.83884,20.53945],[78.83883,20.54027],[78.83723,20.54035]]]}},{"type":"Feature","bbox":[78.81502,20.53446,78.83057,20.55382],"properties":{"ward":18,"name":"Shastriward"},"geometry":{"type":"Polygon","coordinates":[[[78.83057,20.54463],[78.83039,20.54403],[78.82961,20.54347],[78.82935,20.54306],[78.82813,20.54052],[78.82716,20.53913],[78.82474,20.53446],[78.82423,20.53484],[78.82421,20.53519],[78.8249,20.53677],[78.82233,20.53775],[78.82186,20.53827],[78.82274,20.53898],[78.82278,20.53964],[78.82251,20.54122],[78.82275,20.54193],[78.82175,20.54299],[78.81901,20.54323],[78.81743,20.54373],[78.81502,20.5439],[78.81574,20.5459],[78.81641,20.54945],[78.81699,20.55382],[78.82167,20.55196],[78.82546,20.54935],[78.83057,20.54463]]]}},{"type":"Feature","bbox":[78.82505,20.53191,78.83991,20.54423],"properties":{"ward":19,"name":"Indiragandhiwardsantkabirward"},"geometry":{"type":"Polygon","coordinates":[[[78.83133,20.54423],[78.83865,20.53731],[78.83991,20.53414],[78.8372,20.53191],[78.82505,20.53422],[78.83133,20.54423]]]}}]}