{"type":"FeatureCollection","features":[{"type":"Feature","bbox":[76.93293,20.46057,76.9373,20.46712],"properties":{"ward":1},"geometry":{"type":"Polygon","coordinates":[[[76.93394,20.46062],[76.93369,20.46057],[76.93293,20.46161],[76.93309,20.4619],[76.9337,20.46174],[76.93368,20.46233],[76.93399,20.46272],[76.93386,20.46329],[76.93392,20.46469],[76.93493,20.46483],[76.93473,20.46546],[76.93361,20.46712],[76.93566,20.46609],[76.9373,20.46546],[76.93639,20.46347],[76.93616,20.46337],[76.93607,20.46291],[76.93526,20.46302],[76.93476,20.46289],[76.93477,20.46099],[76.93436,20.46105],[76.93394,20.46062]]]}},{"type":"Feature","bbox":[76.93641,20.46148,76.93988,20.46527],"properties":{"ward":2},"geometry":{"type":"Polygon","coordinates":[[[76.93679,20.46229],[76.93641,20.46241],[76.93647,20.46262],[76.93708,20.46364],[76.9373,20.46454],[76.93768,20.46527],[76.93851,20.46491],[76.939,20.46447],[76.93941,20.46375],[76.93988,20.46211],[76.93912,20.46219],[76.93913,20.46306],[76.93876,20.46309],[76.93865,20.46331],[76.93849,20.46306],[76.9379,20.46306],[76.93808,20.46195],[76.93777,20.46184],[76.93758,20.46148],[76.93714,20.46149],[76.93737,20.46259],[76.9373,20.46325],[76.93707,20.46327],[76.93679,20.46229]]]}},{"type":"Feature","bbox":[76.9399,20.45164,76.94617,20.46411],"properties":{"ward":3},"geometry":{"type":"Polygon","coordinates":[[[76.94051,20.45937],[76.9399,20.46198],[76.942,20.46212],[76.94223,20.46298],[76.94256,20.46284],[76.94258,20.46395],[76.94322,20.46411],[76.94564,20.46411],[76.94546,20.46095],[76.94501,20.46098],[76.94464,20.46037],[76.94451,20.45914],[76.94394,20.45818],[76.94324,20.45749],[76.9427,20.45552],[76.94404,20.4552],[76.94616,20.45417],[76.94593,20.4528],[76.94617,20.45273],[76.94592,20.45164],[76.94508,20.45166],[76.94366,20.45204],[76.94278,20.45203],[76.94177,20.45563],[76.94051,20.45937]]]}},{"type":"Feature","bbox":[76.93709,20.4601,76.94014,20.46332],"properties":{"ward":4},"geometry":{"type":"Polygon","coordinates":[[[76.9371,20.46136],[76.93758,20.46149],[76.93779,20.46185],[76.93802,20.46185],[76.93809,20.46228],[76.93792,20.46305],[76.93848,20.46308],[76.93866,20.46332],[76.93877,20.46309],[76.93913,20.46305],[76.93912,20.4622],[76.93988,20.4621],[76.94014,20.4609],[76.93961,20.46089],[76.93957,20.46058],[76.93908,20.46045],[76.9386,20.4601],[76.9377,20.46019],[76.93774,20.46081],[76.93709,20.46086],[76.9371,20.46136]]]}},{"type":"Feature","bbox":[76.93469,20.45844,76.93792,20.46326],"properties":{"ward":5},"geometry":{"type":"Polygon","coordinates":[[[76.93526,20.45882],[76.9349,20.45863],[76.93469,20.45884],[76.93489,20.45971],[76.93508,20.45971],[76.93639,20.4624],[76.93667,20.46233],[76.93689,20.46247],[76.93695,20.46306],[76.93733,20.46326],[76.9371,20.46085],[76.93773,20.46077],[76.93792,20.45844],[76.93723,20.45858],[76.93694,20.4591],[76.93693,20.45942],[76.93643,20.45962],[76.93625,20.4595],[76.93613,20.45971],[76.93533,20.45966],[76.9356,20.45911],[76.93544,20.45868],[76.93526,20.45882]]]}},{"type":"Feature","bbox":[76.93342,20.45787,76.93558,20.46103],"properties":{"ward":6},"geometry":{"type":"Polygon","coordinates":[[[76.9339,20.45959],[76.93369,20.46058],[76.93415,20.46073],[76.93437,20.46103],[76.93558,20.46094],[76.93469,20.45908],[76.93487,20.45862],[76.93449,20.45801],[76.9339,20.45787],[76.93342,20.45794],[76.93357,20.45908],[76.93378,20.45922],[76.9339,20.45959]]]}},{"type":"Feature","bbox":[76.93534,20.45812,76.93723,20.45971],"properties":{"ward":7},"geometry":{"type":"Polygon","coordinates":[[[76.93696,20.45812],[76.93545,20.45869],[76.9356,20.45912],[76.93538,20.45934],[76.93534,20.45965],[76.93614,20.45971],[76.93625,20.45951],[76.93642,20.45962],[76.93687,20.45947],[76.93723,20.45865],[76.93696,20.45812]]]}},{"type":"Feature","bbox":[76.93697,20.4519,76.94277,20.4609],"properties":{"ward":8},"geometry":{"type":"Polygon","coordinates":[[[76.93865,20.45682],[76.93697,20.45812],[76.93719,20.45859],[76.9379,20.45843],[76.9377,20.46019],[76.9386,20.4601],[76.93954,20.46058],[76.93961,20.46089],[76.94015,20.4609],[76.94277,20.45203],[76.94226,20.4519],[76.9419,20.45252],[76.94179,20.45345],[76.94191,20.45413],[76.94143,20.45488],[76.94144,20.45519],[76.94061,20.45571],[76.94024,20.45554],[76.93944,20.45554],[76.93865,20.45682]]]}}]}