{"type":"FeatureCollection","features":[{"type":"Feature","bbox":[76.02375,20.02422,76.03563,20.0326],"properties":{"ward":1},"geometry":{"type":"Polygon","coordinates":[[[76.02405,20.02907],[76.02394,20.0326],[76.02579,20.03203],[76.03004,20.03133],[76.0325,20.03103],[76.03532,20.03091],[76.03563,20.02677],[76.03558,20.02511],[76.03261,20.02517],[76.02503,20.02422],[76.02375,20.02551],[76.02405,20.02907]]]}},{"type":"Feature","bbox":[76.03403,20.01785,76.04339,20.03083],"properties":{"ward":2},"geometry":{"type":"Polygon","coordinates":[[[76.03563,20.02532],[76.0354,20.03083],[76.04053,20.03017],[76.04339,20.02952],[76.04283,20.02443],[76.04288,20.0227],[76.04243,20.02163],[76.0424,20.02072],[76.04213,20.0207],[76.04214,20.01859],[76.03932,20.01785],[76.03893,20.018],[76.03847,20.01888],[76.03786,20.01881],[76.03711,20.01905],[76.03727,20.02],[76.03697,20.02012],[76.03696,20.02039],[76.03669,20.02043],[76.03643,20.02149],[76.03591,20.02232],[76.03572,20.02233],[76.0354,20.02186],[76.03521,20.02038],[76.03403,20.02042],[76.03415,20.02247],[76.03534,20.02224],[76.03563,20.02532]]]}},{"type":"Feature","bbox":[76.0401,20.00929,76.05037,20.02955],"properties":{"ward":3},"geometry":{"type":"Polygon","coordinates":[[[76.043,20.01092],[76.04201,20.01159],[76.04119,20.01169],[76.04116,20.01298],[76.04037,20.01291],[76.04042,20.01362],[76.04066,20.01365],[76.04049,20.01468],[76.04121,20.01455],[76.04127,20.01485],[76.04118,20.01522],[76.04029,20.01585],[76.0401,20.0166],[76.04029,20.01707],[76.04035,20.01815],[76.04213,20.0186],[76.04214,20.0207],[76.04241,20.02072],[76.04246,20.02163],[76.04286,20.02258],[76.043,20.02642],[76.0434,20.02955],[76.045,20.02929],[76.04494,20.02749],[76.04636,20.02605],[76.04649,20.02515],[76.04727,20.02511],[76.04688,20.02317],[76.04951,20.02109],[76.05037,20.0192],[76.05011,20.01797],[76.05026,20.01119],[76.05016,20.00929],[76.04829,20.00963],[76.04873,20.0117],[76.04768,20.01234],[76.04708,20.00985],[76.043,20.01092]]]}},{"type":"Feature","bbox":[76.03757,20.0129,76.04126,20.01815],"properties":{"ward":4},"geometry":{"type":"Polygon","coordinates":[[[76.03937,20.01785],[76.04031,20.01815],[76.04028,20.01706],[76.04009,20.0166],[76.04028,20.01585],[76.04126,20.01501],[76.04121,20.01455],[76.04049,20.01468],[76.04067,20.01366],[76.04043,20.01366],[76.04037,20.0129],[76.04016,20.0129],[76.04026,20.01448],[76.03988,20.01491],[76.03758,20.01484],[76.03757,20.01522],[76.0378,20.0155],[76.03811,20.01659],[76.03876,20.01655],[76.03863,20.01794],[76.03937,20.01785]]]}},{"type":"Feature","bbox":[76.03278,20.0149,76.03877,20.01888],"properties":{"ward":5},"geometry":{"type":"Polygon","coordinates":[[[76.03721,20.01787],[76.03859,20.01794],[76.03877,20.01719],[76.03876,20.01658],[76.03813,20.0166],[76.03795,20.016],[76.03737,20.01596],[76.03753,20.01628],[76.03731,20.0166],[76.03736,20.01718],[76.03721,20.01722],[76.03683,20.01564],[76.03635,20.01555],[76.03628,20.01517],[76.035,20.01502],[76.03427,20.01523],[76.03425,20.0149],[76.03296,20.01519],[76.03278,20.01786],[76.03518,20.01788],[76.03514,20.01828],[76.03625,20.01833],[76.03635,20.01885],[76.03698,20.01888],[76.03721,20.01787]]]}},{"type":"Feature","bbox":[76.02372,20.01521,76.03894,20.02556],"properties":{"ward":6},"geometry":{"type":"Polygon","coordinates":[[[76.03403,20.0204],[76.0352,20.02038],[76.03541,20.02187],[76.03572,20.02232],[76.03591,20.0223],[76.03643,20.02149],[76.03669,20.02041],[76.03696,20.02039],[76.03695,20.02012],[76.03726,20.01998],[76.03711,20.01906],[76.03763,20.01884],[76.03844,20.01887],[76.03894,20.01798],[76.03721,20.01788],[76.03698,20.01889],[76.03634,20.01885],[76.03623,20.01833],[76.03514,20.01829],[76.03517,20.01789],[76.03279,20.01786],[76.03296,20.01521],[76.02994,20.01626],[76.02662,20.0162],[76.02457,20.01642],[76.02436,20.01995],[76.02372,20.02463],[76.02373,20.02556],[76.02503,20.02421],[76.03262,20.02516],[76.03557,20.02511],[76.03531,20.02225],[76.03414,20.02246],[76.03403,20.0204]]]}},{"type":"Feature","bbox":[76.02459,20.01091,76.03791,20.01721],"properties":{"ward":7},"geometry":{"type":"Polygon","coordinates":[[[76.02478,20.0153],[76.02459,20.0164],[76.02663,20.01618],[76.02994,20.01625],[76.0336,20.01496],[76.03425,20.01489],[76.0343,20.01521],[76.03499,20.01501],[76.03628,20.01516],[76.03646,20.01564],[76.03683,20.01564],[76.03723,20.01721],[76.03734,20.01716],[76.03731,20.0166],[76.03753,20.01627],[76.03737,20.01596],[76.03791,20.01598],[76.0378,20.0155],[76.03756,20.01522],[76.03758,20.01484],[76.0368,20.01482],[76.03672,20.01342],[76.03589,20.01124],[76.03555,20.01214],[76.03415,20.01235],[76.03368,20.01214],[76.03072,20.01162],[76.03023,20.01103],[76.02987,20.01091],[76.02579,20.01111],[76.0252,20.01092],[76.02483,20.01444],[76.02502,20.01524],[76.02478,20.0153]]]}},{"type":"Feature","bbox":[76.0362,20.01162,76.04118,20.01488],"properties":{"ward":8},"geometry":{"type":"Polygon","coordinates":[[[76.03672,20.01341],[76.0368,20.0148],[76.03987,20.01488],[76.04023,20.01447],[76.04014,20.01288],[76.04113,20.01297],[76.04118,20.0117],[76.04095,20.01162],[76.04006,20.0119],[76.03931,20.01174],[76.03894,20.01176],[76.03885,20.01192],[76.03688,20.01203],[76.0362,20.01192],[76.03672,20.01341]]]}},{"type":"Feature","bbox":[76.02522,19.99614,76.04709,20.01235],"properties":{"ward":9},"geometry":{"type":"Polygon","coordinates":[[[76.02522,20.01086],[76.02582,20.01111],[76.02989,20.01092],[76.03022,20.01099],[76.03075,20.01161],[76.03357,20.0121],[76.03416,20.01235],[76.03475,20.01234],[76.03555,20.01213],[76.03589,20.01125],[76.03623,20.01189],[76.03644,20.012],[76.03884,20.01191],[76.03894,20.01176],[76.03943,20.01174],[76.04005,20.01189],[76.04094,20.01161],[76.04109,20.01173],[76.04182,20.01166],[76.04299,20.01092],[76.04709,20.00985],[76.04675,20.00764],[76.04518,20.00783],[76.04498,20.00652],[76.04392,20.00764],[76.04253,20.00785],[76.04148,20.00747],[76.04161,20.00688],[76.04143,20.00663],[76.04082,20.00708],[76.04064,20.00689],[76.0408,20.00608],[76.04008,20.00451],[76.04011,20.00417],[76.03983,20.00396],[76.04026,20.0022],[76.04036,20.00082],[76.04085,19.99918],[76.04064,19.99858],[76.04032,19.99844],[76.04013,19.99614],[76.03828,19.99632],[76.03811,19.99806],[76.03778,19.99889],[76.0342,20.00036],[76.03331,20.00147],[76.0339,20.00283],[76.02739,20.00413],[76.02734,20.00503],[76.02686,20.00509],[76.02684,20.00544],[76.02718,20.0087],[76.02536,20.00912],[76.02522,20.01086]]]}}]}