{"type":"FeatureCollection","features":[{"type":"Feature","bbox":[79.27053,19.9625,79.30586,19.99962],"properties":{"ward":1,"name":"D. G. Tukum"},"geometry":{"type":"Polygon","coordinates":[[[79.28897,19.97269],[79.27053,19.99052],[79.27112,19.99108],[79.2741,19.99302],[79.27494,19.99404],[79.27575,19.99441],[79.2761,19.99517],[79.27632,19.99709],[79.27676,19.99823],[79.27715,19.99902],[79.27815,19.99962],[79.28076,19.99905],[79.28168,19.99917],[79.28408,19.99873],[79.28472,19.99827],[79.28471,19.99699],[79.28567,19.99595],[79.28683,19.9953],[79.28821,19.99501],[79.28915,19.99445],[79.29184,19.99469],[79.29621,19.99574],[79.29794,19.99643],[79.29904,19.99639],[79.30181,19.9969],[79.30345,19.99676],[79.30459,19.99689],[79.30555,19.99342],[79.30586,19.99151],[79.29983,19.98252],[79.29958,19.97501],[79.29941,19.97344],[79.29887,19.96999],[79.29781,19.96617],[79.29969,19.96554],[79.29866,19.96417],[79.29706,19.9625],[79.29603,19.96355],[79.29336,19.96779],[79.29228,19.96925],[79.28897,19.97269]]]}},{"type":"Feature","bbox":[79.29963,19.96869,79.33546,20.00236],"properties":{"ward":2,"name":"Shastrinagar"},"geometry":{"type":"Polygon","coordinates":[[[79.30593,19.99149],[79.30558,19.99366],[79.30467,19.99695],[79.30525,19.99754],[79.30549,19.9984],[79.30665,19.99901],[79.30866,19.99915],[79.30963,19.99885],[79.31102,19.99922],[79.31191,19.99982],[79.31372,20.00201],[79.31489,20.00236],[79.31647,20.00112],[79.31686,20.00056],[79.32434,19.99947],[79.32571,19.99841],[79.32711,19.99768],[79.32903,19.9971],[79.33024,19.99617],[79.33397,19.99385],[79.33476,19.9927],[79.33501,19.99169],[79.33504,19.99004],[79.33526,19.9886],[79.33433,19.98742],[79.33484,19.9855],[79.33453,19.98441],[79.33458,19.98291],[79.33546,19.97979],[79.33543,19.9783],[79.33431,19.97676],[79.32581,19.97634],[79.31055,19.96869],[79.31013,19.9695],[79.3106,19.9721],[79.3109,19.97237],[79.31124,19.97333],[79.31117,19.9741],[79.31166,19.97468],[79.31135,19.97498],[79.31111,19.97666],[79.30958,19.97662],[79.30803,19.97681],[79.30773,19.97653],[79.30758,19.97472],[79.30336,19.97515],[79.30055,19.97488],[79.29963,19.97503],[79.29989,19.98246],[79.30593,19.99149]]]}},{"type":"Feature","bbox":[79.32012,19.9543,79.34053,19.9767],"properties":{"ward":3,"name":"M.E.L."},"geometry":{"type":"Polygon","coordinates":[[[79.32112,19.97401],[79.32591,19.97635],[79.33428,19.9767],[79.3344,19.97594],[79.33292,19.97358],[79.33316,19.97285],[79.33352,19.97265],[79.33402,19.97263],[79.33614,19.97274],[79.33695,19.97305],[79.33831,19.97311],[79.33856,19.9726],[79.33832,19.97225],[79.3376,19.97225],[79.33778,19.97075],[79.33744,19.96876],[79.33793,19.96608],[79.33811,19.96631],[79.33956,19.9658],[79.34044,19.96481],[79.34053,19.96389],[79.34039,19.96275],[79.34005,19.96191],[79.33871,19.96199],[79.33849,19.96061],[79.33797,19.95965],[79.33789,19.95832],[79.33668,19.95769],[79.33175,19.9543],[79.33067,19.95606],[79.33041,19.9601],[79.32988,19.96138],[79.32611,19.96171],[79.32314,19.96177],[79.32304,19.96291],[79.32354,19.96411],[79.32373,19.96521],[79.32357,19.96576],[79.32204,19.96579],[79.32195,19.96621],[79.32149,19.96609],[79.32135,19.96664],[79.32172,19.96712],[79.32168,19.96781],[79.32101,19.9702],[79.32084,19.9706],[79.32042,19.9708],[79.32016,19.97141],[79.32012,19.97258],[79.32109,19.97323],[79.32123,19.97345],[79.32112,19.97401]]]}},{"type":"Feature","bbox":[79.31049,19.94703,79.33172,19.974],"properties":{"ward":4,"name":"Bangali Camp"},"geometry":{"type":"Polygon","coordinates":[[[79.31049,19.96863],[79.3211,19.974],[79.32114,19.97335],[79.3201,19.97259],[79.32014,19.97143],[79.32039,19.9708],[79.32076,19.97067],[79.32096,19.97032],[79.32164,19.96793],[79.32172,19.96713],[79.32133,19.96665],[79.32148,19.96608],[79.32194,19.96619],[79.32204,19.96578],[79.32357,19.96575],[79.32372,19.96522],[79.32352,19.96411],[79.32302,19.96291],[79.32314,19.96176],[79.32613,19.9617],[79.32988,19.96138],[79.3304,19.96009],[79.33066,19.95605],[79.33172,19.9543],[79.3217,19.94703],[79.32022,19.94888],[79.31459,19.96265],[79.31289,19.9653],[79.31049,19.96863]]]}},{"type":"Feature","bbox":[79.29787,19.96565,79.31166,19.97677],"properties":{"ward":5,"name":"Vivek Nagar"},"geometry":{"type":"Polygon","coordinates":[[[79.29787,19.96618],[79.29894,19.97],[79.29963,19.975],[79.30054,19.97487],[79.30335,19.97512],[79.30759,19.97469],[79.30771,19.97652],[79.30804,19.97677],[79.30959,19.9766],[79.31111,19.97664],[79.31134,19.97497],[79.31166,19.9747],[79.31116,19.97411],[79.31124,19.97333],[79.3109,19.97235],[79.3106,19.97212],[79.31029,19.97046],[79.31011,19.96949],[79.31054,19.96868],[79.30929,19.96819],[79.30228,19.96683],[79.30068,19.96624],[79.29979,19.96565],[79.29787,19.96618]]]}},{"type":"Feature","bbox":[79.29712,19.94776,79.32004,19.96861],"properties":{"ward":6,"name":"Industrial"},"geometry":{"type":"Polygon","coordinates":[[[79.29712,19.96242],[79.30036,19.96606],[79.303,19.96699],[79.30901,19.96812],[79.31038,19.96861],[79.31051,19.96854],[79.31457,19.96261],[79.32004,19.94933],[79.3181,19.94898],[79.31593,19.94897],[79.31392,19.94854],[79.31193,19.94853],[79.31178,19.94821],[79.30945,19.94776],[79.30898,19.95116],[79.30838,19.95304],[79.30753,19.95437],[79.30606,19.9557],[79.29936,19.96047],[79.29712,19.96242]]]}},{"type":"Feature","bbox":[79.28699,19.95288,79.30131,19.96827],"properties":{"ward":7,"name":"Jatpura"},"geometry":{"type":"Polygon","coordinates":[[[79.29092,19.95351],[79.29234,19.9611],[79.29102,19.96278],[79.28859,19.96279],[79.28872,19.96469],[79.28766,19.96506],[79.28699,19.96634],[79.28722,19.96671],[79.28778,19.96637],[79.29022,19.96608],[79.29084,19.968],[79.29136,19.96827],[79.29331,19.96763],[79.29587,19.96358],[79.29641,19.96296],[79.29879,19.96074],[79.30115,19.95905],[79.30093,19.95879],[79.30075,19.95791],[79.30131,19.95767],[79.30107,19.95698],[79.3002,19.95711],[79.29967,19.95701],[79.2995,19.95683],[79.29937,19.95664],[79.29963,19.95628],[79.29959,19.95571],[79.29895,19.95507],[79.29852,19.95489],[79.29828,19.95497],[79.29779,19.95515],[79.2975,19.9558],[79.29624,19.95599],[79.29613,19.95589],[79.29645,19.95525],[79.29264,19.95329],[79.29212,19.95288],[79.29189,19.95303],[79.29179,19.9534],[79.29092,19.95351]]]}},{"type":"Feature","bbox":[79.26764,19.96449,79.29331,19.99039],"properties":{"ward":8,"name":"Wadgaon"},"geometry":{"type":"Polygon","coordinates":[[[79.27719,19.96449],[79.27678,19.96526],[79.27497,19.96722],[79.2712,19.96947],[79.26997,19.97071],[79.26891,19.97261],[79.26842,19.98036],[79.2677,19.98317],[79.26764,19.98434],[79.26771,19.98513],[79.26802,19.98586],[79.26839,19.98767],[79.2687,19.98811],[79.26955,19.98866],[79.27054,19.99039],[79.27479,19.98642],[79.2909,19.97059],[79.29331,19.96768],[79.29154,19.9683],[79.29114,19.96827],[79.29069,19.96781],[79.29018,19.9661],[79.28779,19.96638],[79.28721,19.96672],[79.28699,19.96633],[79.28764,19.96506],[79.28433,19.96587],[79.28421,19.96548],[79.28282,19.96561],[79.28281,19.96601],[79.28249,19.96623],[79.28048,19.96624],[79.28027,19.966],[79.27923,19.96597],[79.27918,19.96558],[79.27836,19.96563],[79.2784,19.96486],[79.27719,19.96449]]]}},{"type":"Feature","bbox":[79.27719,19.94779,79.29228,19.96621],"properties":{"ward":9,"name":"Naginabag"},"geometry":{"type":"Polygon","coordinates":[[[79.2911,19.95498],[79.28719,19.95493],[79.2864,19.95115],[79.28653,19.95071],[79.28783,19.94904],[79.28582,19.94779],[79.28513,19.94797],[79.28489,19.95037],[79.28424,19.9516],[79.28318,19.9529],[79.28247,19.95433],[79.28109,19.95496],[79.2799,19.95511],[79.27878,19.95625],[79.27847,19.95874],[79.27791,19.9614],[79.27787,19.96315],[79.27719,19.96445],[79.27843,19.96483],[79.27841,19.96559],[79.27921,19.96554],[79.27924,19.96593],[79.2803,19.96597],[79.28051,19.96621],[79.28257,19.96618],[79.28275,19.96605],[79.28277,19.96558],[79.28424,19.96544],[79.28434,19.9658],[79.28868,19.96466],[79.28854,19.96276],[79.29101,19.96273],[79.29228,19.96107],[79.2911,19.95498]]]}},{"type":"Feature","bbox":[79.28644,19.94573,79.29587,19.95489],"properties":{"ward":10,"name":"Ekori Mandir"},"geometry":{"type":"Polygon","coordinates":[[[79.28721,19.95489],[79.29108,19.95486],[79.29105,19.95385],[79.2909,19.9535],[79.29182,19.95337],[79.29189,19.95299],[79.29215,19.95286],[79.29265,19.95328],[79.29549,19.95477],[79.29587,19.94573],[79.2941,19.94611],[79.28898,19.94798],[79.28842,19.94851],[79.28813,19.94905],[79.28786,19.94906],[79.28679,19.95038],[79.28644,19.95108],[79.28721,19.95489]]]}},{"type":"Feature","bbox":[79.29555,19.94617,79.30884,19.95904],"properties":{"ward":11,"name":"Bhanapeth"},"geometry":{"type":"Polygon","coordinates":[[[79.29555,19.9548],[79.29648,19.95526],[79.29614,19.95591],[79.29631,19.956],[79.29671,19.95583],[79.29747,19.9558],[79.29778,19.95514],[79.29853,19.95488],[79.29924,19.95526],[79.2996,19.95571],[79.29964,19.95629],[79.29938,19.95664],[79.29967,19.957],[79.3002,19.9571],[79.30079,19.95691],[79.30107,19.95697],[79.30122,19.95719],[79.30132,19.95767],[79.30075,19.95792],[79.30093,19.95879],[79.30116,19.95904],[79.30713,19.95462],[79.30784,19.95379],[79.30836,19.9528],[79.30884,19.95119],[79.30847,19.95004],[79.30812,19.94991],[79.30745,19.95031],[79.30672,19.9503],[79.3059,19.94983],[79.30564,19.94941],[79.30539,19.94701],[79.30472,19.94653],[79.30398,19.94644],[79.30349,19.94684],[79.30164,19.94617],[79.29885,19.94663],[79.29788,19.94656],[79.29752,19.94622],[79.29583,19.94652],[79.29555,19.9548]]]}},{"type":"Feature","bbox":[79.29585,19.93699,79.3106,19.95123],"properties":{"ward":12,"name":"Mahakali Mandir"},"geometry":{"type":"Polygon","coordinates":[[[79.30891,19.95123],[79.3106,19.93855],[79.30882,19.93948],[79.30863,19.93946],[79.30881,19.93835],[79.30755,19.93805],[79.30522,19.93815],[79.30405,19.93841],[79.30323,19.93823],[79.30215,19.93845],[79.30187,19.93757],[79.30133,19.93699],[79.2989,19.93774],[79.29887,19.93865],[79.2973,19.93911],[79.29609,19.93924],[79.29585,19.94649],[79.29753,19.94621],[79.29787,19.94653],[79.29881,19.94662],[79.30192,19.94616],[79.30244,19.94655],[79.30349,19.94681],[79.30393,19.94643],[79.30462,19.94646],[79.30542,19.947],[79.30557,19.94889],[79.30592,19.94978],[79.30673,19.95027],[79.30743,19.95029],[79.30811,19.94986],[79.30852,19.95003],[79.30891,19.95123]]]}},{"type":"Feature","bbox":[79.30943,19.93157,79.32357,19.94931],"properties":{"ward":13,"name":"Babupeth"},"geometry":{"type":"Polygon","coordinates":[[[79.32065,19.9396],[79.31838,19.93157],[79.31681,19.93243],[79.31595,19.93386],[79.3142,19.93489],[79.31408,19.93518],[79.31283,19.93625],[79.31218,19.93727],[79.31103,19.9384],[79.31064,19.93852],[79.30943,19.94771],[79.30993,19.94774],[79.31039,19.94803],[79.31177,19.94819],[79.31192,19.94852],[79.31276,19.94862],[79.31392,19.94852],[79.31591,19.94896],[79.31819,19.94896],[79.32002,19.94931],[79.32065,19.94818],[79.32357,19.94463],[79.32353,19.94394],[79.32087,19.94015],[79.32065,19.9396]]]}},{"type":"Feature","bbox":[79.29412,19.92816,79.31123,19.93949],"properties":{"ward":14,"name":"Bhiwapur"},"geometry":{"type":"Polygon","coordinates":[[[79.29697,19.93158],[79.29412,19.93301],[79.29564,19.93509],[79.29618,19.9351],[79.29609,19.93922],[79.2972,19.93911],[79.29887,19.93864],[79.29889,19.93771],[79.30132,19.93696],[79.30191,19.93764],[79.30217,19.93843],[79.30322,19.93821],[79.30414,19.9384],[79.30529,19.93813],[79.30757,19.93805],[79.30883,19.93834],[79.30864,19.93946],[79.30884,19.93949],[79.31056,19.93852],[79.31123,19.93312],[79.31038,19.93275],[79.30976,19.93268],[79.30934,19.93271],[79.30845,19.93318],[79.30761,19.93311],[79.30759,19.93266],[79.30683,19.93263],[79.30677,19.93122],[79.30647,19.93069],[79.30653,19.92816],[79.3056,19.92952],[79.30518,19.92955],[79.30492,19.92998],[79.30367,19.93059],[79.30351,19.93055],[79.30343,19.93028],[79.3038,19.92936],[79.30382,19.92887],[79.30131,19.92978],[79.29821,19.93253],[79.29697,19.93158]]]}},{"type":"Feature","bbox":[79.2831,19.92567,79.29689,19.94902],"properties":{"ward":15,"name":"Vitthal"},"geometry":{"type":"Polygon","coordinates":[[[79.29585,19.94569],[79.29613,19.93515],[79.2956,19.93513],[79.29405,19.93299],[79.29689,19.93152],[79.29535,19.92905],[79.29497,19.92567],[79.29306,19.92873],[79.29252,19.93193],[79.29197,19.93417],[79.29078,19.93539],[79.28783,19.93754],[79.28749,19.93814],[79.28554,19.9396],[79.28401,19.94108],[79.28335,19.94202],[79.2831,19.94284],[79.28337,19.94315],[79.28315,19.94477],[79.2833,19.9455],[79.28393,19.94657],[79.28428,19.94689],[79.28792,19.94902],[79.2881,19.949],[79.28897,19.94792],[79.29416,19.94606],[79.29585,19.94569]]]}},{"type":"Feature","bbox":[79.295,19.90826,79.31824,19.93846],"properties":{"ward":16,"name":"Hindusthan Lalpeth Collory"},"geometry":{"type":"Polygon","coordinates":[[[79.31039,19.93274],[79.31126,19.9331],[79.31062,19.93846],[79.31102,19.93836],[79.31237,19.93699],[79.31298,19.936],[79.31418,19.93487],[79.31592,19.93385],[79.31681,19.93239],[79.31824,19.93144],[79.31656,19.92509],[79.3123,19.92554],[79.31234,19.9236],[79.31427,19.9084],[79.31343,19.90838],[79.31108,19.90871],[79.31024,19.90826],[79.30976,19.90852],[79.30881,19.90968],[79.30845,19.90935],[79.30661,19.90914],[79.3039,19.90856],[79.30279,19.9085],[79.30234,19.90867],[79.30026,19.91084],[79.29979,19.911],[79.2988,19.91064],[79.29785,19.91088],[79.29773,19.91106],[79.29799,19.91168],[79.29794,19.91213],[79.29536,19.91341],[79.29559,19.91542],[79.29763,19.91645],[79.2999,19.91934],[79.29903,19.92192],[79.29803,19.92367],[79.29547,19.92507],[79.29514,19.92546],[79.295,19.92595],[79.29541,19.92905],[79.29668,19.93119],[79.29822,19.93246],[79.29915,19.93178],[79.30005,19.93075],[79.30129,19.92973],[79.30383,19.92884],[79.30393,19.92891],[79.30383,19.92939],[79.30348,19.93028],[79.30368,19.93053],[79.30488,19.92995],[79.30517,19.92951],[79.30558,19.92948],[79.30587,19.92925],[79.30656,19.92808],[79.30649,19.93068],[79.3068,19.9312],[79.30686,19.9326],[79.30761,19.93264],[79.30764,19.93307],[79.30847,19.93314],[79.30925,19.9327],[79.31039,19.93274]]]}},{"type":"Feature","bbox":[79.31238,19.90846,79.33967,19.95826],"properties":{"ward":17,"name":"Dr. Babasaheb Ambedkar"},"geometry":{"type":"Polygon","coordinates":[[[79.32171,19.94701],[79.33669,19.95767],[79.33777,19.95826],[79.33814,19.95454],[79.33916,19.94835],[79.33967,19.94034],[79.33549,19.9396],[79.33441,19.93892],[79.3339,19.93805],[79.33224,19.93874],[79.33176,19.93878],[79.33107,19.93824],[79.33025,19.93724],[79.32963,19.93614],[79.32973,19.93428],[79.33,19.93344],[79.33003,19.93135],[79.32971,19.92835],[79.3298,19.92323],[79.33088,19.92104],[79.33174,19.91967],[79.33226,19.91796],[79.33218,19.91722],[79.33076,19.91499],[79.33045,19.91413],[79.32883,19.91191],[79.32803,19.91118],[79.32554,19.91081],[79.32235,19.90973],[79.31814,19.9089],[79.31439,19.90846],[79.31238,19.92543],[79.31665,19.92502],[79.32075,19.93973],[79.32155,19.94107],[79.32326,19.94335],[79.32365,19.94435],[79.3236,19.94469],[79.32171,19.94701]]]}}]}