{"type":"FeatureCollection","features":[{"type":"Feature","bbox":[75.87006,19.85049,75.90512,19.886],"properties":{"ward":1},"geometry":{"type":"Polygon","coordinates":[[[75.87676,19.86699],[75.87563,19.86693],[75.87423,19.86816],[75.87347,19.8704],[75.87374,19.87129],[75.87361,19.87157],[75.87333,19.87173],[75.87076,19.87139],[75.87041,19.87166],[75.87031,19.87195],[75.87022,19.87369],[75.87153,19.87496],[75.87124,19.87598],[75.87016,19.87711],[75.87006,19.87745],[75.87041,19.87832],[75.87112,19.8789],[75.87172,19.87972],[75.87183,19.88003],[75.87172,19.88046],[75.87218,19.88059],[75.87499,19.88225],[75.87724,19.8829],[75.88041,19.88458],[75.88304,19.88551],[75.88499,19.886],[75.88885,19.88586],[75.89125,19.88539],[75.89601,19.88299],[75.89819,19.88164],[75.9022,19.88055],[75.90294,19.88053],[75.90492,19.88],[75.90512,19.87896],[75.90501,19.87848],[75.90425,19.87755],[75.90369,19.87569],[75.90395,19.87551],[75.90319,19.87287],[75.90313,19.87111],[75.90286,19.87009],[75.90207,19.86924],[75.90046,19.86797],[75.89972,19.8647],[75.89826,19.86231],[75.89733,19.86111],[75.8961,19.85873],[75.89602,19.8584],[75.89693,19.85645],[75.89694,19.85584],[75.89664,19.85467],[75.89642,19.85416],[75.89361,19.85253],[75.89293,19.85193],[75.89243,19.85049],[75.89036,19.8508],[75.89046,19.85184],[75.8898,19.85193],[75.8899,19.85232],[75.88744,19.85277],[75.88809,19.85557],[75.88783,19.85866],[75.88791,19.86261],[75.88769,19.86535],[75.88775,19.86677],[75.88742,19.86815],[75.88168,19.8675],[75.87877,19.86761],[75.87676,19.86699]]]}},{"type":"Feature","bbox":[75.89696,19.85167,75.93128,19.87572],"properties":{"ward":2},"geometry":{"type":"Polygon","coordinates":[[[75.9036,19.87338],[75.90413,19.87543],[75.90625,19.87476],[75.90996,19.87404],[75.91287,19.87432],[75.91667,19.87509],[75.92128,19.87572],[75.92685,19.87565],[75.92749,19.87336],[75.92897,19.87249],[75.92813,19.86912],[75.92893,19.8663],[75.92864,19.86633],[75.92925,19.86309],[75.93053,19.85869],[75.93128,19.85521],[75.93001,19.85486],[75.92358,19.85207],[75.9179,19.85167],[75.91557,19.85264],[75.91482,19.85471],[75.91279,19.85781],[75.90622,19.85989],[75.90765,19.86314],[75.90673,19.8636],[75.9063,19.86342],[75.90584,19.86286],[75.90488,19.86255],[75.90474,19.86224],[75.90291,19.86155],[75.90131,19.86128],[75.90103,19.86084],[75.89991,19.86068],[75.8993,19.86023],[75.89907,19.86033],[75.89917,19.86064],[75.89696,19.86025],[75.89954,19.86404],[75.89999,19.86498],[75.90009,19.86576],[75.90031,19.86598],[75.90037,19.86674],[75.90076,19.868],[75.90239,19.86918],[75.90311,19.87006],[75.90342,19.87115],[75.9036,19.87338]]]}},{"type":"Feature","bbox":[75.90638,19.84348,75.93308,19.85702],"properties":{"ward":3},"geometry":{"type":"Polygon","coordinates":[[[75.91098,19.84862],[75.91007,19.84817],[75.90638,19.85368],[75.91294,19.85702],[75.91461,19.85461],[75.91532,19.85246],[75.91544,19.85253],[75.91657,19.85177],[75.91804,19.85136],[75.92353,19.85187],[75.92962,19.85447],[75.93145,19.85495],[75.93212,19.85234],[75.93227,19.8523],[75.93308,19.84667],[75.93239,19.84629],[75.93016,19.84426],[75.92848,19.84373],[75.92872,19.84348],[75.91492,19.84351],[75.91408,19.84372],[75.9123,19.84467],[75.91266,19.8455],[75.91187,19.84698],[75.91316,19.8491],[75.91098,19.84862]]]}},{"type":"Feature","bbox":[75.89569,19.85142,75.91285,19.86335],"properties":{"ward":4},"geometry":{"type":"Polygon","coordinates":[[[75.90714,19.86315],[75.90718,19.86295],[75.90597,19.8598],[75.91255,19.85757],[75.91285,19.8572],[75.90617,19.85375],[75.90638,19.85344],[75.90485,19.85142],[75.90382,19.85248],[75.9026,19.85423],[75.90223,19.85398],[75.90092,19.85433],[75.89984,19.85407],[75.89812,19.85312],[75.89835,19.85234],[75.89569,19.8535],[75.89648,19.85392],[75.89669,19.8542],[75.89711,19.85546],[75.89709,19.8565],[75.89619,19.85851],[75.89692,19.86014],[75.89901,19.86052],[75.89896,19.86026],[75.89935,19.86013],[75.90007,19.86061],[75.90107,19.86072],[75.90141,19.86116],[75.903,19.86134],[75.9038,19.86164],[75.90618,19.86284],[75.90656,19.86335],[75.90714,19.86315]]]}},{"type":"Feature","bbox":[75.89985,19.8492,75.90483,19.85423],"properties":{"ward":5},"geometry":{"type":"Polygon","coordinates":[[[75.90057,19.85307],[75.89999,19.854],[75.90093,19.85423],[75.90225,19.85386],[75.90258,19.85409],[75.90375,19.85242],[75.90483,19.85131],[75.90336,19.8492],[75.9022,19.85074],[75.90131,19.85026],[75.90017,19.85007],[75.89985,19.85106],[75.90095,19.85155],[75.90017,19.85294],[75.90057,19.85307]]]}},{"type":"Feature","bbox":[75.89239,19.84786,75.90213,19.85393],"properties":{"ward":6},"geometry":{"type":"Polygon","coordinates":[[[75.89334,19.85216],[75.89549,19.85336],[75.89851,19.85228],[75.89829,19.85304],[75.89989,19.85393],[75.90043,19.85312],[75.90006,19.85293],[75.90082,19.85159],[75.89977,19.85112],[75.9001,19.84998],[75.90162,19.85032],[75.90194,19.84979],[75.90213,19.84786],[75.90196,19.84789],[75.90179,19.84844],[75.90062,19.84845],[75.9008,19.84798],[75.89239,19.84831],[75.89278,19.84956],[75.89258,19.85049],[75.8928,19.85138],[75.89334,19.85216]]]}},{"type":"Feature","bbox":[75.87653,19.84477,75.89333,19.86773],"properties":{"ward":7},"geometry":{"type":"Polygon","coordinates":[[[75.87718,19.86517],[75.87653,19.86614],[75.87717,19.86669],[75.87795,19.86698],[75.87947,19.8672],[75.8815,19.86713],[75.88436,19.86736],[75.88729,19.86773],[75.88756,19.86639],[75.88745,19.86443],[75.8877,19.86278],[75.88757,19.86028],[75.88781,19.85556],[75.88718,19.85264],[75.8897,19.85223],[75.88966,19.85176],[75.89031,19.85174],[75.89014,19.85066],[75.89244,19.85031],[75.89267,19.84957],[75.89219,19.8481],[75.89254,19.84711],[75.89313,19.8464],[75.89333,19.84477],[75.89258,19.84507],[75.89216,19.84546],[75.8881,19.84537],[75.88568,19.84596],[75.88516,19.84681],[75.88517,19.8473],[75.8854,19.84762],[75.88538,19.84806],[75.88424,19.84896],[75.88375,19.85101],[75.88339,19.85155],[75.88248,19.85189],[75.88128,19.85174],[75.88098,19.85183],[75.88076,19.85212],[75.87997,19.85513],[75.87967,19.85646],[75.87964,19.8574],[75.87901,19.85816],[75.8779,19.85859],[75.87739,19.8591],[75.87797,19.86058],[75.87746,19.86357],[75.87697,19.86429],[75.87718,19.86517]]]}},{"type":"Feature","bbox":[75.85336,19.84908,75.88376,19.88145],"properties":{"ward":8},"geometry":{"type":"Polygon","coordinates":[[[75.85791,19.87375],[75.8569,19.87979],[75.85906,19.88026],[75.86733,19.88145],[75.87089,19.88077],[75.87125,19.88054],[75.87132,19.88015],[75.87117,19.8797],[75.87,19.8785],[75.86969,19.87774],[75.86971,19.87715],[75.87034,19.87617],[75.87098,19.87555],[75.87107,19.87519],[75.87094,19.87492],[75.86998,19.8741],[75.86994,19.87163],[75.87031,19.87127],[75.87113,19.87102],[75.87324,19.87122],[75.87341,19.87098],[75.87319,19.87049],[75.87327,19.86993],[75.87403,19.86794],[75.87514,19.86708],[75.8768,19.86542],[75.87674,19.86407],[75.87728,19.86322],[75.87735,19.86233],[75.87768,19.86125],[75.87767,19.86058],[75.87718,19.85956],[75.87721,19.85859],[75.87828,19.85804],[75.87885,19.85793],[75.87917,19.85746],[75.87948,19.85639],[75.87959,19.85518],[75.88046,19.85203],[75.88067,19.85172],[75.88122,19.85147],[75.88243,19.85156],[75.88318,19.85139],[75.88376,19.84999],[75.88142,19.84986],[75.87655,19.84908],[75.87007,19.84978],[75.86477,19.85071],[75.8549,19.85512],[75.85336,19.85594],[75.85454,19.85763],[75.85478,19.85856],[75.85435,19.85873],[75.8559,19.8632],[75.85651,19.8686],[75.85705,19.86887],[75.85669,19.87157],[75.85781,19.87147],[75.85791,19.87375]]]}},{"type":"Feature","bbox":[75.81351,19.85614,75.85755,19.88475],"properties":{"ward":9},"geometry":{"type":"Polygon","coordinates":[[[75.81818,19.87035],[75.8136,19.87096],[75.81351,19.87522],[75.81369,19.88065],[75.81731,19.88235],[75.81994,19.88309],[75.82469,19.88414],[75.82864,19.88466],[75.83044,19.88475],[75.832,19.88313],[75.83468,19.88133],[75.83964,19.88023],[75.84533,19.87857],[75.85215,19.87842],[75.85222,19.87934],[75.85648,19.87972],[75.85755,19.87372],[75.85754,19.87167],[75.85648,19.87176],[75.85677,19.86899],[75.85626,19.86884],[75.85543,19.86308],[75.85501,19.86162],[75.85452,19.86058],[75.854,19.85847],[75.85443,19.85838],[75.85318,19.85614],[75.83815,19.8639],[75.83091,19.86714],[75.81818,19.87035]]]}},{"type":"Feature","bbox":[75.81233,19.83345,75.87875,19.8704],"properties":{"ward":10},"geometry":{"type":"Polygon","coordinates":[[[75.8136,19.86729],[75.81366,19.8704],[75.82026,19.86924],[75.82339,19.8683],[75.82892,19.86705],[75.83121,19.86628],[75.83482,19.86475],[75.83793,19.86295],[75.84631,19.85871],[75.85112,19.85652],[75.85831,19.85282],[75.86074,19.85195],[75.86296,19.85087],[75.86484,19.85016],[75.87057,19.84921],[75.8745,19.84886],[75.87419,19.84526],[75.87369,19.84435],[75.8739,19.84355],[75.87488,19.842],[75.87509,19.84229],[75.87875,19.84229],[75.87857,19.8422],[75.87845,19.8407],[75.8767,19.84068],[75.87619,19.84023],[75.87613,19.83957],[75.87102,19.83958],[75.87039,19.83989],[75.86913,19.83818],[75.86823,19.83853],[75.86472,19.83797],[75.85936,19.83768],[75.85866,19.83462],[75.85033,19.83346],[75.84861,19.83345],[75.84665,19.83373],[75.84473,19.83445],[75.8433,19.83525],[75.84166,19.83642],[75.83987,19.8386],[75.83677,19.8436],[75.83496,19.84548],[75.83398,19.84611],[75.82998,19.84809],[75.82768,19.84952],[75.82054,19.85469],[75.8195,19.85488],[75.81646,19.85597],[75.81233,19.85611],[75.81326,19.86225],[75.81315,19.86383],[75.8136,19.86729]]]}},{"type":"Feature","bbox":[75.87406,19.84229,75.88156,19.84898],"properties":{"ward":11},"geometry":{"type":"Polygon","coordinates":[[[75.87451,19.84491],[75.87495,19.84895],[75.87712,19.84898],[75.87696,19.84538],[75.88156,19.844],[75.88137,19.84345],[75.88149,19.84286],[75.88132,19.84229],[75.87681,19.84256],[75.87506,19.84257],[75.87487,19.84245],[75.87452,19.8434],[75.87406,19.84397],[75.87422,19.84494],[75.87451,19.84491]]]}},{"type":"Feature","bbox":[75.87719,19.84265,75.88575,19.84978],"properties":{"ward":12},"geometry":{"type":"Polygon","coordinates":[[[75.88317,19.84366],[75.87719,19.8455],[75.87733,19.84896],[75.88037,19.84957],[75.88373,19.84978],[75.88377,19.84921],[75.884,19.84889],[75.88518,19.8479],[75.88493,19.84666],[75.88538,19.84592],[75.88574,19.84568],[75.88575,19.84511],[75.88556,19.84513],[75.88554,19.8449],[75.88566,19.84441],[75.8851,19.84265],[75.88388,19.84273],[75.88347,19.84289],[75.88368,19.84334],[75.88313,19.84351],[75.88317,19.84366]]]}},{"type":"Feature","bbox":[75.88525,19.84114,75.89308,19.84565],"properties":{"ward":13},"geometry":{"type":"Polygon","coordinates":[[[75.88584,19.84269],[75.88525,19.84266],[75.8858,19.84415],[75.88571,19.84496],[75.88589,19.84493],[75.88598,19.84565],[75.88863,19.84515],[75.89114,19.84519],[75.8919,19.84533],[75.8925,19.84488],[75.89308,19.84468],[75.89293,19.84294],[75.89003,19.84305],[75.88989,19.84288],[75.88986,19.8414],[75.88922,19.84148],[75.88927,19.84134],[75.8876,19.84114],[75.88702,19.84131],[75.88716,19.84203],[75.887,19.84242],[75.88709,19.84338],[75.88584,19.84269]]]}},{"type":"Feature","bbox":[75.89236,19.84116,75.90211,19.84837],"properties":{"ward":14},"geometry":{"type":"Polygon","coordinates":[[[75.89236,19.84817],[75.8999,19.84787],[75.9009,19.84791],[75.90076,19.84837],[75.90172,19.84837],[75.90188,19.84784],[75.90211,19.84779],[75.9018,19.8439],[75.89848,19.84418],[75.89869,19.84323],[75.89943,19.84277],[75.89918,19.84217],[75.89946,19.84186],[75.89932,19.84116],[75.89698,19.84124],[75.8967,19.8416],[75.89639,19.84288],[75.89616,19.84321],[75.89554,19.84371],[75.89403,19.8441],[75.89356,19.84457],[75.89331,19.84652],[75.8927,19.84717],[75.89236,19.84817]]]}},{"type":"Feature","bbox":[75.90178,19.84387,75.906,19.85054],"properties":{"ward":15},"geometry":{"type":"Polygon","coordinates":[[[75.90533,19.84396],[75.90193,19.84387],[75.90232,19.84776],[75.90214,19.84971],[75.90178,19.85029],[75.90216,19.85054],[75.90544,19.84607],[75.906,19.84474],[75.9055,19.84445],[75.90551,19.84412],[75.90533,19.84396]]]}},{"type":"Feature","bbox":[75.90353,19.83997,75.91095,19.85304],"properties":{"ward":16},"geometry":{"type":"Polygon","coordinates":[[[75.9056,19.8461],[75.90353,19.84912],[75.90643,19.85304],[75.90998,19.84784],[75.91095,19.84838],[75.91025,19.84645],[75.90982,19.84594],[75.90971,19.8454],[75.9107,19.84538],[75.90759,19.83997],[75.90598,19.8408],[75.905,19.8424],[75.90494,19.84259],[75.90541,19.84387],[75.90564,19.84412],[75.90556,19.84432],[75.90613,19.84473],[75.9056,19.8461]]]}},{"type":"Feature","bbox":[75.90776,19.8359,75.92049,19.8489],"properties":{"ward":17},"geometry":{"type":"Polygon","coordinates":[[[75.90933,19.83916],[75.90776,19.83991],[75.91107,19.8456],[75.90996,19.84561],[75.91043,19.84619],[75.91127,19.84857],[75.91284,19.8489],[75.91177,19.847],[75.91254,19.84558],[75.9122,19.84462],[75.91409,19.84354],[75.91503,19.8434],[75.92049,19.84341],[75.91757,19.83913],[75.9147,19.8359],[75.91018,19.83772],[75.90996,19.83788],[75.90933,19.83916]]]}},{"type":"Feature","bbox":[75.90756,19.81857,75.92958,19.84324],"properties":{"ward":18},"geometry":{"type":"Polygon","coordinates":[[[75.90985,19.83781],[75.91477,19.83565],[75.91777,19.83886],[75.9207,19.84322],[75.92867,19.84324],[75.92929,19.84186],[75.92958,19.83962],[75.92737,19.83928],[75.92727,19.83803],[75.92605,19.83496],[75.9255,19.83139],[75.92482,19.82978],[75.9244,19.82924],[75.92319,19.82845],[75.92254,19.82822],[75.9204,19.82638],[75.92032,19.82111],[75.91955,19.81857],[75.91864,19.8193],[75.91631,19.81945],[75.91515,19.8197],[75.91346,19.82216],[75.91221,19.82349],[75.9122,19.82421],[75.91391,19.82652],[75.91398,19.82733],[75.91316,19.8283],[75.91123,19.82869],[75.91043,19.82861],[75.90931,19.82914],[75.90885,19.83024],[75.90852,19.83235],[75.90756,19.8333],[75.90814,19.83408],[75.90829,19.83394],[75.90928,19.83429],[75.90893,19.83501],[75.90902,19.83509],[75.90844,19.83578],[75.90864,19.83594],[75.90776,19.83729],[75.90876,19.83932],[75.9094,19.83891],[75.90985,19.83781]]]}},{"type":"Feature","bbox":[75.90305,19.8334,75.90911,19.8415],"properties":{"ward":19},"geometry":{"type":"Polygon","coordinates":[[[75.9051,19.83507],[75.90305,19.83751],[75.90312,19.83782],[75.90531,19.83768],[75.90525,19.83864],[75.90391,19.83967],[75.90389,19.83995],[75.90398,19.84025],[75.90527,19.8415],[75.9057,19.84078],[75.90633,19.84024],[75.90857,19.83935],[75.90752,19.8373],[75.90842,19.83598],[75.9082,19.83578],[75.90886,19.83509],[75.90911,19.83437],[75.90832,19.83406],[75.90812,19.83431],[75.90747,19.8334],[75.90669,19.8341],[75.9051,19.83507]]]}},{"type":"Feature","bbox":[75.90116,19.83762,75.90524,19.84276],"properties":{"ward":20},"geometry":{"type":"Polygon","coordinates":[[[75.9013,19.84058],[75.90152,19.84098],[75.9021,19.84084],[75.90244,19.84223],[75.90407,19.84215],[75.90419,19.84276],[75.90484,19.84271],[75.90524,19.84181],[75.90475,19.84115],[75.90397,19.84059],[75.90366,19.83982],[75.90395,19.83931],[75.90491,19.83875],[75.90518,19.83787],[75.90294,19.83798],[75.90288,19.83762],[75.90116,19.83964],[75.9013,19.84058]]]}},{"type":"Feature","bbox":[75.89861,19.83983,75.90524,19.84406],"properties":{"ward":21},"geometry":{"type":"Polygon","coordinates":[[[75.89866,19.84365],[75.89861,19.84406],[75.9035,19.84365],[75.90524,19.84384],[75.90482,19.84281],[75.90411,19.84287],[75.90399,19.84226],[75.90231,19.84238],[75.902,19.84101],[75.90145,19.84114],[75.90115,19.84062],[75.90104,19.83983],[75.90017,19.84097],[75.89949,19.84115],[75.89963,19.84191],[75.89938,19.84213],[75.89961,19.84283],[75.89907,19.84306],[75.89866,19.84365]]]}},{"type":"Feature","bbox":[75.89001,19.81483,75.91493,19.84465],"properties":{"ward":22},"geometry":{"type":"Polygon","coordinates":[[[75.89319,19.83279],[75.89228,19.8331],[75.89387,19.83606],[75.89434,19.83962],[75.89267,19.83906],[75.89263,19.84008],[75.89243,19.84064],[75.89333,19.84062],[75.89352,19.84269],[75.89279,19.84275],[75.89127,19.84253],[75.89056,19.84225],[75.89001,19.84178],[75.89006,19.84288],[75.89309,19.84282],[75.8933,19.84465],[75.89388,19.84397],[75.89567,19.84339],[75.89612,19.84292],[75.8965,19.84151],[75.89676,19.84112],[75.89713,19.84099],[75.89986,19.8409],[75.90033,19.84053],[75.90119,19.83921],[75.90481,19.83506],[75.90715,19.83357],[75.9081,19.83252],[75.90842,19.83185],[75.90858,19.83038],[75.9091,19.82902],[75.90981,19.82857],[75.9129,19.82816],[75.91337,19.82782],[75.9138,19.82722],[75.91372,19.82671],[75.91208,19.82447],[75.91197,19.82357],[75.91493,19.81974],[75.91483,19.81903],[75.91163,19.81859],[75.90845,19.81742],[75.90504,19.81483],[75.89908,19.82574],[75.89854,19.82652],[75.89718,19.82788],[75.89742,19.82829],[75.89653,19.82915],[75.89637,19.82912],[75.89469,19.83017],[75.89477,19.83069],[75.894,19.83111],[75.89421,19.8322],[75.89319,19.83279]]]}},{"type":"Feature","bbox":[75.88278,19.83302,75.89414,19.84265],"properties":{"ward":23},"geometry":{"type":"Polygon","coordinates":[[[75.88541,19.83781],[75.88278,19.83771],[75.8828,19.83992],[75.88395,19.83999],[75.88555,19.84034],[75.88758,19.841],[75.88943,19.84127],[75.8894,19.84137],[75.88992,19.84131],[75.89032,19.84198],[75.89108,19.84234],[75.89278,19.84265],[75.89338,19.84261],[75.89317,19.84076],[75.89228,19.84077],[75.89245,19.84006],[75.89245,19.8389],[75.89414,19.83936],[75.89364,19.8364],[75.89198,19.83302],[75.89077,19.83368],[75.88886,19.83418],[75.88554,19.83573],[75.88595,19.83729],[75.88538,19.83741],[75.88541,19.83781]]]}},{"type":"Feature","bbox":[75.87959,19.83978,75.88745,19.84392],"properties":{"ward":24},"geometry":{"type":"Polygon","coordinates":[[[75.88369,19.84012],[75.87959,19.83978],[75.87974,19.84218],[75.88146,19.84217],[75.88168,19.84392],[75.88355,19.84332],[75.8833,19.84289],[75.88408,19.84258],[75.88586,19.84255],[75.88698,19.84323],[75.88689,19.84249],[75.88706,19.842],[75.88692,19.84127],[75.88745,19.84109],[75.88369,19.84012]]]}},{"type":"Feature","bbox":[75.87758,19.83487,75.88274,19.84225],"properties":{"ward":25},"geometry":{"type":"Polygon","coordinates":[[[75.87871,19.84215],[75.87959,19.84225],[75.87939,19.8404],[75.87945,19.83965],[75.88256,19.83996],[75.88274,19.83633],[75.88173,19.83536],[75.88159,19.83487],[75.87881,19.83529],[75.87872,19.8372],[75.8779,19.83718],[75.87778,19.83731],[75.87778,19.83966],[75.87759,19.83965],[75.87758,19.84052],[75.87858,19.84062],[75.87871,19.84215]]]}},{"type":"Feature","bbox":[75.85908,19.82443,75.88161,19.84038],"properties":{"ward":26},"geometry":{"type":"Polygon","coordinates":[[[75.86688,19.83587],[75.85908,19.83477],[75.85972,19.83735],[75.86477,19.8376],[75.86818,19.83815],[75.86933,19.8378],[75.87043,19.83939],[75.87098,19.83925],[75.8763,19.83922],[75.87684,19.84034],[75.87734,19.84038],[75.87738,19.83948],[75.87761,19.83948],[75.87763,19.83723],[75.87776,19.83707],[75.87858,19.83704],[75.87863,19.83514],[75.88157,19.8347],[75.88161,19.83194],[75.88076,19.82891],[75.87868,19.82443],[75.87144,19.82917],[75.87086,19.82978],[75.86938,19.82958],[75.8672,19.82993],[75.86717,19.83302],[75.86688,19.83587]]]}},{"type":"Feature","bbox":[75.88151,19.82841,75.88869,19.83759],"properties":{"ward":27},"geometry":{"type":"Polygon","coordinates":[[[75.88284,19.83063],[75.88151,19.83091],[75.88186,19.832],[75.88181,19.83508],[75.88293,19.83605],[75.88285,19.83745],[75.88519,19.83759],[75.8852,19.83731],[75.88571,19.8372],[75.88529,19.83562],[75.88869,19.83401],[75.88782,19.83189],[75.88845,19.83152],[75.88815,19.83135],[75.88853,19.83007],[75.88819,19.82946],[75.88687,19.82936],[75.88646,19.82898],[75.88525,19.82841],[75.88468,19.82921],[75.88371,19.83174],[75.88311,19.83171],[75.88284,19.83063]]]}},{"type":"Feature","bbox":[75.87881,19.82376,75.8845,19.83151],"properties":{"ward":28},"geometry":{"type":"Polygon","coordinates":[[[75.88036,19.82376],[75.87881,19.82427],[75.88054,19.82748],[75.88144,19.83068],[75.88299,19.83044],[75.88327,19.83151],[75.88355,19.8315],[75.8845,19.82927],[75.88386,19.82703],[75.88306,19.82716],[75.88258,19.82425],[75.88036,19.82376]]]}},{"type":"Feature","bbox":[75.85331,19.8118,75.88127,19.83547],"properties":{"ward":29},"geometry":{"type":"Polygon","coordinates":[[[75.85417,19.8261],[75.85331,19.82846],[75.85456,19.82865],[75.85754,19.82977],[75.85832,19.83176],[75.85888,19.83438],[75.86655,19.83547],[75.86694,19.82975],[75.86939,19.82932],[75.87071,19.82952],[75.87811,19.8244],[75.87944,19.82368],[75.88012,19.82351],[75.88028,19.82143],[75.88127,19.82105],[75.88123,19.82082],[75.8811,19.8206],[75.8803,19.82015],[75.87971,19.82025],[75.87899,19.81992],[75.87859,19.81995],[75.87798,19.81941],[75.87783,19.81903],[75.87679,19.81912],[75.87617,19.81886],[75.8754,19.81897],[75.8703,19.8118],[75.86547,19.81434],[75.86499,19.81599],[75.86214,19.81764],[75.85841,19.81843],[75.85797,19.82554],[75.85417,19.8261]]]}},{"type":"Feature","bbox":[75.8706,19.8078,75.90488,19.83401],"properties":{"ward":30},"geometry":{"type":"Polygon","coordinates":[[[75.87294,19.81104],[75.8706,19.81167],[75.87556,19.81874],[75.87617,19.81868],[75.87687,19.81891],[75.87789,19.81883],[75.87849,19.81967],[75.87906,19.81969],[75.87951,19.81994],[75.88027,19.81983],[75.88134,19.82042],[75.8815,19.82115],[75.88053,19.82154],[75.88039,19.82356],[75.88271,19.82412],[75.88318,19.82697],[75.88398,19.82683],[75.88461,19.82902],[75.88519,19.82821],[75.88704,19.82921],[75.88831,19.82934],[75.88877,19.83006],[75.88842,19.83128],[75.88871,19.83159],[75.88806,19.83196],[75.88893,19.83401],[75.89058,19.83358],[75.89204,19.83287],[75.89301,19.83265],[75.894,19.83207],[75.89381,19.83103],[75.89457,19.83059],[75.89449,19.83012],[75.89654,19.82897],[75.89717,19.82826],[75.89691,19.82786],[75.89782,19.82694],[75.89879,19.82563],[75.90488,19.81472],[75.90411,19.81407],[75.89767,19.81082],[75.88675,19.80852],[75.88684,19.8078],[75.88567,19.80787],[75.88428,19.80906],[75.8821,19.80997],[75.88082,19.81031],[75.87955,19.8104],[75.87801,19.81083],[75.87294,19.81104]]]}}]}