{"type":"FeatureCollection","features":[{"type":"Feature","bbox":[79.36367,19.77623,79.37703,19.7883],"properties":{"ward":1,"name":"Dr. Ambedkar Ward"},"geometry":{"type":"Polygon","coordinates":[[[79.37487,19.78273],[79.37515,19.78288],[79.37547,19.78269],[79.3755,19.78175],[79.37579,19.78143],[79.37622,19.78142],[79.37643,19.7818],[79.37657,19.78173],[79.37703,19.77988],[79.37638,19.77935],[79.37635,19.77894],[79.37696,19.77806],[79.37681,19.77761],[79.37628,19.77727],[79.37653,19.77636],[79.37643,19.77623],[79.37573,19.77655],[79.37228,19.77678],[79.37165,19.77737],[79.37122,19.77754],[79.36929,19.77784],[79.36872,19.77771],[79.36865,19.77789],[79.3691,19.7785],[79.36977,19.77842],[79.36905,19.77882],[79.36917,19.7796],[79.36794,19.7796],[79.36717,19.78006],[79.36684,19.77997],[79.36679,19.77983],[79.36595,19.77993],[79.36656,19.78264],[79.36514,19.78261],[79.36433,19.7823],[79.36387,19.78231],[79.36367,19.78289],[79.36443,19.78303],[79.36498,19.78422],[79.36519,19.78513],[79.36703,19.78508],[79.36787,19.78539],[79.3706,19.78544],[79.37113,19.7883],[79.37229,19.78824],[79.37215,19.78711],[79.37309,19.78703],[79.37287,19.78577],[79.37258,19.78578],[79.37255,19.78531],[79.37433,19.78498],[79.37438,19.78424],[79.37408,19.78403],[79.37388,19.7841],[79.37344,19.78392],[79.37344,19.78376],[79.37413,19.78296],[79.37487,19.78273]]]}},{"type":"Feature","bbox":[79.3624,19.78296,79.371,19.78866],"properties":{"ward":2,"name":"Kisan Ward"},"geometry":{"type":"Polygon","coordinates":[[[79.3624,19.78355],[79.36283,19.78453],[79.36296,19.78606],[79.3633,19.78737],[79.36361,19.7876],[79.36451,19.78748],[79.36459,19.78792],[79.36531,19.78816],[79.3653,19.78866],[79.371,19.78829],[79.37065,19.78574],[79.3705,19.78548],[79.36868,19.78554],[79.36755,19.7854],[79.36703,19.7851],[79.36518,19.78514],[79.36437,19.78306],[79.3636,19.78296],[79.3624,19.78355]]]}},{"type":"Feature","bbox":[79.36403,19.77932,79.36641,19.78257],"properties":{"ward":3,"name":"Peth Ward"},"geometry":{"type":"Polygon","coordinates":[[[79.36433,19.78224],[79.36515,19.78257],[79.36641,19.78256],[79.36567,19.77932],[79.36403,19.7794],[79.3641,19.7813],[79.36433,19.78224]]]}},{"type":"Feature","bbox":[79.36222,19.77939,79.36422,19.78316],"properties":{"ward":4,"name":"Masjid Ward"},"geometry":{"type":"Polygon","coordinates":[[[79.36319,19.77996],[79.36322,19.77941],[79.363,19.78109],[79.36316,19.7816],[79.36295,19.78176],[79.36276,19.78236],[79.36223,19.7823],[79.36222,19.78251],[79.36229,19.78299],[79.36273,19.78276],[79.36308,19.78316],[79.36364,19.78286],[79.36387,19.78229],[79.36422,19.78226],[79.36402,19.78155],[79.36392,19.77939],[79.36322,19.77942],[79.36319,19.77996]]]}},{"type":"Feature","bbox":[79.35838,19.78179,79.36316,19.78764],"properties":{"ward":5,"name":"Masjid Ward"},"geometry":{"type":"Polygon","coordinates":[[[79.35886,19.78304],[79.35838,19.78426],[79.35992,19.78413],[79.36141,19.78442],[79.36173,19.78534],[79.36226,19.78533],[79.36176,19.78654],[79.36207,19.78676],[79.36253,19.78764],[79.36316,19.78726],[79.36288,19.78621],[79.36271,19.78445],[79.3623,19.78376],[79.36205,19.78214],[79.36089,19.78179],[79.36084,19.78213],[79.36102,19.78269],[79.35991,19.7828],[79.35982,19.7822],[79.35899,19.78225],[79.35886,19.78304]]]}},{"type":"Feature","bbox":[79.35845,19.78009,79.36216,19.78271],"properties":{"ward":6,"name":"Masjid Ward"},"geometry":{"type":"Polygon","coordinates":[[[79.3605,19.78059],[79.35957,19.78009],[79.35845,19.78067],[79.35913,19.78218],[79.35992,19.78217],[79.35998,19.78271],[79.36096,19.78262],[79.36083,19.78235],[79.36087,19.78177],[79.36099,19.78172],[79.36216,19.78212],[79.36206,19.78092],[79.3605,19.78059]]]}},{"type":"Feature","bbox":[79.35966,19.77935,79.36318,19.78229],"properties":{"ward":7,"name":"Maulana Azad Ward"},"geometry":{"type":"Polygon","coordinates":[[[79.36156,19.77941],[79.35966,19.78005],[79.36051,19.78049],[79.36215,19.78087],[79.36226,19.78221],[79.3627,19.78229],[79.36286,19.78213],[79.36312,19.78141],[79.36294,19.78086],[79.36318,19.77935],[79.36156,19.77941]]]}},{"type":"Feature","bbox":[79.3655,19.77776,79.36971,19.78003],"properties":{"ward":8,"name":"Chuna Bhatti Ward"},"geometry":{"type":"Polygon","coordinates":[[[79.3686,19.77946],[79.36914,19.77957],[79.36904,19.77881],[79.36971,19.77843],[79.36909,19.77853],[79.36863,19.7779],[79.36868,19.77776],[79.3655,19.77814],[79.36595,19.77991],[79.36681,19.77979],[79.36688,19.77996],[79.36716,19.78003],[79.36793,19.77958],[79.3686,19.77946]]]}},{"type":"Feature","bbox":[79.36479,19.77231,79.37586,19.77805],"properties":{"ward":9,"name":"Shivaji Nagar Ward"},"geometry":{"type":"Polygon","coordinates":[[[79.36741,19.77481],[79.36479,19.77494],[79.36556,19.77805],[79.3684,19.77764],[79.36919,19.77776],[79.37118,19.77751],[79.37243,19.77667],[79.37579,19.7765],[79.37566,19.77623],[79.37586,19.7747],[79.37573,19.77321],[79.37586,19.77231],[79.37295,19.77243],[79.37268,19.77377],[79.37245,19.77401],[79.37173,19.77385],[79.37041,19.77452],[79.37011,19.77513],[79.36837,19.77534],[79.36745,19.77521],[79.36741,19.77481]]]}},{"type":"Feature","bbox":[79.36284,19.77607,79.36562,19.77926],"properties":{"ward":10,"name":"Ramnagar Ward"},"geometry":{"type":"Polygon","coordinates":[[[79.36492,19.77607],[79.36284,19.77712],[79.3632,19.77824],[79.36306,19.7784],[79.36317,19.77926],[79.36562,19.77919],[79.36492,19.77607]]]}},{"type":"Feature","bbox":[79.35734,19.77716,79.36316,19.7806],"properties":{"ward":11,"name":"Athawadi Bajar Ward"},"geometry":{"type":"Polygon","coordinates":[[[79.36316,19.77831],[79.36275,19.77716],[79.36126,19.77762],[79.35901,19.77785],[79.35901,19.77852],[79.35847,19.77864],[79.35828,19.77817],[79.35734,19.77843],[79.35835,19.7806],[79.36045,19.77955],[79.36184,19.77929],[79.36311,19.77927],[79.36305,19.7784],[79.36316,19.77831]]]}},{"type":"Feature","bbox":[79.35549,19.77392,79.35956,19.77858],"properties":{"ward":12,"name":"Somnathpur Ward"},"geometry":{"type":"Polygon","coordinates":[[[79.35549,19.77602],[79.35734,19.77841],[79.35836,19.77811],[79.35854,19.77858],[79.35893,19.77846],[79.35885,19.7772],[79.3588,19.77689],[79.35834,19.77678],[79.35838,19.77652],[79.35892,19.77658],[79.35891,19.77636],[79.35838,19.77632],[79.3583,19.7758],[79.35956,19.77567],[79.35954,19.77537],[79.35824,19.77557],[79.35801,19.77423],[79.35754,19.77392],[79.35665,19.77454],[79.35609,19.77519],[79.35549,19.77602]]]}},{"type":"Feature","bbox":[79.35837,19.7753,79.36021,19.77775],"properties":{"ward":13,"name":"Ambadas Ward"},"geometry":{"type":"Polygon","coordinates":[[[79.359,19.77775],[79.36015,19.77767],[79.36021,19.77637],[79.35989,19.77632],[79.36,19.7753],[79.35965,19.77537],[79.35961,19.77571],[79.35838,19.77582],[79.35842,19.77626],[79.35902,19.77631],[79.35899,19.77669],[79.3584,19.77656],[79.35837,19.77675],[79.35888,19.77682],[79.359,19.77775]]]}},{"type":"Feature","bbox":[79.35996,19.77518,79.36149,19.77766],"properties":{"ward":14,"name":"Mata Mandir Ward"},"geometry":{"type":"Polygon","coordinates":[[[79.36029,19.77629],[79.36022,19.77766],[79.36119,19.77759],[79.36149,19.77739],[79.36128,19.77637],[79.36089,19.77545],[79.36059,19.77552],[79.3606,19.77518],[79.36005,19.77526],[79.35996,19.77627],[79.36029,19.77629]]]}},{"type":"Feature","bbox":[79.36067,19.77426,79.3649,19.77738],"properties":{"ward":15,"name":"Jawahar Nagar Ward"},"geometry":{"type":"Polygon","coordinates":[[[79.36156,19.77738],[79.36332,19.77683],[79.3649,19.77597],[79.36449,19.77426],[79.36068,19.7752],[79.36067,19.77541],[79.36092,19.77541],[79.36132,19.7763],[79.36156,19.77738]]]}},{"type":"Feature","bbox":[79.35775,19.77014,79.37628,19.77545],"properties":{"ward":16,"name":"Beghar Wasti Ward"},"geometry":{"type":"Polygon","coordinates":[[[79.35775,19.77376],[79.35817,19.77407],[79.35834,19.77545],[79.36166,19.77489],[79.36457,19.77415],[79.36477,19.77484],[79.36752,19.77475],[79.36751,19.77506],[79.36837,19.77523],[79.37005,19.77504],[79.37034,19.77443],[79.37172,19.77364],[79.37248,19.77387],[79.3729,19.77229],[79.37448,19.77216],[79.37584,19.77226],[79.37628,19.77139],[79.37585,19.77109],[79.37602,19.77034],[79.37512,19.77014],[79.37393,19.77022],[79.3603,19.77292],[79.35835,19.77343],[79.35775,19.77376]]]}},{"type":"Feature","bbox":[79.36039,19.76577,79.37414,19.77284],"properties":{"ward":17,"name":"Indira Nagar Ward"},"geometry":{"type":"Polygon","coordinates":[[[79.36114,19.76618],[79.36039,19.77284],[79.36685,19.77145],[79.37414,19.7701],[79.37327,19.76782],[79.36781,19.76715],[79.36497,19.766],[79.36258,19.76577],[79.36114,19.76618]]]}}]}