{"type":"FeatureCollection","features":[{"type":"Feature","bbox":[77.29401,19.67405,77.32327,19.68497],"properties":{"ward":1},"geometry":{"type":"Polygon","coordinates":[[[77.2987,19.67945],[77.29401,19.68126],[77.29407,19.68196],[77.2958,19.68181],[77.29659,19.68497],[77.29938,19.68487],[77.30282,19.6844],[77.30598,19.68448],[77.3157,19.68415],[77.31962,19.68418],[77.32148,19.68437],[77.32147,19.68348],[77.32327,19.68322],[77.32294,19.68105],[77.3229,19.67945],[77.32097,19.67948],[77.32126,19.67737],[77.318,19.67508],[77.31812,19.67474],[77.31806,19.67405],[77.31097,19.67606],[77.30633,19.6766],[77.3046,19.67641],[77.30211,19.67664],[77.30165,19.67686],[77.2987,19.67945]]]}},{"type":"Feature","bbox":[77.31804,19.66822,77.32721,19.67945],"properties":{"ward":2},"geometry":{"type":"Polygon","coordinates":[[[77.31987,19.67191],[77.31808,19.67404],[77.31804,19.67507],[77.32129,19.67736],[77.321,19.67945],[77.32465,19.67938],[77.32721,19.67643],[77.32612,19.67143],[77.32394,19.66966],[77.32343,19.66822],[77.31987,19.67191]]]}},{"type":"Feature","bbox":[77.30708,19.67336,77.31844,19.67646],"properties":{"ward":3},"geometry":{"type":"Polygon","coordinates":[[[77.31844,19.67365],[77.31777,19.67336],[77.31677,19.67342],[77.31679,19.67381],[77.31464,19.67416],[77.31448,19.67447],[77.31274,19.67469],[77.31231,19.67498],[77.31128,19.67521],[77.31121,19.67487],[77.31073,19.6749],[77.30975,19.6753],[77.30922,19.67524],[77.30875,19.67469],[77.30813,19.6748],[77.30708,19.67525],[77.3072,19.67646],[77.31086,19.67605],[77.31254,19.67569],[77.31807,19.67404],[77.31844,19.67365]]]}},{"type":"Feature","bbox":[77.29296,19.66914,77.31012,19.68119],"properties":{"ward":4},"geometry":{"type":"Polygon","coordinates":[[[77.30706,19.67524],[77.30875,19.67467],[77.30923,19.67522],[77.30975,19.67529],[77.31012,19.67512],[77.31003,19.67444],[77.30986,19.67443],[77.30977,19.6741],[77.30949,19.67392],[77.30879,19.67404],[77.30873,19.67385],[77.30845,19.67383],[77.3079,19.67405],[77.3078,19.67374],[77.3055,19.6743],[77.30494,19.67409],[77.3032,19.67252],[77.30188,19.67241],[77.3015,19.67221],[77.30113,19.67143],[77.30039,19.67153],[77.29935,19.67106],[77.29862,19.67065],[77.29798,19.67002],[77.29694,19.66954],[77.2965,19.66914],[77.29296,19.66967],[77.29345,19.6735],[77.29314,19.6751],[77.29345,19.67652],[77.29405,19.67758],[77.294,19.68119],[77.2987,19.67942],[77.30166,19.67683],[77.3021,19.67663],[77.30461,19.67639],[77.30628,19.67657],[77.30718,19.67648],[77.30706,19.67524]]]}},{"type":"Feature","bbox":[77.30943,19.67293,77.31464,19.67517],"properties":{"ward":5},"geometry":{"type":"Polygon","coordinates":[[[77.31005,19.67443],[77.31012,19.67511],[77.31122,19.67483],[77.3113,19.67517],[77.31164,19.67514],[77.31267,19.67481],[77.31274,19.67467],[77.31448,19.67445],[77.31464,19.67414],[77.31459,19.67401],[77.31388,19.67381],[77.31341,19.67381],[77.31342,19.67331],[77.31204,19.67337],[77.31111,19.6736],[77.31087,19.67311],[77.30989,19.67293],[77.30979,19.67347],[77.30943,19.67365],[77.30956,19.67405],[77.30978,19.67408],[77.30988,19.67441],[77.31005,19.67443]]]}},{"type":"Feature","bbox":[77.31342,19.67278,77.31677,19.67413],"properties":{"ward":6},"geometry":{"type":"Polygon","coordinates":[[[77.31676,19.67343],[77.31653,19.67342],[77.31645,19.67325],[77.31614,19.67332],[77.31605,19.67292],[77.31462,19.67278],[77.3145,19.67307],[77.31343,19.67333],[77.31342,19.6738],[77.3146,19.67399],[77.31463,19.67413],[77.31677,19.6738],[77.31676,19.67343]]]}},{"type":"Feature","bbox":[77.31149,19.6637,77.32498,19.67362],"properties":{"ward":7},"geometry":{"type":"Polygon","coordinates":[[[77.31846,19.67362],[77.31998,19.67174],[77.32498,19.66669],[77.32122,19.66577],[77.32126,19.66465],[77.31992,19.6645],[77.31984,19.66374],[77.31818,19.6637],[77.31715,19.66472],[77.31514,19.6655],[77.31426,19.66709],[77.31247,19.66745],[77.31248,19.66856],[77.31149,19.66886],[77.31178,19.66959],[77.31285,19.6699],[77.31309,19.67144],[77.3135,19.6716],[77.31346,19.67234],[77.31207,19.67217],[77.312,19.67271],[77.31215,19.67336],[77.31344,19.6733],[77.3145,19.67305],[77.31463,19.67276],[77.31606,19.6729],[77.31616,19.67331],[77.31647,19.67324],[77.31654,19.6734],[77.31779,19.67334],[77.31846,19.67362]]]}},{"type":"Feature","bbox":[77.29396,19.66385,77.31493,19.67428],"properties":{"ward":8},"geometry":{"type":"Polygon","coordinates":[[[77.30948,19.67389],[77.30942,19.67365],[77.30979,19.67345],[77.30989,19.67291],[77.3109,19.67308],[77.31111,19.67354],[77.31213,19.67333],[77.31197,19.67271],[77.31212,19.67217],[77.31343,19.67231],[77.31348,19.67161],[77.31308,19.67145],[77.31283,19.66992],[77.31174,19.66963],[77.31145,19.66884],[77.31245,19.66853],[77.31246,19.66742],[77.31428,19.66697],[77.31493,19.66548],[77.31125,19.66385],[77.30745,19.66433],[77.30516,19.66513],[77.30388,19.66397],[77.29879,19.66515],[77.29396,19.66605],[77.29404,19.66661],[77.29448,19.66731],[77.29606,19.66826],[77.29652,19.66906],[77.29695,19.66947],[77.29804,19.66999],[77.29906,19.67088],[77.30042,19.67148],[77.30107,19.67139],[77.30155,19.67218],[77.30191,19.67236],[77.30322,19.67248],[77.30496,19.67406],[77.30551,19.67428],[77.30781,19.67372],[77.30791,19.67402],[77.30848,19.6738],[77.30875,19.67384],[77.30881,19.67402],[77.30948,19.67389]]]}}]}