{"type":"FeatureCollection","features":[{"type":"Feature","bbox":[74.1932,20.5995,74.20232,20.61237],"properties":{"ward":1},"geometry":{"type":"Polygon","coordinates":[[[74.20232,20.60622],[74.20213,20.60506],[74.20165,20.60512],[74.20114,20.60156],[74.20077,20.6005],[74.19985,20.5995],[74.19884,20.60016],[74.19561,20.60133],[74.1932,20.60379],[74.19381,20.60422],[74.19458,20.60449],[74.19505,20.60503],[74.1962,20.60507],[74.19654,20.60482],[74.19675,20.60428],[74.19739,20.60362],[74.19773,20.60289],[74.19821,20.60366],[74.19824,20.60457],[74.19891,20.60512],[74.19911,20.6056],[74.19921,20.60657],[74.20021,20.60901],[74.2,20.61179],[74.19966,20.61237],[74.20154,20.61212],[74.2021,20.60631],[74.20232,20.60622]]]}},{"type":"Feature","bbox":[74.20114,20.59884,74.22093,20.6135],"properties":{"ward":2},"geometry":{"type":"Polygon","coordinates":[[[74.20471,20.60117],[74.2017,20.60177],[74.20114,20.60156],[74.20165,20.60512],[74.20213,20.60506],[74.20232,20.60622],[74.2021,20.60631],[74.20155,20.61215],[74.20492,20.61186],[74.2049,20.61331],[74.20657,20.6135],[74.20884,20.61322],[74.21148,20.61233],[74.21147,20.61167],[74.21217,20.61059],[74.21234,20.60999],[74.21325,20.60975],[74.21475,20.60968],[74.21962,20.60889],[74.22067,20.60641],[74.22093,20.60477],[74.22042,20.60359],[74.21907,20.60291],[74.21857,20.60244],[74.21825,20.60132],[74.21607,20.60119],[74.21583,20.59893],[74.21565,20.59884],[74.21455,20.60017],[74.21371,20.60051],[74.2137,20.59953],[74.2126,20.60005],[74.21207,20.60071],[74.21087,20.60122],[74.21031,20.60115],[74.20855,20.60195],[74.20801,20.60288],[74.20607,20.60137],[74.20471,20.60117]]]}},{"type":"Feature","bbox":[74.19985,20.5961,74.20996,20.60288],"properties":{"ward":3},"geometry":{"type":"Polygon","coordinates":[[[74.20896,20.60121],[74.20996,20.59794],[74.20629,20.5977],[74.2061,20.59792],[74.20462,20.59808],[74.20454,20.59677],[74.20386,20.59682],[74.20383,20.5961],[74.2015,20.59632],[74.20058,20.59856],[74.19985,20.5995],[74.20071,20.6004],[74.20114,20.60156],[74.20137,20.60176],[74.20441,20.60119],[74.2053,20.60123],[74.20618,20.60143],[74.20801,20.60288],[74.20896,20.60121]]]}},{"type":"Feature","bbox":[74.20421,20.59331,74.21025,20.59808],"properties":{"ward":4},"geometry":{"type":"Polygon","coordinates":[[[74.20619,20.59785],[74.20629,20.5977],[74.20996,20.59794],[74.21025,20.59664],[74.20421,20.59331],[74.20452,20.59454],[74.20462,20.59808],[74.20619,20.59785]]]}},{"type":"Feature","bbox":[74.2015,20.58144,74.23897,20.60572],"properties":{"ward":5},"geometry":{"type":"Polygon","coordinates":[[[74.22302,20.60525],[74.22455,20.60473],[74.22978,20.60548],[74.23257,20.60544],[74.23393,20.60523],[74.23398,20.60488],[74.2345,20.60423],[74.23357,20.60336],[74.23378,20.60292],[74.23364,20.60144],[74.23374,20.60099],[74.23339,20.60076],[74.23338,20.60055],[74.23364,20.59976],[74.23474,20.59921],[74.23482,20.5989],[74.23451,20.59757],[74.23379,20.59655],[74.2335,20.59523],[74.23382,20.59388],[74.23468,20.59181],[74.23502,20.59153],[74.23578,20.59155],[74.23594,20.59142],[74.23634,20.59054],[74.2372,20.58941],[74.23783,20.5874],[74.23849,20.58643],[74.23848,20.58601],[74.23763,20.58522],[74.23731,20.58442],[74.23756,20.58386],[74.23841,20.583],[74.23886,20.58205],[74.23897,20.58144],[74.23781,20.58148],[74.23711,20.58169],[74.23626,20.58278],[74.23447,20.58353],[74.23399,20.58444],[74.233,20.58433],[74.23229,20.58469],[74.23137,20.58561],[74.23107,20.58634],[74.23065,20.58666],[74.22916,20.58689],[74.22747,20.58284],[74.224,20.58626],[74.22315,20.58678],[74.20598,20.59143],[74.20307,20.5925],[74.2015,20.59632],[74.20383,20.5961],[74.20386,20.59682],[74.20454,20.59677],[74.20452,20.59454],[74.20421,20.59331],[74.21025,20.59664],[74.2095,20.59964],[74.20896,20.60121],[74.20855,20.60195],[74.21031,20.60115],[74.21087,20.60122],[74.21207,20.60071],[74.2126,20.60005],[74.2137,20.59953],[74.21371,20.60051],[74.21421,20.60032],[74.21484,20.59989],[74.21565,20.59884],[74.21583,20.59893],[74.21607,20.60119],[74.21825,20.60132],[74.21857,20.60244],[74.21907,20.60291],[74.22042,20.60359],[74.22078,20.60425],[74.22095,20.60509],[74.22139,20.60541],[74.22237,20.60572],[74.22302,20.60525]]]}},{"type":"Feature","bbox":[74.19858,20.59346,74.20245,20.5973],"properties":{"ward":6},"geometry":{"type":"Polygon","coordinates":[[[74.20129,20.59687],[74.20245,20.59403],[74.20105,20.59363],[74.20104,20.59346],[74.19912,20.59437],[74.19875,20.59436],[74.19858,20.59468],[74.19871,20.59485],[74.19866,20.59572],[74.19899,20.59574],[74.19961,20.5973],[74.20129,20.59687]]]}},{"type":"Feature","bbox":[74.18623,20.59415,74.20129,20.60404],"properties":{"ward":7},"geometry":{"type":"Polygon","coordinates":[[[74.18711,20.60325],[74.18766,20.60333],[74.18826,20.60374],[74.18953,20.60351],[74.19032,20.60317],[74.19046,20.60264],[74.19073,20.60233],[74.19277,20.602],[74.19319,20.6038],[74.19561,20.60133],[74.19884,20.60016],[74.19969,20.59964],[74.20058,20.59856],[74.20129,20.59687],[74.19961,20.5973],[74.19899,20.59574],[74.19866,20.59572],[74.19871,20.59485],[74.19858,20.59468],[74.19871,20.59432],[74.19824,20.5942],[74.19685,20.59433],[74.19675,20.59415],[74.19635,20.59431],[74.19653,20.59503],[74.19636,20.59561],[74.19479,20.59712],[74.194,20.59889],[74.19347,20.59955],[74.19103,20.60115],[74.19047,20.60218],[74.19008,20.60249],[74.18924,20.60258],[74.18791,20.60246],[74.18667,20.60263],[74.18628,20.60307],[74.18623,20.60404],[74.18711,20.60325]]]}},{"type":"Feature","bbox":[74.19422,20.59028,74.20038,20.59437],"properties":{"ward":8},"geometry":{"type":"Polygon","coordinates":[[[74.19881,20.59437],[74.20038,20.59384],[74.19969,20.59285],[74.19983,20.59355],[74.19891,20.59355],[74.19862,20.593],[74.19877,20.59293],[74.19891,20.59239],[74.19844,20.59232],[74.19827,20.5909],[74.19663,20.59033],[74.19597,20.59028],[74.19486,20.59053],[74.19444,20.591],[74.19422,20.59154],[74.1943,20.59262],[74.19634,20.59431],[74.19675,20.59415],[74.19685,20.59433],[74.19824,20.5942],[74.19881,20.59437]]]}},{"type":"Feature","bbox":[74.19831,20.58989,74.20307,20.59403],"properties":{"ward":9},"geometry":{"type":"Polygon","coordinates":[[[74.20245,20.59403],[74.20307,20.5925],[74.20298,20.5918],[74.20242,20.59108],[74.20104,20.58989],[74.20027,20.59081],[74.19973,20.59104],[74.19939,20.59116],[74.19831,20.59091],[74.19844,20.59232],[74.19891,20.59239],[74.19877,20.59293],[74.19862,20.593],[74.19891,20.59355],[74.19983,20.59355],[74.19969,20.59285],[74.20038,20.59384],[74.20104,20.59346],[74.20105,20.59363],[74.20245,20.59403]]]}},{"type":"Feature","bbox":[74.20105,20.57043,74.22753,20.5925],"properties":{"ward":10},"geometry":{"type":"Polygon","coordinates":[[[74.22187,20.5708],[74.21877,20.57062],[74.21865,20.57043],[74.21681,20.57045],[74.21523,20.5707],[74.21186,20.57055],[74.21169,20.5709],[74.21081,20.57137],[74.20865,20.5717],[74.20838,20.57199],[74.2086,20.57347],[74.20931,20.57518],[74.20934,20.57883],[74.20909,20.57982],[74.20842,20.58076],[74.20703,20.58175],[74.20338,20.58288],[74.20233,20.58372],[74.20185,20.58432],[74.20167,20.58487],[74.20158,20.5885],[74.20149,20.58909],[74.20105,20.58991],[74.2028,20.59152],[74.2031,20.59223],[74.20307,20.5925],[74.20598,20.59143],[74.22315,20.58678],[74.224,20.58626],[74.22753,20.58278],[74.22607,20.58002],[74.22486,20.57707],[74.22419,20.57598],[74.22282,20.57219],[74.2225,20.57182],[74.22227,20.57178],[74.22187,20.5708]]]}}]}