{"type":"FeatureCollection","features":[{"type":"Feature","bbox":[79.66629,20.06978,79.67656,20.07289],"properties":{"ward":1,"name":"Pandit Jawaharlal Nehru Ward"},"geometry":{"type":"Polygon","coordinates":[[[79.67656,20.0721],[79.67622,20.07136],[79.67638,20.07125],[79.67629,20.07104],[79.67606,20.0711],[79.67576,20.07031],[79.67521,20.07007],[79.67432,20.07024],[79.6711,20.07014],[79.67005,20.07025],[79.66985,20.07],[79.66929,20.07006],[79.66884,20.06978],[79.66679,20.0701],[79.66629,20.0705],[79.66772,20.07121],[79.67103,20.07065],[79.67275,20.07108],[79.67364,20.07157],[79.67527,20.07289],[79.67656,20.0721]]]}},{"type":"Feature","bbox":[79.67537,20.07032,79.68011,20.07367],"properties":{"ward":2,"name":"Dr Babasaheb Ambedkar Ward"},"geometry":{"type":"Polygon","coordinates":[[[79.67537,20.07294],[79.67871,20.07355],[79.67998,20.07367],[79.68011,20.07351],[79.67843,20.07223],[79.67798,20.07169],[79.6773,20.07185],[79.67707,20.07095],[79.67716,20.07053],[79.67672,20.07032],[79.67588,20.07043],[79.67609,20.07103],[79.67629,20.07098],[79.67644,20.07123],[79.67628,20.07136],[79.6767,20.07206],[79.67537,20.07294]]]}},{"type":"Feature","bbox":[79.67715,20.07005,79.68158,20.07343],"properties":{"ward":3,"name":"Mahatma Jyotoba Phule Ward"},"geometry":{"type":"Polygon","coordinates":[[[79.67771,20.0705],[79.67784,20.07043],[79.67721,20.07061],[79.67715,20.07094],[79.67735,20.07177],[79.67799,20.07161],[79.6785,20.07217],[79.68014,20.07343],[79.68055,20.07213],[79.68158,20.07137],[79.6815,20.07029],[79.68099,20.07048],[79.68041,20.07032],[79.68022,20.07005],[79.67771,20.0705]]]}},{"type":"Feature","bbox":[79.67895,20.06816,79.68308,20.07121],"properties":{"ward":4,"name":"Shri Ram Ward"},"geometry":{"type":"Polygon","coordinates":[[[79.67895,20.06954],[79.67983,20.06972],[79.68098,20.07039],[79.68131,20.07035],[79.68149,20.07012],[79.68165,20.07048],[79.68167,20.07121],[79.68255,20.06974],[79.68308,20.06949],[79.68273,20.06816],[79.68003,20.06836],[79.67995,20.06869],[79.67908,20.06905],[79.67895,20.06954]]]}},{"type":"Feature","bbox":[79.67622,20.06793,79.68009,20.07034],"properties":{"ward":5,"name":"Bhagat Singh Ward"},"geometry":{"type":"Polygon","coordinates":[[[79.67664,20.06921],[79.67789,20.07034],[79.68009,20.07002],[79.67978,20.06978],[79.67866,20.06943],[79.67806,20.06969],[79.67773,20.06929],[79.67774,20.0691],[79.67729,20.06905],[79.67745,20.06793],[79.67622,20.06794],[79.67664,20.06921]]]}},{"type":"Feature","bbox":[79.67571,20.06534,79.69215,20.06947],"properties":{"ward":6,"name":"Valmiki Ward"},"geometry":{"type":"Polygon","coordinates":[[[79.68678,20.06541],[79.67571,20.06705],[79.67622,20.06788],[79.67791,20.06789],[79.67777,20.06755],[79.68014,20.06745],[79.68002,20.06828],[79.68275,20.0681],[79.68317,20.06947],[79.68489,20.06868],[79.68614,20.0679],[79.68736,20.06753],[79.68836,20.06702],[79.69131,20.0668],[79.69215,20.06576],[79.68886,20.06534],[79.68678,20.06541]]]}},{"type":"Feature","bbox":[79.67737,20.06751,79.68009,20.06957],"properties":{"ward":7,"name":"Panchashil Ward"},"geometry":{"type":"Polygon","coordinates":[[[79.67796,20.06794],[79.6775,20.06795],[79.67737,20.06897],[79.67774,20.06904],[79.67795,20.06949],[79.67822,20.06957],[79.67853,20.06937],[79.67888,20.06942],[79.679,20.06903],[79.67984,20.06869],[79.68009,20.06751],[79.6779,20.06758],[79.67796,20.06794]]]}},{"type":"Feature","bbox":[79.67908,20.06088,79.69298,20.06639],"properties":{"ward":8,"name":"Shramik Ward"},"geometry":{"type":"Polygon","coordinates":[[[79.67919,20.06434],[79.67908,20.06455],[79.67915,20.06639],[79.68791,20.06519],[79.69223,20.06561],[79.69267,20.06331],[79.69242,20.0625],[79.69208,20.06208],[79.69287,20.06138],[79.69298,20.06088],[79.68753,20.06104],[79.68511,20.06094],[79.68286,20.06178],[79.6807,20.06227],[79.68089,20.06419],[79.67919,20.06434]]]}},{"type":"Feature","bbox":[79.67499,20.06423,79.67908,20.0669],"properties":{"ward":9,"name":"Mahatma Gandhi Ward"},"geometry":{"type":"Polygon","coordinates":[[[79.6757,20.0669],[79.67908,20.06642],[79.67899,20.06449],[79.67734,20.06469],[79.67712,20.06456],[79.67559,20.06463],[79.67538,20.06462],[79.67529,20.06423],[79.67499,20.06427],[79.6757,20.0669]]]}},{"type":"Feature","bbox":[79.6692,20.06498,79.67776,20.07043],"properties":{"ward":10,"name":"Maulana Abdul Kalam Azad Ward"},"geometry":{"type":"Polygon","coordinates":[[[79.6722,20.06498],[79.67096,20.06622],[79.6692,20.06716],[79.66975,20.06775],[79.67034,20.06878],[79.67027,20.06972],[79.66995,20.07016],[79.67163,20.06996],[79.67397,20.07017],[79.67536,20.07002],[79.67585,20.0703],[79.67776,20.07043],[79.67764,20.07009],[79.67698,20.06975],[79.67655,20.0692],[79.67615,20.06789],[79.67559,20.06699],[79.67355,20.06564],[79.6722,20.06498]]]}},{"type":"Feature","bbox":[79.67512,20.06168,79.68088,20.0646],"properties":{"ward":11,"name":"Indira Ward"},"geometry":{"type":"Polygon","coordinates":[[[79.67512,20.06168],[79.67544,20.06456],[79.67722,20.06442],[79.67739,20.0646],[79.68088,20.06416],[79.68069,20.06227],[79.67889,20.06232],[79.67761,20.06197],[79.67512,20.06168]]]}},{"type":"Feature","bbox":[79.67044,20.06063,79.67548,20.06669],"properties":{"ward":12,"name":"Veer Sawarkar Ward"},"geometry":{"type":"Polygon","coordinates":[[[79.67079,20.06408],[79.6732,20.06519],[79.67548,20.06669],[79.67486,20.06434],[79.6749,20.06419],[79.67527,20.06416],[79.6751,20.06218],[79.67487,20.06164],[79.67381,20.06184],[79.67323,20.06094],[79.67269,20.06063],[79.67063,20.06133],[79.67083,20.06207],[79.6705,20.06231],[79.67044,20.0627],[79.67073,20.0634],[79.67079,20.06408]]]}},{"type":"Feature","bbox":[79.66422,20.061,79.67077,20.06409],"properties":{"ward":13,"name":"Shahid Ward"},"geometry":{"type":"Polygon","coordinates":[[[79.67062,20.06409],[79.67072,20.06368],[79.67038,20.06288],[79.67037,20.06244],[79.67077,20.06199],[79.67055,20.0613],[79.66422,20.061],[79.67062,20.06409]]]}},{"type":"Feature","bbox":[79.65998,20.06203,79.67209,20.07044],"properties":{"ward":14,"name":"Dr Rajendra Prasad Ward"},"geometry":{"type":"Polygon","coordinates":[[[79.65998,20.06452],[79.66028,20.06688],[79.66067,20.06734],[79.6625,20.06813],[79.66398,20.06839],[79.66461,20.06915],[79.66474,20.06913],[79.66491,20.06943],[79.6661,20.07044],[79.66684,20.07001],[79.66894,20.06972],[79.66943,20.07006],[79.67009,20.06982],[79.67023,20.06876],[79.66906,20.06729],[79.66907,20.06708],[79.67103,20.06605],[79.67209,20.06496],[79.66619,20.06203],[79.66545,20.06338],[79.66431,20.06373],[79.66272,20.06379],[79.66165,20.0642],[79.65998,20.06452]]]}},{"type":"Feature","bbox":[79.65618,20.05772,79.66615,20.06443],"properties":{"ward":15,"name":"Kannamwar Ward"},"geometry":{"type":"Polygon","coordinates":[[[79.66615,20.06191],[79.65618,20.05772],[79.65642,20.05878],[79.65673,20.05924],[79.65714,20.05938],[79.65698,20.06019],[79.65711,20.0606],[79.65808,20.06096],[79.65963,20.06116],[79.65995,20.0627],[79.65996,20.06431],[79.66012,20.06443],[79.6615,20.06417],[79.66275,20.06372],[79.6643,20.06368],[79.66543,20.06332],[79.66615,20.06191]]]}},{"type":"Feature","bbox":[79.65619,20.05196,79.67492,20.06159],"properties":{"ward":16,"name":"Dr Hegdewar Ward"},"geometry":{"type":"Polygon","coordinates":[[[79.65651,20.05664],[79.65619,20.05754],[79.65916,20.05869],[79.66404,20.06089],[79.66814,20.06096],[79.67022,20.06119],[79.67289,20.06045],[79.67378,20.06159],[79.67492,20.06138],[79.67477,20.0576],[79.67388,20.05578],[79.67401,20.05417],[79.67331,20.05412],[79.67156,20.05511],[79.66924,20.0552],[79.66823,20.05479],[79.66563,20.0544],[79.66419,20.05402],[79.65938,20.05252],[79.65808,20.05196],[79.65778,20.05238],[79.65832,20.05425],[79.6584,20.05532],[79.65825,20.05619],[79.65807,20.05642],[79.65651,20.05664]]]}},{"type":"Feature","bbox":[79.67391,20.05141,79.69405,20.06224],"properties":{"ward":17,"name":"Shivaji Ward"},"geometry":{"type":"Polygon","coordinates":[[[79.67479,20.0575],[79.67517,20.06158],[79.67782,20.06192],[79.67804,20.06209],[79.67903,20.06224],[79.68055,20.0622],[79.68225,20.06188],[79.68547,20.06082],[79.68729,20.06098],[79.69294,20.06081],[79.69352,20.06006],[79.69372,20.05928],[79.69405,20.05617],[79.69328,20.05389],[79.69358,20.05232],[79.69345,20.05144],[79.69258,20.05141],[79.69184,20.05297],[79.69052,20.05342],[79.68944,20.05405],[79.68706,20.05577],[79.68533,20.05761],[79.6843,20.05836],[79.68118,20.05819],[79.68013,20.05788],[79.67815,20.05784],[79.6774,20.05703],[79.67531,20.05559],[79.67485,20.0549],[79.6747,20.05422],[79.67404,20.05427],[79.67391,20.05578],[79.67479,20.0575]]]}}]}