{"type":"FeatureCollection","features":[{"type":"Feature","bbox":[79.61943,20.79603,79.63945,20.81288],"properties":{"ward":1},"geometry":{"type":"Polygon","coordinates":[[[79.62776,20.79663],[79.62007,20.79684],[79.62037,20.79724],[79.61943,20.79756],[79.61983,20.79884],[79.61953,20.79991],[79.62001,20.80019],[79.61986,20.80927],[79.62092,20.81078],[79.6206,20.81288],[79.62149,20.81242],[79.62168,20.81109],[79.62247,20.81059],[79.62249,20.80987],[79.6243,20.81048],[79.6247,20.81079],[79.62606,20.80997],[79.62644,20.80952],[79.62643,20.80853],[79.62828,20.80275],[79.62913,20.80243],[79.62934,20.8028],[79.62948,20.80281],[79.62953,20.80255],[79.62995,20.80218],[79.63016,20.80222],[79.63024,20.80255],[79.63116,20.80197],[79.6319,20.80211],[79.63191,20.80247],[79.63098,20.80262],[79.63111,20.80331],[79.6309,20.80358],[79.631,20.8038],[79.63045,20.80448],[79.6305,20.80512],[79.63462,20.80175],[79.63605,20.80099],[79.63706,20.79993],[79.63814,20.79935],[79.63945,20.79799],[79.63898,20.79759],[79.63793,20.79716],[79.63755,20.79666],[79.63652,20.79696],[79.63613,20.79603],[79.63532,20.79617],[79.63522,20.79654],[79.63537,20.79716],[79.63428,20.79737],[79.6336,20.79717],[79.63318,20.79655],[79.63,20.79684],[79.62776,20.79663]]]}},{"type":"Feature","bbox":[79.63616,20.79409,79.64032,20.79782],"properties":{"ward":2},"geometry":{"type":"Polygon","coordinates":[[[79.63768,20.79473],[79.6368,20.7948],[79.63716,20.79566],[79.63616,20.79598],[79.63652,20.7969],[79.63758,20.79657],[79.63797,20.79708],[79.63939,20.79782],[79.64032,20.79709],[79.63964,20.79557],[79.63929,20.7952],[79.63911,20.79412],[79.63874,20.79409],[79.63768,20.79473]]]}},{"type":"Feature","bbox":[79.63915,20.79378,79.64253,20.79694],"properties":{"ward":3},"geometry":{"type":"Polygon","coordinates":[[[79.63955,20.79391],[79.63915,20.79408],[79.6392,20.79487],[79.64031,20.79694],[79.64253,20.7957],[79.6423,20.79397],[79.64147,20.79378],[79.63955,20.79391]]]}},{"type":"Feature","bbox":[79.6388,20.79054,79.65009,20.79577],"properties":{"ward":4},"geometry":{"type":"Polygon","coordinates":[[[79.64988,20.79097],[79.64088,20.79082],[79.63981,20.79054],[79.63886,20.79055],[79.6388,20.79224],[79.63913,20.79405],[79.63995,20.79383],[79.64147,20.79375],[79.64233,20.79394],[79.64256,20.79577],[79.647,20.79342],[79.64995,20.79129],[79.65009,20.79112],[79.64988,20.79097]]]}},{"type":"Feature","bbox":[79.63843,20.78311,79.64689,20.787],"properties":{"ward":5},"geometry":{"type":"Polygon","coordinates":[[[79.63843,20.78474],[79.63871,20.787],[79.6412,20.78642],[79.64284,20.78538],[79.64689,20.78531],[79.64689,20.78496],[79.64644,20.78478],[79.64595,20.78493],[79.64593,20.78441],[79.64554,20.78437],[79.64537,20.78322],[79.64421,20.78311],[79.64122,20.78381],[79.63843,20.78474]]]}},{"type":"Feature","bbox":[79.63847,20.78527,79.65014,20.79093],"properties":{"ward":6},"geometry":{"type":"Polygon","coordinates":[[[79.63847,20.78738],[79.63885,20.79053],[79.6398,20.79052],[79.64119,20.79082],[79.64984,20.79093],[79.65014,20.79049],[79.64976,20.79017],[79.64924,20.78843],[79.64881,20.78816],[79.64891,20.78784],[79.64958,20.78739],[79.64916,20.78652],[79.64836,20.78669],[79.64798,20.78527],[79.64285,20.78542],[79.64121,20.78646],[79.63865,20.78703],[79.63847,20.78738]]]}},{"type":"Feature","bbox":[79.6361,20.78731,79.63861,20.79074],"properties":{"ward":7},"geometry":{"type":"Polygon","coordinates":[[[79.63846,20.78731],[79.63732,20.78753],[79.6369,20.78863],[79.6361,20.78995],[79.63668,20.79074],[79.63777,20.79],[79.63812,20.78936],[79.63861,20.78911],[79.63846,20.78731]]]}},{"type":"Feature","bbox":[79.63587,20.78916,79.63908,20.79477],"properties":{"ward":8},"geometry":{"type":"Polygon","coordinates":[[[79.63669,20.79077],[79.63608,20.79011],[79.63587,20.79028],[79.63607,20.7932],[79.63678,20.79477],[79.63751,20.79473],[79.63872,20.79406],[79.63908,20.79408],[79.63877,20.7922],[79.63884,20.79053],[79.63861,20.78916],[79.63813,20.78937],[79.63778,20.79005],[79.63669,20.79077]]]}},{"type":"Feature","bbox":[79.63229,20.78841,79.63645,20.79492],"properties":{"ward":9},"geometry":{"type":"Polygon","coordinates":[[[79.63326,20.78841],[79.63229,20.79319],[79.63316,20.79369],[79.63365,20.79441],[79.63492,20.79492],[79.635,20.79392],[79.63645,20.79419],[79.63606,20.79323],[79.63588,20.79117],[79.63584,20.79025],[79.63609,20.79002],[79.63486,20.79044],[79.63381,20.78863],[79.63326,20.78841]]]}},{"type":"Feature","bbox":[79.62956,20.79209,79.63715,20.79733],"properties":{"ward":10},"geometry":{"type":"Polygon","coordinates":[[[79.63715,20.79566],[79.63645,20.7942],[79.63582,20.79418],[79.63501,20.79393],[79.63494,20.79493],[79.63365,20.79441],[79.63315,20.7937],[79.63229,20.79319],[79.63245,20.79209],[79.62993,20.79216],[79.62956,20.79354],[79.63026,20.79622],[79.6306,20.79676],[79.63321,20.79653],[79.63362,20.79715],[79.63399,20.79733],[79.63533,20.79714],[79.63519,20.79658],[79.63525,20.79615],[79.63566,20.79597],[79.63651,20.79594],[79.63715,20.79566]]]}},{"type":"Feature","bbox":[79.62976,20.7885,79.63318,20.79212],"properties":{"ward":11},"geometry":{"type":"Polygon","coordinates":[[[79.63318,20.7885],[79.63001,20.78982],[79.6304,20.79084],[79.62976,20.79136],[79.63012,20.79212],[79.63245,20.79207],[79.63318,20.7885]]]}},{"type":"Feature","bbox":[79.62602,20.78985,79.63037,20.79346],"properties":{"ward":12},"geometry":{"type":"Polygon","coordinates":[[[79.63037,20.79081],[79.62999,20.78985],[79.6282,20.79064],[79.62724,20.79072],[79.6266,20.79096],[79.62622,20.79123],[79.62602,20.79285],[79.62792,20.79336],[79.62951,20.79346],[79.62991,20.79218],[79.6301,20.79211],[79.62975,20.79139],[79.63037,20.79081]]]}},{"type":"Feature","bbox":[79.62001,20.78877,79.63055,20.79681],"properties":{"ward":13},"geometry":{"type":"Polygon","coordinates":[[[79.62008,20.79681],[79.62147,20.79664],[79.62641,20.79654],[79.63055,20.79673],[79.63024,20.79624],[79.62951,20.7935],[79.62789,20.79339],[79.626,20.79285],[79.62614,20.79127],[79.62661,20.79093],[79.62725,20.7907],[79.62772,20.79075],[79.62906,20.79024],[79.62886,20.78914],[79.62842,20.78919],[79.62799,20.78951],[79.6272,20.78877],[79.62541,20.78927],[79.6218,20.78963],[79.6216,20.79027],[79.62174,20.79045],[79.62147,20.79072],[79.62128,20.7925],[79.62054,20.79278],[79.62045,20.79453],[79.62001,20.7949],[79.62008,20.79681]]]}},{"type":"Feature","bbox":[79.61861,20.77619,79.63317,20.79024],"properties":{"ward":14},"geometry":{"type":"Polygon","coordinates":[[[79.62433,20.77633],[79.623,20.77661],[79.62161,20.77619],[79.62037,20.77685],[79.61868,20.77743],[79.61907,20.77783],[79.61921,20.77855],[79.619,20.779],[79.61929,20.77944],[79.61926,20.78003],[79.61984,20.78109],[79.61952,20.78353],[79.61861,20.7854],[79.61927,20.78599],[79.62094,20.78674],[79.62067,20.78855],[79.62162,20.78864],[79.62178,20.7896],[79.62542,20.78924],[79.62721,20.78872],[79.62797,20.7895],[79.62841,20.78918],[79.62888,20.78912],[79.62908,20.79024],[79.63317,20.78847],[79.63267,20.78697],[79.63141,20.78504],[79.62577,20.7777],[79.62433,20.77633]]]}},{"type":"Feature","bbox":[79.63328,20.78752,79.63731,20.7904],"properties":{"ward":15},"geometry":{"type":"Polygon","coordinates":[[[79.63328,20.78839],[79.63383,20.78863],[79.63486,20.7904],[79.63605,20.78997],[79.63671,20.78895],[79.63731,20.78752],[79.63595,20.78767],[79.6342,20.78833],[79.63328,20.78839]]]}},{"type":"Feature","bbox":[79.62437,20.76775,79.63939,20.78835],"properties":{"ward":16},"geometry":{"type":"Polygon","coordinates":[[[79.63324,20.78833],[79.634,20.78835],[79.63567,20.7877],[79.638,20.78747],[79.63866,20.787],[79.6384,20.78466],[79.63866,20.78288],[79.63939,20.78015],[79.63935,20.77763],[79.63883,20.77392],[79.6388,20.77266],[79.63795,20.76775],[79.63639,20.76917],[79.63554,20.76934],[79.63546,20.77079],[79.63564,20.77155],[79.63493,20.77315],[79.63458,20.77322],[79.63271,20.77494],[79.63144,20.77559],[79.63142,20.77625],[79.63083,20.77727],[79.63031,20.77722],[79.62979,20.77584],[79.62879,20.77598],[79.62861,20.77512],[79.62894,20.77485],[79.62899,20.77414],[79.62921,20.77412],[79.62949,20.77449],[79.6295,20.77325],[79.62878,20.77286],[79.6285,20.77162],[79.62694,20.7722],[79.627,20.77279],[79.6265,20.77357],[79.62553,20.77369],[79.6257,20.77479],[79.62449,20.77569],[79.62437,20.77629],[79.62683,20.77894],[79.62944,20.78222],[79.63269,20.78672],[79.63324,20.78833]]]}},{"type":"Feature","bbox":[79.63846,20.76982,79.64621,20.78467],"properties":{"ward":17},"geometry":{"type":"Polygon","coordinates":[[[79.63868,20.7829],[79.63846,20.78467],[79.63988,20.78414],[79.64286,20.78338],[79.64424,20.78308],[79.64545,20.78318],[79.6462,20.78288],[79.64621,20.78265],[79.64552,20.78251],[79.64534,20.77916],[79.64482,20.77944],[79.64459,20.77736],[79.64457,20.77546],[79.64422,20.77551],[79.64439,20.77472],[79.64413,20.77289],[79.64325,20.77394],[79.64181,20.77428],[79.64144,20.76982],[79.64083,20.77037],[79.63859,20.77159],[79.63884,20.7727],[79.63896,20.77456],[79.63936,20.77635],[79.63945,20.78012],[79.63868,20.7829]]]}}]}