{"type":"FeatureCollection","features":[{"type":"Feature","bbox":[74.59406,16.86308,74.62149,16.89599],"properties":{"ward":1},"geometry":{"type":"Polygon","coordinates":[[[74.61651,16.86899],[74.61132,16.86617],[74.60726,16.86487],[74.59875,16.86308],[74.59781,16.87097],[74.59683,16.87555],[74.59454,16.88287],[74.59406,16.88821],[74.60606,16.89103],[74.60675,16.89599],[74.61325,16.89493],[74.62046,16.8933],[74.62131,16.89184],[74.62149,16.88898],[74.62083,16.88508],[74.62058,16.87696],[74.62019,16.87377],[74.61982,16.87268],[74.61786,16.87222],[74.61605,16.87107],[74.6165,16.87061],[74.61651,16.86899]]]}},{"type":"Feature","bbox":[74.61395,16.83597,74.66334,16.87963],"properties":{"ward":2},"geometry":{"type":"Polygon","coordinates":[[[74.62706,16.87963],[74.62962,16.87504],[74.62802,16.8726],[74.62741,16.87237],[74.62593,16.87122],[74.62455,16.87],[74.62323,16.86851],[74.62585,16.86855],[74.6288,16.86882],[74.63079,16.86847],[74.63102,16.86529],[74.63359,16.8655],[74.63719,16.86463],[74.63629,16.85938],[74.63514,16.85813],[74.63525,16.85747],[74.6377,16.85763],[74.64259,16.85825],[74.64572,16.858],[74.65032,16.85789],[74.65042,16.85848],[74.65884,16.85926],[74.66334,16.85924],[74.66228,16.85804],[74.66074,16.85664],[74.65916,16.85474],[74.65747,16.85265],[74.65488,16.84891],[74.6549,16.84693],[74.65472,16.84605],[74.65427,16.84564],[74.65288,16.84505],[74.65103,16.84501],[74.64984,16.84463],[74.64935,16.84433],[74.64881,16.84299],[74.6457,16.84304],[74.64554,16.84223],[74.64329,16.84207],[74.63581,16.84197],[74.63509,16.84349],[74.62936,16.84283],[74.62915,16.8426],[74.62973,16.839],[74.6306,16.83597],[74.61985,16.83948],[74.62208,16.84337],[74.62266,16.84388],[74.61395,16.85583],[74.61605,16.86011],[74.61695,16.8624],[74.61727,16.86377],[74.61734,16.86502],[74.61781,16.8659],[74.61659,16.86822],[74.61655,16.87062],[74.61618,16.87103],[74.61787,16.87214],[74.61992,16.87258],[74.6204,16.87485],[74.62706,16.87963]]]}},{"type":"Feature","bbox":[74.62926,16.82917,74.66893,16.85995],"properties":{"ward":3},"geometry":{"type":"Polygon","coordinates":[[[74.66071,16.85654],[74.66393,16.85953],[74.66795,16.85995],[74.66844,16.8559],[74.66893,16.84849],[74.6687,16.84327],[74.66657,16.84343],[74.66651,16.84301],[74.66569,16.84294],[74.66559,16.84218],[74.66393,16.84241],[74.66329,16.8416],[74.66145,16.8424],[74.65924,16.84073],[74.65877,16.84015],[74.65839,16.83903],[74.65622,16.83605],[74.65306,16.83096],[74.6529,16.82992],[74.64945,16.82917],[74.64755,16.82928],[74.64653,16.82956],[74.64557,16.8308],[74.63081,16.83588],[74.62985,16.83898],[74.62926,16.8426],[74.62948,16.84277],[74.63506,16.8434],[74.63578,16.84193],[74.64375,16.84202],[74.64559,16.84217],[74.64577,16.84296],[74.64885,16.84291],[74.6494,16.84429],[74.64992,16.84462],[74.65106,16.84494],[74.65292,16.84497],[74.65416,16.84551],[74.65479,16.846],[74.65494,16.84689],[74.65494,16.84892],[74.65789,16.8531],[74.65978,16.85543],[74.66071,16.85654]]]}},{"type":"Feature","bbox":[74.64885,16.82235,74.6736,16.84339],"properties":{"ward":4},"geometry":{"type":"Polygon","coordinates":[[[74.67322,16.83409],[74.6736,16.8244],[74.67265,16.82415],[74.66868,16.82451],[74.66297,16.82374],[74.6591,16.82359],[74.65765,16.8232],[74.65394,16.8227],[74.65268,16.82291],[74.65088,16.82235],[74.65042,16.82331],[74.65015,16.82483],[74.64885,16.82907],[74.65297,16.82981],[74.65315,16.83098],[74.65625,16.83601],[74.65841,16.83898],[74.65881,16.84005],[74.65933,16.84073],[74.66047,16.84163],[74.66145,16.84232],[74.66329,16.84152],[74.66394,16.84236],[74.66564,16.8421],[74.66573,16.8429],[74.66655,16.84298],[74.66659,16.84339],[74.66872,16.84323],[74.66962,16.84222],[74.67266,16.84],[74.67293,16.84002],[74.67327,16.8392],[74.67322,16.83409]]]}},{"type":"Feature","bbox":[74.63136,16.77512,74.67864,16.82448],"properties":{"ward":5},"geometry":{"type":"Polygon","coordinates":[[[74.65059,16.82215],[74.65268,16.82278],[74.65393,16.82259],[74.6547,16.82281],[74.65759,16.82312],[74.65907,16.82351],[74.66285,16.82369],[74.66869,16.82448],[74.67246,16.82404],[74.67357,16.82427],[74.67444,16.81604],[74.67449,16.81364],[74.67428,16.81085],[74.67864,16.809],[74.67787,16.80762],[74.67666,16.8065],[74.67541,16.80573],[74.67377,16.80515],[74.67216,16.80485],[74.66988,16.80219],[74.6693,16.80087],[74.66845,16.80032],[74.66793,16.79968],[74.66708,16.79632],[74.66658,16.79588],[74.66313,16.79607],[74.66194,16.79546],[74.66035,16.79411],[74.65912,16.79369],[74.65832,16.79319],[74.65676,16.79305],[74.65551,16.79339],[74.65418,16.79349],[74.6531,16.79286],[74.65276,16.79029],[74.6513,16.78962],[74.64922,16.78927],[74.64755,16.78858],[74.64611,16.78832],[74.6431,16.78956],[74.64261,16.78829],[74.64289,16.78455],[74.64264,16.77597],[74.64092,16.77512],[74.63591,16.77944],[74.63496,16.78042],[74.63356,16.78259],[74.63227,16.78488],[74.63182,16.78613],[74.63172,16.78766],[74.63136,16.78947],[74.63152,16.79048],[74.63215,16.79269],[74.6334,16.79596],[74.63462,16.79743],[74.63652,16.79902],[74.63975,16.80214],[74.64095,16.80358],[74.64348,16.80845],[74.64445,16.80886],[74.64464,16.80945],[74.64447,16.81038],[74.64787,16.81415],[74.64961,16.81959],[74.64716,16.81953],[74.64704,16.82026],[74.64842,16.82073],[74.65015,16.82171],[74.65059,16.82215]]]}},{"type":"Feature","bbox":[74.64263,16.81605,74.65067,16.82474],"properties":{"ward":6},"geometry":{"type":"Polygon","coordinates":[[[74.65067,16.82226],[74.65011,16.82174],[74.64839,16.82079],[74.64696,16.8203],[74.64714,16.81949],[74.64953,16.81954],[74.64903,16.81791],[74.64746,16.81812],[74.64565,16.81782],[74.64557,16.81676],[74.6449,16.81605],[74.6447,16.81661],[74.64393,16.81655],[74.64363,16.81684],[74.64342,16.81715],[74.64419,16.81747],[74.6441,16.81874],[74.64281,16.81882],[74.64263,16.82049],[74.64329,16.82155],[74.64431,16.82158],[74.64573,16.82348],[74.64687,16.82413],[74.64687,16.8243],[74.64825,16.82455],[74.64873,16.82441],[74.64891,16.82474],[74.6501,16.82473],[74.65067,16.82226]]]}},{"type":"Feature","bbox":[74.62289,16.81656,74.6501,16.83762],"properties":{"ward":7},"geometry":{"type":"Polygon","coordinates":[[[74.62486,16.83762],[74.6451,16.83094],[74.64551,16.83075],[74.6465,16.82954],[74.64797,16.82913],[74.64875,16.82912],[74.6501,16.82476],[74.6489,16.82476],[74.64874,16.82447],[74.64825,16.82457],[74.64686,16.82432],[74.64685,16.82414],[74.64569,16.82349],[74.64445,16.82202],[74.64429,16.82161],[74.64327,16.82158],[74.6426,16.8205],[74.64271,16.81879],[74.64404,16.81868],[74.64416,16.81749],[74.64072,16.81656],[74.63875,16.82265],[74.63828,16.82299],[74.63732,16.82307],[74.63748,16.82195],[74.62294,16.82477],[74.62324,16.8279],[74.62401,16.82784],[74.62423,16.83161],[74.62289,16.83184],[74.62377,16.83496],[74.62486,16.83762]]]}},{"type":"Feature","bbox":[74.59875,16.83956,74.62253,16.8688],"properties":{"ward":8},"geometry":{"type":"Polygon","coordinates":[[[74.59886,16.84756],[74.59921,16.85012],[74.59875,16.86299],[74.60265,16.86394],[74.60734,16.86482],[74.6116,16.8662],[74.61643,16.8688],[74.61642,16.86817],[74.61765,16.86589],[74.61721,16.86505],[74.61722,16.86378],[74.61688,16.86242],[74.61577,16.86006],[74.61488,16.85863],[74.61448,16.85703],[74.61385,16.85583],[74.62253,16.84397],[74.622,16.8434],[74.61979,16.83956],[74.6155,16.84108],[74.60336,16.84597],[74.59886,16.84756]]]}},{"type":"Feature","bbox":[74.58446,16.84765,74.59918,16.87069],"properties":{"ward":9},"geometry":{"type":"Polygon","coordinates":[[[74.58497,16.85264],[74.5852,16.85546],[74.58576,16.85668],[74.58905,16.85694],[74.5865,16.86408],[74.58446,16.8688],[74.58823,16.86885],[74.58822,16.86968],[74.59138,16.8695],[74.59137,16.87006],[74.5931,16.87009],[74.5932,16.87054],[74.59502,16.87069],[74.59764,16.87058],[74.59883,16.86044],[74.59918,16.85009],[74.59873,16.84765],[74.58497,16.85264]]]}},{"type":"Feature","bbox":[74.57141,16.85269,74.58875,16.8764],"properties":{"ward":10},"geometry":{"type":"Polygon","coordinates":[[[74.58352,16.86991],[74.58428,16.86876],[74.58626,16.86412],[74.58875,16.85702],[74.58575,16.85677],[74.58513,16.85557],[74.5849,16.85269],[74.57414,16.85651],[74.57406,16.85928],[74.57249,16.86008],[74.57141,16.86014],[74.57142,16.87022],[74.57288,16.87216],[74.57734,16.8764],[74.57792,16.87448],[74.5785,16.87362],[74.58031,16.8721],[74.58352,16.86991]]]}},{"type":"Feature","bbox":[74.57738,16.86891,74.59767,16.88586],"properties":{"ward":11},"geometry":{"type":"Polygon","coordinates":[[[74.57738,16.87643],[74.58211,16.88137],[74.58452,16.88439],[74.58536,16.88586],[74.59429,16.88179],[74.59478,16.8812],[74.59661,16.87597],[74.59767,16.87064],[74.59602,16.87075],[74.59317,16.87061],[74.59306,16.87013],[74.59131,16.87011],[74.59133,16.86955],[74.58817,16.86975],[74.58817,16.86891],[74.58429,16.8694],[74.57855,16.87368],[74.57797,16.87449],[74.57738,16.87643]]]}},{"type":"Feature","bbox":[74.54941,16.86006,74.5853,16.89326],"properties":{"ward":12},"geometry":{"type":"Polygon","coordinates":[[[74.54941,16.87898],[74.5513,16.88034],[74.55314,16.881],[74.56139,16.8827],[74.56235,16.88622],[74.56272,16.89326],[74.56788,16.89182],[74.57431,16.89049],[74.57721,16.8896],[74.5853,16.88588],[74.58445,16.88435],[74.58275,16.88214],[74.57928,16.87846],[74.57282,16.87222],[74.57142,16.87022],[74.57124,16.8676],[74.5714,16.86006],[74.5684,16.86015],[74.56688,16.86061],[74.56414,16.86079],[74.56418,16.86293],[74.5576,16.8631],[74.55758,16.86414],[74.55637,16.87031],[74.5541,16.87432],[74.5528,16.87605],[74.54941,16.87898]]]}},{"type":"Feature","bbox":[74.51907,16.84577,74.55671,16.88576],"properties":{"ward":13},"geometry":{"type":"Polygon","coordinates":[[[74.54636,16.88025],[74.55147,16.87578],[74.55341,16.87375],[74.55534,16.87006],[74.55663,16.86445],[74.55671,16.86004],[74.55656,16.85525],[74.55619,16.8528],[74.5552,16.8517],[74.55402,16.85099],[74.55253,16.85058],[74.54808,16.85052],[74.54611,16.85071],[74.54452,16.85124],[74.54312,16.85209],[74.54054,16.85397],[74.53906,16.85536],[74.53715,16.85681],[74.53528,16.85751],[74.53386,16.85767],[74.53301,16.85752],[74.53193,16.85686],[74.53148,16.85615],[74.53123,16.85509],[74.53158,16.85468],[74.53154,16.85314],[74.53171,16.85185],[74.53267,16.84891],[74.53384,16.84639],[74.53198,16.84626],[74.53058,16.84584],[74.52929,16.84577],[74.52644,16.84694],[74.52517,16.84823],[74.52338,16.85071],[74.52184,16.85205],[74.52067,16.85245],[74.51957,16.85258],[74.5196,16.85485],[74.51908,16.85616],[74.51907,16.8572],[74.51947,16.85761],[74.52055,16.86588],[74.52047,16.87153],[74.52071,16.87953],[74.52097,16.88222],[74.52765,16.88271],[74.53852,16.88475],[74.54256,16.88576],[74.54394,16.88308],[74.54636,16.88025]]]}},{"type":"Feature","bbox":[74.55493,16.84605,74.56417,16.86312],"properties":{"ward":14},"geometry":{"type":"Polygon","coordinates":[[[74.55715,16.85013],[74.55493,16.85129],[74.55663,16.85251],[74.55779,16.85506],[74.5579,16.85588],[74.55783,16.8589],[74.55751,16.86312],[74.56413,16.86292],[74.56406,16.86018],[74.56392,16.86019],[74.56389,16.85692],[74.56365,16.85602],[74.56355,16.85364],[74.56376,16.85361],[74.56417,16.84819],[74.56258,16.84827],[74.56285,16.84622],[74.5573,16.84605],[74.55715,16.85013]]]}},{"type":"Feature","bbox":[74.56359,16.84505,74.57405,16.85563],"properties":{"ward":15},"geometry":{"type":"Polygon","coordinates":[[[74.56429,16.84655],[74.5638,16.85368],[74.56359,16.85371],[74.56372,16.85563],[74.56516,16.85543],[74.56516,16.85409],[74.56828,16.85403],[74.56826,16.85348],[74.56927,16.85349],[74.56927,16.85375],[74.57002,16.85371],[74.57003,16.85351],[74.57399,16.85352],[74.57405,16.84947],[74.5735,16.84671],[74.57337,16.84524],[74.56857,16.84505],[74.56831,16.84671],[74.56506,16.84646],[74.56503,16.84659],[74.56429,16.84655]]]}},{"type":"Feature","bbox":[74.56372,16.8535,74.57397,16.86077],"properties":{"ward":16},"geometry":{"type":"Polygon","coordinates":[[[74.57397,16.85926],[74.57397,16.85357],[74.57006,16.85359],[74.57006,16.85375],[74.56925,16.85376],[74.56924,16.85352],[74.56828,16.8535],[74.56831,16.85406],[74.56518,16.85411],[74.56519,16.85548],[74.56372,16.85566],[74.56397,16.85692],[74.56397,16.86014],[74.56409,16.86013],[74.56413,16.86077],[74.56582,16.86069],[74.5683,16.8601],[74.57246,16.86003],[74.57397,16.85926]]]}},{"type":"Feature","bbox":[74.57359,16.83725,74.59275,16.85641],"properties":{"ward":17},"geometry":{"type":"Polygon","coordinates":[[[74.57459,16.84659],[74.57359,16.8468],[74.57413,16.84948],[74.57414,16.85641],[74.58125,16.85368],[74.59112,16.85034],[74.59275,16.84956],[74.59238,16.84559],[74.59254,16.84543],[74.59225,16.84315],[74.59087,16.83725],[74.58913,16.83783],[74.5852,16.84005],[74.5816,16.84304],[74.5799,16.84468],[74.58052,16.84582],[74.57834,16.84606],[74.57498,16.849],[74.57459,16.84659]]]}},{"type":"Feature","bbox":[74.5573,16.82367,74.59139,16.84895],"properties":{"ward":18},"geometry":{"type":"Polygon","coordinates":[[[74.59085,16.83722],[74.59024,16.83511],[74.59139,16.83485],[74.5905,16.83023],[74.58245,16.8285],[74.57688,16.82768],[74.5696,16.82617],[74.5589,16.82367],[74.55847,16.82725],[74.55815,16.82816],[74.55834,16.83275],[74.5573,16.84602],[74.56296,16.84619],[74.56265,16.84824],[74.56418,16.84817],[74.56427,16.84651],[74.56827,16.84666],[74.56847,16.84495],[74.57339,16.84516],[74.57355,16.84671],[74.5746,16.8465],[74.575,16.84895],[74.57825,16.84592],[74.58045,16.84578],[74.57984,16.84466],[74.58156,16.84301],[74.58516,16.83997],[74.58911,16.83779],[74.59085,16.83722]]]}},{"type":"Feature","bbox":[74.59038,16.82477,74.6248,16.84955],"properties":{"ward":19},"geometry":{"type":"Polygon","coordinates":[[[74.59406,16.83064],[74.59054,16.83021],[74.59148,16.83491],[74.59038,16.83519],[74.59223,16.84282],[74.59262,16.84547],[74.59247,16.8456],[74.59277,16.84955],[74.60384,16.84567],[74.61,16.84327],[74.61544,16.84095],[74.6248,16.83762],[74.62371,16.83493],[74.62279,16.83178],[74.62415,16.83156],[74.62395,16.82792],[74.62319,16.82796],[74.6229,16.82477],[74.61235,16.82675],[74.60825,16.8285],[74.60694,16.82927],[74.59406,16.83064]]]}},{"type":"Feature","bbox":[74.61666,16.78646,74.64906,16.82539],"properties":{"ward":20},"geometry":{"type":"Polygon","coordinates":[[[74.64067,16.81646],[74.6432,16.81706],[74.64356,16.81612],[74.64401,16.81626],[74.6439,16.8165],[74.64443,16.81662],[74.64468,16.81658],[74.64489,16.81596],[74.64561,16.81673],[74.64569,16.81776],[74.64743,16.81808],[74.64906,16.81787],[74.64794,16.81439],[74.64442,16.8104],[74.64459,16.80946],[74.64441,16.80889],[74.64345,16.8085],[74.64091,16.80368],[74.63976,16.80221],[74.63665,16.79919],[74.63465,16.79752],[74.63338,16.79599],[74.63142,16.79051],[74.63123,16.78951],[74.63168,16.78719],[74.63113,16.78646],[74.62952,16.78778],[74.62549,16.78984],[74.61752,16.79254],[74.61666,16.79297],[74.61719,16.79475],[74.61834,16.80053],[74.61841,16.80315],[74.61813,16.81153],[74.61868,16.81659],[74.61929,16.82539],[74.62953,16.82346],[74.63414,16.82241],[74.63753,16.82192],[74.63737,16.823],[74.63823,16.82294],[74.63864,16.82261],[74.64067,16.81646]]]}}]}