{"type":"FeatureCollection","features":[{"type":"Feature","bbox":[74.17854,16.39615,74.19552,16.40928],"properties":{"ward":1},"geometry":{"type":"Polygon","coordinates":[[[74.17854,16.40211],[74.18256,16.40544],[74.1837,16.4062],[74.18534,16.40698],[74.18663,16.40715],[74.18729,16.4069],[74.18819,16.40538],[74.1891,16.40519],[74.19053,16.40585],[74.19141,16.40678],[74.19246,16.40757],[74.19412,16.40869],[74.19528,16.40928],[74.19483,16.40853],[74.19454,16.40501],[74.19464,16.40282],[74.19504,16.40235],[74.19552,16.39909],[74.19402,16.39813],[74.19408,16.39799],[74.19209,16.39759],[74.19209,16.3974],[74.191,16.39717],[74.19117,16.39673],[74.1893,16.39629],[74.18721,16.39615],[74.18681,16.3969],[74.18648,16.39846],[74.18537,16.39836],[74.18496,16.39984],[74.18429,16.4014],[74.17958,16.40111],[74.17854,16.40211]]]}},{"type":"Feature","bbox":[74.17753,16.39196,74.193,16.40209],"properties":{"ward":2},"geometry":{"type":"Polygon","coordinates":[[[74.193,16.39464],[74.19063,16.394],[74.19058,16.39436],[74.1896,16.39373],[74.18892,16.3935],[74.18855,16.39382],[74.18715,16.39359],[74.18711,16.39426],[74.18735,16.39502],[74.18512,16.39442],[74.1855,16.3937],[74.18401,16.39288],[74.18382,16.3934],[74.18294,16.39314],[74.18325,16.39235],[74.18165,16.39216],[74.18035,16.3923],[74.17805,16.39196],[74.1779,16.39355],[74.17753,16.39479],[74.17775,16.40104],[74.17805,16.40163],[74.1785,16.40209],[74.17958,16.40108],[74.18427,16.40137],[74.18537,16.39835],[74.18646,16.39844],[74.1868,16.39687],[74.1872,16.39613],[74.18949,16.39631],[74.19121,16.39673],[74.19101,16.39716],[74.19209,16.39742],[74.19247,16.39769],[74.193,16.39464]]]}},{"type":"Feature","bbox":[74.17806,16.38213,74.19569,16.39501],"properties":{"ward":3},"geometry":{"type":"Polygon","coordinates":[[[74.19314,16.38945],[74.19507,16.38664],[74.19569,16.38673],[74.19552,16.38568],[74.19563,16.38463],[74.1954,16.3849],[74.1949,16.38436],[74.19415,16.38473],[74.19367,16.38438],[74.19238,16.38417],[74.19212,16.38366],[74.19118,16.38381],[74.19009,16.38369],[74.18951,16.38336],[74.18915,16.38286],[74.18822,16.38274],[74.18812,16.38232],[74.18666,16.38213],[74.18592,16.3829],[74.18457,16.38342],[74.18409,16.38418],[74.18266,16.38509],[74.18175,16.38625],[74.18136,16.38744],[74.18154,16.3888],[74.18136,16.38945],[74.18104,16.38979],[74.17923,16.39045],[74.17848,16.39089],[74.1782,16.39121],[74.17806,16.39194],[74.18035,16.39228],[74.18171,16.39214],[74.18326,16.39235],[74.18294,16.39313],[74.18381,16.3934],[74.184,16.39288],[74.1855,16.39369],[74.18513,16.39442],[74.18734,16.39501],[74.1871,16.39426],[74.18713,16.39357],[74.18854,16.39381],[74.18892,16.39348],[74.19061,16.39385],[74.19089,16.39234],[74.19182,16.3907],[74.19191,16.39027],[74.19208,16.39003],[74.19277,16.39024],[74.19314,16.38945]]]}},{"type":"Feature","bbox":[74.18969,16.36076,74.22632,16.39797],"properties":{"ward":4},"geometry":{"type":"Polygon","coordinates":[[[74.20095,16.3906],[74.20168,16.38967],[74.20239,16.39027],[74.20429,16.38884],[74.2045,16.38853],[74.20468,16.38722],[74.20492,16.38689],[74.20541,16.38665],[74.206,16.38705],[74.20626,16.38701],[74.20984,16.38436],[74.20991,16.38425],[74.2094,16.38367],[74.21087,16.38149],[74.21128,16.38057],[74.21316,16.3812],[74.21353,16.3798],[74.21443,16.3793],[74.21433,16.37855],[74.21447,16.37793],[74.21478,16.37787],[74.21501,16.37731],[74.21553,16.37678],[74.21549,16.37634],[74.21576,16.3759],[74.21638,16.37531],[74.21754,16.37447],[74.21921,16.37365],[74.22136,16.37221],[74.22202,16.37216],[74.22239,16.37233],[74.22283,16.3729],[74.22379,16.37217],[74.22491,16.3717],[74.22518,16.37113],[74.22569,16.37093],[74.22579,16.37057],[74.22546,16.37023],[74.22588,16.36996],[74.22632,16.36933],[74.22632,16.36902],[74.22605,16.36879],[74.22359,16.36811],[74.22298,16.36775],[74.22211,16.36683],[74.22146,16.36647],[74.21885,16.36631],[74.21855,16.36536],[74.21868,16.36403],[74.21757,16.36322],[74.2167,16.36301],[74.2155,16.36297],[74.21507,16.36271],[74.21435,16.36076],[74.21284,16.36274],[74.21205,16.36551],[74.21149,16.36633],[74.21038,16.36731],[74.21045,16.36754],[74.20971,16.36841],[74.20985,16.36934],[74.20977,16.36987],[74.20792,16.36963],[74.20738,16.36998],[74.20757,16.37038],[74.20609,16.37125],[74.20602,16.37144],[74.20541,16.37098],[74.20445,16.37187],[74.20421,16.37222],[74.20416,16.37282],[74.20362,16.37314],[74.20433,16.37379],[74.20339,16.37502],[74.20352,16.37579],[74.20284,16.37648],[74.20262,16.37717],[74.20203,16.37745],[74.20182,16.37773],[74.20165,16.37839],[74.20058,16.37896],[74.20058,16.37966],[74.20102,16.38031],[74.20061,16.38095],[74.20024,16.38138],[74.19928,16.3816],[74.19881,16.38223],[74.19799,16.38215],[74.19733,16.38293],[74.19594,16.38318],[74.19554,16.38567],[74.19568,16.38674],[74.19508,16.38666],[74.19341,16.3889],[74.19278,16.39025],[74.19208,16.39003],[74.19191,16.39026],[74.19183,16.39073],[74.19091,16.39237],[74.19064,16.39386],[74.18969,16.39376],[74.19057,16.39435],[74.19063,16.39398],[74.19303,16.39462],[74.1925,16.39768],[74.19404,16.39797],[74.19413,16.39778],[74.19437,16.39781],[74.1945,16.39715],[74.19476,16.39706],[74.19622,16.39725],[74.19627,16.39742],[74.19649,16.39741],[74.1966,16.39567],[74.1971,16.39515],[74.1972,16.39471],[74.19761,16.39427],[74.19777,16.39362],[74.19939,16.39381],[74.19947,16.392],[74.20031,16.39202],[74.20037,16.39127],[74.20015,16.39104],[74.20095,16.3906]]]}}]}