{"type":"FeatureCollection","features":[{"type":"Feature","bbox":[78.53363,19.68409,78.54074,19.69539],"properties":{"ward":1,"name":"Part Of Mahalaxmiwada, Jai Jawan Nagar"},"geometry":{"type":"Polygon","coordinates":[[[78.53979,19.68409],[78.53921,19.68427],[78.53941,19.68462],[78.53886,19.68491],[78.53862,19.6846],[78.53775,19.68513],[78.53379,19.68648],[78.53414,19.68762],[78.53363,19.69184],[78.53374,19.69369],[78.5342,19.6939],[78.53591,19.69419],[78.53615,19.69396],[78.53685,19.69394],[78.53745,19.6942],[78.53764,19.69457],[78.53849,19.69497],[78.53864,19.69539],[78.54023,19.69372],[78.54046,19.69262],[78.54012,19.69187],[78.54074,19.69101],[78.54017,19.69044],[78.54064,19.68723],[78.53985,19.68545],[78.53979,19.68409]]]}},{"type":"Feature","bbox":[78.53682,19.68409,78.54591,19.7037],"properties":{"ward":2,"name":"Part Of Mahalaxmiwada, Chilkurilaxmi Nagar."},"geometry":{"type":"Polygon","coordinates":[[[78.54411,19.68562],[78.54303,19.6858],[78.54213,19.68494],[78.53979,19.68409],[78.53985,19.68545],[78.54064,19.68723],[78.54017,19.69044],[78.54074,19.69101],[78.54012,19.69187],[78.54046,19.69262],[78.54023,19.69372],[78.53834,19.6957],[78.53739,19.69591],[78.53706,19.69629],[78.53682,19.69693],[78.53773,19.69766],[78.53853,19.70164],[78.54287,19.7037],[78.54509,19.70212],[78.54591,19.69974],[78.54453,19.69462],[78.54411,19.68562]]]}},{"type":"Feature","bbox":[78.53968,19.68024,78.56959,19.71362],"properties":{"ward":3,"name":"Tirpelly, Gdc, Cci Township"},"geometry":{"type":"Polygon","coordinates":[[[78.5662,19.68601],[78.54879,19.68168],[78.54518,19.68063],[78.5439,19.68088],[78.54236,19.68081],[78.54228,19.68061],[78.54179,19.6807],[78.54172,19.68053],[78.54079,19.68065],[78.54068,19.68024],[78.53976,19.68024],[78.53968,19.68104],[78.54402,19.68384],[78.54453,19.69462],[78.54591,19.69974],[78.54509,19.70212],[78.54287,19.7037],[78.5458,19.70696],[78.54738,19.70782],[78.54861,19.70788],[78.55281,19.70666],[78.55495,19.70723],[78.55717,19.70828],[78.55671,19.70961],[78.55491,19.71131],[78.55457,19.71298],[78.55535,19.71362],[78.56139,19.71241],[78.56013,19.70982],[78.56055,19.70876],[78.5604,19.70727],[78.56065,19.70402],[78.5637,19.70502],[78.56418,19.70353],[78.56555,19.70282],[78.56862,19.69595],[78.56959,19.69349],[78.5662,19.68601]]]}},{"type":"Feature","bbox":[78.55147,19.65453,78.58279,19.68827],"properties":{"ward":4,"name":"Anukunta, Bangariguda"},"geometry":{"type":"Polygon","coordinates":[[[78.56654,19.66292],[78.56426,19.66491],[78.55909,19.66479],[78.55481,19.66999],[78.55602,19.67543],[78.55147,19.68236],[78.5662,19.68601],[78.57389,19.68827],[78.57666,19.68772],[78.57854,19.6846],[78.58086,19.68117],[78.5827,19.67913],[78.58279,19.67502],[78.58167,19.66201],[78.58081,19.65587],[78.57452,19.65453],[78.56654,19.66292]]]}},{"type":"Feature","bbox":[78.53684,19.65567,78.56654,19.66999],"properties":{"ward":5,"name":"Sri Ram Colony, New Kummariwada"},"geometry":{"type":"Polygon","coordinates":[[[78.56654,19.66292],[78.55996,19.65655],[78.55316,19.65997],[78.55163,19.65567],[78.54728,19.65711],[78.54505,19.65661],[78.54434,19.65865],[78.53684,19.66083],[78.54221,19.66253],[78.54146,19.66385],[78.54282,19.66397],[78.54391,19.66383],[78.54467,19.66535],[78.54579,19.6683],[78.54896,19.66977],[78.55481,19.66999],[78.55909,19.66479],[78.56426,19.66491],[78.56654,19.66292]]]}},{"type":"Feature","bbox":[78.53259,19.64332,78.55996,19.6606],"properties":{"ward":6,"name":"Indramma Colony, Phc Colony, Brundavan Colony"},"geometry":{"type":"Polygon","coordinates":[[[78.55996,19.65655],[78.55975,19.65635],[78.55916,19.6531],[78.55622,19.64943],[78.55499,19.64395],[78.55182,19.64332],[78.54363,19.64376],[78.54333,19.64612],[78.54207,19.6479],[78.54224,19.64954],[78.54121,19.64978],[78.54097,19.64967],[78.54007,19.65028],[78.5395,19.64963],[78.53876,19.64921],[78.53792,19.64923],[78.5362,19.64959],[78.53259,19.65073],[78.53757,19.6606],[78.54434,19.65865],[78.54505,19.65661],[78.54728,19.65711],[78.55163,19.65567],[78.55316,19.65997],[78.55996,19.65655]]]}},{"type":"Feature","bbox":[78.5362,19.64097,78.54363,19.65028],"properties":{"ward":7,"name":"Part Of Krk Colony (North Side)."},"geometry":{"type":"Polygon","coordinates":[[[78.54238,19.64162],[78.54018,19.64155],[78.53949,19.64097],[78.53819,19.64158],[78.5373,19.64309],[78.53621,19.64626],[78.5362,19.64959],[78.53792,19.64923],[78.53876,19.64921],[78.5395,19.64963],[78.54007,19.65028],[78.54097,19.64967],[78.54121,19.64978],[78.54224,19.64954],[78.54207,19.6479],[78.54333,19.64612],[78.54363,19.64376],[78.54238,19.64162]]]}},{"type":"Feature","bbox":[78.52692,19.63926,78.54238,19.65073],"properties":{"ward":8,"name":"Part Of Krk Colony (South Side)."},"geometry":{"type":"Polygon","coordinates":[[[78.5362,19.64959],[78.53621,19.64626],[78.5373,19.64309],[78.53819,19.64158],[78.53949,19.64097],[78.54018,19.64155],[78.54238,19.64162],[78.54197,19.6409],[78.53958,19.63926],[78.52692,19.63928],[78.52695,19.64987],[78.53045,19.64986],[78.53115,19.64911],[78.53186,19.64919],[78.53259,19.65073],[78.5362,19.64959]]]}},{"type":"Feature","bbox":[78.50959,19.6356,78.52699,19.6562],"properties":{"ward":9,"name":"Durga Nagar, Khoja Colony, Shankargutta"},"geometry":{"type":"Polygon","coordinates":[[[78.52482,19.65401],[78.52548,19.65387],[78.5257,19.65326],[78.52557,19.65207],[78.52648,19.6514],[78.52699,19.65143],[78.52692,19.63928],[78.52405,19.63928],[78.52066,19.6356],[78.51715,19.63602],[78.51523,19.63704],[78.51327,19.6364],[78.5111,19.63737],[78.50959,19.63931],[78.518,19.64901],[78.52045,19.65205],[78.52273,19.6562],[78.52341,19.65585],[78.52401,19.65605],[78.52415,19.65581],[78.52373,19.65489],[78.52384,19.65392],[78.52482,19.65401]]]}},{"type":"Feature","bbox":[78.51783,19.65205,78.52273,19.65687],"properties":{"ward":10,"name":"Part Of Ram Nagar (North Side)"},"geometry":{"type":"Polygon","coordinates":[[[78.52273,19.6562],[78.52045,19.65205],[78.51783,19.65374],[78.51835,19.65485],[78.51976,19.65444],[78.52041,19.65627],[78.52021,19.65654],[78.5211,19.65687],[78.52273,19.6562]]]}},{"type":"Feature","bbox":[78.51655,19.64901,78.52045,19.65374],"properties":{"ward":11,"name":"Part Of Ram Nagar &Amp; Ram Nagar Quarters"},"geometry":{"type":"Polygon","coordinates":[[[78.52045,19.65205],[78.518,19.64901],[78.51655,19.64988],[78.51705,19.65065],[78.51752,19.65193],[78.51721,19.65209],[78.51783,19.65374],[78.52045,19.65205]]]}},{"type":"Feature","bbox":[78.50182,19.63931,78.52041,19.6685],"properties":{"ward":12,"name":"Housing Board 1St Zone, 2Nd Zone, 3Rd Zone"},"geometry":{"type":"Polygon","coordinates":[[[78.51413,19.6657],[78.51254,19.66322],[78.5131,19.66336],[78.51347,19.66328],[78.51322,19.66292],[78.51387,19.6605],[78.51389,19.65831],[78.51934,19.65764],[78.51894,19.65697],[78.5192,19.65634],[78.52021,19.65654],[78.52041,19.65627],[78.51976,19.65444],[78.51835,19.65485],[78.51721,19.65209],[78.51752,19.65193],[78.51705,19.65065],[78.51655,19.64988],[78.518,19.64901],[78.50959,19.63931],[78.50467,19.64112],[78.5035,19.64889],[78.50228,19.65966],[78.50182,19.66611],[78.50719,19.66736],[78.51085,19.6685],[78.51076,19.66746],[78.51118,19.6669],[78.51229,19.66638],[78.51316,19.66641],[78.51362,19.6658],[78.51413,19.6657]]]}},{"type":"Feature","bbox":[78.51254,19.65764,78.52256,19.66583],"properties":{"ward":13,"name":"Subash Nagar, Part Of Teachers Colony"},"geometry":{"type":"Polygon","coordinates":[[[78.5218,19.66361],[78.52035,19.66082],[78.5182,19.66227],[78.51772,19.66175],[78.51906,19.65968],[78.51954,19.65808],[78.51934,19.65764],[78.51389,19.65831],[78.51387,19.6605],[78.51322,19.66292],[78.51347,19.66328],[78.5131,19.66336],[78.51254,19.66322],[78.51413,19.6657],[78.5149,19.66562],[78.51755,19.66424],[78.51868,19.66547],[78.51927,19.66473],[78.52022,19.66583],[78.52256,19.66461],[78.5218,19.66361]]]}},{"type":"Feature","bbox":[78.50182,19.66424,78.52024,19.67175],"properties":{"ward":14,"name":"Part Of Sanjay Nagar, Lbs Nagar"},"geometry":{"type":"Polygon","coordinates":[[[78.51899,19.67175],[78.52024,19.67059],[78.51898,19.66848],[78.51926,19.66839],[78.51964,19.66603],[78.51874,19.66614],[78.51886,19.66573],[78.51755,19.66424],[78.5149,19.66562],[78.51362,19.6658],[78.51316,19.66641],[78.51229,19.66638],[78.51118,19.6669],[78.51076,19.66746],[78.51085,19.6685],[78.50719,19.66736],[78.50182,19.66611],[78.50331,19.67076],[78.51543,19.67106],[78.51739,19.67132],[78.51899,19.67175]]]}},{"type":"Feature","bbox":[78.50331,19.67076,78.52025,19.67848],"properties":{"ward":15,"name":"Part Of Sundaraiah Nagar, Neela Nagar"},"geometry":{"type":"Polygon","coordinates":[[[78.51899,19.67175],[78.51739,19.67132],[78.51543,19.67106],[78.50331,19.67076],[78.5042,19.67354],[78.50457,19.67366],[78.50678,19.67732],[78.51107,19.6772],[78.51444,19.67813],[78.51649,19.67819],[78.51756,19.67738],[78.51807,19.67801],[78.51916,19.6774],[78.51969,19.67848],[78.52025,19.67692],[78.52001,19.67595],[78.51955,19.67587],[78.51987,19.67405],[78.51855,19.6732],[78.51899,19.67175]]]}},{"type":"Feature","bbox":[78.51955,19.67405,78.52843,19.6809],"properties":{"ward":16,"name":"Part Of Indra Nagar, Part Of Sundaraiah Nagar"},"geometry":{"type":"Polygon","coordinates":[[[78.51969,19.67848],[78.52047,19.67984],[78.52285,19.67856],[78.52463,19.6783],[78.52473,19.67863],[78.52589,19.67953],[78.52603,19.68062],[78.52647,19.6809],[78.5266,19.68072],[78.52689,19.68068],[78.52684,19.67967],[78.52843,19.67744],[78.52814,19.6767],[78.52762,19.6767],[78.52726,19.67763],[78.52619,19.67698],[78.52526,19.67729],[78.51987,19.67405],[78.51955,19.67587],[78.52001,19.67595],[78.52025,19.67692],[78.51969,19.67848]]]}},{"type":"Feature","bbox":[78.5001,19.67354,78.52047,19.69459],"properties":{"ward":17,"name":"Khursheed Nagar, Rampoor."},"geometry":{"type":"Polygon","coordinates":[[[78.5161,19.69153],[78.51487,19.68999],[78.51076,19.68756],[78.50898,19.68836],[78.50804,19.68782],[78.50573,19.6877],[78.50545,19.68656],[78.50599,19.68574],[78.50879,19.68449],[78.51382,19.68265],[78.51616,19.68294],[78.52047,19.67984],[78.51916,19.6774],[78.51807,19.67801],[78.51756,19.67738],[78.51649,19.67819],[78.51444,19.67813],[78.51107,19.6772],[78.50678,19.67732],[78.50457,19.67366],[78.5042,19.67354],[78.50249,19.67953],[78.5006,19.68449],[78.50022,19.687],[78.50027,19.68832],[78.5001,19.68895],[78.5006,19.69189],[78.50245,19.69366],[78.5049,19.69414],[78.50551,19.69459],[78.50861,19.69427],[78.51185,19.6933],[78.5161,19.69153]]]}},{"type":"Feature","bbox":[78.50545,19.68265,78.5212,19.69173],"properties":{"ward":18,"name":"Ranadheeve Nagar"},"geometry":{"type":"Polygon","coordinates":[[[78.5212,19.68988],[78.51972,19.68903],[78.51965,19.68875],[78.52053,19.68857],[78.52093,19.68788],[78.52075,19.68713],[78.51768,19.68608],[78.51776,19.6856],[78.51824,19.68513],[78.51945,19.68537],[78.51985,19.68523],[78.51987,19.68485],[78.51968,19.6845],[78.51773,19.68342],[78.51614,19.68411],[78.51598,19.68363],[78.51616,19.68294],[78.51382,19.68265],[78.50879,19.68449],[78.50599,19.68574],[78.50545,19.68656],[78.50573,19.6877],[78.50804,19.68782],[78.50898,19.68836],[78.51076,19.68756],[78.51487,19.68999],[78.5161,19.69153],[78.51678,19.6906],[78.51726,19.69049],[78.51789,19.69064],[78.51831,19.69173],[78.51929,19.69173],[78.51959,19.69092],[78.51999,19.69069],[78.52084,19.69068],[78.5212,19.68988]]]}},{"type":"Feature","bbox":[78.51598,19.6783,78.52885,19.69092],"properties":{"ward":19,"name":"Part Of Indira Nagar, Gandhi Nagar, Varalaxmi"},"geometry":{"type":"Polygon","coordinates":[[[78.52885,19.68788],[78.52785,19.6838],[78.52806,19.68216],[78.52856,19.6807],[78.52779,19.68027],[78.5266,19.68072],[78.52647,19.6809],[78.52603,19.68062],[78.52589,19.67953],[78.52473,19.67863],[78.52463,19.6783],[78.52285,19.67856],[78.52047,19.67984],[78.51616,19.68294],[78.51598,19.68363],[78.51614,19.68411],[78.51773,19.68342],[78.51968,19.6845],[78.51987,19.68485],[78.51985,19.68523],[78.51945,19.68537],[78.51824,19.68513],[78.51776,19.6856],[78.51768,19.68608],[78.52075,19.68713],[78.52093,19.68788],[78.52053,19.68857],[78.51965,19.68875],[78.51972,19.68903],[78.5212,19.68988],[78.52161,19.68969],[78.52236,19.68971],[78.52229,19.69061],[78.52247,19.69092],[78.52487,19.69042],[78.52624,19.68983],[78.5268,19.68946],[78.52757,19.68849],[78.52885,19.68788]]]}},{"type":"Feature","bbox":[78.52785,19.6807,78.53242,19.68517],"properties":{"ward":20,"name":"Indira Nagar, Hamali Wada, Chand Nagar"},"geometry":{"type":"Polygon","coordinates":[[[78.53242,19.68327],[78.5322,19.68242],[78.53146,19.6825],[78.52856,19.6807],[78.52806,19.68216],[78.52785,19.6838],[78.52814,19.68517],[78.5312,19.68427],[78.53108,19.68372],[78.53242,19.68327]]]}},{"type":"Feature","bbox":[78.52814,19.68327,78.53434,19.69241],"properties":{"ward":21,"name":"Part Of Kranthi Nagar, Part Of Tilak Nagar"},"geometry":{"type":"Polygon","coordinates":[[[78.53363,19.69184],[78.53414,19.68762],[78.53379,19.68648],[78.53434,19.6863],[78.53403,19.68533],[78.53315,19.68556],[78.53242,19.68327],[78.53108,19.68372],[78.5312,19.68427],[78.52814,19.68517],[78.52885,19.68788],[78.52912,19.68775],[78.52955,19.68787],[78.52983,19.68829],[78.52963,19.69037],[78.52985,19.69165],[78.53054,19.69221],[78.5314,19.69241],[78.53208,19.69203],[78.53251,19.69153],[78.53314,19.69146],[78.53363,19.69184]]]}},{"type":"Feature","bbox":[78.53236,19.68124,78.53546,19.6863],"properties":{"ward":22,"name":"Part Of Kranthi Nagar, Part Of Tatiguda"},"geometry":{"type":"Polygon","coordinates":[[[78.53546,19.68598],[78.5349,19.68501],[78.53467,19.68426],[78.53515,19.68418],[78.53499,19.68398],[78.5349,19.68305],[78.535,19.68267],[78.53545,19.68255],[78.53532,19.68154],[78.53495,19.68124],[78.53302,19.68201],[78.53319,19.68228],[78.53295,19.68255],[78.53301,19.68268],[78.53236,19.68291],[78.53315,19.68556],[78.53403,19.68533],[78.53434,19.6863],[78.53546,19.68598]]]}},{"type":"Feature","bbox":[78.53467,19.68154,78.53979,19.68598],"properties":{"ward":23,"name":"Part Of Mahalaxmiwada, Part Of Tatiguda"},"geometry":{"type":"Polygon","coordinates":[[[78.53979,19.68409],[78.53609,19.68188],[78.53532,19.68154],[78.53545,19.68255],[78.535,19.68267],[78.5349,19.68305],[78.53499,19.68398],[78.53515,19.68418],[78.53467,19.68426],[78.5349,19.68501],[78.53546,19.68598],[78.53775,19.68513],[78.53862,19.6846],[78.53886,19.68491],[78.53941,19.68462],[78.53921,19.68427],[78.53979,19.68409]]]}},{"type":"Feature","bbox":[78.52684,19.67651,78.54411,19.6858],"properties":{"ward":24,"name":"Part Of Tatiguda, Bhagya Nagar, Gunj Road"},"geometry":{"type":"Polygon","coordinates":[[[78.54411,19.68562],[78.54402,19.68384],[78.53881,19.68048],[78.53216,19.67651],[78.52843,19.67744],[78.52684,19.67967],[78.52689,19.68068],[78.52779,19.68027],[78.53146,19.6825],[78.5322,19.68242],[78.53236,19.68291],[78.53301,19.68268],[78.53295,19.68255],[78.53319,19.68228],[78.53302,19.68201],[78.53495,19.68124],[78.53979,19.68409],[78.54213,19.68494],[78.54303,19.6858],[78.54411,19.68562]]]}},{"type":"Feature","bbox":[78.53556,19.67726,78.53974,19.68104],"properties":{"ward":25,"name":"Part Of Brahmanwada"},"geometry":{"type":"Polygon","coordinates":[[[78.53968,19.68104],[78.53974,19.67857],[78.53945,19.67734],[78.53863,19.67797],[78.53838,19.67733],[78.53812,19.67726],[78.53556,19.6776],[78.53706,19.67943],[78.53968,19.68104]]]}},{"type":"Feature","bbox":[78.53958,19.67769,78.54228,19.68065],"properties":{"ward":26,"name":"Qilla, Parkota, Bada Talab, Part Of Badka Mohalla"},"geometry":{"type":"Polygon","coordinates":[[[78.54091,19.67769],[78.53958,19.67811],[78.53974,19.67857],[78.53976,19.68024],[78.54068,19.68024],[78.54079,19.68065],[78.54228,19.68061],[78.54202,19.67954],[78.54091,19.67769]]]}},{"type":"Feature","bbox":[78.53733,19.67203,78.54112,19.67811],"properties":{"ward":27,"name":"Kolipura, Brahmanwada, Part Of Badka Mohalla"},"geometry":{"type":"Polygon","coordinates":[[[78.53958,19.67811],[78.54112,19.6776],[78.54037,19.67591],[78.5402,19.675],[78.5407,19.6748],[78.54089,19.67416],[78.54001,19.67417],[78.53995,19.67392],[78.54034,19.67388],[78.54018,19.67346],[78.53878,19.67389],[78.53833,19.67315],[78.53833,19.67203],[78.53733,19.67208],[78.53832,19.675],[78.53945,19.67734],[78.53958,19.67811]]]}},{"type":"Feature","bbox":[78.53599,19.67016,78.54199,19.67417],"properties":{"ward":28,"name":"Part Of Kolipura, Part Of Bokklalguda, Sc Colony"},"geometry":{"type":"Polygon","coordinates":[[[78.54089,19.67416],[78.54097,19.67395],[78.54058,19.67329],[78.54125,19.67275],[78.54133,19.67205],[78.54196,19.67174],[78.54199,19.67042],[78.5383,19.67016],[78.53599,19.67037],[78.53733,19.67208],[78.53833,19.67203],[78.53833,19.67315],[78.53878,19.67389],[78.54018,19.67346],[78.54034,19.67388],[78.53995,19.67392],[78.54001,19.67417],[78.54089,19.67416]]]}},{"type":"Feature","bbox":[78.54181,19.66986,78.54551,19.67285],"properties":{"ward":29,"name":"Part Of Bokkalaguda, Part Of Khanapur"},"geometry":{"type":"Polygon","coordinates":[[[78.54551,19.67227],[78.54532,19.67177],[78.54479,19.67186],[78.54479,19.67136],[78.54435,19.67136],[78.54435,19.66986],[78.54275,19.67002],[78.54181,19.67042],[78.54348,19.67026],[78.54287,19.6712],[78.54279,19.67282],[78.54436,19.67285],[78.54438,19.6722],[78.54551,19.67227]]]}},{"type":"Feature","bbox":[78.5402,19.67026,78.54786,19.68088],"properties":{"ward":30,"name":"Part Of Khanapur, Part Of Ambedkar Nagar"},"geometry":{"type":"Polygon","coordinates":[[[78.5439,19.68088],[78.54503,19.6806],[78.54585,19.67946],[78.54653,19.67814],[78.54672,19.67706],[78.546,19.67553],[78.54596,19.67455],[78.54786,19.6749],[78.54779,19.67324],[78.54624,19.67343],[78.54624,19.67323],[78.54558,19.67319],[78.54551,19.67227],[78.54438,19.6722],[78.54436,19.67285],[78.54279,19.67282],[78.54287,19.6712],[78.54348,19.67026],[78.54252,19.67028],[78.54199,19.67042],[78.54196,19.67174],[78.54133,19.67205],[78.54125,19.67275],[78.54058,19.67329],[78.54097,19.67395],[78.5407,19.6748],[78.5402,19.675],[78.54037,19.67591],[78.54112,19.6776],[78.54091,19.67769],[78.54202,19.67954],[78.54236,19.68081],[78.5439,19.68088]]]}},{"type":"Feature","bbox":[78.54435,19.66976,78.55394,19.68236],"properties":{"ward":31,"name":"Part Of Khanapur, Part Of Ambedkar Nagar"},"geometry":{"type":"Polygon","coordinates":[[[78.55394,19.67855],[78.55139,19.6757],[78.54763,19.67022],[78.5453,19.66976],[78.54435,19.66986],[78.54435,19.67136],[78.54479,19.67136],[78.54479,19.67186],[78.54532,19.67177],[78.54551,19.67227],[78.54558,19.67319],[78.54624,19.67323],[78.54624,19.67343],[78.54779,19.67324],[78.54786,19.6749],[78.54596,19.67455],[78.546,19.67553],[78.54672,19.67706],[78.54653,19.67814],[78.54585,19.67946],[78.54503,19.6806],[78.54466,19.68073],[78.54518,19.68063],[78.55147,19.68236],[78.55394,19.67855]]]}},{"type":"Feature","bbox":[78.54144,19.66672,78.55602,19.67855],"properties":{"ward":32,"name":"Dhangar Galli, Sweepar Colony, Sonar Gally"},"geometry":{"type":"Polygon","coordinates":[[[78.55481,19.66999],[78.54896,19.66977],[78.54574,19.66817],[78.545,19.66829],[78.54508,19.66866],[78.54383,19.66869],[78.54316,19.66677],[78.54258,19.66672],[78.54244,19.66791],[78.54173,19.66787],[78.54144,19.66848],[78.54169,19.66941],[78.54221,19.67025],[78.54275,19.67002],[78.5453,19.66976],[78.54763,19.67022],[78.55139,19.6757],[78.55394,19.67855],[78.55602,19.67543],[78.55481,19.66999]]]}},{"type":"Feature","bbox":[78.54205,19.66383,78.54574,19.66869],"properties":{"ward":33,"name":"Abubakar Masjid Area, Shanthi Nagar"},"geometry":{"type":"Polygon","coordinates":[[[78.54574,19.66817],[78.54467,19.66535],[78.54391,19.66383],[78.54206,19.66392],[78.54205,19.66546],[78.5427,19.66548],[78.54262,19.66608],[78.54337,19.66648],[78.54316,19.66677],[78.54383,19.66869],[78.54508,19.66866],[78.545,19.66829],[78.54574,19.66817]]]}},{"type":"Feature","bbox":[78.53866,19.66543,78.54337,19.67042],"properties":{"ward":34,"name":"Part Of Shanthi Nagar, Venkat Rao Colony"},"geometry":{"type":"Polygon","coordinates":[[[78.54221,19.67025],[78.54169,19.66941],[78.54144,19.66848],[78.54173,19.66787],[78.54244,19.66791],[78.54258,19.66672],[78.54316,19.66677],[78.54337,19.66648],[78.54262,19.66608],[78.54262,19.66582],[78.54164,19.6659],[78.54143,19.66556],[78.5409,19.66561],[78.54052,19.66543],[78.53988,19.66628],[78.53917,19.66761],[78.53866,19.66804],[78.5397,19.66944],[78.53966,19.67024],[78.54181,19.67042],[78.54221,19.67025]]]}},{"type":"Feature","bbox":[78.53403,19.66083,78.5427,19.66804],"properties":{"ward":35,"name":"Shanthi Nagar, Collage Colony."},"geometry":{"type":"Polygon","coordinates":[[[78.54262,19.66582],[78.5427,19.66548],[78.54205,19.66546],[78.54206,19.66392],[78.54146,19.66385],[78.54221,19.66253],[78.53684,19.66083],[78.53403,19.66149],[78.53685,19.6654],[78.53788,19.66458],[78.53866,19.66804],[78.53917,19.66761],[78.53988,19.66628],[78.54052,19.66543],[78.5409,19.66561],[78.54143,19.66556],[78.54164,19.6659],[78.54262,19.66582]]]}},{"type":"Feature","bbox":[78.5344,19.6641,78.5397,19.67024],"properties":{"ward":36,"name":"Ravindra Nagar, Part Of Shanthi Nagar"},"geometry":{"type":"Polygon","coordinates":[[[78.53866,19.66804],[78.53788,19.66458],[78.53685,19.6654],[78.53615,19.6645],[78.53572,19.66474],[78.53525,19.66463],[78.53514,19.66432],[78.53478,19.6641],[78.5344,19.66447],[78.53483,19.66506],[78.5357,19.66826],[78.537,19.66752],[78.53767,19.66812],[78.53843,19.66819],[78.5383,19.67016],[78.53966,19.67024],[78.5397,19.66944],[78.53866,19.66804]]]}},{"type":"Feature","bbox":[78.5291,19.66149,78.53843,19.67038],"properties":{"ward":37,"name":"Old Hb Colony, Part Of Ravindra Nagar"},"geometry":{"type":"Polygon","coordinates":[[[78.53577,19.67038],[78.5383,19.67016],[78.53843,19.66819],[78.53767,19.66812],[78.537,19.66752],[78.5357,19.66826],[78.53483,19.66506],[78.5344,19.66447],[78.53478,19.6641],[78.53514,19.66432],[78.53525,19.66463],[78.53572,19.66474],[78.53615,19.6645],[78.53403,19.66149],[78.53212,19.66193],[78.5291,19.66428],[78.53051,19.66618],[78.53341,19.66816],[78.53577,19.67038]]]}},{"type":"Feature","bbox":[78.52599,19.65411,78.53757,19.66428],"properties":{"ward":38,"name":"Kailash Nagar, Shad Nagar, White Quarters"},"geometry":{"type":"Polygon","coordinates":[[[78.53212,19.66193],[78.53757,19.6606],[78.53429,19.65411],[78.53105,19.6553],[78.52921,19.65641],[78.52831,19.65677],[78.5275,19.65584],[78.52658,19.65651],[78.52785,19.65775],[78.52795,19.65941],[78.52776,19.65941],[78.52771,19.66019],[78.52599,19.66048],[78.5291,19.66428],[78.53212,19.66193]]]}},{"type":"Feature","bbox":[78.52469,19.64911,78.53429,19.65677],"properties":{"ward":39,"name":"Pittalwada, Part Of Dasnapur"},"geometry":{"type":"Polygon","coordinates":[[[78.53429,19.65411],[78.53186,19.64919],[78.53115,19.64911],[78.53045,19.64986],[78.52695,19.64987],[78.52699,19.65143],[78.52648,19.6514],[78.52557,19.65207],[78.5257,19.65326],[78.52548,19.65387],[78.52482,19.65401],[78.52499,19.6546],[78.52469,19.65471],[78.52509,19.65551],[78.52629,19.65456],[78.52637,19.65406],[78.52802,19.65476],[78.5275,19.65584],[78.52831,19.65677],[78.52921,19.65641],[78.53105,19.6553],[78.53429,19.65411]]]}},{"type":"Feature","bbox":[78.52273,19.65392,78.52802,19.66048],"properties":{"ward":40,"name":"Dhobi Colony, Part Of Dasnapur."},"geometry":{"type":"Polygon","coordinates":[[[78.5275,19.65584],[78.52802,19.65476],[78.52637,19.65406],[78.52629,19.65456],[78.52509,19.65551],[78.52469,19.65471],[78.52499,19.6546],[78.52482,19.65401],[78.52384,19.65392],[78.52373,19.65489],[78.52415,19.65581],[78.52401,19.65605],[78.52341,19.65585],[78.52273,19.6562],[78.52306,19.65685],[78.52599,19.66048],[78.52771,19.66019],[78.52776,19.65941],[78.52795,19.65941],[78.52785,19.65775],[78.52658,19.65651],[78.5275,19.65584]]]}},{"type":"Feature","bbox":[78.51772,19.6562,78.52612,19.66361],"properties":{"ward":41,"name":"Teachers Colony"},"geometry":{"type":"Polygon","coordinates":[[[78.52612,19.66067],[78.52306,19.65685],[78.52273,19.6562],[78.5211,19.65687],[78.5192,19.65634],[78.51894,19.65697],[78.51954,19.65808],[78.51906,19.65968],[78.51772,19.66175],[78.5182,19.66227],[78.52035,19.66082],[78.5218,19.66361],[78.52495,19.66193],[78.52544,19.66096],[78.52612,19.66067]]]}},{"type":"Feature","bbox":[78.51868,19.66067,78.5291,19.67059],"properties":{"ward":42,"name":"Filterbed Area, Rikshaw Colony, Part Of Sanjay"},"geometry":{"type":"Polygon","coordinates":[[[78.5291,19.66428],[78.52612,19.66067],[78.52544,19.66096],[78.52495,19.66193],[78.5218,19.66361],[78.52256,19.66461],[78.52022,19.66583],[78.51927,19.66473],[78.51907,19.66485],[78.51906,19.66511],[78.51868,19.66547],[78.51886,19.66573],[78.51874,19.66614],[78.51964,19.66603],[78.51926,19.66839],[78.51898,19.66848],[78.52024,19.67059],[78.5291,19.66428]]]}},{"type":"Feature","bbox":[78.51999,19.66428,78.53051,19.67279],"properties":{"ward":43,"name":"Part Of Vidya Nagar"},"geometry":{"type":"Polygon","coordinates":[[[78.52834,19.67023],[78.52988,19.66707],[78.53051,19.66618],[78.5291,19.66428],[78.51999,19.67077],[78.52349,19.67279],[78.52413,19.67188],[78.52407,19.67122],[78.52607,19.67229],[78.52843,19.67274],[78.52834,19.67023]]]}},{"type":"Feature","bbox":[78.51855,19.67077,78.53216,19.67763],"properties":{"ward":44,"name":"Part Of Bhuktapur, Part Of Sanjay Nagar"},"geometry":{"type":"Polygon","coordinates":[[[78.52843,19.67744],[78.53216,19.67651],[78.52901,19.67402],[78.52637,19.67443],[78.52478,19.67407],[78.52494,19.67356],[78.52298,19.6726],[78.51999,19.67077],[78.51899,19.67175],[78.51855,19.6732],[78.51987,19.67405],[78.52526,19.67729],[78.52619,19.67698],[78.52726,19.67763],[78.52762,19.6767],[78.52814,19.6767],[78.52843,19.67744]]]}},{"type":"Feature","bbox":[78.52965,19.67299,78.53422,19.67651],"properties":{"ward":45,"name":"Part Of Bhuktapur."},"geometry":{"type":"Polygon","coordinates":[[[78.53422,19.67598],[78.53333,19.67315],[78.53303,19.6733],[78.53235,19.6733],[78.53146,19.67299],[78.53066,19.67324],[78.52965,19.67452],[78.53216,19.67651],[78.53422,19.67598]]]}},{"type":"Feature","bbox":[78.53216,19.67337,78.53945,19.67943],"properties":{"ward":46,"name":"Part Of Brahmanwada, Part Of Chota Talab"},"geometry":{"type":"Polygon","coordinates":[[[78.53945,19.67734],[78.53832,19.675],[78.53776,19.67337],[78.53651,19.67341],[78.5375,19.67514],[78.53216,19.67651],[78.53706,19.67943],[78.53556,19.6776],[78.53812,19.67726],[78.53838,19.67733],[78.53863,19.67797],[78.53945,19.67734]]]}},{"type":"Feature","bbox":[78.53281,19.67037,78.53776,19.67598],"properties":{"ward":47,"name":"Old Kumarpet, Ranisathiji Colony"},"geometry":{"type":"Polygon","coordinates":[[[78.53776,19.67337],[78.53733,19.67208],[78.53599,19.67037],[78.53281,19.67123],[78.53422,19.67598],[78.5375,19.67514],[78.53651,19.67341],[78.53776,19.67337]]]}},{"type":"Feature","bbox":[78.52863,19.66618,78.53577,19.67172],"properties":{"ward":48,"name":"Part Of Mochigally, Hameedpura, Dwaraka Nagar"},"geometry":{"type":"Polygon","coordinates":[[[78.53109,19.67172],[78.53577,19.67038],[78.53341,19.66816],[78.53051,19.66618],[78.52988,19.66707],[78.52863,19.66958],[78.53102,19.67043],[78.53072,19.67114],[78.53109,19.67172]]]}},{"type":"Feature","bbox":[78.52349,19.66958,78.53333,19.67452],"properties":{"ward":49,"name":"Part Of Bhuktapur, Girls High School Area"},"geometry":{"type":"Polygon","coordinates":[[[78.53333,19.67315],[78.53281,19.67123],[78.53109,19.67172],[78.53072,19.67114],[78.53102,19.67043],[78.52863,19.66958],[78.52834,19.67023],[78.52843,19.67274],[78.52607,19.67229],[78.52407,19.67122],[78.52413,19.67188],[78.52349,19.67279],[78.52494,19.67356],[78.52478,19.67407],[78.52637,19.67443],[78.52901,19.67402],[78.52965,19.67452],[78.53066,19.67324],[78.53146,19.67299],[78.53235,19.6733],[78.53303,19.6733],[78.53333,19.67315]]]}}]}