{"type":"FeatureCollection","features":[{"type":"Feature","bbox":[73.46464,16.0597,73.47549,16.07412],"properties":{"ward":1,"name":"Dhuriwada"},"geometry":{"type":"Polygon","coordinates":[[[73.46464,16.06486],[73.46509,16.06634],[73.46523,16.06799],[73.46554,16.06822],[73.46597,16.06815],[73.46721,16.06899],[73.46788,16.06948],[73.46837,16.07026],[73.46797,16.07217],[73.46722,16.073],[73.46742,16.07394],[73.4686,16.07412],[73.46924,16.07404],[73.47085,16.07327],[73.47236,16.07182],[73.47468,16.07047],[73.47463,16.06966],[73.47405,16.06835],[73.4738,16.0679],[73.47327,16.06769],[73.47459,16.06805],[73.47549,16.06605],[73.47355,16.06507],[73.47246,16.06426],[73.47287,16.0634],[73.47231,16.06282],[73.47171,16.06352],[73.47121,16.06316],[73.47092,16.06351],[73.4702,16.06267],[73.46861,16.0597],[73.46822,16.06001],[73.46908,16.06165],[73.46884,16.06194],[73.4695,16.06321],[73.46887,16.06377],[73.46849,16.06311],[73.46464,16.06486]]]}},{"type":"Feature","bbox":[73.47002,16.05663,73.48628,16.07045],"properties":{"ward":2,"name":"Revtale"},"geometry":{"type":"Polygon","coordinates":[[[73.47471,16.07044],[73.47713,16.07006],[73.4798,16.07045],[73.47938,16.06919],[73.48005,16.06812],[73.48021,16.06648],[73.48044,16.06591],[73.4812,16.0658],[73.48152,16.0654],[73.48162,16.06502],[73.48131,16.06417],[73.4829,16.06002],[73.4838,16.05942],[73.48441,16.05951],[73.48468,16.0588],[73.48468,16.05836],[73.48628,16.0582],[73.48608,16.05742],[73.48407,16.05664],[73.48284,16.05757],[73.48266,16.05786],[73.48191,16.05771],[73.48067,16.05697],[73.47956,16.05663],[73.47559,16.05665],[73.47487,16.05839],[73.47149,16.06105],[73.47105,16.06097],[73.47078,16.06121],[73.47097,16.06145],[73.47002,16.06222],[73.47022,16.06268],[73.47092,16.06346],[73.47121,16.06315],[73.47171,16.06348],[73.4723,16.0628],[73.47289,16.06339],[73.47249,16.06427],[73.47363,16.06508],[73.47551,16.06604],[73.4746,16.06809],[73.47359,16.06779],[73.47407,16.0683],[73.47464,16.06967],[73.47471,16.07044]]]}},{"type":"Feature","bbox":[73.46211,16.05642,73.47556,16.065],"properties":{"ward":3,"name":"Bharad Kotewada"},"geometry":{"type":"Polygon","coordinates":[[[73.46822,16.06001],[73.46861,16.0597],[73.46999,16.06222],[73.47095,16.06145],[73.47076,16.0612],[73.47104,16.06097],[73.47149,16.06104],[73.47484,16.05839],[73.47556,16.05663],[73.47436,16.05642],[73.47149,16.05677],[73.46953,16.05758],[73.46692,16.05814],[73.46569,16.05894],[73.46459,16.05915],[73.46425,16.06052],[73.46389,16.0604],[73.46325,16.0609],[73.46291,16.06181],[73.46211,16.06315],[73.46415,16.065],[73.46851,16.06314],[73.46887,16.06377],[73.46948,16.06319],[73.46879,16.06191],[73.46906,16.06166],[73.46822,16.06001]]]}},{"type":"Feature","bbox":[73.45646,16.05366,73.46455,16.06321],"properties":{"ward":4,"name":"Medha Rajkot"},"geometry":{"type":"Polygon","coordinates":[[[73.46091,16.05796],[73.46182,16.05626],[73.46191,16.05577],[73.46049,16.05601],[73.45887,16.05568],[73.45846,16.05545],[73.45836,16.05507],[73.45854,16.0546],[73.4585,16.05381],[73.45814,16.05366],[73.45769,16.05381],[73.45743,16.05427],[73.4577,16.05771],[73.45737,16.05878],[73.45762,16.06014],[73.45725,16.06113],[73.45646,16.06171],[73.45656,16.06219],[73.45712,16.0624],[73.45835,16.06208],[73.45946,16.06216],[73.46107,16.0626],[73.46205,16.06321],[73.46288,16.06184],[73.46324,16.06089],[73.46388,16.06038],[73.46425,16.06049],[73.46455,16.05916],[73.46417,16.05852],[73.46293,16.0589],[73.46181,16.05904],[73.46091,16.05796]]]}},{"type":"Feature","bbox":[73.46093,16.05441,73.46894,16.05915],"properties":{"ward":5,"name":"Somwarpeth"},"geometry":{"type":"Polygon","coordinates":[[[73.46456,16.05915],[73.46568,16.05894],[73.46693,16.05812],[73.46894,16.05772],[73.46872,16.05737],[73.4689,16.05722],[73.46821,16.056],[73.46682,16.05595],[73.46665,16.05441],[73.46482,16.05523],[73.46193,16.05575],[73.46183,16.05625],[73.46093,16.05796],[73.46181,16.05903],[73.46293,16.05889],[73.46417,16.05851],[73.46456,16.05915]]]}},{"type":"Feature","bbox":[73.46665,16.05178,73.47505,16.05772],"properties":{"ward":6,"name":"Gavandiwada"},"geometry":{"type":"Polygon","coordinates":[[[73.46895,16.05772],[73.47148,16.05676],[73.47305,16.0549],[73.47505,16.05353],[73.47479,16.05312],[73.47355,16.05236],[73.47348,16.05262],[73.47307,16.05275],[73.47282,16.05243],[73.47246,16.05231],[73.47235,16.05257],[73.47265,16.0527],[73.47211,16.05348],[73.47131,16.05271],[73.46878,16.05178],[73.46843,16.05262],[73.46745,16.05404],[73.46665,16.05439],[73.46683,16.05595],[73.46822,16.056],[73.46891,16.05722],[73.46873,16.05737],[73.46895,16.05772]]]}},{"type":"Feature","bbox":[73.47151,16.04659,73.48832,16.05823],"properties":{"ward":7,"name":"Dewoolwada Aadvan"},"geometry":{"type":"Polygon","coordinates":[[[73.47151,16.05675],[73.47436,16.05638],[73.47563,16.05663],[73.47956,16.05662],[73.48069,16.05697],[73.48193,16.0577],[73.48266,16.05785],[73.48305,16.05737],[73.48406,16.05664],[73.48609,16.05741],[73.48628,16.05823],[73.48792,16.05788],[73.48773,16.05682],[73.48832,16.05518],[73.48786,16.05374],[73.48721,16.05331],[73.48743,16.05159],[73.48726,16.05144],[73.48775,16.04906],[73.48688,16.04903],[73.48688,16.04877],[73.48722,16.04839],[73.48657,16.04834],[73.48642,16.04808],[73.48657,16.04783],[73.48648,16.04771],[73.48548,16.04772],[73.48477,16.04706],[73.48368,16.04659],[73.4818,16.04817],[73.48111,16.04934],[73.48049,16.05001],[73.47911,16.05105],[73.4777,16.05195],[73.4772,16.05206],[73.47335,16.05467],[73.47151,16.05675]]]}},{"type":"Feature","bbox":[73.46878,16.04299,73.48368,16.05353],"properties":{"ward":8,"name":"Wairy Dandi"},"geometry":{"type":"Polygon","coordinates":[[[73.47211,16.05346],[73.47264,16.05271],[73.47233,16.05258],[73.47245,16.0523],[73.47329,16.05275],[73.47354,16.05235],[73.4748,16.05311],[73.47474,16.05322],[73.47507,16.05353],[73.47719,16.05205],[73.47769,16.05195],[73.48044,16.05003],[73.48109,16.04933],[73.4818,16.04816],[73.48368,16.04658],[73.48339,16.04634],[73.48296,16.04635],[73.48276,16.04594],[73.48304,16.0458],[73.48249,16.0452],[73.48262,16.04509],[73.48257,16.04482],[73.48193,16.04435],[73.48086,16.04534],[73.48017,16.0452],[73.47977,16.0449],[73.47995,16.04484],[73.47949,16.04445],[73.47953,16.04416],[73.4792,16.044],[73.47884,16.04319],[73.47817,16.04299],[73.47764,16.04354],[73.47796,16.04365],[73.47764,16.04396],[73.47749,16.04391],[73.47134,16.0464],[73.46879,16.04697],[73.4691,16.04831],[73.46925,16.05004],[73.46878,16.05177],[73.47131,16.05271],[73.47211,16.05346]]]}}]}