{"type":"FeatureCollection","features":[{"type":"Feature","bbox":[73.66687,18.73649,73.67972,18.74301],"properties":{"ward":1},"geometry":{"type":"MultiPolygon","coordinates":[[[[73.67345,18.73884],[73.67345,18.73883],[73.67345,18.73883],[73.67345,18.73884]]],[[[73.67345,18.73884],[73.67321,18.73868],[73.67297,18.73877],[73.67108,18.73649],[73.6687,18.73843],[73.66687,18.7393],[73.66706,18.73937],[73.66781,18.74133],[73.66976,18.7427],[73.6705,18.74301],[73.67144,18.74243],[73.67334,18.74237],[73.67411,18.74183],[73.67641,18.74178],[73.6777,18.74223],[73.6782,18.74282],[73.67972,18.74217],[73.67754,18.73967],[73.67529,18.73757],[73.67546,18.73738],[73.67524,18.73717],[73.67345,18.73884]]],[[[73.67345,18.73883],[73.67345,18.73883],[73.67345,18.73883],[73.67345,18.73883]]]]}},{"type":"Feature","bbox":[73.67108,18.72834,73.6823,18.74178],"properties":{"ward":2},"geometry":{"type":"Polygon","coordinates":[[[73.67963,18.74178],[73.68093,18.74142],[73.68207,18.74144],[73.6823,18.73918],[73.68104,18.73922],[73.68097,18.73871],[73.68092,18.73732],[73.68115,18.73715],[73.68132,18.73392],[73.67973,18.73372],[73.67954,18.73216],[73.67909,18.73218],[73.67785,18.73175],[73.67857,18.73089],[73.68059,18.7291],[73.68047,18.72834],[73.67806,18.7301],[73.67108,18.73639],[73.67304,18.73872],[73.67329,18.73868],[73.67346,18.73885],[73.67523,18.73714],[73.67548,18.73738],[73.67531,18.73754],[73.67756,18.73956],[73.67963,18.74178]]]}},{"type":"Feature","bbox":[73.68092,18.72532,73.6991,18.74522],"properties":{"ward":3},"geometry":{"type":"Polygon","coordinates":[[[73.6991,18.74506],[73.69317,18.7348],[73.69163,18.73155],[73.69129,18.73058],[73.69114,18.72671],[73.69068,18.72532],[73.68373,18.72713],[73.68422,18.72868],[73.68541,18.7289],[73.68425,18.7294],[73.68425,18.73118],[73.68594,18.73127],[73.68656,18.7325],[73.68784,18.73359],[73.6875,18.73447],[73.68132,18.73392],[73.68115,18.73715],[73.68092,18.73732],[73.68097,18.73871],[73.68104,18.73922],[73.6823,18.73918],[73.68207,18.74144],[73.68358,18.74158],[73.68515,18.74129],[73.68628,18.74207],[73.68687,18.74189],[73.68706,18.74208],[73.68728,18.74197],[73.68766,18.74243],[73.68788,18.74241],[73.68817,18.74184],[73.68859,18.74189],[73.68862,18.74228],[73.68939,18.74262],[73.69026,18.74267],[73.69077,18.74297],[73.6918,18.74293],[73.69297,18.74315],[73.6931,18.7434],[73.69387,18.74359],[73.69438,18.74396],[73.69454,18.74357],[73.6951,18.74371],[73.69616,18.74345],[73.69633,18.74381],[73.69784,18.74414],[73.69831,18.74522],[73.6991,18.74506]]]}},{"type":"Feature","bbox":[73.67785,18.72713,73.68784,18.73447],"properties":{"ward":4},"geometry":{"type":"Polygon","coordinates":[[[73.68784,18.73359],[73.68656,18.7325],[73.68594,18.73127],[73.68425,18.73118],[73.68425,18.7294],[73.68541,18.7289],[73.68422,18.72868],[73.68373,18.72713],[73.68231,18.72754],[73.68047,18.72834],[73.68059,18.7291],[73.67857,18.73089],[73.67785,18.73175],[73.67909,18.73218],[73.67954,18.73216],[73.67973,18.73372],[73.6875,18.73447],[73.68784,18.73359]]]}},{"type":"Feature","bbox":[73.67288,18.7207,73.68553,18.73298],"properties":{"ward":5},"geometry":{"type":"Polygon","coordinates":[[[73.67485,18.73298],[73.67957,18.72888],[73.6816,18.7278],[73.68372,18.72713],[73.68341,18.72594],[73.68533,18.72529],[73.68553,18.72449],[73.68514,18.72328],[73.68516,18.72288],[73.68472,18.72283],[73.68434,18.72175],[73.68329,18.72283],[73.68291,18.72151],[73.68305,18.721],[73.68118,18.7207],[73.68157,18.72347],[73.68066,18.72319],[73.68005,18.72324],[73.67952,18.72283],[73.67796,18.72338],[73.67848,18.72672],[73.6778,18.72649],[73.67718,18.72678],[73.67601,18.72652],[73.67561,18.72626],[73.67536,18.72628],[73.67503,18.72661],[73.67466,18.72651],[73.67448,18.7272],[73.67414,18.72724],[73.67443,18.72767],[73.67441,18.72794],[73.67288,18.72862],[73.67309,18.72965],[73.67289,18.72975],[73.67298,18.73092],[73.67288,18.73096],[73.6734,18.73272],[73.67442,18.73273],[73.67485,18.73298]]]}},{"type":"Feature","bbox":[73.65724,18.72839,73.67485,18.73917],"properties":{"ward":6},"geometry":{"type":"Polygon","coordinates":[[[73.66685,18.73917],[73.66866,18.73836],[73.6705,18.73692],[73.67485,18.73298],[73.6745,18.73275],[73.6735,18.73274],[73.67194,18.7324],[73.66975,18.73232],[73.66835,18.73253],[73.66602,18.73324],[73.66478,18.73309],[73.66186,18.73181],[73.66239,18.73131],[73.66224,18.73055],[73.66241,18.73021],[73.6624,18.72952],[73.66259,18.72926],[73.66246,18.72839],[73.65863,18.72902],[73.65862,18.72936],[73.65724,18.72909],[73.65887,18.73278],[73.66131,18.73651],[73.66449,18.7384],[73.66454,18.73883],[73.66499,18.73914],[73.66648,18.73879],[73.66685,18.73917]]]}},{"type":"Feature","bbox":[73.65624,18.72163,73.67443,18.73324],"properties":{"ward":7},"geometry":{"type":"Polygon","coordinates":[[[73.6696,18.73233],[73.67194,18.7324],[73.6734,18.73272],[73.67288,18.73096],[73.67298,18.73092],[73.67289,18.72975],[73.67309,18.72965],[73.67288,18.72862],[73.67441,18.72794],[73.67443,18.72767],[73.67398,18.7271],[73.67375,18.72713],[73.6735,18.72694],[73.67303,18.72701],[73.67182,18.72648],[73.6703,18.7266],[73.66943,18.7245],[73.6685,18.72386],[73.66785,18.72378],[73.66649,18.72163],[73.65841,18.72614],[73.65624,18.72716],[73.65724,18.72909],[73.65862,18.72936],[73.65863,18.72902],[73.66246,18.72839],[73.66259,18.72926],[73.6624,18.72952],[73.66241,18.73021],[73.66224,18.73055],[73.66239,18.73131],[73.66186,18.73181],[73.66417,18.73291],[73.66602,18.73324],[73.66835,18.73253],[73.6696,18.73233]]]}},{"type":"Feature","bbox":[73.66649,18.71535,73.68282,18.72727],"properties":{"ward":8},"geometry":{"type":"Polygon","coordinates":[[[73.67448,18.7272],[73.67466,18.72651],[73.67503,18.72661],[73.67544,18.72626],[73.67718,18.72678],[73.6778,18.72649],[73.67848,18.72672],[73.67796,18.72338],[73.67952,18.72283],[73.68005,18.72324],[73.68066,18.72319],[73.68157,18.72347],[73.68118,18.7207],[73.68273,18.72097],[73.68282,18.7202],[73.68191,18.72035],[73.68156,18.7197],[73.68202,18.71961],[73.68212,18.71945],[73.67892,18.71733],[73.6758,18.71577],[73.67539,18.71535],[73.67104,18.71875],[73.66649,18.72163],[73.66785,18.72378],[73.6685,18.72386],[73.66943,18.7245],[73.6703,18.7266],[73.67182,18.72648],[73.67303,18.72701],[73.6735,18.72694],[73.67423,18.72727],[73.67448,18.7272]]]}},{"type":"Feature","bbox":[73.68156,18.71718,73.68835,18.72283],"properties":{"ward":9},"geometry":{"type":"Polygon","coordinates":[[[73.68564,18.72127],[73.68565,18.72004],[73.68835,18.72011],[73.68799,18.71918],[73.68759,18.71863],[73.68595,18.71871],[73.68635,18.71767],[73.68627,18.71718],[73.68495,18.71758],[73.68322,18.71842],[73.68366,18.71947],[73.68295,18.71998],[73.68212,18.71945],[73.68202,18.71961],[73.68156,18.7197],[73.68191,18.72035],[73.68282,18.7202],[73.68273,18.72097],[73.68305,18.721],[73.68291,18.72151],[73.68329,18.72283],[73.68459,18.72145],[73.68564,18.72127]]]}},{"type":"Feature","bbox":[73.68434,18.72004,73.68985,18.72377],"properties":{"ward":10},"geometry":{"type":"Polygon","coordinates":[[[73.68985,18.72377],[73.68944,18.72189],[73.68904,18.72148],[73.68897,18.72068],[73.68874,18.72016],[73.68565,18.72004],[73.68564,18.72127],[73.68459,18.72145],[73.68434,18.72175],[73.68478,18.72289],[73.68643,18.72242],[73.6866,18.72267],[73.68686,18.72258],[73.68748,18.72296],[73.68857,18.723],[73.68924,18.72357],[73.68985,18.72377]]]}},{"type":"Feature","bbox":[73.68341,18.72095,73.69525,18.72713],"properties":{"ward":11},"geometry":{"type":"Polygon","coordinates":[[[73.69008,18.72547],[73.6927,18.72462],[73.69486,18.72318],[73.69525,18.7228],[73.69442,18.72254],[73.69455,18.72152],[73.69208,18.72095],[73.68899,18.72112],[73.68904,18.72148],[73.68944,18.72189],[73.6896,18.72233],[73.68985,18.72377],[73.68881,18.72331],[73.68858,18.723],[73.68748,18.72296],[73.68686,18.72258],[73.6866,18.72267],[73.68643,18.72242],[73.68516,18.72288],[73.68514,18.72328],[73.68553,18.72449],[73.68533,18.72529],[73.68341,18.72594],[73.68372,18.72713],[73.69008,18.72547]]]}},{"type":"Feature","bbox":[73.67966,18.70897,73.69773,18.7228],"properties":{"ward":12},"geometry":{"type":"Polygon","coordinates":[[[73.6964,18.72135],[73.69743,18.71909],[73.69773,18.71708],[73.69724,18.71142],[73.69749,18.70945],[73.69634,18.70966],[73.69617,18.70955],[73.69609,18.70897],[73.69497,18.70915],[73.69501,18.70976],[73.69022,18.71096],[73.68916,18.71059],[73.68653,18.71112],[73.68354,18.71087],[73.68212,18.71029],[73.68208,18.70955],[73.68162,18.70961],[73.68096,18.71045],[73.68133,18.71043],[73.67966,18.71192],[73.68105,18.71229],[73.68379,18.71255],[73.6843,18.71473],[73.68479,18.71568],[73.68522,18.71561],[73.68569,18.71575],[73.68614,18.71624],[73.68618,18.717],[73.68639,18.71743],[73.68595,18.71871],[73.68759,18.71863],[73.68799,18.71918],[73.68835,18.72011],[73.68874,18.72016],[73.68899,18.72112],[73.69208,18.72095],[73.69455,18.72152],[73.69442,18.72254],[73.69525,18.7228],[73.6964,18.72135]]]}},{"type":"Feature","bbox":[73.67539,18.71192,73.68627,18.71998],"properties":{"ward":13},"geometry":{"type":"Polygon","coordinates":[[[73.68292,18.71998],[73.68366,18.71947],[73.68322,18.71842],[73.68495,18.71758],[73.68627,18.71718],[73.68614,18.71624],[73.68594,18.71589],[73.68522,18.71561],[73.68479,18.71568],[73.6843,18.71473],[73.68379,18.71255],[73.68105,18.71229],[73.67966,18.71192],[73.67539,18.71535],[73.6758,18.71577],[73.67892,18.71733],[73.68292,18.71998]]]}}]}