{"type":"FeatureCollection","features":[{"type":"Feature","bbox":[76.3783,18.73474,76.39162,18.74763],"properties":{"ward":1,"name":"Yogeshwari"},"geometry":{"type":"Polygon","coordinates":[[[76.38191,18.74763],[76.38291,18.7472],[76.38384,18.74735],[76.38375,18.74659],[76.38423,18.74632],[76.38509,18.74617],[76.38903,18.74616],[76.3911,18.74649],[76.39081,18.74417],[76.39109,18.74353],[76.39116,18.74197],[76.39162,18.74001],[76.39148,18.73714],[76.39103,18.73581],[76.39046,18.73601],[76.39027,18.73538],[76.38921,18.73539],[76.38772,18.7363],[76.38664,18.73538],[76.38547,18.7353],[76.38455,18.73474],[76.38388,18.73618],[76.38474,18.73669],[76.38515,18.73725],[76.3853,18.73856],[76.38218,18.74139],[76.38034,18.74215],[76.38014,18.74263],[76.3783,18.74478],[76.37902,18.74684],[76.37956,18.74715],[76.37985,18.74707],[76.38115,18.74752],[76.38191,18.74763]]]}},{"type":"Feature","bbox":[76.39099,18.73953,76.39536,18.74657],"properties":{"ward":2,"name":"Ravivar Peth"},"geometry":{"type":"Polygon","coordinates":[[[76.39176,18.7396],[76.39132,18.74198],[76.39121,18.74362],[76.39099,18.74412],[76.39129,18.74642],[76.39206,18.74657],[76.39407,18.74584],[76.39445,18.74554],[76.39446,18.74417],[76.39463,18.74327],[76.3952,18.74293],[76.39536,18.74259],[76.39521,18.74115],[76.3953,18.73969],[76.39438,18.73957],[76.39371,18.73988],[76.39233,18.74003],[76.39205,18.73953],[76.39176,18.7396]]]}},{"type":"Feature","bbox":[76.39117,18.7354,76.39527,18.73989],"properties":{"ward":3,"name":"Jire Galli"},"geometry":{"type":"Polygon","coordinates":[[[76.39171,18.73942],[76.39211,18.73935],[76.3925,18.73989],[76.39363,18.73978],[76.39437,18.73947],[76.39527,18.73947],[76.39504,18.73785],[76.39448,18.73758],[76.39395,18.73775],[76.39267,18.73759],[76.39306,18.7363],[76.39353,18.73601],[76.39368,18.7356],[76.39222,18.7354],[76.39117,18.73584],[76.39155,18.73714],[76.39171,18.73942]]]}},{"type":"Feature","bbox":[76.39463,18.73514,76.40895,18.74557],"properties":{"ward":4,"name":"Parali Ves"},"geometry":{"type":"Polygon","coordinates":[[[76.39535,18.73847],[76.39557,18.74232],[76.3953,18.74316],[76.39476,18.74337],[76.39463,18.74444],[76.39472,18.74557],[76.39652,18.74489],[76.39688,18.74458],[76.3978,18.74224],[76.40073,18.74242],[76.40326,18.7423],[76.40572,18.74137],[76.4063,18.74185],[76.40692,18.74146],[76.4079,18.73991],[76.40832,18.73982],[76.40895,18.73932],[76.40877,18.73855],[76.40825,18.73776],[76.40834,18.73522],[76.40792,18.73514],[76.40383,18.73553],[76.40112,18.73615],[76.39925,18.73684],[76.39815,18.73688],[76.39727,18.73765],[76.39709,18.73807],[76.39535,18.73847]]]}},{"type":"Feature","bbox":[76.3928,18.73282,76.40684,18.73831],"properties":{"ward":5,"name":"Khadakpura"},"geometry":{"type":"Polygon","coordinates":[[[76.39526,18.73823],[76.39555,18.73831],[76.39692,18.73801],[76.39737,18.73733],[76.39808,18.73671],[76.3985,18.73684],[76.39911,18.73675],[76.40116,18.73602],[76.40321,18.73554],[76.40636,18.73511],[76.40682,18.73403],[76.40684,18.73282],[76.40448,18.73401],[76.40163,18.73433],[76.39891,18.7337],[76.39641,18.73334],[76.3947,18.73283],[76.39468,18.734],[76.39358,18.73608],[76.39315,18.73636],[76.3928,18.73749],[76.39471,18.73754],[76.39515,18.73772],[76.39526,18.73823]]]}},{"type":"Feature","bbox":[76.38839,18.72523,76.40719,18.73422],"properties":{"ward":6,"name":"Adarsh Colony"},"geometry":{"type":"Polygon","coordinates":[[[76.39094,18.7316],[76.3923,18.73179],[76.39633,18.73323],[76.39912,18.73362],[76.40118,18.73422],[76.40436,18.73394],[76.4069,18.73263],[76.40719,18.73265],[76.40689,18.73192],[76.4064,18.72791],[76.40588,18.72531],[76.40539,18.72574],[76.40292,18.72668],[76.40046,18.72798],[76.39911,18.72829],[76.39827,18.72876],[76.39797,18.72883],[76.39794,18.72778],[76.3966,18.72817],[76.39565,18.72824],[76.39488,18.72862],[76.39385,18.72883],[76.39026,18.72554],[76.38985,18.72526],[76.38939,18.72523],[76.38839,18.72802],[76.38959,18.72812],[76.39076,18.7287],[76.39193,18.7295],[76.39234,18.72994],[76.39253,18.73053],[76.39095,18.73078],[76.39094,18.7316]]]}},{"type":"Feature","bbox":[76.38877,18.73156,76.39458,18.73587],"properties":{"ward":7,"name":"Managalwar Peth"},"geometry":{"type":"Polygon","coordinates":[[[76.39179,18.73182],[76.38877,18.73156],[76.38898,18.73345],[76.38937,18.73432],[76.39006,18.73433],[76.39018,18.73412],[76.39044,18.73411],[76.39045,18.73587],[76.39248,18.73529],[76.39387,18.73539],[76.39456,18.73399],[76.39458,18.73278],[76.39179,18.73182]]]}},{"type":"Feature","bbox":[76.38388,18.724,76.39239,18.73195],"properties":{"ward":8,"name":"Prashant Nagar"},"geometry":{"type":"Polygon","coordinates":[[[76.38529,18.73195],[76.38799,18.7314],[76.39084,18.73159],[76.3908,18.73066],[76.39239,18.73043],[76.39216,18.72985],[76.39058,18.7287],[76.38936,18.72816],[76.38815,18.72817],[76.38924,18.72515],[76.38641,18.72473],[76.38455,18.724],[76.38388,18.72641],[76.38491,18.72761],[76.38529,18.73195]]]}},{"type":"Feature","bbox":[76.38455,18.73146,76.39038,18.73612],"properties":{"ward":9,"name":"Guruwar Peth"},"geometry":{"type":"Polygon","coordinates":[[[76.38543,18.73508],[76.38676,18.73525],[76.38767,18.73612],[76.38878,18.73537],[76.39033,18.73521],[76.39038,18.7342],[76.39012,18.73442],[76.38932,18.7344],[76.38893,18.73349],[76.38868,18.73146],[76.38728,18.73156],[76.38538,18.73203],[76.38573,18.73303],[76.38524,18.73318],[76.38455,18.73454],[76.38543,18.73508]]]}},{"type":"Feature","bbox":[76.3701,18.73216,76.38561,18.74497],"properties":{"ward":10,"name":"Gawali Pura"},"geometry":{"type":"Polygon","coordinates":[[[76.3836,18.73616],[76.38443,18.73451],[76.38535,18.73501],[76.38511,18.73306],[76.38561,18.73296],[76.3852,18.73216],[76.38357,18.73249],[76.38194,18.7325],[76.38148,18.73265],[76.38064,18.73255],[76.37962,18.733],[76.37991,18.73402],[76.37912,18.73432],[76.376,18.73502],[76.37412,18.73571],[76.37266,18.73863],[76.37172,18.73891],[76.37036,18.73903],[76.37018,18.73935],[76.3701,18.74002],[76.37144,18.74234],[76.37114,18.74267],[76.37125,18.74299],[76.37247,18.74426],[76.37325,18.74455],[76.3751,18.74497],[76.37763,18.74474],[76.37837,18.74429],[76.37935,18.74336],[76.38034,18.7419],[76.38256,18.74095],[76.38511,18.73843],[76.38499,18.73723],[76.3836,18.73616]]]}},{"type":"Feature","bbox":[76.36136,18.72674,76.37537,18.74346],"properties":{"ward":11,"name":"Lal Nagar"},"geometry":{"type":"Polygon","coordinates":[[[76.36137,18.72674],[76.36136,18.73071],[76.36165,18.73557],[76.36179,18.73576],[76.3633,18.73584],[76.36426,18.74084],[76.36504,18.74346],[76.37076,18.74259],[76.37126,18.74237],[76.37073,18.74116],[76.36998,18.74008],[76.37005,18.73938],[76.37026,18.739],[76.37052,18.73888],[76.37192,18.73875],[76.37255,18.73859],[76.37273,18.7384],[76.37384,18.7358],[76.37537,18.73507],[76.37529,18.73361],[76.37465,18.73379],[76.37435,18.73532],[76.37353,18.73545],[76.37285,18.73602],[76.3723,18.73608],[76.3716,18.73598],[76.37137,18.73574],[76.37118,18.73389],[76.3706,18.73408],[76.37033,18.73389],[76.37032,18.73331],[76.36931,18.73269],[76.36897,18.73272],[76.36883,18.73352],[76.3686,18.73369],[76.36688,18.73383],[76.36676,18.7309],[76.3666,18.7304],[76.36697,18.73019],[76.36717,18.72978],[76.3673,18.72897],[76.36717,18.72859],[76.366,18.72786],[76.36575,18.72798],[76.36137,18.72674]]]}},{"type":"Feature","bbox":[76.36129,18.72196,76.37751,18.73615],"properties":{"ward":12,"name":"Srt Hospital"},"geometry":{"type":"Polygon","coordinates":[[[76.37549,18.73506],[76.37751,18.73453],[76.37652,18.73117],[76.37226,18.72994],[76.37055,18.72977],[76.36893,18.72896],[76.36866,18.72767],[76.36882,18.72648],[76.36927,18.72557],[76.36421,18.72303],[76.36136,18.72196],[76.36152,18.72486],[76.36133,18.7251],[76.36129,18.72659],[76.36569,18.72788],[76.36595,18.72779],[76.36726,18.72861],[76.36736,18.72914],[76.36722,18.7298],[76.36699,18.73021],[76.36666,18.73042],[76.36692,18.73377],[76.36863,18.73357],[76.36886,18.7327],[76.37009,18.73301],[76.37043,18.73331],[76.3705,18.73412],[76.37105,18.73402],[76.37126,18.73436],[76.37149,18.73584],[76.37188,18.73615],[76.37276,18.73595],[76.37354,18.73535],[76.37447,18.73533],[76.37455,18.73386],[76.37474,18.73371],[76.37525,18.73368],[76.37549,18.73506]]]}},{"type":"Feature","bbox":[76.37657,18.73036,76.38058,18.73449],"properties":{"ward":13,"name":"Sadar Bazar"},"geometry":{"type":"Polygon","coordinates":[[[76.38049,18.73247],[76.38042,18.73164],[76.38058,18.73093],[76.3803,18.73052],[76.38003,18.73041],[76.37938,18.73036],[76.37823,18.73102],[76.37728,18.73086],[76.37657,18.73123],[76.37741,18.73441],[76.37756,18.73449],[76.37974,18.73392],[76.37955,18.73289],[76.38049,18.73247]]]}},{"type":"Feature","bbox":[76.36871,18.70819,76.3851,18.73257],"properties":{"ward":14,"name":"Mondha"},"geometry":{"type":"Polygon","coordinates":[[[76.38362,18.72626],[76.38428,18.72408],[76.38151,18.72249],[76.38097,18.72186],[76.37849,18.70819],[76.37791,18.7084],[76.37799,18.70926],[76.37753,18.70944],[76.3709,18.71107],[76.37088,18.7118],[76.3715,18.71178],[76.37226,18.71416],[76.37323,18.71652],[76.37256,18.71691],[76.37261,18.71721],[76.37337,18.71824],[76.37216,18.71979],[76.36965,18.72517],[76.36888,18.7264],[76.36871,18.72769],[76.36898,18.72893],[76.3706,18.72973],[76.37309,18.73],[76.37517,18.73076],[76.37664,18.73102],[76.37708,18.73075],[76.37813,18.73093],[76.3793,18.73026],[76.38002,18.73033],[76.38037,18.7305],[76.38068,18.73093],[76.38054,18.73214],[76.38095,18.73217],[76.38109,18.73243],[76.3815,18.73257],[76.38193,18.73234],[76.38462,18.73215],[76.38494,18.73204],[76.3851,18.73175],[76.38476,18.72805],[76.38465,18.72745],[76.38366,18.7267],[76.38362,18.72626]]]}}]}