{"type":"FeatureCollection","features":[{"type":"Feature","bbox":[74.56151,18.46519,74.58018,18.47973],"properties":{"ward":1},"geometry":{"type":"Polygon","coordinates":[[[74.58007,18.46588],[74.57928,18.46571],[74.57318,18.46676],[74.57188,18.46763],[74.57121,18.46736],[74.57089,18.46519],[74.5673,18.4658],[74.56723,18.46554],[74.56151,18.46575],[74.5632,18.46775],[74.56333,18.46821],[74.56315,18.47063],[74.56337,18.47159],[74.56366,18.47212],[74.56474,18.47226],[74.56593,18.47296],[74.5664,18.4736],[74.56656,18.47436],[74.56827,18.47455],[74.56882,18.47475],[74.5692,18.47451],[74.56972,18.47495],[74.56948,18.47527],[74.57008,18.47732],[74.56996,18.47777],[74.56838,18.47841],[74.56788,18.47898],[74.5679,18.4794],[74.5684,18.47964],[74.56913,18.47973],[74.56972,18.47959],[74.57059,18.47844],[74.57178,18.4779],[74.57251,18.47733],[74.57284,18.47633],[74.57367,18.47518],[74.57711,18.47282],[74.57953,18.47139],[74.57812,18.46793],[74.57795,18.46717],[74.58018,18.46696],[74.58007,18.46588]]]}},{"type":"Feature","bbox":[74.57809,18.46594,74.58331,18.47129],"properties":{"ward":2},"geometry":{"type":"Polygon","coordinates":[[[74.58016,18.46594],[74.58028,18.46704],[74.57809,18.46727],[74.5796,18.47129],[74.58079,18.47077],[74.58008,18.46932],[74.58134,18.46822],[74.58232,18.46775],[74.58331,18.4665],[74.58016,18.46594]]]}},{"type":"Feature","bbox":[74.58022,18.46371,74.58781,18.47072],"properties":{"ward":3},"geometry":{"type":"Polygon","coordinates":[[[74.58092,18.47072],[74.58462,18.46968],[74.58486,18.47002],[74.58513,18.46995],[74.58494,18.46966],[74.58546,18.46961],[74.5873,18.47036],[74.58778,18.46875],[74.58781,18.4682],[74.58697,18.46797],[74.58692,18.46736],[74.5861,18.46734],[74.58439,18.46371],[74.5845,18.46437],[74.58438,18.46462],[74.58297,18.46642],[74.5834,18.46645],[74.58319,18.46689],[74.58246,18.46774],[74.58141,18.46828],[74.58022,18.46931],[74.58092,18.47072]]]}},{"type":"Feature","bbox":[74.58487,18.46395,74.58901,18.46817],"properties":{"ward":4},"geometry":{"type":"Polygon","coordinates":[[[74.58744,18.46395],[74.58487,18.46452],[74.58613,18.46721],[74.58702,18.46729],[74.58708,18.4679],[74.58803,18.46817],[74.58795,18.46713],[74.58753,18.46714],[74.58752,18.46682],[74.58831,18.4668],[74.58833,18.46638],[74.58892,18.46637],[74.58901,18.4652],[74.58785,18.46469],[74.5874,18.46484],[74.58744,18.46395]]]}},{"type":"Feature","bbox":[74.58746,18.46332,74.59187,18.46816],"properties":{"ward":5},"geometry":{"type":"Polygon","coordinates":[[[74.58897,18.46642],[74.58838,18.46642],[74.58836,18.46684],[74.5876,18.46686],[74.58761,18.46709],[74.58801,18.4671],[74.5881,18.46816],[74.59004,18.46781],[74.5907,18.46716],[74.59187,18.46657],[74.59129,18.46601],[74.59071,18.46597],[74.59066,18.46558],[74.59107,18.46544],[74.59091,18.46479],[74.58979,18.46507],[74.58993,18.46469],[74.59076,18.46405],[74.59048,18.46332],[74.58856,18.46355],[74.58861,18.46377],[74.5875,18.46395],[74.58746,18.46475],[74.58788,18.46461],[74.58906,18.46517],[74.58897,18.46642]]]}},{"type":"Feature","bbox":[74.58747,18.46064,74.59822,18.47032],"properties":{"ward":6},"geometry":{"type":"Polygon","coordinates":[[[74.59669,18.46064],[74.59548,18.46113],[74.59572,18.46208],[74.59246,18.46273],[74.59221,18.46266],[74.59059,18.4633],[74.59095,18.46407],[74.59,18.46474],[74.5899,18.46499],[74.59097,18.46467],[74.59116,18.46548],[74.59075,18.46561],[74.5908,18.46585],[74.5914,18.46591],[74.59201,18.46659],[74.59166,18.46692],[74.59075,18.46725],[74.59014,18.46794],[74.58797,18.46831],[74.58794,18.46892],[74.58747,18.47032],[74.58963,18.46991],[74.59065,18.47001],[74.59822,18.46791],[74.59669,18.46064]]]}},{"type":"Feature","bbox":[74.58114,18.45723,74.58856,18.46055],"properties":{"ward":7},"geometry":{"type":"Polygon","coordinates":[[[74.58517,18.46055],[74.58856,18.46008],[74.58817,18.45723],[74.58114,18.45851],[74.58162,18.45929],[74.58368,18.45871],[74.58389,18.45933],[74.58358,18.4594],[74.58369,18.45983],[74.58433,18.45973],[74.58442,18.46014],[74.58504,18.46001],[74.58517,18.46055]]]}},{"type":"Feature","bbox":[74.57448,18.45419,74.58435,18.46066],"properties":{"ward":8},"geometry":{"type":"Polygon","coordinates":[[[74.57771,18.45499],[74.57732,18.45419],[74.57448,18.45587],[74.57532,18.45669],[74.57524,18.45862],[74.57463,18.45868],[74.57467,18.45904],[74.57665,18.45885],[74.57715,18.46051],[74.57731,18.46066],[74.58011,18.46011],[74.58057,18.46066],[74.58259,18.4605],[74.58435,18.46013],[74.58426,18.45985],[74.58361,18.45993],[74.58347,18.45932],[74.58377,18.45925],[74.58362,18.45883],[74.58161,18.45942],[74.58109,18.45855],[74.58064,18.45855],[74.57971,18.45711],[74.57771,18.45499]]]}},{"type":"Feature","bbox":[74.56111,18.45663,74.577,18.46485],"properties":{"ward":9},"geometry":{"type":"Polygon","coordinates":[[[74.56627,18.45808],[74.56326,18.45798],[74.56327,18.45772],[74.56209,18.4579],[74.56111,18.46097],[74.56175,18.46275],[74.56166,18.46369],[74.56134,18.46453],[74.56142,18.46485],[74.57431,18.46362],[74.5743,18.46331],[74.57303,18.46287],[74.57285,18.46094],[74.577,18.46044],[74.57657,18.45899],[74.57462,18.45913],[74.57453,18.45859],[74.57517,18.45853],[74.57515,18.45799],[74.57403,18.45803],[74.57405,18.45756],[74.57286,18.45753],[74.57301,18.45663],[74.57108,18.4581],[74.57006,18.45914],[74.56843,18.45926],[74.56703,18.45908],[74.56645,18.45957],[74.56592,18.45963],[74.56627,18.45808]]]}},{"type":"Feature","bbox":[74.56097,18.4507,74.57135,18.45942],"properties":{"ward":10},"geometry":{"type":"Polygon","coordinates":[[[74.56134,18.45639],[74.56204,18.45771],[74.56339,18.4575],[74.5634,18.45783],[74.56649,18.45796],[74.56617,18.45942],[74.56653,18.45938],[74.56701,18.45881],[74.5684,18.45905],[74.56992,18.45898],[74.56778,18.45603],[74.56849,18.45502],[74.56905,18.45535],[74.569,18.4557],[74.56951,18.45571],[74.56939,18.45632],[74.57021,18.45636],[74.57017,18.45664],[74.57048,18.45665],[74.57057,18.45539],[74.57079,18.45539],[74.57119,18.45403],[74.57135,18.4513],[74.56958,18.4507],[74.5626,18.45236],[74.56315,18.45358],[74.56101,18.4544],[74.56097,18.45525],[74.56134,18.45639]]]}},{"type":"Feature","bbox":[74.56794,18.44836,74.57719,18.4588],"properties":{"ward":11},"geometry":{"type":"Polygon","coordinates":[[[74.5706,18.45678],[74.57005,18.4568],[74.57005,18.45651],[74.56928,18.45644],[74.56936,18.45582],[74.56883,18.45582],[74.5689,18.45539],[74.5685,18.45515],[74.56794,18.45601],[74.57007,18.4588],[74.57145,18.45757],[74.57313,18.45638],[74.57308,18.45733],[74.57424,18.45736],[74.57426,18.45782],[74.5751,18.45774],[74.5752,18.45676],[74.57413,18.45574],[74.57719,18.45401],[74.57456,18.44836],[74.57135,18.4495],[74.57193,18.45097],[74.57323,18.45124],[74.57339,18.45551],[74.57067,18.45556],[74.5706,18.45678]]]}},{"type":"Feature","bbox":[74.56367,18.43757,74.57451,18.44932],"properties":{"ward":12},"geometry":{"type":"Polygon","coordinates":[[[74.57066,18.44745],[74.57128,18.44932],[74.57451,18.44812],[74.57303,18.44491],[74.56778,18.43757],[74.56698,18.43782],[74.56724,18.4382],[74.56577,18.43822],[74.56656,18.4417],[74.56367,18.44177],[74.56516,18.44328],[74.56515,18.44485],[74.5664,18.44485],[74.56658,18.44849],[74.57066,18.44745]]]}}]}