{"type":"FeatureCollection","features":[{"type":"Feature","bbox":[77.96363,19.11198,77.97884,19.12419],"properties":{"ward":1,"name":"Netaji Nagar (Partial) Kunta Area Filter Bed."},"geometry":{"type":"Polygon","coordinates":[[[77.97884,19.11214],[77.96841,19.11198],[77.96702,19.11532],[77.96363,19.12224],[77.96748,19.12419],[77.96941,19.11979],[77.96973,19.11671],[77.97234,19.11617],[77.97854,19.11587],[77.97884,19.11214]]]}},{"type":"Feature","bbox":[77.96565,19.10633,77.98283,19.11214],"properties":{"ward":2,"name":"New Abadi(Partial)"},"geometry":{"type":"Polygon","coordinates":[[[77.98283,19.1102],[77.98075,19.1091],[77.97945,19.1077],[77.97949,19.10638],[77.97324,19.10633],[77.96805,19.10704],[77.96565,19.11058],[77.96841,19.11198],[77.97884,19.11214],[77.98283,19.1102]]]}},{"type":"Feature","bbox":[77.97945,19.10638,77.9853,19.1102],"properties":{"ward":3,"name":"Owaisi Nagar(Partial)"},"geometry":{"type":"Polygon","coordinates":[[[77.98283,19.1102],[77.9853,19.10774],[77.98304,19.10683],[77.97949,19.10638],[77.97945,19.1077],[77.98075,19.1091],[77.98283,19.1102]]]}},{"type":"Feature","bbox":[77.97949,19.10262,77.98722,19.10769],"properties":{"ward":4,"name":"Ap Nagar (Partial), Shastri Nagar."},"geometry":{"type":"Polygon","coordinates":[[[77.97992,19.10262],[77.97949,19.10638],[77.98304,19.10683],[77.98535,19.10769],[77.98722,19.10367],[77.97992,19.10262]]]}},{"type":"Feature","bbox":[77.97136,19.10303,77.97971,19.10638],"properties":{"ward":5,"name":"Owaisi Nagar (Partial) Forest Office Area, Gopal Na"},"geometry":{"type":"Polygon","coordinates":[[[77.97136,19.10415],[77.97173,19.10445],[77.97407,19.10516],[77.97416,19.10544],[77.97557,19.10542],[77.97855,19.10588],[77.97857,19.10623],[77.97949,19.10638],[77.97971,19.10411],[77.97636,19.10384],[77.97615,19.10324],[77.97566,19.10349],[77.97533,19.10303],[77.97194,19.10421],[77.97136,19.10415]]]}},{"type":"Feature","bbox":[77.97003,19.10149,77.97992,19.10421],"properties":{"ward":6,"name":"Ap Nagar(Partial), Shivaji Nagar."},"geometry":{"type":"Polygon","coordinates":[[[77.97975,19.10412],[77.97992,19.10262],[77.97197,19.10149],[77.97003,19.10401],[77.97194,19.10421],[77.97533,19.10303],[77.97566,19.10349],[77.97615,19.10324],[77.97636,19.10384],[77.97975,19.10412]]]}},{"type":"Feature","bbox":[77.95025,19.09116,77.98722,19.10367],"properties":{"ward":7,"name":"Rahul Nagar, Santoshimata Nagar ."},"geometry":{"type":"Polygon","coordinates":[[[77.95025,19.09116],[77.95432,19.09772],[77.96576,19.101],[77.97197,19.10149],[77.98722,19.10367],[77.98592,19.09831],[77.98167,19.0948],[77.95025,19.09116]]]}},{"type":"Feature","bbox":[77.96317,19.101,77.97197,19.10629],"properties":{"ward":8,"name":"Rajiv Nagar Area , Sai Nagar."},"geometry":{"type":"Polygon","coordinates":[[[77.96576,19.101],[77.9655,19.1021],[77.96321,19.10559],[77.96317,19.10598],[77.96442,19.10629],[77.96561,19.1061],[77.96811,19.10523],[77.96913,19.10521],[77.97197,19.10149],[77.96576,19.101]]]}},{"type":"Feature","bbox":[77.94763,19.09116,77.96576,19.10749],"properties":{"ward":9,"name":"Gokul Nagar, Industrial Area."},"geometry":{"type":"Polygon","coordinates":[[[77.96321,19.10559],[77.9655,19.1021],[77.96576,19.101],[77.95432,19.09772],[77.95025,19.09116],[77.94763,19.09219],[77.95267,19.10749],[77.95905,19.10642],[77.96141,19.10533],[77.96213,19.10527],[77.96321,19.10559]]]}},{"type":"Feature","bbox":[77.95267,19.10527,77.96321,19.11669],"properties":{"ward":10,"name":"Bhattigalli, Zulfekar Galli."},"geometry":{"type":"Polygon","coordinates":[[[77.96268,19.11062],[77.96263,19.1091],[77.96234,19.10766],[77.96321,19.10559],[77.96213,19.10527],[77.96141,19.10533],[77.95905,19.10642],[77.95267,19.10749],[77.95597,19.11626],[77.95651,19.11669],[77.95675,19.11449],[77.95832,19.11078],[77.95908,19.11115],[77.95997,19.11083],[77.96268,19.11062]]]}},{"type":"Feature","bbox":[77.95679,19.11551,77.9608,19.11766],"properties":{"ward":11,"name":"Bharmangalli, Marwadigalli & Mochigalli."},"geometry":{"type":"Polygon","coordinates":[[[77.96079,19.1158],[77.96057,19.11551],[77.96003,19.11558],[77.95679,19.11691],[77.95773,19.11766],[77.95882,19.11728],[77.95965,19.11674],[77.9608,19.11629],[77.96079,19.1158]]]}},{"type":"Feature","bbox":[77.95773,19.11522,77.96232,19.1206],"properties":{"ward":12,"name":"Marwadigalli , Kumargalli, Old Bazar."},"geometry":{"type":"Polygon","coordinates":[[[77.96079,19.1158],[77.9608,19.11629],[77.95965,19.11674],[77.95882,19.11728],[77.95773,19.11766],[77.96142,19.1206],[77.96153,19.11719],[77.96121,19.11597],[77.96232,19.11611],[77.9621,19.11525],[77.96106,19.11522],[77.9612,19.11579],[77.96079,19.1158]]]}},{"type":"Feature","bbox":[77.96121,19.11597,77.96578,19.12224],"properties":{"ward":13,"name":"Netaji Nagar, Siddirath Nagar Old Bazar"},"geometry":{"type":"Polygon","coordinates":[[[77.96232,19.11611],[77.96121,19.11597],[77.96153,19.11719],[77.96142,19.1206],[77.96363,19.12224],[77.96578,19.11783],[77.96461,19.11744],[77.96392,19.11691],[77.96232,19.11611]]]}},{"type":"Feature","bbox":[77.96186,19.11401,77.96469,19.11732],"properties":{"ward":14,"name":"Kisangalli,Pandri Galli ."},"geometry":{"type":"Polygon","coordinates":[[[77.96469,19.11437],[77.96307,19.11401],[77.96186,19.11403],[77.96232,19.11611],[77.96446,19.11732],[77.9644,19.1163],[77.96469,19.11437]]]}},{"type":"Feature","bbox":[77.9644,19.11398,77.96759,19.11783],"properties":{"ward":15,"name":"Kisangalli, Bara Imamgalli"},"geometry":{"type":"Polygon","coordinates":[[[77.96469,19.11437],[77.9644,19.1163],[77.96446,19.11732],[77.96578,19.11783],[77.96759,19.11398],[77.96469,19.11437]]]}},{"type":"Feature","bbox":[77.96429,19.11245,77.96634,19.11437],"properties":{"ward":16,"name":"Bara Imamgalli & Amp; Mohammedia Nagar"},"geometry":{"type":"Polygon","coordinates":[[[77.96511,19.11245],[77.96429,19.11301],[77.96469,19.11437],[77.96634,19.11415],[77.96511,19.11245]]]}},{"type":"Feature","bbox":[77.96805,19.10534,77.97949,19.10704],"properties":{"ward":17,"name":"Owaisi Nagar, Madina Colony , New Abadi"},"geometry":{"type":"Polygon","coordinates":[[[77.97949,19.10638],[77.97857,19.10623],[77.97855,19.10588],[77.97557,19.10542],[77.97052,19.10534],[77.96866,19.10607],[77.96805,19.10704],[77.97324,19.10633],[77.97949,19.10638]]]}},{"type":"Feature","bbox":[77.96866,19.10401,77.97416,19.10607],"properties":{"ward":18,"name":"Owaisi Nagar"},"geometry":{"type":"Polygon","coordinates":[[[77.97416,19.10544],[77.97407,19.10516],[77.97173,19.10445],[77.97136,19.10415],[77.97003,19.10401],[77.96866,19.10607],[77.97052,19.10534],[77.97416,19.10544]]]}},{"type":"Feature","bbox":[77.96569,19.10521,77.96912,19.10784],"properties":{"ward":19,"name":"Madina Colony(Partial) ."},"geometry":{"type":"Polygon","coordinates":[[[77.96569,19.10607],[77.96751,19.10784],[77.96912,19.10521],[77.96811,19.10523],[77.96569,19.10607]]]}},{"type":"Feature","bbox":[77.96451,19.10607,77.96751,19.10958],"properties":{"ward":20,"name":"Madina Colony And Asad Baba Nagar"},"geometry":{"type":"Polygon","coordinates":[[[77.96751,19.10784],[77.96569,19.10607],[77.96451,19.10627],[77.96633,19.10958],[77.96751,19.10784]]]}},{"type":"Feature","bbox":[77.96234,19.10559,77.96633,19.11062],"properties":{"ward":21,"name":"Zainullabdin Gally, Market Area."},"geometry":{"type":"Polygon","coordinates":[[[77.96565,19.11058],[77.96633,19.10958],[77.96451,19.10627],[77.96317,19.10598],[77.96321,19.10559],[77.96234,19.10766],[77.96263,19.1091],[77.96268,19.11062],[77.96565,19.11058]]]}},{"type":"Feature","bbox":[77.96268,19.11058,77.96841,19.11415],"properties":{"ward":22,"name":"Bhoigalli (Partial), Zulfquargalli ."},"geometry":{"type":"Polygon","coordinates":[[[77.96565,19.11058],[77.96268,19.11062],[77.96407,19.11205],[77.96511,19.11245],[77.96634,19.11415],[77.96759,19.11398],[77.96841,19.11198],[77.96565,19.11058]]]}},{"type":"Feature","bbox":[77.95651,19.11078,77.95971,19.11689],"properties":{"ward":23,"name":"Ganesh Nagar And Bhattigalli"},"geometry":{"type":"Polygon","coordinates":[[[77.95893,19.116],[77.95842,19.11436],[77.95913,19.11366],[77.95971,19.11205],[77.95927,19.1111],[77.95908,19.11115],[77.95832,19.11078],[77.95675,19.11449],[77.95651,19.11669],[77.95685,19.11689],[77.95893,19.116]]]}},{"type":"Feature","bbox":[77.95842,19.1132,77.9621,19.116],"properties":{"ward":24,"name":"\"Korbagalli, Shakeelgalli , Gujrigalli.\""},"geometry":{"type":"Polygon","coordinates":[[[77.9621,19.11525],[77.96186,19.11403],[77.96038,19.1132],[77.95921,19.11344],[77.95842,19.11436],[77.95893,19.116],[77.96057,19.11551],[77.96079,19.1158],[77.9612,19.11579],[77.96106,19.11522],[77.9621,19.11525]]]}},{"type":"Feature","bbox":[77.96161,19.11062,77.96511,19.11437],"properties":{"ward":25,"name":"\"Bangala Galli, Pandri Galli Market Galli\""},"geometry":{"type":"Polygon","coordinates":[[[77.96511,19.11245],[77.96407,19.11205],[77.96268,19.11062],[77.96161,19.11078],[77.96222,19.114],[77.96307,19.11401],[77.96469,19.11437],[77.96429,19.11301],[77.96511,19.11245]]]}},{"type":"Feature","bbox":[77.95921,19.11078,77.96222,19.11403],"properties":{"ward":26,"name":"Chowdarigalli , Market Area."},"geometry":{"type":"Polygon","coordinates":[[[77.96222,19.114],[77.96161,19.11078],[77.95997,19.11083],[77.95927,19.1111],[77.95971,19.11205],[77.95921,19.11344],[77.96038,19.1132],[77.96186,19.11403],[77.96222,19.114]]]}}]}