{"type":"FeatureCollection","features":[{"type":"Feature","bbox":[76.56724,18.40583,76.60004,18.42047],"properties":{"ward":1,"name":"Ward 2"},"geometry":{"type":"Polygon","coordinates":[[[76.56985,18.41776],[76.57002,18.41856],[76.57075,18.41844],[76.57644,18.41856],[76.57592,18.42047],[76.57948,18.42006],[76.57906,18.4191],[76.58094,18.4186],[76.58102,18.41897],[76.58248,18.41872],[76.58268,18.41924],[76.58402,18.419],[76.58436,18.42003],[76.58613,18.41965],[76.58627,18.42012],[76.58793,18.41977],[76.58819,18.42034],[76.59107,18.41934],[76.58994,18.41785],[76.59521,18.41711],[76.59511,18.41624],[76.59924,18.41607],[76.60004,18.41401],[76.58952,18.41067],[76.58729,18.41044],[76.58421,18.4089],[76.58284,18.40857],[76.58283,18.4081],[76.58259,18.40797],[76.58182,18.40819],[76.5817,18.40636],[76.58018,18.40614],[76.58015,18.40583],[76.57808,18.40617],[76.57641,18.40603],[76.57411,18.40692],[76.56724,18.40885],[76.56888,18.41375],[76.56838,18.41394],[76.56985,18.41776]]]}},{"type":"Feature","bbox":[76.58489,18.40446,76.60631,18.41401],"properties":{"ward":2},"geometry":{"type":"Polygon","coordinates":[[[76.58489,18.40933],[76.58724,18.41042],[76.58955,18.41066],[76.60002,18.41401],[76.60038,18.41349],[76.60405,18.4139],[76.60368,18.41147],[76.60631,18.41136],[76.60109,18.40704],[76.59877,18.40534],[76.59722,18.40446],[76.59154,18.40591],[76.59072,18.40624],[76.5879,18.4081],[76.58501,18.40911],[76.58489,18.40933]]]}},{"type":"Feature","bbox":[76.58706,18.3959,76.6069,18.41133],"properties":{"ward":3},"geometry":{"type":"Polygon","coordinates":[[[76.60107,18.40703],[76.60629,18.41133],[76.60638,18.40999],[76.60546,18.40448],[76.6069,18.40462],[76.60619,18.39789],[76.60372,18.39903],[76.60246,18.3959],[76.59873,18.39884],[76.59635,18.39943],[76.59594,18.39997],[76.59588,18.40058],[76.59244,18.40059],[76.58917,18.39746],[76.58706,18.39739],[76.58741,18.39829],[76.58783,18.39858],[76.59877,18.40534],[76.60107,18.40703]]]}},{"type":"Feature","bbox":[76.58925,18.38808,76.60247,18.40058],"properties":{"ward":4},"geometry":{"type":"Polygon","coordinates":[[[76.59874,18.39883],[76.60247,18.39589],[76.60005,18.38923],[76.59845,18.38987],[76.59772,18.38808],[76.59366,18.38885],[76.59335,18.38867],[76.59267,18.39019],[76.59255,18.39095],[76.59196,18.39238],[76.59263,18.39427],[76.58925,18.39752],[76.59245,18.40058],[76.59587,18.40058],[76.59594,18.39996],[76.59632,18.39943],[76.59874,18.39883]]]}},{"type":"Feature","bbox":[76.58102,18.37646,76.59393,18.39757],"properties":{"ward":5},"geometry":{"type":"Polygon","coordinates":[[[76.58178,18.39757],[76.58688,18.39699],[76.58705,18.39738],[76.58926,18.39751],[76.59262,18.39426],[76.59196,18.39237],[76.59336,18.38866],[76.59295,18.3884],[76.59393,18.38744],[76.59282,18.38718],[76.59323,18.38478],[76.59196,18.38476],[76.59222,18.3815],[76.5921,18.37882],[76.59117,18.37839],[76.59114,18.37652],[76.58827,18.37646],[76.588,18.37804],[76.58671,18.38285],[76.58612,18.38742],[76.58541,18.39075],[76.58102,18.39147],[76.58139,18.39308],[76.58178,18.39757]]]}},{"type":"Feature","bbox":[76.5754,18.38556,76.59078,18.40227],"properties":{"ward":6},"geometry":{"type":"Polygon","coordinates":[[[76.58178,18.39757],[76.5815,18.39372],[76.58103,18.39146],[76.58107,18.38629],[76.58089,18.38607],[76.58072,18.38618],[76.57749,18.38556],[76.57768,18.38765],[76.57753,18.3905],[76.57552,18.39124],[76.57634,18.39336],[76.57544,18.39365],[76.5754,18.39396],[76.57558,18.39886],[76.57986,18.3998],[76.5813,18.39968],[76.58167,18.40076],[76.58238,18.40169],[76.58353,18.40227],[76.58538,18.40217],[76.58536,18.40117],[76.58855,18.40096],[76.59078,18.40043],[76.58739,18.39829],[76.58687,18.39698],[76.58178,18.39757]]]}},{"type":"Feature","bbox":[76.5848,18.40044,76.59722,18.40915],"properties":{"ward":7},"geometry":{"type":"Polygon","coordinates":[[[76.58483,18.40227],[76.58495,18.40248],[76.58587,18.40254],[76.58585,18.40337],[76.58543,18.40339],[76.58525,18.40758],[76.5848,18.40853],[76.58499,18.40915],[76.58789,18.40812],[76.59036,18.40647],[76.59151,18.40592],[76.59722,18.40447],[76.59077,18.40044],[76.58852,18.40097],[76.58536,18.40116],[76.58544,18.40208],[76.58483,18.40227]]]}},{"type":"Feature","bbox":[76.57558,18.39894,76.58586,18.40933],"properties":{"ward":8},"geometry":{"type":"MultiPolygon","coordinates":[[[[76.57573,18.39959],[76.57591,18.39921],[76.57558,18.39896],[76.57573,18.39959]]],[[[76.57591,18.39921],[76.57607,18.39933],[76.57635,18.40037],[76.57612,18.40125],[76.57635,18.40308],[76.5769,18.40397],[76.57663,18.40411],[76.5771,18.40486],[76.57711,18.40608],[76.57861,18.40611],[76.58014,18.40583],[76.5802,18.40615],[76.5817,18.40636],[76.58183,18.40817],[76.58257,18.40796],[76.58281,18.40809],[76.58283,18.40855],[76.58419,18.40889],[76.58488,18.40933],[76.58499,18.40913],[76.58483,18.40834],[76.58527,18.40756],[76.58542,18.4034],[76.58585,18.40339],[76.58586,18.40253],[76.58496,18.40248],[76.58483,18.40228],[76.58353,18.40226],[76.58235,18.40166],[76.58164,18.40072],[76.58136,18.39968],[76.57985,18.39978],[76.57604,18.39894],[76.57591,18.39921]]]]}},{"type":"Feature","bbox":[76.56108,18.39767,76.57711,18.41388],"properties":{"ward":9},"geometry":{"type":"Polygon","coordinates":[[[76.57604,18.3989],[76.5667,18.39767],[76.56601,18.39773],[76.56355,18.39873],[76.56108,18.40059],[76.56331,18.4056],[76.56422,18.4091],[76.56583,18.40924],[76.56399,18.41004],[76.56442,18.41206],[76.56717,18.4115],[76.56834,18.41388],[76.56887,18.41375],[76.56723,18.40884],[76.57409,18.4069],[76.57644,18.406],[76.57711,18.40606],[76.57709,18.40486],[76.57662,18.4041],[76.5769,18.40397],[76.57635,18.40307],[76.57612,18.40125],[76.57635,18.40038],[76.57604,18.3989]]]}},{"type":"Feature","bbox":[76.55526,18.40061,76.56994,18.42055],"properties":{"ward":10},"geometry":{"type":"Polygon","coordinates":[[[76.5602,18.41925],[76.56054,18.42055],[76.56336,18.41985],[76.56339,18.42018],[76.56994,18.41857],[76.56981,18.41775],[76.56837,18.4139],[76.56717,18.4115],[76.56441,18.41208],[76.56396,18.41005],[76.56584,18.40925],[76.56424,18.40911],[76.56331,18.40557],[76.56104,18.40061],[76.55815,18.40279],[76.56012,18.40603],[76.56036,18.40913],[76.55526,18.40919],[76.55567,18.41039],[76.55642,18.41174],[76.55774,18.41349],[76.5602,18.41925]]]}},{"type":"Feature","bbox":[76.52805,18.40278,76.56053,18.42424],"properties":{"ward":11},"geometry":{"type":"Polygon","coordinates":[[[76.55815,18.40278],[76.55603,18.40437],[76.55359,18.40497],[76.54735,18.40892],[76.54637,18.40912],[76.53027,18.40724],[76.52897,18.40689],[76.52893,18.40746],[76.52805,18.40765],[76.52812,18.40825],[76.53039,18.41902],[76.53087,18.42424],[76.53255,18.42418],[76.53687,18.42331],[76.5369,18.42297],[76.53816,18.42277],[76.53822,18.42324],[76.54877,18.42121],[76.54949,18.42272],[76.55326,18.42145],[76.55351,18.42177],[76.5551,18.42122],[76.56053,18.42059],[76.5602,18.41922],[76.55772,18.41343],[76.55627,18.41145],[76.55569,18.41041],[76.55527,18.40918],[76.56036,18.40913],[76.56013,18.40603],[76.55815,18.40278]]]}},{"type":"Feature","bbox":[76.52905,18.39527,76.55305,18.40913],"properties":{"ward":12},"geometry":{"type":"Polygon","coordinates":[[[76.52909,18.40684],[76.53027,18.40725],[76.54638,18.40913],[76.54737,18.40892],[76.55273,18.40548],[76.55234,18.40457],[76.55305,18.4044],[76.55246,18.40244],[76.55003,18.39654],[76.54873,18.39641],[76.54878,18.39609],[76.54762,18.39581],[76.54631,18.39527],[76.54545,18.39619],[76.54402,18.39891],[76.5435,18.40027],[76.53834,18.39951],[76.53412,18.39936],[76.53409,18.39911],[76.53387,18.39903],[76.53382,18.39864],[76.52973,18.39862],[76.52905,18.40394],[76.52909,18.40684]]]}},{"type":"Feature","bbox":[76.54641,18.39343,76.56174,18.4054],"properties":{"ward":13},"geometry":{"type":"Polygon","coordinates":[[[76.54761,18.39577],[76.54881,18.39609],[76.54875,18.39638],[76.55005,18.3965],[76.55254,18.40245],[76.55315,18.40441],[76.55241,18.40456],[76.55275,18.4054],[76.55356,18.40494],[76.55591,18.4043],[76.56174,18.39999],[76.56141,18.39972],[76.56013,18.39939],[76.55799,18.39927],[76.55783,18.39846],[76.55735,18.39869],[76.55715,18.39835],[76.55614,18.39796],[76.55616,18.39748],[76.55544,18.39759],[76.5519,18.39696],[76.55132,18.397],[76.54895,18.39429],[76.54802,18.39343],[76.54774,18.39493],[76.54673,18.39492],[76.54641,18.39523],[76.54761,18.39577]],[[76.54881,18.39609],[76.54881,18.39608],[76.54881,18.39609],[76.54881,18.39609]]]}},{"type":"Feature","bbox":[76.54803,18.38357,76.56356,18.39997],"properties":{"ward":14},"geometry":{"type":"Polygon","coordinates":[[[76.56188,18.39997],[76.56356,18.39874],[76.563,18.39744],[76.56228,18.39754],[76.56204,18.39728],[76.55978,18.39243],[76.55938,18.3907],[76.55928,18.38943],[76.55728,18.38468],[76.5542,18.38521],[76.55401,18.38357],[76.54973,18.38362],[76.54968,18.38409],[76.55004,18.3842],[76.54984,18.38604],[76.55113,18.38661],[76.55105,18.38714],[76.5503,18.39052],[76.54803,18.39328],[76.55135,18.3969],[76.5525,18.39697],[76.55548,18.39755],[76.55619,18.39744],[76.55621,18.39793],[76.55717,18.39829],[76.55738,18.39861],[76.55787,18.39837],[76.55803,18.39918],[76.56013,18.39933],[76.56142,18.39969],[76.56188,18.39997]]]}},{"type":"Feature","bbox":[76.5561,18.3813,76.5756,18.39887],"properties":{"ward":15},"geometry":{"type":"Polygon","coordinates":[[[76.57549,18.3969],[76.57225,18.39706],[76.57221,18.39545],[76.57081,18.39432],[76.56882,18.39105],[76.56601,18.38554],[76.56575,18.38558],[76.56477,18.3835],[76.55949,18.38258],[76.55937,18.38225],[76.55805,18.38258],[76.55771,18.3813],[76.5561,18.38165],[76.55929,18.38945],[76.55938,18.39072],[76.55978,18.39243],[76.56204,18.39728],[76.56229,18.39756],[76.563,18.39744],[76.56355,18.39875],[76.56554,18.39788],[76.5667,18.39768],[76.5756,18.39887],[76.57549,18.3969]]]}},{"type":"Feature","bbox":[76.56477,18.3835,76.57768,18.39705],"properties":{"ward":16},"geometry":{"type":"MultiPolygon","coordinates":[[[[76.57544,18.39365],[76.57635,18.39337],[76.57627,18.39297],[76.57586,18.39235],[76.57552,18.39124],[76.57754,18.3905],[76.57768,18.38768],[76.57748,18.38556],[76.56477,18.3835],[76.56576,18.38558],[76.56602,18.38555],[76.56883,18.39105],[76.57083,18.39432],[76.57222,18.39545],[76.57225,18.39705],[76.57549,18.39691],[76.57544,18.39365]]],[[[76.57635,18.39337],[76.57635,18.39338],[76.57637,18.39336],[76.57635,18.39337]]]]}},{"type":"Feature","bbox":[76.54864,18.36949,76.57317,18.38523],"properties":{"ward":17},"geometry":{"type":"Polygon","coordinates":[[[76.55949,18.3826],[76.57317,18.38489],[76.57287,18.38264],[76.57298,18.38146],[76.57255,18.38143],[76.57074,18.37056],[76.56093,18.37311],[76.55976,18.37097],[76.55857,18.37147],[76.55815,18.36949],[76.5563,18.36979],[76.55421,18.37132],[76.55085,18.37185],[76.54959,18.37263],[76.54994,18.38028],[76.5487,18.3805],[76.54864,18.38141],[76.54974,18.38149],[76.54991,18.3835],[76.554,18.38356],[76.55419,18.38523],[76.5573,18.38466],[76.55608,18.38164],[76.55771,18.38128],[76.55805,18.38259],[76.55936,18.38225],[76.55949,18.3826]]]}},{"type":"Feature","bbox":[76.58095,18.38628,76.58609,18.39145],"properties":{"ward":18,"name":"Gokuldham Society"},"geometry":{"type":"Polygon","coordinates":[[[76.58095,18.38839],[76.58103,18.39145],[76.58541,18.39076],[76.58609,18.38743],[76.58107,18.38628],[76.58095,18.38839]]]}}]}