{"type":"FeatureCollection","features":[{"type":"Feature","bbox":[74.64906,19.61585,74.67954,19.63523],"properties":{"ward":1},"geometry":{"type":"Polygon","coordinates":[[[74.65737,19.63523],[74.66414,19.63419],[74.67057,19.63258],[74.67003,19.62929],[74.67356,19.62783],[74.67304,19.6272],[74.67343,19.62733],[74.67478,19.62607],[74.67665,19.62299],[74.67954,19.62003],[74.67772,19.61585],[74.67494,19.61767],[74.67311,19.61863],[74.67095,19.619],[74.6568,19.62016],[74.65743,19.62408],[74.6572,19.62515],[74.65696,19.62545],[74.65443,19.62417],[74.64982,19.62461],[74.64928,19.62493],[74.64906,19.62562],[74.64949,19.62598],[74.64989,19.62607],[74.65035,19.6272],[74.65106,19.62749],[74.65177,19.6307],[74.65189,19.6317],[74.65177,19.63201],[74.6547,19.632],[74.65522,19.63458],[74.65737,19.63523]]]}},{"type":"Feature","bbox":[74.64182,19.61995,74.65734,19.63338],"properties":{"ward":2},"geometry":{"type":"Polygon","coordinates":[[[74.65667,19.61995],[74.65359,19.62068],[74.65123,19.62144],[74.64182,19.62481],[74.64296,19.62881],[74.64708,19.63143],[74.64908,19.63204],[74.65036,19.63315],[74.65104,19.63338],[74.65184,19.63169],[74.65121,19.62838],[74.65099,19.62755],[74.65037,19.62725],[74.64998,19.62668],[74.64985,19.62612],[74.64948,19.62603],[74.64903,19.62562],[74.64925,19.62492],[74.6498,19.62459],[74.65438,19.62409],[74.65696,19.62537],[74.65734,19.62436],[74.65667,19.61995]]]}},{"type":"Feature","bbox":[74.64713,19.61385,74.65638,19.62014],"properties":{"ward":3},"geometry":{"type":"Polygon","coordinates":[[[74.65638,19.61753],[74.65576,19.61385],[74.65434,19.6146],[74.64713,19.62014],[74.65296,19.61998],[74.65293,19.61784],[74.65638,19.61753]]]}},{"type":"Feature","bbox":[74.64633,19.61756,74.65672,19.62294],"properties":{"ward":4},"geometry":{"type":"Polygon","coordinates":[[[74.64633,19.62082],[74.64661,19.62294],[74.65282,19.62086],[74.65672,19.61989],[74.6564,19.61756],[74.65297,19.61787],[74.65301,19.62001],[74.64709,19.62021],[74.64633,19.62082]]]}},{"type":"Feature","bbox":[74.65591,19.61384,74.66139,19.62011],"properties":{"ward":5},"geometry":{"type":"Polygon","coordinates":[[[74.65591,19.61384],[74.6568,19.62011],[74.66085,19.61978],[74.66058,19.61624],[74.66123,19.61632],[74.66139,19.61585],[74.65728,19.61396],[74.65591,19.61384]]]}},{"type":"Feature","bbox":[74.66061,19.60951,74.67768,19.61975],"properties":{"ward":6},"geometry":{"type":"Polygon","coordinates":[[[74.66061,19.61628],[74.6609,19.61975],[74.67288,19.61859],[74.67416,19.61802],[74.67768,19.61574],[74.67704,19.61428],[74.67653,19.61229],[74.67544,19.60963],[74.67469,19.60951],[74.67044,19.61051],[74.66914,19.61107],[74.66842,19.61197],[74.66741,19.61513],[74.66682,19.61627],[74.66582,19.61693],[74.66514,19.61712],[74.66403,19.61706],[74.66141,19.61588],[74.66125,19.61636],[74.66061,19.61628]]]}},{"type":"Feature","bbox":[74.6391,19.60453,74.66649,19.62475],"properties":{"ward":7},"geometry":{"type":"Polygon","coordinates":[[[74.64164,19.62475],[74.6465,19.62293],[74.64622,19.62077],[74.65484,19.61395],[74.65582,19.61364],[74.65676,19.61368],[74.66409,19.6169],[74.66511,19.61693],[74.66649,19.61638],[74.66614,19.61434],[74.66419,19.60668],[74.6638,19.60453],[74.66144,19.60501],[74.65643,19.60646],[74.65145,19.60686],[74.6487,19.60725],[74.64563,19.6073],[74.64044,19.60816],[74.64023,19.60924],[74.6391,19.60953],[74.63994,19.62123],[74.64116,19.62117],[74.64149,19.6219],[74.64164,19.62475]]]}}]}