{"type":"FeatureCollection","features":[{"type":"Feature","bbox":[76.29266,17.45971,76.29495,17.4613],"properties":{"ward":1},"geometry":{"type":"Polygon","coordinates":[[[76.29429,17.45971],[76.29266,17.46051],[76.29301,17.46119],[76.2933,17.46115],[76.29336,17.4613],[76.29392,17.46104],[76.29495,17.46109],[76.29429,17.45971]]]}},{"type":"Feature","bbox":[76.293,17.46105,76.29651,17.46513],"properties":{"ward":2},"geometry":{"type":"Polygon","coordinates":[[[76.29329,17.46116],[76.293,17.46128],[76.29453,17.46481],[76.29651,17.46513],[76.29495,17.4611],[76.29454,17.46118],[76.29392,17.46105],[76.29334,17.46133],[76.29329,17.46116]]]}},{"type":"Feature","bbox":[76.29509,17.4603,76.29922,17.46518],"properties":{"ward":3},"geometry":{"type":"Polygon","coordinates":[[[76.29603,17.46126],[76.29509,17.4614],[76.29655,17.46518],[76.29922,17.46119],[76.29797,17.46081],[76.29812,17.46042],[76.29802,17.4603],[76.29713,17.46061],[76.29603,17.46126]]]}},{"type":"Feature","bbox":[76.29543,17.45331,76.30195,17.46114],"properties":{"ward":4},"geometry":{"type":"Polygon","coordinates":[[[76.29558,17.45669],[76.29543,17.45824],[76.29571,17.45836],[76.29562,17.4592],[76.29578,17.46003],[76.2963,17.46107],[76.29803,17.46026],[76.29815,17.46042],[76.29802,17.46078],[76.29929,17.46114],[76.30195,17.45622],[76.29953,17.45558],[76.29927,17.45331],[76.29794,17.45439],[76.29645,17.45495],[76.29662,17.45638],[76.29558,17.45669]]]}},{"type":"Feature","bbox":[76.29431,17.45827,76.29628,17.46138],"properties":{"ward":5,"name":"Ward No. 01"},"geometry":{"type":"Polygon","coordinates":[[[76.29473,17.45936],[76.29431,17.4597],[76.29508,17.46138],[76.29628,17.46108],[76.29575,17.46002],[76.29558,17.45914],[76.29569,17.45838],[76.29543,17.45827],[76.29473,17.45936]]]}},{"type":"Feature","bbox":[76.28967,17.45765,76.29475,17.46065],"properties":{"ward":6},"geometry":{"type":"Polygon","coordinates":[[[76.29448,17.45875],[76.29334,17.45917],[76.29315,17.45849],[76.29273,17.45817],[76.29262,17.45765],[76.2924,17.45775],[76.29243,17.4591],[76.29148,17.45924],[76.29218,17.46004],[76.29102,17.46035],[76.28997,17.46014],[76.28967,17.46042],[76.28973,17.46065],[76.29257,17.46052],[76.29374,17.46001],[76.29475,17.45931],[76.29448,17.45875]]]}},{"type":"Feature","bbox":[76.28987,17.45709,76.2941,17.46031],"properties":{"ward":7},"geometry":{"type":"Polygon","coordinates":[[[76.28987,17.4601],[76.29103,17.46031],[76.29211,17.46002],[76.29144,17.45922],[76.29239,17.45906],[76.29237,17.45773],[76.29264,17.45761],[76.29276,17.45814],[76.29316,17.45846],[76.29335,17.45914],[76.29398,17.45892],[76.2941,17.45817],[76.29379,17.45803],[76.29393,17.45749],[76.29385,17.45709],[76.29144,17.45789],[76.29153,17.45846],[76.28992,17.45924],[76.28987,17.4601]]]}},{"type":"Feature","bbox":[76.29381,17.45655,76.29554,17.45927],"properties":{"ward":8},"geometry":{"type":"Polygon","coordinates":[[[76.29546,17.45655],[76.29387,17.45709],[76.29395,17.45751],[76.29381,17.45801],[76.29413,17.45816],[76.294,17.45892],[76.29449,17.45872],[76.29477,17.45927],[76.29541,17.45823],[76.29554,17.45666],[76.29546,17.45655]]]}},{"type":"Feature","bbox":[76.29373,17.45466,76.2966,17.45689],"properties":{"ward":9},"geometry":{"type":"Polygon","coordinates":[[[76.29448,17.45532],[76.29373,17.45539],[76.29461,17.45689],[76.29546,17.45653],[76.29557,17.45666],[76.2966,17.45635],[76.29642,17.45493],[76.29564,17.45466],[76.29452,17.45491],[76.29448,17.45532]]]}},{"type":"Feature","bbox":[76.2921,17.4555,76.29457,17.45747],"properties":{"ward":10},"geometry":{"type":"Polygon","coordinates":[[[76.29377,17.4555],[76.2921,17.45607],[76.29231,17.45657],[76.29253,17.45655],[76.29273,17.4571],[76.29259,17.45747],[76.29457,17.45686],[76.29377,17.4555]]]}},{"type":"Feature","bbox":[76.29112,17.45503,76.2927,17.45742],"properties":{"ward":11},"geometry":{"type":"Polygon","coordinates":[[[76.29115,17.45522],[76.29112,17.45614],[76.29164,17.45622],[76.2918,17.45665],[76.29207,17.45661],[76.29211,17.45678],[76.29231,17.45676],[76.29244,17.45742],[76.29261,17.45735],[76.2927,17.4571],[76.29252,17.45658],[76.29229,17.4566],[76.29195,17.45556],[76.29161,17.45503],[76.29115,17.45522]]]}},{"type":"Feature","bbox":[76.28877,17.45664,76.29257,17.45914],"properties":{"ward":12},"geometry":{"type":"Polygon","coordinates":[[[76.29205,17.45664],[76.28877,17.45724],[76.28883,17.45848],[76.29016,17.45842],[76.29001,17.45914],[76.2915,17.45845],[76.29142,17.45789],[76.29257,17.45749],[76.29243,17.45743],[76.29229,17.45678],[76.29211,17.45681],[76.29205,17.45664]]]}},{"type":"Feature","bbox":[76.28733,17.45367,76.29176,17.4572],"properties":{"ward":13},"geometry":{"type":"Polygon","coordinates":[[[76.29176,17.45664],[76.29162,17.45624],[76.29107,17.45616],[76.29113,17.45522],[76.29085,17.45472],[76.29004,17.45502],[76.28947,17.45375],[76.28899,17.45367],[76.28896,17.45421],[76.28733,17.45467],[76.28774,17.4572],[76.29176,17.45664]]]}},{"type":"Feature","bbox":[76.29157,17.45415,76.29376,17.45604],"properties":{"ward":14},"geometry":{"type":"Polygon","coordinates":[[[76.29205,17.45415],[76.29157,17.45487],[76.29209,17.45604],[76.29376,17.45549],[76.29333,17.45488],[76.2931,17.45488],[76.29278,17.4542],[76.29205,17.45415]]]}},{"type":"Feature","bbox":[76.29176,17.4533,76.2944,17.45536],"properties":{"ward":15},"geometry":{"type":"Polygon","coordinates":[[[76.29225,17.4533],[76.29176,17.4541],[76.29179,17.45437],[76.29202,17.45411],[76.2928,17.45419],[76.29312,17.45485],[76.29333,17.45485],[76.29377,17.45536],[76.2944,17.45527],[76.29304,17.45413],[76.29237,17.45377],[76.29244,17.45346],[76.29225,17.4533]]]}},{"type":"Feature","bbox":[76.29076,17.45409,76.29186,17.4552],"properties":{"ward":16},"geometry":{"type":"Polygon","coordinates":[[[76.2908,17.45409],[76.29076,17.45471],[76.29114,17.4552],[76.29162,17.45499],[76.29155,17.45486],[76.29186,17.45441],[76.29173,17.45413],[76.2908,17.45409]]]}},{"type":"Feature","bbox":[76.2897,17.45325,76.29199,17.45496],"properties":{"ward":17},"geometry":{"type":"Polygon","coordinates":[[[76.28976,17.45325],[76.2897,17.4537],[76.29006,17.45496],[76.29073,17.45464],[76.29078,17.45403],[76.29171,17.45407],[76.29199,17.45358],[76.28976,17.45325]]]}}]}