{"type":"FeatureCollection","features":[{"type":"Feature","bbox":[83.89432,18.31563,83.94461,18.34799],"properties":{"ward":1,"name":"Balaga, Bubammanagar, Kummari Street, Balaga Mettu"},"geometry":{"type":"Polygon","coordinates":[[[83.94173,18.3321],[83.94346,18.33159],[83.94439,18.32874],[83.94436,18.32789],[83.94461,18.32787],[83.92768,18.31585],[83.92576,18.31563],[83.92453,18.31575],[83.92329,18.31618],[83.91376,18.32171],[83.91455,18.32462],[83.916,18.32541],[83.9166,18.32608],[83.91537,18.32699],[83.91388,18.32717],[83.9118,18.3269],[83.91024,18.32693],[83.91001,18.32641],[83.90889,18.32511],[83.90872,18.32464],[83.89432,18.33301],[83.89616,18.33517],[83.89686,18.33474],[83.89705,18.33409],[83.89762,18.3338],[83.89804,18.334],[83.8995,18.33405],[83.90095,18.33439],[83.90215,18.33432],[83.90263,18.33451],[83.90548,18.33431],[83.90567,18.33443],[83.90579,18.33429],[83.90592,18.3346],[83.9068,18.33442],[83.90769,18.33391],[83.91061,18.33365],[83.91089,18.33425],[83.91183,18.33442],[83.91204,18.33484],[83.91296,18.33473],[83.9133,18.3345],[83.91407,18.33555],[83.91592,18.33507],[83.91537,18.33426],[83.91524,18.33281],[83.9132,18.33228],[83.91332,18.33123],[83.91256,18.33104],[83.91238,18.33043],[83.91269,18.33021],[83.91359,18.33013],[83.9142,18.33013],[83.9144,18.33026],[83.91554,18.32985],[83.91562,18.32963],[83.91657,18.32947],[83.91658,18.32976],[83.91694,18.32967],[83.91699,18.32997],[83.91718,18.33003],[83.91749,18.33092],[83.91751,18.33156],[83.9191,18.33138],[83.91916,18.33197],[83.921,18.332],[83.92303,18.33247],[83.92313,18.33233],[83.92332,18.33236],[83.92348,18.33261],[83.9231,18.33427],[83.92582,18.33615],[83.9256,18.33741],[83.92572,18.33806],[83.92796,18.34324],[83.93022,18.3457],[83.93052,18.34799],[83.93321,18.34673],[83.93493,18.34609],[83.93671,18.34568],[83.9371,18.34375],[83.93762,18.34275],[83.93999,18.33963],[83.94023,18.3384],[83.94013,18.33748],[83.93941,18.33581],[83.9389,18.33543],[83.93909,18.33434],[83.94028,18.33344],[83.94018,18.33301],[83.94173,18.3321]]]}},{"type":"Feature","bbox":[83.92104,18.31148,83.95163,18.32877],"properties":{"ward":2,"name":"Adivarampeta Colony,Balaga Bucthipeta,Shiridi Sai"},"geometry":{"type":"Polygon","coordinates":[[[83.94678,18.32877],[83.95163,18.32676],[83.95058,18.3263],[83.95063,18.32434],[83.95025,18.32376],[83.95047,18.32165],[83.94933,18.32092],[83.9486,18.31941],[83.94814,18.31904],[83.94801,18.31919],[83.94757,18.31916],[83.94684,18.31945],[83.94671,18.31863],[83.94687,18.3186],[83.94661,18.31787],[83.9453,18.3181],[83.94502,18.31777],[83.94469,18.31782],[83.94421,18.31823],[83.94445,18.31876],[83.94335,18.31919],[83.94293,18.31866],[83.94248,18.31888],[83.94167,18.31788],[83.94041,18.3188],[83.94072,18.31912],[83.94069,18.31973],[83.93992,18.31882],[83.94024,18.31849],[83.93938,18.31768],[83.93919,18.31737],[83.93928,18.31705],[83.93906,18.31674],[83.93883,18.31665],[83.93842,18.31692],[83.93827,18.31644],[83.93803,18.31643],[83.9379,18.31613],[83.93764,18.31632],[83.93736,18.31599],[83.93717,18.31439],[83.93701,18.31439],[83.93669,18.31307],[83.93565,18.31249],[83.93548,18.3122],[83.93476,18.31205],[83.93429,18.31159],[83.93256,18.3121],[83.93268,18.31235],[83.93087,18.31257],[83.93027,18.31286],[83.92918,18.31306],[83.92917,18.31232],[83.92805,18.3124],[83.92804,18.31192],[83.92552,18.31212],[83.92541,18.31193],[83.92478,18.31198],[83.92472,18.31149],[83.92456,18.31148],[83.92474,18.31349],[83.92433,18.31342],[83.92227,18.31191],[83.92215,18.31209],[83.92122,18.31213],[83.92104,18.31261],[83.92204,18.31396],[83.9218,18.31415],[83.92185,18.31497],[83.92262,18.3148],[83.92435,18.3158],[83.92576,18.31563],[83.92768,18.31585],[83.94461,18.32787],[83.94533,18.32771],[83.94678,18.32877]]]}},{"type":"Feature","bbox":[83.90955,18.29687,83.94814,18.32207],"properties":{"ward":3,"name":"Balaga Pondara Street,Bondilipuram,Maddi Street"},"geometry":{"type":"Polygon","coordinates":[[[83.91316,18.32207],[83.92291,18.31637],[83.92435,18.3158],[83.92262,18.3148],[83.92185,18.31497],[83.9218,18.31415],[83.92204,18.31396],[83.92104,18.31261],[83.92122,18.31213],[83.92215,18.31209],[83.92227,18.31191],[83.92433,18.31342],[83.92474,18.31349],[83.92456,18.31148],[83.92472,18.31149],[83.92478,18.31198],[83.92541,18.31193],[83.92552,18.31212],[83.92804,18.31192],[83.92805,18.3124],[83.92917,18.31232],[83.92918,18.31306],[83.93027,18.31286],[83.93087,18.31257],[83.93268,18.31235],[83.93256,18.3121],[83.93429,18.31159],[83.93476,18.31205],[83.93548,18.3122],[83.93565,18.31249],[83.93669,18.31307],[83.93701,18.31439],[83.93717,18.31439],[83.93736,18.31599],[83.93764,18.31632],[83.9379,18.31613],[83.93803,18.31643],[83.93827,18.31644],[83.93842,18.31692],[83.93883,18.31665],[83.93906,18.31674],[83.93928,18.31705],[83.93919,18.31737],[83.93938,18.31768],[83.94024,18.31849],[83.93992,18.31882],[83.94069,18.31973],[83.94072,18.31912],[83.94041,18.3188],[83.94167,18.31788],[83.94248,18.31888],[83.94293,18.31866],[83.94335,18.31919],[83.94445,18.31876],[83.94421,18.31823],[83.94469,18.31782],[83.94502,18.31777],[83.9453,18.3181],[83.94661,18.31787],[83.94687,18.3186],[83.94671,18.31863],[83.94684,18.31945],[83.94757,18.31916],[83.94802,18.31915],[83.94814,18.31899],[83.94808,18.3181],[83.94721,18.3162],[83.94712,18.31494],[83.94604,18.31529],[83.94563,18.31526],[83.94548,18.31391],[83.9439,18.31318],[83.94204,18.3112],[83.94131,18.31124],[83.94098,18.31144],[83.94031,18.31058],[83.93984,18.31061],[83.93935,18.3095],[83.93848,18.30919],[83.93794,18.30879],[83.93732,18.30878],[83.93726,18.30815],[83.93624,18.30759],[83.93605,18.3077],[83.93552,18.30645],[83.93519,18.30632],[83.93469,18.30562],[83.93312,18.30466],[83.93272,18.30337],[83.93205,18.30225],[83.93185,18.30224],[83.93124,18.30078],[83.93127,18.3005],[83.93039,18.29883],[83.92997,18.29872],[83.92967,18.29715],[83.9293,18.29715],[83.92878,18.29688],[83.92789,18.29687],[83.92702,18.29722],[83.92539,18.29754],[83.92535,18.29726],[83.9249,18.29745],[83.92255,18.2973],[83.9199,18.29828],[83.91965,18.29879],[83.91971,18.29899],[83.91948,18.2991],[83.91884,18.30032],[83.91842,18.30056],[83.91796,18.3005],[83.91758,18.30186],[83.91775,18.30205],[83.91768,18.30218],[83.91628,18.30256],[83.91202,18.30285],[83.91054,18.30275],[83.91016,18.30297],[83.91033,18.30326],[83.91017,18.30339],[83.91019,18.30373],[83.9104,18.30387],[83.91041,18.30415],[83.91006,18.30441],[83.91026,18.30506],[83.91007,18.30509],[83.90979,18.30561],[83.91,18.30564],[83.91018,18.30606],[83.90991,18.30648],[83.91053,18.30683],[83.91004,18.30709],[83.9102,18.30809],[83.90987,18.30839],[83.90987,18.30852],[83.91005,18.30852],[83.90988,18.3091],[83.91001,18.3094],[83.90983,18.31059],[83.91005,18.31088],[83.90975,18.31147],[83.90987,18.31226],[83.90955,18.31263],[83.90978,18.31306],[83.91031,18.31307],[83.91052,18.31327],[83.91084,18.3132],[83.91061,18.31383],[83.91085,18.3139],[83.91098,18.31461],[83.91171,18.31408],[83.91227,18.31403],[83.91238,18.31414],[83.91151,18.31603],[83.91,18.3171],[83.91015,18.31781],[83.91122,18.31872],[83.91158,18.31945],[83.91125,18.31955],[83.91125,18.3197],[83.91057,18.32011],[83.91046,18.32033],[83.9104,18.32068],[83.91076,18.32083],[83.9109,18.32125],[83.91062,18.32145],[83.91061,18.32163],[83.91215,18.32107],[83.91221,18.3215],[83.91317,18.32168],[83.91316,18.32207]]]}},{"type":"Feature","bbox":[83.90477,18.29434,83.92642,18.30326],"properties":{"ward":4,"name":"Balagamettu South Side,Bavajithota,Govt.Hospital"},"geometry":{"type":"Polygon","coordinates":[[[83.91033,18.30326],[83.91016,18.30297],[83.91033,18.30277],[83.91202,18.30285],[83.91289,18.30269],[83.91491,18.30269],[83.91516,18.30256],[83.91628,18.30256],[83.91768,18.30218],[83.91775,18.30205],[83.91758,18.30186],[83.91796,18.3005],[83.91842,18.30056],[83.91884,18.30032],[83.91948,18.2991],[83.91971,18.29899],[83.91965,18.29879],[83.9199,18.29828],[83.92255,18.2973],[83.9249,18.29745],[83.92535,18.29726],[83.92539,18.29754],[83.92608,18.29743],[83.92635,18.29612],[83.92642,18.29469],[83.92628,18.29466],[83.92627,18.29434],[83.92554,18.29447],[83.92552,18.29463],[83.92534,18.29466],[83.92531,18.29451],[83.92431,18.29462],[83.9243,18.29451],[83.92389,18.29452],[83.92388,18.29465],[83.92361,18.29465],[83.92371,18.29525],[83.92158,18.29572],[83.9208,18.29561],[83.92053,18.29537],[83.91938,18.29549],[83.91943,18.29513],[83.91924,18.29468],[83.9176,18.29467],[83.9166,18.29438],[83.91649,18.29451],[83.91637,18.29437],[83.91599,18.29449],[83.91523,18.29443],[83.91518,18.29458],[83.9145,18.29458],[83.91442,18.29472],[83.9141,18.29461],[83.91282,18.29483],[83.91225,18.29475],[83.91168,18.29538],[83.91065,18.29479],[83.91022,18.29565],[83.90913,18.29587],[83.9091,18.29629],[83.90772,18.29613],[83.90771,18.29562],[83.90719,18.2952],[83.90478,18.29533],[83.90477,18.29922],[83.91033,18.30326]]]}},{"type":"Feature","bbox":[83.90051,18.28844,83.92643,18.29922],"properties":{"ward":5,"name":"Balaga Main Road South Side,Riims College East"},"geometry":{"type":"Polygon","coordinates":[[[83.90478,18.29533],[83.90719,18.2952],[83.90771,18.29562],[83.90772,18.29613],[83.9091,18.29629],[83.90913,18.29587],[83.91022,18.29565],[83.91065,18.29479],[83.91168,18.29538],[83.91225,18.29475],[83.91282,18.29483],[83.9141,18.29461],[83.91442,18.29472],[83.9145,18.29458],[83.91518,18.29458],[83.91523,18.29443],[83.91599,18.29449],[83.91637,18.29437],[83.91649,18.29451],[83.9166,18.29438],[83.9176,18.29467],[83.91924,18.29468],[83.91943,18.29513],[83.91938,18.29549],[83.92053,18.29537],[83.9208,18.29561],[83.92158,18.29572],[83.92371,18.29525],[83.92361,18.29465],[83.92388,18.29465],[83.92389,18.29452],[83.9243,18.29451],[83.92431,18.29462],[83.92531,18.29451],[83.92534,18.29466],[83.92552,18.29463],[83.92554,18.29447],[83.92627,18.29434],[83.92628,18.29466],[83.92643,18.29469],[83.92642,18.29336],[83.92573,18.29047],[83.92558,18.29035],[83.92538,18.28946],[83.92498,18.28907],[83.92195,18.28844],[83.92081,18.28856],[83.91849,18.2885],[83.91577,18.28918],[83.91367,18.28925],[83.91251,18.28899],[83.91251,18.28972],[83.91148,18.2898],[83.9115,18.29006],[83.91059,18.29018],[83.91023,18.28958],[83.91002,18.28964],[83.90996,18.28987],[83.90968,18.2899],[83.90761,18.28966],[83.90739,18.29156],[83.90751,18.29159],[83.90755,18.29208],[83.90741,18.29205],[83.90741,18.29311],[83.90716,18.29346],[83.90618,18.29351],[83.90572,18.29388],[83.9052,18.29399],[83.90328,18.2938],[83.90318,18.29409],[83.90238,18.29453],[83.90051,18.29495],[83.90359,18.29715],[83.90477,18.29922],[83.90478,18.29533]]]}},{"type":"Feature","bbox":[83.90761,18.28641,83.91419,18.29018],"properties":{"ward":6,"name":"Hudco Colony Hospital Road"},"geometry":{"type":"Polygon","coordinates":[[[83.9115,18.29005],[83.91148,18.2898],[83.91251,18.28972],[83.91251,18.28899],[83.91355,18.28924],[83.91419,18.28924],[83.91394,18.28865],[83.91362,18.28644],[83.91222,18.28641],[83.91232,18.28687],[83.9121,18.2869],[83.91201,18.28732],[83.91202,18.28762],[83.9122,18.28765],[83.91191,18.28872],[83.90914,18.28805],[83.90816,18.28854],[83.90761,18.28966],[83.90968,18.2899],[83.90996,18.28987],[83.91002,18.28964],[83.91023,18.28958],[83.91059,18.29018],[83.9115,18.29005]]]}},{"type":"Feature","bbox":[83.90296,18.27361,83.92305,18.28924],"properties":{"ward":7,"name":"Santhinagar,Prasanthi Nagar,Nehru Nagar"},"geometry":{"type":"Polygon","coordinates":[[[83.91419,18.28924],[83.9163,18.28912],[83.91849,18.2885],[83.92081,18.28856],[83.92194,18.28843],[83.92186,18.28759],[83.92212,18.28654],[83.9226,18.28556],[83.9225,18.28536],[83.9227,18.28516],[83.92264,18.28489],[83.92244,18.28482],[83.92282,18.2842],[83.92289,18.28363],[83.92277,18.27974],[83.923,18.27951],[83.92305,18.277],[83.92261,18.2737],[83.92132,18.27377],[83.92124,18.27362],[83.92056,18.27361],[83.91977,18.27387],[83.91926,18.27362],[83.91842,18.27378],[83.91646,18.27377],[83.91621,18.27397],[83.91441,18.27423],[83.91308,18.27463],[83.91245,18.27472],[83.91237,18.27453],[83.91217,18.27454],[83.91212,18.27471],[83.91159,18.27479],[83.91167,18.27649],[83.90298,18.27747],[83.90296,18.2838],[83.90322,18.28344],[83.90358,18.2833],[83.9036,18.28345],[83.90441,18.28385],[83.90514,18.28381],[83.90536,18.28408],[83.90588,18.28389],[83.90675,18.28417],[83.90678,18.28403],[83.90814,18.28395],[83.90873,18.28403],[83.90873,18.28417],[83.90977,18.28451],[83.91001,18.2848],[83.91068,18.28466],[83.91119,18.2865],[83.91362,18.28644],[83.91394,18.28865],[83.91419,18.28924]]]}},{"type":"Feature","bbox":[83.90204,18.24741,83.92949,18.27701],"properties":{"ward":8,"name":"Palakonda Rd East,Bondlipuram West,Bayyamma Thota"},"geometry":{"type":"Polygon","coordinates":[[[83.91217,18.27454],[83.91237,18.27453],[83.91245,18.27472],[83.91308,18.27463],[83.91441,18.27423],[83.91621,18.27397],[83.91646,18.27377],[83.91842,18.27378],[83.91926,18.27362],[83.91977,18.27387],[83.92056,18.27361],[83.92124,18.27362],[83.92132,18.27377],[83.92259,18.27369],[83.9217,18.27196],[83.92163,18.27098],[83.92131,18.27035],[83.92129,18.26995],[83.92246,18.26934],[83.92326,18.2694],[83.92391,18.26893],[83.92363,18.26869],[83.92375,18.26852],[83.92364,18.26774],[83.92351,18.26774],[83.9234,18.26722],[83.92352,18.26696],[83.92336,18.26688],[83.92357,18.2663],[83.92335,18.2657],[83.9236,18.26538],[83.92329,18.26539],[83.92322,18.26454],[83.92329,18.26403],[83.92362,18.26366],[83.92419,18.26174],[83.92452,18.26126],[83.92438,18.26119],[83.9245,18.26083],[83.92487,18.26052],[83.92466,18.26039],[83.92484,18.26006],[83.92593,18.25951],[83.92597,18.25923],[83.9269,18.25857],[83.9271,18.25891],[83.92791,18.25873],[83.92798,18.25655],[83.92813,18.2563],[83.92938,18.25616],[83.92949,18.25532],[83.92875,18.25405],[83.92883,18.25342],[83.92849,18.25342],[83.92867,18.25134],[83.92662,18.25156],[83.92593,18.25139],[83.92412,18.25158],[83.92407,18.25122],[83.92345,18.25133],[83.92102,18.25096],[83.91992,18.25062],[83.91439,18.24741],[83.91416,18.25046],[83.90987,18.2523],[83.90859,18.25305],[83.90758,18.25432],[83.90688,18.25474],[83.90441,18.25732],[83.90401,18.25815],[83.90401,18.2594],[83.90351,18.26028],[83.90204,18.26468],[83.90999,18.27069],[83.91029,18.27099],[83.91061,18.27204],[83.9105,18.27314],[83.91087,18.27308],[83.91065,18.27341],[83.90994,18.27382],[83.90614,18.27454],[83.90652,18.27701],[83.91167,18.27649],[83.91159,18.27479],[83.91212,18.27471],[83.91217,18.27454]]]}},{"type":"Feature","bbox":[83.89825,18.26469,83.91087,18.2782],"properties":{"ward":9,"name":"One Way Traffic Road,Sali Street,Sana Street"},"geometry":{"type":"Polygon","coordinates":[[[83.90096,18.27808],[83.90094,18.27764],[83.90142,18.27762],[83.90143,18.27809],[83.90298,18.27797],[83.90298,18.27747],[83.90652,18.27701],[83.90614,18.27454],[83.90994,18.27382],[83.91065,18.27341],[83.91087,18.27308],[83.9105,18.27314],[83.91061,18.27204],[83.91029,18.27099],[83.90999,18.27069],[83.90204,18.26469],[83.90021,18.26835],[83.89905,18.26994],[83.89825,18.27046],[83.89937,18.27283],[83.90059,18.27498],[83.90088,18.27523],[83.90038,18.2756],[83.89952,18.27576],[83.89882,18.2755],[83.89881,18.27802],[83.89943,18.27784],[83.89985,18.2782],[83.90096,18.27808]]]}},{"type":"Feature","bbox":[83.89745,18.27762,83.90298,18.28475],"properties":{"ward":10,"name":"Dccb Colony,Fisheries Office Road,Sana Street Part"},"geometry":{"type":"Polygon","coordinates":[[[83.90296,18.28462],[83.90298,18.27797],[83.90143,18.27809],[83.90142,18.27762],[83.90094,18.27764],[83.90096,18.27808],[83.89985,18.2782],[83.89943,18.27784],[83.89897,18.27796],[83.89879,18.27826],[83.89869,18.28178],[83.89745,18.28443],[83.90012,18.28409],[83.90016,18.28459],[83.90144,18.28441],[83.90147,18.28475],[83.90296,18.28462]]]}},{"type":"Feature","bbox":[83.89717,18.2833,83.91232,18.28891],"properties":{"ward":11,"name":"One Way Traffic Road,Paramkusam Nagar Colony"},"geometry":{"type":"Polygon","coordinates":[[[83.90296,18.28398],[83.90296,18.28462],[83.90193,18.28474],[83.90147,18.28475],[83.90144,18.28441],[83.90016,18.28459],[83.90012,18.28409],[83.89745,18.28443],[83.89717,18.285],[83.8982,18.28641],[83.89866,18.28638],[83.89873,18.28824],[83.89928,18.28836],[83.89931,18.28784],[83.90169,18.28794],[83.90224,18.28811],[83.9024,18.2879],[83.90296,18.28788],[83.90333,18.28891],[83.90508,18.28807],[83.90855,18.28794],[83.91191,18.28872],[83.9122,18.28765],[83.91202,18.28762],[83.91201,18.28732],[83.9121,18.2869],[83.91232,18.28687],[83.91222,18.28641],[83.91119,18.2865],[83.91068,18.28466],[83.91001,18.2848],[83.90977,18.28451],[83.90873,18.28417],[83.90873,18.28403],[83.90814,18.28395],[83.90678,18.28403],[83.90675,18.28417],[83.90588,18.28389],[83.90536,18.28408],[83.90514,18.28381],[83.90441,18.28385],[83.9036,18.28345],[83.90358,18.2833],[83.90322,18.28344],[83.90296,18.28398]],[[83.90296,18.28398],[83.90296,18.28398],[83.90296,18.28399],[83.90296,18.28399],[83.90296,18.28398]]]}},{"type":"Feature","bbox":[83.89815,18.28784,83.90333,18.29126],"properties":{"ward":12,"name":"Jalari Street,Nanubala Street,Punyapu Street"},"geometry":{"type":"Polygon","coordinates":[[[83.90333,18.28891],[83.90296,18.28788],[83.9024,18.2879],[83.90224,18.28811],[83.90169,18.28794],[83.89931,18.28784],[83.89928,18.28836],[83.89873,18.28824],[83.89863,18.28878],[83.8983,18.28907],[83.89815,18.29024],[83.89839,18.29126],[83.90333,18.28891]]]}},{"type":"Feature","bbox":[83.9012,18.28794,83.90914,18.29399],"properties":{"ward":13,"name":"Roy Layout,Pedda Relli Street, Mahilamandal Street"},"geometry":{"type":"Polygon","coordinates":[[[83.90741,18.29311],[83.90741,18.29205],[83.90755,18.29208],[83.9074,18.29095],[83.90771,18.28934],[83.90832,18.28839],[83.90914,18.28805],[83.90848,18.28794],[83.90503,18.28808],[83.90172,18.28965],[83.90171,18.29073],[83.9012,18.2909],[83.90121,18.29107],[83.90217,18.29127],[83.90228,18.29144],[83.9031,18.29131],[83.90328,18.2938],[83.9052,18.29399],[83.90572,18.29388],[83.90618,18.29351],[83.90716,18.29346],[83.90741,18.29311]]]}},{"type":"Feature","bbox":[83.89613,18.28965,83.9033,18.29347],"properties":{"ward":14,"name":"Sunnapu Street,Rachakatla Street,Kankurthivari"},"geometry":{"type":"Polygon","coordinates":[[[83.89781,18.29347],[83.89802,18.29281],[83.89914,18.2929],[83.90142,18.29251],[83.90202,18.29285],[83.90253,18.29285],[83.9026,18.29326],[83.9033,18.29312],[83.9031,18.29131],[83.90228,18.29144],[83.90217,18.29127],[83.90121,18.29107],[83.90123,18.29087],[83.90171,18.29073],[83.90172,18.28965],[83.89724,18.29168],[83.89613,18.29292],[83.8965,18.29326],[83.89755,18.29303],[83.89781,18.29347]]]}},{"type":"Feature","bbox":[83.89314,18.29147,83.9033,18.29505],"properties":{"ward":15,"name":"Gara Street,Burma Colony,Ipplivari Street"},"geometry":{"type":"Polygon","coordinates":[[[83.89803,18.29505],[83.90051,18.29495],[83.90238,18.29453],[83.90324,18.29402],[83.9033,18.29312],[83.9026,18.29326],[83.90253,18.29285],[83.90202,18.29285],[83.90142,18.29251],[83.89914,18.2929],[83.89802,18.29281],[83.89781,18.29347],[83.89755,18.29303],[83.8965,18.29326],[83.89613,18.29292],[83.89708,18.29191],[83.89726,18.29167],[83.8972,18.29147],[83.89422,18.2918],[83.89314,18.29154],[83.89353,18.293],[83.89405,18.29333],[83.89413,18.29359],[83.89437,18.29363],[83.89377,18.29443],[83.89381,18.29489],[83.89803,18.29505]]]}},{"type":"Feature","bbox":[83.89833,18.2949,83.90463,18.29926],"properties":{"ward":16,"name":"Gonti Street,Prakash Nagar,Cheppula Street"},"geometry":{"type":"Polygon","coordinates":[[[83.90354,18.29906],[83.90463,18.29909],[83.9035,18.29706],[83.90043,18.2949],[83.89833,18.29503],[83.89856,18.29732],[83.89994,18.2975],[83.90109,18.29809],[83.90259,18.29842],[83.90297,18.29926],[83.90354,18.29906]]]}},{"type":"Feature","bbox":[83.89779,18.29742,83.90477,18.30478],"properties":{"ward":17,"name":"Butchyyapeta Street, Balijepallivari Street"},"geometry":{"type":"Polygon","coordinates":[[[83.9037,18.30478],[83.90394,18.30406],[83.90423,18.30405],[83.90432,18.30386],[83.90418,18.302],[83.90353,18.30185],[83.90336,18.30035],[83.90456,18.30061],[83.90477,18.29922],[83.90463,18.29909],[83.90354,18.29906],[83.90297,18.29926],[83.90259,18.29842],[83.90109,18.29809],[83.89994,18.2975],[83.89967,18.29746],[83.89904,18.29742],[83.89904,18.29742],[83.89919,18.29803],[83.90008,18.29958],[83.90014,18.29997],[83.89998,18.30027],[83.89946,18.30003],[83.89779,18.30031],[83.89803,18.30123],[83.89893,18.30137],[83.89971,18.30224],[83.9004,18.30237],[83.90114,18.30414],[83.9037,18.30478]]]}},{"type":"Feature","bbox":[83.90336,18.29922,83.91041,18.30458],"properties":{"ward":18,"name":"Koti Street,Jabba Street,Gavara Street"},"geometry":{"type":"Polygon","coordinates":[[[83.90932,18.30458],[83.91024,18.30435],[83.91041,18.30415],[83.9104,18.30387],[83.91019,18.30373],[83.9103,18.30328],[83.90477,18.29922],[83.90456,18.30061],[83.90336,18.30035],[83.90353,18.30185],[83.90418,18.302],[83.90427,18.30357],[83.90593,18.30334],[83.90612,18.3034],[83.90615,18.30377],[83.90658,18.30399],[83.90826,18.30426],[83.90927,18.30419],[83.90941,18.30423],[83.90932,18.30458]]]}},{"type":"Feature","bbox":[83.90088,18.30334,83.91053,18.31338],"properties":{"ward":19,"name":"Turai Chettu Street,Kella Street,Ttd Road"},"geometry":{"type":"Polygon","coordinates":[[[83.90798,18.31338],[83.90975,18.31318],[83.90978,18.31306],[83.90955,18.31263],[83.90987,18.31226],[83.90975,18.31147],[83.91005,18.31088],[83.90983,18.31059],[83.91001,18.3094],[83.90988,18.3091],[83.91005,18.30852],[83.90987,18.30852],[83.90987,18.30839],[83.9102,18.30809],[83.91004,18.30709],[83.91053,18.30683],[83.90991,18.30648],[83.91018,18.30606],[83.91,18.30564],[83.90979,18.30561],[83.91007,18.30509],[83.91026,18.30506],[83.91014,18.30456],[83.91006,18.30441],[83.90931,18.30458],[83.90941,18.30423],[83.90927,18.30419],[83.90826,18.30426],[83.90658,18.30399],[83.90615,18.30377],[83.90612,18.3034],[83.90594,18.30334],[83.90427,18.30357],[83.90432,18.30386],[83.90423,18.30405],[83.90394,18.30406],[83.90363,18.30511],[83.90395,18.30526],[83.90387,18.30551],[83.90284,18.30647],[83.9022,18.3074],[83.90206,18.30854],[83.90239,18.30971],[83.90165,18.30978],[83.90138,18.31101],[83.90101,18.311],[83.90088,18.31215],[83.90118,18.31197],[83.90135,18.31219],[83.90187,18.31235],[83.90271,18.31227],[83.90277,18.31299],[83.90372,18.31288],[83.90592,18.31298],[83.90798,18.31338]]]}},{"type":"Feature","bbox":[83.89433,18.30511,83.9033,18.31231],"properties":{"ward":20,"name":"Perlavari Street,Petromax Street,Nehru Road"},"geometry":{"type":"Polygon","coordinates":[[[83.90084,18.31231],[83.90101,18.311],[83.90138,18.31101],[83.90165,18.30978],[83.90239,18.30971],[83.90206,18.30854],[83.9022,18.3074],[83.9033,18.30597],[83.90146,18.30578],[83.9015,18.30511],[83.90052,18.30552],[83.89875,18.30531],[83.89686,18.30546],[83.89531,18.30587],[83.89433,18.30636],[83.89491,18.30676],[83.8956,18.30677],[83.89543,18.30766],[83.89588,18.30752],[83.89645,18.30782],[83.89685,18.30668],[83.8975,18.30647],[83.89747,18.30828],[83.89926,18.30883],[83.89915,18.31027],[83.90004,18.31037],[83.89986,18.31188],[83.90084,18.31231]]]}},{"type":"Feature","bbox":[83.89613,18.30828,83.9166,18.32717],"properties":{"ward":21,"name":"New Colony,Karra Street,Official Colony"},"geometry":{"type":"Polygon","coordinates":[[[83.91537,18.32699],[83.9166,18.32608],[83.916,18.32541],[83.91455,18.32462],[83.91376,18.32171],[83.91316,18.32207],[83.91317,18.32168],[83.91221,18.3215],[83.91215,18.32107],[83.91061,18.32163],[83.91062,18.32145],[83.9109,18.32125],[83.91076,18.32083],[83.9104,18.32068],[83.91046,18.32033],[83.91057,18.32011],[83.91125,18.3197],[83.91125,18.31955],[83.91158,18.31945],[83.91122,18.31872],[83.91015,18.31781],[83.91,18.3171],[83.91151,18.31603],[83.91231,18.31436],[83.91227,18.31403],[83.91171,18.31408],[83.91098,18.31461],[83.91085,18.3139],[83.91061,18.31383],[83.91084,18.3132],[83.91042,18.31325],[83.91031,18.31307],[83.90798,18.31338],[83.90592,18.31298],[83.90372,18.31288],[83.90277,18.31299],[83.90271,18.31227],[83.90187,18.31235],[83.90135,18.31219],[83.90118,18.31197],[83.90084,18.31231],[83.90045,18.31224],[83.89986,18.31188],[83.90004,18.31037],[83.89915,18.31027],[83.89926,18.30883],[83.89747,18.30828],[83.89746,18.30927],[83.89638,18.31315],[83.89642,18.31449],[83.89613,18.31574],[83.89779,18.31589],[83.89925,18.31573],[83.89944,18.31613],[83.90005,18.31619],[83.9006,18.31592],[83.90103,18.31602],[83.90089,18.31599],[83.90073,18.31638],[83.90088,18.31685],[83.9001,18.3169],[83.89971,18.31713],[83.89955,18.31872],[83.8997,18.31887],[83.8997,18.31938],[83.90022,18.3196],[83.90171,18.32125],[83.9024,18.32152],[83.90386,18.32181],[83.90478,18.32225],[83.90549,18.32238],[83.90639,18.3223],[83.9072,18.32248],[83.90857,18.32226],[83.90892,18.32356],[83.90865,18.32393],[83.90887,18.32433],[83.90872,18.32464],[83.90879,18.3249],[83.91001,18.32641],[83.91024,18.32693],[83.9118,18.3269],[83.91388,18.32717],[83.91537,18.32699]]]}},{"type":"Feature","bbox":[83.89433,18.30636,83.90103,18.31938],"properties":{"ward":22,"name":"Kollavari Street,Town Hall Road,Champagalli Street"},"geometry":{"type":"Polygon","coordinates":[[[83.89955,18.31872],[83.89974,18.31774],[83.89959,18.31766],[83.89971,18.31713],[83.9001,18.3169],[83.90088,18.31685],[83.90071,18.31655],[83.90089,18.31599],[83.90103,18.31602],[83.90088,18.31591],[83.90008,18.31607],[83.90005,18.31619],[83.89944,18.31613],[83.89925,18.31573],[83.89779,18.31589],[83.89613,18.31574],[83.89642,18.31449],[83.89638,18.31315],[83.89748,18.30918],[83.8975,18.30647],[83.89685,18.30668],[83.89645,18.30782],[83.89588,18.30752],[83.89543,18.30766],[83.8956,18.30677],[83.89491,18.30676],[83.89433,18.30636],[83.89437,18.30855],[83.89484,18.31179],[83.89463,18.315],[83.89488,18.31801],[83.89625,18.31823],[83.8997,18.31938],[83.8997,18.31887],[83.89955,18.31872]]]}},{"type":"Feature","bbox":[83.88744,18.30029,83.89445,18.30636],"properties":{"ward":23,"name":"Chinna And Pedda Baratam Streets,Challa Street"},"geometry":{"type":"Polygon","coordinates":[[[83.8941,18.30213],[83.89432,18.30077],[83.89329,18.3008],[83.88948,18.30029],[83.88929,18.30163],[83.88885,18.3026],[83.88744,18.30414],[83.89433,18.30636],[83.89425,18.30526],[83.89445,18.30433],[83.8941,18.30213]]]}},{"type":"Feature","bbox":[83.8941,18.30077,83.89743,18.30636],"properties":{"ward":24,"name":"Mahalaxmi Nagar,Womens College Road,Kummari Street"},"geometry":{"type":"Polygon","coordinates":[[[83.89725,18.30224],[83.89581,18.30208],[83.89584,18.30143],[83.89517,18.30132],[83.8952,18.30088],[83.89432,18.30077],[83.8941,18.30189],[83.89444,18.30424],[83.89425,18.30526],[83.89433,18.30636],[83.89531,18.30587],[83.89743,18.30541],[83.89725,18.30224]]]}},{"type":"Feature","bbox":[83.89717,18.30008,83.90393,18.30594],"properties":{"ward":25,"name":"Kalinga Road,Telugu Musalayya Layout"},"geometry":{"type":"Polygon","coordinates":[[[83.89745,18.30538],[83.89879,18.30528],[83.90061,18.3055],[83.90152,18.3051],[83.90149,18.30577],[83.9033,18.30594],[83.90393,18.30527],[83.90361,18.30512],[83.90368,18.30479],[83.9011,18.30414],[83.90039,18.30238],[83.89973,18.30229],[83.89907,18.30146],[83.89859,18.30126],[83.89802,18.30126],[83.8977,18.30016],[83.89717,18.30008],[83.89745,18.30538]]]}},{"type":"Feature","bbox":[83.88948,18.29796,83.89724,18.30221],"properties":{"ward":26,"name":"Arasavalli,Brahmana Street,Kovela Street,Velama St"},"geometry":{"type":"Polygon","coordinates":[[[83.89724,18.30221],[83.89694,18.29796],[83.89475,18.29797],[83.89477,18.29833],[83.89377,18.29843],[83.88977,18.29815],[83.88948,18.30029],[83.89329,18.3008],[83.8952,18.30088],[83.89517,18.30132],[83.89584,18.30143],[83.89581,18.30208],[83.89632,18.30221],[83.89724,18.30221]]]}},{"type":"Feature","bbox":[83.89687,18.29739,83.90016,18.30031],"properties":{"ward":27,"name":"Kothapeta,Bhadurlapeta,Vambay Colony Part"},"geometry":{"type":"Polygon","coordinates":[[[83.89904,18.30007],[83.89975,18.30006],[83.89998,18.30027],[83.90016,18.29976],[83.89919,18.29803],[83.89904,18.29742],[83.89687,18.29739],[83.89715,18.30006],[83.89769,18.30014],[83.89779,18.30031],[83.89891,18.30021],[83.89904,18.30007]]]}},{"type":"Feature","bbox":[83.88883,18.29457,83.89856,18.29843],"properties":{"ward":28,"name":"Adhiandhra Street,Collector Office Road,C.B.Road"},"geometry":{"type":"Polygon","coordinates":[[[83.8939,18.29843],[83.89477,18.29833],[83.89475,18.29797],[83.89694,18.29796],[83.89687,18.29739],[83.89856,18.29732],[83.89833,18.29503],[83.89381,18.29489],[83.89285,18.29457],[83.89276,18.29475],[83.89143,18.29515],[83.88883,18.29574],[83.88985,18.29776],[83.88977,18.29815],[83.8939,18.29843]]]}},{"type":"Feature","bbox":[83.887,18.29215,83.89437,18.29574],"properties":{"ward":29,"name":"Hb Colony Part,Karanala Colony"},"geometry":{"type":"Polygon","coordinates":[[[83.89285,18.29457],[83.89371,18.2948],[83.89379,18.29439],[83.89437,18.29363],[83.89413,18.29359],[83.89405,18.29333],[83.89361,18.29303],[83.89287,18.29288],[83.89216,18.29294],[83.89142,18.29248],[83.89104,18.29257],[83.887,18.29215],[83.88883,18.29574],[83.89143,18.29515],[83.89276,18.29475],[83.89285,18.29457]]]}},{"type":"Feature","bbox":[83.88629,18.28792,83.89353,18.29299],"properties":{"ward":30,"name":"Hb Colony Part,Balayyapeta,Dandi Street Part"},"geometry":{"type":"Polygon","coordinates":[[[83.89353,18.29299],[83.89314,18.29154],[83.89176,18.29074],[83.89115,18.2906],[83.8866,18.28792],[83.88629,18.29048],[83.887,18.29215],[83.89104,18.29257],[83.89142,18.29248],[83.89216,18.29294],[83.89353,18.29299]]]}},{"type":"Feature","bbox":[83.8866,18.28516,83.89456,18.29163],"properties":{"ward":31,"name":"Hb Col Opp Zp Part,Cb Rd West,Dandi Street Part"},"geometry":{"type":"Polygon","coordinates":[[[83.89372,18.28935],[83.89439,18.28965],[83.89456,18.28806],[83.89305,18.28816],[83.88734,18.28516],[83.8866,18.28792],[83.89115,18.2906],[83.89176,18.29074],[83.8925,18.29125],[83.89343,18.29163],[83.89372,18.28935]]]}},{"type":"Feature","bbox":[83.89343,18.28781,83.89608,18.2918],"properties":{"ward":32,"name":"Hb Col Opp Zp Part,Padmavathi Nagar,Lbs Col Part"},"geometry":{"type":"Polygon","coordinates":[[[83.89537,18.28966],[83.89601,18.28889],[83.89608,18.28799],[83.89529,18.28781],[83.89459,18.28787],[83.89439,18.28965],[83.89372,18.28934],[83.89343,18.29163],[83.89422,18.2918],[83.89532,18.29163],[83.89537,18.28966]]]}},{"type":"Feature","bbox":[83.89532,18.285,83.89875,18.29167],"properties":{"ward":33,"name":"Gunapalem Pt,Lbs Col,Gyneti St,Padmavathi Nagar"},"geometry":{"type":"Polygon","coordinates":[[[83.89726,18.29167],[83.89839,18.29126],[83.89815,18.29024],[83.8983,18.28907],[83.89863,18.28878],[83.89875,18.28819],[83.89864,18.28742],[83.89874,18.28679],[83.89866,18.28638],[83.8982,18.28641],[83.89717,18.285],[83.89648,18.28567],[83.89601,18.28889],[83.89537,18.28966],[83.89532,18.29163],[83.8972,18.29147],[83.89726,18.29167]]]}},{"type":"Feature","bbox":[83.88734,18.2821,83.89648,18.28812],"properties":{"ward":34,"name":"Gunapalem Pt,C.B.Rd,Cheruvu Gattu,Kaki St"},"geometry":{"type":"Polygon","coordinates":[[[83.89308,18.28812],[83.89456,18.28806],[83.89459,18.28787],[83.89511,18.28781],[83.89608,18.28799],[83.89648,18.28567],[83.89547,18.28585],[83.89479,18.28579],[83.89485,18.28511],[83.89369,18.28499],[83.88783,18.2821],[83.88734,18.28516],[83.89308,18.28812]]]}},{"type":"Feature","bbox":[83.88783,18.27989,83.89847,18.28585],"properties":{"ward":35,"name":"Compost Colony,Dwaraka Nagar Colony,Nakka Street"},"geometry":{"type":"Polygon","coordinates":[[[83.89547,18.28585],[83.89648,18.28567],[83.89726,18.2849],[83.89847,18.28235],[83.89755,18.28265],[83.89527,18.28229],[83.89324,18.28173],[83.88873,18.27989],[83.88783,18.2821],[83.89369,18.28499],[83.89485,18.28511],[83.89479,18.28579],[83.89547,18.28585]]]}},{"type":"Feature","bbox":[83.88873,18.27678,83.89879,18.28265],"properties":{"ward":36,"name":"Manguvarithota,Teachers Layout,Kandara St Part"},"geometry":{"type":"Polygon","coordinates":[[[83.89755,18.28265],[83.89847,18.28235],[83.89871,18.28171],[83.89879,18.27798],[83.89468,18.27785],[83.89127,18.27678],[83.89097,18.27792],[83.89045,18.27853],[83.88893,18.27942],[83.88873,18.27989],[83.89324,18.28173],[83.89582,18.28239],[83.89755,18.28265]]]}},{"type":"Feature","bbox":[83.89127,18.27047,83.90088,18.27794],"properties":{"ward":37,"name":"Mondeti Street,Dammala Street,Leprosy Colony"},"geometry":{"type":"Polygon","coordinates":[[[83.89878,18.27794],[83.89882,18.2755],[83.89952,18.27576],[83.90038,18.2756],[83.90088,18.27523],[83.90059,18.27498],[83.89937,18.27283],[83.89825,18.27047],[83.8938,18.27185],[83.89236,18.27343],[83.89151,18.27501],[83.89148,18.27629],[83.89127,18.27678],[83.89468,18.27785],[83.89878,18.27794]]]}},{"type":"Feature","bbox":[83.8746,18.27086,83.89237,18.29452],"properties":{"ward":38,"name":"Mondeti St Part,Balaga St,Golkondarev Part"},"geometry":{"type":"Polygon","coordinates":[[[83.88427,18.29437],[83.885,18.2944],[83.88488,18.29349],[83.8846,18.29348],[83.88494,18.29229],[83.887,18.29215],[83.88629,18.29048],[83.88631,18.28954],[83.88675,18.28721],[83.88737,18.28506],[83.88783,18.2821],[83.88893,18.27942],[83.89045,18.27853],[83.89097,18.27792],[83.89148,18.27629],[83.89151,18.27501],[83.89237,18.27317],[83.89182,18.27317],[83.89089,18.27345],[83.89083,18.27329],[83.88813,18.27255],[83.88744,18.27281],[83.88646,18.27258],[83.88646,18.27221],[83.88598,18.27211],[83.88604,18.27182],[83.8858,18.27148],[83.88577,18.27108],[83.88522,18.27086],[83.88259,18.2718],[83.88177,18.27177],[83.88034,18.2721],[83.8784,18.27212],[83.87815,18.27205],[83.87806,18.2711],[83.87647,18.27118],[83.8757,18.27089],[83.87582,18.27238],[83.87551,18.2741],[83.87573,18.27418],[83.8757,18.27467],[83.87598,18.27521],[83.87597,18.27606],[83.87568,18.27689],[83.87491,18.27707],[83.8746,18.27828],[83.87508,18.27874],[83.87509,18.27964],[83.87587,18.28103],[83.87596,18.28153],[83.87648,18.28175],[83.87651,18.28251],[83.87702,18.28295],[83.87793,18.28611],[83.87888,18.28732],[83.87906,18.28789],[83.87867,18.28931],[83.87809,18.29061],[83.87806,18.29302],[83.87966,18.29256],[83.87977,18.29267],[83.88063,18.29245],[83.8821,18.29237],[83.88246,18.29323],[83.88354,18.29354],[83.88389,18.29411],[83.88359,18.29431],[83.88374,18.29452],[83.88427,18.29437]]]}},{"type":"Feature","bbox":[83.85465,18.26491,83.88463,18.29729],"properties":{"ward":39,"name":"Golkondarev Rd Part,Dammala St,Mondeti St Part"},"geometry":{"type":"Polygon","coordinates":[[[83.88169,18.29601],[83.88191,18.29615],[83.88204,18.29654],[83.88463,18.29605],[83.88439,18.29437],[83.88374,18.29452],[83.88359,18.29431],[83.88389,18.29411],[83.88354,18.29354],[83.88246,18.29323],[83.8821,18.29237],[83.88063,18.29245],[83.87977,18.29267],[83.87966,18.29256],[83.87806,18.29302],[83.87809,18.29061],[83.87867,18.28931],[83.87906,18.28789],[83.87888,18.28732],[83.87793,18.28611],[83.87702,18.28295],[83.87651,18.28251],[83.87648,18.28175],[83.87596,18.28153],[83.87587,18.28103],[83.87509,18.27964],[83.87508,18.27874],[83.8746,18.27828],[83.87491,18.27707],[83.87568,18.27689],[83.87597,18.27606],[83.87598,18.27521],[83.8757,18.27467],[83.87573,18.27418],[83.87551,18.2741],[83.87582,18.27238],[83.87569,18.27091],[83.87444,18.27128],[83.87376,18.27176],[83.87348,18.27149],[83.87333,18.27068],[83.8733,18.27028],[83.87347,18.27004],[83.87289,18.26992],[83.87281,18.27011],[83.87194,18.27017],[83.87192,18.27044],[83.87167,18.27057],[83.87116,18.27057],[83.87112,18.27041],[83.87055,18.27036],[83.87056,18.26912],[83.87034,18.269],[83.86889,18.26896],[83.86806,18.26939],[83.8677,18.26924],[83.86765,18.26887],[83.86687,18.26832],[83.86672,18.26741],[83.8662,18.26703],[83.86562,18.26703],[83.86546,18.2669],[83.86527,18.26643],[83.86501,18.26644],[83.86473,18.26579],[83.86408,18.26524],[83.86393,18.26491],[83.86301,18.26503],[83.86284,18.26527],[83.861,18.26522],[83.8561,18.26599],[83.85653,18.26714],[83.85664,18.26788],[83.85547,18.26815],[83.85545,18.2684],[83.85517,18.2684],[83.8551,18.26863],[83.85472,18.26874],[83.85465,18.26913],[83.85482,18.26942],[83.85472,18.26974],[83.85494,18.27105],[83.85575,18.27163],[83.85679,18.27157],[83.8581,18.27193],[83.85888,18.27189],[83.85921,18.27221],[83.85933,18.27205],[83.8598,18.27208],[83.86007,18.27242],[83.86098,18.2724],[83.86123,18.273],[83.86158,18.27306],[83.86211,18.27346],[83.86245,18.27347],[83.86252,18.27382],[83.86272,18.27398],[83.86272,18.27446],[83.86316,18.27452],[83.86308,18.27643],[83.86337,18.27739],[83.86371,18.28084],[83.86102,18.28094],[83.86016,18.28077],[83.85487,18.28173],[83.85538,18.28431],[83.85531,18.28466],[83.85553,18.2851],[83.85689,18.2845],[83.85849,18.28405],[83.85972,18.28421],[83.86026,18.2865],[83.86051,18.29007],[83.86071,18.2902],[83.861,18.29174],[83.86079,18.29332],[83.86306,18.29396],[83.86364,18.29368],[83.86476,18.29395],[83.86487,18.29343],[83.86507,18.29338],[83.86644,18.29362],[83.8673,18.29399],[83.8673,18.29417],[83.86756,18.29388],[83.86763,18.29431],[83.86778,18.29441],[83.86931,18.29432],[83.86929,18.29451],[83.87005,18.29484],[83.87,18.29514],[83.87072,18.2952],[83.8709,18.295],[83.87188,18.29551],[83.87183,18.29592],[83.87321,18.29591],[83.87352,18.2962],[83.8737,18.296],[83.87401,18.29606],[83.87447,18.2966],[83.87452,18.29711],[83.87656,18.29729],[83.88088,18.29672],[83.8808,18.29616],[83.88169,18.29601]]]}},{"type":"Feature","bbox":[83.88439,18.29215,83.88861,18.29605],"properties":{"ward":40,"name":"Dammala St,Godagala St, Sarangadola St Part"},"geometry":{"type":"Polygon","coordinates":[[[83.88861,18.29531],[83.887,18.29215],[83.88494,18.29229],[83.8846,18.29348],[83.88488,18.29349],[83.885,18.2944],[83.88439,18.29437],[83.88463,18.29605],[83.88861,18.29531]]]}},{"type":"Feature","bbox":[83.88587,18.29531,83.88985,18.29902],"properties":{"ward":41,"name":"Bontavari St, Sarangadola Street Part,Gudi St Part"},"geometry":{"type":"Polygon","coordinates":[[[83.88799,18.2977],[83.88816,18.29814],[83.88985,18.29776],[83.88861,18.29531],[83.88587,18.29581],[83.88604,18.29888],[83.88669,18.29902],[83.88762,18.29869],[83.88756,18.29774],[83.88799,18.2977]]]}},{"type":"Feature","bbox":[83.87149,18.29581,83.88608,18.30382],"properties":{"ward":42,"name":"Gudi St Pt,Brahmana Street"},"geometry":{"type":"Polygon","coordinates":[[[83.87563,18.30179],[83.87636,18.30122],[83.87856,18.30099],[83.87872,18.30084],[83.87884,18.30094],[83.87944,18.30051],[83.88478,18.29966],[83.88484,18.29949],[83.88451,18.2987],[83.88608,18.2988],[83.88587,18.29581],[83.88204,18.29654],[83.88171,18.296],[83.8808,18.29616],[83.88088,18.29672],[83.87741,18.29721],[83.8731,18.2972],[83.87321,18.2986],[83.87305,18.29952],[83.87149,18.29995],[83.87224,18.30359],[83.87438,18.30382],[83.87592,18.3025],[83.87563,18.30179]]]}},{"type":"Feature","bbox":[83.85949,18.29334,83.87601,18.31456],"properties":{"ward":43,"name":"Hayathinagar Main Rd,Relli St"},"geometry":{"type":"Polygon","coordinates":[[[83.8756,18.3144],[83.87323,18.30819],[83.87491,18.30802],[83.87497,18.30752],[83.87601,18.30583],[83.87462,18.30428],[83.87484,18.30388],[83.87224,18.30359],[83.87149,18.29995],[83.87305,18.29952],[83.87321,18.2986],[83.8731,18.2972],[83.87452,18.29711],[83.87444,18.29654],[83.87401,18.29606],[83.8737,18.296],[83.87352,18.2962],[83.87321,18.29591],[83.87183,18.29592],[83.87188,18.29551],[83.8709,18.295],[83.87072,18.2952],[83.87,18.29514],[83.87005,18.29484],[83.86929,18.29451],[83.86931,18.29432],[83.86778,18.29441],[83.86763,18.29431],[83.86756,18.29388],[83.8673,18.29417],[83.8673,18.29399],[83.86644,18.29362],[83.86507,18.29338],[83.86487,18.29343],[83.86476,18.29395],[83.86364,18.29368],[83.86306,18.29396],[83.86079,18.29334],[83.86086,18.29471],[83.86055,18.29593],[83.86064,18.29703],[83.86045,18.29878],[83.86029,18.29923],[83.86007,18.29924],[83.85981,18.30251],[83.85963,18.30252],[83.85952,18.30294],[83.85949,18.30453],[83.86153,18.30483],[83.86197,18.30568],[83.8625,18.30589],[83.8636,18.30599],[83.86411,18.30573],[83.86523,18.30571],[83.86679,18.3061],[83.8672,18.30646],[83.86786,18.30624],[83.86815,18.30715],[83.86804,18.30814],[83.86823,18.30829],[83.86815,18.30855],[83.86835,18.3087],[83.86898,18.31046],[83.86923,18.31043],[83.87,18.31174],[83.86995,18.31188],[83.87089,18.31189],[83.87102,18.31231],[83.87181,18.31242],[83.87251,18.3131],[83.87309,18.31327],[83.87383,18.31417],[83.87535,18.31456],[83.8756,18.3144]]]}},{"type":"Feature","bbox":[83.87323,18.29966,83.88503,18.31439],"properties":{"ward":44,"name":"Thotapalem Rd,Old G.T.Rd"},"geometry":{"type":"Polygon","coordinates":[[[83.88478,18.29966],[83.87944,18.30051],[83.87856,18.30099],[83.87636,18.30122],[83.87563,18.30179],[83.87592,18.3025],[83.87438,18.30382],[83.87484,18.30388],[83.87462,18.30428],[83.87601,18.30583],[83.87497,18.30752],[83.87491,18.30802],[83.87323,18.30819],[83.87561,18.31439],[83.87597,18.31436],[83.87599,18.31419],[83.87681,18.31371],[83.87737,18.31392],[83.87952,18.31335],[83.87973,18.31313],[83.87986,18.31222],[83.88096,18.31192],[83.88122,18.30941],[83.88258,18.3083],[83.88194,18.30468],[83.87878,18.30433],[83.87989,18.30384],[83.88123,18.30353],[83.88226,18.30285],[83.88346,18.30248],[83.88503,18.30172],[83.8846,18.30066],[83.88478,18.29966]],[[83.88478,18.29966],[83.88478,18.29966],[83.88478,18.29966],[83.88478,18.29966]]]}},{"type":"Feature","bbox":[83.87878,18.2977,83.88985,18.3083],"properties":{"ward":45,"name":"Chowdary Satyanarayana Colony"},"geometry":{"type":"Polygon","coordinates":[[[83.88744,18.30414],[83.88885,18.3026],[83.88929,18.30163],[83.88985,18.29776],[83.88816,18.29814],[83.88808,18.2977],[83.88756,18.29774],[83.88762,18.29869],[83.88669,18.29902],[83.88451,18.2987],[83.88484,18.29949],[83.8846,18.30066],[83.88503,18.30172],[83.88346,18.30248],[83.88226,18.30285],[83.88123,18.30353],[83.87989,18.30384],[83.87878,18.30433],[83.88194,18.30468],[83.88258,18.3083],[83.88744,18.30414]]]}},{"type":"Feature","bbox":[83.88097,18.30414,83.89434,18.31656],"properties":{"ward":46,"name":"Gujarathipeta,Komati St"},"geometry":{"type":"Polygon","coordinates":[[[83.8837,18.31656],[83.88891,18.31488],[83.8894,18.31517],[83.8896,18.31389],[83.8915,18.31424],[83.89192,18.31195],[83.89244,18.31204],[83.89244,18.31111],[83.89216,18.30963],[83.89166,18.30803],[83.89431,18.30776],[83.89434,18.3064],[83.88744,18.30414],[83.88122,18.30941],[83.88097,18.31192],[83.8837,18.31656]]]}},{"type":"Feature","bbox":[83.8915,18.30776,83.89484,18.31482],"properties":{"ward":47,"name":"Post Office St,Golla Street"},"geometry":{"type":"Polygon","coordinates":[[[83.8915,18.31424],[83.89464,18.31482],[83.89484,18.31179],[83.89431,18.30776],[83.89166,18.30803],[83.89216,18.30963],[83.89244,18.31111],[83.89244,18.31204],[83.89192,18.31195],[83.8915,18.31424]]]}},{"type":"Feature","bbox":[83.88929,18.31389,83.89322,18.31673],"properties":{"ward":48,"name":"Fazulbegapeta Pt,Devangula St"},"geometry":{"type":"Polygon","coordinates":[[[83.89144,18.31673],[83.89307,18.3167],[83.89299,18.31576],[83.89322,18.31456],[83.8896,18.31389],[83.88929,18.31652],[83.89144,18.31673]]]}},{"type":"Feature","bbox":[83.88374,18.31456,83.89485,18.3307],"properties":{"ward":49,"name":"P.N.Colony All Lines"},"geometry":{"type":"Polygon","coordinates":[[[83.89485,18.3185],[83.89464,18.31482],[83.89322,18.31456],[83.89299,18.31576],[83.89307,18.3167],[83.89144,18.31673],[83.88933,18.31654],[83.8894,18.31517],[83.88891,18.31488],[83.88374,18.31658],[83.88617,18.321],[83.88626,18.32381],[83.88671,18.3253],[83.89217,18.32866],[83.89251,18.32912],[83.89223,18.33026],[83.89249,18.3307],[83.89328,18.32495],[83.89437,18.32102],[83.89485,18.3185]]]}},{"type":"Feature","bbox":[83.8925,18.31801,83.90892,18.333],"properties":{"ward":50,"name":"Seepanaidupeta,Bhairivanipeta"},"geometry":{"type":"Polygon","coordinates":[[[83.90892,18.32356],[83.90857,18.32226],[83.9072,18.32248],[83.90639,18.3223],[83.90549,18.32238],[83.90478,18.32225],[83.90386,18.32181],[83.9024,18.32152],[83.90171,18.32125],[83.90006,18.3195],[83.89625,18.31823],[83.89488,18.31801],[83.89448,18.32058],[83.89316,18.32556],[83.8925,18.33071],[83.89433,18.333],[83.89443,18.33295],[83.90872,18.32464],[83.90887,18.32433],[83.90865,18.32393],[83.90892,18.32356]]]}}]}