{"type":"FeatureCollection","features":[{"type":"Feature","bbox":[80.05439,15.53484,80.09308,15.57141],"properties":{"ward":1,"name":"Throvagunta"},"geometry":{"type":"Polygon","coordinates":[[[80.08274,15.53484],[80.07997,15.53495],[80.07807,15.53562],[80.07708,15.53543],[80.07676,15.53517],[80.07625,15.53538],[80.07616,15.53522],[80.07584,15.53535],[80.07595,15.53698],[80.07626,15.5378],[80.07595,15.53877],[80.07576,15.53882],[80.07576,15.5396],[80.07436,15.54056],[80.07361,15.54186],[80.07273,15.54272],[80.07195,15.54393],[80.07082,15.54447],[80.07058,15.54498],[80.07011,15.54524],[80.06847,15.54525],[80.06741,15.54504],[80.06754,15.54428],[80.06687,15.54269],[80.06674,15.54262],[80.06674,15.54282],[80.06622,15.54259],[80.06532,15.54254],[80.06445,15.54229],[80.0631,15.54269],[80.06296,15.54357],[80.06099,15.54463],[80.06048,15.54517],[80.05963,15.54571],[80.05893,15.54572],[80.05899,15.54528],[80.05805,15.54554],[80.05796,15.54528],[80.05756,15.54542],[80.05742,15.54578],[80.0565,15.54625],[80.05663,15.54667],[80.055,15.54757],[80.05496,15.54804],[80.05571,15.54902],[80.05594,15.54961],[80.0561,15.55126],[80.05595,15.55182],[80.05439,15.55474],[80.05491,15.55545],[80.0557,15.55727],[80.05649,15.55855],[80.0589,15.56142],[80.06551,15.5676],[80.06687,15.56911],[80.0684,15.57141],[80.07122,15.57067],[80.07277,15.56948],[80.07401,15.56936],[80.07512,15.56946],[80.07819,15.56765],[80.07912,15.56573],[80.0801,15.5648],[80.08184,15.56385],[80.0854,15.56236],[80.09164,15.56054],[80.09149,15.56018],[80.09281,15.55943],[80.09308,15.55908],[80.09156,15.55568],[80.08992,15.55157],[80.08968,15.55057],[80.08917,15.54953],[80.08878,15.5481],[80.08905,15.54754],[80.08906,15.5471],[80.08807,15.54532],[80.08741,15.54476],[80.08731,15.54328],[80.08679,15.54254],[80.08582,15.5399],[80.08274,15.53484]]]}},{"type":"Feature","bbox":[80.04781,15.51442,80.08108,15.54804],"properties":{"ward":2,"name":"Kesavaraju Kunta"},"geometry":{"type":"Polygon","coordinates":[[[80.05181,15.5145],[80.05114,15.51442],[80.04973,15.51474],[80.0504,15.5171],[80.05111,15.51693],[80.04978,15.52095],[80.04953,15.52244],[80.04973,15.52469],[80.04872,15.5257],[80.04844,15.52661],[80.04781,15.527],[80.04968,15.53474],[80.04953,15.53468],[80.05223,15.54392],[80.05294,15.54538],[80.05496,15.54804],[80.055,15.54757],[80.05663,15.54667],[80.0565,15.54625],[80.05742,15.54578],[80.05756,15.54542],[80.05796,15.54528],[80.05805,15.54554],[80.05899,15.54528],[80.05893,15.54572],[80.05955,15.54575],[80.06048,15.54517],[80.06099,15.54463],[80.06296,15.54357],[80.0631,15.54269],[80.06453,15.54228],[80.06532,15.54254],[80.06622,15.54259],[80.06674,15.54282],[80.06674,15.54262],[80.06687,15.54269],[80.06754,15.54428],[80.06741,15.54504],[80.06847,15.54525],[80.07011,15.54524],[80.07058,15.54498],[80.07082,15.54447],[80.07213,15.54373],[80.07273,15.54272],[80.07361,15.54186],[80.07436,15.54056],[80.07576,15.5396],[80.07576,15.53882],[80.07595,15.53877],[80.07626,15.5378],[80.07595,15.53698],[80.07584,15.53535],[80.07616,15.53522],[80.07625,15.53538],[80.07676,15.53517],[80.07708,15.53543],[80.07807,15.53562],[80.07997,15.53495],[80.08108,15.53497],[80.08031,15.53371],[80.07704,15.52542],[80.08099,15.52371],[80.07242,15.51793],[80.07017,15.51587],[80.05602,15.52866],[80.05487,15.52541],[80.05262,15.52175],[80.05266,15.52115],[80.05214,15.519],[80.05208,15.51577],[80.05181,15.5145]]]}},{"type":"Feature","bbox":[80.04685,15.50751,80.07017,15.52866],"properties":{"ward":3,"name":"Prakasam Colony Karuna Colony"},"geometry":{"type":"Polygon","coordinates":[[[80.07017,15.51587],[80.06419,15.50751],[80.06126,15.50791],[80.05973,15.50875],[80.05809,15.51062],[80.05646,15.51296],[80.05545,15.51387],[80.05376,15.51501],[80.05294,15.51504],[80.05173,15.51421],[80.05132,15.51274],[80.04892,15.51383],[80.04908,15.51418],[80.04884,15.51439],[80.04724,15.51486],[80.04735,15.51606],[80.04695,15.51979],[80.04685,15.52272],[80.04714,15.52486],[80.04781,15.527],[80.04844,15.52661],[80.04872,15.5257],[80.04973,15.52469],[80.04953,15.52244],[80.04978,15.52095],[80.05111,15.51693],[80.0504,15.5171],[80.04973,15.51474],[80.05114,15.51442],[80.05181,15.5145],[80.05208,15.51577],[80.05214,15.519],[80.05266,15.52115],[80.05262,15.52175],[80.05487,15.52541],[80.05602,15.52866],[80.07017,15.51587]]]}},{"type":"Feature","bbox":[80.04462,15.50742,80.05132,15.51559],"properties":{"ward":4,"name":"Neelampalem &Amp; Gopalanagaram"},"geometry":{"type":"Polygon","coordinates":[[[80.04724,15.51486],[80.04908,15.51418],[80.04892,15.51383],[80.05132,15.51274],[80.04984,15.50924],[80.04945,15.50755],[80.0493,15.50742],[80.04895,15.50808],[80.04759,15.50868],[80.04644,15.50981],[80.04462,15.51077],[80.04541,15.51259],[80.04568,15.51253],[80.04623,15.51432],[80.04637,15.51434],[80.04646,15.51477],[80.04615,15.51493],[80.04641,15.51559],[80.04682,15.5153],[80.04729,15.51521],[80.04724,15.51486]]]}},{"type":"Feature","bbox":[80.04974,15.50704,80.05705,15.51504],"properties":{"ward":5,"name":"Mahendra Nagar"},"geometry":{"type":"Polygon","coordinates":[[[80.05705,15.51221],[80.0565,15.51068],[80.05635,15.51084],[80.0557,15.50999],[80.05477,15.50825],[80.05196,15.50942],[80.05077,15.50704],[80.05009,15.50732],[80.05054,15.50858],[80.04974,15.50897],[80.05105,15.51192],[80.05173,15.51421],[80.05294,15.51504],[80.05376,15.51501],[80.05545,15.51387],[80.05705,15.51221]]]}},{"type":"Feature","bbox":[80.0493,15.50532,80.05364,15.50942],"properties":{"ward":6,"name":"Gopalanagaram"},"geometry":{"type":"Polygon","coordinates":[[[80.05364,15.5087],[80.0523,15.50621],[80.05281,15.50573],[80.05164,15.50582],[80.05139,15.50532],[80.04995,15.50584],[80.04958,15.50646],[80.0493,15.50742],[80.04945,15.50755],[80.04974,15.50897],[80.05054,15.50858],[80.05009,15.50732],[80.05077,15.50704],[80.05196,15.50942],[80.05364,15.5087]]]}},{"type":"Feature","bbox":[80.0511,15.5035,80.05922,15.51221],"properties":{"ward":7,"name":"Kammapalem"},"geometry":{"type":"Polygon","coordinates":[[[80.05705,15.51221],[80.05922,15.50921],[80.0585,15.50846],[80.05519,15.50585],[80.05395,15.5035],[80.05179,15.50479],[80.0511,15.50537],[80.05139,15.50532],[80.05164,15.50582],[80.05281,15.50573],[80.0523,15.50621],[80.05364,15.5087],[80.05477,15.50825],[80.0557,15.50999],[80.05635,15.51084],[80.0565,15.51068],[80.05705,15.51221]]]}},{"type":"Feature","bbox":[80.05395,15.50087,80.06419,15.50921],"properties":{"ward":8,"name":"Thurupu Kammapalem"},"geometry":{"type":"Polygon","coordinates":[[[80.05519,15.50585],[80.0585,15.50846],[80.05922,15.50921],[80.05973,15.50875],[80.06126,15.50791],[80.06419,15.50751],[80.05957,15.50087],[80.05527,15.50273],[80.05395,15.5035],[80.05519,15.50585]]]}},{"type":"Feature","bbox":[80.05957,15.47968,80.10647,15.52371],"properties":{"ward":9,"name":"Koppolu"},"geometry":{"type":"Polygon","coordinates":[[[80.10225,15.48595],[80.09876,15.4832],[80.0973,15.48169],[80.09475,15.47968],[80.09035,15.48516],[80.08925,15.48631],[80.08673,15.48748],[80.08389,15.48853],[80.06814,15.49719],[80.05957,15.50087],[80.06808,15.51317],[80.07027,15.51598],[80.07242,15.51793],[80.08099,15.52371],[80.08825,15.52089],[80.08826,15.51914],[80.08798,15.51797],[80.08768,15.51766],[80.08701,15.51603],[80.09353,15.51492],[80.09421,15.51719],[80.09425,15.52113],[80.09447,15.52297],[80.09543,15.52326],[80.09548,15.52283],[80.09674,15.52246],[80.09669,15.52228],[80.09717,15.52209],[80.09766,15.52164],[80.09836,15.51961],[80.09871,15.51908],[80.09901,15.51891],[80.10178,15.51868],[80.10221,15.5188],[80.1037,15.52057],[80.10647,15.52037],[80.10633,15.51897],[80.106,15.51792],[80.10427,15.5145],[80.10271,15.50958],[80.10046,15.49837],[80.10122,15.49805],[80.10124,15.49744],[80.10302,15.49473],[80.10526,15.49359],[80.10422,15.49046],[80.10356,15.48789],[80.10305,15.4869],[80.10225,15.48595]]]}},{"type":"Feature","bbox":[80.05079,15.43384,80.09465,15.50087],"properties":{"ward":10,"name":"N. Agraharam Kopplu Sccolony"},"geometry":{"type":"Polygon","coordinates":[[[80.05703,15.49229],[80.05745,15.49312],[80.05548,15.49379],[80.05513,15.49368],[80.05477,15.49393],[80.05957,15.50087],[80.06814,15.49719],[80.08389,15.48853],[80.08673,15.48748],[80.08925,15.48631],[80.09035,15.48516],[80.09465,15.47981],[80.09133,15.47583],[80.08744,15.47045],[80.08607,15.46809],[80.0857,15.46621],[80.08554,15.46597],[80.08111,15.46604],[80.0798,15.46631],[80.07551,15.46817],[80.07276,15.46092],[80.07051,15.45652],[80.06936,15.45248],[80.07583,15.45025],[80.07684,15.45072],[80.07755,15.45039],[80.07737,15.4495],[80.07673,15.44963],[80.0755,15.44714],[80.07528,15.4472],[80.07387,15.44401],[80.0731,15.4394],[80.07414,15.43602],[80.06276,15.43384],[80.06048,15.43401],[80.05079,15.43675],[80.05401,15.45706],[80.05409,15.45857],[80.05342,15.47293],[80.05482,15.47219],[80.05479,15.4719],[80.05537,15.4715],[80.05613,15.47127],[80.05731,15.47146],[80.05784,15.47373],[80.05964,15.47328],[80.05976,15.47346],[80.06096,15.47314],[80.06175,15.47527],[80.06175,15.47567],[80.06195,15.47578],[80.06237,15.47689],[80.0633,15.4766],[80.06389,15.478],[80.06376,15.47811],[80.06429,15.47958],[80.06487,15.47946],[80.06507,15.47955],[80.06595,15.48281],[80.06632,15.48528],[80.06729,15.4896],[80.06636,15.48985],[80.06623,15.48948],[80.06447,15.49008],[80.06433,15.4898],[80.06266,15.49056],[80.0626,15.49034],[80.062,15.49056],[80.06181,15.48989],[80.06124,15.49011],[80.06117,15.49031],[80.06012,15.49068],[80.06027,15.49125],[80.05703,15.49229]]]}},{"type":"Feature","bbox":[80.05304,15.49791,80.05957,15.50384],"properties":{"ward":11,"name":"Clough Peta"},"geometry":{"type":"Polygon","coordinates":[[[80.05957,15.50087],[80.0575,15.49791],[80.05697,15.49829],[80.05623,15.49934],[80.05304,15.50071],[80.0534,15.50384],[80.05477,15.50296],[80.05957,15.50087]]]}},{"type":"Feature","bbox":[80.04953,15.50179,80.0534,15.50584],"properties":{"ward":12,"name":"Miriyala Palem Fakeer Palem"},"geometry":{"type":"Polygon","coordinates":[[[80.05183,15.50179],[80.04964,15.50239],[80.04953,15.50456],[80.04995,15.50584],[80.0512,15.50532],[80.0517,15.50485],[80.0534,15.50384],[80.0525,15.50287],[80.05183,15.50179]]]}},{"type":"Feature","bbox":[80.04943,15.49746,80.05676,15.50384],"properties":{"ward":13,"name":"Kabadi Palem"},"geometry":{"type":"Polygon","coordinates":[[[80.05676,15.49853],[80.05596,15.49746],[80.05284,15.49751],[80.04943,15.49991],[80.04964,15.50239],[80.05181,15.50176],[80.05249,15.50285],[80.0534,15.50384],[80.05304,15.50071],[80.05623,15.49934],[80.05676,15.49853]]]}},{"type":"Feature","bbox":[80.04877,15.49321,80.0575,15.49991],"properties":{"ward":14,"name":"Santha Peta &Amp; Annavarappadu"},"geometry":{"type":"Polygon","coordinates":[[[80.05301,15.49744],[80.05596,15.49746],[80.05676,15.49853],[80.0575,15.49791],[80.05477,15.49393],[80.05446,15.49416],[80.05342,15.49351],[80.05227,15.49321],[80.04877,15.4936],[80.04943,15.49991],[80.05301,15.49744]]]}},{"type":"Feature","bbox":[80.04825,15.48446,80.05477,15.49416],"properties":{"ward":15,"name":"Ram Nagar"},"geometry":{"type":"Polygon","coordinates":[[[80.05477,15.49393],[80.05344,15.49184],[80.05281,15.48972],[80.05273,15.48805],[80.05293,15.48446],[80.04825,15.48567],[80.04877,15.4936],[80.05227,15.49321],[80.05342,15.49351],[80.05446,15.49416],[80.05477,15.49393]]]}},{"type":"Feature","bbox":[80.05273,15.47127,80.06729,15.49393],"properties":{"ward":16,"name":"N.Agraharam"},"geometry":{"type":"Polygon","coordinates":[[[80.05517,15.49367],[80.05548,15.49379],[80.05745,15.49312],[80.05703,15.49229],[80.06027,15.49125],[80.06012,15.49068],[80.06117,15.49031],[80.06124,15.49011],[80.06181,15.48989],[80.062,15.49056],[80.0626,15.49034],[80.06266,15.49056],[80.06433,15.4898],[80.06447,15.49008],[80.06623,15.48948],[80.06636,15.48985],[80.06729,15.4896],[80.06632,15.48528],[80.06595,15.48281],[80.06507,15.47955],[80.06487,15.47946],[80.06429,15.47958],[80.06376,15.47811],[80.06389,15.478],[80.0633,15.4766],[80.06237,15.47689],[80.06195,15.47578],[80.06175,15.47567],[80.06175,15.47527],[80.06096,15.47314],[80.05976,15.47346],[80.05964,15.47328],[80.05784,15.47373],[80.05731,15.47146],[80.05613,15.47127],[80.05537,15.4715],[80.05479,15.4719],[80.05482,15.47219],[80.05342,15.47293],[80.05273,15.48805],[80.05281,15.48972],[80.05344,15.49184],[80.05477,15.49393],[80.05517,15.49367]]]}},{"type":"Feature","bbox":[80.02035,15.43675,80.05404,15.48567],"properties":{"ward":17,"name":"Ambedkar Colony Pragathi Colony"},"geometry":{"type":"Polygon","coordinates":[[[80.05293,15.48446],[80.05404,15.45755],[80.05079,15.43675],[80.04555,15.4382],[80.04534,15.4384],[80.04312,15.43755],[80.04058,15.43882],[80.03979,15.43861],[80.03942,15.43888],[80.03794,15.43929],[80.03464,15.43975],[80.03376,15.44007],[80.03312,15.44076],[80.03061,15.44139],[80.02935,15.44116],[80.02899,15.44123],[80.02465,15.44308],[80.02308,15.44401],[80.02136,15.44468],[80.02035,15.44487],[80.02097,15.44589],[80.02358,15.44879],[80.02431,15.44928],[80.02575,15.45069],[80.02827,15.4521],[80.03165,15.45428],[80.03255,15.45394],[80.0339,15.45458],[80.03525,15.45408],[80.03552,15.45469],[80.03579,15.45662],[80.03651,15.45651],[80.03704,15.45694],[80.03876,15.45647],[80.03882,15.45764],[80.03904,15.45846],[80.04014,15.46148],[80.04049,15.46463],[80.04155,15.46701],[80.04242,15.4699],[80.04241,15.47044],[80.04278,15.47087],[80.04276,15.47142],[80.04307,15.47259],[80.04485,15.47772],[80.04533,15.47969],[80.04541,15.48067],[80.04528,15.48174],[80.04566,15.48337],[80.0472,15.4821],[80.04768,15.48103],[80.0479,15.48111],[80.04797,15.48151],[80.04825,15.48567],[80.05293,15.48446]]]}},{"type":"Feature","bbox":[79.9899,15.44487,80.04466,15.50068],"properties":{"ward":18,"name":"Cheruvukommu Palem"},"geometry":{"type":"Polygon","coordinates":[[[80.00103,15.50013],[80.00174,15.50005],[80.00325,15.50038],[80.00381,15.50034],[80.00562,15.49881],[80.00644,15.49868],[80.00666,15.49848],[80.00673,15.49811],[80.00654,15.49709],[80.00706,15.49646],[80.00734,15.49646],[80.00817,15.49692],[80.00844,15.49773],[80.00872,15.49776],[80.00996,15.4973],[80.01078,15.498],[80.01119,15.49793],[80.01253,15.49645],[80.01309,15.49448],[80.01268,15.49362],[80.01275,15.49341],[80.01349,15.49294],[80.01589,15.49791],[80.01872,15.49678],[80.02052,15.49626],[80.02044,15.49592],[80.02065,15.49541],[80.02096,15.49529],[80.02068,15.49453],[80.02199,15.49399],[80.02177,15.49361],[80.02371,15.49272],[80.02364,15.49221],[80.02566,15.4921],[80.02566,15.49139],[80.02734,15.49061],[80.02675,15.48904],[80.02683,15.48865],[80.02727,15.48847],[80.02724,15.48812],[80.02789,15.4878],[80.02812,15.48729],[80.02735,15.48642],[80.02812,15.48413],[80.02822,15.48334],[80.0286,15.48292],[80.02896,15.48272],[80.03172,15.48243],[80.03249,15.48215],[80.03292,15.48123],[80.0354,15.47956],[80.03589,15.47815],[80.03619,15.47796],[80.03655,15.47801],[80.03766,15.48008],[80.03979,15.47902],[80.03955,15.47822],[80.04114,15.47762],[80.04153,15.47868],[80.04466,15.47735],[80.04428,15.4758],[80.04283,15.4718],[80.04278,15.47087],[80.04241,15.47044],[80.04242,15.4699],[80.04155,15.46701],[80.04049,15.46463],[80.04014,15.46148],[80.03904,15.45846],[80.03882,15.45764],[80.03876,15.45647],[80.03704,15.45694],[80.03651,15.45651],[80.03579,15.45662],[80.03552,15.45469],[80.03525,15.45408],[80.0339,15.45458],[80.03255,15.45394],[80.03165,15.45428],[80.02827,15.4521],[80.02575,15.45069],[80.02431,15.44928],[80.02358,15.44879],[80.02097,15.44589],[80.02035,15.44487],[80.01841,15.44549],[80.0183,15.44616],[80.01638,15.44665],[80.01656,15.44735],[80.01523,15.44809],[80.01467,15.44813],[80.01489,15.44899],[80.01426,15.44911],[80.01424,15.44947],[80.01349,15.44971],[80.01367,15.45027],[80.01269,15.45047],[80.01257,15.45062],[80.01334,15.45255],[80.01328,15.45288],[80.01379,15.45324],[80.01414,15.45502],[80.01205,15.45501],[80.01199,15.45527],[80.01244,15.45641],[80.00828,15.4584],[80.0078,15.45891],[80.00835,15.45959],[80.00995,15.46282],[80.01135,15.46298],[80.01234,15.46445],[80.01308,15.46473],[80.01343,15.46503],[80.01344,15.46599],[80.0137,15.46655],[80.0146,15.46668],[80.01459,15.46722],[80.01339,15.46898],[80.01515,15.47118],[80.01387,15.47146],[80.01324,15.47138],[80.01202,15.4706],[80.01157,15.47082],[80.01109,15.4703],[80.01052,15.47056],[80.01125,15.472],[80.01122,15.47229],[80.01086,15.47251],[80.0109,15.4729],[80.00971,15.47309],[80.00908,15.47346],[80.00849,15.4741],[80.00861,15.47445],[80.00753,15.47481],[80.0068,15.47394],[80.00515,15.47462],[80.00479,15.47451],[80.00416,15.47479],[80.00386,15.47418],[80.00323,15.47421],[80.00209,15.47499],[80.00153,15.47507],[80.00118,15.4754],[80.0009,15.47491],[80.00042,15.47492],[79.99812,15.47558],[79.9993,15.47687],[79.99958,15.47855],[79.9996,15.48185],[79.99779,15.4823],[79.99644,15.48205],[79.99502,15.48132],[79.99385,15.48138],[79.99297,15.48124],[79.9899,15.48226],[79.99004,15.48279],[79.99035,15.48332],[79.99053,15.48335],[79.99107,15.48442],[79.99127,15.48441],[79.99215,15.48558],[79.99352,15.48523],[79.9964,15.49057],[79.99749,15.49322],[79.99806,15.49477],[79.99879,15.49787],[79.99973,15.50065],[80.00031,15.50068],[80.00103,15.50013]]]}},{"type":"Feature","bbox":[80.02735,15.47735,80.04851,15.49491],"properties":{"ward":19,"name":"Bhagya Nagar Housing Board Colony"},"geometry":{"type":"Polygon","coordinates":[[[80.04768,15.48103],[80.0472,15.4821],[80.04566,15.48337],[80.04528,15.48174],[80.04541,15.48067],[80.04533,15.47969],[80.04466,15.47735],[80.04153,15.47868],[80.04114,15.47762],[80.03955,15.47822],[80.03979,15.47902],[80.03766,15.48008],[80.03655,15.47801],[80.03619,15.47796],[80.03589,15.47815],[80.0354,15.47956],[80.03292,15.48123],[80.03249,15.48215],[80.03172,15.48243],[80.02896,15.48272],[80.0286,15.48292],[80.02822,15.48334],[80.02812,15.48413],[80.02735,15.48642],[80.0274,15.48663],[80.0286,15.48776],[80.02984,15.48925],[80.03327,15.49491],[80.03457,15.49432],[80.03562,15.49352],[80.03797,15.49257],[80.03989,15.49236],[80.04254,15.4918],[80.04636,15.4903],[80.04851,15.49032],[80.04797,15.48151],[80.0479,15.48111],[80.04768,15.48103]]]}},{"type":"Feature","bbox":[80.04311,15.49031,80.04886,15.49465],"properties":{"ward":20,"name":"Dharavari Thota"},"geometry":{"type":"Polygon","coordinates":[[[80.04886,15.49433],[80.04851,15.49032],[80.0463,15.49031],[80.04311,15.49163],[80.04401,15.49446],[80.04494,15.49423],[80.04611,15.49465],[80.04886,15.49433]]]}},{"type":"Feature","bbox":[80.0426,15.49423,80.04946,15.50091],"properties":{"ward":21,"name":"Kesawaswamy Peta"},"geometry":{"type":"Polygon","coordinates":[[[80.04946,15.50015],[80.04886,15.49433],[80.04611,15.49465],[80.04494,15.49423],[80.04441,15.49431],[80.04522,15.4963],[80.04498,15.49728],[80.04516,15.49806],[80.0426,15.49841],[80.04278,15.49935],[80.04416,15.49982],[80.04554,15.50091],[80.04554,15.50071],[80.04946,15.50015]]]}},{"type":"Feature","bbox":[80.04554,15.50015,80.04965,15.50434],"properties":{"ward":22,"name":"Ankamma Palem"},"geometry":{"type":"Polygon","coordinates":[[[80.04768,15.50434],[80.04952,15.50425],[80.04965,15.50226],[80.04946,15.50015],[80.04554,15.50071],[80.04609,15.5027],[80.04697,15.502],[80.04776,15.5018],[80.04768,15.50434]]]}},{"type":"Feature","bbox":[80.04691,15.50425,80.04995,15.50887],"properties":{"ward":23,"name":"Ganuga Palem"},"geometry":{"type":"Polygon","coordinates":[[[80.04959,15.50642],[80.04995,15.50587],[80.0496,15.50498],[80.04952,15.50425],[80.04764,15.50434],[80.04779,15.50636],[80.04691,15.50627],[80.04734,15.50887],[80.04911,15.50795],[80.04959,15.50642]]]}},{"type":"Feature","bbox":[80.03937,15.50613,80.04734,15.51292],"properties":{"ward":24,"name":"Ekalavya Nagar, Vantapanivari Colony"},"geometry":{"type":"Polygon","coordinates":[[[80.04374,15.50649],[80.0404,15.50744],[80.04004,15.5101],[80.03937,15.51042],[80.04067,15.51292],[80.04644,15.50981],[80.04734,15.50887],[80.04699,15.50643],[80.04676,15.50614],[80.04601,15.50613],[80.04374,15.50649]]]}},{"type":"Feature","bbox":[80.04007,15.50434,80.04779,15.50744],"properties":{"ward":25,"name":"Patti Vari Street"},"geometry":{"type":"Polygon","coordinates":[[[80.0404,15.50744],[80.04431,15.50634],[80.04633,15.50611],[80.04779,15.50636],[80.04764,15.50434],[80.04328,15.50471],[80.04253,15.50518],[80.04086,15.50664],[80.04007,15.50697],[80.0404,15.50744]]]}},{"type":"Feature","bbox":[80.04287,15.50186,80.04775,15.50471],"properties":{"ward":26,"name":"Gandhi Road"},"geometry":{"type":"Polygon","coordinates":[[[80.04775,15.50186],[80.04697,15.502],[80.0454,15.50311],[80.04287,15.50391],[80.04328,15.50471],[80.04768,15.50434],[80.04775,15.50186]]]}},{"type":"Feature","bbox":[80.03994,15.49841,80.04609,15.50385],"properties":{"ward":27,"name":"Jakraiah Hospital Road"},"geometry":{"type":"Polygon","coordinates":[[[80.04609,15.5027],[80.04549,15.50082],[80.0449,15.50052],[80.04416,15.49982],[80.04278,15.49935],[80.0426,15.49841],[80.04074,15.49881],[80.04083,15.49907],[80.04056,15.49909],[80.04062,15.49987],[80.04106,15.50024],[80.04209,15.50183],[80.04106,15.50219],[80.03994,15.50185],[80.04081,15.50235],[80.04067,15.50354],[80.04207,15.50385],[80.0429,15.50385],[80.04564,15.50299],[80.04609,15.5027]]]}},{"type":"Feature","bbox":[80.03736,15.5033,80.04328,15.50697],"properties":{"ward":28,"name":"Kondamitta Cross Roads 1 To 14 Lines"},"geometry":{"type":"Polygon","coordinates":[[[80.04285,15.50388],[80.04185,15.50382],[80.03984,15.5033],[80.03736,15.50404],[80.0381,15.50547],[80.04007,15.50697],[80.04086,15.50664],[80.04253,15.50518],[80.04328,15.50471],[80.04285,15.50388]]]}},{"type":"Feature","bbox":[80.03607,15.50085,80.04081,15.50404],"properties":{"ward":29,"name":"Zakaraiah Hospital Area Kesavaswamy Peta Seetharampuram"},"geometry":{"type":"Polygon","coordinates":[[[80.03977,15.50331],[80.04067,15.50354],[80.04081,15.50235],[80.03994,15.50185],[80.03848,15.50137],[80.03811,15.50098],[80.03694,15.50158],[80.03631,15.50085],[80.03607,15.50088],[80.03736,15.50404],[80.03977,15.50331]]]}},{"type":"Feature","bbox":[80.03402,15.49521,80.04354,15.50219],"properties":{"ward":30,"name":"Gaddalagunta Vijayanagar Colony Sarmacollege Back Side Seetharampuram"},"geometry":{"type":"Polygon","coordinates":[[[80.04343,15.49722],[80.04202,15.49694],[80.04064,15.49645],[80.03952,15.49647],[80.03938,15.49525],[80.03714,15.4957],[80.03706,15.49521],[80.036,15.49538],[80.03605,15.49552],[80.0354,15.49564],[80.03557,15.49627],[80.03402,15.49671],[80.03442,15.49783],[80.03538,15.49897],[80.0363,15.50084],[80.03694,15.50158],[80.03811,15.50098],[80.03871,15.50148],[80.04097,15.50219],[80.04209,15.50183],[80.04106,15.50024],[80.04062,15.49987],[80.04056,15.49909],[80.04083,15.49907],[80.04074,15.49881],[80.04354,15.49829],[80.04343,15.49722]]]}},{"type":"Feature","bbox":[80.03327,15.49163,80.04519,15.49829],"properties":{"ward":31,"name":"Mamidipalem"},"geometry":{"type":"Polygon","coordinates":[[[80.04519,15.49642],[80.04441,15.49431],[80.04401,15.49446],[80.04311,15.49163],[80.04051,15.49225],[80.03797,15.49257],[80.03562,15.49352],[80.03457,15.49432],[80.03327,15.49491],[80.03402,15.49671],[80.03557,15.49627],[80.0354,15.49564],[80.03605,15.49552],[80.036,15.49538],[80.03706,15.49521],[80.03714,15.4957],[80.03938,15.49525],[80.03952,15.49647],[80.04064,15.49645],[80.04202,15.49694],[80.04343,15.49722],[80.04354,15.49829],[80.04516,15.49806],[80.04498,15.49728],[80.04519,15.49642]]]}},{"type":"Feature","bbox":[80.02555,15.49186,80.03681,15.50401],"properties":{"ward":32,"name":"Rajeev Nagar"},"geometry":{"type":"Polygon","coordinates":[[[80.03555,15.5018],[80.03681,15.50243],[80.03607,15.50088],[80.03631,15.50085],[80.03538,15.49897],[80.03442,15.49783],[80.03327,15.49491],[80.03133,15.49186],[80.02701,15.49438],[80.02602,15.49521],[80.02555,15.4964],[80.02555,15.49715],[80.02575,15.49777],[80.02942,15.50401],[80.03483,15.50238],[80.03506,15.50198],[80.03555,15.5018]]]}},{"type":"Feature","bbox":[80.01589,15.48734,80.03136,15.5065],"properties":{"ward":33,"name":"Lawyer Peta"},"geometry":{"type":"Polygon","coordinates":[[[80.02817,15.48734],[80.02789,15.4878],[80.02724,15.48812],[80.02727,15.48847],[80.02683,15.48865],[80.02675,15.48904],[80.02734,15.49061],[80.02566,15.49139],[80.02566,15.4921],[80.02364,15.49221],[80.02371,15.49272],[80.02177,15.49361],[80.02199,15.49399],[80.02068,15.49453],[80.02096,15.49529],[80.02065,15.49541],[80.02044,15.49592],[80.02052,15.49626],[80.01872,15.49678],[80.01589,15.49791],[80.01669,15.50025],[80.01718,15.50296],[80.01748,15.50378],[80.01844,15.50523],[80.03096,15.5065],[80.02588,15.49805],[80.02555,15.49715],[80.02566,15.49588],[80.02638,15.49482],[80.03136,15.49184],[80.02984,15.48925],[80.02817,15.48734]]]}},{"type":"Feature","bbox":[80.02942,15.5018,80.03734,15.50608],"properties":{"ward":34,"name":"V.I.P. Road"},"geometry":{"type":"Polygon","coordinates":[[[80.03566,15.5018],[80.03512,15.50194],[80.03483,15.50238],[80.02942,15.50401],[80.03069,15.50608],[80.03734,15.50399],[80.03681,15.50243],[80.03566,15.5018]]]}},{"type":"Feature","bbox":[80.03069,15.50399,80.03843,15.50926],"properties":{"ward":35,"name":"Nirmal Nagar"},"geometry":{"type":"Polygon","coordinates":[[[80.03462,15.50909],[80.03386,15.50669],[80.0368,15.50629],[80.03843,15.50572],[80.03771,15.5049],[80.03734,15.50399],[80.03069,15.50608],[80.03241,15.5088],[80.03387,15.50841],[80.03417,15.50926],[80.03462,15.50909]]]}},{"type":"Feature","bbox":[80.03241,15.50572,80.04043,15.51221],"properties":{"ward":36,"name":"Kotha Donka, Siva Prasad Colony"},"geometry":{"type":"Polygon","coordinates":[[[80.03817,15.51022],[80.04005,15.50959],[80.04043,15.50777],[80.04038,15.50739],[80.04015,15.50703],[80.03843,15.50572],[80.0368,15.50629],[80.03386,15.50669],[80.03462,15.50909],[80.03417,15.50926],[80.03387,15.50841],[80.03241,15.5088],[80.03451,15.51221],[80.03817,15.51022]]]}},{"type":"Feature","bbox":[80.01844,15.50523,80.03451,15.51768],"properties":{"ward":37,"name":"Sujatha Nagar"},"geometry":{"type":"Polygon","coordinates":[[[80.03096,15.5065],[80.01844,15.50523],[80.02026,15.50952],[80.02111,15.51081],[80.02119,15.51158],[80.0218,15.51227],[80.02289,15.51403],[80.02583,15.51768],[80.03116,15.51399],[80.03451,15.51221],[80.03096,15.5065]]]}},{"type":"Feature","bbox":[80.02242,15.51477,80.03191,15.52239],"properties":{"ward":38,"name":"Police Quarters"},"geometry":{"type":"Polygon","coordinates":[[[80.03191,15.5178],[80.03,15.51477],[80.02583,15.51768],[80.02591,15.51787],[80.02459,15.51878],[80.02242,15.52068],[80.0237,15.52239],[80.03191,15.5178]]]}},{"type":"Feature","bbox":[80.00381,15.49294,80.02591,15.52446],"properties":{"ward":39,"name":"Arunodaya Nagar Ramalinga Reddy Nagar"},"geometry":{"type":"Polygon","coordinates":[[[80.02497,15.51848],[80.02591,15.51787],[80.02583,15.51768],[80.02289,15.51403],[80.0218,15.51227],[80.02119,15.51158],[80.02111,15.51081],[80.02026,15.50952],[80.01852,15.50535],[80.01748,15.50378],[80.01718,15.50296],[80.01669,15.50025],[80.01589,15.49791],[80.01349,15.49294],[80.01275,15.49341],[80.01268,15.49362],[80.01309,15.49448],[80.01253,15.49645],[80.01102,15.49803],[80.01078,15.498],[80.00996,15.4973],[80.00872,15.49776],[80.00844,15.49773],[80.00804,15.49681],[80.00734,15.49646],[80.00685,15.49657],[80.00654,15.49709],[80.00673,15.49811],[80.00666,15.49848],[80.00644,15.49868],[80.00562,15.49881],[80.00381,15.50034],[80.00413,15.50061],[80.00562,15.50114],[80.0057,15.50481],[80.00587,15.50481],[80.00644,15.50578],[80.00698,15.50571],[80.00765,15.50622],[80.01092,15.50602],[80.01128,15.50732],[80.01129,15.50829],[80.01186,15.50988],[80.01116,15.51011],[80.01161,15.51131],[80.01184,15.51136],[80.01276,15.51353],[80.01259,15.51371],[80.01343,15.5157],[80.01414,15.51709],[80.0157,15.5167],[80.01707,15.51661],[80.01847,15.51878],[80.01991,15.52232],[80.01907,15.52295],[80.01999,15.52446],[80.0237,15.52239],[80.02242,15.52068],[80.02497,15.51848]]]}},{"type":"Feature","bbox":[79.96621,15.50006,80.01999,15.53948],"properties":{"ward":40,"name":"Rajiv Nagar"},"geometry":{"type":"Polygon","coordinates":[[[79.9989,15.53389],[80.00077,15.53407],[80.00318,15.534],[80.0044,15.5337],[80.01109,15.52934],[80.01999,15.52446],[80.01907,15.52295],[80.01991,15.52232],[80.01847,15.51878],[80.01707,15.51661],[80.0157,15.5167],[80.01414,15.51709],[80.01343,15.5157],[80.01259,15.51371],[80.01276,15.51353],[80.01184,15.51136],[80.01161,15.51131],[80.01116,15.51011],[80.01186,15.50988],[80.01129,15.50829],[80.01128,15.50732],[80.01092,15.50602],[80.00765,15.50622],[80.00698,15.50571],[80.00644,15.50578],[80.00587,15.50481],[80.0057,15.50481],[80.00562,15.50114],[80.00413,15.50061],[80.00381,15.50034],[80.00126,15.50006],[80.00031,15.50068],[79.99973,15.50065],[80.00041,15.50283],[79.9989,15.50303],[79.9969,15.50296],[79.99357,15.50409],[79.98979,15.50455],[79.98828,15.50491],[79.98676,15.50496],[79.98452,15.50539],[79.9833,15.50524],[79.98202,15.5045],[79.98154,15.5045],[79.9757,15.50562],[79.97429,15.50634],[79.97408,15.50635],[79.97312,15.50577],[79.97214,15.50554],[79.97092,15.5059],[79.96988,15.50666],[79.96929,15.50672],[79.96861,15.50652],[79.96844,15.50737],[79.96723,15.51],[79.96681,15.51332],[79.96621,15.5157],[79.96632,15.51756],[79.9675,15.52294],[79.96774,15.52496],[79.96881,15.52839],[79.97105,15.53704],[79.97291,15.53948],[79.97526,15.53947],[79.98416,15.53724],[79.9868,15.53688],[79.9989,15.53389]]]}},{"type":"Feature","bbox":[79.973,15.53392,80.0066,15.55245],"properties":{"ward":41,"name":"Saraladevi Nagar"},"geometry":{"type":"Polygon","coordinates":[[[79.973,15.53957],[79.97426,15.53992],[79.97547,15.54052],[79.97607,15.54191],[79.9776,15.54261],[79.97844,15.54418],[79.97865,15.54495],[79.97973,15.54452],[79.98065,15.54461],[79.98058,15.54429],[79.98105,15.54409],[79.98156,15.54494],[79.98304,15.54445],[79.9837,15.54555],[79.98438,15.5453],[79.98556,15.54615],[79.98625,15.54696],[79.98716,15.54642],[79.98744,15.54686],[79.98849,15.54631],[79.98862,15.54652],[79.98916,15.54629],[79.98952,15.54721],[79.99025,15.54706],[79.99039,15.54735],[79.99055,15.54728],[79.99084,15.54752],[79.99117,15.54817],[79.99068,15.54838],[79.99081,15.54866],[79.99071,15.54892],[79.99119,15.54961],[79.99082,15.5498],[79.99142,15.55057],[79.99104,15.55078],[79.99148,15.55173],[79.99109,15.55193],[79.99138,15.55245],[79.99301,15.5516],[79.99273,15.55094],[79.99343,15.55074],[79.99318,15.55008],[79.99393,15.54983],[79.99426,15.54954],[79.99464,15.55035],[79.99534,15.55015],[79.99521,15.54989],[79.99557,15.54963],[79.99595,15.549],[79.99627,15.54964],[79.99766,15.54919],[79.99747,15.54861],[79.99828,15.54835],[79.99917,15.54936],[80.00006,15.54908],[80.00022,15.54952],[80.00082,15.5493],[80.00045,15.54843],[80.00159,15.54807],[80.00203,15.54936],[80.00274,15.54955],[80.00355,15.55183],[80.00454,15.55144],[80.0042,15.55049],[80.0049,15.5502],[80.00449,15.54882],[80.00489,15.54846],[80.00537,15.54878],[80.0055,15.54871],[80.0058,15.5482],[80.00569,15.54752],[80.006,15.54712],[80.00565,15.54672],[80.00645,15.54631],[80.0066,15.54565],[80.00651,15.54497],[80.00528,15.54392],[80.00446,15.54117],[80.00476,15.54037],[80.00494,15.54025],[80.00472,15.53958],[80.00492,15.53944],[80.00464,15.53845],[80.00459,15.53748],[80.00402,15.53613],[80.00452,15.53602],[80.00432,15.53526],[80.00403,15.53474],[80.00347,15.53469],[80.00275,15.534],[80.00077,15.53407],[79.99872,15.53392],[79.9868,15.53688],[79.98416,15.53724],[79.97565,15.53938],[79.973,15.53957]]]}},{"type":"Feature","bbox":[80.00275,15.52222,80.03616,15.54701],"properties":{"ward":42,"name":"Ntr Colony Sundaraiah Nagar"},"geometry":{"type":"Polygon","coordinates":[[[80.03478,15.52864],[80.0335,15.52599],[80.02896,15.52807],[80.02702,15.52852],[80.02556,15.52517],[80.02399,15.52222],[80.01109,15.52934],[80.0044,15.5337],[80.00367,15.53396],[80.00275,15.534],[80.00347,15.53469],[80.00403,15.53474],[80.00452,15.53602],[80.00402,15.53613],[80.00458,15.5374],[80.00464,15.53845],[80.00492,15.53944],[80.00472,15.53958],[80.00494,15.54027],[80.00476,15.54037],[80.00446,15.54117],[80.00528,15.54392],[80.00651,15.54497],[80.00756,15.54455],[80.00767,15.54518],[80.00898,15.54474],[80.00923,15.545],[80.01095,15.54489],[80.01152,15.54646],[80.01326,15.54608],[80.01421,15.54566],[80.01368,15.54436],[80.01524,15.54445],[80.01552,15.54466],[80.01603,15.54569],[80.01555,15.5461],[80.01622,15.54647],[80.01703,15.54619],[80.01872,15.54652],[80.01945,15.54701],[80.02014,15.5467],[80.02052,15.54621],[80.02115,15.54492],[80.02077,15.544],[80.02137,15.54357],[80.02196,15.54386],[80.02234,15.54369],[80.02277,15.54401],[80.02397,15.54345],[80.02414,15.54384],[80.02549,15.5433],[80.02884,15.54307],[80.02876,15.54292],[80.03004,15.54301],[80.03049,15.54452],[80.03156,15.54411],[80.03139,15.54363],[80.03221,15.54387],[80.03215,15.54332],[80.03466,15.54364],[80.03581,15.54227],[80.03247,15.5365],[80.03405,15.5329],[80.034,15.53189],[80.03524,15.53157],[80.03465,15.52957],[80.03616,15.52913],[80.03594,15.52836],[80.03478,15.52864]]]}},{"type":"Feature","bbox":[80.02399,15.5201,80.03158,15.52853],"properties":{"ward":43,"name":"Sai Baba Nagar Ak Nagar"},"geometry":{"type":"Polygon","coordinates":[[[80.02778,15.5201],[80.02399,15.52222],[80.02632,15.52675],[80.02692,15.5284],[80.02711,15.52853],[80.02896,15.52807],[80.03158,15.52683],[80.03056,15.52515],[80.03064,15.52508],[80.02879,15.52141],[80.02778,15.5201]]]}},{"type":"Feature","bbox":[80.02778,15.51735,80.03563,15.52593],"properties":{"ward":44,"name":"Sri Ram Colony"},"geometry":{"type":"Polygon","coordinates":[[[80.03323,15.52455],[80.03563,15.52251],[80.03273,15.51735],[80.02778,15.5201],[80.02886,15.52152],[80.03064,15.52508],[80.03056,15.52515],[80.03107,15.52593],[80.03323,15.52455]]]}},{"type":"Feature","bbox":[80.03,15.51221,80.04032,15.52251],"properties":{"ward":45,"name":"Brundavan Colony"},"geometry":{"type":"Polygon","coordinates":[[[80.04032,15.51887],[80.03682,15.51588],[80.03451,15.51221],[80.03131,15.51389],[80.03,15.51477],[80.03191,15.5178],[80.03273,15.51735],[80.03563,15.52251],[80.03757,15.52072],[80.03936,15.51982],[80.04032,15.51887]]]}},{"type":"Feature","bbox":[80.03451,15.50959,80.04067,15.51667],"properties":{"ward":46,"name":"N.G.O Colony"},"geometry":{"type":"Polygon","coordinates":[[[80.03901,15.51384],[80.04067,15.51292],[80.03937,15.51042],[80.04004,15.5101],[80.04005,15.50959],[80.03817,15.51022],[80.03451,15.51221],[80.03658,15.51555],[80.03763,15.51667],[80.03972,15.5158],[80.03901,15.51384]]]}},{"type":"Feature","bbox":[80.03763,15.51278,80.04233,15.51887],"properties":{"ward":47,"name":"Chandriah Nagar"},"geometry":{"type":"Polygon","coordinates":[[[80.04112,15.51838],[80.04233,15.51837],[80.04093,15.51278],[80.03901,15.51384],[80.03972,15.5158],[80.03763,15.51667],[80.04032,15.51887],[80.04112,15.51838]]]}},{"type":"Feature","bbox":[80.04093,15.51174,80.045,15.51837],"properties":{"ward":48,"name":"Maruthi Nagar"},"geometry":{"type":"Polygon","coordinates":[[[80.04287,15.51174],[80.04093,15.51278],[80.04233,15.51837],[80.04404,15.51767],[80.045,15.51707],[80.04287,15.51174]]]}},{"type":"Feature","bbox":[80.04287,15.51077,80.04646,15.51707],"properties":{"ward":49,"name":"Nehru Nagar"},"geometry":{"type":"Polygon","coordinates":[[[80.04641,15.51559],[80.04615,15.51493],[80.04646,15.51477],[80.04637,15.51434],[80.04623,15.51432],[80.04568,15.51253],[80.04541,15.51259],[80.04462,15.51077],[80.04287,15.51173],[80.045,15.51707],[80.04641,15.51559]]]}},{"type":"Feature","bbox":[80.03107,15.51521,80.05612,15.55823],"properties":{"ward":50,"name":"Venkateswara Colony"},"geometry":{"type":"Polygon","coordinates":[[[80.04547,15.55533],[80.0494,15.55421],[80.04895,15.55571],[80.04953,15.5561],[80.05015,15.55615],[80.05101,15.55595],[80.05164,15.55546],[80.05196,15.55475],[80.05192,15.55406],[80.05231,15.55401],[80.05246,15.55444],[80.05313,15.55437],[80.05337,15.55476],[80.05439,15.55474],[80.05595,15.55182],[80.0561,15.55126],[80.05612,15.55041],[80.05571,15.54902],[80.05319,15.54577],[80.05223,15.54393],[80.04953,15.53468],[80.04968,15.53474],[80.0475,15.52569],[80.04714,15.52486],[80.04685,15.52272],[80.04695,15.51979],[80.04735,15.51606],[80.04729,15.51521],[80.04654,15.51547],[80.045,15.51707],[80.04404,15.51767],[80.04248,15.51834],[80.04073,15.51852],[80.03936,15.51982],[80.03745,15.52081],[80.03496,15.52316],[80.03323,15.52455],[80.03107,15.52593],[80.03158,15.52683],[80.0335,15.52599],[80.03474,15.52865],[80.03594,15.52836],[80.03616,15.52913],[80.03465,15.52957],[80.03524,15.53157],[80.034,15.53189],[80.03405,15.5329],[80.03247,15.5365],[80.03581,15.54227],[80.03466,15.54364],[80.03215,15.54332],[80.03221,15.54387],[80.03243,15.54396],[80.03505,15.54856],[80.036,15.54995],[80.03729,15.55149],[80.03887,15.55289],[80.04127,15.55565],[80.04217,15.55602],[80.04534,15.55823],[80.04588,15.55764],[80.04582,15.55617],[80.04547,15.55533]]]}}]}