{"type":"FeatureCollection","features":[{"type":"Feature","bbox":[78.05748,16.36592,78.06706,16.38254],"properties":{"ward":1},"geometry":{"type":"Polygon","coordinates":[[[78.06596,16.38227],[78.06547,16.37757],[78.06501,16.37544],[78.06599,16.37122],[78.06605,16.36996],[78.06632,16.3687],[78.06658,16.36872],[78.06687,16.36846],[78.06706,16.3679],[78.06703,16.3676],[78.06667,16.36737],[78.06669,16.36688],[78.06691,16.36667],[78.06448,16.36592],[78.06372,16.36604],[78.06298,16.36645],[78.06209,16.36813],[78.06198,16.36938],[78.06127,16.371],[78.06136,16.37129],[78.06056,16.37251],[78.05895,16.3734],[78.05787,16.37445],[78.05754,16.3759],[78.05748,16.37804],[78.0589,16.37952],[78.05974,16.38079],[78.06018,16.38179],[78.06114,16.38174],[78.06414,16.38251],[78.06532,16.38254],[78.06596,16.38227]]]}},{"type":"Feature","bbox":[78.06501,16.36667,78.07401,16.38239],"properties":{"ward":2},"geometry":{"type":"Polygon","coordinates":[[[78.07401,16.37956],[78.07325,16.37803],[78.06829,16.37059],[78.06834,16.37023],[78.06913,16.36914],[78.06925,16.36815],[78.0688,16.36783],[78.06822,16.36774],[78.06832,16.36712],[78.06691,16.36667],[78.06669,16.36688],[78.06667,16.36737],[78.06703,16.3676],[78.06706,16.3679],[78.06687,16.36846],[78.06658,16.36872],[78.06632,16.3687],[78.06605,16.36996],[78.06599,16.37122],[78.06501,16.37544],[78.06547,16.37757],[78.06596,16.38227],[78.06749,16.38239],[78.06918,16.38198],[78.06994,16.38093],[78.07097,16.38004],[78.07309,16.37993],[78.07401,16.37956]]]}},{"type":"Feature","bbox":[78.06829,16.36815,78.08583,16.3796],"properties":{"ward":3},"geometry":{"type":"Polygon","coordinates":[[[78.085,16.37917],[78.08583,16.37848],[78.08577,16.37728],[78.08303,16.37475],[78.08024,16.37304],[78.07863,16.37145],[78.0778,16.37155],[78.0727,16.36973],[78.0725,16.36937],[78.07217,16.36951],[78.07192,16.36904],[78.07173,16.36902],[78.07162,16.36818],[78.06925,16.36815],[78.06913,16.36914],[78.06834,16.37023],[78.06829,16.37059],[78.07325,16.37803],[78.07401,16.37956],[78.07611,16.37933],[78.07703,16.37887],[78.08124,16.3796],[78.0835,16.37949],[78.085,16.37917]]]}},{"type":"Feature","bbox":[78.07162,16.36728,78.10407,16.38455],"properties":{"ward":4},"geometry":{"type":"Polygon","coordinates":[[[78.10349,16.37736],[78.09929,16.37707],[78.09769,16.37729],[78.09832,16.37901],[78.09739,16.37922],[78.07619,16.36751],[78.07464,16.36728],[78.07162,16.36818],[78.07173,16.36902],[78.07192,16.36904],[78.07217,16.36951],[78.0725,16.36937],[78.0727,16.36973],[78.0778,16.37155],[78.07863,16.37145],[78.08024,16.37304],[78.08303,16.37475],[78.08577,16.37728],[78.08583,16.37848],[78.085,16.37917],[78.08611,16.37999],[78.0873,16.38455],[78.09178,16.3843],[78.09304,16.38341],[78.09766,16.38293],[78.09836,16.38295],[78.09941,16.38399],[78.10241,16.38374],[78.10348,16.38256],[78.10327,16.38132],[78.10407,16.37945],[78.10349,16.37736]]]}},{"type":"Feature","bbox":[78.0753,16.31802,78.10349,16.37922],"properties":{"ward":5},"geometry":{"type":"Polygon","coordinates":[[[78.10349,16.37736],[78.10297,16.37459],[78.10189,16.3739],[78.09837,16.37255],[78.09773,16.37283],[78.09725,16.37257],[78.09762,16.37192],[78.09723,16.36971],[78.09741,16.36613],[78.0976,16.36517],[78.09808,16.36449],[78.09806,16.36309],[78.09725,16.36133],[78.09635,16.3579],[78.09637,16.3571],[78.09741,16.35464],[78.09758,16.35292],[78.09727,16.34905],[78.09889,16.34569],[78.10222,16.34269],[78.10185,16.3353],[78.09934,16.32853],[78.09175,16.31802],[78.08522,16.31854],[78.09134,16.333],[78.09269,16.33817],[78.09256,16.34371],[78.09109,16.34572],[78.08873,16.34843],[78.08656,16.34986],[78.08587,16.35049],[78.08485,16.35195],[78.08439,16.35226],[78.08295,16.35398],[78.08095,16.35571],[78.07707,16.36006],[78.07744,16.36137],[78.07813,16.36211],[78.07802,16.36328],[78.07753,16.36347],[78.07749,16.364],[78.07668,16.36396],[78.07667,16.36457],[78.07693,16.36463],[78.07685,16.36672],[78.07538,16.36684],[78.0753,16.36731],[78.07619,16.36751],[78.07769,16.36828],[78.09739,16.37922],[78.09832,16.37901],[78.09769,16.37729],[78.09929,16.37707],[78.10349,16.37736]]]}},{"type":"Feature","bbox":[78.06489,16.31854,78.08973,16.35538],"properties":{"ward":6},"geometry":{"type":"Polygon","coordinates":[[[78.0709,16.35524],[78.07252,16.35451],[78.07396,16.35222],[78.07443,16.35092],[78.07514,16.34973],[78.0754,16.34814],[78.07904,16.34936],[78.08022,16.34676],[78.08278,16.34619],[78.08348,16.34116],[78.08397,16.34063],[78.0856,16.3407],[78.08792,16.3383],[78.08863,16.33655],[78.08847,16.33403],[78.08884,16.33279],[78.08932,16.33243],[78.08973,16.32927],[78.08522,16.31854],[78.08256,16.3193],[78.07491,16.32059],[78.07289,16.32296],[78.07187,16.32781],[78.0725,16.32923],[78.07126,16.33152],[78.07053,16.3388],[78.07,16.34016],[78.07001,16.34124],[78.06858,16.3427],[78.06832,16.34531],[78.06755,16.34964],[78.06657,16.34964],[78.06641,16.35109],[78.06527,16.35169],[78.06508,16.35195],[78.06501,16.35414],[78.06489,16.3542],[78.06504,16.35491],[78.06528,16.35483],[78.06543,16.35526],[78.06655,16.35513],[78.06669,16.35456],[78.06851,16.35445],[78.06951,16.35538],[78.0709,16.35524]]]}},{"type":"Feature","bbox":[78.06132,16.33044,78.07126,16.35644],"properties":{"ward":7},"geometry":{"type":"Polygon","coordinates":[[[78.06655,16.35513],[78.06543,16.35526],[78.06528,16.35483],[78.06504,16.35491],[78.06489,16.3542],[78.06501,16.35414],[78.06508,16.35195],[78.06527,16.35169],[78.06641,16.35109],[78.06657,16.34964],[78.06755,16.34964],[78.06832,16.34531],[78.06858,16.3427],[78.07001,16.34124],[78.07,16.34016],[78.07053,16.3388],[78.07126,16.33152],[78.06996,16.33162],[78.06911,16.33044],[78.06717,16.33366],[78.06695,16.33754],[78.06731,16.33807],[78.06725,16.33834],[78.06591,16.33967],[78.06601,16.34036],[78.06475,16.34247],[78.06464,16.34473],[78.06496,16.34601],[78.06242,16.34866],[78.06225,16.34963],[78.06286,16.35072],[78.06287,16.35169],[78.06235,16.35167],[78.06132,16.35204],[78.06143,16.35311],[78.06168,16.35378],[78.06263,16.35429],[78.06365,16.35374],[78.06407,16.35517],[78.06466,16.355],[78.06482,16.35549],[78.06501,16.35544],[78.0652,16.35604],[78.06568,16.35602],[78.0659,16.35642],[78.06616,16.35644],[78.06644,16.35589],[78.06655,16.35513]]]}},{"type":"Feature","bbox":[78.05626,16.32669,78.06911,16.35204],"properties":{"ward":8},"geometry":{"type":"Polygon","coordinates":[[[78.06911,16.33044],[78.06822,16.32743],[78.06609,16.32722],[78.06222,16.32804],[78.06191,16.32669],[78.06021,16.3274],[78.06004,16.32822],[78.05907,16.32919],[78.05813,16.32952],[78.05787,16.32907],[78.05698,16.32954],[78.05735,16.33868],[78.05679,16.34126],[78.05723,16.3427],[78.05626,16.34385],[78.05683,16.34491],[78.057,16.34491],[78.05777,16.34782],[78.05857,16.3478],[78.05866,16.34929],[78.05942,16.3493],[78.05944,16.349],[78.06022,16.34883],[78.0612,16.34885],[78.06132,16.35204],[78.06235,16.35167],[78.06287,16.35169],[78.06286,16.35072],[78.06225,16.34963],[78.06242,16.34866],[78.06496,16.34601],[78.06464,16.34473],[78.06475,16.34247],[78.06601,16.34036],[78.06591,16.33967],[78.06725,16.33834],[78.06731,16.33807],[78.06695,16.33754],[78.06717,16.33366],[78.06911,16.33044]]]}},{"type":"Feature","bbox":[78.03802,16.32954,78.05863,16.35183],"properties":{"ward":9},"geometry":{"type":"Polygon","coordinates":[[[78.04711,16.35175],[78.0505,16.35058],[78.05104,16.35073],[78.05188,16.35044],[78.05267,16.3495],[78.05296,16.34943],[78.05438,16.34936],[78.05441,16.34956],[78.05647,16.34962],[78.05777,16.34901],[78.05863,16.34889],[78.05857,16.3478],[78.05777,16.34782],[78.057,16.34491],[78.05683,16.34491],[78.05626,16.34385],[78.05723,16.3427],[78.05679,16.34126],[78.05735,16.33868],[78.05698,16.32954],[78.05396,16.33059],[78.05134,16.33207],[78.05278,16.33587],[78.05169,16.33666],[78.04991,16.33672],[78.04912,16.33692],[78.04852,16.33575],[78.04371,16.33763],[78.04164,16.33817],[78.04029,16.33821],[78.03871,16.33999],[78.03856,16.341],[78.03899,16.34407],[78.03963,16.34498],[78.04005,16.34663],[78.03882,16.34963],[78.03802,16.35051],[78.03871,16.3512],[78.04004,16.35183],[78.04349,16.35173],[78.04585,16.35114],[78.04711,16.35175]]]}},{"type":"Feature","bbox":[78.01893,16.34352,78.0536,16.365],"properties":{"ward":10},"geometry":{"type":"Polygon","coordinates":[[[78.05346,16.36248],[78.05247,16.35944],[78.05242,16.35884],[78.05307,16.35879],[78.05254,16.35727],[78.05229,16.35714],[78.05089,16.35722],[78.05057,16.35707],[78.05016,16.3563],[78.04989,16.35613],[78.04976,16.35526],[78.04995,16.35445],[78.05066,16.35387],[78.05039,16.35199],[78.04977,16.35084],[78.04711,16.35175],[78.04585,16.35114],[78.04349,16.35173],[78.04004,16.35183],[78.03871,16.3512],[78.03802,16.35051],[78.03882,16.34963],[78.04005,16.34663],[78.03963,16.34498],[78.03899,16.34407],[78.03586,16.34385],[78.03444,16.34352],[78.03293,16.34356],[78.03067,16.34434],[78.03067,16.34505],[78.02973,16.34569],[78.0282,16.34775],[78.02809,16.34846],[78.02699,16.34958],[78.02613,16.35008],[78.02516,16.35134],[78.0247,16.35215],[78.02453,16.3536],[78.02301,16.3531],[78.02114,16.35315],[78.02095,16.35452],[78.02007,16.35431],[78.01905,16.35474],[78.01893,16.35532],[78.01923,16.35671],[78.0197,16.35703],[78.02004,16.35757],[78.0202,16.35825],[78.01979,16.35935],[78.01934,16.35942],[78.01943,16.36056],[78.03037,16.36166],[78.03375,16.36218],[78.03786,16.36228],[78.0376,16.36056],[78.04161,16.35999],[78.04393,16.3612],[78.04487,16.36227],[78.04752,16.36302],[78.05096,16.365],[78.05236,16.3638],[78.0536,16.36349],[78.05346,16.36248]]]}},{"type":"Feature","bbox":[78.01943,16.35999,78.05837,16.37321],"properties":{"ward":11},"geometry":{"type":"Polygon","coordinates":[[[78.03651,16.37113],[78.0365,16.37027],[78.04015,16.36956],[78.04074,16.36999],[78.04358,16.36871],[78.0488,16.36785],[78.04954,16.37023],[78.05049,16.37125],[78.05077,16.37228],[78.05183,16.37315],[78.05302,16.37312],[78.05467,16.37282],[78.05547,16.37318],[78.05732,16.37321],[78.0574,16.37245],[78.05794,16.37252],[78.05793,16.37136],[78.05837,16.36714],[78.05795,16.36568],[78.05426,16.3666],[78.05096,16.365],[78.04752,16.36302],[78.04487,16.36227],[78.04393,16.3612],[78.04161,16.35999],[78.0376,16.36056],[78.03786,16.36228],[78.03375,16.36218],[78.03037,16.36166],[78.01943,16.36056],[78.02343,16.36384],[78.03062,16.36889],[78.03284,16.3709],[78.03478,16.37311],[78.03651,16.37113]]]}},{"type":"Feature","bbox":[78.03144,16.36785,78.05183,16.38684],"properties":{"ward":12},"geometry":{"type":"Polygon","coordinates":[[[78.05005,16.38676],[78.04907,16.37815],[78.04911,16.37613],[78.05021,16.37452],[78.05137,16.37403],[78.05183,16.37315],[78.05077,16.37228],[78.05049,16.37125],[78.04954,16.37023],[78.0488,16.36785],[78.04358,16.36871],[78.04074,16.36999],[78.04015,16.36956],[78.0365,16.37027],[78.03651,16.37113],[78.03478,16.37311],[78.03374,16.37465],[78.03266,16.375],[78.03172,16.37575],[78.03144,16.37709],[78.0324,16.37765],[78.03269,16.37866],[78.03219,16.38147],[78.03485,16.38512],[78.03965,16.3855],[78.04418,16.38684],[78.05005,16.38676]]]}},{"type":"Feature","bbox":[78.04907,16.36456,78.06209,16.38819],"properties":{"ward":13},"geometry":{"type":"Polygon","coordinates":[[[78.06018,16.38179],[78.05974,16.38079],[78.0589,16.37952],[78.05748,16.37804],[78.05754,16.3759],[78.05787,16.37445],[78.05895,16.3734],[78.06056,16.37251],[78.06136,16.37129],[78.06127,16.371],[78.06198,16.36938],[78.06209,16.36813],[78.06149,16.36792],[78.06156,16.36769],[78.06143,16.36765],[78.06145,16.36744],[78.06189,16.36723],[78.06209,16.3665],[78.06199,16.36456],[78.05795,16.36568],[78.05837,16.36714],[78.05793,16.37136],[78.05794,16.37252],[78.0574,16.37245],[78.05732,16.37321],[78.05547,16.37318],[78.05467,16.37282],[78.05302,16.37312],[78.05183,16.37315],[78.05137,16.37403],[78.05021,16.37452],[78.04911,16.37613],[78.04907,16.37815],[78.05005,16.38676],[78.0514,16.38719],[78.05355,16.38819],[78.05394,16.38682],[78.05551,16.38635],[78.05623,16.38649],[78.05695,16.38523],[78.05751,16.3837],[78.06018,16.38179]]]}},{"type":"Feature","bbox":[78.06145,16.36122,78.06727,16.36813],"properties":{"ward":14},"geometry":{"type":"Polygon","coordinates":[[[78.06691,16.36667],[78.06727,16.36638],[78.06647,16.36421],[78.06604,16.36122],[78.0621,16.3623],[78.06273,16.36433],[78.06199,16.36456],[78.06209,16.3665],[78.06189,16.36723],[78.06145,16.36744],[78.06149,16.36792],[78.06209,16.36813],[78.06298,16.36645],[78.06372,16.36604],[78.06448,16.36592],[78.06691,16.36667]]]}},{"type":"Feature","bbox":[78.06627,16.36213,78.06946,16.36718],"properties":{"ward":15},"geometry":{"type":"Polygon","coordinates":[[[78.06884,16.36475],[78.06862,16.36448],[78.0685,16.36381],[78.06914,16.36297],[78.06946,16.36213],[78.06755,16.36214],[78.06753,16.36286],[78.06627,16.36302],[78.06647,16.36421],[78.06727,16.36638],[78.06691,16.36667],[78.06853,16.36718],[78.06824,16.36598],[78.06884,16.36475]]]}},{"type":"Feature","bbox":[78.06822,16.36475,78.07139,16.36783],"properties":{"ward":16},"geometry":{"type":"Polygon","coordinates":[[[78.07139,16.3664],[78.07117,16.36506],[78.06884,16.36475],[78.06824,16.36598],[78.06853,16.36718],[78.06832,16.36712],[78.06822,16.36774],[78.0688,16.36783],[78.06879,16.36729],[78.06896,16.36725],[78.07128,16.36724],[78.07139,16.3664]]]}},{"type":"Feature","bbox":[78.06879,16.3664,78.07335,16.36818],"properties":{"ward":17},"geometry":{"type":"Polygon","coordinates":[[[78.07162,16.36818],[78.07328,16.36763],[78.07335,16.36697],[78.07256,16.36694],[78.07221,16.36678],[78.07205,16.36687],[78.07139,16.3664],[78.07128,16.36724],[78.07081,16.36714],[78.06879,16.36729],[78.0688,16.36783],[78.06925,16.36815],[78.07162,16.36818]]]}},{"type":"Feature","bbox":[78.07221,16.3638,78.07381,16.36763],"properties":{"ward":18},"geometry":{"type":"Polygon","coordinates":[[[78.07364,16.36752],[78.07381,16.36383],[78.07349,16.3638],[78.07315,16.36398],[78.07278,16.36457],[78.07244,16.36544],[78.0726,16.36569],[78.07252,16.36603],[78.07221,16.36678],[78.07256,16.36694],[78.07335,16.36697],[78.07328,16.36763],[78.07364,16.36752]]]}},{"type":"Feature","bbox":[78.07349,16.36177,78.07517,16.36752],"properties":{"ward":19},"geometry":{"type":"Polygon","coordinates":[[[78.07364,16.36752],[78.07506,16.3673],[78.07517,16.36513],[78.07485,16.36509],[78.07503,16.36177],[78.07442,16.36236],[78.07386,16.36343],[78.07349,16.3638],[78.07381,16.36383],[78.07364,16.36752]]]}},{"type":"Feature","bbox":[78.07485,16.36036,78.07813,16.36731],"properties":{"ward":20},"geometry":{"type":"Polygon","coordinates":[[[78.07538,16.36684],[78.07685,16.36672],[78.07693,16.36463],[78.07667,16.36457],[78.07668,16.36396],[78.07749,16.364],[78.07753,16.36347],[78.07802,16.36328],[78.07813,16.36211],[78.07744,16.36137],[78.07709,16.36036],[78.0757,16.36148],[78.07503,16.36177],[78.07485,16.36509],[78.07517,16.36513],[78.07506,16.3673],[78.0753,16.36731],[78.07538,16.36684]]]}},{"type":"Feature","bbox":[78.06853,16.32927,78.09269,16.36687],"properties":{"ward":21},"geometry":{"type":"Polygon","coordinates":[[[78.07205,16.36687],[78.07252,16.36603],[78.0726,16.36569],[78.07244,16.36544],[78.07278,16.36457],[78.07315,16.36398],[78.07386,16.36343],[78.07424,16.36261],[78.07475,16.36198],[78.0757,16.36148],[78.07709,16.36036],[78.07707,16.36006],[78.07894,16.3579],[78.08115,16.35551],[78.08295,16.35398],[78.08439,16.35226],[78.08485,16.35195],[78.08587,16.35049],[78.08656,16.34986],[78.08873,16.34843],[78.09109,16.34572],[78.09256,16.34371],[78.09269,16.33817],[78.09134,16.333],[78.08973,16.32927],[78.08932,16.33243],[78.08884,16.33279],[78.08847,16.33403],[78.08863,16.33655],[78.08792,16.3383],[78.0856,16.3407],[78.08397,16.34063],[78.08348,16.34116],[78.08278,16.34619],[78.08022,16.34676],[78.07904,16.34936],[78.0754,16.34814],[78.07514,16.34973],[78.07443,16.35092],[78.07396,16.35222],[78.07252,16.35451],[78.0709,16.35524],[78.0716,16.3566],[78.07154,16.35744],[78.07015,16.35869],[78.06984,16.36004],[78.06973,16.36146],[78.06914,16.36297],[78.06858,16.3636],[78.06853,16.36421],[78.06884,16.36475],[78.07117,16.36506],[78.07139,16.3664],[78.07205,16.36687]]]}},{"type":"Feature","bbox":[78.06571,16.35445,78.0716,16.36302],"properties":{"ward":22},"geometry":{"type":"Polygon","coordinates":[[[78.06946,16.36213],[78.06973,16.36146],[78.06984,16.36004],[78.07015,16.35869],[78.07154,16.35744],[78.0716,16.3566],[78.0709,16.35524],[78.06951,16.35538],[78.06851,16.35445],[78.06669,16.35456],[78.06644,16.35589],[78.06616,16.35644],[78.06625,16.35769],[78.06571,16.35841],[78.06627,16.36302],[78.06753,16.36286],[78.06755,16.36214],[78.06946,16.36213]]]}},{"type":"Feature","bbox":[78.06357,16.355,78.06625,16.3615],"properties":{"ward":23},"geometry":{"type":"Polygon","coordinates":[[[78.06604,16.36122],[78.06571,16.35841],[78.06625,16.35769],[78.06616,16.35644],[78.0659,16.35642],[78.06568,16.35602],[78.0652,16.35604],[78.06501,16.35544],[78.06482,16.35549],[78.06466,16.355],[78.06371,16.35533],[78.06415,16.35684],[78.06357,16.35701],[78.06492,16.3615],[78.06604,16.36122]]]}},{"type":"Feature","bbox":[78.0621,16.35374,78.06415,16.35894],"properties":{"ward":24},"geometry":{"type":"Polygon","coordinates":[[[78.0641,16.35875],[78.06357,16.35701],[78.06415,16.35684],[78.06371,16.35533],[78.06407,16.35517],[78.06365,16.35374],[78.06263,16.35429],[78.06305,16.35552],[78.0621,16.35587],[78.06212,16.3566],[78.0624,16.35736],[78.06281,16.35723],[78.06332,16.35894],[78.0641,16.35875]]]}},{"type":"Feature","bbox":[78.0584,16.35219,78.06305,16.358],"properties":{"ward":25},"geometry":{"type":"Polygon","coordinates":[[[78.06247,16.35764],[78.06212,16.3566],[78.0621,16.35587],[78.06305,16.35552],[78.06263,16.35429],[78.06189,16.35397],[78.06154,16.35356],[78.06138,16.35246],[78.06053,16.35259],[78.06045,16.35219],[78.06008,16.35222],[78.05897,16.35249],[78.0584,16.35279],[78.06028,16.356],[78.06089,16.358],[78.06247,16.35764]]]}},{"type":"Feature","bbox":[78.05647,16.34875,78.06138,16.35279],"properties":{"ward":26},"geometry":{"type":"Polygon","coordinates":[[[78.06138,16.35246],[78.06121,16.35122],[78.0612,16.34885],[78.0607,16.34875],[78.05944,16.349],[78.05942,16.3493],[78.05866,16.34929],[78.05863,16.34889],[78.05777,16.34901],[78.05647,16.34962],[78.0584,16.35279],[78.05897,16.35249],[78.06008,16.35222],[78.06045,16.35219],[78.06053,16.35259],[78.06138,16.35246]]]}},{"type":"Feature","bbox":[78.0525,16.34936,78.05913,16.35505],"properties":{"ward":27},"geometry":{"type":"Polygon","coordinates":[[[78.05913,16.35403],[78.05647,16.34962],[78.05441,16.34956],[78.05438,16.34936],[78.05267,16.3495],[78.0525,16.34975],[78.05263,16.35046],[78.05404,16.35062],[78.05441,16.35146],[78.05448,16.352],[78.05412,16.35201],[78.0548,16.35475],[78.05563,16.35462],[78.05582,16.35505],[78.05862,16.35434],[78.05861,16.35417],[78.05913,16.35403]]]}},{"type":"Feature","bbox":[78.0548,16.35403,78.06039,16.3575],"properties":{"ward":28},"geometry":{"type":"Polygon","coordinates":[[[78.06039,16.35623],[78.05913,16.35403],[78.05861,16.35417],[78.05862,16.35434],[78.05582,16.35505],[78.05563,16.35462],[78.0548,16.35475],[78.05495,16.35565],[78.05523,16.3556],[78.05528,16.35611],[78.05587,16.3575],[78.06039,16.35623]]]}},{"type":"Feature","bbox":[78.05529,16.35623,78.06147,16.36133],"properties":{"ward":29},"geometry":{"type":"Polygon","coordinates":[[[78.05776,16.36133],[78.06147,16.36024],[78.06039,16.35623],[78.05587,16.3575],[78.05529,16.35789],[78.05568,16.3593],[78.05697,16.35894],[78.05776,16.36133]]]}},{"type":"Feature","bbox":[78.04976,16.34975,78.05748,16.36248],"properties":{"ward":30},"geometry":{"type":"Polygon","coordinates":[[[78.05748,16.36052],[78.05697,16.35894],[78.05568,16.3593],[78.05529,16.35789],[78.05587,16.3575],[78.05528,16.35611],[78.05523,16.3556],[78.05495,16.35565],[78.05412,16.35201],[78.05448,16.352],[78.05441,16.35146],[78.05404,16.35062],[78.05263,16.35046],[78.0525,16.34975],[78.05188,16.35044],[78.05104,16.35073],[78.0505,16.35058],[78.04977,16.35084],[78.05039,16.35199],[78.05066,16.35387],[78.04995,16.35445],[78.04976,16.35526],[78.04989,16.35613],[78.05016,16.3563],[78.05057,16.35707],[78.05089,16.35722],[78.05229,16.35714],[78.05254,16.35727],[78.05307,16.35879],[78.05242,16.35884],[78.05247,16.35944],[78.05346,16.36248],[78.05603,16.3618],[78.05594,16.36138],[78.0568,16.3612],[78.05669,16.36082],[78.05748,16.36052]]]}},{"type":"Feature","bbox":[78.05096,16.36052,78.0582,16.3666],"properties":{"ward":31},"geometry":{"type":"Polygon","coordinates":[[[78.05644,16.36609],[78.05605,16.36454],[78.05808,16.36396],[78.05743,16.36184],[78.0582,16.36158],[78.05811,16.36124],[78.05776,16.36133],[78.05748,16.36052],[78.05669,16.36082],[78.0568,16.3612],[78.05594,16.36138],[78.05603,16.3618],[78.05346,16.36248],[78.0536,16.36349],[78.05236,16.3638],[78.05096,16.365],[78.05426,16.3666],[78.05644,16.36609]]]}},{"type":"Feature","bbox":[78.05605,16.36024,78.06273,16.36609],"properties":{"ward":32},"geometry":{"type":"Polygon","coordinates":[[[78.05644,16.36609],[78.06273,16.36433],[78.06147,16.36024],[78.05811,16.36124],[78.0582,16.36158],[78.05743,16.36184],[78.05808,16.36396],[78.05605,16.36454],[78.05644,16.36609]]]}},{"type":"Feature","bbox":[78.06089,16.35723,78.06492,16.3623],"properties":{"ward":33},"geometry":{"type":"Polygon","coordinates":[[[78.0621,16.3623],[78.06492,16.3615],[78.0641,16.35875],[78.06332,16.35894],[78.06281,16.35723],[78.0624,16.35736],[78.06247,16.35764],[78.06089,16.358],[78.0621,16.3623]]]}}]}