{"type":"FeatureCollection","features":[{"type":"Feature","bbox":[83.87137,18.41588,83.90212,18.44707],"properties":{"ward":1,"name":"Thimmapuram"},"geometry":{"type":"Polygon","coordinates":[[[83.87687,18.44707],[83.87827,18.44653],[83.88027,18.44602],[83.88008,18.44397],[83.88136,18.44412],[83.88144,18.44458],[83.8832,18.44441],[83.88288,18.44301],[83.88354,18.44316],[83.88459,18.44297],[83.88613,18.44346],[83.88821,18.4433],[83.88845,18.44429],[83.88964,18.44413],[83.88965,18.44391],[83.89108,18.4434],[83.89113,18.44306],[83.89217,18.44269],[83.89235,18.44333],[83.89363,18.44312],[83.89346,18.44232],[83.89378,18.44223],[83.89344,18.44144],[83.89444,18.44094],[83.89448,18.44072],[83.89282,18.43646],[83.89297,18.43568],[83.89359,18.43452],[83.89442,18.43378],[83.89529,18.4337],[83.89594,18.43338],[83.89601,18.43289],[83.89672,18.43252],[83.89694,18.4319],[83.89726,18.43191],[83.89727,18.43129],[83.89706,18.43128],[83.89748,18.43067],[83.89804,18.43071],[83.90212,18.42359],[83.89948,18.42369],[83.8994,18.42212],[83.89982,18.42061],[83.89946,18.41813],[83.89934,18.41763],[83.8987,18.41769],[83.89777,18.41588],[83.89751,18.41598],[83.89736,18.41695],[83.89657,18.41777],[83.89464,18.41784],[83.89328,18.41813],[83.89284,18.41842],[83.89203,18.41848],[83.89177,18.41814],[83.8906,18.41798],[83.8903,18.42104],[83.8899,18.42281],[83.89028,18.42461],[83.89001,18.42703],[83.89012,18.42795],[83.88797,18.42839],[83.88757,18.42824],[83.8875,18.42791],[83.88611,18.42792],[83.88546,18.42688],[83.88526,18.42677],[83.88398,18.42695],[83.88351,18.42679],[83.8828,18.42622],[83.883,18.42609],[83.8828,18.42557],[83.88197,18.42528],[83.88164,18.42529],[83.88142,18.42551],[83.88132,18.42509],[83.88029,18.42535],[83.88032,18.42575],[83.88017,18.42587],[83.87544,18.42711],[83.87385,18.4278],[83.87383,18.42824],[83.87317,18.42922],[83.87247,18.43127],[83.87252,18.43211],[83.87305,18.4323],[83.873,18.43347],[83.87276,18.43363],[83.8728,18.43381],[83.8718,18.43537],[83.87142,18.43551],[83.87137,18.43631],[83.87168,18.43702],[83.87294,18.43759],[83.87342,18.43818],[83.87323,18.43829],[83.87318,18.43873],[83.87304,18.43877],[83.8732,18.44149],[83.87372,18.44212],[83.87523,18.44478],[83.87551,18.4458],[83.87592,18.44627],[83.87637,18.44631],[83.87687,18.44707]]]}},{"type":"Feature","bbox":[83.89933,18.41255,83.91709,18.42375],"properties":{"ward":2,"name":"Krishnapuram"},"geometry":{"type":"Polygon","coordinates":[[[83.91528,18.41923],[83.91709,18.41758],[83.90946,18.41255],[83.9047,18.41966],[83.90411,18.41739],[83.9019,18.41771],[83.90176,18.4173],[83.9006,18.41742],[83.90038,18.41723],[83.89983,18.41756],[83.89933,18.41758],[83.89982,18.42061],[83.8994,18.42212],[83.89948,18.42369],[83.90212,18.42359],[83.90232,18.42333],[83.90255,18.42333],[83.90312,18.42337],[83.90317,18.42374],[83.90344,18.42375],[83.90377,18.42263],[83.90425,18.42276],[83.90471,18.42267],[83.905,18.42181],[83.90542,18.42181],[83.90585,18.42219],[83.90632,18.42227],[83.90693,18.42209],[83.90697,18.42172],[83.90721,18.42157],[83.9084,18.42135],[83.90945,18.42092],[83.91015,18.42089],[83.91013,18.42112],[83.91026,18.42112],[83.91153,18.41963],[83.91225,18.41922],[83.91378,18.41904],[83.91528,18.41923]]]}},{"type":"Feature","bbox":[83.90946,18.4041,83.92039,18.41761],"properties":{"ward":3,"name":"Voosavanipeta"},"geometry":{"type":"Polygon","coordinates":[[[83.91944,18.41393],[83.92028,18.41388],[83.92039,18.41256],[83.92012,18.41169],[83.91948,18.41139],[83.91938,18.41069],[83.91978,18.40998],[83.92035,18.40691],[83.91937,18.40484],[83.91863,18.40416],[83.91715,18.4041],[83.91456,18.40486],[83.90946,18.41255],[83.91711,18.41761],[83.91718,18.41748],[83.91689,18.4173],[83.91714,18.41698],[83.91687,18.4167],[83.9169,18.4165],[83.91648,18.41627],[83.91655,18.41593],[83.91715,18.41587],[83.91718,18.41573],[83.91747,18.41573],[83.91752,18.4155],[83.91926,18.41515],[83.91927,18.41414],[83.91944,18.41393]]]}},{"type":"Feature","bbox":[83.9194,18.4018,83.93262,18.41225],"properties":{"ward":4,"name":"Gedelavanipeta"},"geometry":{"type":"Polygon","coordinates":[[[83.93253,18.40699],[83.93054,18.40695],[83.93018,18.40673],[83.93041,18.40572],[83.9304,18.40465],[83.93009,18.40304],[83.93046,18.40275],[83.93035,18.40236],[83.92894,18.40222],[83.92789,18.4018],[83.92711,18.40204],[83.92612,18.40241],[83.92536,18.40292],[83.92473,18.40301],[83.92343,18.40361],[83.9212,18.40571],[83.91983,18.40594],[83.92023,18.40655],[83.92036,18.40727],[83.91978,18.40998],[83.9194,18.41059],[83.91946,18.41135],[83.92009,18.41166],[83.92023,18.41214],[83.92082,18.41206],[83.92152,18.41225],[83.92172,18.41214],[83.9217,18.4118],[83.92156,18.41172],[83.92278,18.41138],[83.92484,18.41],[83.92549,18.40975],[83.92551,18.40949],[83.92707,18.40916],[83.9277,18.40937],[83.92865,18.40903],[83.92887,18.40872],[83.93031,18.40835],[83.93262,18.40743],[83.93253,18.40699]]]}},{"type":"Feature","bbox":[83.90718,18.38758,83.93035,18.40594],"properties":{"ward":5,"name":"Akkivalasa"},"geometry":{"type":"Polygon","coordinates":[[[83.92149,18.39002],[83.92036,18.38971],[83.91991,18.39047],[83.91952,18.3906],[83.91339,18.38958],[83.90794,18.38758],[83.90736,18.3876],[83.90808,18.38987],[83.90809,18.39057],[83.90851,18.39124],[83.90861,18.39249],[83.90826,18.39284],[83.90779,18.3929],[83.90794,18.39493],[83.9075,18.39502],[83.90718,18.39623],[83.90728,18.3978],[83.9079,18.39791],[83.90974,18.3978],[83.90995,18.39767],[83.91358,18.40311],[83.91456,18.40486],[83.91715,18.4041],[83.91863,18.40416],[83.91937,18.40484],[83.91983,18.40594],[83.92017,18.40581],[83.92076,18.40586],[83.92131,18.40564],[83.92343,18.40361],[83.92473,18.40301],[83.92536,18.40292],[83.92619,18.40238],[83.92789,18.4018],[83.92894,18.40222],[83.93035,18.40236],[83.92993,18.40104],[83.92903,18.40147],[83.92877,18.4014],[83.92854,18.40017],[83.92791,18.40033],[83.92764,18.39968],[83.92618,18.39998],[83.92612,18.39961],[83.92558,18.39967],[83.92482,18.39948],[83.92433,18.3979],[83.92423,18.39777],[83.924,18.39784],[83.92367,18.39693],[83.92437,18.39679],[83.92414,18.39597],[83.92428,18.39574],[83.92425,18.39484],[83.92387,18.39488],[83.9238,18.39433],[83.92355,18.39393],[83.92292,18.39404],[83.92301,18.3929],[83.92207,18.39292],[83.92208,18.39171],[83.92189,18.39171],[83.92196,18.39118],[83.92137,18.39087],[83.92163,18.39024],[83.92149,18.39002]]]}},{"type":"Feature","bbox":[83.88787,18.37351,83.92036,18.3906],"properties":{"ward":6,"name":"Nandagiripeta"},"geometry":{"type":"Polygon","coordinates":[[[83.91991,18.39047],[83.92036,18.38971],[83.91989,18.38962],[83.9198,18.38885],[83.91983,18.38452],[83.91952,18.3828],[83.91978,18.38262],[83.91938,18.38018],[83.91938,18.37895],[83.91916,18.37829],[83.91524,18.37947],[83.91516,18.37927],[83.91484,18.37923],[83.91477,18.37839],[83.9146,18.37818],[83.91321,18.37819],[83.91302,18.37777],[83.91267,18.37785],[83.91227,18.37737],[83.91112,18.37782],[83.90899,18.37827],[83.90878,18.37805],[83.90864,18.37744],[83.90668,18.3773],[83.9058,18.37683],[83.90422,18.37636],[83.90373,18.37596],[83.90347,18.37594],[83.90309,18.37552],[83.90212,18.37538],[83.90184,18.37496],[83.90167,18.37398],[83.89894,18.37351],[83.89684,18.37365],[83.89688,18.37438],[83.89566,18.37427],[83.8947,18.37943],[83.89457,18.37954],[83.89495,18.38104],[83.89385,18.38162],[83.89394,18.38208],[83.89331,18.38295],[83.89282,18.38283],[83.89121,18.38398],[83.89093,18.38387],[83.89085,18.38352],[83.88979,18.38359],[83.88903,18.3839],[83.88899,18.38466],[83.88833,18.3843],[83.88787,18.38656],[83.88798,18.38694],[83.88974,18.38688],[83.89086,18.387],[83.89641,18.38664],[83.89718,18.38686],[83.89941,18.38688],[83.89885,18.3888],[83.90369,18.38857],[83.90624,18.38795],[83.90734,18.38752],[83.9079,18.38757],[83.91095,18.3886],[83.91339,18.38958],[83.91952,18.3906],[83.91991,18.39047]]]}},{"type":"Feature","bbox":[83.88628,18.38664,83.90857,18.39464],"properties":{"ward":7,"name":"Chintada"},"geometry":{"type":"Polygon","coordinates":[[[83.9079,18.39464],[83.90779,18.3929],[83.90849,18.39266],[83.90857,18.3919],[83.90851,18.39124],[83.90809,18.39057],[83.90808,18.38987],[83.90734,18.38752],[83.90624,18.38795],[83.90369,18.38857],[83.89885,18.3888],[83.89941,18.38688],[83.89718,18.38686],[83.89641,18.38664],[83.89086,18.387],[83.88974,18.38688],[83.88798,18.38694],[83.88774,18.38795],[83.88656,18.38857],[83.88653,18.38893],[83.88709,18.38932],[83.88711,18.38995],[83.88696,18.39002],[83.88675,18.39109],[83.88631,18.39114],[83.88641,18.39257],[83.88628,18.39284],[83.88845,18.39313],[83.88991,18.39292],[83.89052,18.393],[83.89198,18.39261],[83.89361,18.39248],[83.89554,18.39194],[83.89701,18.39128],[83.89742,18.39131],[83.89845,18.39093],[83.89839,18.39131],[83.89889,18.39159],[83.89982,18.39177],[83.89992,18.39226],[83.9006,18.39312],[83.90112,18.39345],[83.90118,18.39382],[83.90486,18.39343],[83.90775,18.39463],[83.9079,18.39464]]]}},{"type":"Feature","bbox":[83.89435,18.39131,83.90794,18.40744],"properties":{"ward":8,"name":"Amadalavalasa Gate"},"geometry":{"type":"Polygon","coordinates":[[[83.90082,18.40439],[83.90045,18.40431],[83.90037,18.40394],[83.90023,18.40394],[83.90005,18.40268],[83.8999,18.40267],[83.89984,18.40218],[83.89996,18.40167],[83.90071,18.40095],[83.9007,18.40081],[83.90024,18.40073],[83.9003,18.3997],[83.90165,18.39961],[83.90186,18.39981],[83.90218,18.39931],[83.90341,18.39892],[83.90405,18.39913],[83.90443,18.39905],[83.90584,18.39834],[83.90578,18.39777],[83.90593,18.39774],[83.90599,18.39736],[83.90646,18.39746],[83.9072,18.39707],[83.90714,18.39641],[83.90743,18.39524],[83.90754,18.39496],[83.90794,18.39493],[83.9079,18.39464],[83.90486,18.39343],[83.90118,18.39382],[83.90112,18.39345],[83.9006,18.39312],[83.89992,18.39226],[83.89982,18.39177],[83.89889,18.39159],[83.89839,18.39131],[83.89722,18.39394],[83.89615,18.39572],[83.89538,18.39802],[83.89468,18.3992],[83.89435,18.40261],[83.89483,18.40295],[83.89481,18.40313],[83.89701,18.40458],[83.90068,18.40744],[83.90105,18.40709],[83.90064,18.4068],[83.90097,18.4062],[83.901,18.40514],[83.90082,18.40439]]]}},{"type":"Feature","bbox":[83.89984,18.39707,83.90995,18.40789],"properties":{"ward":9,"name":"Meettakkivalasa"},"geometry":{"type":"Polygon","coordinates":[[[83.90737,18.39781],[83.9072,18.39707],[83.90646,18.39746],[83.90603,18.39734],[83.90593,18.39774],[83.90578,18.39777],[83.90584,18.39834],[83.905,18.39884],[83.90405,18.39913],[83.90337,18.39893],[83.9021,18.39935],[83.90186,18.39981],[83.90165,18.39961],[83.90029,18.39972],[83.90024,18.40073],[83.9007,18.40081],[83.90071,18.40095],[83.89996,18.40167],[83.89984,18.40218],[83.8999,18.40267],[83.90005,18.40268],[83.90023,18.40394],[83.90037,18.40394],[83.90045,18.40431],[83.90078,18.40429],[83.90084,18.40447],[83.901,18.40514],[83.90092,18.40634],[83.90335,18.40789],[83.90394,18.40707],[83.90381,18.40629],[83.90395,18.4057],[83.90479,18.40574],[83.90645,18.40637],[83.9078,18.40638],[83.90803,18.40446],[83.90769,18.4018],[83.90855,18.40161],[83.90881,18.40082],[83.90972,18.39925],[83.90995,18.3983],[83.90987,18.39797],[83.90961,18.39774],[83.9079,18.39791],[83.90737,18.39781]]]}},{"type":"Feature","bbox":[83.90671,18.39767,83.9146,18.41255],"properties":{"ward":10,"name":"Mettakkivalasa"},"geometry":{"type":"Polygon","coordinates":[[[83.90698,18.41022],[83.90671,18.41074],[83.90946,18.41255],[83.9146,18.40476],[83.90995,18.39767],[83.90972,18.39772],[83.90995,18.3983],[83.9098,18.39902],[83.90881,18.40082],[83.90856,18.4016],[83.90769,18.4018],[83.90794,18.40313],[83.90803,18.40514],[83.9078,18.40638],[83.90745,18.40638],[83.90743,18.40782],[83.90686,18.4079],[83.90693,18.40945],[83.90741,18.40988],[83.90698,18.41022]]]}},{"type":"Feature","bbox":[83.90064,18.4057,83.90745,18.41074],"properties":{"ward":11,"name":"Mettakkivalasa"},"geometry":{"type":"Polygon","coordinates":[[[83.9074,18.40987],[83.90693,18.40947],[83.90683,18.40853],[83.90686,18.4079],[83.90743,18.40782],[83.90745,18.40638],[83.90645,18.40637],[83.90479,18.40574],[83.90395,18.4057],[83.90381,18.40629],[83.90394,18.40707],[83.90335,18.40789],[83.90092,18.40634],[83.90064,18.4068],[83.90416,18.40933],[83.90655,18.41071],[83.90671,18.41074],[83.90696,18.41022],[83.9074,18.40987]]]}},{"type":"Feature","bbox":[83.90281,18.40933,83.90946,18.41567],"properties":{"ward":12,"name":"Laxminagar"},"geometry":{"type":"Polygon","coordinates":[[[83.90743,18.41567],[83.90946,18.41255],[83.90617,18.41041],[83.90418,18.40933],[83.90387,18.40967],[83.90385,18.4101],[83.90281,18.4124],[83.90336,18.41474],[83.90631,18.41417],[83.90651,18.41475],[83.90742,18.41528],[83.90743,18.41567]]]}},{"type":"Feature","bbox":[83.9002,18.41417,83.90743,18.41966],"properties":{"ward":13,"name":"Vidya Nagar"},"geometry":{"type":"Polygon","coordinates":[[[83.9047,18.41966],[83.90743,18.41567],[83.90742,18.41528],[83.90651,18.41475],[83.90631,18.41417],[83.90336,18.41474],[83.90327,18.41442],[83.90079,18.41499],[83.90081,18.4152],[83.90046,18.41524],[83.90049,18.41545],[83.90079,18.41541],[83.90094,18.41581],[83.90086,18.41624],[83.90048,18.41627],[83.90051,18.41653],[83.9002,18.41656],[83.90034,18.41723],[83.9006,18.41742],[83.90176,18.4173],[83.9019,18.41771],[83.90411,18.41739],[83.9047,18.41966]]]}},{"type":"Feature","bbox":[83.899,18.41458,83.90094,18.41758],"properties":{"ward":14,"name":"Ij Naidu Colony"},"geometry":{"type":"Polygon","coordinates":[[[83.90094,18.41581],[83.90079,18.41541],[83.90049,18.41545],[83.90046,18.41524],[83.90081,18.4152],[83.90079,18.41478],[83.90026,18.41489],[83.90032,18.41458],[83.899,18.41474],[83.89933,18.41758],[83.89983,18.41756],[83.90034,18.41723],[83.9002,18.41656],[83.90051,18.41653],[83.90048,18.41627],[83.90086,18.41624],[83.90094,18.41581]]]}},{"type":"Feature","bbox":[83.89876,18.41074,83.90327,18.41501],"properties":{"ward":15,"name":"Pathinavani Street"},"geometry":{"type":"Polygon","coordinates":[[[83.90079,18.41478],[83.90083,18.415],[83.90097,18.41501],[83.90327,18.41442],[83.9028,18.41258],[83.90316,18.41159],[83.90277,18.41144],[83.90256,18.41096],[83.9022,18.41107],[83.90212,18.41074],[83.90036,18.4114],[83.90035,18.41172],[83.90019,18.41183],[83.90028,18.41201],[83.90095,18.41242],[83.89994,18.41362],[83.89876,18.41367],[83.899,18.41474],[83.90032,18.41458],[83.90026,18.41489],[83.90079,18.41478]]]}},{"type":"Feature","bbox":[83.89895,18.40709,83.90418,18.41229],"properties":{"ward":16,"name":"Dabalavari Veedhi"},"geometry":{"type":"Polygon","coordinates":[[[83.90036,18.4114],[83.90212,18.41074],[83.9022,18.41107],[83.90256,18.41096],[83.90277,18.41144],[83.90316,18.41159],[83.90385,18.4101],[83.90387,18.40967],[83.90418,18.40933],[83.90105,18.40709],[83.90068,18.40744],[83.90055,18.40735],[83.89977,18.40892],[83.89895,18.41229],[83.90016,18.41184],[83.90035,18.41172],[83.90036,18.4114]]]}},{"type":"Feature","bbox":[83.89643,18.40889,83.90095,18.41764],"properties":{"ward":17,"name":"Poojaripeta"},"geometry":{"type":"Polygon","coordinates":[[[83.89715,18.41319],[83.89735,18.41534],[83.89794,18.41614],[83.89866,18.41764],[83.89934,18.41763],[83.89876,18.41367],[83.89988,18.41366],[83.90095,18.41242],[83.90019,18.41183],[83.89895,18.41229],[83.89978,18.40889],[83.89868,18.40924],[83.89777,18.41082],[83.89733,18.41114],[83.89749,18.41155],[83.89696,18.41179],[83.89698,18.41196],[83.89643,18.41201],[83.89646,18.41277],[83.8966,18.41301],[83.89715,18.41319]]]}},{"type":"Feature","bbox":[83.88674,18.40313,83.90055,18.41847],"properties":{"ward":18,"name":"Boddepallipeta"},"geometry":{"type":"Polygon","coordinates":[[[83.89213,18.41847],[83.89284,18.41842],[83.89328,18.41813],[83.89464,18.41784],[83.89657,18.41777],[83.89716,18.41723],[83.89736,18.41695],[83.89751,18.41598],[83.89777,18.41588],[83.89735,18.41534],[83.89724,18.41491],[83.89716,18.41323],[83.89654,18.41294],[83.89643,18.41201],[83.89698,18.41196],[83.89696,18.41179],[83.89749,18.41155],[83.89733,18.41114],[83.89777,18.41082],[83.89863,18.40929],[83.89978,18.40889],[83.90055,18.40735],[83.89701,18.40458],[83.89481,18.40313],[83.89489,18.40504],[83.8918,18.41152],[83.89089,18.41098],[83.88981,18.4096],[83.88745,18.40955],[83.88674,18.41014],[83.8877,18.41012],[83.88788,18.41058],[83.88817,18.41055],[83.88821,18.41118],[83.88894,18.41147],[83.88864,18.41295],[83.8884,18.41299],[83.88842,18.41345],[83.88859,18.41361],[83.88845,18.4146],[83.88804,18.41606],[83.88776,18.41613],[83.88771,18.417],[83.88826,18.41708],[83.88864,18.41782],[83.89128,18.41815],[83.89148,18.41806],[83.89213,18.41847]]]}},{"type":"Feature","bbox":[83.88719,18.39984,83.89491,18.41152],"properties":{"ward":19,"name":"Patha Amadalavalasa"},"geometry":{"type":"Polygon","coordinates":[[[83.89483,18.40295],[83.89317,18.40186],[83.89102,18.39984],[83.89068,18.40029],[83.88997,18.40059],[83.88885,18.40068],[83.88794,18.40058],[83.88833,18.40183],[83.88837,18.40248],[83.88795,18.40266],[83.88817,18.40356],[83.88759,18.40388],[83.88719,18.4039],[83.88772,18.40522],[83.88738,18.40577],[83.88729,18.40719],[83.88786,18.40896],[83.88789,18.40955],[83.88986,18.40961],[83.89089,18.41098],[83.8918,18.41152],[83.89491,18.40499],[83.89483,18.40295]]]}},{"type":"Feature","bbox":[83.88457,18.39094,83.89849,18.40261],"properties":{"ward":20,"name":"Vengalarao Colony"},"geometry":{"type":"Polygon","coordinates":[[[83.8847,18.39357],[83.89206,18.40087],[83.89317,18.40186],[83.89435,18.40261],[83.89468,18.3992],[83.89535,18.39809],[83.89615,18.39572],[83.89722,18.39394],[83.89849,18.39094],[83.89742,18.39131],[83.89701,18.39128],[83.89554,18.39194],[83.89356,18.39249],[83.89198,18.39261],[83.89051,18.393],[83.88991,18.39292],[83.88847,18.39313],[83.88626,18.39283],[83.88457,18.39316],[83.88477,18.39348],[83.8847,18.39357]]]}},{"type":"Feature","bbox":[83.87525,18.39364,83.89102,18.41856],"properties":{"ward":21,"name":"Kuddiram"},"geometry":{"type":"Polygon","coordinates":[[[83.87639,18.41468],[83.87588,18.41482],[83.87635,18.41575],[83.87671,18.41582],[83.87714,18.41625],[83.88211,18.41223],[83.88221,18.41237],[83.88296,18.41223],[83.88405,18.41334],[83.88552,18.41388],[83.88535,18.41428],[83.88527,18.41542],[83.88457,18.41652],[83.88454,18.41679],[83.88417,18.41704],[83.88459,18.41798],[83.8848,18.41798],[83.88515,18.41843],[83.8856,18.4184],[83.88569,18.41856],[83.8866,18.41829],[83.88719,18.41805],[83.88721,18.41733],[83.88776,18.41688],[83.88776,18.41613],[83.88804,18.41606],[83.88845,18.4146],[83.88859,18.41361],[83.88842,18.41345],[83.8884,18.41299],[83.88864,18.41295],[83.88894,18.41147],[83.88821,18.41118],[83.88817,18.41055],[83.88788,18.41058],[83.8877,18.41012],[83.88674,18.41014],[83.88745,18.40955],[83.88789,18.40955],[83.88786,18.40896],[83.88729,18.40719],[83.88738,18.40577],[83.88772,18.40522],[83.88719,18.4039],[83.88759,18.40388],[83.88817,18.40356],[83.88795,18.40266],[83.88837,18.40248],[83.88833,18.40183],[83.88794,18.40058],[83.88885,18.40068],[83.88997,18.40059],[83.89068,18.40029],[83.89102,18.39984],[83.88464,18.39364],[83.88348,18.39406],[83.88344,18.39423],[83.88278,18.39425],[83.88185,18.3946],[83.88177,18.39484],[83.88047,18.39506],[83.88048,18.39517],[83.87992,18.39537],[83.87994,18.39559],[83.87925,18.3955],[83.87847,18.3958],[83.87806,18.3958],[83.87799,18.39633],[83.87711,18.39631],[83.87715,18.39667],[83.87691,18.39673],[83.8766,18.39736],[83.87611,18.39751],[83.87614,18.398],[83.87594,18.39819],[83.87597,18.39842],[83.87615,18.399],[83.87653,18.39898],[83.87687,18.40062],[83.87705,18.40063],[83.87712,18.40113],[83.87734,18.4012],[83.87738,18.40156],[83.87769,18.40156],[83.87777,18.40195],[83.87814,18.40195],[83.87821,18.40234],[83.87867,18.40231],[83.87892,18.40255],[83.87908,18.40396],[83.87934,18.40463],[83.87928,18.40499],[83.87852,18.40487],[83.87839,18.40528],[83.87738,18.40553],[83.87657,18.4055],[83.87652,18.40573],[83.87557,18.40599],[83.87578,18.40696],[83.87579,18.40907],[83.87598,18.40915],[83.87603,18.40949],[83.87525,18.40984],[83.87556,18.41023],[83.87559,18.41054],[83.87585,18.41058],[83.87579,18.41163],[83.87607,18.41171],[83.87599,18.41235],[83.87644,18.41339],[83.87658,18.41423],[83.87632,18.41428],[83.87639,18.41468]]]}},{"type":"Feature","bbox":[83.88016,18.41697,83.8906,18.42839],"properties":{"ward":22,"name":"Laxmudipeta"},"geometry":{"type":"Polygon","coordinates":[[[83.88797,18.42839],[83.89012,18.42795],[83.89001,18.42703],[83.89028,18.42461],[83.8899,18.42281],[83.8903,18.42104],[83.8906,18.41798],[83.88864,18.41782],[83.88828,18.4171],[83.88784,18.41697],[83.88721,18.41733],[83.88719,18.41805],[83.88569,18.41856],[83.8856,18.4184],[83.88515,18.41843],[83.8848,18.41798],[83.88459,18.41798],[83.88419,18.41705],[83.8834,18.41726],[83.88294,18.4175],[83.88283,18.41851],[83.88271,18.41855],[83.8828,18.42042],[83.882,18.42099],[83.88211,18.42162],[83.88181,18.42239],[83.88173,18.42313],[83.88125,18.42379],[83.88101,18.42469],[83.88025,18.42517],[83.88016,18.42578],[83.88032,18.42575],[83.88029,18.42535],[83.88068,18.4252],[83.88132,18.42509],[83.88142,18.42551],[83.88164,18.42529],[83.88237,18.42538],[83.8828,18.42557],[83.883,18.42609],[83.8828,18.42622],[83.88351,18.42679],[83.88398,18.42695],[83.88526,18.42677],[83.88611,18.42792],[83.8875,18.42791],[83.88757,18.42824],[83.88797,18.42839]]]}},{"type":"Feature","bbox":[83.87124,18.41236,83.88546,18.42739],"properties":{"ward":23,"name":"Venkayyapeta"},"geometry":{"type":"Polygon","coordinates":[[[83.87716,18.41634],[83.87673,18.41586],[83.87634,18.41577],[83.87587,18.41476],[83.87489,18.41505],[83.87431,18.41502],[83.87427,18.4149],[83.87275,18.4151],[83.87268,18.4149],[83.87163,18.41497],[83.87163,18.41521],[83.87129,18.41526],[83.87146,18.41615],[83.87124,18.41649],[83.87124,18.41722],[83.87157,18.41906],[83.87166,18.41925],[83.8719,18.41922],[83.87213,18.42045],[83.87259,18.42039],[83.87265,18.42014],[83.87284,18.42011],[83.87306,18.42017],[83.87318,18.42045],[83.87322,18.42082],[83.87284,18.42105],[83.8733,18.42252],[83.87322,18.42405],[83.87351,18.42408],[83.87396,18.42473],[83.87428,18.42601],[83.87472,18.42616],[83.87459,18.42739],[83.88015,18.42584],[83.88022,18.42518],[83.88099,18.42467],[83.88123,18.42377],[83.88173,18.42307],[83.88182,18.42229],[83.8821,18.42159],[83.882,18.42098],[83.88276,18.4204],[83.88269,18.41857],[83.88291,18.41748],[83.88453,18.41674],[83.88525,18.41535],[83.88546,18.41392],[83.88404,18.41337],[83.88314,18.41236],[83.88208,18.41236],[83.87716,18.41634]]]}}]}