{"type":"FeatureCollection","features":[{"type":"Feature","bbox":[79.27053,17.07466,79.30026,17.1086],"properties":{"ward":1},"geometry":{"type":"Polygon","coordinates":[[[79.29522,17.10651],[79.29445,17.10485],[79.29563,17.10468],[79.29663,17.10481],[79.29819,17.1041],[79.29926,17.1022],[79.30026,17.10125],[79.29593,17.09201],[79.29447,17.08853],[79.29285,17.08278],[79.29175,17.08098],[79.2912,17.07972],[79.2897,17.07994],[79.2884,17.07987],[79.28779,17.07843],[79.28762,17.07688],[79.288,17.07628],[79.28844,17.07593],[79.28696,17.07466],[79.282,17.07958],[79.27888,17.08165],[79.27709,17.08707],[79.27508,17.08914],[79.27128,17.09043],[79.27053,17.09107],[79.27149,17.09419],[79.27299,17.09657],[79.27324,17.09646],[79.27407,17.09751],[79.27638,17.097],[79.27775,17.09702],[79.27862,17.09898],[79.28118,17.0985],[79.28188,17.10161],[79.28304,17.10384],[79.2835,17.10436],[79.28339,17.1086],[79.28781,17.10812],[79.29166,17.10748],[79.29522,17.10651]]]}},{"type":"Feature","bbox":[79.28762,17.06511,79.33397,17.10651],"properties":{"ward":2},"geometry":{"type":"Polygon","coordinates":[[[79.33299,17.08462],[79.33002,17.08467],[79.32785,17.08537],[79.32741,17.08429],[79.32586,17.08284],[79.32358,17.07963],[79.32279,17.07723],[79.32242,17.07651],[79.32125,17.07537],[79.32083,17.07423],[79.32021,17.07386],[79.31704,17.07444],[79.31446,17.07029],[79.31422,17.06939],[79.31449,17.06772],[79.31518,17.06677],[79.31506,17.06635],[79.31425,17.06592],[79.31239,17.06537],[79.31004,17.06511],[79.30848,17.06558],[79.30648,17.06664],[79.30522,17.068],[79.3031,17.06936],[79.30198,17.06983],[79.30179,17.07006],[79.30145,17.07287],[79.30114,17.07353],[79.30057,17.074],[79.29889,17.07482],[79.29844,17.07577],[79.29794,17.07637],[79.29607,17.07695],[79.29495,17.07682],[79.29465,17.07616],[79.29292,17.07519],[79.29199,17.07494],[79.29136,17.07542],[79.29111,17.07619],[79.29159,17.07733],[79.29078,17.07756],[79.28918,17.07635],[79.28819,17.07613],[79.28762,17.07688],[79.28779,17.07843],[79.2884,17.07987],[79.2897,17.07994],[79.2912,17.07972],[79.29175,17.08098],[79.29285,17.08278],[79.29447,17.08853],[79.29593,17.09201],[79.30026,17.10125],[79.29926,17.1022],[79.29819,17.1041],[79.29663,17.10481],[79.29563,17.10468],[79.29445,17.10485],[79.29522,17.10651],[79.29898,17.1057],[79.29893,17.10384],[79.30394,17.10217],[79.30605,17.10043],[79.30872,17.09901],[79.30782,17.09772],[79.31214,17.09112],[79.31643,17.09046],[79.32355,17.08892],[79.32655,17.08873],[79.32698,17.09028],[79.32804,17.0894],[79.32931,17.09055],[79.33032,17.08986],[79.33153,17.0906],[79.33218,17.09002],[79.33318,17.08871],[79.33292,17.08723],[79.33397,17.08658],[79.33299,17.08462]]]}},{"type":"Feature","bbox":[79.28467,17.03599,79.33299,17.08537],"properties":{"ward":3},"geometry":{"type":"Polygon","coordinates":[[[79.33299,17.08462],[79.3324,17.08333],[79.3308,17.08374],[79.33009,17.08166],[79.32968,17.08175],[79.32901,17.08054],[79.32872,17.07945],[79.32823,17.07903],[79.328,17.07849],[79.32745,17.07882],[79.32596,17.07492],[79.32598,17.07238],[79.32639,17.07225],[79.32632,17.07131],[79.32522,17.07009],[79.32547,17.06969],[79.32533,17.06866],[79.32498,17.06863],[79.32491,17.06822],[79.32672,17.06784],[79.32632,17.06705],[79.32723,17.0668],[79.32779,17.06765],[79.33015,17.06734],[79.33079,17.06658],[79.33109,17.06556],[79.33091,17.06506],[79.33119,17.06336],[79.33097,17.06236],[79.33019,17.06087],[79.32922,17.05819],[79.32894,17.05812],[79.32866,17.05734],[79.32889,17.057],[79.32588,17.04453],[79.32547,17.04529],[79.32468,17.0448],[79.322,17.0454],[79.32003,17.04456],[79.31989,17.04425],[79.31922,17.04523],[79.31848,17.04575],[79.31704,17.04728],[79.31575,17.04746],[79.31688,17.04557],[79.31886,17.04397],[79.32098,17.04332],[79.32203,17.04268],[79.32293,17.04257],[79.32305,17.04239],[79.32509,17.04187],[79.32478,17.04083],[79.32268,17.03599],[79.30966,17.04316],[79.30496,17.04682],[79.30232,17.05015],[79.30018,17.05409],[79.29444,17.06658],[79.29402,17.06737],[79.29234,17.0694],[79.29176,17.07],[79.29141,17.06913],[79.28816,17.07028],[79.28794,17.06973],[79.28467,17.07127],[79.28711,17.0746],[79.2871,17.07478],[79.28844,17.07593],[79.28819,17.07613],[79.28918,17.07635],[79.29078,17.07756],[79.29159,17.07733],[79.29111,17.07619],[79.29136,17.07542],[79.29199,17.07494],[79.29292,17.07519],[79.29465,17.07616],[79.29495,17.07682],[79.29607,17.07695],[79.29694,17.07678],[79.29794,17.07637],[79.29844,17.07577],[79.29889,17.07482],[79.30057,17.074],[79.30114,17.07353],[79.30145,17.07287],[79.30179,17.07006],[79.30198,17.06983],[79.3031,17.06936],[79.30522,17.068],[79.30648,17.06664],[79.30848,17.06558],[79.31004,17.06511],[79.31239,17.06537],[79.31425,17.06592],[79.31506,17.06635],[79.31518,17.06677],[79.31449,17.06772],[79.31422,17.06939],[79.31446,17.07029],[79.31704,17.07444],[79.32021,17.07386],[79.32083,17.07423],[79.32125,17.07537],[79.32242,17.07651],[79.32279,17.07723],[79.32358,17.07963],[79.32586,17.08284],[79.32741,17.08429],[79.32785,17.08537],[79.33002,17.08467],[79.33299,17.08462]]]}},{"type":"Feature","bbox":[79.29026,17.01934,79.32268,17.05536],"properties":{"ward":4},"geometry":{"type":"Polygon","coordinates":[[[79.30009,17.0543],[79.30232,17.05015],[79.30496,17.04682],[79.3065,17.04552],[79.30966,17.04316],[79.32268,17.03599],[79.32134,17.03356],[79.3194,17.03097],[79.3189,17.02986],[79.31775,17.02828],[79.31605,17.02464],[79.31553,17.02318],[79.31517,17.02143],[79.315,17.01934],[79.31273,17.01952],[79.31046,17.02139],[79.30896,17.02287],[79.3064,17.02407],[79.30481,17.02505],[79.30085,17.0271],[79.29992,17.02717],[79.30005,17.03022],[79.29967,17.03229],[79.2984,17.03405],[79.29582,17.0361],[79.29929,17.04129],[79.29928,17.04255],[79.30107,17.04707],[79.29593,17.04976],[79.29424,17.05081],[79.29224,17.05237],[79.29026,17.05484],[79.29106,17.05406],[79.29138,17.0543],[79.29159,17.05533],[79.29254,17.05536],[79.29757,17.0541],[79.30009,17.0543]]]}},{"type":"Feature","bbox":[79.27949,17.02717,79.30005,17.04895],"properties":{"ward":5},"geometry":{"type":"Polygon","coordinates":[[[79.29926,17.04151],[79.29929,17.04129],[79.29582,17.0361],[79.2984,17.03405],[79.29967,17.03229],[79.30005,17.03022],[79.29992,17.02717],[79.29553,17.02755],[79.28913,17.02886],[79.28682,17.02871],[79.28492,17.02877],[79.28501,17.02957],[79.28458,17.03082],[79.28018,17.03964],[79.2796,17.0404],[79.27975,17.04033],[79.27949,17.04352],[79.28066,17.04338],[79.28131,17.04895],[79.28401,17.0471],[79.28852,17.04477],[79.29926,17.04151]]]}},{"type":"Feature","bbox":[79.26868,17.02877,79.28501,17.04538],"properties":{"ward":6},"geometry":{"type":"Polygon","coordinates":[[[79.27587,17.04223],[79.2758,17.04208],[79.2796,17.0404],[79.28018,17.03964],[79.28458,17.03082],[79.28501,17.02957],[79.28492,17.02877],[79.28253,17.02929],[79.27847,17.03055],[79.27857,17.03019],[79.27846,17.02991],[79.27723,17.03234],[79.27177,17.03824],[79.27034,17.03927],[79.26943,17.04145],[79.26868,17.04266],[79.26881,17.04343],[79.26985,17.04538],[79.27587,17.04223]]]}},{"type":"Feature","bbox":[79.2636,17.02022,79.27846,17.04409],"properties":{"ward":7},"geometry":{"type":"Polygon","coordinates":[[[79.26868,17.04266],[79.26943,17.04145],[79.27034,17.03927],[79.27177,17.03824],[79.27723,17.03234],[79.27846,17.02991],[79.27743,17.02596],[79.2768,17.02446],[79.27775,17.02027],[79.27749,17.02022],[79.27591,17.02139],[79.27047,17.03307],[79.27065,17.03382],[79.27211,17.03344],[79.27222,17.03401],[79.2715,17.03444],[79.2719,17.03577],[79.26902,17.03678],[79.268,17.03803],[79.26807,17.03868],[79.2678,17.03943],[79.26687,17.04003],[79.26642,17.03999],[79.26627,17.03981],[79.26645,17.03723],[79.26748,17.03466],[79.2636,17.0357],[79.2649,17.04013],[79.26579,17.04096],[79.26687,17.04409],[79.26868,17.04266]]]}},{"type":"Feature","bbox":[79.26095,17.00875,79.27941,17.04003],"properties":{"ward":8},"geometry":{"type":"Polygon","coordinates":[[[79.27775,17.02027],[79.27788,17.01954],[79.27941,17.01831],[79.27926,17.0174],[79.27816,17.01403],[79.27621,17.00875],[79.27409,17.00926],[79.27434,17.01],[79.27389,17.01007],[79.27224,17.00963],[79.27188,17.01017],[79.27073,17.01054],[79.27112,17.01198],[79.27116,17.0138],[79.27042,17.01636],[79.27009,17.01824],[79.27011,17.01992],[79.26959,17.02287],[79.26862,17.02612],[79.26716,17.02659],[79.26222,17.02962],[79.26177,17.02833],[79.26133,17.02842],[79.26166,17.02965],[79.26095,17.0297],[79.26147,17.03096],[79.26159,17.03156],[79.26145,17.03169],[79.26189,17.03165],[79.26305,17.03396],[79.2636,17.0357],[79.26748,17.03466],[79.26645,17.03723],[79.26627,17.03981],[79.26642,17.03999],[79.26687,17.04003],[79.2678,17.03943],[79.26807,17.03868],[79.268,17.03803],[79.26902,17.03678],[79.2719,17.03577],[79.2715,17.03444],[79.27222,17.03401],[79.27211,17.03344],[79.27065,17.03382],[79.27047,17.03307],[79.27591,17.02139],[79.27749,17.02022],[79.27775,17.02027]]]}},{"type":"Feature","bbox":[79.24213,17.00651,79.27116,17.03646],"properties":{"ward":9},"geometry":{"type":"Polygon","coordinates":[[[79.26002,17.0331],[79.26159,17.03156],[79.26147,17.03096],[79.26095,17.0297],[79.26166,17.02965],[79.26133,17.02842],[79.26177,17.02833],[79.26222,17.02962],[79.26716,17.02659],[79.26862,17.02612],[79.26959,17.02287],[79.27011,17.01992],[79.27009,17.01824],[79.27042,17.01636],[79.27116,17.0138],[79.27112,17.01198],[79.27073,17.01054],[79.26881,17.01085],[79.26584,17.012],[79.26558,17.01039],[79.26525,17.00983],[79.26408,17.00972],[79.26238,17.00923],[79.26233,17.00838],[79.26094,17.00782],[79.25799,17.0071],[79.25627,17.00718],[79.25107,17.00651],[79.24934,17.00701],[79.24496,17.00929],[79.24213,17.01051],[79.24397,17.01768],[79.24454,17.02132],[79.24418,17.02319],[79.24579,17.02599],[79.24971,17.0341],[79.25069,17.0335],[79.25107,17.03344],[79.25176,17.03288],[79.25377,17.03305],[79.25408,17.03409],[79.254,17.03529],[79.25464,17.03646],[79.25701,17.03531],[79.25876,17.03473],[79.25846,17.03392],[79.26002,17.0331]]]}},{"type":"Feature","bbox":[79.24971,17.03165,79.2649,17.04013],"properties":{"ward":10},"geometry":{"type":"Polygon","coordinates":[[[79.2649,17.04013],[79.26305,17.03396],[79.26189,17.03165],[79.26145,17.03169],[79.26002,17.0331],[79.25846,17.03392],[79.25876,17.03473],[79.25701,17.03531],[79.25464,17.03646],[79.254,17.03529],[79.25408,17.03409],[79.25377,17.03305],[79.25176,17.03288],[79.25107,17.03344],[79.25069,17.0335],[79.24971,17.0341],[79.25145,17.03771],[79.25337,17.03759],[79.25494,17.03678],[79.25523,17.03815],[79.25503,17.03944],[79.26089,17.0383],[79.2625,17.03824],[79.2649,17.04013]]]}},{"type":"Feature","bbox":[79.22321,17.02319,79.25267,17.0613],"properties":{"ward":11},"geometry":{"type":"Polygon","coordinates":[[[79.24293,17.05717],[79.24299,17.05342],[79.24635,17.05178],[79.24878,17.05089],[79.24801,17.04987],[79.25267,17.04517],[79.25036,17.04252],[79.24953,17.04122],[79.25107,17.04148],[79.25257,17.04044],[79.25145,17.03771],[79.24579,17.02599],[79.24418,17.02319],[79.24384,17.02503],[79.24168,17.02634],[79.2392,17.02891],[79.23737,17.03251],[79.23702,17.03246],[79.23321,17.03479],[79.23083,17.03558],[79.22886,17.03664],[79.22451,17.03781],[79.22321,17.03849],[79.22419,17.04117],[79.22416,17.04401],[79.22435,17.04653],[79.22464,17.04804],[79.22512,17.04962],[79.2266,17.05322],[79.2273,17.05596],[79.22797,17.05623],[79.23076,17.05877],[79.23143,17.05969],[79.23198,17.0613],[79.23338,17.0606],[79.24293,17.05717]]]}},{"type":"Feature","bbox":[79.24293,17.05089,79.24996,17.05738],"properties":{"ward":12},"geometry":{"type":"Polygon","coordinates":[[[79.24974,17.05515],[79.24996,17.05138],[79.24918,17.0509],[79.24878,17.05089],[79.24635,17.05178],[79.24299,17.05342],[79.24293,17.05717],[79.24322,17.05707],[79.24321,17.05738],[79.24398,17.05724],[79.24518,17.05668],[79.24615,17.05647],[79.24727,17.0558],[79.24974,17.05515]]]}},{"type":"Feature","bbox":[79.21918,17.05707,79.26202,17.10332],"properties":{"ward":13},"geometry":{"type":"Polygon","coordinates":[[[79.25466,17.09166],[79.25992,17.08106],[79.26202,17.0762],[79.2612,17.07601],[79.25679,17.0768],[79.25161,17.07726],[79.24594,17.07753],[79.24557,17.07337],[79.24528,17.07186],[79.24459,17.0701],[79.24375,17.06873],[79.24307,17.06496],[79.24322,17.05707],[79.23338,17.0606],[79.23198,17.0613],[79.23278,17.06587],[79.23272,17.06744],[79.2334,17.07171],[79.23354,17.07328],[79.23335,17.07571],[79.23292,17.07585],[79.23297,17.07609],[79.23109,17.07719],[79.22911,17.08093],[79.22609,17.08308],[79.22416,17.08343],[79.22209,17.08982],[79.22299,17.09453],[79.22276,17.09636],[79.22242,17.09703],[79.22203,17.09702],[79.22057,17.09786],[79.21984,17.09914],[79.21971,17.10144],[79.21918,17.10332],[79.21969,17.10331],[79.22084,17.10039],[79.22355,17.09653],[79.22717,17.09441],[79.24314,17.08899],[79.24424,17.09073],[79.24503,17.09253],[79.24696,17.09207],[79.24764,17.0925],[79.24851,17.09268],[79.24938,17.09233],[79.2505,17.09234],[79.25175,17.09169],[79.25466,17.09166]]]}},{"type":"Feature","bbox":[79.21918,17.08899,79.25466,17.12376],"properties":{"ward":14},"geometry":{"type":"Polygon","coordinates":[[[79.2448,17.10511],[79.25289,17.09595],[79.25466,17.09166],[79.25175,17.09169],[79.2505,17.09234],[79.24938,17.09233],[79.24851,17.09268],[79.24764,17.0925],[79.24696,17.09207],[79.24503,17.09253],[79.24424,17.09073],[79.24314,17.08899],[79.22717,17.09441],[79.22355,17.09653],[79.22084,17.10039],[79.21969,17.10331],[79.21918,17.10332],[79.21944,17.10573],[79.21937,17.10638],[79.22056,17.11023],[79.22154,17.11173],[79.22224,17.1117],[79.22363,17.11462],[79.22389,17.11484],[79.22539,17.11512],[79.22647,17.11507],[79.22696,17.1159],[79.22742,17.11762],[79.22878,17.11728],[79.22882,17.11773],[79.22986,17.12007],[79.23015,17.12195],[79.23132,17.12237],[79.23139,17.12288],[79.23187,17.12288],[79.232,17.12305],[79.23217,17.12376],[79.23663,17.11302],[79.23846,17.10999],[79.24272,17.1065],[79.2448,17.10511]]]}},{"type":"Feature","bbox":[79.23105,17.10511,79.25627,17.14055],"properties":{"ward":15},"geometry":{"type":"Polygon","coordinates":[[[79.2505,17.12543],[79.25051,17.12432],[79.25193,17.11937],[79.25426,17.11592],[79.25595,17.11432],[79.25627,17.11325],[79.2551,17.11181],[79.25412,17.11108],[79.25213,17.11088],[79.24946,17.1102],[79.24456,17.1098],[79.24357,17.10943],[79.24389,17.10812],[79.24522,17.10574],[79.2448,17.10511],[79.24272,17.1065],[79.23846,17.10999],[79.23663,17.11302],[79.23217,17.12376],[79.23223,17.12402],[79.23253,17.1241],[79.23289,17.12509],[79.23291,17.12626],[79.23229,17.12933],[79.23173,17.12946],[79.23166,17.13146],[79.23109,17.13488],[79.23135,17.13593],[79.23105,17.13682],[79.23199,17.13901],[79.23424,17.13867],[79.23454,17.13891],[79.23722,17.13883],[79.23777,17.14055],[79.24125,17.13892],[79.24175,17.1397],[79.24218,17.1399],[79.24282,17.13887],[79.244,17.13816],[79.24547,17.13761],[79.24552,17.13633],[79.24595,17.135],[79.24679,17.13456],[79.24713,17.13416],[79.24868,17.13127],[79.24914,17.13113],[79.25066,17.1282],[79.25064,17.12701],[79.25024,17.12559],[79.2505,17.12543]]]}},{"type":"Feature","bbox":[79.24357,17.08855,79.27299,17.12543],"properties":{"ward":16},"geometry":{"type":"Polygon","coordinates":[[[79.2641,17.09872],[79.26554,17.09837],[79.26562,17.09857],[79.26783,17.09845],[79.26789,17.09872],[79.26902,17.09876],[79.27109,17.09831],[79.27086,17.09749],[79.27299,17.09657],[79.27149,17.09419],[79.2704,17.09066],[79.26414,17.09326],[79.26256,17.08855],[79.25871,17.08924],[79.25891,17.09057],[79.25598,17.09155],[79.25577,17.09126],[79.25471,17.09153],[79.25289,17.09595],[79.2448,17.10511],[79.24522,17.10574],[79.24389,17.10812],[79.24357,17.10943],[79.24456,17.1098],[79.24946,17.1102],[79.25213,17.11088],[79.25412,17.11108],[79.2551,17.11181],[79.25627,17.11325],[79.25595,17.11432],[79.25426,17.11592],[79.25193,17.11937],[79.25051,17.12432],[79.2505,17.12543],[79.25375,17.12352],[79.25719,17.1227],[79.25845,17.1219],[79.25952,17.1215],[79.26201,17.12097],[79.2663,17.11804],[79.26891,17.11474],[79.2692,17.11024],[79.2678,17.10716],[79.26764,17.10589],[79.26693,17.10336],[79.26701,17.10289],[79.2641,17.09872]]]}},{"type":"Feature","bbox":[79.25471,17.07664,79.27884,17.09326],"properties":{"ward":17},"geometry":{"type":"Polygon","coordinates":[[[79.27053,17.09107],[79.27128,17.09043],[79.27508,17.08914],[79.27709,17.08707],[79.27884,17.08176],[79.27757,17.08204],[79.27638,17.0811],[79.27432,17.08017],[79.27391,17.0796],[79.27337,17.07929],[79.27276,17.07821],[79.27261,17.07741],[79.27283,17.07712],[79.27242,17.07664],[79.2714,17.07795],[79.26895,17.08022],[79.26703,17.08139],[79.26649,17.08156],[79.26635,17.08122],[79.26504,17.08164],[79.26463,17.0804],[79.26107,17.08092],[79.26,17.08088],[79.25471,17.09153],[79.25577,17.09126],[79.25598,17.09155],[79.25891,17.09057],[79.25871,17.08924],[79.26256,17.08855],[79.26414,17.09326],[79.2704,17.09066],[79.27053,17.09107]]]}},{"type":"Feature","bbox":[79.27243,17.06603,79.28711,17.08204],"properties":{"ward":18},"geometry":{"type":"Polygon","coordinates":[[[79.27884,17.08176],[79.282,17.07958],[79.28696,17.07466],[79.2871,17.07478],[79.28711,17.0746],[79.281,17.06603],[79.27243,17.07654],[79.27283,17.07712],[79.27261,17.07741],[79.27276,17.07821],[79.27337,17.07929],[79.27391,17.0796],[79.27432,17.08017],[79.27638,17.0811],[79.27757,17.08204],[79.27884,17.08176]]]}},{"type":"Feature","bbox":[79.281,17.05406,79.30009,17.07127],"properties":{"ward":19},"geometry":{"type":"Polygon","coordinates":[[[79.30009,17.0543],[79.29757,17.0541],[79.29254,17.05536],[79.29159,17.05533],[79.29138,17.0543],[79.29106,17.05406],[79.29016,17.0549],[79.28356,17.06333],[79.281,17.06603],[79.28467,17.07127],[79.28794,17.06973],[79.28816,17.07028],[79.29141,17.06913],[79.29176,17.07],[79.29234,17.0694],[79.29402,17.06737],[79.29444,17.06658],[79.30009,17.0543]]]}},{"type":"Feature","bbox":[79.28068,17.04931,79.29593,17.06002],"properties":{"ward":20},"geometry":{"type":"Polygon","coordinates":[[[79.28906,17.05628],[79.29224,17.05237],[79.29424,17.05081],[79.29593,17.04976],[79.29204,17.05019],[79.29178,17.04931],[79.28995,17.04987],[79.28987,17.04973],[79.28905,17.05047],[79.28771,17.05113],[79.28659,17.0519],[79.28671,17.05219],[79.2849,17.05223],[79.28456,17.05271],[79.28478,17.05432],[79.28276,17.0552],[79.28068,17.05537],[79.28269,17.05681],[79.28308,17.05734],[79.28332,17.0581],[79.28309,17.05922],[79.28394,17.06002],[79.28464,17.05939],[79.28712,17.05626],[79.28793,17.05663],[79.28867,17.05593],[79.28906,17.05628]]]}},{"type":"Feature","bbox":[79.27849,17.04151,79.30107,17.05373],"properties":{"ward":21},"geometry":{"type":"Polygon","coordinates":[[[79.28516,17.05217],[79.28671,17.05219],[79.28659,17.0519],[79.28771,17.05113],[79.28905,17.05047],[79.28987,17.04973],[79.28995,17.04987],[79.29178,17.04931],[79.29204,17.05019],[79.29593,17.04976],[79.30107,17.04707],[79.29928,17.04255],[79.29926,17.04151],[79.28852,17.04477],[79.28401,17.0471],[79.27849,17.0509],[79.27921,17.05373],[79.28249,17.05181],[79.28248,17.0512],[79.28457,17.05078],[79.28516,17.05217]]]}},{"type":"Feature","bbox":[79.2758,17.04033,79.28131,17.04989],"properties":{"ward":22},"geometry":{"type":"Polygon","coordinates":[[[79.28131,17.04895],[79.28066,17.04338],[79.27949,17.04352],[79.27975,17.04033],[79.2758,17.04208],[79.27631,17.04315],[79.27725,17.04654],[79.27645,17.04693],[79.27655,17.04753],[79.277,17.04794],[79.27717,17.04874],[79.27853,17.04824],[79.27882,17.04889],[79.27962,17.04871],[79.27993,17.04989],[79.28131,17.04895]]]}},{"type":"Feature","bbox":[79.26985,17.04223,79.27725,17.04852],"properties":{"ward":23},"geometry":{"type":"Polygon","coordinates":[[[79.27645,17.04693],[79.27725,17.04654],[79.27631,17.04315],[79.27587,17.04223],[79.26985,17.04538],[79.27022,17.04597],[79.27042,17.04767],[79.27058,17.04779],[79.27062,17.04817],[79.27095,17.04817],[79.27117,17.04852],[79.2737,17.0476],[79.2747,17.04706],[79.2749,17.04729],[79.27643,17.04681],[79.27645,17.04693]]]}},{"type":"Feature","bbox":[79.26687,17.04266,79.27084,17.05102],"properties":{"ward":24},"geometry":{"type":"Polygon","coordinates":[[[79.27084,17.05102],[79.27058,17.04779],[79.27042,17.04767],[79.27022,17.04597],[79.26881,17.04343],[79.26868,17.04266],[79.26687,17.04409],[79.26822,17.04798],[79.26718,17.05023],[79.27084,17.05102]]]}},{"type":"Feature","bbox":[79.24953,17.03678,79.26822,17.05037],"properties":{"ward":25},"geometry":{"type":"Polygon","coordinates":[[[79.26712,17.05037],[79.26822,17.04798],[79.26579,17.04096],[79.26335,17.03883],[79.2625,17.03824],[79.26089,17.0383],[79.25503,17.03944],[79.25523,17.03815],[79.25494,17.03678],[79.25337,17.03759],[79.25145,17.03771],[79.25257,17.04044],[79.25107,17.04148],[79.24953,17.04122],[79.25036,17.04252],[79.25267,17.04517],[79.25254,17.0453],[79.25366,17.04635],[79.25415,17.04542],[79.25751,17.04168],[79.26005,17.04077],[79.26035,17.04016],[79.26158,17.0406],[79.26165,17.04143],[79.26331,17.04259],[79.26404,17.04428],[79.2641,17.04651],[79.26312,17.04757],[79.26273,17.04834],[79.26322,17.04865],[79.26434,17.0483],[79.26441,17.0492],[79.2656,17.04939],[79.26712,17.05037]]]}},{"type":"Feature","bbox":[79.26249,17.0483,79.26654,17.05277],"properties":{"ward":26},"geometry":{"type":"Polygon","coordinates":[[[79.26572,17.05277],[79.26654,17.05129],[79.26578,17.05075],[79.26645,17.04994],[79.2656,17.04939],[79.26441,17.0492],[79.26434,17.0483],[79.26322,17.04865],[79.26273,17.04834],[79.26249,17.04847],[79.26251,17.04948],[79.26282,17.04942],[79.26288,17.04967],[79.26266,17.05009],[79.26282,17.05059],[79.26362,17.05049],[79.26397,17.05103],[79.26412,17.05238],[79.26572,17.05277]]]}},{"type":"Feature","bbox":[79.2558,17.04864,79.26412,17.05238],"properties":{"ward":27},"geometry":{"type":"Polygon","coordinates":[[[79.26246,17.04864],[79.26154,17.0493],[79.26133,17.0497],[79.26023,17.0497],[79.2602,17.04996],[79.25946,17.05008],[79.25775,17.04975],[79.25811,17.04976],[79.25738,17.04919],[79.25675,17.04973],[79.2558,17.04958],[79.256,17.05132],[79.25718,17.05111],[79.26049,17.05155],[79.26412,17.05238],[79.26397,17.05103],[79.26362,17.05049],[79.26282,17.05059],[79.26266,17.05009],[79.26288,17.04967],[79.26282,17.04942],[79.26251,17.04948],[79.26246,17.04864]]]}},{"type":"Feature","bbox":[79.24974,17.05111,79.26425,17.05515],"properties":{"ward":28},"geometry":{"type":"Polygon","coordinates":[[[79.25708,17.05468],[79.25696,17.05434],[79.25713,17.05415],[79.25714,17.05293],[79.25843,17.05313],[79.26104,17.05313],[79.26311,17.05252],[79.26333,17.0527],[79.26425,17.05242],[79.26049,17.05155],[79.25718,17.05111],[79.25328,17.05184],[79.24995,17.05154],[79.24974,17.05515],[79.25708,17.05468]]]}},{"type":"Feature","bbox":[79.25696,17.05252,79.26459,17.0553],"properties":{"ward":29},"geometry":{"type":"Polygon","coordinates":[[[79.26451,17.0553],[79.26459,17.05443],[79.26361,17.05386],[79.26333,17.0527],[79.26311,17.05252],[79.26104,17.05313],[79.25843,17.05313],[79.25714,17.05293],[79.25713,17.05415],[79.25696,17.05434],[79.25708,17.05468],[79.26023,17.05476],[79.26451,17.0553]]]}},{"type":"Feature","bbox":[79.24321,17.05242,79.26925,17.06494],"properties":{"ward":30},"geometry":{"type":"Polygon","coordinates":[[[79.25519,17.06494],[79.25912,17.06354],[79.25937,17.06375],[79.25958,17.06364],[79.25959,17.0631],[79.26034,17.06248],[79.26196,17.06177],[79.26343,17.06149],[79.26357,17.06226],[79.2661,17.06181],[79.26739,17.06243],[79.26925,17.05775],[79.26723,17.05541],[79.26651,17.05481],[79.26574,17.0531],[79.26572,17.05277],[79.26425,17.05242],[79.26333,17.0527],[79.26361,17.05386],[79.26459,17.05443],[79.26451,17.0553],[79.26023,17.05476],[79.257,17.05468],[79.24974,17.05515],[79.24727,17.0558],[79.24615,17.05647],[79.24321,17.05738],[79.24438,17.05869],[79.24438,17.06165],[79.24562,17.0622],[79.24763,17.0624],[79.25002,17.06319],[79.24979,17.06442],[79.25519,17.06494]]]}},{"type":"Feature","bbox":[79.2431,17.05746,79.26739,17.06751],"properties":{"ward":31},"geometry":{"type":"Polygon","coordinates":[[[79.26627,17.0654],[79.26739,17.06243],[79.2661,17.06181],[79.26357,17.06226],[79.26343,17.06149],[79.26196,17.06177],[79.26034,17.06248],[79.25959,17.0631],[79.25958,17.06364],[79.25937,17.06375],[79.25912,17.06354],[79.25519,17.06494],[79.24979,17.06442],[79.25002,17.06319],[79.24763,17.0624],[79.24562,17.0622],[79.24438,17.06165],[79.24438,17.05869],[79.24379,17.05791],[79.24321,17.05746],[79.2431,17.06367],[79.2533,17.06576],[79.25375,17.06751],[79.25684,17.06664],[79.25721,17.06732],[79.25935,17.06679],[79.25932,17.06654],[79.26147,17.06624],[79.26319,17.06531],[79.264,17.06506],[79.26398,17.06531],[79.26627,17.0654]]]}},{"type":"Feature","bbox":[79.24307,17.06367,79.26627,17.07149],"properties":{"ward":32},"geometry":{"type":"Polygon","coordinates":[[[79.26091,17.06794],[79.26405,17.06773],[79.26541,17.06782],[79.26627,17.0654],[79.26398,17.06531],[79.264,17.06506],[79.26319,17.06531],[79.26147,17.06624],[79.25932,17.06654],[79.25935,17.06679],[79.25721,17.06732],[79.25684,17.06664],[79.25375,17.06751],[79.2533,17.06576],[79.2431,17.06367],[79.24307,17.06496],[79.24375,17.06873],[79.24459,17.0701],[79.24514,17.07149],[79.24694,17.07098],[79.25795,17.06887],[79.25778,17.06842],[79.26091,17.06794]]]}},{"type":"Feature","bbox":[79.24514,17.06773,79.26541,17.07558],"properties":{"ward":33},"geometry":{"type":"Polygon","coordinates":[[[79.26332,17.07278],[79.26541,17.06782],[79.26405,17.06773],[79.26091,17.06794],[79.25778,17.06842],[79.25795,17.06887],[79.24694,17.07098],[79.24514,17.07149],[79.24557,17.07337],[79.24576,17.07558],[79.25606,17.07352],[79.25612,17.07317],[79.25831,17.07278],[79.25868,17.07276],[79.25866,17.07319],[79.26144,17.07319],[79.26179,17.07296],[79.26332,17.07278]]]}},{"type":"Feature","bbox":[79.24576,17.07276,79.26332,17.07753],"properties":{"ward":34},"geometry":{"type":"Polygon","coordinates":[[[79.26189,17.07617],[79.26332,17.07278],[79.26179,17.07296],[79.26144,17.07319],[79.25866,17.07319],[79.25868,17.07276],[79.25831,17.07278],[79.25612,17.07317],[79.25606,17.07352],[79.24576,17.07558],[79.24594,17.07753],[79.25161,17.07726],[79.25679,17.0768],[79.2612,17.07601],[79.26189,17.07617]]]}},{"type":"Feature","bbox":[79.26,17.07305,79.27421,17.08164],"properties":{"ward":35},"geometry":{"type":"Polygon","coordinates":[[[79.2714,17.07795],[79.27421,17.07447],[79.27386,17.07354],[79.27274,17.07389],[79.27247,17.07305],[79.27111,17.07343],[79.27138,17.07385],[79.26763,17.07592],[79.26681,17.07613],[79.26524,17.07595],[79.26237,17.07505],[79.26189,17.07617],[79.26202,17.0762],[79.26,17.08088],[79.26107,17.08092],[79.26463,17.0804],[79.26504,17.08164],[79.26635,17.08122],[79.26649,17.08156],[79.26703,17.08139],[79.26895,17.08022],[79.2714,17.07795]]]}},{"type":"Feature","bbox":[79.26237,17.07071,79.27138,17.07613],"properties":{"ward":36},"geometry":{"type":"Polygon","coordinates":[[[79.27111,17.07343],[79.2698,17.07228],[79.26974,17.07157],[79.26892,17.07158],[79.26828,17.07071],[79.26804,17.07137],[79.26414,17.07075],[79.26237,17.07505],[79.26524,17.07595],[79.26681,17.07613],[79.26763,17.07592],[79.27138,17.07385],[79.27111,17.07343]]]}},{"type":"Feature","bbox":[79.26425,17.06581,79.27247,17.07343],"properties":{"ward":37},"geometry":{"type":"Polygon","coordinates":[[[79.27247,17.07305],[79.27162,17.0708],[79.27093,17.06962],[79.26879,17.06886],[79.26916,17.06736],[79.26656,17.06638],[79.26671,17.06596],[79.26612,17.06581],[79.26425,17.07077],[79.26804,17.07137],[79.26828,17.07071],[79.26892,17.07158],[79.26974,17.07157],[79.2698,17.07228],[79.27111,17.07343],[79.27247,17.07305]]]}},{"type":"Feature","bbox":[79.26879,17.0659,79.27623,17.07447],"properties":{"ward":38},"geometry":{"type":"Polygon","coordinates":[[[79.27623,17.07196],[79.27573,17.07074],[79.27535,17.07095],[79.27499,17.07035],[79.27487,17.07037],[79.27373,17.067],[79.27307,17.06733],[79.27305,17.06751],[79.27155,17.06803],[79.27105,17.06703],[79.26984,17.0659],[79.26916,17.06736],[79.26879,17.06886],[79.27093,17.06962],[79.27162,17.0708],[79.27274,17.07389],[79.27386,17.07354],[79.27421,17.07447],[79.27623,17.07196]]]}},{"type":"Feature","bbox":[79.26984,17.06384,79.27829,17.07196],"properties":{"ward":39},"geometry":{"type":"Polygon","coordinates":[[[79.27829,17.06942],[79.27744,17.06797],[79.27516,17.0665],[79.27487,17.06605],[79.27513,17.06585],[79.27489,17.06498],[79.27433,17.06384],[79.26984,17.0659],[79.27105,17.06703],[79.27155,17.06803],[79.27305,17.06751],[79.27307,17.06733],[79.27373,17.067],[79.27487,17.07037],[79.27499,17.07035],[79.27535,17.07095],[79.27573,17.07074],[79.27623,17.07196],[79.27829,17.06942]]]}},{"type":"Feature","bbox":[79.27487,17.06395,79.281,17.06942],"properties":{"ward":40},"geometry":{"type":"Polygon","coordinates":[[[79.27829,17.06942],[79.281,17.06603],[79.28032,17.06504],[79.27969,17.06472],[79.27812,17.06444],[79.27728,17.06395],[79.27615,17.06485],[79.27489,17.06498],[79.27513,17.06585],[79.27487,17.06605],[79.27516,17.0665],[79.27744,17.06797],[79.27829,17.06942]]]}},{"type":"Feature","bbox":[79.27491,17.05593,79.28906,17.06603],"properties":{"ward":41},"geometry":{"type":"Polygon","coordinates":[[[79.28906,17.05628],[79.28867,17.05593],[79.28793,17.05663],[79.28712,17.05626],[79.28464,17.05939],[79.28394,17.06002],[79.28302,17.05915],[79.2784,17.06047],[79.27818,17.06016],[79.27528,17.06117],[79.27524,17.06182],[79.27491,17.06228],[79.27812,17.06444],[79.27969,17.06472],[79.28032,17.06504],[79.281,17.06603],[79.28356,17.06333],[79.28906,17.05628]]]}},{"type":"Feature","bbox":[79.27706,17.05537,79.28332,17.06047],"properties":{"ward":42},"geometry":{"type":"Polygon","coordinates":[[[79.28309,17.05922],[79.28332,17.0581],[79.28308,17.05734],[79.28269,17.05681],[79.28068,17.05537],[79.27706,17.05539],[79.27755,17.05739],[79.27812,17.05879],[79.2784,17.06047],[79.28309,17.05922]]]}},{"type":"Feature","bbox":[79.274,17.05078,79.28516,17.0557],"properties":{"ward":43},"geometry":{"type":"Polygon","coordinates":[[[79.27706,17.05539],[79.28191,17.05536],[79.28276,17.0552],[79.28478,17.05432],[79.28456,17.05271],[79.2849,17.05223],[79.28516,17.05217],[79.28457,17.05078],[79.28248,17.0512],[79.28249,17.05181],[79.27921,17.05373],[79.27849,17.0509],[79.27535,17.05097],[79.27543,17.05187],[79.27607,17.05187],[79.27609,17.05227],[79.27543,17.05276],[79.274,17.05297],[79.27434,17.0557],[79.27584,17.05522],[79.27706,17.05539]]]}},{"type":"Feature","bbox":[79.27062,17.04681,79.27993,17.05102],"properties":{"ward":44},"geometry":{"type":"Polygon","coordinates":[[[79.27084,17.05102],[79.27849,17.0509],[79.27993,17.04989],[79.27962,17.04871],[79.27882,17.04889],[79.27853,17.04824],[79.27717,17.04874],[79.277,17.04794],[79.27655,17.04753],[79.27643,17.04681],[79.2749,17.04729],[79.2747,17.04706],[79.2737,17.0476],[79.27117,17.04852],[79.27095,17.04817],[79.27062,17.04817],[79.27084,17.05102]]]}},{"type":"Feature","bbox":[79.26578,17.04994,79.27609,17.05376],"properties":{"ward":45},"geometry":{"type":"Polygon","coordinates":[[[79.274,17.05297],[79.27543,17.05276],[79.27609,17.05227],[79.27607,17.05187],[79.27543,17.05187],[79.27534,17.05089],[79.27084,17.05102],[79.26718,17.05023],[79.26712,17.05037],[79.26645,17.04994],[79.26578,17.05075],[79.26654,17.05129],[79.26627,17.0518],[79.26884,17.05156],[79.26854,17.05376],[79.27151,17.05288],[79.274,17.05297]]]}},{"type":"Feature","bbox":[79.26572,17.05156,79.27434,17.05797],"properties":{"ward":46},"geometry":{"type":"Polygon","coordinates":[[[79.27434,17.0557],[79.274,17.05297],[79.27373,17.05286],[79.27151,17.05288],[79.26854,17.05376],[79.26884,17.05156],[79.26627,17.0518],[79.26572,17.05277],[79.26574,17.0531],[79.26651,17.05481],[79.26723,17.05541],[79.2686,17.05698],[79.26925,17.05775],[79.2692,17.05797],[79.27044,17.05741],[79.27124,17.05673],[79.27434,17.0557]]]}},{"type":"Feature","bbox":[79.26916,17.05522,79.2784,17.06228],"properties":{"ward":47},"geometry":{"type":"Polygon","coordinates":[[[79.27528,17.06117],[79.27818,17.06016],[79.2784,17.06047],[79.27812,17.05879],[79.27755,17.05739],[79.27704,17.0553],[79.27584,17.05522],[79.27124,17.05673],[79.27044,17.05741],[79.2692,17.05797],[79.26916,17.05823],[79.2721,17.0606],[79.27491,17.06228],[79.27524,17.06182],[79.27528,17.06117]]]}},{"type":"Feature","bbox":[79.26608,17.05823,79.27728,17.06736],"properties":{"ward":48},"geometry":{"type":"Polygon","coordinates":[[[79.26984,17.0659],[79.27433,17.06384],[79.27489,17.06498],[79.27615,17.06485],[79.27728,17.06395],[79.27491,17.06228],[79.2721,17.0606],[79.26916,17.05823],[79.26608,17.06572],[79.26671,17.06596],[79.26656,17.06638],[79.26916,17.06736],[79.26984,17.0659]]]}}]}