{"type":"FeatureCollection","features":[{"type":"Feature","bbox":[80.10139,16.89924,80.12168,16.9183],"properties":{"ward":1,"name":"Autonagar"},"geometry":{"type":"Polygon","coordinates":[[[80.10547,16.91475],[80.10632,16.91669],[80.10734,16.9163],[80.10843,16.9183],[80.11779,16.91494],[80.12002,16.9136],[80.11968,16.9124],[80.12168,16.91109],[80.12017,16.90895],[80.11738,16.90653],[80.11215,16.90383],[80.11117,16.90251],[80.11062,16.90273],[80.11015,16.90271],[80.10954,16.90244],[80.10906,16.90204],[80.10891,16.90154],[80.10901,16.90109],[80.10757,16.90017],[80.10676,16.89924],[80.10465,16.90025],[80.1044,16.90005],[80.10485,16.90227],[80.10139,16.90318],[80.10547,16.91475]]]}},{"type":"Feature","bbox":[80.10007,16.89821,80.10546,16.90317],"properties":{"ward":2,"name":"Dvr Nagar"},"geometry":{"type":"Polygon","coordinates":[[[80.10484,16.90227],[80.1044,16.90005],[80.10465,16.90026],[80.10546,16.89987],[80.10384,16.89821],[80.10241,16.89884],[80.10007,16.89959],[80.10137,16.90317],[80.10484,16.90227]]]}},{"type":"Feature","bbox":[80.09815,16.89546,80.10328,16.89959],"properties":{"ward":3,"name":"Venkatagirigutta"},"geometry":{"type":"Polygon","coordinates":[[[80.10328,16.89845],[80.10297,16.89768],[80.10263,16.89742],[80.1023,16.89582],[80.10171,16.89604],[80.10152,16.89567],[80.10064,16.89594],[80.10056,16.89575],[80.10029,16.89572],[80.09952,16.89604],[80.09901,16.89546],[80.09815,16.89548],[80.0987,16.89797],[80.10008,16.89959],[80.10328,16.89845]]]}},{"type":"Feature","bbox":[80.09748,16.89226,80.10227,16.89601],"properties":{"ward":4,"name":"Seetharampuram"},"geometry":{"type":"Polygon","coordinates":[[[80.10064,16.89593],[80.10227,16.89539],[80.10201,16.89398],[80.10057,16.89346],[80.09868,16.89248],[80.09748,16.89226],[80.09816,16.89546],[80.09903,16.89548],[80.09953,16.89601],[80.1003,16.89571],[80.10064,16.89593]]]}},{"type":"Feature","bbox":[80.10153,16.89453,80.10544,16.89701],"properties":{"ward":5,"name":"Y.Y Colony"},"geometry":{"type":"Polygon","coordinates":[[[80.10226,16.8954],[80.10153,16.89566],[80.10169,16.89604],[80.10231,16.89579],[80.10258,16.89701],[80.10397,16.89674],[80.10544,16.89624],[80.10504,16.89453],[80.10371,16.89487],[80.10216,16.89487],[80.10226,16.8954]]]}},{"type":"Feature","bbox":[80.10258,16.89624,80.10673,16.89988],"properties":{"ward":6,"name":"Kakani Nagar"},"geometry":{"type":"Polygon","coordinates":[[[80.10383,16.8982],[80.10546,16.89988],[80.10673,16.89922],[80.10664,16.89826],[80.10545,16.89624],[80.10398,16.89676],[80.10258,16.89701],[80.10263,16.89743],[80.10294,16.89767],[80.10329,16.89845],[80.10383,16.8982]]]}},{"type":"Feature","bbox":[80.10583,16.89608,80.12568,16.90864],"properties":{"ward":7,"name":"Rtc Colony"},"geometry":{"type":"Polygon","coordinates":[[[80.10859,16.89608],[80.10583,16.89692],[80.10666,16.89823],[80.10676,16.8992],[80.10774,16.90027],[80.10898,16.90106],[80.10908,16.90206],[80.11014,16.90271],[80.11064,16.90271],[80.1112,16.90249],[80.11213,16.90377],[80.11724,16.90644],[80.12036,16.90864],[80.12568,16.9041],[80.1223,16.90313],[80.1186,16.90178],[80.11676,16.90095],[80.11079,16.89703],[80.10961,16.89674],[80.10859,16.89608]]]}},{"type":"Feature","bbox":[80.10857,16.89541,80.13502,16.90418],"properties":{"ward":8,"name":"Torraguntapalem"},"geometry":{"type":"Polygon","coordinates":[[[80.11148,16.89541],[80.10857,16.89608],[80.10913,16.8963],[80.10961,16.89674],[80.11085,16.89706],[80.11615,16.90071],[80.11898,16.90192],[80.12226,16.90309],[80.12453,16.90361],[80.1257,16.90418],[80.12994,16.90199],[80.13502,16.89888],[80.13121,16.89641],[80.13065,16.89621],[80.13021,16.89686],[80.12945,16.89727],[80.12584,16.89787],[80.12454,16.89839],[80.12117,16.89887],[80.11864,16.89834],[80.11622,16.89747],[80.11458,16.89572],[80.113,16.89596],[80.11148,16.89541]]]}},{"type":"Feature","bbox":[80.102,16.89379,80.13042,16.89887],"properties":{"ward":9,"name":"Chintalatopu"},"geometry":{"type":"Polygon","coordinates":[[[80.10216,16.89487],[80.10366,16.89488],[80.10505,16.89453],[80.10525,16.89567],[80.10582,16.89692],[80.10683,16.89652],[80.11111,16.89542],[80.1115,16.8954],[80.11302,16.89596],[80.11458,16.89574],[80.11619,16.89748],[80.11865,16.89831],[80.1212,16.89887],[80.12458,16.89835],[80.12587,16.89786],[80.12945,16.89724],[80.13019,16.89686],[80.13042,16.89589],[80.12776,16.896],[80.12061,16.89561],[80.11331,16.89444],[80.11036,16.89428],[80.10821,16.89379],[80.102,16.89395],[80.10216,16.89487]]]}},{"type":"Feature","bbox":[80.09541,16.89111,80.10339,16.89397],"properties":{"ward":10,"name":"Seetharampuram-Ii"},"geometry":{"type":"Polygon","coordinates":[[[80.09726,16.89111],[80.09541,16.8916],[80.09672,16.89209],[80.09866,16.89246],[80.1006,16.89346],[80.10197,16.89397],[80.10313,16.89394],[80.10298,16.89351],[80.10328,16.89346],[80.10316,16.89246],[80.10339,16.89228],[80.10302,16.89196],[80.10197,16.89164],[80.09911,16.89122],[80.09726,16.89111]]]}},{"type":"Feature","bbox":[80.09656,16.88535,80.11182,16.89434],"properties":{"ward":11,"name":"Durgapuram"},"geometry":{"type":"Polygon","coordinates":[[[80.10312,16.89397],[80.10821,16.89377],[80.11027,16.89427],[80.11182,16.89434],[80.11168,16.89105],[80.10278,16.88733],[80.10196,16.88671],[80.10113,16.88564],[80.10053,16.88588],[80.09915,16.88538],[80.09765,16.88535],[80.09734,16.88554],[80.09666,16.8856],[80.09656,16.8858],[80.09667,16.88705],[80.09729,16.8911],[80.09942,16.89125],[80.10305,16.89195],[80.10337,16.89228],[80.10316,16.89246],[80.10326,16.89347],[80.103,16.89352],[80.10312,16.89397]]]}},{"type":"Feature","bbox":[80.10114,16.87593,80.13057,16.89586],"properties":{"ward":12,"name":"Dhanamboard"},"geometry":{"type":"Polygon","coordinates":[[[80.13057,16.89582],[80.12939,16.8935],[80.12835,16.89097],[80.12789,16.88778],[80.12629,16.8859],[80.12575,16.88439],[80.12531,16.88138],[80.12455,16.87952],[80.12456,16.87884],[80.12394,16.87784],[80.12174,16.87812],[80.12004,16.87921],[80.11769,16.87871],[80.11568,16.87877],[80.11433,16.8762],[80.11344,16.87593],[80.11159,16.87742],[80.10992,16.87922],[80.10927,16.88029],[80.10858,16.88089],[80.10757,16.88117],[80.10705,16.8824],[80.10358,16.88446],[80.10183,16.88506],[80.10114,16.88557],[80.10147,16.88613],[80.10285,16.88732],[80.11165,16.89106],[80.11185,16.89434],[80.12307,16.89586],[80.13057,16.89582]]]}},{"type":"Feature","bbox":[80.09014,16.87304,80.11332,16.88714],"properties":{"ward":13,"name":"Bangarupeta"},"geometry":{"type":"Polygon","coordinates":[[[80.09338,16.88632],[80.09318,16.88525],[80.09503,16.88541],[80.09527,16.88488],[80.09587,16.88485],[80.09599,16.88536],[80.09635,16.88532],[80.0964,16.8856],[80.09856,16.88533],[80.10057,16.88591],[80.10178,16.88511],[80.10359,16.88444],[80.10703,16.88241],[80.10742,16.8814],[80.10771,16.88115],[80.10853,16.88092],[80.10932,16.8803],[80.11009,16.879],[80.11146,16.87747],[80.11332,16.87586],[80.11242,16.87499],[80.11089,16.87419],[80.10536,16.87325],[80.10354,16.87304],[80.10245,16.8731],[80.1001,16.87377],[80.09888,16.87428],[80.09798,16.87401],[80.09773,16.87579],[80.09734,16.87658],[80.09654,16.87771],[80.09393,16.88053],[80.09354,16.88127],[80.09291,16.88343],[80.09304,16.88425],[80.09202,16.88453],[80.09087,16.88463],[80.09014,16.88563],[80.09022,16.88714],[80.09338,16.88632]]]}},{"type":"Feature","bbox":[80.09109,16.87385,80.09805,16.88455],"properties":{"ward":14,"name":"Williampeta"},"geometry":{"type":"Polygon","coordinates":[[[80.09174,16.88202],[80.09109,16.88448],[80.09199,16.88455],[80.09304,16.88425],[80.09296,16.88311],[80.0935,16.88139],[80.09442,16.87996],[80.0972,16.87678],[80.09771,16.8758],[80.09805,16.87403],[80.09764,16.87385],[80.09645,16.87461],[80.09585,16.87527],[80.09457,16.87611],[80.09316,16.87742],[80.09258,16.88034],[80.09221,16.88089],[80.09156,16.88143],[80.09174,16.88202]]]}},{"type":"Feature","bbox":[80.09365,16.88483,80.09667,16.88727],"properties":{"ward":15,"name":"Cheruvu Bazaar"},"geometry":{"type":"Polygon","coordinates":[[[80.09502,16.88543],[80.09365,16.88526],[80.09394,16.88559],[80.09452,16.88578],[80.09573,16.88566],[80.09584,16.88727],[80.09667,16.88701],[80.09666,16.88562],[80.0964,16.88562],[80.09633,16.88532],[80.09597,16.88536],[80.09589,16.88483],[80.09525,16.8849],[80.09502,16.88543]]]}},{"type":"Feature","bbox":[80.09481,16.88702,80.09696,16.88978],"properties":{"ward":16,"name":"Cheruvu Bazaar-Ii"},"geometry":{"type":"Polygon","coordinates":[[[80.09508,16.88936],[80.09627,16.88935],[80.09644,16.88973],[80.09673,16.88978],[80.09664,16.88908],[80.09696,16.88894],[80.09667,16.88702],[80.09481,16.88744],[80.09508,16.88936]]]}},{"type":"Feature","bbox":[80.09507,16.88894,80.09729,16.8916],"properties":{"ward":17,"name":"Kagitala Bazaar"},"geometry":{"type":"Polygon","coordinates":[[[80.09696,16.88894],[80.09665,16.88909],[80.09674,16.88978],[80.09645,16.88974],[80.09628,16.88936],[80.09507,16.88936],[80.09538,16.8916],[80.09729,16.89111],[80.09696,16.88894]]]}},{"type":"Feature","bbox":[80.0932,16.88524,80.09584,16.88765],"properties":{"ward":18,"name":"Markendeya Bazaar"},"geometry":{"type":"Polygon","coordinates":[[[80.09396,16.88558],[80.09365,16.88525],[80.0932,16.88524],[80.09355,16.88765],[80.09584,16.88727],[80.09573,16.88566],[80.09454,16.88579],[80.09396,16.88558]]]}},{"type":"Feature","bbox":[80.09355,16.88743,80.09537,16.8918],"properties":{"ward":19,"name":"Uppalivari Street"},"geometry":{"type":"Polygon","coordinates":[[[80.09439,16.8918],[80.09537,16.89159],[80.09481,16.88743],[80.09355,16.88766],[80.09439,16.8918]]]}},{"type":"Feature","bbox":[80.09112,16.88633,80.09391,16.88992],"properties":{"ward":20,"name":"Addala Bazar"},"geometry":{"type":"Polygon","coordinates":[[[80.09391,16.88956],[80.09336,16.88633],[80.09195,16.8866],[80.09112,16.88694],[80.09178,16.88721],[80.09195,16.88751],[80.09211,16.88925],[80.09188,16.88928],[80.09203,16.88992],[80.09391,16.88956]]]}},{"type":"Feature","bbox":[80.09194,16.88957,80.09439,16.89197],"properties":{"ward":21,"name":"Viswa Brahmana Street"},"geometry":{"type":"Polygon","coordinates":[[[80.09439,16.89179],[80.09393,16.88957],[80.09194,16.88996],[80.0923,16.89143],[80.09287,16.89141],[80.09343,16.89164],[80.09359,16.89197],[80.09439,16.89179]]]}},{"type":"Feature","bbox":[80.08952,16.88692,80.09211,16.89197],"properties":{"ward":22,"name":"Nagamaiah Bazaar"},"geometry":{"type":"Polygon","coordinates":[[[80.09097,16.89193],[80.09129,16.89007],[80.09204,16.88992],[80.09188,16.88927],[80.09211,16.88924],[80.09186,16.88731],[80.09097,16.88692],[80.09022,16.88714],[80.09,16.88753],[80.09002,16.88834],[80.08977,16.88868],[80.09033,16.8899],[80.08953,16.88969],[80.08952,16.89068],[80.0896,16.89084],[80.09022,16.89066],[80.09069,16.89197],[80.09097,16.89193]]]}},{"type":"Feature","bbox":[80.09096,16.88996,80.09359,16.89246],"properties":{"ward":23,"name":"Mangala Bazaar"},"geometry":{"type":"Polygon","coordinates":[[[80.09152,16.89246],[80.09359,16.89198],[80.09344,16.89166],[80.09286,16.89141],[80.09229,16.89143],[80.09194,16.88996],[80.09129,16.89008],[80.09103,16.89129],[80.09096,16.89195],[80.09152,16.89246]]]}},{"type":"Feature","bbox":[80.07156,16.88583,80.09153,16.90588],"properties":{"ward":24,"name":"Mittugudem"},"geometry":{"type":"Polygon","coordinates":[[[80.09014,16.88583],[80.08958,16.88626],[80.08927,16.88623],[80.08897,16.88676],[80.08592,16.88995],[80.08392,16.89142],[80.08386,16.89175],[80.08182,16.89484],[80.07919,16.89808],[80.07866,16.89894],[80.07641,16.9008],[80.07337,16.90231],[80.07271,16.90279],[80.07156,16.90297],[80.07208,16.90472],[80.07275,16.90525],[80.07462,16.90554],[80.07577,16.90588],[80.07896,16.90225],[80.07995,16.90075],[80.08123,16.8992],[80.08674,16.89492],[80.09153,16.89247],[80.09097,16.89194],[80.0907,16.89197],[80.09022,16.89067],[80.08959,16.89085],[80.08951,16.89068],[80.08953,16.88968],[80.09034,16.88992],[80.08977,16.88868],[80.09002,16.88834],[80.08998,16.88751],[80.09022,16.88714],[80.09024,16.88616],[80.09014,16.88583]]]}},{"type":"Feature","bbox":[80.07571,16.8924,80.09242,16.9094],"properties":{"ward":25,"name":"Christianpeta"},"geometry":{"type":"Polygon","coordinates":[[[80.09171,16.8924],[80.08672,16.89493],[80.0813,16.89915],[80.08067,16.89978],[80.07887,16.90236],[80.07571,16.90611],[80.07714,16.90701],[80.07837,16.90825],[80.08017,16.9094],[80.08119,16.90931],[80.08165,16.90788],[80.08286,16.90549],[80.08468,16.90076],[80.08755,16.89755],[80.08802,16.89727],[80.08942,16.89731],[80.09017,16.89709],[80.09019,16.89679],[80.09002,16.89657],[80.08962,16.89642],[80.09006,16.89583],[80.09035,16.895],[80.09093,16.89484],[80.09163,16.89489],[80.0918,16.89525],[80.09242,16.89516],[80.09171,16.8924]]]}},{"type":"Feature","bbox":[80.09173,16.89179,80.09471,16.89505],"properties":{"ward":26,"name":"Indira Colony"},"geometry":{"type":"Polygon","coordinates":[[[80.09173,16.89242],[80.09238,16.89505],[80.09313,16.89476],[80.09299,16.89375],[80.09471,16.89341],[80.09443,16.89179],[80.09173,16.89242]]]}},{"type":"Feature","bbox":[80.08127,16.89341,80.09873,16.92015],"properties":{"ward":27,"name":"Satyanarayanapuram"},"geometry":{"type":"Polygon","coordinates":[[[80.08159,16.90794],[80.08127,16.90937],[80.08268,16.91071],[80.08267,16.91109],[80.08395,16.9125],[80.08432,16.91258],[80.08598,16.91516],[80.08807,16.92015],[80.08839,16.91996],[80.08868,16.91868],[80.09117,16.91647],[80.09223,16.91486],[80.09451,16.91252],[80.09873,16.91407],[80.0966,16.90066],[80.09554,16.89809],[80.0947,16.89341],[80.093,16.89374],[80.09315,16.89476],[80.09239,16.89505],[80.09242,16.89515],[80.0918,16.89525],[80.09163,16.89489],[80.09095,16.89484],[80.09023,16.89511],[80.09004,16.89586],[80.08962,16.89642],[80.09014,16.89668],[80.09018,16.89708],[80.08934,16.89733],[80.08801,16.89728],[80.08727,16.89775],[80.08468,16.90078],[80.08268,16.90586],[80.08159,16.90794]]]}},{"type":"Feature","bbox":[80.09443,16.89161,80.09747,16.89664],"properties":{"ward":28,"name":"Rangubazaar"},"geometry":{"type":"Polygon","coordinates":[[[80.09443,16.8918],[80.0952,16.89572],[80.09519,16.89664],[80.09747,16.89612],[80.09718,16.89561],[80.09667,16.89208],[80.09544,16.89161],[80.09443,16.8918]]]}},{"type":"Feature","bbox":[80.09521,16.89614,80.09953,16.90411],"properties":{"ward":29,"name":"Ayyappanagar"},"geometry":{"type":"Polygon","coordinates":[[[80.09521,16.89664],[80.09556,16.89809],[80.09663,16.90069],[80.09721,16.90411],[80.09953,16.90352],[80.09941,16.90297],[80.09885,16.90234],[80.09901,16.90117],[80.09926,16.90071],[80.09882,16.90027],[80.09872,16.89996],[80.09908,16.89928],[80.09897,16.89913],[80.09856,16.89929],[80.09823,16.89922],[80.09782,16.8974],[80.09746,16.89691],[80.09746,16.89614],[80.09521,16.89664]]]}},{"type":"Feature","bbox":[80.09667,16.8921,80.10018,16.90033],"properties":{"ward":30,"name":"Kodad Road"},"geometry":{"type":"Polygon","coordinates":[[[80.09667,16.8921],[80.09717,16.8956],[80.09747,16.89613],[80.09742,16.89674],[80.09783,16.8974],[80.09816,16.89907],[80.09837,16.89926],[80.09897,16.89913],[80.09908,16.89928],[80.09873,16.89995],[80.09891,16.90033],[80.10018,16.89993],[80.09968,16.89903],[80.09869,16.89796],[80.09748,16.89226],[80.09667,16.8921]]]}},{"type":"Feature","bbox":[80.09722,16.89995,80.10631,16.91796],"properties":{"ward":31,"name":"Shanthi Nagar"},"geometry":{"type":"Polygon","coordinates":[[[80.09892,16.90033],[80.09926,16.90069],[80.09903,16.90117],[80.09885,16.90232],[80.09943,16.90299],[80.09951,16.90353],[80.09722,16.90413],[80.09876,16.91407],[80.10079,16.91534],[80.10175,16.91624],[80.10259,16.91623],[80.10343,16.91796],[80.10631,16.91696],[80.10018,16.89995],[80.09892,16.90033]]]}}]}