{"type":"FeatureCollection","features":[{"type":"Feature","bbox":[75.10858,16.38574,75.11044,16.38765],"properties":{"ward":1},"geometry":{"type":"Polygon","coordinates":[[[75.10861,16.38765],[75.11044,16.38752],[75.11032,16.38618],[75.10921,16.38597],[75.10924,16.38583],[75.10881,16.38574],[75.10858,16.3865],[75.10861,16.38765]]]}},{"type":"Feature","bbox":[75.10804,16.36969,75.11358,16.38642],"properties":{"ward":2},"geometry":{"type":"Polygon","coordinates":[[[75.11252,16.38151],[75.11249,16.38096],[75.11337,16.37541],[75.11345,16.37339],[75.11328,16.37142],[75.11358,16.3709],[75.11351,16.37012],[75.10935,16.36969],[75.10909,16.37707],[75.10847,16.37703],[75.10831,16.37784],[75.10894,16.37802],[75.10845,16.38205],[75.10804,16.38349],[75.10804,16.38436],[75.10832,16.38473],[75.1091,16.38505],[75.10885,16.38532],[75.10876,16.38573],[75.10924,16.38583],[75.10921,16.38597],[75.11032,16.38618],[75.11036,16.38642],[75.11083,16.38615],[75.11153,16.38605],[75.11149,16.38506],[75.11252,16.38151]]]}},{"type":"Feature","bbox":[75.11035,16.38151,75.11345,16.38752],"properties":{"ward":3},"geometry":{"type":"Polygon","coordinates":[[[75.11043,16.38752],[75.11345,16.38717],[75.11252,16.38151],[75.11149,16.38506],[75.11153,16.38605],[75.11083,16.38615],[75.11035,16.38642],[75.11043,16.38752]]]}},{"type":"Feature","bbox":[75.11246,16.37012,75.11701,16.38508],"properties":{"ward":4},"geometry":{"type":"Polygon","coordinates":[[[75.11701,16.38487],[75.11687,16.38373],[75.11649,16.38266],[75.11644,16.38233],[75.11659,16.3823],[75.11649,16.3818],[75.11572,16.37921],[75.11585,16.37861],[75.11559,16.37016],[75.11351,16.37012],[75.11358,16.3709],[75.11328,16.37142],[75.11345,16.37339],[75.11337,16.37541],[75.11246,16.38122],[75.11278,16.38339],[75.11411,16.3833],[75.11415,16.38369],[75.11448,16.38365],[75.1147,16.38508],[75.11701,16.38487]]]}},{"type":"Feature","bbox":[75.11559,16.37006,75.12347,16.38665],"properties":{"ward":5},"geometry":{"type":"Polygon","coordinates":[[[75.118,16.38665],[75.12308,16.3864],[75.12254,16.38083],[75.12151,16.38028],[75.12323,16.37516],[75.12347,16.37405],[75.11624,16.37383],[75.11632,16.3715],[75.1166,16.37006],[75.11559,16.37016],[75.11585,16.37861],[75.11572,16.37921],[75.11649,16.3818],[75.11659,16.3823],[75.11644,16.38233],[75.11649,16.38266],[75.11687,16.38373],[75.11694,16.38454],[75.11767,16.38437],[75.118,16.38665]]]}},{"type":"Feature","bbox":[75.11278,16.3833,75.118,16.38717],"properties":{"ward":6},"geometry":{"type":"Polygon","coordinates":[[[75.118,16.38665],[75.11767,16.38437],[75.11695,16.38454],[75.11701,16.38487],[75.1147,16.38508],[75.11448,16.38365],[75.11415,16.38369],[75.11411,16.3833],[75.11278,16.38339],[75.11345,16.38717],[75.118,16.38665]]]}},{"type":"Feature","bbox":[75.11144,16.38651,75.12325,16.39319],"properties":{"ward":7},"geometry":{"type":"Polygon","coordinates":[[[75.12144,16.38651],[75.11916,16.38655],[75.1134,16.38718],[75.11203,16.38965],[75.11144,16.39029],[75.11168,16.39067],[75.11194,16.39186],[75.12325,16.39319],[75.12272,16.39121],[75.11947,16.39133],[75.1196,16.38664],[75.12144,16.38651]]]}},{"type":"Feature","bbox":[75.11044,16.38718,75.1134,16.39109],"properties":{"ward":8},"geometry":{"type":"Polygon","coordinates":[[[75.11058,16.39109],[75.11203,16.38965],[75.1134,16.38718],[75.11044,16.38752],[75.11058,16.39109]]]}},{"type":"Feature","bbox":[75.1088,16.38752,75.11058,16.39157],"properties":{"ward":9},"geometry":{"type":"Polygon","coordinates":[[[75.11058,16.39109],[75.11051,16.38846],[75.11044,16.38752],[75.10934,16.38759],[75.10928,16.3882],[75.1088,16.38848],[75.10898,16.38898],[75.10923,16.38916],[75.10934,16.39151],[75.11001,16.39157],[75.11058,16.39109]]]}},{"type":"Feature","bbox":[75.10874,16.39027,75.11194,16.39313],"properties":{"ward":10},"geometry":{"type":"Polygon","coordinates":[[[75.11,16.39313],[75.10997,16.3921],[75.11092,16.39211],[75.11095,16.39173],[75.11194,16.39186],[75.11168,16.39067],[75.11143,16.39027],[75.1101,16.39154],[75.10927,16.39153],[75.10874,16.3931],[75.11,16.39313]]]}},{"type":"Feature","bbox":[75.10997,16.39173,75.12359,16.39462],"properties":{"ward":11},"geometry":{"type":"Polygon","coordinates":[[[75.12325,16.39319],[75.11095,16.39173],[75.11092,16.39211],[75.10997,16.3921],[75.11,16.39313],[75.11375,16.39299],[75.11398,16.39388],[75.11925,16.39442],[75.12295,16.39462],[75.12359,16.39448],[75.12325,16.39319]]]}},{"type":"Feature","bbox":[75.10859,16.39295,75.11398,16.39639],"properties":{"ward":12},"geometry":{"type":"Polygon","coordinates":[[[75.11398,16.39388],[75.11375,16.39299],[75.11254,16.39295],[75.10961,16.39322],[75.10874,16.3931],[75.10859,16.39348],[75.10969,16.39374],[75.10951,16.39424],[75.10872,16.3952],[75.10862,16.39573],[75.10881,16.39594],[75.1094,16.39608],[75.10972,16.39639],[75.11153,16.39638],[75.11151,16.39549],[75.11181,16.3938],[75.11398,16.39388]]]}},{"type":"Feature","bbox":[75.11094,16.3938,75.12347,16.40085],"properties":{"ward":13},"geometry":{"type":"Polygon","coordinates":[[[75.11202,16.40085],[75.11391,16.40032],[75.11608,16.40026],[75.11637,16.40052],[75.1168,16.4003],[75.1167,16.40008],[75.117,16.39991],[75.11658,16.39991],[75.11658,16.39975],[75.11737,16.39973],[75.11736,16.3994],[75.11969,16.39923],[75.11986,16.39984],[75.12337,16.39931],[75.12347,16.39701],[75.12139,16.39751],[75.12167,16.3949],[75.12295,16.39458],[75.11181,16.3938],[75.11151,16.39549],[75.11153,16.39638],[75.11094,16.3964],[75.11202,16.40085]]]}},{"type":"Feature","bbox":[75.11079,16.39923,75.12342,16.41175],"properties":{"ward":14},"geometry":{"type":"Polygon","coordinates":[[[75.12163,16.39962],[75.11986,16.39984],[75.11969,16.39923],[75.11736,16.3994],[75.11737,16.39973],[75.11658,16.39975],[75.11658,16.39991],[75.117,16.39991],[75.1167,16.40008],[75.1168,16.4003],[75.11637,16.40052],[75.11621,16.40028],[75.11531,16.40028],[75.11544,16.4013],[75.11531,16.4013],[75.11531,16.40629],[75.11397,16.40646],[75.11197,16.40833],[75.11079,16.4109],[75.11367,16.41115],[75.11368,16.41048],[75.11771,16.41165],[75.12049,16.41175],[75.12037,16.41144],[75.12103,16.40941],[75.12153,16.40681],[75.12342,16.40298],[75.12249,16.40273],[75.12163,16.39962]]]}},{"type":"Feature","bbox":[75.10806,16.40028,75.11544,16.41464],"properties":{"ward":15},"geometry":{"type":"Polygon","coordinates":[[[75.11079,16.4109],[75.11197,16.40833],[75.11397,16.40646],[75.11531,16.40629],[75.11531,16.4013],[75.11544,16.4013],[75.11531,16.40028],[75.11391,16.40032],[75.11232,16.40074],[75.11323,16.40492],[75.11073,16.40512],[75.10807,16.40508],[75.10806,16.40951],[75.10872,16.41464],[75.11046,16.41445],[75.11064,16.41087],[75.11079,16.4109]]]}},{"type":"Feature","bbox":[75.10626,16.39301,75.11323,16.41466],"properties":{"ward":16},"geometry":{"type":"Polygon","coordinates":[[[75.10872,16.41464],[75.10806,16.40951],[75.10807,16.40508],[75.11073,16.40512],[75.11323,16.40492],[75.11234,16.40078],[75.11202,16.40085],[75.11094,16.3964],[75.10972,16.39639],[75.1094,16.39608],[75.10881,16.39594],[75.1086,16.39567],[75.10872,16.3952],[75.10951,16.39424],[75.10969,16.39374],[75.10859,16.39348],[75.10829,16.39364],[75.10664,16.39301],[75.10626,16.395],[75.10654,16.3963],[75.10662,16.40211],[75.10698,16.40411],[75.10721,16.40714],[75.10722,16.40775],[75.10703,16.40801],[75.10709,16.409],[75.10759,16.41329],[75.10789,16.41466],[75.10872,16.41464]]]}},{"type":"Feature","bbox":[75.10173,16.39003,75.10759,16.41329],"properties":{"ward":17},"geometry":{"type":"Polygon","coordinates":[[[75.10664,16.39301],[75.1055,16.39248],[75.10399,16.39131],[75.10194,16.39003],[75.10184,16.39097],[75.1019,16.3921],[75.10207,16.39229],[75.10201,16.39439],[75.10173,16.39676],[75.10219,16.4015],[75.10313,16.40739],[75.10362,16.41263],[75.1062,16.41295],[75.10759,16.41329],[75.10709,16.409],[75.10703,16.40801],[75.10722,16.40775],[75.10721,16.40714],[75.10698,16.40411],[75.10662,16.40211],[75.10654,16.3963],[75.10626,16.395],[75.10664,16.39301]]]}},{"type":"Feature","bbox":[75.09904,16.38459,75.10927,16.39364],"properties":{"ward":18},"geometry":{"type":"Polygon","coordinates":[[[75.10859,16.39348],[75.10927,16.39154],[75.10767,16.39133],[75.10772,16.39036],[75.10685,16.39039],[75.10682,16.39001],[75.1065,16.38974],[75.10622,16.3897],[75.10593,16.38998],[75.1059,16.38931],[75.10444,16.38785],[75.10434,16.38754],[75.10464,16.38706],[75.10465,16.38667],[75.10381,16.38612],[75.10333,16.38518],[75.10131,16.38459],[75.10131,16.38501],[75.09945,16.38496],[75.09904,16.38812],[75.10194,16.38993],[75.1055,16.39248],[75.10829,16.39364],[75.10859,16.39348]]]}},{"type":"Feature","bbox":[75.10653,16.38913,75.10934,16.39151],"properties":{"ward":19},"geometry":{"type":"Polygon","coordinates":[[[75.10934,16.39151],[75.10926,16.38952],[75.10902,16.38954],[75.10895,16.38913],[75.10814,16.38918],[75.10815,16.38935],[75.10761,16.38941],[75.10753,16.38926],[75.10656,16.38932],[75.10653,16.38976],[75.10682,16.39001],[75.10685,16.39039],[75.10772,16.39036],[75.10767,16.39133],[75.10934,16.39151]]]}},{"type":"Feature","bbox":[75.10453,16.38783,75.10926,16.38998],"properties":{"ward":20},"geometry":{"type":"Polygon","coordinates":[[[75.10653,16.38976],[75.10656,16.38932],[75.10753,16.38926],[75.10761,16.38941],[75.1088,16.38909],[75.10895,16.38913],[75.10902,16.38954],[75.10926,16.38952],[75.10923,16.38916],[75.10898,16.38898],[75.10863,16.38815],[75.10682,16.38844],[75.10683,16.38788],[75.10527,16.38783],[75.10517,16.388],[75.10453,16.38797],[75.1059,16.38931],[75.10593,16.38998],[75.10622,16.3897],[75.10653,16.38976]]]}},{"type":"Feature","bbox":[75.10526,16.38603,75.10934,16.38848],"properties":{"ward":21},"geometry":{"type":"Polygon","coordinates":[[[75.10934,16.38759],[75.10861,16.38765],[75.10865,16.38616],[75.10812,16.38603],[75.10804,16.38637],[75.10834,16.38653],[75.10836,16.38705],[75.10668,16.38709],[75.10668,16.38695],[75.10636,16.38695],[75.10601,16.38718],[75.10526,16.38722],[75.10527,16.38783],[75.10683,16.38788],[75.10682,16.38844],[75.10863,16.38815],[75.1088,16.38848],[75.10912,16.3884],[75.10934,16.388],[75.10934,16.38759]]]}},{"type":"Feature","bbox":[75.09692,16.37637,75.10885,16.388],"properties":{"ward":22},"geometry":{"type":"Polygon","coordinates":[[[75.10517,16.388],[75.10526,16.38722],[75.10601,16.38718],[75.10636,16.38695],[75.10668,16.38695],[75.10668,16.38709],[75.10836,16.38705],[75.10834,16.38653],[75.10804,16.38637],[75.10812,16.38603],[75.10865,16.38616],[75.10885,16.38532],[75.10693,16.38483],[75.10668,16.38561],[75.10626,16.38552],[75.10505,16.38212],[75.10381,16.37714],[75.09692,16.37637],[75.09704,16.37666],[75.10145,16.38075],[75.10131,16.38459],[75.10333,16.38518],[75.10381,16.38612],[75.10465,16.38667],[75.10464,16.38706],[75.10434,16.38754],[75.10444,16.38785],[75.10517,16.388]]]}},{"type":"Feature","bbox":[75.10381,16.3696,75.10935,16.38561],"properties":{"ward":23},"geometry":{"type":"Polygon","coordinates":[[[75.10885,16.38532],[75.1091,16.38505],[75.10832,16.38473],[75.10804,16.38436],[75.10804,16.38349],[75.10845,16.38205],[75.10894,16.37802],[75.10831,16.37784],[75.10847,16.37703],[75.10909,16.37707],[75.10935,16.36969],[75.10695,16.3696],[75.10709,16.37517],[75.10698,16.3776],[75.10381,16.37714],[75.10505,16.38212],[75.10626,16.38552],[75.10668,16.38561],[75.10693,16.38483],[75.10885,16.38532]]]}}]}