{"type":"FeatureCollection","features":[{"type":"Feature","bbox":[74.60626,15.25596,74.61337,15.26464],"properties":{"ward":1},"geometry":{"type":"Polygon","coordinates":[[[74.61223,15.26449],[74.61052,15.26149],[74.61337,15.26025],[74.61287,15.25908],[74.61255,15.25921],[74.61027,15.25596],[74.60781,15.257],[74.60626,15.2581],[74.60884,15.25958],[74.6096,15.26049],[74.61201,15.26464],[74.61223,15.26449]]]}},{"type":"Feature","bbox":[74.61125,15.25636,74.61428,15.25921],"properties":{"ward":2},"geometry":{"type":"Polygon","coordinates":[[[74.61255,15.25921],[74.61428,15.25847],[74.61332,15.25636],[74.61125,15.25746],[74.61255,15.25921]]]}},{"type":"Feature","bbox":[74.61052,15.26007,74.61724,15.26849],"properties":{"ward":3,"name":"Ganesh Nagar"},"geometry":{"type":"Polygon","coordinates":[[[74.61511,15.26849],[74.61724,15.26261],[74.61696,15.26255],[74.61593,15.26173],[74.61564,15.26201],[74.61531,15.26176],[74.61529,15.26157],[74.61407,15.26179],[74.61398,15.26134],[74.61431,15.26007],[74.61285,15.26041],[74.61052,15.26149],[74.6123,15.26461],[74.61269,15.26456],[74.61237,15.26526],[74.61298,15.26605],[74.61386,15.26809],[74.61417,15.26839],[74.61511,15.26849]]]}},{"type":"Feature","bbox":[74.61413,15.26025,74.62425,15.27324],"properties":{"ward":4},"geometry":{"type":"Polygon","coordinates":[[[74.62425,15.26248],[74.62201,15.26187],[74.62223,15.26137],[74.6207,15.26025],[74.62019,15.261],[74.61859,15.26529],[74.61655,15.26462],[74.61511,15.26849],[74.61413,15.26845],[74.6144,15.26936],[74.61475,15.26922],[74.615,15.27006],[74.61478,15.27027],[74.61485,15.27047],[74.6147,15.27051],[74.61535,15.27235],[74.61671,15.27296],[74.61902,15.27297],[74.62006,15.27324],[74.62108,15.2724],[74.62425,15.26248]]]}},{"type":"Feature","bbox":[74.60242,15.23808,74.61327,15.25623],"properties":{"ward":5},"geometry":{"type":"Polygon","coordinates":[[[74.61086,15.25524],[74.61153,15.25469],[74.61327,15.25391],[74.61211,15.25298],[74.61226,15.25172],[74.61216,15.25137],[74.61164,15.25075],[74.61161,15.25025],[74.61026,15.25023],[74.60964,15.2504],[74.60931,15.24981],[74.6088,15.24959],[74.60751,15.24856],[74.60761,15.24737],[74.60715,15.24699],[74.6081,15.24518],[74.60868,15.24235],[74.60948,15.24107],[74.61009,15.24044],[74.61112,15.2396],[74.61142,15.23941],[74.61156,15.23959],[74.61254,15.23886],[74.61208,15.23808],[74.61017,15.23937],[74.60967,15.23879],[74.60816,15.2404],[74.60623,15.24496],[74.60594,15.24622],[74.60467,15.24957],[74.60399,15.25078],[74.60344,15.25149],[74.60249,15.25228],[74.60242,15.25251],[74.60262,15.25305],[74.60358,15.25391],[74.60667,15.25564],[74.60809,15.25591],[74.6086,15.25623],[74.60942,15.25591],[74.61019,15.25524],[74.61068,15.25513],[74.61086,15.25524]]]}},{"type":"Feature","bbox":[74.61086,15.25336,74.61583,15.25602],"properties":{"ward":6},"geometry":{"type":"Polygon","coordinates":[[[74.61579,15.25527],[74.61583,15.25368],[74.61547,15.25336],[74.61257,15.2542],[74.6113,15.25482],[74.61086,15.25524],[74.61101,15.25547],[74.61244,15.25452],[74.61283,15.25444],[74.61326,15.25602],[74.61579,15.25527]]]}},{"type":"Feature","bbox":[74.60584,15.25444,74.61586,15.26179],"properties":{"ward":7},"geometry":{"type":"Polygon","coordinates":[[[74.61529,15.26157],[74.61586,15.25763],[74.61579,15.25527],[74.61326,15.25602],[74.61283,15.25444],[74.61244,15.25452],[74.61101,15.25547],[74.61077,15.25514],[74.61019,15.25524],[74.60942,15.25591],[74.60725,15.25672],[74.60584,15.25775],[74.60626,15.2581],[74.60781,15.257],[74.61027,15.25596],[74.61125,15.25746],[74.61335,15.25636],[74.61428,15.25847],[74.61287,15.25908],[74.61337,15.26025],[74.61434,15.26008],[74.61398,15.26134],[74.61407,15.26179],[74.61529,15.26157]]]}},{"type":"Feature","bbox":[74.61531,15.25745,74.61824,15.26261],"properties":{"ward":8},"geometry":{"type":"Polygon","coordinates":[[[74.61818,15.2608],[74.61824,15.25773],[74.61687,15.25745],[74.61587,15.2575],[74.61531,15.26176],[74.61564,15.26201],[74.61593,15.26173],[74.61696,15.26255],[74.61724,15.26261],[74.61786,15.2612],[74.61818,15.2608]]]}},{"type":"Feature","bbox":[74.61655,15.2608,74.61982,15.26529],"properties":{"ward":9},"geometry":{"type":"Polygon","coordinates":[[[74.61982,15.26202],[74.61861,15.26162],[74.61818,15.2608],[74.61735,15.26233],[74.61655,15.26462],[74.61859,15.26529],[74.61982,15.26202]]]}},{"type":"Feature","bbox":[74.61818,15.25904,74.62122,15.26202],"properties":{"ward":10},"geometry":{"type":"Polygon","coordinates":[[[74.62031,15.26074],[74.62105,15.25989],[74.62122,15.25941],[74.61822,15.25904],[74.61818,15.2608],[74.61861,15.26162],[74.61982,15.26202],[74.62031,15.26074]]]}},{"type":"Feature","bbox":[74.61821,15.25191,74.62665,15.26248],"properties":{"ward":11},"geometry":{"type":"Polygon","coordinates":[[[74.62665,15.25855],[74.62638,15.2585],[74.62612,15.25817],[74.62342,15.25819],[74.62181,15.258],[74.622,15.25694],[74.62237,15.2562],[74.62376,15.25206],[74.62048,15.25191],[74.62018,15.25323],[74.61821,15.25656],[74.61824,15.25773],[74.6215,15.25775],[74.62116,15.25964],[74.6207,15.26025],[74.62223,15.26137],[74.62201,15.26187],[74.62425,15.26248],[74.62468,15.26151],[74.6261,15.25993],[74.62665,15.25855]]]}},{"type":"Feature","bbox":[74.61511,15.25054,74.61728,15.25373],"properties":{"ward":12},"geometry":{"type":"Polygon","coordinates":[[[74.61728,15.25369],[74.61716,15.25054],[74.61511,15.25067],[74.61516,15.2534],[74.61552,15.25336],[74.61583,15.25373],[74.61728,15.25369]]]}},{"type":"Feature","bbox":[74.61581,15.25368,74.61769,15.25597],"properties":{"ward":14,"name":"14 Th Block,Township"},"geometry":{"type":"Polygon","coordinates":[[[74.61741,15.25563],[74.61769,15.25532],[74.61769,15.25368],[74.61583,15.25373],[74.61581,15.25597],[74.61741,15.25563]]]}},{"type":"Feature","bbox":[74.61822,15.25773,74.6215,15.25941],"properties":{"ward":15},"geometry":{"type":"Polygon","coordinates":[[[74.61824,15.25773],[74.61822,15.25904],[74.62122,15.25941],[74.6215,15.25775],[74.61824,15.25773]]]}},{"type":"Feature","bbox":[74.62178,15.25149,74.62832,15.25854],"properties":{"ward":16,"name":"Wcpm"},"geometry":{"type":"Polygon","coordinates":[[[74.62665,15.25854],[74.62751,15.25462],[74.62783,15.25352],[74.62832,15.25265],[74.62709,15.25149],[74.62628,15.25229],[74.62362,15.25174],[74.62353,15.25202],[74.62376,15.25206],[74.62373,15.25216],[74.62237,15.2562],[74.622,15.25694],[74.62178,15.25795],[74.62244,15.25815],[74.62612,15.25817],[74.62638,15.2585],[74.62665,15.25854]]]}},{"type":"Feature","bbox":[74.60715,15.23686,74.62288,15.25391],"properties":{"ward":17},"geometry":{"type":"Polygon","coordinates":[[[74.61516,15.2534],[74.6151,15.24949],[74.61562,15.24942],[74.61559,15.24918],[74.61576,15.24913],[74.61528,15.2479],[74.61523,15.24665],[74.61838,15.24611],[74.61998,15.24705],[74.62024,15.24776],[74.62019,15.24804],[74.62065,15.24823],[74.62237,15.24702],[74.62254,15.2463],[74.62246,15.24528],[74.62288,15.24422],[74.62232,15.2437],[74.62165,15.24193],[74.62121,15.24158],[74.61989,15.23983],[74.61897,15.23975],[74.61913,15.23926],[74.61898,15.239],[74.61877,15.23893],[74.61728,15.2395],[74.61711,15.23826],[74.61802,15.23772],[74.61804,15.23686],[74.61687,15.23747],[74.61612,15.23836],[74.61451,15.23735],[74.61156,15.23959],[74.6114,15.23942],[74.61009,15.24044],[74.60948,15.24107],[74.60868,15.24235],[74.6081,15.24518],[74.60715,15.24699],[74.60761,15.24737],[74.60748,15.24852],[74.6088,15.24959],[74.60931,15.24981],[74.6096,15.25038],[74.61026,15.25023],[74.61161,15.25025],[74.61164,15.25075],[74.61224,15.25159],[74.6121,15.25286],[74.61225,15.25316],[74.61292,15.25351],[74.61327,15.25391],[74.61516,15.2534]]]}},{"type":"Feature","bbox":[74.6151,15.24611,74.62003,15.25014],"properties":{"ward":18},"geometry":{"type":"Polygon","coordinates":[[[74.61837,15.2471],[74.61869,15.24657],[74.61999,15.24737],[74.62003,15.24713],[74.61838,15.24611],[74.61523,15.24665],[74.61528,15.2479],[74.61576,15.24913],[74.61559,15.24918],[74.61562,15.24942],[74.6151,15.24949],[74.61511,15.25014],[74.61592,15.25003],[74.61586,15.2486],[74.61613,15.24854],[74.61616,15.248],[74.61665,15.24769],[74.61755,15.24765],[74.61765,15.24669],[74.61837,15.2471]]]}},{"type":"Feature","bbox":[74.61511,15.24669,74.61848,15.25067],"properties":{"ward":19},"geometry":{"type":"Polygon","coordinates":[[[74.61678,15.25054],[74.61675,15.24998],[74.61728,15.24864],[74.61804,15.24869],[74.61848,15.24718],[74.61765,15.24669],[74.61755,15.24765],[74.61665,15.24769],[74.61616,15.248],[74.61613,15.24854],[74.61586,15.2486],[74.61592,15.25003],[74.61511,15.25014],[74.61511,15.25067],[74.61678,15.25054]]]}},{"type":"Feature","bbox":[74.61758,15.24422,74.62311,15.25217],"properties":{"ward":20,"name":"Township"},"geometry":{"type":"Polygon","coordinates":[[[74.62311,15.24437],[74.62288,15.24422],[74.62256,15.24483],[74.62254,15.2463],[74.62237,15.24702],[74.62065,15.24823],[74.62019,15.24804],[74.62024,15.24776],[74.61999,15.24737],[74.61868,15.24657],[74.61837,15.2471],[74.61848,15.24718],[74.61758,15.25],[74.61768,15.25071],[74.61832,15.25069],[74.61843,15.25217],[74.62022,15.25187],[74.6205,15.25164],[74.62061,15.25104],[74.62208,15.24886],[74.62287,15.24636],[74.62296,15.24468],[74.62311,15.24437]]]}},{"type":"Feature","bbox":[74.61741,15.24437,74.62436,15.25634],"properties":{"ward":21},"geometry":{"type":"Polygon","coordinates":[[[74.62353,15.25202],[74.62426,15.24978],[74.62418,15.24804],[74.62436,15.24584],[74.62411,15.24507],[74.62311,15.24437],[74.62296,15.24468],[74.62287,15.24636],[74.62201,15.24902],[74.62075,15.25079],[74.6205,15.25164],[74.62033,15.25166],[74.6203,15.25183],[74.61843,15.25217],[74.61844,15.25483],[74.61769,15.25484],[74.61769,15.25532],[74.61741,15.25563],[74.61741,15.25627],[74.61831,15.25634],[74.62018,15.25323],[74.62048,15.25191],[74.62353,15.25202]]]}},{"type":"Feature","bbox":[74.62441,15.24709,74.62757,15.25094],"properties":{"ward":22},"geometry":{"type":"Polygon","coordinates":[[[74.62451,15.24709],[74.62441,15.25009],[74.62624,15.25094],[74.62624,15.2502],[74.62645,15.24963],[74.62683,15.24916],[74.62751,15.24881],[74.62757,15.24864],[74.62602,15.24741],[74.62451,15.24709]]]}},{"type":"Feature","bbox":[74.62362,15.25009,74.62624,15.25219],"properties":{"ward":23},"geometry":{"type":"Polygon","coordinates":[[[74.62624,15.25094],[74.62441,15.25009],[74.62429,15.25055],[74.62404,15.25052],[74.62362,15.25174],[74.62583,15.25219],[74.62624,15.25094]]]}},{"type":"Feature","bbox":[74.62451,15.24587,74.63622,15.25859],"properties":{"ward":24},"geometry":{"type":"Polygon","coordinates":[[[74.63615,15.2505],[74.63462,15.2489],[74.6338,15.24824],[74.63128,15.24714],[74.62777,15.24604],[74.62747,15.24624],[74.62476,15.24587],[74.62451,15.24709],[74.62602,15.24741],[74.62758,15.24868],[74.62683,15.24916],[74.62645,15.24963],[74.62624,15.2502],[74.62623,15.25098],[74.62583,15.25219],[74.62628,15.25229],[74.62709,15.25149],[74.62832,15.25265],[74.62783,15.25352],[74.62751,15.25462],[74.62665,15.25854],[74.62686,15.25859],[74.62811,15.25768],[74.62935,15.25712],[74.63031,15.25718],[74.63221,15.25825],[74.63417,15.25525],[74.63622,15.25173],[74.63549,15.25119],[74.63615,15.2505]]]}},{"type":"Feature","bbox":[74.60967,15.23543,74.62355,15.24321],"properties":{"ward":25,"name":"Old Dandeli Main Road"},"geometry":{"type":"Polygon","coordinates":[[[74.62355,15.24211],[74.62318,15.24216],[74.62215,15.24172],[74.6212,15.24104],[74.62021,15.23968],[74.61896,15.23707],[74.61866,15.23583],[74.61849,15.23566],[74.61695,15.23568],[74.61579,15.23543],[74.61447,15.23573],[74.61307,15.23625],[74.61209,15.23681],[74.60967,15.23879],[74.61017,15.23937],[74.61466,15.23647],[74.6155,15.23622],[74.61713,15.23613],[74.61785,15.23645],[74.6185,15.23709],[74.61942,15.23878],[74.61968,15.23963],[74.62176,15.24208],[74.62216,15.24321],[74.62355,15.24253],[74.62355,15.24211]]]}},{"type":"Feature","bbox":[74.61208,15.23613,74.61822,15.23882],"properties":{"ward":26},"geometry":{"type":"Polygon","coordinates":[[[74.61687,15.23747],[74.61822,15.23678],[74.61785,15.23645],[74.61713,15.23613],[74.61531,15.23626],[74.61437,15.23663],[74.61208,15.23808],[74.61254,15.23882],[74.61451,15.23735],[74.61612,15.23836],[74.61687,15.23747]]]}},{"type":"Feature","bbox":[74.61711,15.23678,74.61989,15.23983],"properties":{"ward":27},"geometry":{"type":"Polygon","coordinates":[[[74.61989,15.23983],[74.61963,15.23952],[74.61942,15.23878],[74.61865,15.23733],[74.61822,15.23678],[74.61804,15.23686],[74.61802,15.23772],[74.61711,15.23826],[74.61728,15.2395],[74.61882,15.23892],[74.61912,15.23921],[74.61897,15.23975],[74.61989,15.23983]]]}},{"type":"Feature","bbox":[74.62216,15.24203,74.62725,15.25055],"properties":{"ward":28},"geometry":{"type":"Polygon","coordinates":[[[74.62429,15.25055],[74.62451,15.24699],[74.62473,15.24592],[74.62535,15.24588],[74.62561,15.24429],[74.6254,15.24416],[74.62559,15.24331],[74.62696,15.24318],[74.62725,15.24241],[74.62693,15.2422],[74.62596,15.24203],[74.62473,15.2423],[74.62355,15.24211],[74.62355,15.24253],[74.62216,15.24321],[74.62249,15.24393],[74.62411,15.24507],[74.62431,15.24551],[74.62426,15.24978],[74.62404,15.25052],[74.62429,15.25055]]]}},{"type":"Feature","bbox":[74.62535,15.24241,74.6298,15.24662],"properties":{"ward":29},"geometry":{"type":"Polygon","coordinates":[[[74.6298,15.24433],[74.62878,15.24369],[74.62725,15.24241],[74.62692,15.2432],[74.62559,15.24331],[74.6254,15.24416],[74.62561,15.24429],[74.62535,15.24588],[74.62747,15.24624],[74.62777,15.24604],[74.62971,15.24662],[74.6298,15.24633],[74.62966,15.24573],[74.62928,15.2457],[74.62955,15.24532],[74.6298,15.24433]]]}},{"type":"Feature","bbox":[74.62928,15.24433,74.63638,15.24982],"properties":{"ward":30,"name":"3 No Gate,Haliyal Road"},"geometry":{"type":"Polygon","coordinates":[[[74.6298,15.24433],[74.62955,15.24532],[74.62928,15.2457],[74.62966,15.24573],[74.6298,15.24633],[74.62971,15.24662],[74.63326,15.24793],[74.63428,15.24858],[74.63538,15.24982],[74.63563,15.24965],[74.63577,15.24943],[74.6357,15.24905],[74.6353,15.24863],[74.6358,15.24786],[74.63638,15.24645],[74.63603,15.24581],[74.63624,15.24543],[74.6354,15.24533],[74.63396,15.24564],[74.63293,15.2456],[74.6298,15.24433]]]}},{"type":"Feature","bbox":[74.61146,15.22617,74.61909,15.23606],"properties":{"ward":31},"geometry":{"type":"Polygon","coordinates":[[[74.61745,15.23564],[74.6187,15.2339],[74.61909,15.23241],[74.61904,15.22973],[74.61822,15.22726],[74.6176,15.22617],[74.61723,15.2264],[74.61732,15.22666],[74.61703,15.22973],[74.61633,15.23102],[74.61638,15.23216],[74.6151,15.23258],[74.61411,15.23182],[74.61292,15.23246],[74.612,15.23345],[74.61146,15.23606],[74.6139,15.23484],[74.61504,15.23469],[74.61803,15.23361],[74.618,15.23375],[74.61858,15.23391],[74.61745,15.23564]]]}}]}