{"type":"FeatureCollection","features":[{"type":"Feature","bbox":[75.22373,15.25921,75.24406,15.27118],"properties":{"ward":1},"geometry":{"type":"Polygon","coordinates":[[[75.2314,15.26984],[75.23432,15.26855],[75.2341,15.2651],[75.23891,15.26492],[75.2389,15.26431],[75.24114,15.26443],[75.24146,15.26113],[75.24216,15.2612],[75.24252,15.2608],[75.24367,15.26083],[75.24406,15.26067],[75.24298,15.25921],[75.2423,15.25955],[75.24096,15.25984],[75.23405,15.26052],[75.2302,15.2607],[75.23027,15.26051],[75.23074,15.26027],[75.22925,15.26028],[75.2242,15.26087],[75.22373,15.26167],[75.22452,15.26722],[75.22596,15.26681],[75.22602,15.26598],[75.22682,15.26587],[75.22657,15.26895],[75.22834,15.26768],[75.22793,15.27118],[75.23144,15.26948],[75.2314,15.26984]]]}},{"type":"Feature","bbox":[75.23136,15.26072,75.24409,15.28081],"properties":{"ward":2},"geometry":{"type":"Polygon","coordinates":[[[75.24286,15.27792],[75.24303,15.26801],[75.24325,15.26726],[75.2438,15.26307],[75.24409,15.26202],[75.24389,15.26072],[75.24252,15.2608],[75.24216,15.2612],[75.24146,15.26113],[75.24114,15.26443],[75.2389,15.26431],[75.23891,15.26492],[75.2341,15.2651],[75.23432,15.26855],[75.2314,15.26984],[75.23136,15.27129],[75.23445,15.27063],[75.23456,15.27294],[75.23692,15.27289],[75.23533,15.27805],[75.23495,15.28057],[75.23677,15.28076],[75.24242,15.28081],[75.24286,15.27792]]]}},{"type":"Feature","bbox":[75.24292,15.25926,75.26465,15.27799],"properties":{"ward":3},"geometry":{"type":"Polygon","coordinates":[[[75.26456,15.26227],[75.25728,15.26144],[75.25304,15.26026],[75.25006,15.25969],[75.24878,15.26091],[75.24851,15.26049],[75.24889,15.25997],[75.24891,15.25942],[75.24782,15.25934],[75.24623,15.25926],[75.24456,15.26053],[75.24389,15.26072],[75.24409,15.26202],[75.2438,15.26307],[75.24325,15.26726],[75.24303,15.26801],[75.24292,15.27652],[75.24644,15.27643],[75.24645,15.27799],[75.25417,15.27703],[75.25427,15.27681],[75.25785,15.27647],[75.25846,15.27674],[75.2588,15.27096],[75.25879,15.26853],[75.25897,15.26859],[75.25955,15.26644],[75.26465,15.26757],[75.26446,15.26666],[75.26464,15.26618],[75.26456,15.26227]]]}},{"type":"Feature","bbox":[75.24853,15.2534,75.26668,15.26251],"properties":{"ward":4},"geometry":{"type":"Polygon","coordinates":[[[75.2653,15.2534],[75.25328,15.25426],[75.25199,15.25425],[75.25099,15.25399],[75.25104,15.25634],[75.25086,15.25737],[75.24984,15.25862],[75.24877,15.25852],[75.24893,15.25981],[75.24853,15.26058],[75.24885,15.26092],[75.25006,15.25969],[75.25304,15.26026],[75.25728,15.26144],[75.26655,15.26251],[75.26668,15.26066],[75.26647,15.25788],[75.26618,15.25784],[75.26616,15.25768],[75.26644,15.2577],[75.26634,15.25707],[75.26589,15.25633],[75.26565,15.25364],[75.2653,15.2534]]]}},{"type":"Feature","bbox":[75.24623,15.25599,75.24891,15.25942],"properties":{"ward":5},"geometry":{"type":"Polygon","coordinates":[[[75.24891,15.25942],[75.24811,15.25601],[75.24755,15.25599],[75.24745,15.25757],[75.24623,15.25926],[75.24891,15.25942]]]}},{"type":"Feature","bbox":[75.24298,15.25757,75.24718,15.26068],"properties":{"ward":6},"geometry":{"type":"Polygon","coordinates":[[[75.24623,15.25926],[75.24718,15.2579],[75.24678,15.25758],[75.24562,15.25778],[75.24564,15.25846],[75.24543,15.25858],[75.24539,15.2588],[75.24473,15.25878],[75.2447,15.25857],[75.24442,15.25857],[75.24435,15.25762],[75.24378,15.25757],[75.24354,15.2586],[75.24298,15.25921],[75.2439,15.26057],[75.24412,15.26068],[75.24529,15.26004],[75.24623,15.25926]]]}},{"type":"Feature","bbox":[75.24435,15.25553,75.24576,15.2588],"properties":{"ward":7},"geometry":{"type":"Polygon","coordinates":[[[75.24564,15.25846],[75.24558,15.25652],[75.24576,15.2562],[75.24575,15.25553],[75.24552,15.25556],[75.24551,15.25623],[75.24486,15.25624],[75.24475,15.25641],[75.24462,15.25761],[75.24435,15.25762],[75.24442,15.25857],[75.2447,15.25857],[75.24473,15.25878],[75.24539,15.2588],[75.24543,15.25858],[75.24564,15.25846]]]}},{"type":"Feature","bbox":[75.24378,15.2549,75.24551,15.25761],"properties":{"ward":8},"geometry":{"type":"Polygon","coordinates":[[[75.24549,15.25568],[75.24515,15.25568],[75.24523,15.2549],[75.2443,15.25492],[75.24378,15.25757],[75.24462,15.25761],[75.24475,15.25641],[75.24486,15.25624],[75.24551,15.25623],[75.24549,15.25568]]]}},{"type":"Feature","bbox":[75.24515,15.25462,75.24811,15.2579],"properties":{"ward":9},"geometry":{"type":"Polygon","coordinates":[[[75.24811,15.25601],[75.24802,15.25488],[75.24634,15.25495],[75.24601,15.25462],[75.24564,15.25486],[75.24523,15.2549],[75.24515,15.25568],[75.24575,15.25553],[75.24576,15.2562],[75.24558,15.25652],[75.24562,15.25778],[75.24661,15.25756],[75.24718,15.2579],[75.24747,15.25749],[75.24753,15.25602],[75.24811,15.25601]]]}},{"type":"Feature","bbox":[75.2443,15.2518,75.24818,15.25495],"properties":{"ward":10},"geometry":{"type":"Polygon","coordinates":[[[75.24802,15.25488],[75.24796,15.25452],[75.24818,15.25332],[75.24649,15.25311],[75.24652,15.2519],[75.24594,15.2518],[75.24493,15.25216],[75.2444,15.2526],[75.2443,15.25492],[75.24554,15.25488],[75.24601,15.25462],[75.24634,15.25495],[75.24802,15.25488]]]}},{"type":"Feature","bbox":[75.24802,15.25429,75.24973,15.25702],"properties":{"ward":11},"geometry":{"type":"Polygon","coordinates":[[[75.24951,15.25669],[75.24971,15.25613],[75.24973,15.25511],[75.2488,15.25508],[75.24861,15.25442],[75.24802,15.25429],[75.24811,15.25601],[75.24839,15.25702],[75.24951,15.25669]]]}},{"type":"Feature","bbox":[75.24802,15.25262,75.24997,15.25511],"properties":{"ward":12},"geometry":{"type":"Polygon","coordinates":[[[75.24973,15.25511],[75.24997,15.25302],[75.24849,15.25262],[75.24814,15.25346],[75.24802,15.25429],[75.24861,15.25442],[75.2488,15.25508],[75.24973,15.25511]]]}},{"type":"Feature","bbox":[75.24839,15.25669,75.25084,15.25862],"properties":{"ward":13},"geometry":{"type":"Polygon","coordinates":[[[75.25084,15.25739],[75.24967,15.2572],[75.24951,15.25669],[75.24839,15.25702],[75.2484,15.25749],[75.24877,15.25852],[75.24984,15.25862],[75.25084,15.25739]]]}},{"type":"Feature","bbox":[75.24951,15.25558,75.25105,15.25739],"properties":{"ward":14},"geometry":{"type":"Polygon","coordinates":[[[75.25105,15.25581],[75.25046,15.25581],[75.24974,15.25558],[75.24951,15.25669],[75.24967,15.2572],[75.25084,15.25739],[75.25105,15.25581]]]}},{"type":"Feature","bbox":[75.24974,15.2528,75.25105,15.25581],"properties":{"ward":15},"geometry":{"type":"Polygon","coordinates":[[[75.25105,15.25581],[75.25099,15.25399],[75.25047,15.25292],[75.25007,15.2528],[75.24979,15.25382],[75.24974,15.25558],[75.25046,15.25581],[75.25105,15.25581]]]}},{"type":"Feature","bbox":[75.25021,15.25054,75.2529,15.25427],"properties":{"ward":16},"geometry":{"type":"Polygon","coordinates":[[[75.2529,15.25427],[75.2529,15.25237],[75.25265,15.25054],[75.25074,15.25257],[75.25021,15.25281],[75.25047,15.25292],[75.25099,15.25399],[75.25199,15.25425],[75.2529,15.25427]]]}},{"type":"Feature","bbox":[75.25265,15.24937,75.26429,15.25427],"properties":{"ward":17},"geometry":{"type":"Polygon","coordinates":[[[75.26429,15.25348],[75.26405,15.24937],[75.25885,15.24973],[75.25884,15.25039],[75.25265,15.25054],[75.2529,15.25237],[75.2529,15.25427],[75.26429,15.25348]]]}},{"type":"Feature","bbox":[75.24649,15.24046,75.26454,15.25332],"properties":{"ward":18},"geometry":{"type":"Polygon","coordinates":[[[75.24997,15.25302],[75.25007,15.2528],[75.25074,15.25257],[75.25265,15.25054],[75.25884,15.25039],[75.25885,15.24973],[75.26454,15.24927],[75.26447,15.2466],[75.262,15.24694],[75.26195,15.24607],[75.26069,15.24621],[75.26045,15.24398],[75.26039,15.24046],[75.25787,15.24243],[75.25369,15.24605],[75.24826,15.25027],[75.24878,15.25133],[75.24883,15.25191],[75.24652,15.2519],[75.24649,15.25311],[75.24818,15.25332],[75.24849,15.25262],[75.24997,15.25302]]]}},{"type":"Feature","bbox":[75.22222,15.24024,75.258,15.26087],"properties":{"ward":19},"geometry":{"type":"Polygon","coordinates":[[[75.24298,15.25921],[75.24343,15.25878],[75.24361,15.25837],[75.24429,15.25505],[75.24433,15.25292],[75.24448,15.25248],[75.24493,15.25216],[75.24594,15.2518],[75.24883,15.25191],[75.24878,15.25133],[75.24826,15.25027],[75.25369,15.24605],[75.25787,15.24243],[75.258,15.24024],[75.24986,15.24025],[75.24987,15.24108],[75.24347,15.24127],[75.24371,15.24236],[75.2382,15.24214],[75.23819,15.24312],[75.23165,15.24239],[75.23167,15.24261],[75.22885,15.24249],[75.22876,15.24331],[75.22731,15.24325],[75.22653,15.2469],[75.22515,15.24659],[75.22477,15.2515],[75.22232,15.25139],[75.22222,15.25393],[75.22273,15.25401],[75.22287,15.25685],[75.22368,15.25688],[75.22394,15.26005],[75.22433,15.25993],[75.2242,15.26087],[75.22925,15.26028],[75.23074,15.26027],[75.23027,15.26051],[75.2302,15.2607],[75.23405,15.26052],[75.24096,15.25984],[75.2423,15.25955],[75.24298,15.25921]]]}}]}