{"type":"FeatureCollection","features":[{"type":"Feature","bbox":[75.69877,15.6991,75.73079,15.73483],"properties":{"ward":1},"geometry":{"type":"Polygon","coordinates":[[[75.73079,15.70594],[75.73064,15.70241],[75.73042,15.70197],[75.7299,15.70155],[75.72977,15.70114],[75.72984,15.69957],[75.72532,15.69991],[75.72389,15.6995],[75.72225,15.69929],[75.70919,15.6991],[75.70376,15.69927],[75.7011,15.69956],[75.70121,15.70178],[75.70093,15.7033],[75.70038,15.70519],[75.69937,15.70756],[75.69909,15.70781],[75.69888,15.70887],[75.69877,15.71332],[75.69973,15.7196],[75.69941,15.7208],[75.69979,15.7206],[75.70194,15.7309],[75.70469,15.73119],[75.71249,15.73151],[75.72232,15.73289],[75.72437,15.73329],[75.72449,15.73483],[75.72612,15.73074],[75.72727,15.72299],[75.72803,15.72014],[75.72833,15.71775],[75.72847,15.71474],[75.72909,15.71214],[75.73022,15.70971],[75.73079,15.70594]]]}},{"type":"Feature","bbox":[75.72984,15.69879,75.7317,15.70188],"properties":{"ward":2},"geometry":{"type":"Polygon","coordinates":[[[75.7317,15.70141],[75.73137,15.70112],[75.73113,15.70109],[75.73092,15.70126],[75.73052,15.70118],[75.73074,15.69879],[75.72984,15.69957],[75.72984,15.70144],[75.73023,15.70176],[75.73132,15.70188],[75.73166,15.70186],[75.7317,15.70141]]]}},{"type":"Feature","bbox":[75.73046,15.6982,75.73174,15.70126],"properties":{"ward":3},"geometry":{"type":"Polygon","coordinates":[[[75.73157,15.70118],[75.73145,15.70065],[75.73119,15.70047],[75.7313,15.69937],[75.73174,15.69918],[75.73171,15.6982],[75.73074,15.69879],[75.73074,15.69969],[75.73046,15.7009],[75.73062,15.70123],[75.73092,15.70126],[75.73115,15.70109],[75.73157,15.70118]]]}},{"type":"Feature","bbox":[75.73119,15.69801,75.73306,15.70141],"properties":{"ward":4},"geometry":{"type":"Polygon","coordinates":[[[75.73204,15.69905],[75.73306,15.69831],[75.7321,15.69801],[75.73171,15.6982],[75.73174,15.69918],[75.7313,15.69937],[75.73119,15.70047],[75.73146,15.70067],[75.73159,15.7014],[75.73184,15.70141],[75.73172,15.7012],[75.73185,15.70035],[75.73169,15.69979],[75.73204,15.69905]]]}},{"type":"Feature","bbox":[75.73169,15.69877,75.73293,15.70196],"properties":{"ward":5},"geometry":{"type":"Polygon","coordinates":[[[75.73253,15.69877],[75.73204,15.69905],[75.73169,15.69979],[75.73185,15.70035],[75.73172,15.7012],[75.73184,15.70122],[75.73185,15.70147],[75.73235,15.70148],[75.73236,15.7019],[75.73272,15.70196],[75.73273,15.70162],[75.73256,15.70163],[75.73247,15.70135],[75.73293,15.70106],[75.73279,15.70058],[75.7329,15.69958],[75.7328,15.69911],[75.73253,15.69877]]]}},{"type":"Feature","bbox":[75.73247,15.69841,75.73374,15.70196],"properties":{"ward":6},"geometry":{"type":"Polygon","coordinates":[[[75.73371,15.70186],[75.73363,15.70096],[75.73342,15.70088],[75.73333,15.70054],[75.73348,15.70045],[75.73333,15.6993],[75.73374,15.69918],[75.73367,15.69877],[75.73314,15.69884],[75.73293,15.69841],[75.73253,15.69877],[75.73285,15.69924],[75.73292,15.70022],[75.73279,15.70058],[75.73293,15.70106],[75.73247,15.70137],[75.73256,15.70163],[75.73273,15.70162],[75.73272,15.70196],[75.73371,15.70186]]]}},{"type":"Feature","bbox":[75.73293,15.69807,75.73478,15.70096],"properties":{"ward":7},"geometry":{"type":"Polygon","coordinates":[[[75.73478,15.70065],[75.73476,15.70007],[75.73438,15.70007],[75.73426,15.69982],[75.7342,15.69872],[75.73396,15.69807],[75.73306,15.69831],[75.73293,15.69841],[75.73303,15.69872],[75.73314,15.69884],[75.73366,15.69876],[75.73374,15.69916],[75.73333,15.6993],[75.73342,15.70088],[75.73363,15.70096],[75.73368,15.70082],[75.73478,15.70065]]]}},{"type":"Feature","bbox":[75.73396,15.6977,75.73549,15.70065],"properties":{"ward":8},"geometry":{"type":"Polygon","coordinates":[[[75.73518,15.6977],[75.73396,15.69807],[75.7342,15.69872],[75.73426,15.69982],[75.73438,15.70007],[75.73476,15.70007],[75.73478,15.70065],[75.73509,15.70058],[75.73549,15.69965],[75.73528,15.69949],[75.73482,15.69957],[75.73461,15.6991],[75.73525,15.69906],[75.73543,15.69878],[75.73518,15.6977]]]}},{"type":"Feature","bbox":[75.73365,15.6977,75.73663,15.70191],"properties":{"ward":9},"geometry":{"type":"Polygon","coordinates":[[[75.73592,15.70157],[75.73646,15.70044],[75.73663,15.69892],[75.73584,15.69794],[75.73518,15.6977],[75.73543,15.69878],[75.73525,15.69906],[75.73461,15.6991],[75.73482,15.69957],[75.73528,15.69949],[75.73549,15.69965],[75.73506,15.7006],[75.73365,15.70084],[75.73371,15.70186],[75.73553,15.70191],[75.73592,15.70157]]]}},{"type":"Feature","bbox":[75.73023,15.70141,75.73553,15.70459],"properties":{"ward":10},"geometry":{"type":"Polygon","coordinates":[[[75.73553,15.70191],[75.73274,15.70196],[75.73236,15.7019],[75.73235,15.70148],[75.7317,15.70141],[75.73165,15.70187],[75.73023,15.70176],[75.73064,15.70241],[75.7308,15.70459],[75.73255,15.70367],[75.73261,15.70252],[75.73339,15.70258],[75.73394,15.70297],[75.73476,15.70257],[75.73553,15.70191]]]}},{"type":"Feature","bbox":[75.72449,15.70157,75.76763,15.73763],"properties":{"ward":11},"geometry":{"type":"Polygon","coordinates":[[[75.76763,15.71722],[75.76522,15.71645],[75.76529,15.71597],[75.75841,15.71515],[75.7557,15.71419],[75.75513,15.71385],[75.75317,15.71204],[75.75039,15.71031],[75.74887,15.709],[75.74725,15.70791],[75.74368,15.70571],[75.73742,15.70251],[75.73659,15.70173],[75.73592,15.70157],[75.73476,15.70257],[75.73394,15.70297],[75.73339,15.70258],[75.73261,15.70252],[75.73255,15.70367],[75.7308,15.70459],[75.73079,15.70594],[75.73022,15.70971],[75.72909,15.71214],[75.72847,15.71474],[75.72833,15.71775],[75.72803,15.72014],[75.72727,15.72299],[75.72612,15.73074],[75.72449,15.73492],[75.73533,15.73647],[75.74153,15.73684],[75.7415,15.73763],[75.7439,15.73752],[75.75267,15.73658],[75.75423,15.73665],[75.75619,15.73639],[75.7611,15.73617],[75.76422,15.73553],[75.76445,15.73379],[75.76461,15.72978],[75.76763,15.71722]]]}},{"type":"Feature","bbox":[75.73592,15.69892,75.73854,15.70286],"properties":{"ward":12},"geometry":{"type":"Polygon","coordinates":[[[75.73835,15.69959],[75.73663,15.69892],[75.73646,15.70044],[75.73592,15.70157],[75.73668,15.70177],[75.73719,15.70236],[75.73823,15.70286],[75.73831,15.70114],[75.73854,15.70039],[75.73827,15.70035],[75.73835,15.69959]]]}},{"type":"Feature","bbox":[75.73823,15.69959,75.73962,15.70333],"properties":{"ward":13},"geometry":{"type":"Polygon","coordinates":[[[75.73962,15.70004],[75.73835,15.69959],[75.73827,15.70035],[75.73854,15.70039],[75.73831,15.70114],[75.73823,15.70286],[75.73908,15.70333],[75.73962,15.70004]]]}},{"type":"Feature","bbox":[75.73908,15.70004,75.74148,15.70425],"properties":{"ward":14},"geometry":{"type":"Polygon","coordinates":[[[75.74125,15.70057],[75.73962,15.70004],[75.73908,15.70333],[75.7409,15.70425],[75.74148,15.70161],[75.7412,15.70142],[75.74125,15.70057]]]}},{"type":"Feature","bbox":[75.7409,15.699,75.77025,15.71722],"properties":{"ward":15},"geometry":{"type":"Polygon","coordinates":[[[75.77025,15.70711],[75.76926,15.70725],[75.76569,15.70669],[75.75311,15.70174],[75.75031,15.70121],[75.74879,15.70141],[75.74868,15.70179],[75.74804,15.70152],[75.74611,15.70165],[75.74649,15.69952],[75.74305,15.69918],[75.74277,15.69929],[75.74252,15.69925],[75.74252,15.69905],[75.74204,15.699],[75.74178,15.70034],[75.74132,15.70022],[75.7412,15.70142],[75.74148,15.70161],[75.7409,15.70425],[75.74482,15.70638],[75.74852,15.70874],[75.75039,15.71031],[75.75317,15.71204],[75.75534,15.71401],[75.75841,15.71515],[75.76529,15.71597],[75.76522,15.71645],[75.76763,15.71722],[75.77025,15.70711]]]}},{"type":"Feature","bbox":[75.73651,15.69341,75.77042,15.70725],"properties":{"ward":16},"geometry":{"type":"Polygon","coordinates":[[[75.77025,15.70711],[75.77042,15.70554],[75.77005,15.7021],[75.7681,15.70243],[75.76653,15.69341],[75.76287,15.69454],[75.75922,15.69535],[75.75888,15.69556],[75.75859,15.69625],[75.75794,15.69679],[75.74988,15.69767],[75.74192,15.6979],[75.73877,15.69856],[75.73874,15.69673],[75.73821,15.69567],[75.73778,15.69584],[75.73728,15.69687],[75.73723,15.69832],[75.73761,15.69906],[75.73651,15.69869],[75.73681,15.69909],[75.74123,15.70058],[75.74134,15.70021],[75.74178,15.70034],[75.74204,15.699],[75.74252,15.69905],[75.74252,15.69925],[75.74277,15.69929],[75.74305,15.69918],[75.74649,15.69952],[75.74611,15.70165],[75.74804,15.70152],[75.74868,15.70179],[75.74879,15.70141],[75.75031,15.70121],[75.75311,15.70174],[75.76569,15.70669],[75.76926,15.70725],[75.77025,15.70711]]]}},{"type":"Feature","bbox":[75.73495,15.69685,75.73761,15.69906],"properties":{"ward":17},"geometry":{"type":"Polygon","coordinates":[[[75.73718,15.69757],[75.7368,15.69759],[75.73682,15.6974],[75.73607,15.69721],[75.73605,15.69685],[75.73546,15.69685],[75.73495,15.69718],[75.73513,15.6977],[75.7357,15.69783],[75.73651,15.69869],[75.73761,15.69906],[75.73723,15.69832],[75.73718,15.69757]]]}},{"type":"Feature","bbox":[75.73546,15.69605,75.73762,15.69759],"properties":{"ward":18},"geometry":{"type":"Polygon","coordinates":[[[75.73718,15.69757],[75.73738,15.6965],[75.73762,15.69618],[75.73661,15.69622],[75.73613,15.69605],[75.73546,15.69685],[75.73605,15.69685],[75.73607,15.69721],[75.73682,15.6974],[75.7368,15.69759],[75.73718,15.69757]]]}},{"type":"Feature","bbox":[75.73303,15.63686,75.7553,15.69718],"properties":{"ward":19},"geometry":{"type":"Polygon","coordinates":[[[75.73546,15.69685],[75.74093,15.6908],[75.74279,15.68947],[75.7435,15.68846],[75.74616,15.6835],[75.74748,15.68003],[75.74878,15.67731],[75.75012,15.67367],[75.75253,15.6688],[75.75317,15.66665],[75.75397,15.66496],[75.75471,15.66236],[75.7553,15.6615],[75.75246,15.66054],[75.75288,15.6567],[75.75346,15.65417],[75.75355,15.65228],[75.75485,15.64529],[75.75511,15.64167],[75.7549,15.63735],[75.74709,15.63686],[75.7452,15.64321],[75.74481,15.64736],[75.74335,15.65645],[75.74297,15.66034],[75.73962,15.67756],[75.738,15.68301],[75.73747,15.68569],[75.73648,15.68769],[75.73523,15.69242],[75.73404,15.69258],[75.73381,15.69369],[75.73303,15.69575],[75.73349,15.69603],[75.73463,15.696],[75.73495,15.69718],[75.73546,15.69685]]]}},{"type":"Feature","bbox":[75.73613,15.64167,75.77309,15.69856],"properties":{"ward":20},"geometry":{"type":"Polygon","coordinates":[[[75.76653,15.69341],[75.76642,15.69291],[75.76897,15.69231],[75.76888,15.68896],[75.76912,15.68511],[75.76821,15.68449],[75.76769,15.68382],[75.76708,15.68367],[75.76723,15.68306],[75.76749,15.67823],[75.76785,15.67699],[75.76818,15.67482],[75.76853,15.67395],[75.76886,15.67028],[75.76952,15.667],[75.77181,15.66734],[75.77256,15.6634],[75.77309,15.65931],[75.77125,15.65834],[75.76789,15.65569],[75.76598,15.65409],[75.76345,15.65144],[75.76162,15.65055],[75.75853,15.64595],[75.75511,15.64167],[75.75485,15.64529],[75.75355,15.65228],[75.75346,15.65417],[75.75288,15.6567],[75.75246,15.66054],[75.7553,15.6615],[75.75471,15.66236],[75.75397,15.66496],[75.75317,15.66665],[75.75253,15.6688],[75.75012,15.67367],[75.74878,15.67731],[75.74748,15.68003],[75.74616,15.6835],[75.7435,15.68846],[75.74279,15.68947],[75.74093,15.6908],[75.73613,15.69605],[75.73661,15.69622],[75.73762,15.69618],[75.73782,15.6958],[75.73821,15.69567],[75.73874,15.69673],[75.73877,15.69856],[75.74192,15.6979],[75.75036,15.69763],[75.75794,15.69679],[75.75859,15.69625],[75.75888,15.69556],[75.75922,15.69535],[75.76287,15.69454],[75.76653,15.69341]]]}},{"type":"Feature","bbox":[75.72993,15.69568,75.73513,15.69831],"properties":{"ward":21},"geometry":{"type":"Polygon","coordinates":[[[75.73306,15.69831],[75.73513,15.6977],[75.7346,15.69598],[75.73349,15.69603],[75.73287,15.69568],[75.7327,15.69583],[75.72993,15.6958],[75.73125,15.69728],[75.73229,15.69813],[75.73306,15.69831]]]}},{"type":"Feature","bbox":[75.726,15.63489,75.74709,15.6958],"properties":{"ward":22},"geometry":{"type":"Polygon","coordinates":[[[75.73303,15.69575],[75.73381,15.69369],[75.73404,15.69258],[75.73523,15.69242],[75.73648,15.68769],[75.73747,15.68569],[75.738,15.68301],[75.73962,15.67756],[75.74297,15.66034],[75.74335,15.65645],[75.74481,15.64736],[75.7452,15.64321],[75.74709,15.63686],[75.73457,15.63553],[75.73202,15.63489],[75.72927,15.63501],[75.72827,15.64335],[75.72832,15.64476],[75.7277,15.64478],[75.72768,15.64649],[75.72814,15.64782],[75.72843,15.65015],[75.72871,15.65074],[75.73256,15.65657],[75.73289,15.6586],[75.73402,15.66197],[75.73441,15.66958],[75.73461,15.67068],[75.73496,15.67143],[75.73407,15.67322],[75.73394,15.6738],[75.73296,15.6755],[75.7324,15.67766],[75.73172,15.67935],[75.73094,15.67996],[75.72995,15.6803],[75.7294,15.6827],[75.72871,15.68396],[75.7285,15.68533],[75.72779,15.6864],[75.72744,15.68725],[75.72671,15.68803],[75.72677,15.69016],[75.726,15.69214],[75.72821,15.69393],[75.72993,15.6958],[75.73303,15.69575]]]}},{"type":"Feature","bbox":[75.69903,15.63465,75.73496,15.69991],"properties":{"ward":23},"geometry":{"type":"Polygon","coordinates":[[[75.72984,15.69957],[75.73125,15.69844],[75.7321,15.69801],[75.73125,15.69728],[75.72821,15.69393],[75.726,15.69214],[75.72677,15.69016],[75.72667,15.68818],[75.72744,15.68725],[75.72779,15.6864],[75.7285,15.68533],[75.72871,15.68396],[75.7294,15.6827],[75.72995,15.6803],[75.73094,15.67996],[75.73172,15.67935],[75.7324,15.67766],[75.73296,15.6755],[75.73394,15.6738],[75.73407,15.67322],[75.73496,15.67143],[75.73461,15.67068],[75.73441,15.66958],[75.73402,15.66197],[75.73289,15.6586],[75.73256,15.65657],[75.72871,15.65074],[75.72843,15.65015],[75.72814,15.64782],[75.72768,15.64649],[75.7277,15.64478],[75.72832,15.64476],[75.72827,15.64335],[75.72927,15.63501],[75.72446,15.63465],[75.72426,15.63592],[75.7235,15.63705],[75.72277,15.63778],[75.72114,15.63865],[75.7199,15.64002],[75.71963,15.64106],[75.72021,15.64188],[75.72014,15.64215],[75.72038,15.64244],[75.71925,15.6465],[75.71459,15.64765],[75.7123,15.64797],[75.71052,15.64801],[75.71015,15.65543],[75.70847,15.66479],[75.707,15.66631],[75.70657,15.66752],[75.7012,15.66869],[75.70023,15.66911],[75.69949,15.66917],[75.69916,15.67083],[75.69903,15.67783],[75.70038,15.67791],[75.70333,15.67851],[75.71049,15.67954],[75.71145,15.67989],[75.71274,15.68087],[75.71489,15.68177],[75.71623,15.6827],[75.71996,15.68596],[75.71878,15.69017],[75.71727,15.69305],[75.71479,15.69916],[75.72225,15.69929],[75.72389,15.6995],[75.72532,15.69991],[75.72984,15.69957]]]}}]}