{"type":"FeatureCollection","features":[{"type":"Feature","bbox":[76.11951,15.30631,76.15429,15.3393],"properties":{"ward":1},"geometry":{"type":"Polygon","coordinates":[[[76.14897,15.33465],[76.15264,15.33544],[76.15244,15.33661],[76.15246,15.33741],[76.15376,15.33753],[76.15377,15.3354],[76.15429,15.33293],[76.15392,15.33149],[76.15335,15.33147],[76.15326,15.33072],[76.15296,15.3307],[76.15364,15.3254],[76.15356,15.32139],[76.15367,15.32101],[76.15341,15.32139],[76.15315,15.32135],[76.1518,15.32068],[76.15141,15.3198],[76.14968,15.32003],[76.14969,15.3202],[76.1486,15.32035],[76.14806,15.31961],[76.14724,15.31974],[76.14736,15.31967],[76.14716,15.3192],[76.14454,15.31973],[76.14394,15.31721],[76.14323,15.3162],[76.14268,15.31407],[76.14111,15.30974],[76.13638,15.3102],[76.13634,15.31003],[76.13329,15.31053],[76.12933,15.3108],[76.12905,15.30826],[76.12797,15.30845],[76.12755,15.30631],[76.12402,15.30638],[76.12007,15.30683],[76.11976,15.31],[76.11989,15.31179],[76.11982,15.31364],[76.11951,15.31546],[76.11967,15.31709],[76.11958,15.31783],[76.12208,15.31795],[76.1229,15.31847],[76.12341,15.31846],[76.12725,15.31973],[76.12818,15.32045],[76.12977,15.32093],[76.13228,15.32121],[76.1354,15.32093],[76.13552,15.32112],[76.13598,15.32122],[76.13607,15.3216],[76.13583,15.32187],[76.13636,15.32248],[76.13492,15.32383],[76.13167,15.32595],[76.13168,15.32679],[76.131,15.32937],[76.12965,15.32924],[76.12999,15.33271],[76.13034,15.33342],[76.13029,15.33491],[76.13245,15.33565],[76.13511,15.3371],[76.13602,15.33675],[76.13722,15.3366],[76.13815,15.33619],[76.13941,15.33503],[76.14224,15.33352],[76.14285,15.3339],[76.14334,15.33458],[76.1434,15.33557],[76.14194,15.33637],[76.14077,15.33768],[76.1409,15.33816],[76.14368,15.3393],[76.1459,15.33716],[76.14594,15.33627],[76.14647,15.33547],[76.14757,15.33569],[76.14817,15.33564],[76.14897,15.33465]]]}},{"type":"Feature","bbox":[76.15246,15.33741,76.15391,15.3396],"properties":{"ward":2},"geometry":{"type":"Polygon","coordinates":[[[76.15391,15.33952],[76.15376,15.33753],[76.15246,15.33741],[76.15278,15.3396],[76.15391,15.33952]]]}},{"type":"Feature","bbox":[76.15296,15.32046,76.2046,15.34227],"properties":{"ward":3},"geometry":{"type":"Polygon","coordinates":[[[76.2046,15.33226],[76.20431,15.33098],[76.20406,15.32845],[76.20144,15.32749],[76.20063,15.32738],[76.20086,15.32645],[76.20075,15.32616],[76.19792,15.32654],[76.19709,15.32625],[76.19351,15.32632],[76.18515,15.32832],[76.18142,15.32973],[76.17672,15.33306],[76.17028,15.33459],[76.16953,15.33441],[76.16862,15.33444],[76.16854,15.3326],[76.16796,15.33151],[76.16787,15.32727],[76.16869,15.32512],[76.16872,15.32468],[76.1649,15.32483],[76.16511,15.32386],[76.16478,15.32366],[76.16406,15.32333],[76.16163,15.32312],[76.162,15.32148],[76.16018,15.32206],[76.15995,15.32046],[76.15367,15.32101],[76.15357,15.32132],[76.15364,15.3254],[76.15296,15.3307],[76.15326,15.33072],[76.15335,15.33147],[76.15392,15.33149],[76.15429,15.33293],[76.15375,15.33557],[76.15391,15.33952],[76.15551,15.33948],[76.15895,15.3398],[76.15979,15.34047],[76.16322,15.34125],[76.17267,15.34082],[76.17579,15.34091],[76.17935,15.34122],[76.18069,15.34111],[76.18363,15.3417],[76.18485,15.34227],[76.18722,15.34217],[76.18823,15.34194],[76.18998,15.34095],[76.19178,15.33963],[76.19241,15.33971],[76.19596,15.33712],[76.19522,15.33632],[76.19755,15.33531],[76.19849,15.33437],[76.1996,15.33426],[76.19932,15.33387],[76.20159,15.33272],[76.2046,15.33226]]]}},{"type":"Feature","bbox":[76.15513,15.33946,76.1596,15.34179],"properties":{"ward":4},"geometry":{"type":"Polygon","coordinates":[[[76.15739,15.34171],[76.1576,15.34111],[76.15757,15.34072],[76.15796,15.34046],[76.15798,15.3403],[76.15828,15.34019],[76.1596,15.34035],[76.15895,15.3398],[76.15513,15.33946],[76.15542,15.34179],[76.15655,15.34156],[76.15739,15.34171]]]}},{"type":"Feature","bbox":[76.1521,15.33952,76.15408,15.3415],"properties":{"ward":5},"geometry":{"type":"Polygon","coordinates":[[[76.15408,15.34147],[76.15391,15.33952],[76.1521,15.33966],[76.15259,15.34125],[76.15359,15.34119],[76.15364,15.3415],[76.15408,15.34147]]]}},{"type":"Feature","bbox":[76.15092,15.33503,76.15278,15.33963],"properties":{"ward":6},"geometry":{"type":"Polygon","coordinates":[[[76.15278,15.3396],[76.15245,15.3378],[76.15244,15.33661],[76.15264,15.33544],[76.15092,15.33503],[76.15094,15.33629],[76.15131,15.33656],[76.15173,15.33828],[76.15254,15.33963],[76.15278,15.3396]]]}},{"type":"Feature","bbox":[76.13511,15.33352,76.15254,15.34204],"properties":{"ward":7},"geometry":{"type":"Polygon","coordinates":[[[76.15138,15.3396],[76.15254,15.33963],[76.15173,15.33828],[76.15131,15.33656],[76.15094,15.33629],[76.15092,15.33503],[76.14925,15.33466],[76.14888,15.33467],[76.14817,15.33564],[76.14757,15.33569],[76.14647,15.33547],[76.14594,15.33627],[76.1459,15.33716],[76.14368,15.3393],[76.1409,15.33816],[76.14077,15.33768],[76.14194,15.33637],[76.1434,15.33557],[76.14334,15.33458],[76.14285,15.3339],[76.14224,15.33352],[76.13941,15.33503],[76.13815,15.33619],[76.13722,15.3366],[76.13602,15.33675],[76.13511,15.3371],[76.13832,15.33941],[76.1404,15.34008],[76.14229,15.34121],[76.14445,15.34204],[76.14615,15.34121],[76.14618,15.34085],[76.14576,15.34009],[76.14621,15.33885],[76.14688,15.33785],[76.14722,15.33802],[76.14785,15.33767],[76.14977,15.33712],[76.14976,15.33673],[76.14996,15.33662],[76.15061,15.33649],[76.15094,15.33669],[76.15136,15.33866],[76.15161,15.339],[76.15163,15.33929],[76.15138,15.33933],[76.15138,15.3396]]]}},{"type":"Feature","bbox":[76.14445,15.33649,76.15164,15.34312],"properties":{"ward":8},"geometry":{"type":"Polygon","coordinates":[[[76.14945,15.34249],[76.14949,15.34197],[76.15036,15.34019],[76.15114,15.34015],[76.15135,15.33989],[76.15138,15.33933],[76.15164,15.33926],[76.15158,15.33881],[76.15136,15.33866],[76.15102,15.33688],[76.15061,15.33649],[76.1498,15.33669],[76.14977,15.33712],[76.14785,15.33767],[76.14722,15.33802],[76.14688,15.33785],[76.14621,15.33885],[76.14576,15.34009],[76.14618,15.34085],[76.14615,15.34121],[76.14445,15.34204],[76.14807,15.34312],[76.14846,15.34308],[76.14855,15.34223],[76.14912,15.34256],[76.14945,15.34249]]]}},{"type":"Feature","bbox":[76.14945,15.3396,76.1529,15.34291],"properties":{"ward":9},"geometry":{"type":"Polygon","coordinates":[[[76.15194,15.34291],[76.1529,15.34189],[76.1521,15.33966],[76.15138,15.3396],[76.15112,15.34016],[76.15036,15.34019],[76.14949,15.34197],[76.14945,15.34249],[76.14965,15.34233],[76.15007,15.34236],[76.15115,15.3428],[76.15194,15.34291]]]}},{"type":"Feature","bbox":[76.1518,15.34119,76.15421,15.34449],"properties":{"ward":10},"geometry":{"type":"Polygon","coordinates":[[[76.15335,15.34395],[76.15381,15.34285],[76.15421,15.34284],[76.15408,15.34147],[76.15364,15.3415],[76.15359,15.34119],[76.15259,15.34125],[76.1529,15.34195],[76.15194,15.34291],[76.15201,15.34329],[76.1518,15.34449],[76.1528,15.34391],[76.15335,15.34395]]]}},{"type":"Feature","bbox":[76.15391,15.33946,76.15545,15.34487],"properties":{"ward":11},"geometry":{"type":"Polygon","coordinates":[[[76.15545,15.34303],[76.15513,15.33946],[76.15391,15.33952],[76.15421,15.34289],[76.15404,15.34479],[76.15522,15.34487],[76.15519,15.3437],[76.15545,15.34303]]]}},{"type":"Feature","bbox":[76.15542,15.34156,76.15914,15.34382],"properties":{"ward":12},"geometry":{"type":"Polygon","coordinates":[[[76.15823,15.34191],[76.15655,15.34156],[76.15542,15.34179],[76.15545,15.34303],[76.1572,15.34314],[76.15731,15.34343],[76.15882,15.34382],[76.15914,15.34308],[76.15763,15.34278],[76.15823,15.34191]]]}},{"type":"Feature","bbox":[76.15519,15.34303,76.15882,15.34563],"properties":{"ward":13},"geometry":{"type":"Polygon","coordinates":[[[76.15862,15.34563],[76.15882,15.34382],[76.15731,15.34343],[76.1572,15.34314],[76.15545,15.34303],[76.15519,15.3437],[76.15522,15.34487],[76.15758,15.34522],[76.15844,15.34561],[76.15862,15.34563]]]}},{"type":"Feature","bbox":[76.15522,15.34487,76.15841,15.34696],"properties":{"ward":14},"geometry":{"type":"Polygon","coordinates":[[[76.1555,15.34696],[76.15841,15.3465],[76.1584,15.34559],[76.15758,15.34522],[76.15522,15.34487],[76.1555,15.34696]]]}},{"type":"Feature","bbox":[76.15351,15.34479,76.15553,15.34772],"properties":{"ward":15},"geometry":{"type":"Polygon","coordinates":[[[76.15553,15.34714],[76.15522,15.34487],[76.15404,15.34479],[76.15351,15.34772],[76.15446,15.34769],[76.15553,15.34714]]]}},{"type":"Feature","bbox":[76.15336,15.34714,76.15668,15.35125],"properties":{"ward":16},"geometry":{"type":"Polygon","coordinates":[[[76.15668,15.35044],[76.15588,15.34868],[76.15553,15.34714],[76.15446,15.34769],[76.15351,15.34772],[76.15336,15.34883],[76.15349,15.35125],[76.15668,15.35044]]]}},{"type":"Feature","bbox":[76.15219,15.34284,76.15421,15.34628],"properties":{"ward":17},"geometry":{"type":"Polygon","coordinates":[[[76.15382,15.34628],[76.15421,15.34289],[76.15383,15.34284],[76.15329,15.34407],[76.15219,15.34589],[76.15271,15.34615],[76.15382,15.34628]]]}},{"type":"Feature","bbox":[76.15096,15.34589,76.15382,15.34874],"properties":{"ward":18},"geometry":{"type":"Polygon","coordinates":[[[76.15336,15.34871],[76.15382,15.34628],[76.15271,15.34615],[76.15219,15.34589],[76.15096,15.34815],[76.15143,15.34831],[76.15194,15.34874],[76.15336,15.34871]]]}},{"type":"Feature","bbox":[76.1445,15.34223,76.15335,15.35025],"properties":{"ward":19},"geometry":{"type":"Polygon","coordinates":[[[76.14951,15.34875],[76.15087,15.34821],[76.15114,15.34796],[76.1516,15.34686],[76.15335,15.34395],[76.1528,15.34391],[76.1518,15.34449],[76.15201,15.34329],[76.15194,15.34291],[76.15115,15.3428],[76.15007,15.34236],[76.14965,15.34233],[76.14921,15.34258],[76.14855,15.34223],[76.14846,15.34308],[76.14829,15.34314],[76.14653,15.34266],[76.14531,15.34926],[76.14517,15.34964],[76.14463,15.34975],[76.1445,15.35009],[76.1446,15.35025],[76.14852,15.34887],[76.14916,15.34868],[76.14951,15.34875]]]}},{"type":"Feature","bbox":[76.14692,15.34815,76.15349,15.35238],"properties":{"ward":20},"geometry":{"type":"Polygon","coordinates":[[[76.15349,15.35125],[76.15336,15.34871],[76.15194,15.34874],[76.15143,15.34831],[76.15096,15.34815],[76.14927,15.34897],[76.14828,15.35036],[76.14692,15.35183],[76.1491,15.35238],[76.15349,15.35125]]]}},{"type":"Feature","bbox":[76.1445,15.34868,76.14951,15.35183],"properties":{"ward":21},"geometry":{"type":"Polygon","coordinates":[[[76.14951,15.34875],[76.14916,15.34868],[76.14852,15.34887],[76.1446,15.35025],[76.1445,15.35141],[76.14692,15.35183],[76.14951,15.34875]]]}},{"type":"Feature","bbox":[76.12324,15.33565,76.14653,15.35158],"properties":{"ward":22},"geometry":{"type":"Polygon","coordinates":[[[76.13639,15.35158],[76.1445,15.35141],[76.14454,15.34987],[76.14522,15.34956],[76.14653,15.34266],[76.14229,15.34121],[76.1404,15.34008],[76.13832,15.33941],[76.13511,15.3371],[76.13245,15.33565],[76.13154,15.3357],[76.13057,15.33597],[76.12919,15.33686],[76.12811,15.3367],[76.12767,15.33614],[76.12735,15.33677],[76.12708,15.33663],[76.12728,15.33765],[76.12793,15.33813],[76.12787,15.33919],[76.12554,15.33843],[76.12453,15.33872],[76.12324,15.34005],[76.124,15.34135],[76.12449,15.3433],[76.12484,15.34339],[76.12531,15.34485],[76.1237,15.34591],[76.12376,15.34625],[76.12644,15.3472],[76.12792,15.34815],[76.12962,15.34887],[76.13192,15.34881],[76.13306,15.3491],[76.13639,15.35158]]]}},{"type":"Feature","bbox":[76.12351,15.34668,76.14369,15.35618],"properties":{"ward":23},"geometry":{"type":"Polygon","coordinates":[[[76.14338,15.3514],[76.13639,15.35158],[76.13306,15.3491],[76.13192,15.34881],[76.12962,15.34887],[76.12792,15.34815],[76.12644,15.3472],[76.12467,15.34668],[76.12443,15.34837],[76.12407,15.34936],[76.12351,15.35001],[76.127,15.35226],[76.12946,15.35322],[76.1329,15.35618],[76.1359,15.35428],[76.1373,15.35379],[76.13863,15.35369],[76.14278,15.35392],[76.14281,15.35352],[76.14363,15.35358],[76.14369,15.35272],[76.14322,15.35265],[76.14338,15.3514]]]}},{"type":"Feature","bbox":[76.1329,15.3514,76.14895,15.36041],"properties":{"ward":24},"geometry":{"type":"Polygon","coordinates":[[[76.14743,15.3542],[76.14338,15.35389],[76.14342,15.3537],[76.14506,15.35364],[76.14856,15.35266],[76.14895,15.35239],[76.14502,15.35146],[76.14338,15.3514],[76.14322,15.35265],[76.14369,15.35272],[76.14363,15.35358],[76.14281,15.35352],[76.14278,15.35392],[76.13863,15.35369],[76.1373,15.35379],[76.1359,15.35428],[76.1329,15.35618],[76.13416,15.35762],[76.13518,15.35759],[76.13621,15.35782],[76.13641,15.35822],[76.13978,15.35995],[76.14147,15.36036],[76.14231,15.35983],[76.14311,15.35973],[76.14406,15.36041],[76.14743,15.3542]]]}},{"type":"Feature","bbox":[76.14339,15.35125,76.15463,15.35464],"properties":{"ward":25},"geometry":{"type":"Polygon","coordinates":[[[76.15349,15.35125],[76.14895,15.35239],[76.14856,15.35266],[76.14506,15.35364],[76.14342,15.3537],[76.14339,15.35392],[76.15463,15.35464],[76.15445,15.35314],[76.15385,15.35237],[76.15349,15.35125]]]}},{"type":"Feature","bbox":[76.14406,15.35044,76.16103,15.36052],"properties":{"ward":26},"geometry":{"type":"Polygon","coordinates":[[[76.16103,15.35865],[76.16037,15.35655],[76.15925,15.35494],[76.15844,15.35408],[76.15668,15.35044],[76.15349,15.35125],[76.15385,15.35237],[76.15445,15.35314],[76.15463,15.35464],[76.14743,15.3542],[76.14406,15.36041],[76.14441,15.36052],[76.14486,15.36017],[76.14662,15.36019],[76.14726,15.3599],[76.14804,15.35991],[76.14989,15.35932],[76.1509,15.35933],[76.1516,15.35849],[76.1523,15.35808],[76.16103,15.35865]]]}},{"type":"Feature","bbox":[76.15668,15.34947,76.16451,15.35451],"properties":{"ward":27},"geometry":{"type":"Polygon","coordinates":[[[76.16296,15.34947],[76.15993,15.34973],[76.15668,15.35044],[76.15813,15.35354],[76.15877,15.35451],[76.16451,15.35323],[76.16296,15.34947]]]}},{"type":"Feature","bbox":[76.15877,15.34689,76.19182,15.36016],"properties":{"ward":28},"geometry":{"type":"Polygon","coordinates":[[[76.18457,15.36016],[76.18727,15.35763],[76.18776,15.35626],[76.18969,15.35345],[76.19044,15.35193],[76.19074,15.35073],[76.1909,15.34954],[76.19026,15.34951],[76.19052,15.34888],[76.19122,15.34887],[76.19182,15.34784],[76.19181,15.34689],[76.19009,15.34691],[76.17867,15.34839],[76.16296,15.34947],[76.16451,15.35323],[76.15877,15.35451],[76.15925,15.35494],[76.16037,15.35655],[76.16067,15.35761],[76.16387,15.35715],[76.16308,15.35415],[76.16353,15.35385],[76.16481,15.35386],[76.16535,15.35512],[76.16812,15.35471],[76.16734,15.35775],[76.16946,15.35763],[76.16957,15.36016],[76.17421,15.35991],[76.17416,15.35876],[76.17962,15.35976],[76.18234,15.35963],[76.18457,15.36016]]]}},{"type":"Feature","bbox":[76.15584,15.33196,76.20985,15.35042],"properties":{"ward":29},"geometry":{"type":"Polygon","coordinates":[[[76.15993,15.34973],[76.17867,15.34839],[76.19009,15.34691],[76.19181,15.34689],[76.19188,15.34564],[76.19413,15.34619],[76.19546,15.34678],[76.19635,15.34689],[76.20436,15.34696],[76.20722,15.34737],[76.20726,15.34471],[76.2075,15.34241],[76.20929,15.33526],[76.20985,15.33221],[76.20683,15.33196],[76.20159,15.33272],[76.19932,15.33387],[76.1996,15.33426],[76.19849,15.33437],[76.19755,15.33531],[76.19522,15.33632],[76.19596,15.33712],[76.19241,15.33971],[76.19178,15.33963],[76.18998,15.34095],[76.18823,15.34194],[76.18722,15.34217],[76.18485,15.34227],[76.18363,15.3417],[76.18069,15.34111],[76.17935,15.34122],[76.17267,15.34082],[76.16416,15.34129],[76.1626,15.34114],[76.1596,15.34035],[76.15828,15.34019],[76.15798,15.3403],[76.15796,15.34046],[76.15757,15.34072],[76.1576,15.34111],[76.15739,15.34171],[76.15823,15.34191],[76.15763,15.34278],[76.15914,15.34308],[76.1587,15.34404],[76.15864,15.34542],[76.15949,15.34555],[76.16008,15.34686],[76.15841,15.34687],[76.15844,15.34814],[76.15584,15.34854],[76.15632,15.34963],[76.15675,15.35042],[76.15993,15.34973]]]}},{"type":"Feature","bbox":[76.1555,15.34671,76.15733,15.34854],"properties":{"ward":30},"geometry":{"type":"Polygon","coordinates":[[[76.15733,15.34829],[76.15707,15.34671],[76.1555,15.34696],[76.15584,15.34854],[76.15733,15.34829]]]}},{"type":"Feature","bbox":[76.15707,15.34542,76.16008,15.34829],"properties":{"ward":31},"geometry":{"type":"Polygon","coordinates":[[[76.15864,15.34542],[76.15862,15.34563],[76.1584,15.34559],[76.15841,15.3465],[76.15707,15.34671],[76.15733,15.34829],[76.15844,15.34814],[76.15841,15.34687],[76.16008,15.34686],[76.15949,15.34555],[76.15864,15.34542]]]}}]}