{"type":"FeatureCollection","features":[{"type":"Feature","bbox":[77.59785,14.69064,77.60487,14.70107],"properties":{"ward":1},"geometry":{"type":"Polygon","coordinates":[[[77.60348,14.69207],[77.60263,14.69119],[77.60232,14.69064],[77.60081,14.69128],[77.60043,14.69072],[77.59785,14.69191],[77.59932,14.69479],[77.60036,14.69727],[77.60062,14.69886],[77.60038,14.70077],[77.60089,14.70107],[77.60297,14.69991],[77.60365,14.69992],[77.60487,14.69896],[77.60432,14.69814],[77.60415,14.69743],[77.60383,14.69451],[77.60387,14.69412],[77.60416,14.69396],[77.60413,14.69329],[77.60348,14.69207]]]}},{"type":"Feature","bbox":[77.60192,14.6849,77.61696,14.70085],"properties":{"ward":2},"geometry":{"type":"Polygon","coordinates":[[[77.60263,14.69119],[77.60369,14.69228],[77.60413,14.69329],[77.60416,14.69396],[77.60385,14.69423],[77.60387,14.69566],[77.60432,14.69814],[77.60488,14.69895],[77.60516,14.69874],[77.60563,14.69884],[77.60589,14.70085],[77.6072,14.70009],[77.60795,14.70005],[77.60795,14.69972],[77.60976,14.69954],[77.6096,14.69759],[77.61026,14.69514],[77.61066,14.69521],[77.61092,14.69409],[77.61129,14.694],[77.61126,14.69233],[77.61647,14.69016],[77.61548,14.68838],[77.61694,14.68708],[77.61696,14.68582],[77.61613,14.68548],[77.61586,14.68615],[77.61467,14.68694],[77.6106,14.68724],[77.61009,14.6849],[77.60832,14.68515],[77.60756,14.68511],[77.60779,14.69311],[77.60637,14.69314],[77.60435,14.69253],[77.60234,14.69027],[77.60192,14.69049],[77.60208,14.69072],[77.60232,14.69064],[77.60263,14.69119]]]}},{"type":"Feature","bbox":[77.60122,14.68453,77.60779,14.69314],"properties":{"ward":3},"geometry":{"type":"Polygon","coordinates":[[[77.60625,14.685],[77.60508,14.68515],[77.60525,14.68747],[77.60122,14.68757],[77.60135,14.68827],[77.60243,14.69043],[77.60435,14.69253],[77.60637,14.69314],[77.60779,14.69311],[77.60754,14.68453],[77.60624,14.68464],[77.60625,14.685]]]}},{"type":"Feature","bbox":[77.59664,14.68736,77.60233,14.69191],"properties":{"ward":4},"geometry":{"type":"Polygon","coordinates":[[[77.59664,14.68793],[77.598,14.69063],[77.59733,14.69093],[77.59785,14.69191],[77.60043,14.69072],[77.60081,14.69128],[77.60208,14.69072],[77.60192,14.69049],[77.60233,14.69028],[77.60139,14.68843],[77.60122,14.68757],[77.59951,14.68761],[77.59913,14.68736],[77.59817,14.6874],[77.59732,14.68765],[77.59664,14.68793]]]}},{"type":"Feature","bbox":[77.59603,14.68112,77.60362,14.68765],"properties":{"ward":5},"geometry":{"type":"Polygon","coordinates":[[[77.60251,14.68756],[77.60262,14.68582],[77.60303,14.68583],[77.60303,14.68534],[77.60317,14.68532],[77.60314,14.68479],[77.60301,14.68481],[77.603,14.68447],[77.60277,14.68408],[77.60283,14.68346],[77.60362,14.68112],[77.60187,14.68228],[77.59958,14.68329],[77.59974,14.684],[77.59945,14.68529],[77.59623,14.68561],[77.59603,14.68603],[77.59688,14.68669],[77.59732,14.68765],[77.59817,14.6874],[77.59913,14.68736],[77.59951,14.68761],[77.60251,14.68756]]]}},{"type":"Feature","bbox":[77.60251,14.68219,77.60525,14.68756],"properties":{"ward":6},"geometry":{"type":"Polygon","coordinates":[[[77.60287,14.68441],[77.603,14.68447],[77.60301,14.68481],[77.60314,14.68479],[77.60317,14.68532],[77.60303,14.68534],[77.60303,14.68583],[77.60262,14.68582],[77.60251,14.68756],[77.60525,14.68747],[77.60501,14.68227],[77.60318,14.68219],[77.60283,14.68346],[77.60287,14.68441]]]}},{"type":"Feature","bbox":[77.60501,14.68212,77.60754,14.68515],"properties":{"ward":7},"geometry":{"type":"Polygon","coordinates":[[[77.60508,14.68515],[77.60625,14.685],[77.60624,14.68464],[77.60754,14.68453],[77.60752,14.68214],[77.60673,14.68212],[77.60672,14.68228],[77.60649,14.68229],[77.60501,14.68222],[77.60508,14.68515]]]}},{"type":"Feature","bbox":[77.60752,14.68204,77.61009,14.68515],"properties":{"ward":8},"geometry":{"type":"Polygon","coordinates":[[[77.61009,14.6849],[77.60959,14.68305],[77.60914,14.68307],[77.60888,14.68204],[77.60752,14.68214],[77.60756,14.68511],[77.60832,14.68515],[77.61009,14.6849]]]}},{"type":"Feature","bbox":[77.60962,14.68251,77.61735,14.68724],"properties":{"ward":9},"geometry":{"type":"Polygon","coordinates":[[[77.61248,14.68313],[77.61242,14.68288],[77.60962,14.68326],[77.6106,14.68724],[77.61467,14.68694],[77.61586,14.68615],[77.61613,14.68548],[77.61666,14.68568],[77.61735,14.68349],[77.6132,14.68251],[77.61277,14.68291],[77.61288,14.68315],[77.61248,14.68313]]]}},{"type":"Feature","bbox":[77.60752,14.67914,77.61316,14.68326],"properties":{"ward":10},"geometry":{"type":"Polygon","coordinates":[[[77.61242,14.68288],[77.61248,14.68322],[77.61288,14.68315],[77.61277,14.68291],[77.61316,14.68252],[77.61235,14.68204],[77.61183,14.68146],[77.61117,14.68048],[77.61058,14.67914],[77.60911,14.67929],[77.60923,14.68014],[77.60856,14.68026],[77.60866,14.68091],[77.60769,14.6811],[77.60752,14.68214],[77.60888,14.68204],[77.60914,14.68307],[77.60959,14.68305],[77.60962,14.68326],[77.61242,14.68288]]]}},{"type":"Feature","bbox":[77.60802,14.67662,77.61058,14.68026],"properties":{"ward":11},"geometry":{"type":"Polygon","coordinates":[[[77.60802,14.67697],[77.60856,14.68026],[77.60923,14.68014],[77.60911,14.67929],[77.61058,14.67914],[77.61042,14.67845],[77.61046,14.67662],[77.60802,14.67697]]]}},{"type":"Feature","bbox":[77.60626,14.67697,77.60866,14.68126],"properties":{"ward":12},"geometry":{"type":"Polygon","coordinates":[[[77.60626,14.68126],[77.60866,14.68091],[77.60802,14.67697],[77.60637,14.67719],[77.60656,14.67833],[77.60626,14.68126]]]}},{"type":"Feature","bbox":[77.60318,14.67931,77.60769,14.68229],"properties":{"ward":13},"geometry":{"type":"Polygon","coordinates":[[[77.60609,14.67992],[77.60409,14.67931],[77.60318,14.68219],[77.60649,14.68229],[77.60672,14.68228],[77.60673,14.68212],[77.60752,14.68214],[77.60769,14.6811],[77.60626,14.68126],[77.60631,14.68024],[77.60606,14.68021],[77.60609,14.67992]]]}},{"type":"Feature","bbox":[77.60409,14.67719,77.60656,14.68024],"properties":{"ward":14},"geometry":{"type":"Polygon","coordinates":[[[77.60606,14.68021],[77.60631,14.68024],[77.60656,14.67833],[77.60637,14.67719],[77.60509,14.67735],[77.60495,14.67798],[77.60454,14.67832],[77.60409,14.67931],[77.60609,14.67992],[77.60606,14.68021]]]}},{"type":"Feature","bbox":[77.59898,14.67735,77.60509,14.68323],"properties":{"ward":15},"geometry":{"type":"Polygon","coordinates":[[[77.59898,14.67965],[77.59972,14.68323],[77.60187,14.68228],[77.60362,14.68112],[77.60409,14.67931],[77.60454,14.67832],[77.60495,14.67798],[77.60509,14.67735],[77.60262,14.67762],[77.59898,14.67965]]]}},{"type":"Feature","bbox":[77.59292,14.67965,77.59974,14.69093],"properties":{"ward":16},"geometry":{"type":"Polygon","coordinates":[[[77.59972,14.68323],[77.59898,14.67965],[77.5962,14.68113],[77.59292,14.68215],[77.59725,14.6905],[77.59713,14.69055],[77.59733,14.69093],[77.598,14.69063],[77.59664,14.68793],[77.59732,14.68765],[77.59688,14.68669],[77.59603,14.68603],[77.59623,14.68561],[77.59945,14.68529],[77.59974,14.684],[77.59958,14.68329],[77.59972,14.68323]]]}},{"type":"Feature","bbox":[77.59478,14.67562,77.60034,14.68086],"properties":{"ward":17},"geometry":{"type":"Polygon","coordinates":[[[77.59563,14.6803],[77.59634,14.6801],[77.59675,14.68086],[77.60034,14.67889],[77.59823,14.67654],[77.59797,14.67562],[77.59478,14.67642],[77.59526,14.67907],[77.59563,14.6803]]]}},{"type":"Feature","bbox":[77.59209,14.67635,77.59675,14.68201],"properties":{"ward":18},"geometry":{"type":"Polygon","coordinates":[[[77.59575,14.68034],[77.5954,14.6797],[77.59478,14.67642],[77.5929,14.67635],[77.59286,14.67708],[77.59327,14.67862],[77.59209,14.67911],[77.59336,14.68201],[77.59675,14.68086],[77.59634,14.6801],[77.59575,14.68034]]]}},{"type":"Feature","bbox":[77.59062,14.67085,77.59371,14.68215],"properties":{"ward":19},"geometry":{"type":"Polygon","coordinates":[[[77.59134,14.67085],[77.59067,14.67484],[77.59062,14.67615],[77.59088,14.67772],[77.59119,14.6786],[77.59292,14.68215],[77.59336,14.68201],[77.59209,14.67911],[77.59327,14.67862],[77.59286,14.67708],[77.59289,14.67565],[77.59371,14.6716],[77.59362,14.67138],[77.59134,14.67085]]]}},{"type":"Feature","bbox":[77.59289,14.66843,77.60385,14.67889],"properties":{"ward":20},"geometry":{"type":"Polygon","coordinates":[[[77.59451,14.67649],[77.59797,14.67562],[77.59823,14.67654],[77.60034,14.67889],[77.60262,14.67762],[77.60371,14.6775],[77.60385,14.67667],[77.60384,14.67629],[77.60192,14.67654],[77.60114,14.67484],[77.60025,14.67178],[77.59867,14.66962],[77.59738,14.66868],[77.59725,14.66843],[77.59581,14.66903],[77.59386,14.66867],[77.5935,14.67135],[77.59371,14.6716],[77.59289,14.67565],[77.5929,14.67635],[77.59451,14.67649]]]}},{"type":"Feature","bbox":[77.60106,14.67386,77.60612,14.6775],"properties":{"ward":21},"geometry":{"type":"Polygon","coordinates":[[[77.60192,14.67654],[77.60384,14.67629],[77.60371,14.6775],[77.60524,14.67733],[77.60553,14.67626],[77.60612,14.67535],[77.60586,14.6745],[77.60521,14.67386],[77.60453,14.67438],[77.60398,14.67389],[77.60106,14.6746],[77.60192,14.67654]]]}},{"type":"Feature","bbox":[77.60523,14.67286,77.60884,14.67733],"properties":{"ward":22},"geometry":{"type":"Polygon","coordinates":[[[77.60523,14.67386],[77.60586,14.6745],[77.60612,14.67535],[77.60553,14.67626],[77.60524,14.67733],[77.60802,14.67697],[77.60783,14.67583],[77.60884,14.67286],[77.60762,14.67304],[77.60671,14.67349],[77.60593,14.67301],[77.60523,14.67386]]]}},{"type":"Feature","bbox":[77.60783,14.67193,77.61194,14.67697],"properties":{"ward":23},"geometry":{"type":"Polygon","coordinates":[[[77.61144,14.67316],[77.61061,14.67327],[77.61061,14.67341],[77.60857,14.67371],[77.60783,14.67583],[77.60802,14.67697],[77.61046,14.67662],[77.61146,14.67451],[77.61194,14.67199],[77.61167,14.67193],[77.61118,14.67221],[77.61144,14.67316]]]}},{"type":"Feature","bbox":[77.60541,14.66625,77.6121,14.67371],"properties":{"ward":24},"geometry":{"type":"Polygon","coordinates":[[[77.60701,14.66807],[77.6056,14.66816],[77.60575,14.67045],[77.60609,14.67044],[77.60616,14.67086],[77.60585,14.67187],[77.60541,14.67224],[77.60574,14.6729],[77.60671,14.67349],[77.60762,14.67304],[77.60884,14.67286],[77.60857,14.67371],[77.61144,14.67316],[77.61118,14.67221],[77.61167,14.67193],[77.61194,14.67199],[77.6121,14.67055],[77.61178,14.66999],[77.61088,14.66944],[77.61175,14.66682],[77.60963,14.66625],[77.6077,14.66681],[77.6078,14.6682],[77.60701,14.66807]]]}},{"type":"Feature","bbox":[77.60227,14.66816,77.60616,14.67366],"properties":{"ward":25},"geometry":{"type":"Polygon","coordinates":[[[77.60276,14.6708],[77.60387,14.67185],[77.60366,14.67244],[77.60381,14.67266],[77.60427,14.67252],[77.60528,14.67337],[77.6054,14.67366],[77.6059,14.67304],[77.60541,14.67224],[77.60585,14.67187],[77.60616,14.67086],[77.60609,14.67044],[77.60575,14.67045],[77.6056,14.66816],[77.60227,14.66878],[77.60276,14.6708]]]}},{"type":"Feature","bbox":[77.60028,14.67097,77.6054,14.6746],"properties":{"ward":26},"geometry":{"type":"Polygon","coordinates":[[[77.60271,14.67097],[77.60028,14.67183],[77.60106,14.6746],[77.60398,14.67389],[77.60453,14.67438],[77.6054,14.67366],[77.60528,14.67337],[77.60427,14.67252],[77.60381,14.67266],[77.60366,14.67244],[77.60387,14.67185],[77.60305,14.67105],[77.60271,14.67097]]]}},{"type":"Feature","bbox":[77.59855,14.66518,77.6078,14.67183],"properties":{"ward":27},"geometry":{"type":"Polygon","coordinates":[[[77.60458,14.6665],[77.60421,14.66518],[77.60021,14.6658],[77.60063,14.66806],[77.60017,14.66814],[77.60025,14.66855],[77.59855,14.66888],[77.59867,14.66962],[77.60028,14.67183],[77.60271,14.67097],[77.60227,14.66878],[77.60479,14.66822],[77.60701,14.66807],[77.6078,14.6682],[77.6077,14.66681],[77.60713,14.6656],[77.60458,14.6665]]]}},{"type":"Feature","bbox":[77.60421,14.66035,77.61193,14.66682],"properties":{"ward":28},"geometry":{"type":"Polygon","coordinates":[[[77.60421,14.66518],[77.60458,14.6665],[77.60713,14.6656],[77.6077,14.66681],[77.60963,14.66625],[77.61175,14.66682],[77.61193,14.663],[77.61167,14.66035],[77.61067,14.6606],[77.61049,14.66072],[77.61046,14.66112],[77.60887,14.66131],[77.60465,14.66225],[77.60514,14.66506],[77.60421,14.66518]]]}},{"type":"Feature","bbox":[77.61106,14.65424,77.61983,14.66787],"properties":{"ward":29},"geometry":{"type":"Polygon","coordinates":[[[77.61416,14.65629],[77.61106,14.65657],[77.61189,14.66186],[77.61182,14.66672],[77.61167,14.66704],[77.6121,14.66714],[77.61252,14.66787],[77.61579,14.66618],[77.61541,14.66565],[77.61675,14.66351],[77.61826,14.66371],[77.61983,14.66018],[77.61934,14.65753],[77.61631,14.65424],[77.61579,14.65583],[77.61409,14.65546],[77.61416,14.65629]]]}},{"type":"Feature","bbox":[77.60762,14.65304,77.61634,14.66131],"properties":{"ward":30},"geometry":{"type":"MultiPolygon","coordinates":[[[[77.61579,14.65583],[77.61634,14.65423],[77.61574,14.65357],[77.61443,14.65369],[77.61341,14.65304],[77.61238,14.65313],[77.61072,14.65419],[77.60762,14.65465],[77.60887,14.66131],[77.61046,14.66112],[77.61049,14.66072],[77.61067,14.6606],[77.61167,14.66035],[77.61106,14.65657],[77.61416,14.65629],[77.61409,14.65546],[77.61579,14.65583]]],[[[77.61634,14.65423],[77.61634,14.65423],[77.61634,14.65423],[77.61634,14.65423]]]]}},{"type":"Feature","bbox":[77.59854,14.65464,77.60887,14.6654],"properties":{"ward":31},"geometry":{"type":"Polygon","coordinates":[[[77.60481,14.65613],[77.60291,14.65653],[77.60363,14.65895],[77.60308,14.65906],[77.60341,14.6611],[77.60238,14.66138],[77.60246,14.66187],[77.60076,14.66219],[77.59894,14.66228],[77.599,14.6626],[77.59854,14.66273],[77.59878,14.66437],[77.59931,14.66428],[77.59941,14.66486],[77.60119,14.66449],[77.6013,14.66509],[77.60255,14.6649],[77.60261,14.6654],[77.60514,14.66506],[77.60465,14.66225],[77.60887,14.66131],[77.6076,14.65464],[77.60449,14.65506],[77.60481,14.65613]]]}},{"type":"Feature","bbox":[77.59484,14.65653,77.60363,14.66962],"properties":{"ward":32},"geometry":{"type":"Polygon","coordinates":[[[77.60083,14.65733],[77.59547,14.65743],[77.59484,14.65767],[77.59631,14.66601],[77.59738,14.66868],[77.59867,14.66962],[77.59855,14.66888],[77.60025,14.66855],[77.60017,14.66814],[77.60063,14.66806],[77.60021,14.6658],[77.60261,14.6654],[77.60255,14.6649],[77.6013,14.66509],[77.60119,14.66449],[77.59941,14.66486],[77.59931,14.66428],[77.59878,14.66437],[77.59854,14.66273],[77.599,14.6626],[77.59894,14.66228],[77.60076,14.66219],[77.60246,14.66187],[77.60238,14.66138],[77.60341,14.6611],[77.60308,14.65906],[77.60363,14.65895],[77.60291,14.65653],[77.60083,14.65733]]]}},{"type":"Feature","bbox":[77.59136,14.66463,77.59731,14.67135],"properties":{"ward":33},"geometry":{"type":"Polygon","coordinates":[[[77.59136,14.67076],[77.5935,14.67135],[77.59386,14.66867],[77.59581,14.66903],[77.59731,14.6684],[77.59631,14.66601],[77.59604,14.66463],[77.59224,14.66531],[77.59136,14.67076]]]}},{"type":"Feature","bbox":[77.59224,14.65767,77.59604,14.66531],"properties":{"ward":34},"geometry":{"type":"Polygon","coordinates":[[[77.59483,14.65767],[77.59343,14.65819],[77.59224,14.66531],[77.59604,14.66463],[77.59483,14.65767]]]}},{"type":"Feature","bbox":[77.58623,14.65799,77.5934,14.67076],"properties":{"ward":35},"geometry":{"type":"Polygon","coordinates":[[[77.58938,14.65906],[77.58741,14.65857],[77.58623,14.65799],[77.5863,14.66446],[77.58847,14.66442],[77.58864,14.66534],[77.5886,14.66714],[77.58746,14.66704],[77.5873,14.66969],[77.59136,14.67076],[77.5934,14.6582],[77.59235,14.65859],[77.59191,14.65815],[77.58938,14.65906]]]}},{"type":"Feature","bbox":[77.58239,14.65612,77.58864,14.66969],"properties":{"ward":36},"geometry":{"type":"Polygon","coordinates":[[[77.5827,14.66401],[77.58252,14.66833],[77.5873,14.66969],[77.58746,14.66704],[77.5886,14.66714],[77.58864,14.66534],[77.58847,14.66442],[77.5863,14.66446],[77.58624,14.65791],[77.58477,14.6562],[77.58386,14.65612],[77.58399,14.65735],[77.58332,14.6592],[77.58296,14.66189],[77.58247,14.66292],[77.58239,14.66391],[77.5827,14.66401]]]}},{"type":"Feature","bbox":[77.58075,14.66836,77.59136,14.67333],"properties":{"ward":37},"geometry":{"type":"Polygon","coordinates":[[[77.59136,14.67076],[77.58255,14.66836],[77.58259,14.66983],[77.58235,14.67009],[77.58082,14.66976],[77.58075,14.67002],[77.58082,14.67096],[77.58139,14.67333],[77.58275,14.67322],[77.58278,14.6725],[77.58321,14.67248],[77.58321,14.67215],[77.5836,14.67213],[77.58361,14.67327],[77.5846,14.6732],[77.58604,14.67273],[77.59057,14.67317],[77.59064,14.67263],[77.59101,14.67272],[77.59136,14.67076]]]}},{"type":"Feature","bbox":[77.5814,14.67213,77.59101,14.67687],"properties":{"ward":38},"geometry":{"type":"Polygon","coordinates":[[[77.58321,14.67215],[77.58321,14.67248],[77.58278,14.6725],[77.58275,14.67322],[77.5814,14.67333],[77.582,14.67656],[77.58341,14.67661],[77.5836,14.67646],[77.58496,14.67643],[77.58622,14.67655],[77.5862,14.67681],[77.58679,14.67687],[77.58687,14.67602],[77.59062,14.67607],[77.59101,14.67272],[77.59064,14.67263],[77.59057,14.67317],[77.58604,14.67273],[77.58405,14.6733],[77.58361,14.67327],[77.5836,14.67213],[77.58321,14.67215]]]}},{"type":"Feature","bbox":[77.58022,14.67354,77.59288,14.68367],"properties":{"ward":39},"geometry":{"type":"Polygon","coordinates":[[[77.58361,14.67652],[77.5834,14.67666],[77.58196,14.67659],[77.58128,14.67354],[77.58096,14.67413],[77.5811,14.67513],[77.58066,14.67613],[77.58077,14.67686],[77.58027,14.67687],[77.58022,14.67821],[77.58357,14.68044],[77.58491,14.68116],[77.58622,14.68149],[77.58687,14.68207],[77.58786,14.68367],[77.59288,14.68214],[77.59117,14.67863],[77.59086,14.67773],[77.59059,14.6761],[77.58687,14.67604],[77.58679,14.67689],[77.58617,14.67683],[77.58613,14.67656],[77.58361,14.67652]]]}},{"type":"Feature","bbox":[77.58009,14.67826,77.58783,14.68772],"properties":{"ward":40},"geometry":{"type":"Polygon","coordinates":[[[77.58022,14.68084],[77.58097,14.68772],[77.58348,14.68655],[77.58678,14.68424],[77.58783,14.68381],[77.58678,14.68211],[77.58614,14.68153],[77.58485,14.68121],[77.58381,14.68072],[77.58009,14.67826],[77.58022,14.68084]]]}},{"type":"Feature","bbox":[77.58096,14.68667,77.58929,14.69501],"properties":{"ward":41},"geometry":{"type":"Polygon","coordinates":[[[77.58096,14.68787],[77.58107,14.68957],[77.5817,14.69271],[77.58712,14.69501],[77.58849,14.69399],[77.58929,14.69365],[77.58924,14.69347],[77.58871,14.69333],[77.58851,14.69295],[77.58828,14.69197],[77.58832,14.69006],[77.58426,14.69015],[77.58351,14.68667],[77.58096,14.68787]]]}},{"type":"Feature","bbox":[77.58351,14.68378,77.58832,14.69015],"properties":{"ward":42},"geometry":{"type":"Polygon","coordinates":[[[77.58426,14.69015],[77.58832,14.69006],[77.58778,14.68872],[77.5872,14.68645],[77.58792,14.68378],[77.58725,14.68398],[77.58614,14.68466],[77.58351,14.68667],[77.58426,14.69015]]]}},{"type":"Feature","bbox":[77.58728,14.68339,77.59005,14.68708],"properties":{"ward":43},"geometry":{"type":"Polygon","coordinates":[[[77.58728,14.6859],[77.58736,14.68708],[77.58912,14.68662],[77.58892,14.68603],[77.59005,14.68564],[77.58895,14.68339],[77.58792,14.68378],[77.58743,14.68581],[77.58728,14.6859]]]}},{"type":"Feature","bbox":[77.58895,14.68243,77.59321,14.68564],"properties":{"ward":44},"geometry":{"type":"Polygon","coordinates":[[[77.58895,14.68339],[77.59005,14.68564],[77.59321,14.68462],[77.59211,14.68243],[77.58895,14.68339]]]}},{"type":"Feature","bbox":[77.59005,14.68215,77.59725,14.69097],"properties":{"ward":45},"geometry":{"type":"Polygon","coordinates":[[[77.59211,14.68243],[77.59321,14.68462],[77.59005,14.68564],[77.5903,14.6863],[77.59047,14.68767],[77.59038,14.68988],[77.59092,14.69097],[77.59545,14.68932],[77.59632,14.69095],[77.59725,14.6905],[77.59292,14.68215],[77.59211,14.68243]]]}},{"type":"Feature","bbox":[77.58736,14.68564,77.59047,14.69006],"properties":{"ward":46},"geometry":{"type":"Polygon","coordinates":[[[77.58736,14.68708],[77.58778,14.68872],[77.58832,14.69006],[77.59046,14.68932],[77.59047,14.68767],[77.5903,14.6863],[77.59005,14.68564],[77.58892,14.68603],[77.58912,14.68662],[77.58736,14.68708]]]}},{"type":"Feature","bbox":[77.58828,14.68932,77.59194,14.69365],"properties":{"ward":47},"geometry":{"type":"Polygon","coordinates":[[[77.59098,14.69094],[77.59038,14.68988],[77.59046,14.68932],[77.58832,14.69006],[77.58828,14.69197],[77.58871,14.69333],[77.58924,14.69347],[77.58929,14.69365],[77.59139,14.6932],[77.59113,14.69202],[77.59194,14.69181],[77.59162,14.69071],[77.59098,14.69094]]]}},{"type":"Feature","bbox":[77.58713,14.69148,77.59598,14.69892],"properties":{"ward":48},"geometry":{"type":"Polygon","coordinates":[[[77.58757,14.69669],[77.59168,14.69892],[77.59223,14.69784],[77.59317,14.69664],[77.59339,14.69658],[77.59306,14.69474],[77.59348,14.69462],[77.59337,14.69421],[77.59598,14.69357],[77.59509,14.69148],[77.59418,14.69204],[77.59206,14.69296],[77.59103,14.69334],[77.58924,14.69366],[77.58858,14.69395],[77.58713,14.69504],[77.58757,14.69522],[77.58757,14.69669]]]}},{"type":"Feature","bbox":[77.58022,14.67354,77.59288,14.68367],"properties":{"ward":49},"geometry":{"type":"Polygon","coordinates":[[[77.58361,14.67652],[77.5834,14.67666],[77.58196,14.67659],[77.58128,14.67354],[77.58096,14.67413],[77.5811,14.67513],[77.58066,14.67613],[77.58077,14.67686],[77.58027,14.67687],[77.58022,14.67821],[77.58357,14.68044],[77.58491,14.68116],[77.58622,14.68149],[77.58687,14.68207],[77.58786,14.68367],[77.59288,14.68214],[77.59117,14.67863],[77.59086,14.67773],[77.59059,14.6761],[77.58687,14.67604],[77.58679,14.67689],[77.58617,14.67683],[77.58613,14.67656],[77.58361,14.67652]]]}},{"type":"Feature","bbox":[77.59113,14.68932,77.60062,14.70077],"properties":{"ward":50},"geometry":{"type":"Polygon","coordinates":[[[77.59139,14.6932],[77.59418,14.69204],[77.59509,14.69148],[77.59656,14.6948],[77.59646,14.69649],[77.59738,14.69834],[77.59712,14.70019],[77.60006,14.70061],[77.60036,14.70077],[77.60062,14.69886],[77.60036,14.69727],[77.59932,14.69479],[77.59713,14.69055],[77.59632,14.69095],[77.59545,14.68932],[77.59162,14.69071],[77.59194,14.69181],[77.59113,14.69202],[77.59139,14.6932]]]}}]}