{"type":"FeatureCollection","features":[{"type":"Feature","bbox":[76.2213,16.89778,76.23265,16.90885],"properties":{"ward":1},"geometry":{"type":"Polygon","coordinates":[[[76.2267,16.89899],[76.22632,16.89778],[76.22409,16.89927],[76.22358,16.89912],[76.2213,16.89959],[76.22134,16.90011],[76.22182,16.9007],[76.22442,16.90237],[76.22716,16.90495],[76.22965,16.90885],[76.23265,16.90798],[76.23166,16.90653],[76.23132,16.90555],[76.22859,16.90564],[76.22786,16.90386],[76.22822,16.90384],[76.22751,16.90254],[76.22818,16.90228],[76.2267,16.89899]]]}},{"type":"Feature","bbox":[76.2267,16.89798,76.24999,16.91479],"properties":{"ward":2},"geometry":{"type":"Polygon","coordinates":[[[76.24999,16.9009],[76.24521,16.89967],[76.24369,16.8995],[76.2424,16.89956],[76.23896,16.89842],[76.23604,16.89813],[76.22961,16.89798],[76.22973,16.89859],[76.2267,16.89899],[76.22818,16.90228],[76.22751,16.90254],[76.22822,16.90384],[76.22786,16.90386],[76.22859,16.90564],[76.23132,16.90555],[76.23166,16.90653],[76.23265,16.90798],[76.22965,16.90885],[76.22989,16.90927],[76.23271,16.91296],[76.23436,16.91301],[76.23614,16.91352],[76.23615,16.91407],[76.23631,16.91407],[76.23635,16.9144],[76.23702,16.91426],[76.23726,16.91479],[76.24162,16.91236],[76.24292,16.90957],[76.24806,16.90367],[76.24999,16.9009]]]}},{"type":"Feature","bbox":[76.23271,16.90087,76.25185,16.91773],"properties":{"ward":3},"geometry":{"type":"Polygon","coordinates":[[[76.24944,16.91019],[76.24933,16.91005],[76.25065,16.90564],[76.25137,16.90385],[76.25185,16.90142],[76.25001,16.90087],[76.24806,16.90367],[76.24292,16.90957],[76.24148,16.91248],[76.23726,16.91479],[76.23702,16.91426],[76.23635,16.9144],[76.23631,16.91407],[76.23615,16.91407],[76.23614,16.91352],[76.23436,16.91301],[76.23271,16.91296],[76.23499,16.91535],[76.23574,16.91537],[76.23641,16.91517],[76.23649,16.91613],[76.23694,16.91618],[76.23694,16.91629],[76.23779,16.91625],[76.23793,16.91691],[76.23906,16.91713],[76.23931,16.91694],[76.23933,16.91751],[76.23985,16.91773],[76.24099,16.91615],[76.24369,16.91361],[76.24545,16.91297],[76.24786,16.91174],[76.24847,16.91133],[76.24944,16.91019]]]}},{"type":"Feature","bbox":[76.23622,16.90922,76.25721,16.91904],"properties":{"ward":4},"geometry":{"type":"Polygon","coordinates":[[[76.24198,16.91792],[76.24435,16.91836],[76.24951,16.91814],[76.25176,16.91792],[76.25561,16.9172],[76.25721,16.91683],[76.25704,16.91537],[76.25475,16.91584],[76.25405,16.91318],[76.25261,16.91348],[76.25194,16.91225],[76.25176,16.90922],[76.25037,16.90966],[76.24944,16.91019],[76.24847,16.91133],[76.24786,16.91174],[76.24545,16.91297],[76.24369,16.91361],[76.24099,16.91615],[76.23985,16.91773],[76.23933,16.91751],[76.23931,16.91694],[76.23906,16.91713],[76.23793,16.91691],[76.23779,16.91625],[76.23622,16.91617],[76.23634,16.91775],[76.23649,16.91795],[76.23675,16.91708],[76.23771,16.91674],[76.23769,16.9173],[76.23803,16.91731],[76.2384,16.91904],[76.23925,16.91879],[76.23971,16.91814],[76.24055,16.91785],[76.24198,16.91792]]]}},{"type":"Feature","bbox":[76.23648,16.91674,76.2384,16.91909],"properties":{"ward":5},"geometry":{"type":"Polygon","coordinates":[[[76.2384,16.91904],[76.23803,16.91731],[76.23769,16.9173],[76.23771,16.91674],[76.23675,16.91708],[76.23648,16.91781],[76.23676,16.91876],[76.23789,16.9187],[76.23812,16.91877],[76.23817,16.91909],[76.2384,16.91904]]]}},{"type":"Feature","bbox":[76.23676,16.91781,76.24308,16.92092],"properties":{"ward":6},"geometry":{"type":"Polygon","coordinates":[[[76.24308,16.9182],[76.24082,16.91781],[76.23987,16.91803],[76.23925,16.91879],[76.2384,16.91904],[76.23817,16.91909],[76.23812,16.91877],[76.23789,16.9187],[76.23676,16.91876],[76.23715,16.92025],[76.23834,16.92018],[76.23834,16.92041],[76.23957,16.92028],[76.24241,16.92092],[76.24251,16.91936],[76.24287,16.91891],[76.24308,16.9182]]]}},{"type":"Feature","bbox":[76.23715,16.9172,76.2688,16.94885],"properties":{"ward":7},"geometry":{"type":"Polygon","coordinates":[[[76.25561,16.9172],[76.25176,16.91792],[76.24951,16.91814],[76.24435,16.91836],[76.24308,16.9182],[76.24287,16.91891],[76.24251,16.91936],[76.24241,16.92092],[76.23957,16.92028],[76.23834,16.92041],[76.23834,16.92018],[76.23715,16.92025],[76.23732,16.92089],[76.23822,16.92058],[76.23867,16.92165],[76.24009,16.92318],[76.24022,16.92402],[76.23994,16.92666],[76.24064,16.92922],[76.24137,16.92982],[76.23969,16.93036],[76.23854,16.93095],[76.23872,16.93303],[76.23852,16.93342],[76.23991,16.93703],[76.24046,16.93953],[76.24135,16.9421],[76.24333,16.94457],[76.24356,16.94507],[76.24407,16.94546],[76.24435,16.94547],[76.24455,16.94619],[76.24585,16.94885],[76.24889,16.94674],[76.25281,16.94439],[76.25449,16.94677],[76.25671,16.94627],[76.26098,16.94361],[76.26251,16.94217],[76.26408,16.94376],[76.266,16.9418],[76.26764,16.94278],[76.2688,16.93973],[76.26446,16.93201],[76.26347,16.9294],[76.26113,16.92859],[76.25925,16.92643],[76.25871,16.92628],[76.25791,16.92564],[76.25812,16.92292],[76.25454,16.92172],[76.25561,16.9172]]]}},{"type":"Feature","bbox":[76.23547,16.9192,76.23732,16.9218],"properties":{"ward":8},"geometry":{"type":"Polygon","coordinates":[[[76.23732,16.92089],[76.23684,16.9192],[76.2365,16.91924],[76.2365,16.91953],[76.23557,16.91963],[76.23547,16.9218],[76.23732,16.92089]]]}},{"type":"Feature","bbox":[76.23124,16.91862,76.23558,16.92265],"properties":{"ward":9},"geometry":{"type":"Polygon","coordinates":[[[76.23551,16.92171],[76.23558,16.91968],[76.23532,16.91862],[76.23247,16.91938],[76.23124,16.91937],[76.23206,16.9216],[76.23262,16.92147],[76.23278,16.92162],[76.23303,16.92157],[76.23326,16.92265],[76.23551,16.92171]]]}},{"type":"Feature","bbox":[76.2352,16.91799,76.23684,16.91963],"properties":{"ward":10},"geometry":{"type":"Polygon","coordinates":[[[76.23684,16.9192],[76.23657,16.91802],[76.23593,16.91799],[76.2352,16.91823],[76.23557,16.91963],[76.2365,16.91953],[76.2365,16.91924],[76.23684,16.9192]]]}},{"type":"Feature","bbox":[76.23493,16.91517,76.2365,16.91823],"properties":{"ward":11},"geometry":{"type":"Polygon","coordinates":[[[76.2352,16.91823],[76.23593,16.91799],[76.2365,16.91801],[76.23628,16.91753],[76.23622,16.91617],[76.23649,16.91613],[76.23641,16.91517],[76.23512,16.91538],[76.23493,16.91696],[76.2352,16.91823]]]}},{"type":"Feature","bbox":[76.21478,16.89955,76.23512,16.91602],"properties":{"ward":12},"geometry":{"type":"Polygon","coordinates":[[[76.23031,16.91602],[76.23141,16.91592],[76.23307,16.91547],[76.23512,16.91551],[76.23512,16.91538],[76.23328,16.91363],[76.22989,16.90927],[76.2273,16.90511],[76.22442,16.90237],[76.2215,16.90044],[76.22129,16.89955],[76.22048,16.89964],[76.21718,16.90069],[76.21715,16.90224],[76.21562,16.90435],[76.21478,16.90434],[76.21526,16.90818],[76.21625,16.90859],[76.21596,16.90968],[76.21764,16.91013],[76.21824,16.91045],[76.22092,16.91073],[76.22542,16.91215],[76.22686,16.91137],[76.22691,16.91153],[76.22872,16.91143],[76.23002,16.91113],[76.23031,16.91602]]]}},{"type":"Feature","bbox":[76.23299,16.91549,76.23532,16.91887],"properties":{"ward":13},"geometry":{"type":"Polygon","coordinates":[[[76.23532,16.91862],[76.23493,16.91696],[76.23512,16.91551],[76.23299,16.91549],[76.23303,16.91749],[76.23408,16.9174],[76.23423,16.91887],[76.23532,16.91862]]]}},{"type":"Feature","bbox":[76.23031,16.91549,76.23423,16.91938],"properties":{"ward":14},"geometry":{"type":"Polygon","coordinates":[[[76.23423,16.91887],[76.23408,16.9174],[76.23303,16.91749],[76.23299,16.91549],[76.23141,16.91592],[76.23031,16.91602],[76.23044,16.91711],[76.23124,16.91937],[76.23247,16.91938],[76.23423,16.91887]]]}},{"type":"Feature","bbox":[76.23206,16.92147,76.23551,16.92619],"properties":{"ward":15},"geometry":{"type":"Polygon","coordinates":[[[76.23515,16.92337],[76.23551,16.92171],[76.23326,16.92265],[76.23303,16.92157],[76.23278,16.92162],[76.23262,16.92147],[76.23206,16.9216],[76.23371,16.92619],[76.23515,16.92337]]]}},{"type":"Feature","bbox":[76.23376,16.92058,76.24137,16.93095],"properties":{"ward":16},"geometry":{"type":"Polygon","coordinates":[[[76.23822,16.92058],[76.23547,16.9218],[76.23515,16.92337],[76.23376,16.9262],[76.23493,16.92651],[76.23492,16.92582],[76.23558,16.92571],[76.23615,16.92699],[76.23671,16.92677],[76.23752,16.92676],[76.23765,16.92876],[76.23794,16.9292],[76.23854,16.93095],[76.23969,16.93036],[76.24137,16.92982],[76.24064,16.92922],[76.23994,16.92666],[76.24022,16.92402],[76.24009,16.92318],[76.23867,16.92165],[76.23822,16.92058]]]}},{"type":"Feature","bbox":[76.21998,16.92313,76.23872,16.93399],"properties":{"ward":17},"geometry":{"type":"Polygon","coordinates":[[[76.23852,16.93342],[76.23872,16.93303],[76.23854,16.93095],[76.23794,16.9292],[76.23765,16.92876],[76.23752,16.92676],[76.23671,16.92677],[76.23615,16.92699],[76.23558,16.92571],[76.23492,16.92582],[76.23493,16.92651],[76.23371,16.92619],[76.23264,16.92313],[76.22806,16.92522],[76.22615,16.92634],[76.2248,16.92658],[76.21998,16.92795],[76.22131,16.93138],[76.22605,16.93131],[76.22627,16.93233],[76.22718,16.93193],[76.22717,16.93118],[76.22976,16.93041],[76.23097,16.93043],[76.23239,16.93184],[76.23394,16.93375],[76.2366,16.93399],[76.23667,16.93338],[76.23852,16.93342]]]}},{"type":"Feature","bbox":[76.21516,16.92141,76.23264,16.92893],"properties":{"ward":18},"geometry":{"type":"Polygon","coordinates":[[[76.21998,16.92795],[76.2248,16.92658],[76.22615,16.92634],[76.22806,16.92522],[76.23264,16.92313],[76.23224,16.92206],[76.23156,16.92203],[76.23117,16.92141],[76.22958,16.92157],[76.22962,16.92171],[76.22804,16.92214],[76.22826,16.92294],[76.22759,16.92313],[76.22762,16.9233],[76.22388,16.92398],[76.22195,16.9245],[76.21774,16.92451],[76.21516,16.92503],[76.21562,16.92893],[76.21731,16.92825],[76.21998,16.92795]]]}},{"type":"Feature","bbox":[76.21337,16.91922,76.22962,16.92509],"properties":{"ward":19},"geometry":{"type":"Polygon","coordinates":[[[76.21449,16.92509],[76.21774,16.92451],[76.22195,16.9245],[76.22388,16.92398],[76.22762,16.9233],[76.22759,16.92313],[76.22826,16.92294],[76.22804,16.92214],[76.22962,16.92171],[76.22937,16.92081],[76.22773,16.92106],[76.22747,16.92044],[76.22651,16.92073],[76.22609,16.91922],[76.21769,16.92025],[76.21337,16.91952],[76.21344,16.92281],[76.21462,16.92282],[76.21449,16.92509]]]}},{"type":"Feature","bbox":[76.22747,16.91823,76.23224,16.92206],"properties":{"ward":20},"geometry":{"type":"Polygon","coordinates":[[[76.23224,16.92206],[76.23085,16.91823],[76.22895,16.91883],[76.22913,16.91989],[76.22747,16.92044],[76.22773,16.92106],[76.22937,16.92081],[76.22958,16.92157],[76.23117,16.92141],[76.23156,16.92203],[76.23224,16.92206]]]}},{"type":"Feature","bbox":[76.22876,16.91602,76.23085,16.91883],"properties":{"ward":21},"geometry":{"type":"Polygon","coordinates":[[[76.23085,16.91823],[76.23038,16.91686],[76.23031,16.91602],[76.22911,16.91609],[76.22876,16.91824],[76.22895,16.91883],[76.23085,16.91823]]]}},{"type":"Feature","bbox":[76.22579,16.91609,76.22913,16.92073],"properties":{"ward":22},"geometry":{"type":"Polygon","coordinates":[[[76.22651,16.92073],[76.22913,16.91989],[76.22876,16.91824],[76.22911,16.91609],[76.22579,16.91616],[76.22594,16.91846],[76.22651,16.92073]]]}},{"type":"Feature","bbox":[76.21337,16.90968,76.23031,16.92025],"properties":{"ward":23},"geometry":{"type":"Polygon","coordinates":[[[76.22607,16.91922],[76.22583,16.91776],[76.22596,16.91774],[76.22579,16.91616],[76.23031,16.91602],[76.23002,16.91113],[76.22872,16.91143],[76.22691,16.91153],[76.22686,16.91137],[76.22542,16.91215],[76.22092,16.91073],[76.21824,16.91045],[76.21764,16.91013],[76.21596,16.90968],[76.21584,16.91017],[76.21609,16.91019],[76.21636,16.91203],[76.21611,16.91437],[76.2152,16.91413],[76.21444,16.91627],[76.21429,16.91736],[76.21346,16.91731],[76.21337,16.91952],[76.21769,16.92025],[76.22607,16.91922]]]}}]}