{"type":"FeatureCollection","features":[{"type":"Feature","bbox":[79.54171,13.46325,79.5579,13.47105],"properties":{"ward":1},"geometry":{"type":"Polygon","coordinates":[[[79.54461,13.46357],[79.54171,13.46964],[79.54243,13.46969],[79.54253,13.47105],[79.5436,13.47082],[79.54297,13.46832],[79.54313,13.4679],[79.54575,13.4665],[79.54611,13.46801],[79.54683,13.46832],[79.54652,13.4689],[79.54729,13.4688],[79.54749,13.46949],[79.54814,13.46965],[79.54891,13.46963],[79.55129,13.46888],[79.55204,13.46854],[79.55187,13.46812],[79.55294,13.46764],[79.5539,13.4674],[79.55408,13.46781],[79.55482,13.46774],[79.55561,13.46941],[79.55557,13.46993],[79.55504,13.47066],[79.55612,13.46968],[79.55661,13.4688],[79.5579,13.46762],[79.55745,13.46689],[79.55738,13.46627],[79.55699,13.46552],[79.55628,13.46468],[79.55604,13.46325],[79.5523,13.46388],[79.54461,13.46357]]]}},{"type":"Feature","bbox":[79.53418,13.44764,79.55607,13.4691],"properties":{"ward":2},"geometry":{"type":"Polygon","coordinates":[[[79.5499,13.44823],[79.54952,13.44772],[79.5493,13.44853],[79.54233,13.4649],[79.54077,13.46477],[79.53941,13.4644],[79.53869,13.46463],[79.53866,13.46249],[79.5374,13.46301],[79.53643,13.46301],[79.53513,13.46342],[79.53428,13.46331],[79.53418,13.46853],[79.53516,13.46821],[79.53538,13.46785],[79.53572,13.46774],[79.5358,13.46741],[79.53707,13.46718],[79.53789,13.46638],[79.54025,13.46603],[79.54044,13.46633],[79.54041,13.46814],[79.54091,13.46814],[79.54163,13.46855],[79.54213,13.46797],[79.54198,13.4691],[79.54417,13.46462],[79.54451,13.4635],[79.55189,13.46275],[79.55246,13.46243],[79.55157,13.46164],[79.55123,13.45986],[79.55144,13.45911],[79.54969,13.45948],[79.54923,13.45858],[79.54742,13.45848],[79.54785,13.45703],[79.54909,13.45601],[79.55028,13.45453],[79.55089,13.45291],[79.55145,13.45212],[79.55185,13.44958],[79.5541,13.44898],[79.55447,13.44919],[79.5553,13.4491],[79.55607,13.44992],[79.55581,13.44883],[79.55505,13.44764],[79.55448,13.44788],[79.55366,13.44768],[79.55191,13.44828],[79.5499,13.44823]]]}},{"type":"Feature","bbox":[79.54952,13.44243,79.55505,13.44828],"properties":{"ward":3},"geometry":{"type":"Polygon","coordinates":[[[79.55177,13.44307],[79.55185,13.44263],[79.55133,13.44243],[79.55119,13.4429],[79.55122,13.44376],[79.54952,13.44773],[79.54991,13.44823],[79.55191,13.44828],[79.55365,13.44767],[79.55448,13.44788],[79.55505,13.44764],[79.5539,13.44581],[79.5537,13.44512],[79.55274,13.44454],[79.55177,13.44307]]]}},{"type":"Feature","bbox":[79.55274,13.44454,79.56014,13.45195],"properties":{"ward":4},"geometry":{"type":"Polygon","coordinates":[[[79.55444,13.44454],[79.55274,13.44454],[79.5537,13.44512],[79.5539,13.44582],[79.55461,13.44705],[79.55549,13.44817],[79.55592,13.44923],[79.55632,13.45139],[79.55697,13.45149],[79.55719,13.45195],[79.55927,13.45066],[79.5599,13.44952],[79.56014,13.44569],[79.55786,13.44497],[79.55444,13.44454]]]}},{"type":"Feature","bbox":[79.55719,13.43724,79.59214,13.45652],"properties":{"ward":5},"geometry":{"type":"Polygon","coordinates":[[[79.55927,13.45066],[79.55719,13.45195],[79.55884,13.45214],[79.55936,13.45256],[79.55953,13.45377],[79.56318,13.45374],[79.56497,13.45455],[79.56918,13.45538],[79.56926,13.45652],[79.57119,13.45646],[79.57097,13.45555],[79.57417,13.45512],[79.57493,13.45432],[79.58244,13.45257],[79.58307,13.45307],[79.58355,13.45424],[79.58461,13.45372],[79.58511,13.45281],[79.58606,13.45275],[79.58669,13.45293],[79.58685,13.45215],[79.58744,13.45117],[79.58732,13.44969],[79.5884,13.44957],[79.5889,13.4492],[79.5891,13.4483],[79.58765,13.44581],[79.58758,13.44515],[79.58858,13.44503],[79.58863,13.44488],[79.58675,13.44296],[79.58464,13.44328],[79.58475,13.44244],[79.5872,13.44204],[79.58795,13.44217],[79.59031,13.44187],[79.59214,13.44135],[79.59191,13.44017],[79.58409,13.44092],[79.58379,13.44412],[79.58322,13.44455],[79.58212,13.44621],[79.58098,13.44683],[79.57784,13.44649],[79.57535,13.44644],[79.5746,13.44611],[79.57379,13.44598],[79.57237,13.44671],[79.57181,13.44645],[79.57181,13.44594],[79.56919,13.4456],[79.56912,13.44402],[79.56982,13.44348],[79.57007,13.44242],[79.5666,13.44256],[79.56579,13.44224],[79.56261,13.44215],[79.56279,13.44149],[79.56246,13.44117],[79.5625,13.43989],[79.56143,13.43917],[79.56121,13.4384],[79.56118,13.43756],[79.56057,13.43724],[79.5599,13.44952],[79.55927,13.45066]]]}},{"type":"Feature","bbox":[79.5523,13.44239,79.56034,13.44569],"properties":{"ward":6},"geometry":{"type":"Polygon","coordinates":[[[79.55691,13.44355],[79.5523,13.44387],[79.55274,13.44454],[79.55292,13.4446],[79.55444,13.44455],[79.55786,13.44497],[79.56014,13.44569],[79.56034,13.44245],[79.55688,13.44239],[79.55691,13.44355]]]}},{"type":"Feature","bbox":[79.55177,13.44235,79.55691,13.44387],"properties":{"ward":7},"geometry":{"type":"Polygon","coordinates":[[[79.55305,13.44314],[79.55177,13.44307],[79.5523,13.44387],[79.55691,13.44355],[79.55678,13.44235],[79.55415,13.44242],[79.55417,13.44267],[79.55306,13.44265],[79.55305,13.44314]]]}},{"type":"Feature","bbox":[79.55177,13.44124,79.55584,13.44314],"properties":{"ward":8},"geometry":{"type":"Polygon","coordinates":[[[79.55311,13.44183],[79.55231,13.44165],[79.55177,13.44308],[79.55305,13.44314],[79.55306,13.44265],[79.55417,13.44267],[79.55415,13.44242],[79.55584,13.44246],[79.55584,13.44141],[79.5533,13.44124],[79.55311,13.44183]]]}},{"type":"Feature","bbox":[79.55231,13.44031,79.56038,13.44246],"properties":{"ward":9},"geometry":{"type":"Polygon","coordinates":[[[79.55563,13.44058],[79.55295,13.44035],[79.55231,13.44165],[79.55311,13.44183],[79.5533,13.44124],[79.55584,13.44141],[79.55584,13.44246],[79.55678,13.44235],[79.56034,13.44245],[79.56038,13.44143],[79.55905,13.44137],[79.55821,13.44041],[79.55566,13.44031],[79.55563,13.44058]]]}},{"type":"Feature","bbox":[79.55295,13.43251,79.56202,13.44143],"properties":{"ward":10},"geometry":{"type":"Polygon","coordinates":[[[79.56195,13.43251],[79.55759,13.43281],[79.55744,13.43265],[79.55638,13.43262],[79.55295,13.44035],[79.55563,13.44058],[79.55566,13.44031],[79.55821,13.44041],[79.55905,13.44137],[79.56038,13.44143],[79.56052,13.43846],[79.56033,13.43719],[79.56,13.43696],[79.55966,13.43579],[79.56202,13.43462],[79.56195,13.43251]]]}},{"type":"Feature","bbox":[79.55638,13.41012,79.57837,13.43281],"properties":{"ward":11},"geometry":{"type":"Polygon","coordinates":[[[79.57501,13.42545],[79.57466,13.42242],[79.57439,13.42215],[79.5741,13.4198],[79.57583,13.41961],[79.57586,13.41931],[79.57715,13.41937],[79.57708,13.4191],[79.57837,13.41897],[79.57739,13.41799],[79.57735,13.41755],[79.57699,13.4169],[79.577,13.416],[79.57658,13.41588],[79.57546,13.41611],[79.57489,13.41568],[79.57109,13.41602],[79.56963,13.41638],[79.56814,13.41648],[79.56799,13.41625],[79.56432,13.4163],[79.56423,13.41542],[79.56448,13.4154],[79.56445,13.41432],[79.56421,13.41418],[79.56499,13.41381],[79.56478,13.41165],[79.56362,13.41162],[79.56229,13.41191],[79.56227,13.41107],[79.56131,13.41091],[79.56124,13.41015],[79.56097,13.41012],[79.56151,13.41551],[79.56162,13.41866],[79.56137,13.4201],[79.561,13.42178],[79.56013,13.42399],[79.55683,13.43123],[79.55701,13.43125],[79.55638,13.43262],[79.55744,13.43265],[79.55759,13.43281],[79.55946,13.43266],[79.56229,13.43216],[79.56274,13.43148],[79.56283,13.42895],[79.56356,13.42851],[79.56338,13.42703],[79.56424,13.42584],[79.56445,13.42521],[79.56912,13.42503],[79.56926,13.42634],[79.56896,13.4275],[79.57501,13.42545]]]}},{"type":"Feature","bbox":[79.52943,13.40034,79.55834,13.41606],"properties":{"ward":12},"geometry":{"type":"Polygon","coordinates":[[[79.55834,13.40961],[79.55829,13.40875],[79.5559,13.40873],[79.55522,13.4089],[79.55471,13.40866],[79.55452,13.40706],[79.54879,13.40766],[79.54847,13.40625],[79.54804,13.40595],[79.54664,13.40607],[79.54712,13.4046],[79.5466,13.40474],[79.54529,13.40469],[79.54466,13.40494],[79.54412,13.40399],[79.54373,13.40384],[79.54333,13.40233],[79.54288,13.40229],[79.54212,13.40144],[79.5418,13.40034],[79.54013,13.40053],[79.53983,13.40104],[79.53983,13.40217],[79.53877,13.40231],[79.53826,13.40205],[79.53784,13.40222],[79.53692,13.40377],[79.53683,13.4045],[79.53556,13.40592],[79.53432,13.40647],[79.53357,13.40588],[79.53181,13.40521],[79.53209,13.40599],[79.53388,13.40704],[79.53555,13.40957],[79.53368,13.41058],[79.53337,13.41258],[79.53141,13.41346],[79.52992,13.41327],[79.52966,13.4134],[79.52943,13.41395],[79.52984,13.41418],[79.52974,13.41488],[79.53305,13.41573],[79.53445,13.41583],[79.53492,13.41606],[79.53529,13.41596],[79.53543,13.41563],[79.53638,13.4153],[79.53643,13.41559],[79.53683,13.41546],[79.53756,13.41509],[79.53767,13.41477],[79.54039,13.41494],[79.54161,13.41363],[79.54218,13.41363],[79.54277,13.41404],[79.54436,13.4134],[79.54648,13.41333],[79.54786,13.41453],[79.54892,13.41451],[79.55104,13.41502],[79.5536,13.4153],[79.55437,13.41525],[79.55452,13.41501],[79.55641,13.41444],[79.55786,13.41298],[79.55779,13.41023],[79.55834,13.40961]]]}},{"type":"Feature","bbox":[79.55108,13.40944,79.56163,13.43177],"properties":{"ward":13},"geometry":{"type":"Polygon","coordinates":[[[79.55452,13.415],[79.55418,13.41646],[79.55322,13.41709],[79.5529,13.41773],[79.55375,13.41846],[79.55407,13.41949],[79.55295,13.42025],[79.55253,13.42096],[79.55108,13.42224],[79.55258,13.42321],[79.55191,13.42614],[79.55445,13.42868],[79.55481,13.42982],[79.55336,13.43035],[79.55478,13.43159],[79.55512,13.43174],[79.55533,13.43108],[79.55641,13.43177],[79.55669,13.43119],[79.55683,13.43122],[79.55789,13.42902],[79.56016,13.42392],[79.56101,13.42173],[79.56138,13.42009],[79.56163,13.41866],[79.56151,13.41554],[79.56097,13.41012],[79.56076,13.40944],[79.55833,13.40961],[79.55778,13.41023],[79.55786,13.41299],[79.55641,13.41444],[79.55452,13.415]]]}},{"type":"Feature","bbox":[79.54694,13.42937,79.55641,13.43485],"properties":{"ward":14},"geometry":{"type":"Polygon","coordinates":[[[79.55547,13.43266],[79.55641,13.43177],[79.55533,13.43108],[79.55512,13.43174],[79.55478,13.43159],[79.55336,13.43035],[79.55132,13.42937],[79.54767,13.43031],[79.54694,13.43033],[79.54701,13.43071],[79.54778,13.43069],[79.54782,13.43105],[79.54799,13.43116],[79.54774,13.43121],[79.54762,13.43244],[79.54704,13.43339],[79.54711,13.43411],[79.54887,13.43433],[79.54901,13.43485],[79.55052,13.43448],[79.55035,13.43162],[79.55248,13.43159],[79.55256,13.43312],[79.55403,13.43283],[79.55396,13.4323],[79.55517,13.43247],[79.55547,13.43266]]]}},{"type":"Feature","bbox":[79.55133,13.43119,79.55701,13.44263],"properties":{"ward":15},"geometry":{"type":"Polygon","coordinates":[[[79.55184,13.44263],[79.55701,13.43125],[79.55669,13.43119],[79.55613,13.43212],[79.55547,13.43266],[79.55516,13.43247],[79.55397,13.4323],[79.55404,13.43283],[79.55284,13.4331],[79.55306,13.43417],[79.55345,13.43427],[79.55339,13.43461],[79.55392,13.43478],[79.55247,13.43722],[79.55219,13.43813],[79.55196,13.44041],[79.55133,13.44243],[79.55184,13.44263]]]}},{"type":"Feature","bbox":[79.54998,13.43159,79.55391,13.43812],"properties":{"ward":16},"geometry":{"type":"Polygon","coordinates":[[[79.55219,13.43812],[79.55247,13.43722],[79.55391,13.43478],[79.55339,13.43461],[79.55345,13.43427],[79.55298,13.43402],[79.55284,13.4331],[79.55256,13.43313],[79.55248,13.43159],[79.55035,13.43162],[79.55055,13.43552],[79.54998,13.43552],[79.55025,13.43669],[79.54999,13.43677],[79.55007,13.43786],[79.55219,13.43812]]]}},{"type":"Feature","bbox":[79.54678,13.43411,79.55055,13.43683],"properties":{"ward":17},"geometry":{"type":"Polygon","coordinates":[[[79.54922,13.43683],[79.55025,13.43669],[79.54998,13.43552],[79.55055,13.43552],[79.55053,13.43448],[79.54901,13.43485],[79.54886,13.43433],[79.54678,13.43411],[79.54688,13.43596],[79.5492,13.43587],[79.54922,13.43683]]]}},{"type":"Feature","bbox":[79.54319,13.43089,79.55007,13.4384],"properties":{"ward":18},"geometry":{"type":"Polygon","coordinates":[[[79.55007,13.43786],[79.54999,13.43677],[79.54922,13.43682],[79.5492,13.43587],[79.54689,13.43595],[79.54678,13.43411],[79.54712,13.43411],[79.54704,13.43339],[79.54762,13.43244],[79.54774,13.43121],[79.548,13.43116],[79.54767,13.43089],[79.54716,13.43096],[79.54685,13.43106],[79.54701,13.4315],[79.54665,13.43181],[79.54491,13.43184],[79.54444,13.432],[79.54451,13.43244],[79.54431,13.43254],[79.54423,13.43284],[79.54475,13.43316],[79.54522,13.43389],[79.54477,13.43419],[79.54411,13.43417],[79.54319,13.43458],[79.54393,13.43682],[79.54341,13.43688],[79.54343,13.43762],[79.54767,13.4384],[79.54919,13.43789],[79.55007,13.43786]]]}},{"type":"Feature","bbox":[79.53452,13.41333,79.55481,13.43812],"properties":{"ward":19},"geometry":{"type":"Polygon","coordinates":[[[79.54343,13.43762],[79.54341,13.43688],[79.54393,13.43682],[79.54319,13.43458],[79.5441,13.43417],[79.54477,13.43419],[79.54522,13.43389],[79.54475,13.43316],[79.54422,13.43284],[79.54431,13.43254],[79.54451,13.43244],[79.54444,13.432],[79.5449,13.43184],[79.54664,13.43181],[79.54701,13.4315],[79.54685,13.43106],[79.54752,13.43089],[79.54782,13.43105],[79.54778,13.43069],[79.54701,13.43071],[79.54694,13.43033],[79.54767,13.43031],[79.55132,13.42937],[79.55336,13.43035],[79.55481,13.42982],[79.55445,13.42868],[79.55191,13.42613],[79.55258,13.42321],[79.55108,13.42225],[79.55253,13.42095],[79.55295,13.42025],[79.55407,13.41949],[79.55375,13.41845],[79.5529,13.41772],[79.55322,13.4171],[79.55418,13.41646],[79.55438,13.41525],[79.5536,13.4153],[79.55103,13.41502],[79.54891,13.41451],[79.54787,13.41453],[79.54647,13.41333],[79.54436,13.4134],[79.54279,13.41403],[79.54219,13.41364],[79.54161,13.41363],[79.53767,13.41477],[79.53756,13.41509],[79.53684,13.41546],[79.53643,13.41559],[79.53638,13.4153],[79.53574,13.41563],[79.53543,13.41563],[79.53529,13.41596],[79.53492,13.41606],[79.53452,13.42038],[79.53578,13.4208],[79.53575,13.42203],[79.53613,13.42487],[79.53662,13.42549],[79.53707,13.42883],[79.53595,13.42887],[79.53614,13.43032],[79.53649,13.43048],[79.53691,13.43136],[79.53796,13.43151],[79.53835,13.43181],[79.53822,13.43278],[79.53837,13.43317],[79.53828,13.43555],[79.5398,13.43641],[79.54032,13.43714],[79.54056,13.43802],[79.54094,13.43812],[79.5429,13.43758],[79.54343,13.43762]]]}},{"type":"Feature","bbox":[79.5157,13.415,79.53837,13.43555],"properties":{"ward":20},"geometry":{"type":"Polygon","coordinates":[[[79.53083,13.43469],[79.53631,13.43483],[79.53828,13.43555],[79.53837,13.43318],[79.53822,13.43278],[79.53835,13.43181],[79.53797,13.43151],[79.53691,13.43136],[79.53649,13.43048],[79.53614,13.43032],[79.53594,13.42887],[79.53707,13.42883],[79.53662,13.42549],[79.53613,13.42487],[79.53575,13.42203],[79.53578,13.4208],[79.53452,13.42038],[79.53492,13.41606],[79.53444,13.41584],[79.53305,13.41573],[79.53024,13.415],[79.52993,13.41519],[79.52988,13.4174],[79.5296,13.4174],[79.53016,13.41867],[79.53119,13.4195],[79.53112,13.42059],[79.525,13.42105],[79.52406,13.42057],[79.52233,13.42558],[79.52127,13.42685],[79.51856,13.42553],[79.51638,13.42494],[79.5157,13.42508],[79.51579,13.42556],[79.51646,13.42559],[79.517,13.42647],[79.51643,13.431],[79.51671,13.43103],[79.51664,13.43194],[79.51679,13.43196],[79.517,13.43421],[79.52444,13.43388],[79.53083,13.43469]]]}},{"type":"Feature","bbox":[79.50111,13.42268,79.53426,13.44996],"properties":{"ward":21},"geometry":{"type":"Polygon","coordinates":[[[79.53426,13.43475],[79.53083,13.4347],[79.52445,13.43388],[79.517,13.43421],[79.51679,13.43196],[79.51664,13.43194],[79.51671,13.43103],[79.51643,13.431],[79.517,13.42647],[79.51646,13.42559],[79.5158,13.42556],[79.51571,13.42509],[79.51637,13.42494],[79.51856,13.42553],[79.51673,13.42356],[79.50969,13.42268],[79.50956,13.42562],[79.50831,13.4267],[79.50619,13.42692],[79.50656,13.42811],[79.50651,13.43033],[79.50621,13.43203],[79.50625,13.43411],[79.50133,13.43518],[79.50111,13.43538],[79.50141,13.43608],[79.50279,13.43626],[79.5039,13.43567],[79.50811,13.4366],[79.51028,13.43759],[79.5116,13.43881],[79.51168,13.43929],[79.51427,13.4389],[79.51468,13.44029],[79.51522,13.44014],[79.51526,13.44381],[79.51548,13.44506],[79.51821,13.44467],[79.52061,13.44403],[79.5218,13.4433],[79.52295,13.44312],[79.52389,13.44357],[79.52403,13.44567],[79.52397,13.44744],[79.52412,13.44829],[79.52402,13.44899],[79.5233,13.44996],[79.52479,13.44975],[79.52676,13.44891],[79.52788,13.44802],[79.52956,13.44794],[79.53124,13.4485],[79.53185,13.44921],[79.53159,13.44785],[79.5317,13.44749],[79.53172,13.44112],[79.53191,13.44092],[79.53193,13.4389],[79.53213,13.43837],[79.53246,13.43807],[79.53289,13.43622],[79.53325,13.43562],[79.53393,13.43521],[79.53426,13.43475]]]}},{"type":"Feature","bbox":[79.53159,13.43475,79.54464,13.45036],"properties":{"ward":22},"geometry":{"type":"Polygon","coordinates":[[[79.54447,13.43941],[79.54464,13.43782],[79.5429,13.43758],[79.54072,13.43811],[79.54045,13.43785],[79.54032,13.43713],[79.5398,13.43641],[79.53822,13.43552],[79.53631,13.43483],[79.53426,13.43475],[79.53393,13.43521],[79.53325,13.43562],[79.53289,13.43622],[79.53246,13.43807],[79.53213,13.43837],[79.53193,13.4389],[79.53191,13.44092],[79.53172,13.44112],[79.53173,13.44543],[79.53161,13.44607],[79.53171,13.44727],[79.53159,13.44784],[79.53184,13.44879],[79.53173,13.45003],[79.53205,13.45032],[79.5332,13.45036],[79.53342,13.44817],[79.53448,13.4478],[79.53455,13.44725],[79.53493,13.44668],[79.53501,13.44618],[79.53612,13.44623],[79.53683,13.44658],[79.53859,13.44649],[79.5409,13.44714],[79.54173,13.44705],[79.54297,13.44728],[79.54404,13.44225],[79.54426,13.4423],[79.54452,13.44124],[79.54447,13.43941]]]}},{"type":"Feature","bbox":[79.54447,13.43782,79.54855,13.44115],"properties":{"ward":23},"geometry":{"type":"Polygon","coordinates":[[[79.54855,13.44115],[79.54832,13.43822],[79.54767,13.43841],[79.54464,13.43782],[79.54447,13.43958],[79.54627,13.43957],[79.54623,13.44072],[79.54855,13.44115]]]}},{"type":"Feature","bbox":[79.54714,13.43788,79.55075,13.44229],"properties":{"ward":24},"geometry":{"type":"Polygon","coordinates":[[[79.55075,13.43902],[79.55069,13.43788],[79.54919,13.43789],[79.54832,13.43822],[79.54859,13.4401],[79.54855,13.44115],[79.54724,13.44093],[79.54714,13.4422],[79.55009,13.44229],[79.55012,13.43905],[79.55075,13.43902]]]}}]}