{"type":"FeatureCollection","features":[{"type":"Feature","bbox":[77.70259,14.42315,77.72529,14.43823],"properties":{"ward":1},"geometry":{"type":"Polygon","coordinates":[[[77.72378,14.42374],[77.72279,14.42337],[77.72147,14.42315],[77.72005,14.42357],[77.7127,14.42861],[77.70755,14.43268],[77.70259,14.43617],[77.70308,14.4362],[77.70354,14.43669],[77.70429,14.43709],[77.70429,14.43809],[77.70755,14.43738],[77.70915,14.43741],[77.70983,14.43668],[77.71138,14.43643],[77.71247,14.4373],[77.71401,14.43596],[77.71611,14.43609],[77.71653,14.43823],[77.71965,14.43797],[77.7203,14.43097],[77.72204,14.43078],[77.72206,14.43108],[77.72529,14.4302],[77.72383,14.42499],[77.72378,14.42374]]]}},{"type":"Feature","bbox":[77.71968,14.42689,77.75463,14.44626],"properties":{"ward":2},"geometry":{"type":"Polygon","coordinates":[[[77.7203,14.43097],[77.71968,14.43798],[77.72304,14.43763],[77.72464,14.43857],[77.72676,14.43906],[77.72761,14.43912],[77.7283,14.44149],[77.73137,14.44056],[77.73276,14.44205],[77.73286,14.44267],[77.7337,14.44464],[77.73546,14.44533],[77.73927,14.44626],[77.7387,14.44483],[77.74001,14.442],[77.74272,14.44197],[77.74604,14.44087],[77.74552,14.43986],[77.74696,14.43942],[77.7469,14.43794],[77.74955,14.43734],[77.7536,14.43732],[77.75463,14.43599],[77.75412,14.43446],[77.75416,14.43298],[77.74214,14.42827],[77.73968,14.42745],[77.73825,14.42718],[77.73569,14.42689],[77.73562,14.42822],[77.73475,14.42813],[77.73469,14.42898],[77.73341,14.42841],[77.73331,14.42905],[77.73225,14.42906],[77.73135,14.42926],[77.73151,14.42965],[77.72834,14.43037],[77.72824,14.42877],[77.72502,14.42901],[77.72529,14.4302],[77.72206,14.43108],[77.72204,14.43078],[77.7203,14.43097]]]}},{"type":"Feature","bbox":[77.72378,14.42374,77.73089,14.42904],"properties":{"ward":3},"geometry":{"type":"Polygon","coordinates":[[[77.72826,14.42904],[77.73089,14.42829],[77.7304,14.42734],[77.72818,14.42751],[77.72591,14.42723],[77.7264,14.42467],[77.72378,14.42374],[77.72383,14.42498],[77.72502,14.42901],[77.72825,14.42877],[77.72826,14.42904]]]}},{"type":"Feature","bbox":[77.72591,14.42466,77.7304,14.42742],"properties":{"ward":4},"geometry":{"type":"Polygon","coordinates":[[[77.72685,14.42742],[77.7304,14.42734],[77.72989,14.42655],[77.72922,14.42606],[77.7292,14.4257],[77.7264,14.42466],[77.72591,14.42723],[77.72685,14.42742]]]}},{"type":"Feature","bbox":[77.72826,14.4251,77.7357,14.43037],"properties":{"ward":5},"geometry":{"type":"Polygon","coordinates":[[[77.72834,14.43037],[77.73151,14.42966],[77.73135,14.42927],[77.73224,14.42906],[77.7333,14.42905],[77.73341,14.42841],[77.73469,14.42898],[77.73476,14.42813],[77.73562,14.42821],[77.7357,14.4269],[77.73201,14.42666],[77.7321,14.4259],[77.73234,14.42588],[77.73231,14.42526],[77.72917,14.4251],[77.72922,14.42605],[77.72989,14.42655],[77.7309,14.42829],[77.72826,14.42904],[77.72834,14.43037]]]}},{"type":"Feature","bbox":[77.72698,14.42052,77.73305,14.42521],"properties":{"ward":6},"geometry":{"type":"Polygon","coordinates":[[[77.72917,14.4251],[77.73147,14.42521],[77.73174,14.423],[77.7323,14.4233],[77.73305,14.42303],[77.73261,14.42177],[77.73008,14.42204],[77.72891,14.4215],[77.72833,14.42102],[77.72698,14.42052],[77.72917,14.4251]]]}},{"type":"Feature","bbox":[77.73059,14.42063,77.77621,14.4335],"properties":{"ward":7},"geometry":{"type":"Polygon","coordinates":[[[77.73173,14.423],[77.73146,14.42521],[77.73231,14.42527],[77.73233,14.42588],[77.7321,14.4259],[77.73201,14.42667],[77.7357,14.42689],[77.73973,14.42747],[77.74211,14.42826],[77.75417,14.43297],[77.7542,14.43203],[77.75383,14.4314],[77.75324,14.43118],[77.75299,14.43056],[77.7517,14.42956],[77.75066,14.42917],[77.74976,14.42919],[77.74994,14.42869],[77.75088,14.42835],[77.75157,14.42838],[77.75239,14.4281],[77.75296,14.42759],[77.75282,14.42646],[77.7535,14.42623],[77.75422,14.42543],[77.7561,14.42563],[77.75715,14.42525],[77.75776,14.42587],[77.75867,14.42637],[77.76022,14.42671],[77.76155,14.42782],[77.76119,14.42818],[77.76423,14.43014],[77.76545,14.43038],[77.76555,14.43024],[77.76729,14.43107],[77.7676,14.43137],[77.76801,14.43144],[77.76886,14.43118],[77.77307,14.43211],[77.77522,14.4335],[77.77621,14.43224],[77.77405,14.43034],[77.77361,14.43039],[77.7726,14.42971],[77.77282,14.42937],[77.772,14.42916],[77.77113,14.42849],[77.77036,14.42751],[77.77038,14.42736],[77.76938,14.42627],[77.76883,14.42526],[77.76897,14.42445],[77.7683,14.42281],[77.74395,14.42101],[77.73238,14.42063],[77.73227,14.42082],[77.73059,14.42105],[77.7307,14.42196],[77.73261,14.42177],[77.73305,14.42303],[77.7323,14.4233],[77.73173,14.423]]]}},{"type":"Feature","bbox":[77.72552,14.41049,77.76826,14.42277],"properties":{"ward":8},"geometry":{"type":"Polygon","coordinates":[[[77.72553,14.41457],[77.72552,14.41662],[77.72585,14.41797],[77.72698,14.42052],[77.72832,14.42101],[77.7289,14.4215],[77.73008,14.42204],[77.7307,14.42197],[77.73059,14.42105],[77.73227,14.42082],[77.73238,14.42063],[77.74401,14.42103],[77.76826,14.42277],[77.76539,14.42066],[77.76512,14.41891],[77.76421,14.41736],[77.76278,14.41616],[77.76117,14.41516],[77.75881,14.41508],[77.75867,14.4153],[77.75732,14.41504],[77.75675,14.41527],[77.75619,14.41483],[77.75539,14.41474],[77.75471,14.41481],[77.75441,14.41595],[77.75337,14.41548],[77.75278,14.41472],[77.7536,14.41414],[77.75413,14.41345],[77.75343,14.4119],[77.75208,14.41049],[77.73017,14.41429],[77.72887,14.41373],[77.72775,14.41502],[77.7262,14.41456],[77.72553,14.41457]]]}},{"type":"Feature","bbox":[77.72553,14.38208,77.76447,14.41502],"properties":{"ward":9},"geometry":{"type":"Polygon","coordinates":[[[77.72553,14.41457],[77.7262,14.41456],[77.72775,14.41502],[77.72887,14.41374],[77.73018,14.4143],[77.7521,14.41045],[77.75599,14.41159],[77.75851,14.41161],[77.75945,14.41203],[77.76231,14.41234],[77.76253,14.41218],[77.76373,14.40998],[77.76447,14.40947],[77.76369,14.40922],[77.76399,14.40836],[77.76245,14.40605],[77.76187,14.40432],[77.75938,14.40082],[77.75689,14.39859],[77.75735,14.39405],[77.75709,14.39278],[77.75743,14.38974],[77.75545,14.38945],[77.75274,14.38971],[77.75178,14.38971],[77.75136,14.38954],[77.75154,14.38877],[77.75058,14.38678],[77.75026,14.38456],[77.75053,14.38336],[77.75012,14.38296],[77.7497,14.38208],[77.74979,14.38366],[77.74933,14.3837],[77.74914,14.38624],[77.74845,14.38602],[77.74864,14.38483],[77.74848,14.38473],[77.74822,14.38248],[77.74725,14.3829],[77.74731,14.38399],[77.74362,14.38442],[77.7439,14.38511],[77.74143,14.38542],[77.73971,14.38522],[77.73992,14.38353],[77.73786,14.38232],[77.73771,14.38491],[77.73784,14.38468],[77.73907,14.38495],[77.73897,14.38606],[77.7385,14.38591],[77.73757,14.38775],[77.73665,14.38841],[77.73013,14.38914],[77.73036,14.41183],[77.7267,14.41314],[77.72681,14.41351],[77.72557,14.41349],[77.72553,14.41457]]]}},{"type":"Feature","bbox":[77.72186,14.40414,77.73037,14.41415],"properties":{"ward":10},"geometry":{"type":"Polygon","coordinates":[[[77.72385,14.41415],[77.72555,14.41399],[77.72558,14.41349],[77.72681,14.41351],[77.7267,14.41314],[77.73037,14.41181],[77.73027,14.40414],[77.72287,14.40708],[77.72261,14.40836],[77.72372,14.41004],[77.72398,14.41005],[77.72537,14.41218],[77.72479,14.41275],[77.72422,14.41294],[77.72327,14.41274],[77.72301,14.41157],[77.72266,14.41168],[77.72241,14.41098],[77.72186,14.41121],[77.72218,14.41283],[77.72254,14.41282],[77.72258,14.41343],[77.7235,14.41314],[77.72358,14.41345],[77.72378,14.41342],[77.72385,14.41415]]]}},{"type":"Feature","bbox":[77.72241,14.41006,77.72537,14.41293],"properties":{"ward":11},"geometry":{"type":"Polygon","coordinates":[[[77.72398,14.41006],[77.7225,14.41024],[77.72241,14.41099],[77.72266,14.41168],[77.72301,14.41157],[77.72327,14.41274],[77.72422,14.41293],[77.72479,14.41275],[77.72537,14.41218],[77.72398,14.41006]]]}},{"type":"Feature","bbox":[77.71954,14.40691,77.72372,14.41024],"properties":{"ward":12},"geometry":{"type":"Polygon","coordinates":[[[77.7225,14.41024],[77.72372,14.41003],[77.72261,14.40837],[77.72287,14.40709],[77.72047,14.40691],[77.71954,14.40898],[77.71995,14.40909],[77.71965,14.40992],[77.72059,14.41021],[77.7225,14.41024]]]}},{"type":"Feature","bbox":[77.71805,14.40971,77.7225,14.41282],"properties":{"ward":13},"geometry":{"type":"Polygon","coordinates":[[[77.72059,14.41021],[77.719,14.40971],[77.71889,14.41163],[77.71805,14.41159],[77.71857,14.4124],[77.72219,14.41282],[77.72186,14.41121],[77.72241,14.41098],[77.7225,14.41024],[77.72059,14.41021]]]}},{"type":"Feature","bbox":[77.71998,14.4125,77.72386,14.41855],"properties":{"ward":14},"geometry":{"type":"Polygon","coordinates":[[[77.72238,14.41424],[77.72386,14.41415],[77.72378,14.41342],[77.72358,14.41344],[77.7235,14.41314],[77.72258,14.41343],[77.72254,14.41281],[77.72097,14.41274],[77.72011,14.4125],[77.71998,14.41683],[77.72131,14.41855],[77.72113,14.41691],[77.72154,14.41614],[77.72219,14.41579],[77.72238,14.41424]]]}},{"type":"Feature","bbox":[77.72115,14.41399,77.72555,14.41712],"properties":{"ward":15},"geometry":{"type":"Polygon","coordinates":[[[77.72154,14.41614],[77.72115,14.41712],[77.72552,14.41662],[77.72555,14.41399],[77.72238,14.41423],[77.72219,14.41578],[77.72154,14.41614]]]}},{"type":"Feature","bbox":[77.72115,14.41662,77.72661,14.42091],"properties":{"ward":16},"geometry":{"type":"Polygon","coordinates":[[[77.72115,14.41712],[77.72175,14.42068],[77.72407,14.42034],[77.72419,14.42091],[77.72591,14.42056],[77.72574,14.41995],[77.72661,14.41968],[77.72584,14.41794],[77.72552,14.41662],[77.72115,14.41712]]]}},{"type":"Feature","bbox":[77.72133,14.42083,77.7292,14.4257],"properties":{"ward":17},"geometry":{"type":"Polygon","coordinates":[[[77.72917,14.4251],[77.72713,14.42083],[77.72434,14.42153],[77.72275,14.42172],[77.72188,14.42138],[77.72133,14.42195],[77.72147,14.42313],[77.72281,14.42337],[77.7292,14.4257],[77.72917,14.4251]]]}},{"type":"Feature","bbox":[77.7188,14.41683,77.72712,14.42353],"properties":{"ward":18},"geometry":{"type":"Polygon","coordinates":[[[77.72155,14.419],[77.71998,14.41683],[77.71992,14.41741],[77.7188,14.41888],[77.71968,14.41969],[77.72035,14.42077],[77.72006,14.42353],[77.72147,14.42316],[77.72133,14.42194],[77.72187,14.42138],[77.72265,14.42157],[77.72276,14.42173],[77.72436,14.42153],[77.72712,14.42084],[77.7266,14.41969],[77.72575,14.41992],[77.72591,14.42057],[77.72419,14.4209],[77.72408,14.42034],[77.72175,14.42067],[77.72155,14.419]]]}},{"type":"Feature","bbox":[77.71485,14.4152,77.72003,14.41887],"properties":{"ward":19},"geometry":{"type":"Polygon","coordinates":[[[77.71992,14.41741],[77.72003,14.41579],[77.71861,14.41572],[77.71862,14.41524],[77.71811,14.41529],[77.7181,14.41543],[77.71652,14.41538],[77.71651,14.4152],[77.71485,14.41543],[77.71881,14.41887],[77.71992,14.41741]]]}},{"type":"Feature","bbox":[77.71508,14.41239,77.72011,14.41579],"properties":{"ward":20},"geometry":{"type":"Polygon","coordinates":[[[77.72011,14.4125],[77.71857,14.41239],[77.71508,14.41258],[77.71519,14.41437],[77.71566,14.4143],[77.71576,14.415],[77.71649,14.41495],[77.71652,14.41538],[77.7181,14.41543],[77.71811,14.41528],[77.71862,14.41524],[77.71861,14.41572],[77.72003,14.41579],[77.72011,14.4125]]]}},{"type":"Feature","bbox":[77.71136,14.40954,77.71651,14.41544],"properties":{"ward":21},"geometry":{"type":"Polygon","coordinates":[[[77.71486,14.41544],[77.71651,14.4152],[77.71649,14.41495],[77.71576,14.415],[77.71566,14.4143],[77.71519,14.41437],[77.71509,14.41258],[77.71409,14.41261],[77.71466,14.41126],[77.71371,14.41103],[77.71381,14.40986],[77.71316,14.4098],[77.71262,14.40954],[77.71188,14.41077],[77.71136,14.41216],[77.7127,14.41365],[77.71486,14.41544]]]}},{"type":"Feature","bbox":[77.71371,14.40862,77.71856,14.41261],"properties":{"ward":22},"geometry":{"type":"Polygon","coordinates":[[[77.71409,14.41261],[77.71856,14.41239],[77.71696,14.41028],[77.71414,14.40862],[77.71381,14.40986],[77.71371,14.41103],[77.71465,14.41126],[77.71409,14.41261]]]}},{"type":"Feature","bbox":[77.71119,14.40093,77.73031,14.41163],"properties":{"ward":23},"geometry":{"type":"Polygon","coordinates":[[[77.71806,14.4116],[77.71889,14.41163],[77.719,14.40972],[77.71964,14.40991],[77.71995,14.40909],[77.71954,14.40898],[77.72047,14.40691],[77.72284,14.4071],[77.73031,14.40413],[77.73023,14.40093],[77.71361,14.40716],[77.71119,14.40753],[77.7114,14.40828],[77.71222,14.40872],[77.71413,14.40862],[77.71559,14.40939],[77.71696,14.41027],[77.71806,14.4116]]]}},{"type":"Feature","bbox":[77.70878,14.4077,77.71414,14.41216],"properties":{"ward":24},"geometry":{"type":"Polygon","coordinates":[[[77.7114,14.40827],[77.71123,14.4077],[77.70937,14.40782],[77.70878,14.40865],[77.71135,14.41216],[77.71189,14.41074],[77.71263,14.40954],[77.71315,14.40981],[77.7138,14.40986],[77.71414,14.40863],[77.71222,14.40873],[77.7114,14.40827]]]}},{"type":"Feature","bbox":[77.70158,14.38114,77.73022,14.40865],"properties":{"ward":25},"geometry":{"type":"Polygon","coordinates":[[[77.71122,14.4077],[77.71119,14.40753],[77.71362,14.40716],[77.73022,14.40094],[77.73005,14.38928],[77.72806,14.38947],[77.7267,14.38627],[77.72238,14.38627],[77.72397,14.38452],[77.72238,14.38194],[77.72205,14.38245],[77.7195,14.38114],[77.71954,14.38339],[77.71885,14.38487],[77.71686,14.38479],[77.71724,14.38491],[77.71725,14.38568],[77.71902,14.38563],[77.71865,14.38784],[77.71669,14.38769],[77.7146,14.38666],[77.71422,14.38724],[77.70961,14.39149],[77.70817,14.39318],[77.70699,14.39231],[77.70668,14.3926],[77.70573,14.38949],[77.70518,14.3886],[77.70284,14.39205],[77.70187,14.39442],[77.70158,14.39689],[77.70287,14.40059],[77.70879,14.40865],[77.70939,14.4078],[77.71122,14.4077]]]}},{"type":"Feature","bbox":[77.70518,14.38188,77.71454,14.39317],"properties":{"ward":26},"geometry":{"type":"Polygon","coordinates":[[[77.70699,14.39232],[77.70815,14.39317],[77.70964,14.39146],[77.7142,14.38725],[77.71441,14.38684],[77.71454,14.38654],[77.71106,14.38588],[77.7136,14.38394],[77.71164,14.38287],[77.7117,14.38199],[77.70974,14.38188],[77.70518,14.3886],[77.70573,14.38948],[77.70667,14.39259],[77.70699,14.39232]]]}},{"type":"Feature","bbox":[77.69405,14.38076,77.70974,14.40058],"properties":{"ward":27},"geometry":{"type":"Polygon","coordinates":[[[77.69452,14.38897],[77.70287,14.40058],[77.70159,14.39689],[77.70186,14.39441],[77.70285,14.39204],[77.70974,14.38184],[77.70952,14.38076],[77.70846,14.38122],[77.69822,14.38447],[77.69866,14.38507],[77.69663,14.38559],[77.69707,14.38712],[77.69405,14.38778],[77.69452,14.38897]]]}},{"type":"Feature","bbox":[77.67986,14.37266,77.7095,14.40017],"properties":{"ward":28},"geometry":{"type":"Polygon","coordinates":[[[77.69454,14.38899],[77.69403,14.38778],[77.69708,14.38712],[77.69662,14.38559],[77.69866,14.38507],[77.69822,14.38447],[77.70849,14.38122],[77.7095,14.38071],[77.70921,14.37897],[77.70875,14.37766],[77.70459,14.38076],[77.70174,14.38187],[77.69866,14.3816],[77.69809,14.38017],[77.69385,14.37824],[77.69164,14.37547],[77.69038,14.37358],[77.68976,14.37355],[77.6881,14.37293],[77.68594,14.37266],[77.68435,14.37276],[77.68309,14.37319],[77.68299,14.37293],[77.68157,14.37294],[77.68093,14.37352],[77.68093,14.37404],[77.68042,14.37431],[77.68057,14.37558],[77.68027,14.37672],[77.67987,14.37715],[77.68044,14.37751],[77.67986,14.37784],[77.6824,14.37978],[77.68301,14.38175],[77.68245,14.38169],[77.68142,14.38579],[77.68207,14.38607],[77.68569,14.38649],[77.68683,14.38639],[77.68716,14.38822],[77.6886,14.38806],[77.68852,14.39006],[77.69008,14.39033],[77.69012,14.39047],[77.69121,14.39046],[77.69157,14.39216],[77.69333,14.39203],[77.69487,14.39511],[77.696,14.3962],[77.69698,14.39778],[77.69769,14.39807],[77.69783,14.39895],[77.69769,14.3998],[77.69784,14.40017],[77.70112,14.39816],[77.69454,14.38899]]]}},{"type":"Feature","bbox":[77.69784,14.39816,77.71022,14.41298],"properties":{"ward":29},"geometry":{"type":"Polygon","coordinates":[[[77.71022,14.41061],[77.70113,14.39816],[77.69784,14.40021],[77.69795,14.40165],[77.69946,14.4031],[77.70079,14.40524],[77.70431,14.40723],[77.70526,14.40746],[77.70521,14.40799],[77.70608,14.40871],[77.70631,14.40921],[77.70696,14.40933],[77.70758,14.41253],[77.70829,14.41204],[77.70899,14.41298],[77.70995,14.41231],[77.70927,14.41134],[77.71022,14.41061]]]}},{"type":"Feature","bbox":[77.70746,14.41061,77.71272,14.4162],"properties":{"ward":30},"geometry":{"type":"Polygon","coordinates":[[[77.709,14.41298],[77.70829,14.41204],[77.70758,14.41252],[77.70746,14.41338],[77.70889,14.41343],[77.70884,14.41425],[77.70981,14.41436],[77.70947,14.41505],[77.7093,14.41606],[77.70941,14.4162],[77.71272,14.41366],[77.71135,14.41216],[77.71022,14.41061],[77.70927,14.41135],[77.70995,14.41231],[77.709,14.41298]]]}},{"type":"Feature","bbox":[77.69136,14.4042,77.70981,14.417],"properties":{"ward":31},"geometry":{"type":"Polygon","coordinates":[[[77.7093,14.41606],[77.70948,14.41505],[77.70981,14.41436],[77.70884,14.41424],[77.70889,14.41343],[77.70746,14.41337],[77.70758,14.41253],[77.70696,14.40933],[77.70631,14.40921],[77.70608,14.40871],[77.70521,14.40798],[77.70526,14.40745],[77.7043,14.40722],[77.70185,14.40582],[77.69897,14.40494],[77.69901,14.40474],[77.69737,14.40452],[77.69552,14.40467],[77.69385,14.40446],[77.69366,14.4042],[77.69322,14.40548],[77.69264,14.40581],[77.69245,14.40762],[77.69187,14.40827],[77.69136,14.40917],[77.69158,14.41131],[77.69322,14.41406],[77.69405,14.41587],[77.69413,14.417],[77.70702,14.41567],[77.7093,14.41606]]]}},{"type":"Feature","bbox":[77.69414,14.41566,77.71104,14.4287],"properties":{"ward":32},"geometry":{"type":"Polygon","coordinates":[[[77.70941,14.41619],[77.7093,14.41605],[77.70706,14.41566],[77.69414,14.41701],[77.69422,14.41819],[77.6949,14.41978],[77.69529,14.41994],[77.69494,14.4208],[77.69533,14.42136],[77.69689,14.42205],[77.69724,14.4224],[77.69672,14.42291],[77.69728,14.42256],[77.69806,14.42324],[77.6983,14.4244],[77.6979,14.42471],[77.69831,14.42579],[77.69965,14.42676],[77.69978,14.4287],[77.70469,14.4271],[77.70751,14.42581],[77.71003,14.4252],[77.70969,14.42386],[77.71104,14.42351],[77.71014,14.41935],[77.71042,14.4187],[77.70991,14.41843],[77.70948,14.41647],[77.70927,14.41631],[77.70941,14.41619]]]}},{"type":"Feature","bbox":[77.70928,14.41471,77.71297,14.41954],"properties":{"ward":33},"geometry":{"type":"Polygon","coordinates":[[[77.70999,14.41856],[77.71043,14.41869],[77.71096,14.41786],[77.71123,14.41783],[77.71146,14.41752],[77.71156,14.4187],[77.71173,14.41868],[77.71197,14.41954],[77.71297,14.41913],[77.71213,14.41689],[77.71207,14.41551],[77.71135,14.41471],[77.70928,14.41632],[77.70947,14.41647],[77.70999,14.41856]]]}},{"type":"Feature","bbox":[77.71135,14.41366,77.7163,14.4183],"properties":{"ward":34},"geometry":{"type":"Polygon","coordinates":[[[77.71213,14.41689],[77.71266,14.4183],[77.71438,14.4177],[77.71486,14.41696],[77.71545,14.41752],[77.7163,14.41669],[77.71272,14.41366],[77.71135,14.41471],[77.71207,14.4155],[77.71213,14.41689]]]}},{"type":"Feature","bbox":[77.71197,14.41669,77.71767,14.42102],"properties":{"ward":35},"geometry":{"type":"Polygon","coordinates":[[[77.71297,14.41913],[77.71197,14.41953],[77.71236,14.41966],[77.71262,14.42077],[77.71309,14.42064],[77.7132,14.42102],[77.71423,14.42073],[77.71383,14.41963],[77.71448,14.4194],[77.71485,14.41955],[77.7173,14.41926],[77.71711,14.41838],[77.71767,14.41787],[77.7163,14.41669],[77.71545,14.41752],[77.71486,14.41696],[77.71438,14.4177],[77.71266,14.41831],[77.71297,14.41913]]]}},{"type":"Feature","bbox":[77.71342,14.41787,77.72034,14.42543],"properties":{"ward":36},"geometry":{"type":"Polygon","coordinates":[[[77.71423,14.42073],[77.71342,14.42095],[77.71404,14.42167],[77.71548,14.42243],[77.71736,14.42543],[77.72006,14.42357],[77.72034,14.42077],[77.71968,14.41969],[77.71767,14.41787],[77.71711,14.41837],[77.7173,14.41926],[77.71486,14.41955],[77.71447,14.41941],[77.71382,14.41963],[77.71423,14.42073]]]}},{"type":"Feature","bbox":[77.71014,14.41752,77.71409,14.42351],"properties":{"ward":37},"geometry":{"type":"Polygon","coordinates":[[[77.71014,14.41935],[77.71104,14.42351],[77.71246,14.4232],[77.71232,14.42268],[77.71409,14.42225],[77.71342,14.42095],[77.7132,14.42102],[77.71309,14.42064],[77.71261,14.42077],[77.71236,14.41966],[77.71206,14.41967],[77.71173,14.41868],[77.71156,14.4187],[77.71146,14.41752],[77.71123,14.41783],[77.71096,14.41786],[77.71014,14.41935]]]}},{"type":"Feature","bbox":[77.70969,14.42136,77.71736,14.42662],"properties":{"ward":38},"geometry":{"type":"Polygon","coordinates":[[[77.70969,14.42386],[77.71003,14.42521],[77.71419,14.42421],[77.7156,14.42662],[77.71736,14.42541],[77.71548,14.42243],[77.71447,14.42196],[77.71372,14.42136],[77.71408,14.42224],[77.71233,14.42268],[77.71246,14.4232],[77.70969,14.42386]]]}},{"type":"Feature","bbox":[77.70721,14.42421,77.7156,14.43146],"properties":{"ward":39},"geometry":{"type":"Polygon","coordinates":[[[77.71045,14.42907],[77.70847,14.4311],[77.70909,14.43146],[77.71272,14.4286],[77.7156,14.42662],[77.71419,14.42421],[77.70721,14.42595],[77.71045,14.42907]]]}},{"type":"Feature","bbox":[77.69978,14.42595,77.71045,14.43632],"properties":{"ward":40},"geometry":{"type":"Polygon","coordinates":[[[77.70223,14.43632],[77.70909,14.43146],[77.70847,14.4311],[77.71045,14.42907],[77.70721,14.42595],[77.7047,14.4271],[77.69978,14.42871],[77.69978,14.42983],[77.70005,14.43107],[77.70148,14.43205],[77.70054,14.43318],[77.70125,14.43434],[77.70226,14.4353],[77.70191,14.43575],[77.70227,14.43614],[77.70223,14.43632]]]}}]}