{"type":"FeatureCollection","features":[{"type":"Feature","bbox":[77.13068,17.77555,77.13528,17.7821],"properties":{"ward":1},"geometry":{"type":"Polygon","coordinates":[[[77.13437,17.77837],[77.13448,17.77695],[77.13418,17.77697],[77.13424,17.77657],[77.13398,17.77633],[77.13299,17.77626],[77.133,17.77555],[77.13162,17.77652],[77.13068,17.77653],[77.13085,17.77832],[77.13148,17.77827],[77.13233,17.7812],[77.13276,17.7821],[77.13404,17.78161],[77.13528,17.78064],[77.13508,17.78018],[77.13449,17.77952],[77.13437,17.77837]]]}},{"type":"Feature","bbox":[77.13068,17.77451,77.13275,17.77654],"properties":{"ward":2},"geometry":{"type":"Polygon","coordinates":[[[77.13275,17.77566],[77.13245,17.77451],[77.1307,17.77453],[77.13068,17.77653],[77.13158,17.77654],[77.13275,17.77566]]]}},{"type":"Feature","bbox":[77.13069,17.77356,77.13413,17.77561],"properties":{"ward":3},"geometry":{"type":"Polygon","coordinates":[[[77.133,17.77555],[77.13297,17.77529],[77.13342,17.77502],[77.13413,17.77356],[77.13069,17.77358],[77.1307,17.77453],[77.13245,17.77451],[77.1327,17.77561],[77.133,17.77555]]]}},{"type":"Feature","bbox":[77.13072,17.77026,77.13413,17.77356],"properties":{"ward":4},"geometry":{"type":"Polygon","coordinates":[[[77.13413,17.77356],[77.13399,17.77304],[77.13366,17.77262],[77.13332,17.77274],[77.13308,17.77214],[77.13279,17.77224],[77.1322,17.77095],[77.13178,17.77093],[77.13126,17.77026],[77.13072,17.77055],[77.13234,17.77241],[77.13258,17.77356],[77.13413,17.77356]]]}},{"type":"Feature","bbox":[77.13066,17.77055,77.13258,17.77358],"properties":{"ward":5},"geometry":{"type":"Polygon","coordinates":[[[77.13258,17.77356],[77.13234,17.77241],[77.131,17.77073],[77.13066,17.77055],[77.13069,17.77358],[77.13258,17.77356]]]}},{"type":"Feature","bbox":[77.13297,17.77328,77.13968,17.78064],"properties":{"ward":6},"geometry":{"type":"Polygon","coordinates":[[[77.13919,17.77705],[77.1371,17.77472],[77.13637,17.77489],[77.13516,17.77381],[77.13494,17.77328],[77.13413,17.77356],[77.13342,17.77502],[77.13297,17.77529],[77.13299,17.77626],[77.13398,17.77633],[77.13424,17.77657],[77.13418,17.77697],[77.13448,17.77695],[77.13442,17.77922],[77.13453,17.77961],[77.13508,17.78018],[77.13528,17.78064],[77.13819,17.77823],[77.13968,17.77802],[77.13919,17.77705]]]}},{"type":"Feature","bbox":[77.13154,17.7681,77.14767,17.77815],"properties":{"ward":7},"geometry":{"type":"Polygon","coordinates":[[[77.14211,17.77801],[77.14487,17.77659],[77.14752,17.77601],[77.14767,17.77576],[77.14689,17.77475],[77.14646,17.77315],[77.14396,17.76891],[77.14363,17.7681],[77.14021,17.76912],[77.13889,17.76935],[77.13808,17.7694],[77.13412,17.769],[77.13154,17.76943],[77.1329,17.77089],[77.13365,17.77099],[77.13434,17.77135],[77.13492,17.77275],[77.13495,17.77349],[77.13516,17.77381],[77.13637,17.77489],[77.1371,17.77472],[77.13795,17.7758],[77.13881,17.77657],[77.13968,17.77802],[77.14094,17.77815],[77.14211,17.77801]]]}},{"type":"Feature","bbox":[77.13043,17.76943,77.13494,17.77356],"properties":{"ward":8},"geometry":{"type":"Polygon","coordinates":[[[77.13494,17.77328],[77.13492,17.77275],[77.1343,17.77131],[77.13365,17.77099],[77.1329,17.77089],[77.13154,17.76943],[77.13043,17.77007],[77.13066,17.77055],[77.13126,17.77026],[77.13178,17.77093],[77.1322,17.77095],[77.13279,17.77224],[77.13308,17.77214],[77.13332,17.77274],[77.13366,17.77262],[77.13399,17.77304],[77.13413,17.77356],[77.13494,17.77328]]]}},{"type":"Feature","bbox":[77.12847,17.77007,77.1307,17.77229],"properties":{"ward":9},"geometry":{"type":"Polygon","coordinates":[[[77.1307,17.77228],[77.13055,17.77017],[77.13043,17.77007],[77.12867,17.77063],[77.12865,17.77161],[77.12847,17.77211],[77.12916,17.77229],[77.1307,17.77228]]]}},{"type":"Feature","bbox":[77.12806,17.77211,77.1307,17.77452],"properties":{"ward":10},"geometry":{"type":"Polygon","coordinates":[[[77.12958,17.77452],[77.12958,17.77358],[77.13069,17.77358],[77.1307,17.77228],[77.12916,17.77229],[77.12847,17.77211],[77.12806,17.77353],[77.12853,17.7736],[77.12847,17.77439],[77.12958,17.77452]]]}},{"type":"Feature","bbox":[77.12872,17.77358,77.13069,17.77691],"properties":{"ward":11},"geometry":{"type":"Polygon","coordinates":[[[77.13068,17.77655],[77.13069,17.77358],[77.12958,17.77358],[77.12954,17.77521],[77.12872,17.77691],[77.13068,17.77655]]]}},{"type":"Feature","bbox":[77.12552,17.77063,77.12867,17.77353],"properties":{"ward":12},"geometry":{"type":"Polygon","coordinates":[[[77.12806,17.77353],[77.12865,17.77161],[77.12867,17.77063],[77.1276,17.77106],[77.12552,17.77242],[77.12585,17.77273],[77.12596,17.7733],[77.12678,17.77323],[77.12806,17.77353]]]}},{"type":"Feature","bbox":[77.12664,17.77345,77.12958,17.7771],"properties":{"ward":13},"geometry":{"type":"Polygon","coordinates":[[[77.12868,17.77698],[77.1294,17.77565],[77.12958,17.77452],[77.12847,17.77439],[77.12853,17.7736],[77.12779,17.77345],[77.12707,17.77448],[77.12664,17.77578],[77.12697,17.77684],[77.12732,17.7771],[77.12746,17.77691],[77.12738,17.77658],[77.12844,17.7766],[77.12843,17.7769],[77.12868,17.77698]]]}},{"type":"Feature","bbox":[77.12729,17.77658,77.12868,17.77949],"properties":{"ward":14},"geometry":{"type":"Polygon","coordinates":[[[77.12868,17.77698],[77.12843,17.7769],[77.12844,17.7766],[77.12738,17.77658],[77.12729,17.77836],[77.12751,17.77949],[77.12846,17.77888],[77.12858,17.77831],[77.12851,17.77734],[77.12868,17.77698]]]}},{"type":"Feature","bbox":[77.12513,17.7776,77.12751,17.78138],"properties":{"ward":15},"geometry":{"type":"Polygon","coordinates":[[[77.1261,17.78138],[77.1264,17.77995],[77.12751,17.77949],[77.12731,17.77866],[77.12736,17.7776],[77.12679,17.7778],[77.12658,17.77813],[77.12513,17.77842],[77.12546,17.78004],[77.12549,17.78134],[77.1261,17.78138]]]}},{"type":"Feature","bbox":[77.12552,17.77063,77.12867,17.77353],"properties":{"ward":16},"geometry":{"type":"Polygon","coordinates":[[[77.12806,17.77353],[77.12865,17.77161],[77.12867,17.77063],[77.1276,17.77106],[77.12552,17.77242],[77.12585,17.77273],[77.12596,17.7733],[77.12678,17.77323],[77.12806,17.77353]]]}},{"type":"Feature","bbox":[77.1191,17.77242,77.12782,17.78182],"properties":{"ward":17},"geometry":{"type":"Polygon","coordinates":[[[77.12062,17.78178],[77.12252,17.7811],[77.12323,17.78108],[77.12339,17.7814],[77.12549,17.78134],[77.12546,17.78004],[77.12513,17.77842],[77.12658,17.77813],[77.12679,17.7778],[77.12735,17.77762],[77.12738,17.77715],[77.12697,17.77684],[77.12664,17.77565],[77.12713,17.77436],[77.12782,17.77345],[77.12678,17.77323],[77.12596,17.7733],[77.12585,17.77273],[77.12552,17.77242],[77.12355,17.77374],[77.122,17.77456],[77.12096,17.77607],[77.1191,17.78163],[77.11993,17.78182],[77.12062,17.78178]]]}},{"type":"Feature","bbox":[77.10217,17.76852,77.12214,17.78163],"properties":{"ward":18},"geometry":{"type":"Polygon","coordinates":[[[77.11543,17.77704],[77.11678,17.77732],[77.11742,17.77724],[77.11682,17.77907],[77.117,17.78011],[77.11754,17.78146],[77.1191,17.78163],[77.12096,17.77607],[77.12142,17.77525],[77.12214,17.7744],[77.12149,17.77397],[77.12086,17.77259],[77.11954,17.7711],[77.11627,17.7689],[77.10737,17.76909],[77.10217,17.76852],[77.10254,17.77064],[77.10338,17.77247],[77.1045,17.77175],[77.10607,17.77192],[77.10758,17.77239],[77.10737,17.76953],[77.11075,17.76971],[77.11071,17.77193],[77.11092,17.77401],[77.11324,17.77419],[77.1137,17.7749],[77.11382,17.77548],[77.11559,17.77584],[77.11543,17.77704]]]}},{"type":"Feature","bbox":[77.11627,17.76702,77.12414,17.7744],"properties":{"ward":19},"geometry":{"type":"Polygon","coordinates":[[[77.12414,17.77336],[77.12341,17.77269],[77.12219,17.77225],[77.12167,17.77045],[77.12207,17.77028],[77.12237,17.76987],[77.1215,17.76901],[77.1209,17.76919],[77.12076,17.76842],[77.12036,17.76854],[77.12026,17.76797],[77.1192,17.76702],[77.11729,17.76851],[77.11627,17.7689],[77.11954,17.7711],[77.12086,17.77259],[77.12149,17.77397],[77.12214,17.7744],[77.12414,17.77336]]]}},{"type":"Feature","bbox":[77.12148,17.76782,77.12638,17.77336],"properties":{"ward":20},"geometry":{"type":"Polygon","coordinates":[[[77.12414,17.77336],[77.12638,17.77185],[77.1256,17.7702],[77.12508,17.76782],[77.12148,17.76896],[77.12237,17.76987],[77.12207,17.77028],[77.12167,17.77045],[77.12219,17.77225],[77.12341,17.77269],[77.12414,17.77336]]]}},{"type":"Feature","bbox":[77.1192,17.76437,77.12508,17.76919],"properties":{"ward":21},"geometry":{"type":"Polygon","coordinates":[[[77.1209,17.76919],[77.12508,17.76783],[77.12433,17.76442],[77.12329,17.76437],[77.1223,17.76467],[77.1192,17.76702],[77.12026,17.76797],[77.12036,17.76854],[77.12076,17.76842],[77.1209,17.76919]]]}},{"type":"Feature","bbox":[77.12433,17.76442,77.13623,17.77185],"properties":{"ward":22},"geometry":{"type":"Polygon","coordinates":[[[77.1276,17.77106],[77.13032,17.77012],[77.13133,17.76951],[77.13226,17.76923],[77.13388,17.769],[77.13623,17.76916],[77.13046,17.76786],[77.12919,17.76726],[77.12599,17.76524],[77.12433,17.76442],[77.12556,17.77007],[77.12638,17.77185],[77.1276,17.77106]]]}},{"type":"Feature","bbox":[77.12687,17.73721,77.14382,17.7694],"properties":{"ward":23},"geometry":{"type":"Polygon","coordinates":[[[77.12899,17.7373],[77.129,17.74704],[77.12913,17.7488],[77.13072,17.75395],[77.1311,17.75686],[77.13124,17.75972],[77.13116,17.75997],[77.13094,17.76001],[77.12687,17.76007],[77.12751,17.76176],[77.1301,17.76543],[77.13017,17.7665],[77.13085,17.76798],[77.13623,17.76916],[77.13808,17.7694],[77.14021,17.76912],[77.14363,17.7681],[77.14382,17.75868],[77.14218,17.7571],[77.13883,17.75484],[77.13676,17.7538],[77.1343,17.75325],[77.13204,17.74954],[77.1322,17.74355],[77.13292,17.74268],[77.13318,17.74158],[77.13201,17.74127],[77.13167,17.74061],[77.13125,17.74051],[77.13055,17.73733],[77.12968,17.73721],[77.12899,17.7373]]]}},{"type":"Feature","bbox":[77.11602,17.73291,77.13123,17.76007],"properties":{"ward":24},"geometry":{"type":"Polygon","coordinates":[[[77.12899,17.7373],[77.1288,17.73731],[77.12884,17.73652],[77.12626,17.73653],[77.12461,17.73599],[77.12109,17.73546],[77.11964,17.73509],[77.11863,17.73342],[77.11602,17.73291],[77.11761,17.73552],[77.11976,17.73861],[77.1208,17.73976],[77.12211,17.74188],[77.1231,17.7446],[77.12374,17.74736],[77.12465,17.75013],[77.125,17.75189],[77.1259,17.75424],[77.12687,17.76007],[77.13094,17.76001],[77.13123,17.75983],[77.1311,17.75686],[77.13072,17.75395],[77.12913,17.7488],[77.129,17.74704],[77.12899,17.7373]]]}},{"type":"Feature","bbox":[77.11078,17.72874,77.13085,17.76798],"properties":{"ward":25},"geometry":{"type":"Polygon","coordinates":[[[77.12687,17.76007],[77.1259,17.75424],[77.125,17.75189],[77.12465,17.75013],[77.12374,17.74736],[77.123,17.74427],[77.12192,17.74145],[77.11809,17.73622],[77.11602,17.73291],[77.11414,17.73055],[77.1141,17.72958],[77.11373,17.72947],[77.11372,17.72921],[77.11264,17.72884],[77.11104,17.72874],[77.11078,17.72995],[77.11143,17.73652],[77.11381,17.73703],[77.11399,17.73862],[77.11377,17.74113],[77.11396,17.74236],[77.11471,17.74443],[77.11493,17.74567],[77.11604,17.74705],[77.11686,17.74739],[77.11746,17.74738],[77.11763,17.75116],[77.11969,17.75042],[77.12068,17.75065],[77.12202,17.75562],[77.12271,17.75654],[77.12304,17.75816],[77.12215,17.75878],[77.12215,17.76058],[77.12264,17.76112],[77.12433,17.76442],[77.12599,17.76524],[77.12919,17.76726],[77.13085,17.76798],[77.13017,17.7665],[77.1301,17.76543],[77.12782,17.76234],[77.12687,17.76007]]]}},{"type":"Feature","bbox":[77.09873,17.7286,77.12338,17.76328],"properties":{"ward":26},"geometry":{"type":"Polygon","coordinates":[[[77.10045,17.73773],[77.09873,17.7387],[77.1,17.74015],[77.10103,17.74206],[77.10076,17.74322],[77.10189,17.75032],[77.10319,17.75408],[77.10727,17.75932],[77.10835,17.76318],[77.10988,17.76283],[77.11019,17.76253],[77.11097,17.76224],[77.11165,17.76249],[77.11216,17.76245],[77.11375,17.76158],[77.11412,17.76169],[77.11432,17.76198],[77.11674,17.76175],[77.11662,17.76282],[77.11986,17.76249],[77.11996,17.76326],[77.12009,17.76328],[77.12129,17.76294],[77.12165,17.76316],[77.12338,17.76256],[77.12253,17.76092],[77.12215,17.76058],[77.12215,17.75878],[77.12304,17.75816],[77.12271,17.75654],[77.12202,17.75562],[77.12068,17.75065],[77.11969,17.75042],[77.11763,17.75116],[77.11746,17.74738],[77.11686,17.74739],[77.11604,17.74705],[77.11493,17.74567],[77.11471,17.74443],[77.11396,17.74236],[77.11377,17.74113],[77.11399,17.73862],[77.11381,17.73703],[77.11143,17.73652],[77.11078,17.72995],[77.11104,17.72874],[77.10894,17.7286],[77.10567,17.72868],[77.10488,17.72923],[77.10213,17.72993],[77.10107,17.72968],[77.10111,17.73233],[77.09976,17.73236],[77.10126,17.73578],[77.10045,17.73773]]]}},{"type":"Feature","bbox":[77.0976,17.76158,77.12433,17.76899],"properties":{"ward":27},"geometry":{"type":"Polygon","coordinates":[[[77.10556,17.76897],[77.11595,17.76899],[77.11688,17.76871],[77.1223,17.76467],[77.12329,17.76437],[77.12433,17.76442],[77.12338,17.76256],[77.12165,17.76316],[77.12129,17.76294],[77.12009,17.76328],[77.11996,17.76326],[77.11986,17.76249],[77.11662,17.76282],[77.11674,17.76175],[77.11432,17.76198],[77.11412,17.76169],[77.11375,17.76158],[77.11216,17.76245],[77.11165,17.76249],[77.11097,17.76224],[77.11019,17.76253],[77.10988,17.76283],[77.10835,17.76318],[77.10512,17.76275],[77.10404,17.76275],[77.10071,17.76318],[77.09969,17.76467],[77.0976,17.76622],[77.09911,17.76815],[77.1021,17.76835],[77.10217,17.76852],[77.10556,17.76897]]]}}]}