{"type":"FeatureCollection","features":[{"type":"Feature","bbox":[74.58373,16.42908,74.58782,16.43119],"properties":{"ward":1},"geometry":{"type":"Polygon","coordinates":[[[74.58782,16.42926],[74.58486,16.42925],[74.58432,16.42908],[74.58373,16.43058],[74.58453,16.43079],[74.58606,16.43085],[74.58607,16.43118],[74.58648,16.43119],[74.58747,16.4306],[74.58782,16.42926]]]}},{"type":"Feature","bbox":[74.58432,16.42722,74.58721,16.42925],"properties":{"ward":2},"geometry":{"type":"Polygon","coordinates":[[[74.58663,16.42925],[74.58669,16.42867],[74.58721,16.42865],[74.5872,16.42813],[74.58635,16.42803],[74.58647,16.42746],[74.5848,16.42722],[74.58432,16.42908],[74.58486,16.42925],[74.58663,16.42925]]]}},{"type":"Feature","bbox":[74.57762,16.42067,74.58742,16.42908],"properties":{"ward":3},"geometry":{"type":"Polygon","coordinates":[[[74.5848,16.42722],[74.58612,16.42558],[74.58666,16.42343],[74.58738,16.4225],[74.58742,16.42105],[74.58503,16.42105],[74.58495,16.4208],[74.58411,16.42067],[74.58411,16.42176],[74.58365,16.42211],[74.58362,16.42297],[74.58372,16.42313],[74.58477,16.42314],[74.58468,16.42411],[74.58375,16.42403],[74.58339,16.42493],[74.58169,16.42477],[74.57851,16.42559],[74.57762,16.42557],[74.58432,16.42908],[74.5848,16.42722]]]}},{"type":"Feature","bbox":[74.57893,16.42845,74.58435,16.43306],"properties":{"ward":4},"geometry":{"type":"Polygon","coordinates":[[[74.58435,16.43303],[74.58359,16.43117],[74.58432,16.42908],[74.58327,16.42845],[74.58301,16.42925],[74.58209,16.42915],[74.58177,16.42946],[74.58181,16.42996],[74.58201,16.42999],[74.58205,16.43023],[74.58108,16.4305],[74.58112,16.43076],[74.5791,16.43056],[74.57893,16.43118],[74.57914,16.43149],[74.57945,16.43161],[74.57952,16.43135],[74.58004,16.43147],[74.58013,16.43106],[74.58086,16.43115],[74.5808,16.43138],[74.58135,16.43148],[74.58127,16.43163],[74.58167,16.43172],[74.5819,16.4324],[74.58271,16.43251],[74.58252,16.43306],[74.58435,16.43303]]]}},{"type":"Feature","bbox":[74.58359,16.43058,74.58612,16.43249],"properties":{"ward":5},"geometry":{"type":"Polygon","coordinates":[[[74.58612,16.4322],[74.58607,16.43086],[74.58453,16.43079],[74.58373,16.43058],[74.58359,16.43117],[74.58423,16.43249],[74.58612,16.4322]]]}},{"type":"Feature","bbox":[74.5848,16.42513,74.58782,16.42926],"properties":{"ward":6},"geometry":{"type":"Polygon","coordinates":[[[74.58782,16.42926],[74.5874,16.42715],[74.5878,16.42513],[74.58624,16.42525],[74.58597,16.42592],[74.5848,16.42722],[74.58647,16.42746],[74.58635,16.42803],[74.5872,16.42813],[74.58721,16.42865],[74.58669,16.42867],[74.58663,16.42925],[74.58782,16.42926]]]}},{"type":"Feature","bbox":[74.57654,16.42541,74.58327,16.43076],"properties":{"ward":7},"geometry":{"type":"Polygon","coordinates":[[[74.58327,16.42845],[74.57726,16.42541],[74.57711,16.42588],[74.5771,16.42691],[74.57671,16.42687],[74.57654,16.42829],[74.57696,16.42843],[74.57684,16.42985],[74.57782,16.43026],[74.57907,16.43056],[74.58112,16.43076],[74.58108,16.4305],[74.58205,16.43023],[74.58201,16.42999],[74.58181,16.42996],[74.58177,16.42946],[74.58209,16.42915],[74.58301,16.42925],[74.58327,16.42845]]]}},{"type":"Feature","bbox":[74.58607,16.42926,74.59364,16.43307],"properties":{"ward":8},"geometry":{"type":"Polygon","coordinates":[[[74.59364,16.43298],[74.59092,16.4304],[74.58803,16.42929],[74.58782,16.42926],[74.58745,16.43063],[74.58651,16.43118],[74.58607,16.43118],[74.58624,16.43296],[74.58802,16.43244],[74.5884,16.43205],[74.58952,16.43183],[74.59004,16.43187],[74.59008,16.43249],[74.59177,16.43258],[74.59354,16.43307],[74.59364,16.43298]]]}},{"type":"Feature","bbox":[74.58746,16.4268,74.59072,16.43023],"properties":{"ward":9},"geometry":{"type":"Polygon","coordinates":[[[74.59061,16.42947],[74.58947,16.42903],[74.58953,16.42889],[74.58876,16.42889],[74.58887,16.42852],[74.58882,16.42806],[74.58858,16.42767],[74.58865,16.42702],[74.58767,16.42713],[74.58746,16.4268],[74.58746,16.42769],[74.58782,16.42926],[74.59062,16.43023],[74.59072,16.42994],[74.5905,16.42972],[74.59061,16.42947]]]}},{"type":"Feature","bbox":[74.58423,16.4322,74.5883,16.43997],"properties":{"ward":10},"geometry":{"type":"Polygon","coordinates":[[[74.58733,16.43853],[74.58744,16.43758],[74.58709,16.43582],[74.5883,16.43558],[74.58807,16.43408],[74.58826,16.43226],[74.58628,16.43296],[74.58612,16.4322],[74.58423,16.43249],[74.58467,16.4338],[74.58589,16.43467],[74.58622,16.43511],[74.58607,16.43536],[74.58526,16.43535],[74.58511,16.43563],[74.58554,16.43627],[74.58548,16.43731],[74.58632,16.43812],[74.58642,16.43859],[74.58618,16.43882],[74.58619,16.43933],[74.58642,16.43991],[74.58652,16.43997],[74.5867,16.43973],[74.58733,16.43853]]]}},{"type":"Feature","bbox":[74.58746,16.41389,74.60781,16.42947],"properties":{"ward":11},"geometry":{"type":"Polygon","coordinates":[[[74.60581,16.42838],[74.60586,16.4274],[74.60563,16.42676],[74.60552,16.42568],[74.60456,16.4264],[74.6036,16.42589],[74.60211,16.42055],[74.6036,16.42036],[74.60598,16.42093],[74.60765,16.42082],[74.60781,16.42096],[74.60768,16.42045],[74.60732,16.41981],[74.60521,16.41926],[74.6036,16.41933],[74.6033,16.41823],[74.60157,16.41807],[74.60105,16.4159],[74.60111,16.41468],[74.60031,16.41453],[74.59951,16.41389],[74.59922,16.41397],[74.59917,16.41432],[74.59942,16.4148],[74.59989,16.41508],[74.60002,16.41534],[74.5997,16.41622],[74.5991,16.41627],[74.599,16.41642],[74.59942,16.41716],[74.59938,16.41752],[74.59779,16.4187],[74.5945,16.41955],[74.59362,16.42131],[74.59394,16.42296],[74.59329,16.4228],[74.59277,16.42308],[74.59205,16.42311],[74.5913,16.42278],[74.5909,16.42298],[74.58848,16.42517],[74.5878,16.42513],[74.58746,16.4268],[74.58767,16.42713],[74.58865,16.42702],[74.58858,16.42767],[74.58882,16.42806],[74.58887,16.42852],[74.58876,16.42889],[74.58953,16.42889],[74.58947,16.42903],[74.59061,16.42947],[74.59105,16.42856],[74.59081,16.42763],[74.59084,16.42676],[74.59256,16.42577],[74.59403,16.4258],[74.59589,16.4276],[74.59595,16.42593],[74.59703,16.42546],[74.59926,16.42678],[74.60019,16.42707],[74.60159,16.42845],[74.60309,16.42809],[74.60403,16.42725],[74.6048,16.42791],[74.60581,16.42838]]]}},{"type":"Feature","bbox":[74.57282,16.43106,74.58642,16.4397],"properties":{"ward":12},"geometry":{"type":"Polygon","coordinates":[[[74.58618,16.43882],[74.58642,16.43859],[74.58632,16.43812],[74.58548,16.43731],[74.58554,16.43627],[74.58511,16.43563],[74.58538,16.4353],[74.5862,16.43527],[74.58608,16.4349],[74.58467,16.4338],[74.58435,16.43303],[74.58254,16.43308],[74.58269,16.4325],[74.5819,16.4324],[74.58167,16.43172],[74.58127,16.43163],[74.58135,16.43148],[74.5808,16.43138],[74.58086,16.43115],[74.58013,16.43106],[74.58004,16.43147],[74.57952,16.43135],[74.57953,16.43176],[74.57914,16.43252],[74.57874,16.43425],[74.57727,16.4346],[74.57545,16.43475],[74.57382,16.43597],[74.57282,16.43728],[74.57408,16.43732],[74.57508,16.43686],[74.57583,16.43747],[74.57693,16.43782],[74.57676,16.43858],[74.57625,16.43898],[74.5774,16.43965],[74.57899,16.4397],[74.57995,16.43827],[74.58194,16.43837],[74.58369,16.43873],[74.58597,16.43821],[74.58618,16.43882]]]}},{"type":"Feature","bbox":[74.58624,16.40786,74.60223,16.42525],"properties":{"ward":13},"geometry":{"type":"Polygon","coordinates":[[[74.58624,16.42525],[74.58848,16.42517],[74.59032,16.42343],[74.59124,16.42279],[74.59205,16.42311],[74.59277,16.42308],[74.59329,16.4228],[74.59394,16.42296],[74.59362,16.42131],[74.59441,16.41964],[74.59486,16.41936],[74.59779,16.4187],[74.59938,16.41752],[74.59942,16.41716],[74.599,16.41642],[74.5991,16.41627],[74.5997,16.41622],[74.60002,16.41534],[74.59989,16.41508],[74.59935,16.41471],[74.59918,16.41403],[74.59951,16.41389],[74.60031,16.41453],[74.60111,16.41468],[74.60149,16.41157],[74.60223,16.40786],[74.59853,16.40837],[74.59831,16.40819],[74.5975,16.40815],[74.59645,16.40915],[74.59493,16.40935],[74.59356,16.41194],[74.59297,16.41265],[74.59223,16.41298],[74.5916,16.41373],[74.59073,16.4156],[74.58917,16.41799],[74.58876,16.41788],[74.58732,16.41807],[74.58649,16.4185],[74.58637,16.4189],[74.58648,16.41926],[74.58742,16.4205],[74.58739,16.42236],[74.58666,16.42343],[74.58624,16.42525]]]}},{"type":"Feature","bbox":[74.56758,16.40581,74.58477,16.42493],"properties":{"ward":14},"geometry":{"type":"Polygon","coordinates":[[[74.58411,16.42176],[74.58416,16.41931],[74.58344,16.4186],[74.58114,16.41848],[74.58043,16.41737],[74.57977,16.41692],[74.57968,16.416],[74.58011,16.41523],[74.57982,16.4142],[74.57977,16.41292],[74.57817,16.41106],[74.57676,16.40898],[74.57622,16.4086],[74.57506,16.4092],[74.57353,16.40747],[74.57358,16.4062],[74.57319,16.40581],[74.57065,16.40691],[74.57078,16.40907],[74.56938,16.41013],[74.56889,16.41207],[74.56758,16.4133],[74.56862,16.41818],[74.57052,16.41868],[74.57152,16.41822],[74.57184,16.41885],[74.57287,16.41958],[74.57494,16.41847],[74.57521,16.41862],[74.57509,16.41966],[74.57651,16.4202],[74.57666,16.42046],[74.57801,16.42121],[74.579,16.42211],[74.58021,16.42229],[74.58024,16.42177],[74.5813,16.4217],[74.58144,16.42192],[74.5815,16.42384],[74.58241,16.42393],[74.58234,16.4248],[74.58339,16.42493],[74.58375,16.42403],[74.58468,16.42411],[74.58477,16.42314],[74.58372,16.42313],[74.58362,16.42297],[74.58365,16.42211],[74.58411,16.42176]]]}},{"type":"Feature","bbox":[74.57449,16.41966,74.58241,16.42561],"properties":{"ward":15},"geometry":{"type":"Polygon","coordinates":[[[74.58234,16.4248],[74.58241,16.42393],[74.5815,16.42384],[74.58144,16.42192],[74.5813,16.4217],[74.58024,16.42177],[74.58021,16.42229],[74.579,16.42211],[74.57801,16.42121],[74.57666,16.42046],[74.57651,16.4202],[74.57509,16.41966],[74.57449,16.42184],[74.57452,16.42458],[74.57762,16.42557],[74.57836,16.42561],[74.58156,16.42479],[74.58234,16.4248]]]}},{"type":"Feature","bbox":[74.58808,16.43186,74.59481,16.43541],"properties":{"ward":16},"geometry":{"type":"Polygon","coordinates":[[[74.59481,16.43448],[74.59364,16.43298],[74.59354,16.43307],[74.59177,16.43258],[74.59008,16.43249],[74.59003,16.43186],[74.58848,16.43203],[74.58826,16.43226],[74.58808,16.43387],[74.58923,16.43394],[74.58929,16.43415],[74.5916,16.43427],[74.59182,16.43444],[74.5918,16.43541],[74.59322,16.43467],[74.59481,16.43448]]]}},{"type":"Feature","bbox":[74.55309,16.42762,74.57954,16.44353],"properties":{"ward":17},"geometry":{"type":"Polygon","coordinates":[[[74.5774,16.43965],[74.57625,16.43898],[74.57676,16.43858],[74.57693,16.43782],[74.57583,16.43747],[74.57508,16.43686],[74.57408,16.43732],[74.57282,16.43728],[74.57382,16.43597],[74.57545,16.43475],[74.57727,16.4346],[74.57874,16.43425],[74.57914,16.43252],[74.57954,16.4317],[74.57894,16.43125],[74.5791,16.43056],[74.57764,16.43021],[74.57618,16.42964],[74.57478,16.42867],[74.57366,16.4285],[74.5731,16.42815],[74.57219,16.42822],[74.57145,16.42762],[74.57078,16.42816],[74.56905,16.42826],[74.56789,16.42858],[74.56695,16.42922],[74.56548,16.42984],[74.56487,16.43062],[74.56439,16.43084],[74.56383,16.43075],[74.5622,16.43133],[74.56186,16.43204],[74.56159,16.43223],[74.56152,16.4326],[74.56045,16.43314],[74.56075,16.43502],[74.55981,16.43528],[74.55959,16.43625],[74.56022,16.43748],[74.55887,16.43808],[74.55756,16.43832],[74.55603,16.43834],[74.55309,16.43761],[74.55406,16.44228],[74.55498,16.44191],[74.56071,16.44353],[74.56268,16.44331],[74.56416,16.44169],[74.56399,16.44056],[74.56648,16.4391],[74.56726,16.44071],[74.56948,16.44215],[74.57474,16.44291],[74.57657,16.44299],[74.5774,16.43965]]]}},{"type":"Feature","bbox":[74.58709,16.43387,74.59182,16.43853],"properties":{"ward":18},"geometry":{"type":"Polygon","coordinates":[[[74.5918,16.43541],[74.59182,16.43444],[74.5916,16.43427],[74.58929,16.43415],[74.58923,16.43394],[74.58808,16.43387],[74.5883,16.43558],[74.58709,16.43582],[74.58744,16.43758],[74.58733,16.43853],[74.58798,16.43829],[74.58834,16.43779],[74.58871,16.43772],[74.58946,16.43673],[74.58994,16.43657],[74.59052,16.43584],[74.5918,16.43541]]]}},{"type":"Feature","bbox":[74.5905,16.42546,74.61923,16.43928],"properties":{"ward":19},"geometry":{"type":"Polygon","coordinates":[[[74.60581,16.42838],[74.6048,16.42791],[74.60403,16.42725],[74.60309,16.42809],[74.60159,16.42845],[74.60019,16.42707],[74.59926,16.42678],[74.59703,16.42546],[74.59595,16.42593],[74.59589,16.4276],[74.59403,16.4258],[74.59256,16.42577],[74.59084,16.42676],[74.59081,16.42763],[74.59105,16.42856],[74.5905,16.42972],[74.59072,16.42994],[74.59062,16.43023],[74.59114,16.43056],[74.59341,16.43274],[74.59481,16.43448],[74.59586,16.43434],[74.59848,16.43301],[74.60233,16.43459],[74.60511,16.43444],[74.606,16.43514],[74.60769,16.4359],[74.60959,16.4353],[74.6117,16.4365],[74.61365,16.43805],[74.61582,16.43803],[74.61579,16.43928],[74.61923,16.43718],[74.61887,16.43491],[74.61699,16.43512],[74.61402,16.43365],[74.61205,16.4335],[74.60411,16.43155],[74.60379,16.43164],[74.60581,16.42838]]]}},{"type":"Feature","bbox":[74.56794,16.42421,74.57726,16.42985],"properties":{"ward":20},"geometry":{"type":"Polygon","coordinates":[[[74.57726,16.42541],[74.57325,16.42421],[74.57313,16.42593],[74.57138,16.42586],[74.57046,16.42553],[74.56917,16.42454],[74.56889,16.42448],[74.5684,16.42484],[74.56866,16.42543],[74.56794,16.42582],[74.56804,16.4262],[74.56794,16.42656],[74.56856,16.42701],[74.56885,16.42748],[74.56974,16.42783],[74.56983,16.42821],[74.57088,16.42813],[74.57145,16.42762],[74.57219,16.42822],[74.5731,16.42815],[74.57366,16.4285],[74.57478,16.42867],[74.57603,16.42957],[74.57684,16.42985],[74.57696,16.42843],[74.57654,16.42829],[74.57671,16.42687],[74.5771,16.42691],[74.57711,16.42588],[74.57726,16.42541]]]}},{"type":"Feature","bbox":[74.56797,16.38929,74.61147,16.42105],"properties":{"ward":21},"geometry":{"type":"Polygon","coordinates":[[[74.58742,16.42105],[74.58736,16.42036],[74.58639,16.41904],[74.58649,16.4185],[74.58732,16.41807],[74.58876,16.41788],[74.58917,16.41799],[74.59073,16.4156],[74.5916,16.41373],[74.59223,16.41298],[74.59297,16.41265],[74.59356,16.41194],[74.59493,16.40935],[74.59645,16.40915],[74.5975,16.40815],[74.59831,16.40819],[74.59853,16.40837],[74.60223,16.40786],[74.60313,16.40138],[74.61074,16.39519],[74.61147,16.39395],[74.61145,16.38929],[74.60227,16.38973],[74.60044,16.39008],[74.60059,16.39119],[74.60118,16.39182],[74.60116,16.39253],[74.60055,16.39303],[74.59935,16.3952],[74.59666,16.39604],[74.59493,16.39531],[74.58861,16.39565],[74.58849,16.39577],[74.5815,16.39625],[74.58003,16.39648],[74.57818,16.39729],[74.57342,16.40006],[74.56797,16.40403],[74.56829,16.40463],[74.56878,16.40711],[74.569,16.40946],[74.56887,16.40996],[74.56938,16.41013],[74.57078,16.40907],[74.57065,16.40691],[74.57319,16.40581],[74.57358,16.4062],[74.57353,16.40747],[74.57506,16.4092],[74.57622,16.4086],[74.57676,16.40898],[74.57817,16.41106],[74.57977,16.41292],[74.57982,16.4142],[74.58011,16.41523],[74.57968,16.416],[74.57977,16.41692],[74.58043,16.41737],[74.58114,16.41848],[74.58344,16.4186],[74.58416,16.41931],[74.58411,16.42067],[74.58495,16.4208],[74.58503,16.42105],[74.58742,16.42105]]]}},{"type":"Feature","bbox":[74.55973,16.40996,74.57521,16.42458],"properties":{"ward":22},"geometry":{"type":"Polygon","coordinates":[[[74.57509,16.41966],[74.57521,16.41862],[74.57494,16.41847],[74.57287,16.41958],[74.57184,16.41885],[74.57152,16.41822],[74.57052,16.41868],[74.56862,16.41818],[74.56758,16.4133],[74.56889,16.41207],[74.56938,16.41013],[74.56887,16.40996],[74.56866,16.41067],[74.56542,16.41312],[74.56112,16.41773],[74.55973,16.42042],[74.56055,16.42034],[74.56182,16.41963],[74.56215,16.41924],[74.56219,16.41821],[74.56249,16.41805],[74.56308,16.41809],[74.56366,16.41858],[74.56472,16.42035],[74.56783,16.42223],[74.56988,16.42321],[74.57452,16.42458],[74.57449,16.42184],[74.57509,16.41966]]]}},{"type":"Feature","bbox":[74.55135,16.4181,74.57325,16.43834],"properties":{"ward":23},"geometry":{"type":"Polygon","coordinates":[[[74.56983,16.42821],[74.56974,16.42783],[74.56885,16.42748],[74.56856,16.42701],[74.56794,16.42656],[74.56804,16.4262],[74.56794,16.42582],[74.56866,16.42543],[74.56841,16.42482],[74.56901,16.42449],[74.57097,16.42577],[74.57311,16.42594],[74.57325,16.42421],[74.56988,16.42321],[74.56783,16.42223],[74.56472,16.42035],[74.56366,16.41858],[74.56323,16.41816],[74.56235,16.4181],[74.56211,16.4184],[74.56215,16.41924],[74.56191,16.41957],[74.56055,16.42034],[74.55973,16.42042],[74.55895,16.4233],[74.55838,16.42461],[74.55736,16.42604],[74.55681,16.42634],[74.55515,16.42821],[74.55372,16.4319],[74.55135,16.43496],[74.55172,16.43574],[74.55309,16.43761],[74.55603,16.43834],[74.55756,16.43832],[74.55887,16.43808],[74.56022,16.43748],[74.55959,16.43625],[74.55981,16.43528],[74.56075,16.43502],[74.56045,16.43314],[74.56152,16.4326],[74.56159,16.43223],[74.56186,16.43204],[74.5622,16.43133],[74.56383,16.43075],[74.56439,16.43084],[74.56487,16.43062],[74.56548,16.42984],[74.56695,16.42922],[74.56789,16.42858],[74.56983,16.42821]]]}}]}