{"type":"FeatureCollection","features":[{"type":"Feature","bbox":[75.12028,16.47798,75.12819,16.48111],"properties":{"ward":1},"geometry":{"type":"Polygon","coordinates":[[[75.12574,16.48104],[75.12819,16.48078],[75.12818,16.47915],[75.12801,16.47866],[75.12813,16.47849],[75.12757,16.4781],[75.12688,16.47798],[75.12429,16.47825],[75.12312,16.47803],[75.12288,16.47921],[75.12172,16.47973],[75.12028,16.47981],[75.12049,16.48076],[75.12145,16.48079],[75.12145,16.48106],[75.12281,16.48099],[75.12289,16.48111],[75.12428,16.48059],[75.12574,16.48104]]]}},{"type":"Feature","bbox":[75.12803,16.47854,75.13104,16.48146],"properties":{"ward":2},"geometry":{"type":"Polygon","coordinates":[[[75.13103,16.48128],[75.13104,16.47971],[75.13069,16.47902],[75.12905,16.47896],[75.12803,16.47854],[75.12818,16.47915],[75.12819,16.48078],[75.12911,16.48082],[75.12911,16.48146],[75.13103,16.48128]]]}},{"type":"Feature","bbox":[75.12463,16.46815,75.14032,16.47902],"properties":{"ward":3},"geometry":{"type":"Polygon","coordinates":[[[75.13994,16.4769],[75.13958,16.476],[75.13987,16.47482],[75.14032,16.47101],[75.13854,16.47111],[75.13489,16.47043],[75.13078,16.4701],[75.13059,16.47005],[75.13075,16.46882],[75.12636,16.46815],[75.1257,16.46822],[75.1252,16.46881],[75.12536,16.46894],[75.12463,16.46954],[75.12468,16.46989],[75.12514,16.47055],[75.1252,16.47154],[75.12648,16.47299],[75.12659,16.47335],[75.12623,16.47398],[75.12626,16.47429],[75.12717,16.47489],[75.12752,16.476],[75.12631,16.47613],[75.12681,16.47799],[75.12757,16.4781],[75.12847,16.4788],[75.12905,16.47896],[75.13069,16.47902],[75.13084,16.47744],[75.13139,16.47607],[75.13226,16.47664],[75.13563,16.47702],[75.1359,16.47687],[75.13994,16.4769]]]}},{"type":"Feature","bbox":[75.13069,16.47607,75.13994,16.48092],"properties":{"ward":4},"geometry":{"type":"Polygon","coordinates":[[[75.13966,16.48092],[75.1399,16.47942],[75.13994,16.4769],[75.1359,16.47687],[75.13563,16.47702],[75.13226,16.47664],[75.13139,16.47607],[75.13133,16.47616],[75.13084,16.47744],[75.13069,16.47902],[75.13103,16.47973],[75.13206,16.47972],[75.13205,16.47989],[75.13223,16.47989],[75.13223,16.47972],[75.1326,16.47962],[75.13673,16.47958],[75.13674,16.48092],[75.13966,16.48092]]]}},{"type":"Feature","bbox":[75.13102,16.47958,75.13966,16.48386],"properties":{"ward":5},"geometry":{"type":"Polygon","coordinates":[[[75.13966,16.48092],[75.13674,16.48092],[75.13673,16.47958],[75.1326,16.47962],[75.13223,16.47972],[75.13223,16.47989],[75.13197,16.47971],[75.13102,16.47976],[75.13106,16.48099],[75.1348,16.48085],[75.13516,16.48107],[75.13547,16.4817],[75.13552,16.48256],[75.13649,16.4824],[75.13651,16.48255],[75.13756,16.48224],[75.13837,16.48362],[75.1388,16.48386],[75.13966,16.48092]]]}},{"type":"Feature","bbox":[75.13065,16.48085,75.13661,16.48465],"properties":{"ward":6},"geometry":{"type":"Polygon","coordinates":[[[75.13661,16.48337],[75.13649,16.4824],[75.13552,16.48256],[75.13547,16.4817],[75.13516,16.48107],[75.1348,16.48085],[75.13106,16.48099],[75.13065,16.48348],[75.13386,16.48361],[75.13507,16.48441],[75.13589,16.48465],[75.13591,16.4835],[75.13661,16.48337]]]}},{"type":"Feature","bbox":[75.12908,16.48128,75.13103,16.48469],"properties":{"ward":7},"geometry":{"type":"Polygon","coordinates":[[[75.13085,16.48456],[75.13066,16.4832],[75.13103,16.48128],[75.12911,16.48146],[75.12908,16.48272],[75.12966,16.4828],[75.12958,16.48469],[75.13085,16.48456]]]}},{"type":"Feature","bbox":[75.12718,16.48271,75.12966,16.4848],"properties":{"ward":8},"geometry":{"type":"Polygon","coordinates":[[[75.1274,16.4848],[75.12958,16.48469],[75.12966,16.4828],[75.12909,16.48271],[75.12832,16.48299],[75.12829,16.48286],[75.12776,16.4828],[75.12776,16.48305],[75.12748,16.48306],[75.12749,16.48358],[75.12718,16.48358],[75.12719,16.48448],[75.12743,16.48449],[75.1274,16.4848]]]}},{"type":"Feature","bbox":[75.12834,16.48456,75.13391,16.48851],"properties":{"ward":9},"geometry":{"type":"Polygon","coordinates":[[[75.13391,16.48799],[75.13287,16.48667],[75.13085,16.48456],[75.12857,16.48466],[75.12861,16.48552],[75.12834,16.48738],[75.13008,16.48738],[75.13036,16.48758],[75.13204,16.4877],[75.13198,16.48809],[75.1337,16.48851],[75.13391,16.48799]]]}},{"type":"Feature","bbox":[75.13065,16.48224,75.15642,16.49332],"properties":{"ward":10},"geometry":{"type":"Polygon","coordinates":[[[75.1388,16.48386],[75.13837,16.48362],[75.13756,16.48224],[75.13651,16.48255],[75.13661,16.48337],[75.13591,16.4835],[75.13589,16.48465],[75.13507,16.48441],[75.13386,16.48361],[75.13065,16.48348],[75.13094,16.48471],[75.13287,16.48667],[75.13565,16.49014],[75.13828,16.49082],[75.14354,16.49332],[75.14556,16.49294],[75.15175,16.49254],[75.15273,16.49215],[75.15404,16.49077],[75.15474,16.49106],[75.15489,16.49083],[75.15619,16.49053],[75.15642,16.49034],[75.15511,16.48826],[75.15074,16.488],[75.14611,16.48698],[75.14207,16.48713],[75.13806,16.4877],[75.13823,16.48742],[75.13831,16.48496],[75.1388,16.48386]]]}},{"type":"Feature","bbox":[75.12512,16.48738,75.14354,16.49638],"properties":{"ward":11},"geometry":{"type":"Polygon","coordinates":[[[75.14354,16.49332],[75.13828,16.49082],[75.13565,16.49014],[75.13391,16.48799],[75.1337,16.48851],[75.13198,16.48809],[75.13204,16.4877],[75.13036,16.48758],[75.13008,16.48738],[75.12834,16.48738],[75.12748,16.49261],[75.12665,16.49268],[75.12512,16.49417],[75.12518,16.49486],[75.1312,16.49454],[75.13129,16.49574],[75.13115,16.49576],[75.13127,16.49601],[75.13222,16.49638],[75.13305,16.49592],[75.13305,16.4955],[75.1332,16.49534],[75.13385,16.49514],[75.1352,16.49414],[75.13611,16.49378],[75.13706,16.49312],[75.13738,16.49278],[75.13728,16.49217],[75.13759,16.49186],[75.13791,16.49262],[75.13833,16.49468],[75.13974,16.49414],[75.14028,16.49414],[75.14032,16.49443],[75.14354,16.49332]]]}},{"type":"Feature","bbox":[75.1162,16.48462,75.12857,16.49922],"properties":{"ward":12},"geometry":{"type":"Polygon","coordinates":[[[75.12516,16.49471],[75.12512,16.49417],[75.12656,16.49274],[75.12748,16.49261],[75.12834,16.48783],[75.12857,16.48469],[75.12519,16.48491],[75.12383,16.48471],[75.12358,16.48504],[75.12292,16.48462],[75.11968,16.49233],[75.12018,16.49365],[75.11948,16.49345],[75.11816,16.49351],[75.11723,16.49323],[75.11686,16.49374],[75.1162,16.49695],[75.11636,16.49851],[75.11739,16.49844],[75.1188,16.49922],[75.11883,16.49862],[75.12045,16.49778],[75.12038,16.49733],[75.12092,16.49757],[75.12101,16.49688],[75.12432,16.49682],[75.12432,16.49655],[75.12418,16.49654],[75.1243,16.49465],[75.12516,16.49471]]]}},{"type":"Feature","bbox":[75.12643,16.48082,75.12911,16.48358],"properties":{"ward":13},"geometry":{"type":"Polygon","coordinates":[[[75.12909,16.48271],[75.12911,16.48082],[75.12729,16.48089],[75.1274,16.48158],[75.12643,16.48163],[75.1265,16.48357],[75.12749,16.48358],[75.12748,16.48306],[75.12776,16.48305],[75.12776,16.4828],[75.12863,16.48297],[75.12909,16.48271]]]}},{"type":"Feature","bbox":[75.12292,16.48059,75.1274,16.48278],"properties":{"ward":14},"geometry":{"type":"Polygon","coordinates":[[[75.12646,16.48218],[75.12643,16.48163],[75.1274,16.48158],[75.12726,16.48097],[75.12574,16.48104],[75.12428,16.48059],[75.12292,16.481],[75.12348,16.48278],[75.12611,16.48254],[75.12609,16.48221],[75.12646,16.48218]]]}},{"type":"Feature","bbox":[75.12253,16.48218,75.12743,16.48504],"properties":{"ward":15},"geometry":{"type":"Polygon","coordinates":[[[75.1274,16.4848],[75.12743,16.48449],[75.12719,16.48448],[75.12718,16.48358],[75.1265,16.48357],[75.12646,16.48218],[75.12609,16.48221],[75.12611,16.48254],[75.12348,16.48278],[75.12353,16.48302],[75.12253,16.48432],[75.12358,16.48504],[75.12383,16.48471],[75.12519,16.48491],[75.1274,16.4848]]]}},{"type":"Feature","bbox":[75.11159,16.47937,75.12353,16.49857],"properties":{"ward":16},"geometry":{"type":"Polygon","coordinates":[[[75.11636,16.49851],[75.1162,16.49695],[75.11686,16.49374],[75.11723,16.49323],[75.11816,16.49351],[75.11948,16.49345],[75.12018,16.49365],[75.11968,16.49233],[75.12275,16.48512],[75.12292,16.48462],[75.12253,16.48432],[75.12353,16.48302],[75.12281,16.48099],[75.12145,16.48106],[75.12145,16.48079],[75.11895,16.48079],[75.11755,16.48031],[75.11549,16.48039],[75.11534,16.47937],[75.11303,16.48057],[75.11251,16.48109],[75.11225,16.48219],[75.11228,16.48282],[75.11236,16.48332],[75.11283,16.48415],[75.11297,16.48505],[75.1127,16.48596],[75.11182,16.48683],[75.11159,16.48735],[75.11168,16.48773],[75.11204,16.48794],[75.11303,16.48771],[75.11347,16.48801],[75.11379,16.48802],[75.11408,16.4884],[75.11418,16.48879],[75.11403,16.48922],[75.11424,16.48982],[75.11359,16.49162],[75.11391,16.49241],[75.11488,16.49365],[75.11506,16.4943],[75.11451,16.49556],[75.11426,16.49667],[75.11436,16.49719],[75.1148,16.49741],[75.11606,16.49857],[75.11636,16.49851]]]}},{"type":"Feature","bbox":[75.11146,16.4769,75.11479,16.4798],"properties":{"ward":17},"geometry":{"type":"Polygon","coordinates":[[[75.11479,16.4769],[75.11171,16.47706],[75.11146,16.47788],[75.11184,16.47833],[75.11231,16.47942],[75.1126,16.47963],[75.11258,16.47979],[75.11298,16.4798],[75.11417,16.47905],[75.11474,16.47778],[75.11479,16.4769]]]}},{"type":"Feature","bbox":[75.10671,16.4774,75.11424,16.49323],"properties":{"ward":18},"geometry":{"type":"Polygon","coordinates":[[[75.11375,16.49201],[75.11359,16.49162],[75.11424,16.48982],[75.11403,16.48922],[75.11418,16.48879],[75.11408,16.4884],[75.11379,16.48802],[75.11347,16.48801],[75.11303,16.48771],[75.11204,16.48794],[75.11168,16.48773],[75.11159,16.48735],[75.11182,16.48683],[75.1127,16.48596],[75.11297,16.48505],[75.11283,16.48415],[75.11236,16.48332],[75.11225,16.48219],[75.11251,16.48109],[75.11305,16.48067],[75.11253,16.48017],[75.1126,16.47963],[75.11231,16.47942],[75.11184,16.47833],[75.11139,16.47778],[75.11002,16.4774],[75.1099,16.4778],[75.11018,16.47785],[75.11021,16.47835],[75.11011,16.47873],[75.10986,16.4787],[75.10971,16.47981],[75.1086,16.48067],[75.10862,16.48207],[75.10815,16.48404],[75.10816,16.48488],[75.10757,16.48491],[75.10757,16.4854],[75.10671,16.48538],[75.10713,16.4871],[75.1071,16.48781],[75.10763,16.49124],[75.10963,16.49108],[75.10935,16.49291],[75.11118,16.49323],[75.11102,16.49112],[75.11134,16.49116],[75.11076,16.49051],[75.11084,16.49004],[75.11116,16.48976],[75.11183,16.48965],[75.11293,16.49063],[75.11299,16.49132],[75.11218,16.49139],[75.11164,16.49126],[75.11154,16.49139],[75.11186,16.49197],[75.11266,16.49193],[75.11294,16.49209],[75.11333,16.4919],[75.11375,16.49201]]]}},{"type":"Feature","bbox":[75.10506,16.47733,75.11021,16.4854],"properties":{"ward":19},"geometry":{"type":"Polygon","coordinates":[[[75.10996,16.47742],[75.10846,16.47733],[75.10506,16.47789],[75.10561,16.48128],[75.10603,16.48125],[75.10604,16.4828],[75.10625,16.48282],[75.10621,16.48404],[75.10666,16.48447],[75.10671,16.48538],[75.10757,16.4854],[75.10757,16.48491],[75.10816,16.48488],[75.10815,16.48404],[75.10862,16.48207],[75.1086,16.48067],[75.10971,16.47981],[75.10986,16.4787],[75.11011,16.47873],[75.11021,16.47835],[75.11018,16.47785],[75.1099,16.4778],[75.10996,16.47742]]]}},{"type":"Feature","bbox":[75.09046,16.47738,75.10763,16.49161],"properties":{"ward":20},"geometry":{"type":"Polygon","coordinates":[[[75.10763,16.49124],[75.10666,16.48447],[75.10621,16.48404],[75.10625,16.48282],[75.10604,16.4828],[75.10603,16.48125],[75.10561,16.48128],[75.10506,16.47789],[75.10126,16.47853],[75.09882,16.47803],[75.09679,16.47738],[75.0952,16.47798],[75.09542,16.47826],[75.09463,16.47845],[75.09535,16.47848],[75.09604,16.47913],[75.09572,16.47984],[75.09399,16.4793],[75.09383,16.47971],[75.09536,16.48019],[75.09493,16.48173],[75.09099,16.48075],[75.09202,16.48142],[75.09687,16.48298],[75.09676,16.48358],[75.09589,16.48349],[75.09573,16.48372],[75.09252,16.48318],[75.09151,16.48275],[75.0906,16.48264],[75.09046,16.48327],[75.09235,16.48402],[75.09745,16.49033],[75.10315,16.49161],[75.10763,16.49124]]]}},{"type":"Feature","bbox":[75.08904,16.47101,75.11002,16.47854],"properties":{"ward":21},"geometry":{"type":"Polygon","coordinates":[[[75.10169,16.47854],[75.10846,16.47733],[75.11002,16.4774],[75.10935,16.47695],[75.10883,16.47685],[75.10858,16.47655],[75.10803,16.47548],[75.10767,16.47424],[75.10983,16.47472],[75.10988,16.47257],[75.10881,16.47235],[75.10747,16.47154],[75.10747,16.47269],[75.10527,16.47232],[75.10298,16.47259],[75.10191,16.47225],[75.10101,16.47164],[75.09863,16.47131],[75.09812,16.47101],[75.0969,16.47124],[75.09623,16.47224],[75.09639,16.47264],[75.09707,16.47319],[75.09658,16.47367],[75.09776,16.47462],[75.09823,16.47477],[75.09796,16.47528],[75.09596,16.47496],[75.09375,16.47487],[75.09302,16.47512],[75.093,16.47391],[75.09188,16.47354],[75.09172,16.47389],[75.08909,16.47397],[75.08904,16.47438],[75.0895,16.47504],[75.09037,16.47566],[75.09111,16.47599],[75.09227,16.47589],[75.09435,16.4772],[75.09528,16.47751],[75.09535,16.47778],[75.09506,16.47784],[75.0952,16.47798],[75.09679,16.47738],[75.09882,16.47803],[75.10169,16.47854]]]}},{"type":"Feature","bbox":[75.10767,16.47424,75.11184,16.47788],"properties":{"ward":22},"geometry":{"type":"Polygon","coordinates":[[[75.11146,16.47788],[75.11184,16.47571],[75.11158,16.47534],[75.11159,16.47502],[75.11131,16.47502],[75.11132,16.47487],[75.10879,16.47457],[75.10767,16.47424],[75.10803,16.47548],[75.10883,16.47685],[75.11146,16.47788]]]}},{"type":"Feature","bbox":[75.11152,16.47386,75.11479,16.47706],"properties":{"ward":23},"geometry":{"type":"Polygon","coordinates":[[[75.11479,16.4769],[75.11469,16.47654],[75.11366,16.47544],[75.11311,16.4752],[75.11233,16.47454],[75.11188,16.47386],[75.11159,16.47392],[75.11152,16.475],[75.11158,16.47534],[75.11182,16.47552],[75.11187,16.47635],[75.11171,16.47706],[75.11479,16.4769]]]}},{"type":"Feature","bbox":[75.10737,16.47081,75.11427,16.4754],"properties":{"ward":24},"geometry":{"type":"Polygon","coordinates":[[[75.11396,16.47111],[75.11213,16.47094],[75.11162,16.47116],[75.11014,16.47118],[75.10737,16.47081],[75.10747,16.47154],[75.10881,16.47235],[75.10988,16.47257],[75.10983,16.47472],[75.11152,16.475],[75.11159,16.47392],[75.11188,16.47386],[75.11233,16.47454],[75.11357,16.4754],[75.1139,16.47394],[75.1136,16.47301],[75.11427,16.47198],[75.11396,16.47111]]]}},{"type":"Feature","bbox":[75.09524,16.46461,75.10747,16.47269],"properties":{"ward":25},"geometry":{"type":"Polygon","coordinates":[[[75.10747,16.47154],[75.10639,16.47102],[75.10585,16.47052],[75.10575,16.46974],[75.1051,16.46888],[75.10457,16.46752],[75.10261,16.46666],[75.1018,16.46587],[75.10161,16.46598],[75.10022,16.46577],[75.09913,16.46583],[75.09819,16.46494],[75.09675,16.46461],[75.09695,16.46833],[75.09524,16.46854],[75.09556,16.47101],[75.0969,16.47124],[75.0983,16.47102],[75.09852,16.47128],[75.10101,16.47164],[75.10191,16.47225],[75.10298,16.47259],[75.10527,16.47232],[75.10747,16.47269],[75.10747,16.47154]]]}},{"type":"Feature","bbox":[75.10283,16.46397,75.11266,16.47154],"properties":{"ward":26},"geometry":{"type":"Polygon","coordinates":[[[75.10747,16.47154],[75.10737,16.47081],[75.1106,16.47119],[75.11265,16.47094],[75.11266,16.46833],[75.11182,16.46828],[75.11175,16.46733],[75.11114,16.46623],[75.11108,16.46583],[75.11113,16.46521],[75.11193,16.46519],[75.11206,16.46488],[75.11104,16.46486],[75.11081,16.46416],[75.10921,16.46397],[75.10708,16.46427],[75.10382,16.46425],[75.10383,16.46447],[75.1029,16.4645],[75.10283,16.46567],[75.10308,16.46604],[75.103,16.46674],[75.10457,16.46752],[75.1051,16.46888],[75.10575,16.46974],[75.10585,16.47052],[75.10639,16.47102],[75.10747,16.47154]]]}},{"type":"Feature","bbox":[75.11113,16.4645,75.11464,16.47111],"properties":{"ward":27},"geometry":{"type":"Polygon","coordinates":[[[75.11401,16.47111],[75.11426,16.47064],[75.11426,16.47026],[75.114,16.46977],[75.11409,16.46937],[75.11464,16.46847],[75.11455,16.46819],[75.11391,16.46769],[75.11376,16.46725],[75.11436,16.46639],[75.11429,16.46566],[75.11391,16.46494],[75.11387,16.46451],[75.11275,16.46471],[75.11254,16.4645],[75.11199,16.46455],[75.11129,16.46485],[75.11206,16.46488],[75.11193,16.46519],[75.11113,16.46521],[75.11114,16.46623],[75.11175,16.46733],[75.11182,16.46828],[75.11266,16.46833],[75.11265,16.47094],[75.11401,16.47111]]]}},{"type":"Feature","bbox":[75.11356,16.45591,75.12384,16.47191],"properties":{"ward":28},"geometry":{"type":"Polygon","coordinates":[[[75.12339,16.46789],[75.12246,16.46529],[75.12207,16.46352],[75.12177,16.46158],[75.12185,16.45941],[75.12147,16.45821],[75.12138,16.45693],[75.11823,16.45639],[75.11845,16.45591],[75.11426,16.45602],[75.11386,16.45833],[75.11356,16.45831],[75.11452,16.45948],[75.11461,16.45982],[75.11435,16.46148],[75.11405,16.46182],[75.11385,16.46335],[75.11391,16.46494],[75.11429,16.46566],[75.11436,16.46639],[75.11376,16.46725],[75.11391,16.46769],[75.11455,16.46819],[75.11464,16.46847],[75.11409,16.46937],[75.114,16.46977],[75.11426,16.47026],[75.11426,16.47064],[75.11401,16.47111],[75.11551,16.47125],[75.11671,16.47191],[75.11705,16.46914],[75.12383,16.46854],[75.12384,16.46785],[75.12339,16.46789]]]}},{"type":"Feature","bbox":[75.11253,16.47682,75.12308,16.48088],"properties":{"ward":29},"geometry":{"type":"Polygon","coordinates":[[[75.12047,16.48088],[75.12028,16.47981],[75.12172,16.47973],[75.12288,16.47921],[75.12308,16.47809],[75.11937,16.47682],[75.11479,16.4769],[75.11474,16.47778],[75.11417,16.47905],[75.11298,16.4798],[75.11258,16.47979],[75.11253,16.48017],[75.11297,16.48061],[75.11534,16.47937],[75.11549,16.48039],[75.11755,16.48031],[75.11895,16.48079],[75.12047,16.48088]]]}},{"type":"Feature","bbox":[75.11357,16.47111,75.12055,16.47709],"properties":{"ward":30},"geometry":{"type":"Polygon","coordinates":[[[75.11808,16.47271],[75.11551,16.47125],[75.11396,16.47111],[75.11427,16.47198],[75.1136,16.47301],[75.1139,16.47394],[75.11357,16.4754],[75.11469,16.47654],[75.11479,16.4769],[75.11937,16.47682],[75.12014,16.47709],[75.12047,16.4767],[75.12055,16.47578],[75.1185,16.47406],[75.11808,16.47271]]]}},{"type":"Feature","bbox":[75.11671,16.46655,75.12752,16.47823],"properties":{"ward":31},"geometry":{"type":"Polygon","coordinates":[[[75.12681,16.47799],[75.12631,16.47613],[75.12752,16.476],[75.12738,16.47545],[75.12717,16.47489],[75.12626,16.47429],[75.12623,16.47398],[75.12659,16.47335],[75.12648,16.47299],[75.1252,16.47154],[75.12514,16.47055],[75.12463,16.46973],[75.12479,16.46929],[75.12536,16.46894],[75.1252,16.46881],[75.12571,16.46821],[75.12587,16.46772],[75.12586,16.46655],[75.12294,16.46655],[75.12339,16.46789],[75.12384,16.46785],[75.12383,16.46854],[75.11705,16.46914],[75.11693,16.46926],[75.11671,16.47191],[75.11808,16.47271],[75.1185,16.47406],[75.12055,16.47578],[75.12047,16.4767],[75.12013,16.47708],[75.12371,16.47823],[75.12681,16.47799]]]}}]}