{"type":"FeatureCollection","features":[{"type":"Feature","bbox":[74.42801,14.28923,74.43829,14.29729],"properties":{"ward":1},"geometry":{"type":"Polygon","coordinates":[[[74.43785,14.29322],[74.43829,14.28974],[74.43532,14.28923],[74.43409,14.29063],[74.43379,14.29072],[74.43332,14.29055],[74.43286,14.29005],[74.43191,14.28957],[74.43011,14.29134],[74.43043,14.29153],[74.42801,14.2945],[74.42842,14.2947],[74.42829,14.29504],[74.42861,14.29517],[74.42853,14.29606],[74.43325,14.29672],[74.43511,14.29729],[74.4353,14.29709],[74.43536,14.29644],[74.43571,14.29562],[74.43705,14.29587],[74.43721,14.29608],[74.43785,14.29322]]]}},{"type":"Feature","bbox":[74.43831,14.28775,74.46568,14.30269],"properties":{"ward":2},"geometry":{"type":"Polygon","coordinates":[[[74.46568,14.29659],[74.46416,14.29597],[74.46314,14.29508],[74.46096,14.29491],[74.459,14.29436],[74.45739,14.29324],[74.45543,14.29244],[74.45423,14.29237],[74.45319,14.29256],[74.45266,14.29305],[74.45183,14.29346],[74.45019,14.2933],[74.44995,14.29309],[74.45055,14.29259],[74.44997,14.2913],[74.44888,14.29077],[74.44829,14.29023],[74.44837,14.28885],[74.44818,14.28803],[74.44683,14.28813],[74.44597,14.28775],[74.44575,14.28974],[74.44468,14.28938],[74.44344,14.28919],[74.4431,14.29102],[74.44325,14.29302],[74.4428,14.29354],[74.44278,14.29404],[74.44231,14.29433],[74.4389,14.29535],[74.43862,14.29613],[74.43846,14.29618],[74.43831,14.29999],[74.43838,14.30023],[74.43956,14.30001],[74.44239,14.29819],[74.44476,14.2978],[74.45107,14.30142],[74.45102,14.3013],[74.45139,14.30119],[74.45164,14.30175],[74.45303,14.30214],[74.45298,14.30247],[74.4527,14.3024],[74.45313,14.30268],[74.45427,14.30269],[74.4581,14.30179],[74.46149,14.30135],[74.46349,14.29802],[74.46568,14.29659]]]}},{"type":"Feature","bbox":[74.43297,14.28328,74.43734,14.28844],"properties":{"ward":3},"geometry":{"type":"Polygon","coordinates":[[[74.43734,14.28439],[74.43601,14.28328],[74.43377,14.28547],[74.43322,14.28567],[74.43297,14.28648],[74.43316,14.28677],[74.43389,14.28695],[74.43443,14.28814],[74.43572,14.28844],[74.4366,14.2881],[74.43682,14.28777],[74.43669,14.28631],[74.43688,14.28514],[74.43734,14.28439]]]}},{"type":"Feature","bbox":[74.43191,14.2828,74.44222,14.29072],"properties":{"ward":4},"geometry":{"type":"Polygon","coordinates":[[[74.43829,14.28974],[74.43921,14.29016],[74.44003,14.29004],[74.44035,14.28981],[74.44061,14.28905],[74.4413,14.28897],[74.44161,14.28664],[74.44184,14.28659],[74.44189,14.28615],[74.44152,14.28484],[74.44222,14.2829],[74.44169,14.2828],[74.44097,14.28312],[74.43971,14.2848],[74.43868,14.28382],[74.43824,14.2838],[74.43773,14.28405],[74.43688,14.28514],[74.43669,14.28631],[74.43672,14.28802],[74.43572,14.28844],[74.43466,14.28813],[74.43418,14.28833],[74.43299,14.28807],[74.43191,14.28957],[74.43286,14.29005],[74.43332,14.29055],[74.43379,14.29072],[74.43409,14.29063],[74.43532,14.28923],[74.43829,14.28974]]]}},{"type":"Feature","bbox":[74.43784,14.28897,74.44345,14.29535],"properties":{"ward":5},"geometry":{"type":"Polygon","coordinates":[[[74.44345,14.28916],[74.44328,14.28897],[74.44269,14.28913],[74.44248,14.28899],[74.44071,14.28901],[74.44029,14.28989],[74.43932,14.29016],[74.43829,14.28974],[74.43784,14.29302],[74.43844,14.29514],[74.43866,14.29505],[74.43894,14.29522],[74.4389,14.29535],[74.44231,14.29433],[74.44278,14.29404],[74.4428,14.29354],[74.44325,14.29302],[74.4431,14.29102],[74.44345,14.28916]]]}},{"type":"Feature","bbox":[74.43601,14.28154,74.44169,14.2848],"properties":{"ward":6},"geometry":{"type":"Polygon","coordinates":[[[74.44169,14.2828],[74.43981,14.28227],[74.43893,14.28222],[74.43832,14.28175],[74.43772,14.28154],[74.43689,14.28216],[74.43601,14.28328],[74.43734,14.28439],[74.43804,14.28385],[74.43868,14.28382],[74.43971,14.2848],[74.44082,14.28324],[74.44169,14.2828]]]}},{"type":"Feature","bbox":[74.4413,14.28455,74.44628,14.28975],"properties":{"ward":7},"geometry":{"type":"Polygon","coordinates":[[[74.44597,14.28775],[74.44628,14.28672],[74.44617,14.28548],[74.44507,14.28523],[74.44504,14.28458],[74.44429,14.28455],[74.44301,14.28547],[74.4417,14.28551],[74.44186,14.28576],[74.44186,14.28647],[74.44161,14.28664],[74.4413,14.28897],[74.44252,14.28899],[74.44269,14.28913],[74.44328,14.28897],[74.44345,14.28916],[74.4449,14.28943],[74.44572,14.28975],[74.44597,14.28775]]]}},{"type":"Feature","bbox":[74.43772,14.27606,74.44314,14.2829],"properties":{"ward":8},"geometry":{"type":"Polygon","coordinates":[[[74.44314,14.27998],[74.44309,14.27947],[74.44207,14.27967],[74.44159,14.2796],[74.44146,14.2797],[74.44126,14.28081],[74.43938,14.2805],[74.43945,14.28001],[74.43934,14.27997],[74.44015,14.27933],[74.44164,14.27712],[74.44138,14.27701],[74.4416,14.2762],[74.44135,14.27633],[74.44041,14.27606],[74.44058,14.27653],[74.44007,14.27844],[74.43772,14.28154],[74.43832,14.28175],[74.43893,14.28222],[74.43981,14.28227],[74.44222,14.2829],[74.44289,14.28144],[74.44314,14.27998]]]}},{"type":"Feature","bbox":[74.44155,14.27986,74.44683,14.28551],"properties":{"ward":9},"geometry":{"type":"Polygon","coordinates":[[[74.44617,14.28548],[74.44627,14.28361],[74.44683,14.28212],[74.44528,14.28251],[74.44423,14.28254],[74.44422,14.28004],[74.44403,14.27986],[74.44314,14.27998],[74.44289,14.28144],[74.44155,14.2847],[74.44162,14.28538],[74.4417,14.28551],[74.44301,14.28547],[74.44393,14.28472],[74.44457,14.28449],[74.44511,14.28462],[74.44507,14.28523],[74.44617,14.28548]]]}},{"type":"Feature","bbox":[74.44616,14.28195,74.45243,14.28737],"properties":{"ward":10},"geometry":{"type":"Polygon","coordinates":[[[74.45243,14.28303],[74.45227,14.28239],[74.45169,14.28195],[74.44999,14.28215],[74.45001,14.28304],[74.44861,14.28303],[74.44863,14.28242],[74.44811,14.28246],[74.44787,14.28267],[74.44778,14.28389],[74.44737,14.28402],[74.44625,14.2839],[74.44616,14.28573],[74.44629,14.28657],[74.44617,14.28737],[74.44689,14.28662],[74.44964,14.28553],[74.45243,14.28303]]]}},{"type":"Feature","bbox":[74.44597,14.28303,74.45537,14.2907],"properties":{"ward":11},"geometry":{"type":"Polygon","coordinates":[[[74.45307,14.28878],[74.45416,14.28668],[74.45537,14.28511],[74.45427,14.28434],[74.45315,14.28396],[74.45243,14.28303],[74.44964,14.28553],[74.44689,14.28662],[74.44631,14.28717],[74.44597,14.28775],[74.44683,14.28813],[74.44818,14.28803],[74.44837,14.28885],[74.44829,14.29023],[74.44877,14.2907],[74.45109,14.28799],[74.45307,14.28878]]]}},{"type":"Feature","bbox":[74.44877,14.28799,74.45307,14.29259],"properties":{"ward":12},"geometry":{"type":"Polygon","coordinates":[[[74.45307,14.28878],[74.45109,14.28799],[74.44877,14.2907],[74.44997,14.2913],[74.45055,14.29259],[74.45273,14.29008],[74.45268,14.28982],[74.45307,14.28878]]]}},{"type":"Feature","bbox":[74.44995,14.28878,74.4574,14.29346],"properties":{"ward":13},"geometry":{"type":"Polygon","coordinates":[[[74.45699,14.29305],[74.4574,14.28995],[74.45609,14.28978],[74.45544,14.28951],[74.4551,14.28886],[74.45388,14.28908],[74.45307,14.28878],[74.45268,14.28982],[74.45273,14.29008],[74.45043,14.29281],[74.44995,14.29309],[74.45035,14.29335],[74.45183,14.29346],[74.45266,14.29305],[74.45319,14.29256],[74.45476,14.29236],[74.45543,14.29244],[74.45699,14.29305]]]}},{"type":"Feature","bbox":[74.45699,14.28754,74.46594,14.29659],"properties":{"ward":14},"geometry":{"type":"Polygon","coordinates":[[[74.45975,14.28853],[74.45839,14.28754],[74.45767,14.2886],[74.45699,14.29305],[74.459,14.29436],[74.46096,14.29491],[74.46294,14.295],[74.46429,14.29603],[74.46568,14.29659],[74.46592,14.29643],[74.46594,14.29371],[74.4656,14.29253],[74.46404,14.2912],[74.46267,14.29117],[74.46195,14.29102],[74.46135,14.29065],[74.45975,14.28853]]]}},{"type":"Feature","bbox":[74.43934,14.27643,74.44309,14.28081],"properties":{"ward":15},"geometry":{"type":"Polygon","coordinates":[[[74.44309,14.27947],[74.4424,14.27748],[74.44246,14.27645],[74.44158,14.27643],[74.44138,14.27701],[74.44164,14.27712],[74.4416,14.27721],[74.44015,14.27933],[74.43934,14.27997],[74.43945,14.28001],[74.43938,14.2805],[74.44126,14.28081],[74.44154,14.27961],[74.44207,14.27967],[74.44309,14.27947]]]}},{"type":"Feature","bbox":[74.4424,14.27626,74.44885,14.283],"properties":{"ward":16},"geometry":{"type":"Polygon","coordinates":[[[74.44683,14.28212],[74.44885,14.283],[74.44683,14.28211],[74.44666,14.28145],[74.44663,14.27906],[74.44758,14.27918],[74.44768,14.27882],[74.44749,14.27753],[74.44401,14.27632],[74.44334,14.27626],[74.44246,14.27645],[74.4424,14.27748],[74.44269,14.27806],[74.44314,14.27998],[74.44403,14.27986],[74.44422,14.28004],[74.44423,14.28254],[74.44528,14.28251],[74.44683,14.28212]]]}},{"type":"Feature","bbox":[74.44625,14.27753,74.45356,14.28402],"properties":{"ward":17},"geometry":{"type":"Polygon","coordinates":[[[74.45169,14.28195],[74.45305,14.2815],[74.45356,14.28083],[74.45315,14.28065],[74.45295,14.28015],[74.45045,14.27976],[74.44925,14.27841],[74.44749,14.27753],[74.44768,14.27882],[74.44758,14.27918],[74.44663,14.27906],[74.44659,14.28112],[74.44683,14.28211],[74.44625,14.2839],[74.44737,14.28402],[74.44778,14.28389],[74.44787,14.28267],[74.44821,14.28242],[74.44863,14.28242],[74.44861,14.28303],[74.45001,14.28304],[74.44999,14.28215],[74.45169,14.28195]]]}},{"type":"Feature","bbox":[74.45169,14.28077,74.45975,14.28995],"properties":{"ward":18},"geometry":{"type":"Polygon","coordinates":[[[74.45975,14.28853],[74.45885,14.2842],[74.45951,14.28232],[74.45898,14.28236],[74.45836,14.28211],[74.45775,14.28225],[74.45674,14.2819],[74.45546,14.28184],[74.45485,14.28123],[74.45387,14.28077],[74.45305,14.2815],[74.45169,14.28195],[74.45227,14.28239],[74.45243,14.28303],[74.45295,14.28379],[74.45451,14.28447],[74.45537,14.28511],[74.45416,14.28668],[74.45307,14.28878],[74.45388,14.28908],[74.4551,14.28886],[74.45544,14.28951],[74.45609,14.28978],[74.4574,14.28995],[74.45759,14.28877],[74.45838,14.28754],[74.45975,14.28853]]]}},{"type":"Feature","bbox":[74.44158,14.27551,74.45387,14.28091],"properties":{"ward":19},"geometry":{"type":"Polygon","coordinates":[[[74.45387,14.28077],[74.45352,14.27991],[74.45314,14.27947],[74.4535,14.27806],[74.45259,14.27777],[74.45165,14.27772],[74.45084,14.2786],[74.45017,14.27799],[74.45027,14.27783],[74.44945,14.27737],[74.44847,14.27638],[74.44794,14.27616],[74.44621,14.27608],[74.44528,14.27579],[74.4445,14.27581],[74.44448,14.27567],[74.44362,14.27551],[74.44259,14.27575],[74.44267,14.27619],[74.44235,14.27624],[74.4421,14.27596],[74.4416,14.2762],[74.44158,14.27643],[74.44251,14.27646],[74.44334,14.27626],[74.44435,14.2764],[74.44775,14.27761],[74.44925,14.27841],[74.45045,14.27976],[74.45295,14.28015],[74.45315,14.28065],[74.45358,14.28091],[74.45387,14.28077]]]}},{"type":"Feature","bbox":[74.45314,14.27743,74.46359,14.28236],"properties":{"ward":20},"geometry":{"type":"Polygon","coordinates":[[[74.45951,14.28232],[74.45977,14.28162],[74.46324,14.28015],[74.46359,14.27969],[74.46344,14.27917],[74.46283,14.27839],[74.4614,14.27779],[74.45824,14.27746],[74.45653,14.27743],[74.45345,14.27784],[74.45314,14.27947],[74.45352,14.27991],[74.45387,14.28077],[74.45485,14.28123],[74.45546,14.28184],[74.45674,14.2819],[74.45775,14.28225],[74.45836,14.28211],[74.45898,14.28236],[74.45951,14.28232]]]}}]}