{"type":"FeatureCollection","features":[{"type":"Feature","bbox":[76.88054,15.50513,76.91361,15.55266],"properties":{"ward":1},"geometry":{"type":"Polygon","coordinates":[[[76.89996,15.50644],[76.89595,15.50708],[76.89596,15.50606],[76.89093,15.50674],[76.89087,15.50591],[76.88744,15.50627],[76.88734,15.50513],[76.88325,15.50522],[76.88247,15.50641],[76.88158,15.50691],[76.88124,15.507],[76.88107,15.50689],[76.88054,15.51127],[76.88082,15.51901],[76.88253,15.51896],[76.88229,15.51999],[76.88209,15.52],[76.88182,15.52034],[76.88159,15.52309],[76.88132,15.52332],[76.88142,15.52513],[76.88124,15.52556],[76.88143,15.5264],[76.8814,15.52719],[76.88247,15.52836],[76.88236,15.52956],[76.88197,15.5307],[76.88211,15.53116],[76.88186,15.53208],[76.88196,15.53243],[76.88259,15.53201],[76.88276,15.53484],[76.88431,15.53526],[76.88555,15.53585],[76.88724,15.53573],[76.88771,15.53533],[76.88852,15.53524],[76.88868,15.53628],[76.89048,15.53641],[76.89063,15.54023],[76.89497,15.5401],[76.89511,15.54205],[76.8972,15.54168],[76.89727,15.54332],[76.89819,15.54381],[76.89908,15.54365],[76.89971,15.54566],[76.89995,15.54582],[76.90105,15.54519],[76.90102,15.54781],[76.90184,15.55229],[76.9045,15.55266],[76.91298,15.54698],[76.91361,15.54525],[76.91341,15.54159],[76.91303,15.53897],[76.91252,15.53734],[76.91188,15.53242],[76.90727,15.53257],[76.90571,15.53248],[76.90552,15.53106],[76.90497,15.53022],[76.90444,15.53025],[76.90357,15.52594],[76.90276,15.51857],[76.90101,15.51819],[76.90061,15.51839],[76.89998,15.51794],[76.89974,15.5156],[76.89958,15.51097],[76.89972,15.51061],[76.89996,15.50644]]]}},{"type":"Feature","bbox":[76.87822,15.53457,76.90156,15.55078],"properties":{"ward":2},"geometry":{"type":"Polygon","coordinates":[[[76.88431,15.53526],[76.88165,15.53457],[76.88174,15.53588],[76.87841,15.53564],[76.87822,15.53679],[76.87919,15.53692],[76.87964,15.53831],[76.87962,15.53855],[76.87865,15.53887],[76.87982,15.54364],[76.8813,15.54744],[76.88149,15.54883],[76.88148,15.55078],[76.88253,15.55044],[76.88323,15.54973],[76.8877,15.54986],[76.88796,15.54971],[76.89374,15.55008],[76.89955,15.55004],[76.90156,15.55077],[76.90102,15.54781],[76.90105,15.54519],[76.89995,15.54582],[76.89971,15.54566],[76.89908,15.54365],[76.89819,15.54381],[76.89727,15.54332],[76.8972,15.54168],[76.89511,15.54205],[76.89497,15.5401],[76.89063,15.54023],[76.89048,15.53641],[76.88868,15.53628],[76.88852,15.53524],[76.88771,15.53533],[76.88724,15.53573],[76.88555,15.53585],[76.88431,15.53526]]]}},{"type":"Feature","bbox":[76.87561,15.53555,76.88149,15.55357],"properties":{"ward":3},"geometry":{"type":"Polygon","coordinates":[[[76.88148,15.55078],[76.88149,15.54883],[76.8813,15.54744],[76.87982,15.54364],[76.87865,15.53887],[76.87966,15.53852],[76.8792,15.53694],[76.87822,15.53682],[76.87841,15.53564],[76.87666,15.53555],[76.87561,15.5358],[76.87564,15.53633],[76.8765,15.53666],[76.8765,15.53735],[76.87717,15.53926],[76.87643,15.53951],[76.87665,15.54021],[76.87567,15.54042],[76.87631,15.54184],[76.87642,15.54182],[76.87634,15.54227],[76.87579,15.54243],[76.87621,15.54583],[76.87571,15.5466],[76.87571,15.54707],[76.87604,15.54707],[76.87609,15.54845],[76.877,15.54869],[76.87603,15.55024],[76.87589,15.5511],[76.87562,15.55143],[76.87598,15.55145],[76.87655,15.55357],[76.87811,15.55255],[76.88058,15.55125],[76.88104,15.55118],[76.88148,15.55078]]]}},{"type":"Feature","bbox":[76.86787,15.53633,76.87717,15.55616],"properties":{"ward":4},"geometry":{"type":"Polygon","coordinates":[[[76.87655,15.55357],[76.87598,15.55145],[76.87562,15.55143],[76.87589,15.5511],[76.87603,15.55024],[76.877,15.54869],[76.87609,15.54845],[76.87604,15.54707],[76.87571,15.54707],[76.87571,15.5466],[76.87621,15.54583],[76.87579,15.54243],[76.87634,15.54227],[76.87642,15.54182],[76.87631,15.54184],[76.87567,15.54042],[76.87665,15.54021],[76.87643,15.53951],[76.87717,15.53926],[76.8765,15.53735],[76.8765,15.53666],[76.87564,15.53633],[76.8756,15.53658],[76.87493,15.53694],[76.8748,15.53739],[76.87532,15.53969],[76.87282,15.54005],[76.87211,15.54151],[76.87221,15.54229],[76.87259,15.54292],[76.87003,15.54629],[76.8697,15.5465],[76.86909,15.54756],[76.86881,15.5486],[76.86833,15.54948],[76.86787,15.54978],[76.86788,15.55009],[76.86887,15.54994],[76.86922,15.55081],[76.86955,15.55247],[76.86975,15.55539],[76.87038,15.55555],[76.87026,15.55563],[76.87133,15.55616],[76.87189,15.55518],[76.87167,15.55426],[76.87179,15.55289],[76.87453,15.55184],[76.87534,15.55215],[76.8764,15.55367],[76.87655,15.55357]]]}},{"type":"Feature","bbox":[76.85387,15.53585,76.87561,15.56499],"properties":{"ward":5},"geometry":{"type":"Polygon","coordinates":[[[76.86738,15.55534],[76.87038,15.55555],[76.86975,15.55539],[76.86955,15.55247],[76.86922,15.55081],[76.86887,15.54994],[76.86788,15.55009],[76.86787,15.54978],[76.86833,15.54948],[76.86881,15.5486],[76.86909,15.54756],[76.8697,15.5465],[76.87003,15.54629],[76.87259,15.54292],[76.87221,15.54229],[76.87211,15.54151],[76.87282,15.54005],[76.87532,15.53969],[76.8748,15.53739],[76.87493,15.53694],[76.87561,15.53657],[76.87553,15.53585],[76.87438,15.53611],[76.87352,15.53654],[76.87298,15.53711],[76.87275,15.53778],[76.86992,15.53854],[76.86739,15.54071],[76.86728,15.54195],[76.86447,15.54423],[76.86307,15.54589],[76.8637,15.54667],[76.8635,15.54678],[76.86383,15.54789],[76.86348,15.54847],[76.863,15.54869],[76.86284,15.549],[76.8631,15.54892],[76.86337,15.54971],[76.86174,15.55045],[76.86168,15.55066],[76.86119,15.551],[76.86067,15.55248],[76.86054,15.55252],[76.86073,15.55331],[76.86034,15.55398],[76.85962,15.55482],[76.85911,15.55458],[76.85875,15.55553],[76.85671,15.55634],[76.85696,15.55743],[76.85387,15.55824],[76.85426,15.55935],[76.85637,15.56158],[76.8581,15.56499],[76.85839,15.56338],[76.85883,15.56266],[76.8606,15.56206],[76.86256,15.56085],[76.86393,15.56045],[76.86507,15.5615],[76.86702,15.56087],[76.86621,15.55825],[76.86396,15.55893],[76.8636,15.55862],[76.86364,15.5578],[76.86601,15.55573],[76.86738,15.55534]]]}},{"type":"Feature","bbox":[76.85827,15.53451,76.8741,15.55482],"properties":{"ward":6},"geometry":{"type":"Polygon","coordinates":[[[76.8741,15.53626],[76.87354,15.53507],[76.87347,15.53451],[76.8717,15.53488],[76.87163,15.53455],[76.87076,15.53458],[76.87053,15.53461],[76.8705,15.53521],[76.87018,15.53546],[76.86892,15.5356],[76.86889,15.53662],[76.86872,15.53707],[76.86669,15.53747],[76.86502,15.53845],[76.86381,15.53811],[76.86148,15.53783],[76.85827,15.53715],[76.85885,15.53904],[76.85995,15.54543],[76.86085,15.54852],[76.86044,15.54867],[76.8606,15.54962],[76.86026,15.5508],[76.86021,15.55168],[76.85934,15.55203],[76.85911,15.55325],[76.85884,15.55358],[76.85895,15.55479],[76.85911,15.55458],[76.85962,15.55482],[76.86034,15.55398],[76.86073,15.55331],[76.86054,15.55252],[76.86067,15.55248],[76.86119,15.551],[76.86168,15.55066],[76.86174,15.55045],[76.86337,15.54971],[76.8631,15.54892],[76.86284,15.549],[76.863,15.54869],[76.86348,15.54847],[76.86383,15.54789],[76.8635,15.54678],[76.8637,15.54667],[76.86307,15.54592],[76.86355,15.54527],[76.86567,15.54315],[76.86728,15.54195],[76.86744,15.54131],[76.86737,15.54075],[76.86794,15.54018],[76.86992,15.53854],[76.87275,15.53778],[76.87309,15.53696],[76.8741,15.53626]]]}},{"type":"Feature","bbox":[76.87347,15.53403,76.87553,15.53626],"properties":{"ward":7},"geometry":{"type":"Polygon","coordinates":[[[76.87553,15.53585],[76.87551,15.53565],[76.87524,15.5356],[76.87509,15.53513],[76.87441,15.53507],[76.87403,15.53403],[76.87347,15.53451],[76.87354,15.53507],[76.8741,15.53626],[76.87553,15.53585]]]}},{"type":"Feature","bbox":[76.87403,15.53386,76.87622,15.53583],"properties":{"ward":8},"geometry":{"type":"Polygon","coordinates":[[[76.87622,15.53562],[76.8761,15.53526],[76.87585,15.5352],[76.87573,15.53495],[76.87578,15.53403],[76.875,15.53386],[76.87403,15.53403],[76.87446,15.53512],[76.87509,15.53513],[76.87524,15.5356],[76.87551,15.53565],[76.87557,15.53583],[76.87622,15.53562]]]}},{"type":"Feature","bbox":[76.87575,15.53394,76.87894,15.53564],"properties":{"ward":9},"geometry":{"type":"Polygon","coordinates":[[[76.87894,15.53394],[76.87696,15.53439],[76.87578,15.53403],[76.87575,15.53504],[76.87607,15.53522],[76.87622,15.53562],[76.87841,15.53564],[76.87843,15.53509],[76.87893,15.53424],[76.87894,15.53394]]]}},{"type":"Feature","bbox":[76.87841,15.52909,76.88174,15.53588],"properties":{"ward":10},"geometry":{"type":"Polygon","coordinates":[[[76.88174,15.53588],[76.88124,15.5291],[76.8808,15.52909],[76.88067,15.53075],[76.87958,15.53087],[76.87986,15.53397],[76.87894,15.53394],[76.87893,15.53424],[76.87843,15.53509],[76.87841,15.53564],[76.88174,15.53588]]]}},{"type":"Feature","bbox":[76.87488,15.5086,76.88276,15.53484],"properties":{"ward":11},"geometry":{"type":"Polygon","coordinates":[[[76.88081,15.5086],[76.87969,15.50876],[76.87823,15.50934],[76.87666,15.50955],[76.87667,15.5097],[76.87488,15.50966],[76.87525,15.51075],[76.87553,15.51097],[76.87667,15.51322],[76.87786,15.51314],[76.87748,15.51391],[76.87759,15.51437],[76.87736,15.51483],[76.87715,15.51468],[76.87776,15.5165],[76.87766,15.51814],[76.87724,15.51996],[76.87769,15.52089],[76.87752,15.52094],[76.87736,15.52069],[76.87724,15.52122],[76.87731,15.52341],[76.87816,15.52407],[76.87854,15.52578],[76.87787,15.52586],[76.87811,15.52762],[76.87842,15.52759],[76.87849,15.52859],[76.878,15.52864],[76.87794,15.5304],[76.87842,15.5309],[76.87862,15.53209],[76.87887,15.53205],[76.87894,15.53265],[76.87973,15.53258],[76.87959,15.53085],[76.88067,15.53075],[76.88072,15.52912],[76.88123,15.52906],[76.88165,15.53457],[76.88276,15.53484],[76.88259,15.53201],[76.88196,15.53243],[76.88186,15.53208],[76.88211,15.53116],[76.88197,15.5307],[76.88236,15.52956],[76.88247,15.52836],[76.8814,15.52719],[76.88143,15.5264],[76.88124,15.52556],[76.88142,15.52513],[76.88132,15.52332],[76.88159,15.52309],[76.88182,15.52034],[76.88209,15.52],[76.88229,15.51999],[76.88253,15.51896],[76.88082,15.51901],[76.88054,15.51127],[76.88081,15.5086]]]}},{"type":"Feature","bbox":[76.87659,15.53205,76.8799,15.53435],"properties":{"ward":12},"geometry":{"type":"Polygon","coordinates":[[[76.87894,15.53394],[76.87984,15.53397],[76.8799,15.53368],[76.87973,15.53258],[76.87895,15.53266],[76.87887,15.53205],[76.87784,15.53237],[76.87725,15.53236],[76.87717,15.53329],[76.87664,15.53334],[76.87659,15.53391],[76.87711,15.53412],[76.87715,15.53435],[76.87894,15.53394]]]}},{"type":"Feature","bbox":[76.87522,15.53209,76.87725,15.53435],"properties":{"ward":13},"geometry":{"type":"Polygon","coordinates":[[[76.87715,15.53435],[76.87711,15.53412],[76.87658,15.53383],[76.87664,15.53334],[76.87717,15.53329],[76.87725,15.53236],[76.8755,15.53209],[76.87522,15.53287],[76.87522,15.53333],[76.87572,15.53402],[76.87715,15.53435]]]}},{"type":"Feature","bbox":[76.85957,15.53277,76.87572,15.53845],"properties":{"ward":14},"geometry":{"type":"Polygon","coordinates":[[[76.87347,15.53451],[76.87415,15.53397],[76.87572,15.53394],[76.87534,15.53337],[76.87432,15.53282],[76.8738,15.53277],[76.87363,15.53312],[76.87197,15.53321],[76.8715,15.53363],[76.87155,15.53412],[76.86988,15.5342],[76.86933,15.53391],[76.86432,15.53613],[76.86414,15.53598],[76.86418,15.5358],[76.86374,15.53548],[76.86325,15.53598],[76.86354,15.53685],[76.86286,15.53707],[76.8624,15.53697],[76.86213,15.53669],[76.86177,15.53676],[76.85972,15.53637],[76.85957,15.53744],[76.86273,15.53804],[76.86381,15.53811],[76.86502,15.53845],[76.86669,15.53747],[76.86872,15.53707],[76.86889,15.53662],[76.86892,15.5356],[76.87018,15.53546],[76.8705,15.53521],[76.87054,15.5346],[76.87163,15.53455],[76.8717,15.53488],[76.87347,15.53451]]]}},{"type":"Feature","bbox":[76.84229,15.5182,76.8738,15.53744],"properties":{"ward":15},"geometry":{"type":"Polygon","coordinates":[[[76.8738,15.53277],[76.8732,15.53229],[76.87138,15.53149],[76.86971,15.53125],[76.8691,15.53096],[76.86706,15.52947],[76.86665,15.52885],[76.86648,15.52903],[76.86374,15.52739],[76.86386,15.5269],[76.86353,15.52722],[76.86138,15.52605],[76.85593,15.52241],[76.85402,15.52143],[76.84894,15.51941],[76.84881,15.51909],[76.84453,15.5182],[76.84229,15.5183],[76.84299,15.52099],[76.84433,15.52811],[76.84586,15.52739],[76.84594,15.52755],[76.84669,15.52746],[76.84733,15.52791],[76.84834,15.52751],[76.84902,15.52809],[76.85032,15.52795],[76.85073,15.52728],[76.85691,15.52734],[76.85827,15.53715],[76.85957,15.53744],[76.85972,15.53637],[76.86177,15.53676],[76.86213,15.53669],[76.8624,15.53697],[76.86286,15.53707],[76.86354,15.53685],[76.86325,15.53598],[76.86374,15.53548],[76.86418,15.5358],[76.86414,15.53598],[76.86432,15.53613],[76.86933,15.53391],[76.86988,15.5342],[76.87155,15.53412],[76.8715,15.53363],[76.87197,15.53321],[76.87363,15.53312],[76.8738,15.53277]]]}},{"type":"Feature","bbox":[76.87132,15.53079,76.87522,15.53333],"properties":{"ward":16},"geometry":{"type":"Polygon","coordinates":[[[76.87467,15.53163],[76.87368,15.53176],[76.87217,15.53153],[76.87207,15.53132],[76.87159,15.53121],[76.87172,15.53079],[76.87141,15.53111],[76.87132,15.53148],[76.8732,15.53229],[76.87376,15.53277],[76.87432,15.53282],[76.87522,15.53333],[76.87467,15.53163]]]}},{"type":"Feature","bbox":[76.84828,15.49597,76.87467,15.53176],"properties":{"ward":17},"geometry":{"type":"Polygon","coordinates":[[[76.87467,15.53163],[76.87454,15.53074],[76.87352,15.52946],[76.8731,15.5275],[76.87411,15.52776],[76.87409,15.52739],[76.87358,15.52649],[76.87332,15.5265],[76.8732,15.52571],[76.87267,15.52453],[76.87231,15.52411],[76.87265,15.52422],[76.87243,15.52367],[76.87261,15.52116],[76.8722,15.52041],[76.8722,15.52004],[76.87192,15.52008],[76.8715,15.51948],[76.87051,15.51737],[76.86922,15.51527],[76.86838,15.51442],[76.86802,15.51375],[76.86771,15.51411],[76.86806,15.51259],[76.86657,15.51132],[76.86591,15.5101],[76.86519,15.50931],[76.86404,15.50844],[76.86308,15.50727],[76.86297,15.50642],[76.86185,15.50249],[76.86077,15.49974],[76.86093,15.49945],[76.86287,15.49908],[76.86223,15.49726],[76.86284,15.49682],[76.86325,15.49597],[76.85887,15.49673],[76.85736,15.4973],[76.8542,15.49897],[76.85201,15.49957],[76.8513,15.5002],[76.85067,15.50037],[76.85048,15.50115],[76.85051,15.50247],[76.85005,15.505],[76.84979,15.50831],[76.84941,15.50842],[76.84951,15.50986],[76.84828,15.50998],[76.84876,15.51671],[76.8488,15.51931],[76.85485,15.52183],[76.86138,15.52605],[76.86353,15.52722],[76.86386,15.5269],[76.86374,15.52739],[76.86648,15.52903],[76.86665,15.52885],[76.86706,15.52947],[76.86943,15.53113],[76.87132,15.53148],[76.87141,15.53111],[76.87172,15.53079],[76.87159,15.53121],[76.87207,15.53132],[76.87217,15.53153],[76.87368,15.53176],[76.87467,15.53163]]]}},{"type":"Feature","bbox":[76.86077,15.49597,76.88107,15.53333],"properties":{"ward":18},"geometry":{"type":"Polygon","coordinates":[[[76.8755,15.53209],[76.87784,15.53237],[76.87862,15.53209],[76.87842,15.5309],[76.87794,15.5304],[76.878,15.52864],[76.87849,15.52859],[76.87842,15.52759],[76.87811,15.52762],[76.87787,15.52586],[76.87854,15.52578],[76.87816,15.52407],[76.87731,15.52341],[76.87723,15.52188],[76.87736,15.52069],[76.87752,15.52094],[76.87769,15.52089],[76.87724,15.51996],[76.87766,15.51814],[76.87776,15.5165],[76.87715,15.51468],[76.87736,15.51483],[76.87759,15.51437],[76.87748,15.51391],[76.87786,15.51314],[76.87667,15.51322],[76.87553,15.51097],[76.87525,15.51075],[76.87488,15.50966],[76.87667,15.5097],[76.87666,15.50955],[76.87823,15.50934],[76.87969,15.50876],[76.88081,15.5086],[76.88107,15.50689],[76.88052,15.50651],[76.87974,15.50652],[76.87864,15.50535],[76.8773,15.50518],[76.87727,15.50443],[76.87768,15.50427],[76.87736,15.50373],[76.87711,15.50379],[76.87702,15.50407],[76.8766,15.50443],[76.87655,15.5052],[76.87487,15.50536],[76.87494,15.50665],[76.87307,15.50719],[76.87305,15.50744],[76.87249,15.50646],[76.87113,15.5071],[76.87066,15.50617],[76.87036,15.50604],[76.87033,15.50585],[76.86964,15.50627],[76.86947,15.50539],[76.86903,15.50502],[76.86853,15.50363],[76.8707,15.50399],[76.87048,15.5031],[76.86945,15.50221],[76.86896,15.50091],[76.86862,15.49785],[76.86867,15.49709],[76.86713,15.49762],[76.86595,15.49599],[76.86325,15.49597],[76.86284,15.49682],[76.86223,15.49726],[76.86287,15.49908],[76.86093,15.49945],[76.86077,15.49974],[76.86185,15.50249],[76.86297,15.50642],[76.86308,15.50727],[76.86404,15.50844],[76.86519,15.50931],[76.86591,15.5101],[76.86657,15.51132],[76.86806,15.51259],[76.86771,15.51411],[76.86802,15.51375],[76.86838,15.51442],[76.86922,15.51527],[76.87051,15.51737],[76.8715,15.51948],[76.87192,15.52008],[76.8722,15.52004],[76.8722,15.52041],[76.87261,15.52116],[76.87243,15.52367],[76.87265,15.52422],[76.87231,15.52411],[76.87267,15.52453],[76.8732,15.52571],[76.87332,15.5265],[76.87358,15.52649],[76.87409,15.52739],[76.87411,15.52776],[76.8731,15.5275],[76.87328,15.52852],[76.8736,15.52963],[76.87454,15.53074],[76.87463,15.53157],[76.87492,15.53212],[76.87522,15.53333],[76.87522,15.53287],[76.8755,15.53209]]]}},{"type":"Feature","bbox":[76.86853,15.49709,76.90064,15.50744],"properties":{"ward":19},"geometry":{"type":"Polygon","coordinates":[[[76.88052,15.50651],[76.88124,15.507],[76.88158,15.50691],[76.88247,15.50641],[76.88325,15.50522],[76.88734,15.50513],[76.88744,15.50627],[76.89087,15.50591],[76.89093,15.50674],[76.89596,15.50606],[76.89595,15.50708],[76.90064,15.50629],[76.89994,15.50103],[76.89599,15.50157],[76.89129,15.50135],[76.88754,15.50164],[76.88305,15.5014],[76.88301,15.50169],[76.88139,15.50177],[76.88137,15.50205],[76.88015,15.50201],[76.88018,15.50113],[76.87676,15.50152],[76.87667,15.50053],[76.87494,15.50054],[76.87393,15.50074],[76.87345,15.49949],[76.87233,15.49964],[76.87058,15.49954],[76.87029,15.49876],[76.87016,15.49745],[76.86867,15.49709],[76.86862,15.49785],[76.86896,15.50091],[76.86945,15.50221],[76.87048,15.5031],[76.8707,15.50399],[76.86853,15.50363],[76.86903,15.50502],[76.86947,15.50539],[76.86964,15.50627],[76.87033,15.50585],[76.87036,15.50604],[76.87066,15.50617],[76.87113,15.5071],[76.87249,15.50646],[76.87305,15.50744],[76.87307,15.50719],[76.87494,15.50665],[76.87487,15.50536],[76.87655,15.5052],[76.8766,15.50443],[76.87702,15.50407],[76.87711,15.50379],[76.87736,15.50373],[76.87768,15.50427],[76.87727,15.50443],[76.8773,15.50518],[76.87864,15.50535],[76.87974,15.50652],[76.88052,15.50651]]]}},{"type":"Feature","bbox":[76.86573,15.47189,76.90053,15.50205],"properties":{"ward":20},"geometry":{"type":"Polygon","coordinates":[[[76.89994,15.50103],[76.89994,15.50071],[76.90021,15.50069],[76.90047,15.49807],[76.90039,15.49488],[76.90053,15.49287],[76.89947,15.48497],[76.89999,15.48445],[76.89952,15.48247],[76.89961,15.48012],[76.89944,15.47812],[76.89387,15.47837],[76.89388,15.47653],[76.89176,15.47569],[76.88871,15.47501],[76.88887,15.47279],[76.88453,15.47286],[76.88447,15.47189],[76.88028,15.4723],[76.87766,15.47236],[76.87773,15.47731],[76.87537,15.4774],[76.86958,15.47698],[76.86957,15.48463],[76.86773,15.48466],[76.86573,15.48496],[76.86625,15.49307],[76.86595,15.49599],[76.86713,15.49762],[76.86867,15.49709],[76.87016,15.49745],[76.87029,15.49876],[76.87058,15.49954],[76.87233,15.49964],[76.87345,15.49949],[76.87393,15.50074],[76.87494,15.50054],[76.87667,15.50053],[76.87676,15.50152],[76.88018,15.50113],[76.88015,15.50201],[76.88137,15.50205],[76.88139,15.50177],[76.88301,15.50169],[76.88305,15.5014],[76.88754,15.50164],[76.89129,15.50135],[76.89599,15.50157],[76.89994,15.50103]]]}}]}