{"type":"FeatureCollection","features":[{"type":"Feature","bbox":[75.24285,13.69468,75.25109,13.7],"properties":{"ward":1},"geometry":{"type":"Polygon","coordinates":[[[75.24556,13.7],[75.24866,13.69945],[75.24875,13.69878],[75.24924,13.69777],[75.24948,13.69787],[75.25018,13.69769],[75.25063,13.69716],[75.25109,13.69611],[75.25012,13.69581],[75.24823,13.69595],[75.24733,13.69646],[75.24697,13.69594],[75.24561,13.69657],[75.24454,13.69468],[75.24285,13.69535],[75.2439,13.69726],[75.24329,13.69755],[75.24442,13.69907],[75.24556,13.7]]]}},{"type":"Feature","bbox":[75.23784,13.69705,75.24866,13.70381],"properties":{"ward":2},"geometry":{"type":"Polygon","coordinates":[[[75.24866,13.69945],[75.24556,13.7],[75.24442,13.69907],[75.24278,13.69977],[75.24168,13.70001],[75.24054,13.70082],[75.23914,13.69876],[75.23933,13.69856],[75.23908,13.69705],[75.2379,13.69747],[75.23824,13.69795],[75.23784,13.69836],[75.23899,13.69982],[75.23798,13.7011],[75.238,13.70144],[75.23847,13.70183],[75.23884,13.70269],[75.2409,13.70244],[75.24123,13.70256],[75.2417,13.70203],[75.24242,13.70331],[75.24315,13.70381],[75.24431,13.70381],[75.24475,13.70343],[75.24509,13.70235],[75.24586,13.702],[75.24644,13.70196],[75.24861,13.69977],[75.24866,13.69945]]]}},{"type":"Feature","bbox":[75.23683,13.69487,75.24171,13.7008],"properties":{"ward":3},"geometry":{"type":"Polygon","coordinates":[[[75.24155,13.70008],[75.24077,13.69874],[75.24171,13.69806],[75.2406,13.6973],[75.24017,13.69572],[75.23953,13.69605],[75.23869,13.69487],[75.23833,13.69508],[75.23819,13.69582],[75.23683,13.69627],[75.2379,13.69747],[75.23908,13.69705],[75.23933,13.69856],[75.23914,13.69876],[75.24052,13.7008],[75.24155,13.70008]]]}},{"type":"Feature","bbox":[75.2364,13.69074,75.24257,13.69627],"properties":{"ward":4},"geometry":{"type":"Polygon","coordinates":[[[75.23833,13.69508],[75.23998,13.69444],[75.24049,13.69442],[75.24128,13.69395],[75.24156,13.69357],[75.24172,13.6929],[75.24257,13.69179],[75.24189,13.69124],[75.24069,13.69074],[75.24047,13.69077],[75.23898,13.69239],[75.23866,13.69336],[75.23849,13.6949],[75.23814,13.69509],[75.2369,13.69524],[75.2364,13.69579],[75.23683,13.69627],[75.23819,13.69582],[75.23833,13.69508]]]}},{"type":"Feature","bbox":[75.23869,13.69071,75.24652,13.70008],"properties":{"ward":5},"geometry":{"type":"Polygon","coordinates":[[[75.24155,13.70008],[75.24278,13.69977],[75.24442,13.69907],[75.24265,13.69662],[75.24225,13.69573],[75.2423,13.69538],[75.24187,13.69545],[75.24198,13.69419],[75.24277,13.69428],[75.24321,13.69318],[75.24361,13.69295],[75.24379,13.69313],[75.24507,13.69294],[75.24547,13.69259],[75.24627,13.69268],[75.24652,13.69071],[75.24521,13.69073],[75.24377,13.691],[75.24288,13.69172],[75.24257,13.69179],[75.24172,13.6929],[75.24156,13.69357],[75.24128,13.69395],[75.24049,13.69442],[75.23998,13.69444],[75.23869,13.69487],[75.23953,13.69605],[75.24017,13.69572],[75.2406,13.6973],[75.24171,13.69806],[75.24077,13.69874],[75.24155,13.70008]]]}},{"type":"Feature","bbox":[75.24187,13.69419,75.24391,13.69755],"properties":{"ward":6},"geometry":{"type":"Polygon","coordinates":[[[75.24272,13.69431],[75.24198,13.69419],[75.24187,13.69545],[75.2423,13.69538],[75.2423,13.69589],[75.24329,13.69755],[75.24391,13.69729],[75.24285,13.69535],[75.24269,13.6954],[75.24272,13.69431]]]}},{"type":"Feature","bbox":[75.24269,13.69259,75.24789,13.69657],"properties":{"ward":7},"geometry":{"type":"Polygon","coordinates":[[[75.24789,13.69624],[75.24734,13.69522],[75.24743,13.695],[75.24698,13.69437],[75.2472,13.69278],[75.24547,13.69259],[75.24522,13.69288],[75.24476,13.69303],[75.24379,13.69313],[75.24361,13.69295],[75.24321,13.69318],[75.24272,13.69431],[75.24269,13.6954],[75.2445,13.69468],[75.24558,13.69657],[75.24697,13.69594],[75.24733,13.69646],[75.24789,13.69624]]]}},{"type":"Feature","bbox":[75.24627,13.68756,75.25728,13.69624],"properties":{"ward":8},"geometry":{"type":"Polygon","coordinates":[[[75.25457,13.6881],[75.25401,13.68902],[75.25392,13.69011],[75.25358,13.69099],[75.25194,13.68984],[75.25176,13.69051],[75.25089,13.69047],[75.24882,13.69075],[75.24652,13.69071],[75.24627,13.69268],[75.2472,13.69278],[75.24698,13.69437],[75.24743,13.695],[75.24734,13.69522],[75.24789,13.69624],[75.24823,13.69595],[75.25012,13.69581],[75.25109,13.69611],[75.25127,13.69567],[75.25099,13.69466],[75.25137,13.69453],[75.25152,13.69395],[75.25235,13.69336],[75.25395,13.6931],[75.2547,13.69273],[75.25666,13.69322],[75.25728,13.69295],[75.25499,13.69024],[75.25486,13.68892],[75.2551,13.68756],[75.25457,13.6881]]]}},{"type":"Feature","bbox":[75.24246,13.68523,75.25188,13.69079],"properties":{"ward":9},"geometry":{"type":"Polygon","coordinates":[[[75.24474,13.69079],[75.24882,13.69075],[75.25089,13.69047],[75.25176,13.69051],[75.25188,13.69009],[75.25026,13.6898],[75.24895,13.68898],[75.24775,13.68849],[75.24806,13.68772],[75.24825,13.68666],[75.24868,13.68595],[75.24842,13.68533],[75.24763,13.68566],[75.24529,13.68549],[75.24409,13.68523],[75.24331,13.68737],[75.24246,13.68753],[75.24462,13.68776],[75.24479,13.6871],[75.246,13.68761],[75.24474,13.69079]]]}},{"type":"Feature","bbox":[75.2464,13.68169,75.25514,13.691],"properties":{"ward":10},"geometry":{"type":"Polygon","coordinates":[[[75.25457,13.6881],[75.2551,13.68756],[75.25469,13.68677],[75.2536,13.68609],[75.25293,13.68596],[75.25372,13.68379],[75.25507,13.68389],[75.25514,13.68361],[75.25474,13.68357],[75.25446,13.68325],[75.25466,13.68215],[75.25409,13.68206],[75.25401,13.68171],[75.25173,13.68216],[75.25119,13.68209],[75.24956,13.68235],[75.24825,13.6818],[75.24716,13.68169],[75.24692,13.68192],[75.24682,13.68246],[75.2464,13.68248],[75.24868,13.68577],[75.24825,13.68666],[75.24806,13.68772],[75.24775,13.68849],[75.24895,13.68898],[75.25053,13.68989],[75.25188,13.69009],[75.252,13.68985],[75.25355,13.691],[75.25392,13.69011],[75.25401,13.68902],[75.25457,13.6881]]]}},{"type":"Feature","bbox":[75.23644,13.68667,75.24602,13.69179],"properties":{"ward":11},"geometry":{"type":"Polygon","coordinates":[[[75.24474,13.69079],[75.24602,13.68763],[75.24522,13.68724],[75.24479,13.6871],[75.24459,13.68777],[75.24246,13.68753],[75.24172,13.68779],[75.24031,13.68769],[75.238,13.68667],[75.2378,13.68731],[75.23753,13.68752],[75.23644,13.68782],[75.23904,13.68947],[75.24063,13.69019],[75.24257,13.69179],[75.24288,13.69172],[75.24377,13.691],[75.24474,13.69079]]]}},{"type":"Feature","bbox":[75.22353,13.68167,75.238,13.68782],"properties":{"ward":12},"geometry":{"type":"Polygon","coordinates":[[[75.238,13.68667],[75.23561,13.68508],[75.23265,13.6835],[75.23174,13.6824],[75.23047,13.68204],[75.22606,13.68189],[75.22507,13.68167],[75.2242,13.68182],[75.22353,13.68256],[75.22354,13.68274],[75.22452,13.68328],[75.22606,13.68337],[75.22844,13.68427],[75.22899,13.68468],[75.23179,13.68595],[75.23422,13.68582],[75.23521,13.68605],[75.2357,13.68641],[75.23644,13.68782],[75.23746,13.68757],[75.2378,13.68731],[75.238,13.68667]]]}},{"type":"Feature","bbox":[75.23,13.68582,75.24189,13.69293],"properties":{"ward":13},"geometry":{"type":"Polygon","coordinates":[[[75.23878,13.69293],[75.23906,13.69227],[75.24047,13.69077],[75.24069,13.69074],[75.24189,13.69124],[75.24042,13.69006],[75.23904,13.68947],[75.23649,13.6879],[75.2357,13.68641],[75.23521,13.68605],[75.23417,13.68582],[75.23067,13.68637],[75.23,13.68734],[75.23201,13.68829],[75.23205,13.68888],[75.23366,13.68882],[75.23373,13.68791],[75.23437,13.68801],[75.23513,13.68781],[75.23441,13.69048],[75.2356,13.69057],[75.23564,13.68953],[75.23599,13.68911],[75.23643,13.68921],[75.23651,13.68995],[75.23672,13.68989],[75.23707,13.69137],[75.23686,13.69169],[75.23685,13.69284],[75.23795,13.69275],[75.23878,13.69293]]]}},{"type":"Feature","bbox":[75.23929,13.67859,75.25401,13.68779],"properties":{"ward":14},"geometry":{"type":"Polygon","coordinates":[[[75.24172,13.68779],[75.24331,13.68737],[75.24409,13.68523],[75.24529,13.68549],[75.24763,13.68566],[75.24842,13.68533],[75.24639,13.68254],[75.24682,13.68246],[75.24698,13.68181],[75.24723,13.68169],[75.24825,13.6818],[75.24956,13.68235],[75.25119,13.68209],[75.25173,13.68216],[75.25401,13.68171],[75.25375,13.68132],[75.25356,13.67992],[75.25308,13.67957],[75.25313,13.67934],[75.25267,13.6796],[75.25204,13.67935],[75.2513,13.67937],[75.2513,13.6798],[75.25041,13.67982],[75.25023,13.68027],[75.25082,13.68093],[75.2507,13.68139],[75.24984,13.68097],[75.24953,13.68097],[75.24934,13.67859],[75.24466,13.67888],[75.24425,13.67864],[75.2436,13.6786],[75.23929,13.67954],[75.2404,13.68533],[75.24026,13.68768],[75.24172,13.68779]]]}},{"type":"Feature","bbox":[75.23184,13.6891,75.23878,13.69662],"properties":{"ward":15},"geometry":{"type":"Polygon","coordinates":[[[75.23656,13.69597],[75.2364,13.69579],[75.2369,13.69524],[75.23814,13.69509],[75.23849,13.6949],[75.23878,13.69293],[75.23795,13.69275],[75.23685,13.69284],[75.23686,13.69169],[75.23707,13.69137],[75.23672,13.68989],[75.23651,13.68995],[75.23645,13.68924],[75.23609,13.6891],[75.23564,13.68953],[75.2356,13.69057],[75.23441,13.69048],[75.23404,13.69369],[75.23325,13.6948],[75.23282,13.69473],[75.23206,13.69418],[75.23188,13.69416],[75.23184,13.69442],[75.23288,13.69503],[75.23414,13.69529],[75.23421,13.69515],[75.23449,13.69528],[75.23442,13.69542],[75.23458,13.69555],[75.23503,13.69551],[75.23543,13.6959],[75.23548,13.69635],[75.23579,13.69662],[75.23656,13.69597]]]}}]}