{"type":"FeatureCollection","features":[{"type":"Feature","bbox":[75.53449,13.95019,75.56584,13.97969],"properties":{"ward":1,"name":"Sahyadhri Nagara"},"geometry":{"type":"Polygon","coordinates":[[[75.55985,13.97108],[75.55931,13.96969],[75.5589,13.96906],[75.55926,13.96783],[75.55897,13.9669],[75.5594,13.9665],[75.55944,13.96629],[75.56061,13.96631],[75.56188,13.96611],[75.56181,13.96646],[75.56402,13.96636],[75.56443,13.96518],[75.56514,13.96123],[75.56486,13.96025],[75.56552,13.95522],[75.56549,13.9517],[75.56584,13.95019],[75.54619,13.96092],[75.53475,13.97038],[75.53511,13.97103],[75.53633,13.97236],[75.53699,13.97404],[75.53449,13.97969],[75.53547,13.97955],[75.53542,13.97913],[75.53587,13.97912],[75.53589,13.97876],[75.53608,13.97871],[75.53651,13.97872],[75.53658,13.97919],[75.53699,13.97916],[75.53933,13.97752],[75.54029,13.97708],[75.54105,13.9772],[75.54223,13.97808],[75.54204,13.9774],[75.54218,13.97717],[75.54414,13.97753],[75.54739,13.97882],[75.54919,13.97431],[75.54991,13.97352],[75.552,13.97195],[75.55274,13.97114],[75.55256,13.97088],[75.55309,13.97069],[75.55606,13.97058],[75.55656,13.97094],[75.55696,13.97098],[75.55738,13.97063],[75.55808,13.97048],[75.55985,13.97108]]]}},{"type":"Feature","bbox":[75.5589,13.94784,75.58074,13.97971],"properties":{"ward":2,"name":"Ashwath Nagara"},"geometry":{"type":"Polygon","coordinates":[[[75.5803,13.9676],[75.57971,13.96252],[75.57856,13.9568],[75.57837,13.95654],[75.57773,13.95647],[75.577,13.95595],[75.5763,13.95584],[75.57563,13.95532],[75.5755,13.95187],[75.57464,13.94784],[75.56863,13.94913],[75.56584,13.95019],[75.56549,13.9517],[75.56552,13.95522],[75.56486,13.96025],[75.56514,13.96123],[75.56443,13.96518],[75.56402,13.96636],[75.56181,13.96646],[75.56188,13.96611],[75.56061,13.96631],[75.55944,13.96629],[75.5594,13.9665],[75.55897,13.9669],[75.55926,13.96783],[75.5589,13.96906],[75.55931,13.96969],[75.55985,13.97108],[75.56368,13.97126],[75.56377,13.97171],[75.5648,13.97156],[75.56502,13.97137],[75.56479,13.9712],[75.56475,13.97062],[75.56517,13.97113],[75.56562,13.97139],[75.56648,13.97128],[75.56673,13.97155],[75.56708,13.97156],[75.56983,13.97138],[75.57092,13.97327],[75.57179,13.9742],[75.57195,13.97481],[75.57289,13.97566],[75.57323,13.97666],[75.57347,13.97669],[75.5741,13.97767],[75.57447,13.9777],[75.57488,13.97859],[75.57597,13.97916],[75.57746,13.97918],[75.57922,13.97941],[75.57992,13.97971],[75.58047,13.97967],[75.58074,13.97962],[75.58038,13.97625],[75.57919,13.97357],[75.57913,13.97146],[75.57845,13.97139],[75.57835,13.97115],[75.57854,13.96918],[75.57828,13.96803],[75.57968,13.96791],[75.5803,13.9676]]]}},{"type":"Feature","bbox":[75.57464,13.94185,75.59308,13.9676],"properties":{"ward":3,"name":"Shanthi Nagara"},"geometry":{"type":"Polygon","coordinates":[[[75.59308,13.96347],[75.59303,13.96165],[75.59261,13.95894],[75.59204,13.9572],[75.59111,13.95301],[75.59001,13.94981],[75.59023,13.9496],[75.59049,13.94819],[75.58865,13.94736],[75.5873,13.94602],[75.58583,13.94185],[75.58179,13.9457],[75.58095,13.94625],[75.57956,13.94678],[75.57464,13.94784],[75.5755,13.95187],[75.57563,13.95532],[75.5763,13.95584],[75.577,13.95595],[75.57773,13.95647],[75.57837,13.95654],[75.57856,13.9568],[75.57971,13.96252],[75.5803,13.9676],[75.58341,13.96687],[75.5837,13.9667],[75.5837,13.96626],[75.5851,13.96631],[75.58662,13.9668],[75.58844,13.967],[75.58901,13.9658],[75.58915,13.96469],[75.58993,13.96453],[75.58994,13.96441],[75.59091,13.96441],[75.59096,13.96456],[75.59289,13.96432],[75.59293,13.96346],[75.59308,13.96347]]]}},{"type":"Feature","bbox":[75.58411,13.93023,75.60793,13.96421],"properties":{"ward":4,"name":"Malleshwara"},"geometry":{"type":"Polygon","coordinates":[[[75.60723,13.94169],[75.60793,13.94077],[75.60421,13.93896],[75.60309,13.9381],[75.60127,13.93795],[75.60058,13.93773],[75.59818,13.93774],[75.59562,13.93681],[75.59367,13.93528],[75.59349,13.93482],[75.59193,13.93313],[75.58976,13.93023],[75.58662,13.9324],[75.5859,13.93343],[75.58493,13.93496],[75.58417,13.93704],[75.58411,13.93834],[75.58561,13.94124],[75.58715,13.94579],[75.5879,13.94673],[75.58865,13.94736],[75.59049,13.94819],[75.59023,13.9496],[75.59001,13.94981],[75.59111,13.95301],[75.59204,13.9572],[75.59261,13.95894],[75.59303,13.96165],[75.59308,13.96347],[75.59517,13.96339],[75.5964,13.9635],[75.59639,13.96369],[75.5985,13.96369],[75.59931,13.96385],[75.59999,13.96355],[75.60114,13.96397],[75.60296,13.96383],[75.60339,13.96396],[75.60358,13.96421],[75.60493,13.96291],[75.60685,13.9619],[75.60619,13.95607],[75.60521,13.95485],[75.60569,13.9547],[75.60557,13.95358],[75.60543,13.95358],[75.60496,13.95276],[75.60496,13.94953],[75.60541,13.94703],[75.6057,13.94652],[75.60648,13.94318],[75.60723,13.94169]]]}},{"type":"Feature","bbox":[75.59223,13.90809,75.62306,13.94898],"properties":{"ward":5,"name":"Guddekallu"},"geometry":{"type":"Polygon","coordinates":[[[75.62306,13.91006],[75.62137,13.90809],[75.61957,13.90889],[75.61549,13.91004],[75.6023,13.91611],[75.60082,13.91722],[75.59961,13.91848],[75.59223,13.92861],[75.59251,13.9291],[75.59496,13.92922],[75.59412,13.93098],[75.59594,13.93151],[75.59522,13.93342],[75.59379,13.93537],[75.59512,13.93644],[75.59583,13.93692],[75.59818,13.93774],[75.60058,13.93773],[75.60127,13.93795],[75.60309,13.9381],[75.60421,13.93896],[75.60793,13.94077],[75.60723,13.94169],[75.6102,13.94453],[75.61179,13.94654],[75.61412,13.94806],[75.61767,13.94835],[75.61973,13.94896],[75.6204,13.94898],[75.6206,13.94795],[75.62115,13.94146],[75.62147,13.94019],[75.62144,13.93921],[75.62194,13.93586],[75.62186,13.93387],[75.6213,13.92728],[75.62027,13.92543],[75.61844,13.92387],[75.61821,13.92392],[75.6183,13.92271],[75.62137,13.91145],[75.62192,13.9107],[75.62306,13.91006]]]}},{"type":"Feature","bbox":[75.50897,13.93876,75.54929,13.97039],"properties":{"ward":6,"name":"Gadikoppa"},"geometry":{"type":"Polygon","coordinates":[[[75.53475,13.97038],[75.54582,13.96116],[75.54851,13.95962],[75.54892,13.955],[75.54877,13.95378],[75.54883,13.95274],[75.54929,13.94798],[75.54795,13.94705],[75.54653,13.94511],[75.54553,13.94348],[75.54576,13.9426],[75.54223,13.94424],[75.54206,13.94227],[75.54127,13.93925],[75.54102,13.93876],[75.5379,13.94016],[75.53481,13.94236],[75.53371,13.94265],[75.53295,13.9432],[75.53098,13.94279],[75.53096,13.94328],[75.52915,13.94366],[75.5283,13.94414],[75.52682,13.94423],[75.52293,13.94515],[75.5205,13.94438],[75.51706,13.94374],[75.51543,13.94324],[75.51288,13.94289],[75.50897,13.94276],[75.5094,13.94831],[75.50948,13.95208],[75.50909,13.95409],[75.51005,13.95426],[75.51083,13.95404],[75.51297,13.95395],[75.51414,13.95506],[75.51442,13.95567],[75.51531,13.95544],[75.51709,13.95609],[75.51845,13.95631],[75.51923,13.95624],[75.5192,13.95649],[75.51988,13.95685],[75.52061,13.95701],[75.52136,13.95694],[75.52154,13.95756],[75.52177,13.95753],[75.52199,13.95849],[75.52321,13.96011],[75.52403,13.9606],[75.52427,13.96058],[75.52513,13.96136],[75.5259,13.96166],[75.52896,13.96162],[75.53154,13.9619],[75.53118,13.96465],[75.53092,13.96483],[75.53184,13.97039],[75.53465,13.97018],[75.53475,13.97038]]]}},{"type":"Feature","bbox":[75.54851,13.94798,75.56052,13.95962],"properties":{"ward":7,"name":"Kallahalli Khb"},"geometry":{"type":"Polygon","coordinates":[[[75.55533,13.9559],[75.55795,13.95234],[75.56052,13.95025],[75.55886,13.95066],[75.55403,13.94967],[75.55188,13.94864],[75.54929,13.94798],[75.54883,13.95274],[75.54877,13.95378],[75.54892,13.955],[75.54851,13.95962],[75.55533,13.9559]]]}},{"type":"Feature","bbox":[75.55164,13.94586,75.56584,13.9559],"properties":{"ward":8,"name":"J P N Nagara"},"geometry":{"type":"Polygon","coordinates":[[[75.56584,13.95019],[75.56562,13.9499],[75.56494,13.9497],[75.56487,13.946],[75.56466,13.94586],[75.56368,13.94697],[75.56315,13.9468],[75.56045,13.94696],[75.55922,13.94723],[75.55699,13.94809],[75.55403,13.94861],[75.55277,13.9485],[75.55164,13.94859],[75.55403,13.94967],[75.55896,13.95068],[75.56052,13.95025],[75.55795,13.95234],[75.55533,13.9559],[75.56584,13.95019]]]}},{"type":"Feature","bbox":[75.56466,13.93837,75.57268,13.95019],"properties":{"ward":9,"name":"Gandhinagara"},"geometry":{"type":"Polygon","coordinates":[[[75.57119,13.94857],[75.57098,13.94687],[75.57168,13.94672],[75.57151,13.94497],[75.57268,13.93959],[75.56957,13.93837],[75.56689,13.94469],[75.56466,13.94586],[75.56487,13.946],[75.56494,13.9497],[75.56562,13.9499],[75.56584,13.95019],[75.56863,13.94913],[75.57119,13.94857]]]}},{"type":"Feature","bbox":[75.57098,13.93959,75.58072,13.94857],"properties":{"ward":10,"name":"Ravindhranagara"},"geometry":{"type":"Polygon","coordinates":[[[75.57119,13.94857],[75.57956,13.94678],[75.58072,13.94637],[75.58019,13.94529],[75.58018,13.94495],[75.57599,13.94475],[75.57673,13.94193],[75.57673,13.94144],[75.57477,13.94008],[75.57268,13.93959],[75.57151,13.94497],[75.57168,13.94672],[75.57098,13.94687],[75.57119,13.94857]]]}},{"type":"Feature","bbox":[75.57477,13.93624,75.58583,13.94637],"properties":{"ward":11,"name":"Basavanagudi"},"geometry":{"type":"Polygon","coordinates":[[[75.58583,13.94185],[75.58545,13.94085],[75.58414,13.93846],[75.58407,13.93786],[75.58228,13.93719],[75.58044,13.93962],[75.57609,13.93624],[75.57477,13.94008],[75.57675,13.94149],[75.57599,13.94475],[75.58018,13.94495],[75.58019,13.94529],[75.58072,13.94637],[75.58179,13.9457],[75.58583,13.94185]]]}},{"type":"Feature","bbox":[75.57609,13.93061,75.58491,13.93962],"properties":{"ward":12,"name":"Tank Mohalla"},"geometry":{"type":"Polygon","coordinates":[[[75.58407,13.93786],[75.58417,13.93704],[75.58491,13.93501],[75.58281,13.93441],[75.58239,13.93352],[75.5823,13.93251],[75.58155,13.93227],[75.58075,13.93157],[75.57814,13.93061],[75.57609,13.93624],[75.58044,13.93962],[75.58228,13.93719],[75.58407,13.93786]]]}},{"type":"Feature","bbox":[75.57866,13.92638,75.58793,13.93501],"properties":{"ward":13,"name":"Aramane Pradesha"},"geometry":{"type":"Polygon","coordinates":[[[75.58793,13.93152],[75.58748,13.93115],[75.58608,13.92877],[75.5854,13.92809],[75.58321,13.92653],[75.58219,13.92638],[75.58153,13.92709],[75.58055,13.92921],[75.57866,13.92852],[75.57891,13.93082],[75.58075,13.93157],[75.58155,13.93227],[75.58233,13.93254],[75.58239,13.93352],[75.58267,13.93422],[75.58295,13.9345],[75.58491,13.93501],[75.58646,13.93256],[75.58793,13.93152]]]}},{"type":"Feature","bbox":[75.5822,13.91955,75.5984,13.93537],"properties":{"ward":14,"name":"Vidya Nagara North"},"geometry":{"type":"Polygon","coordinates":[[[75.5984,13.92013],[75.59757,13.92006],[75.59764,13.91992],[75.59743,13.91987],[75.59405,13.91955],[75.59101,13.92875],[75.58686,13.92552],[75.5872,13.92491],[75.58518,13.92347],[75.58433,13.92304],[75.58392,13.92384],[75.58364,13.92382],[75.58325,13.92417],[75.5822,13.92639],[75.58321,13.92653],[75.5854,13.92809],[75.58608,13.92877],[75.58748,13.93115],[75.58793,13.93152],[75.58976,13.93023],[75.59193,13.93313],[75.59349,13.93482],[75.59379,13.93537],[75.59522,13.93342],[75.59594,13.93151],[75.59412,13.93098],[75.59496,13.92922],[75.59251,13.9291],[75.59223,13.92861],[75.5984,13.92013]]]}},{"type":"Feature","bbox":[75.59405,13.8992,75.63122,13.92013],"properties":{"ward":15,"name":"Harige"},"geometry":{"type":"Polygon","coordinates":[[[75.62306,13.91006],[75.6251,13.90984],[75.62982,13.91016],[75.63122,13.91055],[75.63115,13.90918],[75.63026,13.90704],[75.62969,13.90644],[75.63009,13.9055],[75.62931,13.90483],[75.62763,13.90506],[75.62569,13.90575],[75.6255,13.90458],[75.62474,13.90349],[75.62475,13.90168],[75.62379,13.9014],[75.62242,13.89968],[75.62194,13.8993],[75.6214,13.8992],[75.62039,13.90003],[75.62011,13.90007],[75.61974,13.89997],[75.61912,13.89935],[75.6124,13.90351],[75.602,13.90941],[75.5965,13.91317],[75.59566,13.9142],[75.59405,13.91955],[75.59743,13.91987],[75.59764,13.91992],[75.59757,13.92006],[75.5984,13.92013],[75.60026,13.91774],[75.60135,13.91677],[75.60267,13.91589],[75.61549,13.91004],[75.61957,13.90889],[75.62137,13.90809],[75.62306,13.91006]]]}},{"type":"Feature","bbox":[75.59139,13.8909,75.62957,13.91456],"properties":{"ward":16,"name":"Malavagoppa"},"geometry":{"type":"Polygon","coordinates":[[[75.5956,13.91456],[75.5958,13.91395],[75.5965,13.91317],[75.602,13.90941],[75.6124,13.90351],[75.61912,13.89935],[75.61974,13.89997],[75.62011,13.90007],[75.62039,13.90003],[75.6214,13.8992],[75.62194,13.8993],[75.62242,13.89968],[75.62379,13.9014],[75.62475,13.90168],[75.62474,13.90349],[75.6255,13.90458],[75.62569,13.90575],[75.62763,13.90506],[75.62931,13.90483],[75.62892,13.90453],[75.6284,13.90375],[75.62879,13.90317],[75.62925,13.90169],[75.62938,13.90048],[75.62954,13.90034],[75.62936,13.90029],[75.62926,13.89982],[75.62957,13.89772],[75.62945,13.89624],[75.62853,13.89631],[75.62666,13.89602],[75.62313,13.89622],[75.62248,13.89584],[75.62249,13.89595],[75.62005,13.89761],[75.61891,13.89783],[75.61844,13.89774],[75.61826,13.89787],[75.61835,13.89847],[75.61691,13.89865],[75.61638,13.89949],[75.61412,13.90129],[75.61367,13.90099],[75.61207,13.9007],[75.61182,13.90031],[75.61114,13.90014],[75.61099,13.89994],[75.60975,13.89936],[75.60744,13.89727],[75.60747,13.89553],[75.60676,13.89294],[75.60685,13.89184],[75.60673,13.8909],[75.60553,13.89105],[75.60526,13.89214],[75.60452,13.89214],[75.60421,13.89234],[75.6035,13.89236],[75.6035,13.8925],[75.60308,13.89261],[75.60241,13.8926],[75.60209,13.89307],[75.5987,13.89207],[75.59864,13.89284],[75.59836,13.8935],[75.59855,13.89404],[75.59815,13.89424],[75.59804,13.89513],[75.59736,13.89558],[75.59654,13.89698],[75.59643,13.89833],[75.5956,13.90063],[75.59534,13.90051],[75.59592,13.90319],[75.59349,13.90375],[75.59403,13.90555],[75.59139,13.9118],[75.59141,13.91393],[75.59431,13.91451],[75.5956,13.91456]]]}},{"type":"Feature","bbox":[75.53093,13.93104,75.55644,13.94424],"properties":{"ward":17,"name":"Gopala Gowda"},"geometry":{"type":"Polygon","coordinates":[[[75.54223,13.94424],[75.55644,13.9376],[75.55569,13.93578],[75.55528,13.93515],[75.55515,13.93416],[75.55539,13.9331],[75.55575,13.93261],[75.55339,13.93275],[75.5521,13.93324],[75.55078,13.9332],[75.54753,13.93246],[75.536,13.93104],[75.53495,13.93109],[75.53428,13.9315],[75.53274,13.9353],[75.53243,13.93869],[75.53211,13.93875],[75.53169,13.94044],[75.53118,13.94039],[75.53132,13.94167],[75.53093,13.94179],[75.53098,13.94279],[75.53295,13.9432],[75.53371,13.94265],[75.53481,13.94236],[75.5379,13.94016],[75.54102,13.93876],[75.54127,13.93925],[75.54206,13.94227],[75.54223,13.94424]]]}},{"type":"Feature","bbox":[75.54551,13.93755,75.56714,13.94861],"properties":{"ward":18,"name":"Vinoba Nagara South"},"geometry":{"type":"Polygon","coordinates":[[[75.56466,13.94586],[75.56689,13.94469],[75.56714,13.94405],[75.56629,13.94418],[75.56452,13.94412],[75.56064,13.94316],[75.55973,13.94275],[75.55769,13.94108],[75.55654,13.93755],[75.54576,13.9426],[75.54551,13.94338],[75.54653,13.94511],[75.54808,13.94718],[75.54929,13.94798],[75.55164,13.94859],[75.55277,13.9485],[75.55403,13.94861],[75.55699,13.94809],[75.55922,13.94723],[75.56045,13.94696],[75.56315,13.9468],[75.56368,13.94697],[75.56466,13.94586]]]}},{"type":"Feature","bbox":[75.55654,13.93594,75.56957,13.94406],"properties":{"ward":19,"name":"Saravathi Nagara"},"geometry":{"type":"Polygon","coordinates":[[[75.56926,13.93911],[75.56957,13.93837],[75.56728,13.93717],[75.56002,13.93594],[75.55654,13.93755],[75.55755,13.94078],[75.55783,13.94124],[75.56031,13.94306],[75.56424,13.94406],[75.56369,13.94139],[75.56378,13.9385],[75.56577,13.93889],[75.56604,13.93853],[75.56926,13.93911]]]}},{"type":"Feature","bbox":[75.56369,13.9385,75.56926,13.9442],"properties":{"ward":20,"name":"Hosamane"},"geometry":{"type":"Polygon","coordinates":[[[75.56714,13.94405],[75.56926,13.93911],[75.56604,13.93853],[75.56577,13.93889],[75.56378,13.9385],[75.56369,13.94139],[75.56424,13.94406],[75.56542,13.9442],[75.56714,13.94405]]]}},{"type":"Feature","bbox":[75.56002,13.92957,75.57814,13.94008],"properties":{"ward":21,"name":"Durgi Gudi"},"geometry":{"type":"Polygon","coordinates":[[[75.57467,13.94008],[75.57814,13.93061],[75.57453,13.92957],[75.57137,13.92992],[75.5681,13.93003],[75.56307,13.93449],[75.56002,13.93594],[75.56728,13.93717],[75.56997,13.93857],[75.57192,13.93918],[75.57296,13.93972],[75.57467,13.94008]]]}},{"type":"Feature","bbox":[75.57282,13.92139,75.57839,13.93041],"properties":{"ward":22,"name":"Gandibajar West"},"geometry":{"type":"Polygon","coordinates":[[[75.57839,13.92338],[75.57628,13.92139],[75.57555,13.92232],[75.57516,13.92498],[75.57317,13.92384],[75.57282,13.92522],[75.57359,13.92692],[75.57412,13.92933],[75.57438,13.92958],[75.57747,13.93041],[75.57779,13.92926],[75.57798,13.9292],[75.57776,13.92823],[75.57593,13.92792],[75.57674,13.92582],[75.57839,13.92338]]]}},{"type":"Feature","bbox":[75.57593,13.92338,75.58219,13.93082],"properties":{"ward":23,"name":"Gandibajar East"},"geometry":{"type":"Polygon","coordinates":[[[75.58219,13.92638],[75.58152,13.92599],[75.5796,13.92417],[75.57839,13.92338],[75.57674,13.92582],[75.57593,13.92792],[75.57776,13.92823],[75.57798,13.9292],[75.57779,13.92926],[75.57747,13.93041],[75.57891,13.93082],[75.57866,13.92852],[75.58055,13.92921],[75.58153,13.92709],[75.58219,13.92638]]]}},{"type":"Feature","bbox":[75.53493,13.9231,75.55489,13.93324],"properties":{"ward":24,"name":"Khb Gopala"},"geometry":{"type":"Polygon","coordinates":[[[75.55478,13.9276],[75.55096,13.92766],[75.54701,13.92728],[75.54327,13.92751],[75.54189,13.92661],[75.53985,13.92598],[75.53876,13.92528],[75.53811,13.92505],[75.53656,13.92383],[75.53493,13.9231],[75.53506,13.92387],[75.53637,13.92566],[75.53614,13.92571],[75.53625,13.92659],[75.53699,13.9265],[75.53693,13.9276],[75.53632,13.92759],[75.53609,13.92842],[75.53584,13.92833],[75.53542,13.92948],[75.53535,13.93073],[75.53495,13.93109],[75.5351,13.93114],[75.536,13.93104],[75.54609,13.93227],[75.54815,13.93255],[75.55027,13.93314],[75.55208,13.93324],[75.55246,13.93237],[75.55333,13.93229],[75.55308,13.93186],[75.553,13.93129],[75.55305,13.92942],[75.55434,13.9293],[75.55444,13.92866],[75.55489,13.92859],[75.55478,13.9276]]]}},{"type":"Feature","bbox":[75.55208,13.9276,75.55829,13.93515],"properties":{"ward":25,"name":"Jp Nagara"},"geometry":{"type":"Polygon","coordinates":[[[75.55829,13.92768],[75.55478,13.9276],[75.55489,13.92859],[75.55444,13.92866],[75.55434,13.9293],[75.55305,13.92942],[75.553,13.93129],[75.55308,13.93186],[75.55333,13.93229],[75.55246,13.93237],[75.55208,13.93324],[75.55339,13.93275],[75.55575,13.93261],[75.55539,13.9331],[75.55515,13.93416],[75.55528,13.93515],[75.55596,13.93435],[75.55804,13.92962],[75.55829,13.92768]]]}},{"type":"Feature","bbox":[75.55528,13.92768,75.56506,13.9376],"properties":{"ward":26,"name":"Ashoka Nagara"},"geometry":{"type":"Polygon","coordinates":[[[75.55644,13.9376],[75.56261,13.93477],[75.56342,13.93421],[75.56506,13.9327],[75.56379,13.93141],[75.5645,13.93082],[75.56375,13.93008],[75.56081,13.93],[75.56093,13.92822],[75.55829,13.92768],[75.55804,13.92962],[75.55596,13.93435],[75.55528,13.93515],[75.55569,13.93578],[75.55644,13.9376]]]}},{"type":"Feature","bbox":[75.55713,13.91945,75.56885,13.9327],"properties":{"ward":27,"name":"Millagatta"},"geometry":{"type":"Polygon","coordinates":[[[75.5681,13.93003],[75.56885,13.92865],[75.56806,13.92825],[75.56861,13.9271],[75.56616,13.92738],[75.56603,13.92714],[75.56444,13.92696],[75.5613,13.9247],[75.56099,13.91945],[75.56029,13.9198],[75.55892,13.92106],[75.55742,13.92213],[75.55772,13.92277],[75.55749,13.92368],[75.55713,13.92416],[75.55713,13.92453],[75.55749,13.92494],[75.5586,13.92526],[75.55893,13.92576],[75.55878,13.92662],[75.55829,13.92768],[75.56093,13.92822],[75.56081,13.93],[75.56375,13.93008],[75.5645,13.93082],[75.56379,13.93141],[75.56506,13.9327],[75.5681,13.93003]]]}},{"type":"Feature","bbox":[75.56119,13.91814,75.56973,13.92865],"properties":{"ward":28,"name":"R M L Nagara"},"geometry":{"type":"Polygon","coordinates":[[[75.56942,13.92306],[75.56917,13.92209],[75.56543,13.91822],[75.56404,13.91814],[75.56341,13.91839],[75.56348,13.91912],[75.56395,13.91928],[75.56398,13.9197],[75.56334,13.92054],[75.56334,13.92128],[75.56187,13.92359],[75.56119,13.92327],[75.56122,13.92454],[75.5625,13.92566],[75.56444,13.92696],[75.56603,13.92714],[75.56616,13.92738],[75.56861,13.9271],[75.56806,13.92825],[75.56885,13.92865],[75.5695,13.92769],[75.56973,13.92695],[75.56942,13.92306]]]}},{"type":"Feature","bbox":[75.5681,13.92201,75.57438,13.93003],"properties":{"ward":29,"name":"Aajad Nagara"},"geometry":{"type":"Polygon","coordinates":[[[75.57438,13.92958],[75.57412,13.92933],[75.57359,13.92692],[75.57282,13.92522],[75.57319,13.92379],[75.57086,13.92201],[75.57078,13.92222],[75.5702,13.9221],[75.5698,13.9232],[75.56942,13.92306],[75.5697,13.92719],[75.5681,13.93003],[75.57137,13.92992],[75.57438,13.92958]]]}},{"type":"Feature","bbox":[75.56852,13.91931,75.57628,13.92498],"properties":{"ward":30,"name":"Seegehatti"},"geometry":{"type":"Polygon","coordinates":[[[75.57628,13.92139],[75.57398,13.91988],[75.57139,13.91931],[75.57077,13.91981],[75.57004,13.92013],[75.56852,13.92141],[75.56928,13.92227],[75.56942,13.92306],[75.5698,13.9232],[75.5702,13.9221],[75.57078,13.92222],[75.57083,13.92199],[75.57317,13.92384],[75.57516,13.92498],[75.57555,13.92232],[75.57628,13.92139]]]}},{"type":"Feature","bbox":[75.53387,13.89313,75.56543,13.92751],"properties":{"ward":31,"name":"Gopishetty Koppa"},"geometry":{"type":"Polygon","coordinates":[[[75.54869,13.92742],[75.54956,13.9266],[75.55156,13.92559],[75.55221,13.92456],[75.55297,13.92383],[75.55742,13.92213],[75.55892,13.92106],[75.56029,13.9198],[75.56099,13.91945],[75.56119,13.92327],[75.56187,13.92359],[75.56334,13.92128],[75.56334,13.92054],[75.56397,13.91975],[75.56395,13.91928],[75.56348,13.91912],[75.56341,13.91839],[75.56416,13.91813],[75.56543,13.91822],[75.5651,13.91777],[75.56475,13.91449],[75.5639,13.91336],[75.56292,13.91253],[75.56233,13.91172],[75.56161,13.90892],[75.5615,13.90761],[75.5619,13.90547],[75.56156,13.90238],[75.56154,13.9007],[75.56205,13.89504],[75.56206,13.89364],[75.56177,13.8934],[75.56014,13.89357],[75.55933,13.89346],[75.55866,13.89313],[75.55805,13.89313],[75.55707,13.89429],[75.5555,13.89455],[75.55301,13.89541],[75.55255,13.89544],[75.54973,13.89497],[75.54913,13.89361],[75.54883,13.89359],[75.54818,13.89409],[75.54764,13.89573],[75.54718,13.89626],[75.54539,13.89726],[75.54449,13.89843],[75.54355,13.89904],[75.54334,13.90058],[75.54207,13.90135],[75.54143,13.902],[75.53993,13.90247],[75.53866,13.90331],[75.53731,13.90326],[75.53694,13.90379],[75.5365,13.90359],[75.53629,13.90371],[75.53603,13.90429],[75.53563,13.90466],[75.53411,13.90471],[75.53413,13.90492],[75.53564,13.90533],[75.53822,13.90573],[75.54031,13.90585],[75.54251,13.90541],[75.54401,13.90535],[75.54536,13.90549],[75.54655,13.90616],[75.54876,13.90689],[75.55164,13.9069],[75.55279,13.90726],[75.55315,13.90757],[75.55321,13.90858],[75.55229,13.90861],[75.55228,13.91059],[75.5513,13.91072],[75.55105,13.91345],[75.54994,13.9133],[75.54979,13.91342],[75.54851,13.91334],[75.54835,13.9135],[75.54598,13.91335],[75.54518,13.91357],[75.54494,13.91408],[75.54503,13.915],[75.54482,13.91551],[75.54319,13.91523],[75.54145,13.91529],[75.53918,13.91598],[75.53913,13.91612],[75.53629,13.91507],[75.53396,13.91594],[75.53387,13.91621],[75.53493,13.9231],[75.53656,13.92383],[75.53811,13.92505],[75.53876,13.92528],[75.53985,13.92598],[75.54189,13.92661],[75.54327,13.92751],[75.54701,13.92728],[75.54869,13.92742]]]}},{"type":"Feature","bbox":[75.54869,13.92213,75.55893,13.92768],"properties":{"ward":32,"name":"Tippu Nagara"},"geometry":{"type":"Polygon","coordinates":[[[75.55742,13.92213],[75.55297,13.92383],[75.55221,13.92456],[75.55156,13.92559],[75.54956,13.9266],[75.54869,13.92742],[75.55096,13.92766],[75.55605,13.92757],[75.55829,13.92768],[75.55878,13.92662],[75.55893,13.92576],[75.5586,13.92526],[75.55749,13.92494],[75.55713,13.92453],[75.55713,13.92416],[75.55749,13.92368],[75.55772,13.92277],[75.55742,13.92213]]]}},{"type":"Feature","bbox":[75.56148,13.89364,75.57139,13.92141],"properties":{"ward":33,"name":"Savayi Palya"},"geometry":{"type":"Polygon","coordinates":[[[75.57139,13.91931],[75.56682,13.91414],[75.56591,13.91338],[75.56412,13.91226],[75.56324,13.91112],[75.56297,13.91052],[75.56266,13.90917],[75.56538,13.90886],[75.5653,13.90855],[75.56581,13.90743],[75.56574,13.90499],[75.56485,13.90289],[75.56496,13.9016],[75.56579,13.89912],[75.56608,13.89708],[75.56657,13.89584],[75.56658,13.89485],[75.56437,13.89463],[75.56415,13.89509],[75.56349,13.89439],[75.56256,13.8943],[75.56206,13.89364],[75.56154,13.9007],[75.56156,13.90238],[75.5619,13.90547],[75.56148,13.90803],[75.56233,13.91172],[75.56292,13.91253],[75.5639,13.91336],[75.56475,13.91449],[75.56513,13.91784],[75.56852,13.92141],[75.57004,13.92013],[75.57077,13.91981],[75.57139,13.91931]]]}},{"type":"Feature","bbox":[75.56266,13.90796,75.5956,13.92875],"properties":{"ward":34,"name":"Vidya Nagara South"},"geometry":{"type":"Polygon","coordinates":[[[75.59101,13.92875],[75.5956,13.91456],[75.59431,13.91451],[75.58032,13.91217],[75.57816,13.91205],[75.57813,13.91021],[75.57674,13.91061],[75.57637,13.91049],[75.57582,13.90991],[75.57466,13.90796],[75.57411,13.90829],[75.56871,13.9084],[75.56705,13.90872],[75.56266,13.90917],[75.56324,13.91112],[75.56412,13.91226],[75.56591,13.91338],[75.56682,13.91414],[75.57131,13.91927],[75.57398,13.91988],[75.57524,13.92065],[75.57706,13.92203],[75.5784,13.92339],[75.5796,13.92417],[75.58152,13.92599],[75.5822,13.92639],[75.58325,13.92417],[75.58364,13.92382],[75.58392,13.92384],[75.58433,13.92304],[75.58518,13.92347],[75.5872,13.92491],[75.58686,13.92552],[75.59101,13.92875]]]}},{"type":"Feature","bbox":[75.56485,13.89191,75.59592,13.91393],"properties":{"ward":35,"name":"Soolebailu"},"geometry":{"type":"Polygon","coordinates":[[[75.59534,13.90051],[75.59341,13.89983],[75.58821,13.89759],[75.58759,13.89421],[75.58218,13.89191],[75.58125,13.89366],[75.57805,13.89423],[75.57354,13.89556],[75.57085,13.89489],[75.56854,13.89508],[75.56658,13.89485],[75.56657,13.89584],[75.56608,13.89708],[75.56579,13.89912],[75.56496,13.9016],[75.56485,13.90289],[75.56574,13.90499],[75.56579,13.90557],[75.56567,13.90598],[75.56581,13.90743],[75.5653,13.90855],[75.56538,13.90886],[75.56871,13.9084],[75.57411,13.90829],[75.57466,13.90796],[75.57582,13.90991],[75.57637,13.91049],[75.57674,13.91061],[75.57813,13.91021],[75.57816,13.91205],[75.58032,13.91217],[75.59141,13.91393],[75.59134,13.91253],[75.59151,13.9113],[75.59355,13.90692],[75.59403,13.90555],[75.59349,13.90375],[75.59592,13.90319],[75.59534,13.90051]]]}}]}