{"type":"FeatureCollection","features":[{"type":"Feature","bbox":[76.25662,13.30091,76.2636,13.31336],"properties":{"ward":1},"geometry":{"type":"Polygon","coordinates":[[[76.25662,13.31336],[76.26321,13.30619],[76.2636,13.30559],[76.26321,13.30556],[76.26341,13.30384],[76.26309,13.30339],[76.26274,13.30338],[76.26214,13.3026],[76.26166,13.30162],[76.2615,13.30091],[76.26113,13.30099],[76.26097,13.30559],[76.26073,13.30675],[76.25995,13.30805],[76.25672,13.3107],[76.25662,13.31336]]]}},{"type":"Feature","bbox":[76.2567,13.3035,76.26086,13.3107],"properties":{"ward":2},"geometry":{"type":"Polygon","coordinates":[[[76.25995,13.30805],[76.26086,13.30634],[76.2601,13.30649],[76.25958,13.30453],[76.25911,13.3035],[76.2567,13.30377],[76.25672,13.3107],[76.25995,13.30805]]]}},{"type":"Feature","bbox":[76.25641,13.29532,76.26113,13.30649],"properties":{"ward":3},"geometry":{"type":"Polygon","coordinates":[[[76.26086,13.30634],[76.26113,13.30099],[76.26113,13.29815],[76.26092,13.29758],[76.25992,13.29591],[76.25915,13.29584],[76.25913,13.29532],[76.25766,13.29536],[76.25766,13.29562],[76.25641,13.29558],[76.2567,13.30377],[76.25911,13.3035],[76.25958,13.30453],[76.2601,13.30649],[76.26086,13.30634]]]}},{"type":"Feature","bbox":[76.24823,13.29447,76.25467,13.3039],"properties":{"ward":4},"geometry":{"type":"Polygon","coordinates":[[[76.25467,13.30026],[76.25051,13.29447],[76.24958,13.2976],[76.24914,13.29848],[76.24874,13.2987],[76.24828,13.29958],[76.24823,13.3039],[76.25034,13.30312],[76.25467,13.30026]]]}},{"type":"Feature","bbox":[76.24805,13.29328,76.25677,13.30834],"properties":{"ward":5},"geometry":{"type":"Polygon","coordinates":[[[76.24993,13.30804],[76.25219,13.308],[76.25322,13.3073],[76.25345,13.30764],[76.25403,13.30743],[76.25417,13.30766],[76.25489,13.30761],[76.25442,13.30653],[76.25638,13.30616],[76.25656,13.30691],[76.25677,13.30691],[76.25625,13.29421],[76.25441,13.29367],[76.25222,13.29328],[76.25052,13.29413],[76.25051,13.29447],[76.25467,13.30026],[76.25034,13.30312],[76.24823,13.3039],[76.24818,13.30457],[76.24805,13.3046],[76.2492,13.30824],[76.24907,13.30834],[76.24993,13.30804]]]}},{"type":"Feature","bbox":[76.25219,13.30616,76.25678,13.30884],"properties":{"ward":6},"geometry":{"type":"Polygon","coordinates":[[[76.25678,13.30807],[76.25677,13.30691],[76.25656,13.30691],[76.25638,13.30616],[76.25442,13.30653],[76.25489,13.30761],[76.25417,13.30766],[76.25403,13.30743],[76.25345,13.30764],[76.25322,13.3073],[76.25219,13.308],[76.25282,13.30884],[76.25482,13.30824],[76.25678,13.30807]]]}},{"type":"Feature","bbox":[76.24753,13.30807,76.25678,13.31673],"properties":{"ward":7},"geometry":{"type":"Polygon","coordinates":[[[76.24916,13.31673],[76.25672,13.3107],[76.25678,13.30807],[76.25482,13.30824],[76.25282,13.30884],[76.25381,13.31028],[76.24753,13.31524],[76.24809,13.31607],[76.24916,13.31673]]]}},{"type":"Feature","bbox":[76.2467,13.30795,76.25381,13.315],"properties":{"ward":8},"geometry":{"type":"Polygon","coordinates":[[[76.25303,13.31097],[76.25286,13.31096],[76.25381,13.31028],[76.25209,13.30795],[76.24934,13.30819],[76.24809,13.30905],[76.24785,13.30945],[76.24693,13.30993],[76.24694,13.3103],[76.2467,13.31075],[76.24686,13.3113],[76.24675,13.31147],[76.2475,13.31368],[76.24776,13.315],[76.25303,13.31097]]]}},{"type":"Feature","bbox":[76.24366,13.30993,76.24915,13.31751],"properties":{"ward":9},"geometry":{"type":"Polygon","coordinates":[[[76.24667,13.31751],[76.24817,13.3175],[76.24915,13.31674],[76.24867,13.31631],[76.24809,13.31607],[76.24754,13.31534],[76.24776,13.315],[76.2475,13.31368],[76.24675,13.31147],[76.24686,13.3113],[76.2467,13.31075],[76.24694,13.3103],[76.24693,13.30993],[76.2469,13.31026],[76.24602,13.31139],[76.24565,13.31162],[76.24548,13.31251],[76.24441,13.31252],[76.24366,13.31455],[76.24417,13.31555],[76.24443,13.31552],[76.24537,13.31691],[76.24655,13.31676],[76.24667,13.31751]]]}},{"type":"Feature","bbox":[76.24093,13.31676,76.24817,13.32298],"properties":{"ward":10},"geometry":{"type":"Polygon","coordinates":[[[76.24132,13.32298],[76.24817,13.3175],[76.24667,13.31751],[76.24655,13.31676],[76.24568,13.31679],[76.24476,13.31728],[76.24349,13.31752],[76.24176,13.31815],[76.24181,13.31873],[76.24137,13.31894],[76.24141,13.31957],[76.24102,13.32086],[76.24133,13.32169],[76.24093,13.3219],[76.24103,13.32251],[76.24132,13.32298]]]}},{"type":"Feature","bbox":[76.25268,13.3107,76.25672,13.31686],"properties":{"ward":11},"geometry":{"type":"Polygon","coordinates":[[[76.25533,13.31482],[76.25662,13.31336],[76.25672,13.3107],[76.25268,13.31391],[76.25343,13.31475],[76.25343,13.31491],[76.25299,13.31528],[76.25338,13.31582],[76.2532,13.316],[76.25413,13.31686],[76.25533,13.31482]]]}},{"type":"Feature","bbox":[76.24916,13.31391,76.25389,13.31784],"properties":{"ward":12},"geometry":{"type":"Polygon","coordinates":[[[76.25389,13.31672],[76.2532,13.316],[76.25338,13.31582],[76.25299,13.31528],[76.25343,13.31491],[76.25343,13.31475],[76.25268,13.31391],[76.24916,13.31673],[76.25007,13.31761],[76.25114,13.31784],[76.2521,13.31761],[76.25389,13.31672]]]}},{"type":"Feature","bbox":[76.24888,13.3167,76.25413,13.32285],"properties":{"ward":13},"geometry":{"type":"Polygon","coordinates":[[[76.25002,13.32285],[76.25413,13.31686],[76.25392,13.3167],[76.2521,13.31761],[76.25135,13.31783],[76.25062,13.31778],[76.24992,13.3175],[76.24999,13.31852],[76.24888,13.31863],[76.24898,13.31926],[76.25034,13.31907],[76.25058,13.32028],[76.24983,13.32132],[76.24974,13.32117],[76.24911,13.32159],[76.24963,13.32261],[76.25002,13.32285]]]}},{"type":"Feature","bbox":[76.2455,13.31673,76.2506,13.32544],"properties":{"ward":14},"geometry":{"type":"Polygon","coordinates":[[[76.24967,13.32121],[76.24983,13.32132],[76.2506,13.32036],[76.25034,13.31907],[76.24898,13.31926],[76.24888,13.31863],[76.24999,13.31852],[76.24992,13.3175],[76.24916,13.31673],[76.2455,13.31965],[76.24566,13.32024],[76.24609,13.32033],[76.24638,13.32108],[76.24692,13.32287],[76.2471,13.32443],[76.24727,13.32444],[76.24825,13.32544],[76.25002,13.32285],[76.24963,13.32261],[76.24911,13.32159],[76.24967,13.32121]]]}},{"type":"Feature","bbox":[76.24128,13.31965,76.24825,13.33051],"properties":{"ward":15},"geometry":{"type":"Polygon","coordinates":[[[76.24307,13.32902],[76.24327,13.32994],[76.24369,13.32986],[76.24396,13.33051],[76.24686,13.32749],[76.24825,13.32544],[76.24727,13.32444],[76.2471,13.32443],[76.24692,13.32287],[76.24638,13.32108],[76.24609,13.32033],[76.24566,13.32024],[76.2455,13.31965],[76.24132,13.32298],[76.24217,13.32432],[76.24199,13.32447],[76.24204,13.32547],[76.24128,13.32547],[76.2413,13.32559],[76.24147,13.32592],[76.24235,13.32587],[76.24251,13.3264],[76.24231,13.32649],[76.2422,13.32784],[76.24307,13.32902]]]}},{"type":"Feature","bbox":[76.24396,13.32663,76.25391,13.33385],"properties":{"ward":16},"geometry":{"type":"Polygon","coordinates":[[[76.24867,13.33322],[76.25232,13.33378],[76.2534,13.33372],[76.25378,13.33339],[76.25391,13.33187],[76.25351,13.33183],[76.25343,13.33018],[76.25156,13.32776],[76.25105,13.32787],[76.25039,13.32663],[76.24918,13.32677],[76.2469,13.32744],[76.24396,13.33051],[76.24473,13.33281],[76.24531,13.33385],[76.24646,13.33322],[76.24678,13.33382],[76.24862,13.33358],[76.24867,13.33322]]]}},{"type":"Feature","bbox":[76.2469,13.32051,76.25678,13.33343],"properties":{"ward":17},"geometry":{"type":"Polygon","coordinates":[[[76.25457,13.33223],[76.25621,13.33221],[76.25636,13.33121],[76.25627,13.3297],[76.25651,13.32762],[76.25615,13.32677],[76.25609,13.32546],[76.25678,13.32324],[76.25521,13.32273],[76.25524,13.32051],[76.25378,13.32052],[76.25392,13.32131],[76.25365,13.32133],[76.25372,13.32226],[76.25357,13.32263],[76.2508,13.3217],[76.2469,13.32744],[76.24918,13.32677],[76.25039,13.32663],[76.25105,13.32787],[76.25156,13.32776],[76.25343,13.33018],[76.25351,13.33183],[76.25391,13.33187],[76.25376,13.33343],[76.25457,13.33223]]]}},{"type":"Feature","bbox":[76.2508,13.31767,76.25526,13.32263],"properties":{"ward":18},"geometry":{"type":"Polygon","coordinates":[[[76.25524,13.32051],[76.25526,13.31962],[76.25416,13.31922],[76.25469,13.3178],[76.25356,13.31767],[76.2508,13.3217],[76.25357,13.32263],[76.25372,13.32226],[76.25365,13.32133],[76.25392,13.32131],[76.25378,13.32052],[76.25524,13.32051]]]}},{"type":"Feature","bbox":[76.2552,13.32134,76.26342,13.33221],"properties":{"ward":19},"geometry":{"type":"Polygon","coordinates":[[[76.25849,13.32905],[76.25858,13.32879],[76.25934,13.32907],[76.26069,13.32856],[76.26267,13.32499],[76.26342,13.32438],[76.25963,13.3234],[76.2586,13.32334],[76.25859,13.32217],[76.25703,13.32191],[76.25704,13.32178],[76.25584,13.32171],[76.25583,13.32134],[76.2552,13.32134],[76.25521,13.32273],[76.25678,13.32324],[76.25609,13.32546],[76.25615,13.32677],[76.25651,13.32762],[76.25627,13.3297],[76.25636,13.33121],[76.25621,13.33221],[76.25818,13.33192],[76.25885,13.33128],[76.2589,13.33042],[76.25849,13.32905]]]}},{"type":"Feature","bbox":[76.2552,13.32006,76.2571,13.32178],"properties":{"ward":20},"geometry":{"type":"Polygon","coordinates":[[[76.25704,13.32178],[76.2571,13.32017],[76.25525,13.32006],[76.2552,13.32134],[76.25583,13.32134],[76.25584,13.32171],[76.25704,13.32178]]]}},{"type":"Feature","bbox":[76.25416,13.3177,76.2571,13.32017],"properties":{"ward":21},"geometry":{"type":"Polygon","coordinates":[[[76.2571,13.32017],[76.25673,13.3177],[76.25469,13.3178],[76.25416,13.31922],[76.25526,13.31962],[76.25525,13.32006],[76.2571,13.32017]]]}},{"type":"Feature","bbox":[76.25686,13.31639,76.26613,13.32438],"properties":{"ward":22},"geometry":{"type":"Polygon","coordinates":[[[76.26613,13.32249],[76.26407,13.32106],[76.25912,13.31712],[76.25752,13.31639],[76.25766,13.31865],[76.25686,13.31873],[76.2571,13.32008],[76.25703,13.32191],[76.25859,13.32217],[76.25856,13.32332],[76.25963,13.3234],[76.26342,13.32438],[76.26378,13.3239],[76.2636,13.32273],[76.26416,13.32265],[76.26512,13.32318],[76.26613,13.32249]],[[76.25892,13.31773],[76.25952,13.31817],[76.25924,13.32083],[76.25883,13.3208],[76.25892,13.31773]]]}},{"type":"Feature","bbox":[76.25883,13.31772,76.25952,13.32083],"properties":{"ward":23},"geometry":{"type":"Polygon","coordinates":[[[76.25924,13.32083],[76.25952,13.31817],[76.25892,13.31772],[76.25883,13.3208],[76.25924,13.32083]]]}},{"type":"Feature","bbox":[76.25356,13.31394,76.25673,13.3178],"properties":{"ward":24},"geometry":{"type":"Polygon","coordinates":[[[76.25665,13.31577],[76.25607,13.31394],[76.25533,13.31482],[76.25356,13.31767],[76.25474,13.3178],[76.25673,13.3177],[76.25649,13.31597],[76.25665,13.31577]]]}},{"type":"Feature","bbox":[76.25607,13.31274,76.25784,13.31873],"properties":{"ward":25},"geometry":{"type":"Polygon","coordinates":[[[76.25753,13.31639],[76.25784,13.31653],[76.2572,13.31274],[76.25607,13.31394],[76.25665,13.31577],[76.25649,13.31597],[76.25686,13.31873],[76.25766,13.31865],[76.25753,13.31639]]]}},{"type":"Feature","bbox":[76.2572,13.31175,76.25888,13.31621],"properties":{"ward":26},"geometry":{"type":"Polygon","coordinates":[[[76.25872,13.31238],[76.2581,13.31175],[76.2572,13.31274],[76.2578,13.31621],[76.25888,13.31609],[76.25842,13.31317],[76.25872,13.31238]]]}},{"type":"Feature","bbox":[76.25842,13.31311,76.25961,13.31609],"properties":{"ward":27},"geometry":{"type":"Polygon","coordinates":[[[76.25939,13.31389],[76.25887,13.31396],[76.25874,13.31311],[76.25842,13.31317],[76.25888,13.31609],[76.25961,13.31602],[76.25939,13.31389]]]}},{"type":"Feature","bbox":[76.2578,13.31381,76.26663,13.32249],"properties":{"ward":28},"geometry":{"type":"Polygon","coordinates":[[[76.26641,13.31869],[76.26499,13.31808],[76.26608,13.31616],[76.2661,13.31586],[76.26571,13.31591],[76.26541,13.31575],[76.26543,13.31523],[76.26327,13.31508],[76.26021,13.31519],[76.26021,13.31381],[76.25939,13.31389],[76.25961,13.31602],[76.2578,13.31621],[76.25784,13.31653],[76.25912,13.31712],[76.26407,13.32106],[76.26613,13.32249],[76.26663,13.32172],[76.26561,13.32054],[76.26554,13.32009],[76.26564,13.31953],[76.26641,13.31869]]]}},{"type":"Feature","bbox":[76.2581,13.30896,76.26136,13.31396],"properties":{"ward":29},"geometry":{"type":"Polygon","coordinates":[[[76.25887,13.31396],[76.26021,13.31381],[76.26014,13.31306],[76.26038,13.31306],[76.26051,13.31226],[76.26089,13.31235],[76.26136,13.31063],[76.26118,13.31052],[76.2611,13.30926],[76.26068,13.30896],[76.2581,13.31175],[76.25873,13.31231],[76.25846,13.31313],[76.25874,13.31311],[76.25887,13.31396]]]}},{"type":"Feature","bbox":[76.26014,13.30744,76.26756,13.31586],"properties":{"ward":30},"geometry":{"type":"Polygon","coordinates":[[[76.26541,13.31575],[76.2661,13.31586],[76.26635,13.31504],[76.26617,13.31234],[76.26727,13.31093],[76.26711,13.31089],[76.26756,13.31005],[76.26746,13.3095],[76.26734,13.30928],[76.26416,13.30942],[76.26414,13.30922],[76.26431,13.30918],[76.26425,13.30762],[76.26361,13.3077],[76.2636,13.30749],[76.26286,13.30755],[76.26251,13.30785],[76.26207,13.30744],[76.26068,13.30896],[76.2611,13.30926],[76.26118,13.31052],[76.26136,13.31063],[76.26089,13.31235],[76.26051,13.31226],[76.26038,13.31306],[76.26014,13.31306],[76.26021,13.31519],[76.26327,13.31508],[76.26543,13.31523],[76.26541,13.31575]]]}},{"type":"Feature","bbox":[76.26207,13.30526,76.26734,13.30942],"properties":{"ward":31},"geometry":{"type":"Polygon","coordinates":[[[76.26734,13.30928],[76.26704,13.3084],[76.26636,13.30751],[76.26554,13.30526],[76.2639,13.30573],[76.2636,13.30559],[76.26207,13.30744],[76.26251,13.30785],[76.26286,13.30755],[76.2636,13.30749],[76.26361,13.3077],[76.26425,13.30762],[76.26431,13.30918],[76.26414,13.30922],[76.26416,13.30942],[76.26734,13.30928]]]}}]}