{"type":"FeatureCollection","features":[{"type":"Feature","bbox":[77.07494,13.36338,77.11148,13.39637],"properties":{"ward":1},"geometry":{"type":"Polygon","coordinates":[[[77.11073,13.3827],[77.11094,13.38247],[77.11091,13.38188],[77.11041,13.3802],[77.11019,13.37861],[77.11148,13.37847],[77.11139,13.37672],[77.11087,13.3768],[77.11067,13.37538],[77.11024,13.3754],[77.10982,13.37521],[77.10891,13.37418],[77.10823,13.3737],[77.10807,13.37241],[77.10694,13.3717],[77.10693,13.37124],[77.10542,13.37072],[77.10474,13.37009],[77.10469,13.36969],[77.10616,13.36833],[77.10564,13.3668],[77.10461,13.36717],[77.099,13.36724],[77.09898,13.36642],[77.09626,13.36625],[77.09617,13.36549],[77.09572,13.36553],[77.0957,13.36484],[77.09369,13.36505],[77.09136,13.3649],[77.09122,13.36488],[77.0912,13.36454],[77.0905,13.36441],[77.08852,13.36459],[77.08516,13.36372],[77.08384,13.36376],[77.08171,13.36338],[77.08076,13.37084],[77.07999,13.37293],[77.07996,13.37399],[77.07921,13.37395],[77.08002,13.37474],[77.08065,13.37446],[77.08077,13.37585],[77.08094,13.37587],[77.08127,13.37798],[77.08128,13.37888],[77.07964,13.37985],[77.07902,13.38111],[77.07494,13.38222],[77.07613,13.39085],[77.07614,13.39239],[77.07644,13.39465],[77.0772,13.39444],[77.07829,13.39549],[77.07856,13.39614],[77.08289,13.39637],[77.08341,13.39606],[77.08402,13.39593],[77.08572,13.39605],[77.08571,13.39629],[77.08881,13.39582],[77.08947,13.39596],[77.08957,13.39577],[77.09006,13.39564],[77.09004,13.39527],[77.0906,13.39469],[77.09065,13.3942],[77.09037,13.39308],[77.09047,13.39179],[77.09147,13.39196],[77.09196,13.39176],[77.09227,13.39142],[77.09293,13.39143],[77.09239,13.39291],[77.09253,13.39301],[77.09642,13.39321],[77.10024,13.3932],[77.09985,13.38763],[77.09936,13.38335],[77.10207,13.38293],[77.10334,13.3829],[77.10347,13.38263],[77.10773,13.3832],[77.10881,13.38275],[77.10969,13.38284],[77.11071,13.38258],[77.11073,13.3827]]]}},{"type":"Feature","bbox":[77.10221,13.3452,77.12378,13.38897],"properties":{"ward":2},"geometry":{"type":"Polygon","coordinates":[[[77.12378,13.37328],[77.12365,13.37218],[77.12279,13.37241],[77.12122,13.37237],[77.12099,13.37053],[77.12021,13.37063],[77.1201,13.36906],[77.11991,13.36907],[77.11986,13.36812],[77.11689,13.36823],[77.11825,13.36583],[77.11612,13.3644],[77.11473,13.36321],[77.11351,13.36256],[77.10916,13.36274],[77.1091,13.36201],[77.11021,13.3618],[77.11051,13.36046],[77.11088,13.36047],[77.11302,13.3591],[77.1152,13.35803],[77.11504,13.35791],[77.11534,13.35734],[77.11539,13.35648],[77.11516,13.35648],[77.1151,13.35526],[77.11514,13.35491],[77.11593,13.35447],[77.1158,13.35206],[77.11644,13.35197],[77.11653,13.35163],[77.11716,13.35166],[77.1171,13.35019],[77.11628,13.35031],[77.11628,13.34999],[77.11602,13.34983],[77.11601,13.34903],[77.11615,13.34899],[77.11627,13.34826],[77.11475,13.34822],[77.11471,13.34779],[77.11424,13.34783],[77.11364,13.34749],[77.11353,13.34695],[77.11297,13.34703],[77.11294,13.34661],[77.11188,13.34665],[77.11183,13.34617],[77.11012,13.34607],[77.10863,13.3452],[77.10773,13.34709],[77.10664,13.34812],[77.10597,13.34829],[77.10495,13.34823],[77.10312,13.34735],[77.10221,13.3479],[77.10233,13.34885],[77.10308,13.34953],[77.10335,13.35003],[77.10327,13.35287],[77.10424,13.35414],[77.10445,13.3547],[77.10429,13.35585],[77.10384,13.35687],[77.104,13.35835],[77.10449,13.35835],[77.10431,13.35891],[77.10442,13.35974],[77.10501,13.36201],[77.10555,13.362],[77.106,13.36173],[77.10619,13.36185],[77.10636,13.36288],[77.10672,13.36286],[77.1069,13.36364],[77.10758,13.36364],[77.10761,13.36379],[77.10757,13.36402],[77.10738,13.36401],[77.10738,13.36458],[77.10665,13.36473],[77.10697,13.36582],[77.1067,13.36586],[77.10684,13.36642],[77.10557,13.36659],[77.10616,13.36833],[77.10536,13.36894],[77.10464,13.36988],[77.10542,13.37072],[77.10693,13.37124],[77.10694,13.3717],[77.10807,13.37241],[77.10823,13.3737],[77.10891,13.37418],[77.10982,13.37521],[77.11024,13.3754],[77.11067,13.37538],[77.11087,13.3768],[77.11139,13.37672],[77.11148,13.37847],[77.11019,13.37861],[77.11041,13.3802],[77.11091,13.38188],[77.11094,13.38247],[77.11073,13.3827],[77.11165,13.38897],[77.11197,13.38864],[77.11201,13.38815],[77.11511,13.38403],[77.11555,13.38275],[77.11744,13.37972],[77.11868,13.37873],[77.11899,13.37758],[77.12044,13.37595],[77.12133,13.37573],[77.12116,13.37561],[77.121,13.37456],[77.12117,13.37422],[77.12275,13.37358],[77.12359,13.37356],[77.12363,13.3733],[77.12378,13.37328]]]}},{"type":"Feature","bbox":[77.08506,13.34924,77.10761,13.36724],"properties":{"ward":3},"geometry":{"type":"Polygon","coordinates":[[[77.10564,13.3668],[77.10557,13.36659],[77.10684,13.36642],[77.1067,13.36586],[77.10697,13.36582],[77.10665,13.36473],[77.10738,13.36458],[77.10738,13.36401],[77.10757,13.36402],[77.10761,13.36379],[77.10758,13.36364],[77.1069,13.36364],[77.10672,13.36286],[77.10636,13.36288],[77.10619,13.36185],[77.106,13.36173],[77.10555,13.362],[77.10501,13.36201],[77.10478,13.3609],[77.10456,13.36068],[77.10431,13.35891],[77.10449,13.35835],[77.104,13.35835],[77.10384,13.35687],[77.10429,13.35585],[77.10445,13.3547],[77.10424,13.35414],[77.10327,13.35287],[77.10338,13.35017],[77.10314,13.34961],[77.10277,13.34924],[77.09999,13.35018],[77.09463,13.35017],[77.09302,13.35003],[77.08786,13.35012],[77.08514,13.35125],[77.08518,13.3522],[77.08506,13.35238],[77.0853,13.35268],[77.08594,13.35295],[77.08618,13.35334],[77.08697,13.35357],[77.08762,13.35399],[77.0881,13.35398],[77.08834,13.35412],[77.08856,13.3548],[77.08914,13.35528],[77.08955,13.35502],[77.08977,13.35466],[77.09015,13.35481],[77.09022,13.35527],[77.0901,13.35535],[77.0903,13.35576],[77.09058,13.35612],[77.0911,13.35604],[77.0908,13.35759],[77.09056,13.35777],[77.09046,13.35821],[77.09066,13.35833],[77.09045,13.35936],[77.08977,13.35933],[77.08983,13.36146],[77.09018,13.36451],[77.0905,13.36441],[77.0912,13.36454],[77.09122,13.36488],[77.09193,13.36495],[77.09369,13.36505],[77.0957,13.36484],[77.09572,13.36553],[77.09617,13.36549],[77.09626,13.36625],[77.09898,13.36642],[77.099,13.36724],[77.10461,13.36717],[77.10564,13.3668]]]}},{"type":"Feature","bbox":[77.09665,13.34496,77.10275,13.35021],"properties":{"ward":4},"geometry":{"type":"Polygon","coordinates":[[[77.10275,13.34923],[77.10233,13.34885],[77.10226,13.34848],[77.10119,13.34869],[77.10116,13.34841],[77.10087,13.34848],[77.10056,13.34585],[77.10124,13.34575],[77.10122,13.34496],[77.09947,13.34497],[77.09665,13.34542],[77.09671,13.34613],[77.09796,13.34599],[77.09802,13.34677],[77.09919,13.34657],[77.09918,13.3486],[77.09801,13.34877],[77.09789,13.35021],[77.10029,13.35015],[77.10275,13.34923]]]}},{"type":"Feature","bbox":[77.10056,13.33762,77.10637,13.34869],"properties":{"ward":5},"geometry":{"type":"Polygon","coordinates":[[[77.10226,13.34848],[77.10221,13.3479],[77.1029,13.34739],[77.10339,13.34744],[77.10418,13.34787],[77.10438,13.34773],[77.10404,13.34569],[77.10438,13.34516],[77.10637,13.34491],[77.10583,13.33762],[77.10137,13.33818],[77.10198,13.34468],[77.10184,13.34496],[77.10122,13.34496],[77.10124,13.34575],[77.10056,13.34585],[77.10087,13.34848],[77.10116,13.34841],[77.10119,13.34869],[77.10226,13.34848]]]}},{"type":"Feature","bbox":[77.06144,13.33099,77.0911,13.36459],"properties":{"ward":6},"geometry":{"type":"Polygon","coordinates":[[[77.09018,13.36451],[77.08983,13.36146],[77.08977,13.35933],[77.09045,13.35936],[77.09066,13.35833],[77.09046,13.35821],[77.09056,13.35777],[77.0908,13.35759],[77.0911,13.35604],[77.09058,13.35612],[77.0903,13.35576],[77.0901,13.35535],[77.09022,13.35527],[77.09015,13.35481],[77.08977,13.35466],[77.08955,13.35502],[77.08914,13.35528],[77.08856,13.3548],[77.08834,13.35412],[77.0881,13.35398],[77.08762,13.35399],[77.08697,13.35357],[77.08618,13.35334],[77.08594,13.35295],[77.0853,13.35268],[77.08506,13.35238],[77.08518,13.3522],[77.08514,13.35125],[77.08477,13.35136],[77.08462,13.35067],[77.08433,13.3507],[77.08416,13.35025],[77.08426,13.34977],[77.08411,13.34957],[77.08317,13.34913],[77.08231,13.34907],[77.08195,13.34857],[77.08073,13.34765],[77.07795,13.34498],[77.07589,13.34437],[77.07601,13.34407],[77.0747,13.344],[77.07433,13.3437],[77.07406,13.3431],[77.0725,13.34275],[77.07165,13.34305],[77.06867,13.34022],[77.06743,13.34026],[77.06717,13.33961],[77.06711,13.33904],[77.06724,13.33892],[77.06814,13.33875],[77.06953,13.33892],[77.06967,13.33845],[77.06923,13.33836],[77.0692,13.33777],[77.06843,13.33778],[77.06834,13.33697],[77.0681,13.33675],[77.0674,13.33655],[77.06672,13.33513],[77.06588,13.33489],[77.06539,13.33498],[77.06498,13.3336],[77.06499,13.33244],[77.0644,13.3319],[77.06242,13.33099],[77.06144,13.33651],[77.06155,13.33748],[77.06172,13.33776],[77.06204,13.34076],[77.06256,13.34058],[77.06342,13.34369],[77.06586,13.34902],[77.06589,13.34984],[77.06673,13.35116],[77.0674,13.35435],[77.06808,13.35518],[77.07168,13.35534],[77.07303,13.35564],[77.07477,13.35815],[77.07457,13.35822],[77.07498,13.36078],[77.07522,13.36067],[77.07572,13.36209],[77.07705,13.36211],[77.07708,13.36232],[77.07853,13.36272],[77.07947,13.36266],[77.07949,13.36305],[77.08059,13.36328],[77.08384,13.36376],[77.08516,13.36372],[77.08852,13.36459],[77.09018,13.36451]]]}},{"type":"Feature","bbox":[77.07811,13.34518,77.09919,13.35136],"properties":{"ward":7},"geometry":{"type":"Polygon","coordinates":[[[77.08477,13.35136],[77.08786,13.35012],[77.09302,13.35003],[77.09789,13.35021],[77.09801,13.34877],[77.09918,13.3486],[77.09919,13.34657],[77.09802,13.34677],[77.09796,13.34599],[77.09671,13.34613],[77.09665,13.34542],[77.08595,13.34585],[77.08007,13.3455],[77.07811,13.34518],[77.08073,13.34765],[77.08195,13.34857],[77.08231,13.34907],[77.08317,13.34913],[77.08411,13.34957],[77.08426,13.34977],[77.08416,13.35025],[77.08433,13.3507],[77.08462,13.35067],[77.08477,13.35136]]]}},{"type":"Feature","bbox":[77.08804,13.34177,77.09534,13.34574],"properties":{"ward":8},"geometry":{"type":"Polygon","coordinates":[[[77.09534,13.34549],[77.09509,13.34374],[77.09475,13.34378],[77.09433,13.34177],[77.09133,13.34227],[77.09134,13.34243],[77.09033,13.34254],[77.09034,13.34267],[77.09004,13.34268],[77.08998,13.34231],[77.08888,13.34236],[77.08892,13.34271],[77.08804,13.34277],[77.08914,13.34574],[77.09534,13.34549]]]}},{"type":"Feature","bbox":[77.0725,13.33363,77.08914,13.34578],"properties":{"ward":9},"geometry":{"type":"Polygon","coordinates":[[[77.08914,13.34574],[77.08804,13.34277],[77.08892,13.34271],[77.08865,13.3411],[77.08851,13.34113],[77.08833,13.34042],[77.08787,13.34056],[77.08683,13.33766],[77.08826,13.33715],[77.08819,13.33694],[77.08772,13.33673],[77.08771,13.3365],[77.08696,13.33655],[77.08694,13.33672],[77.08628,13.3368],[77.08591,13.33546],[77.08615,13.33507],[77.08653,13.33503],[77.08642,13.33363],[77.08588,13.33389],[77.08359,13.33434],[77.0825,13.33421],[77.08229,13.33405],[77.08206,13.33504],[77.08124,13.33493],[77.08115,13.33558],[77.08143,13.33565],[77.0814,13.336],[77.08003,13.33587],[77.08001,13.33639],[77.07911,13.33618],[77.07851,13.33665],[77.07801,13.33661],[77.07689,13.33699],[77.0769,13.33822],[77.07543,13.33984],[77.07601,13.3415],[77.0725,13.34275],[77.07406,13.3431],[77.07433,13.3437],[77.0747,13.344],[77.07601,13.34407],[77.07589,13.34437],[77.07873,13.34531],[77.0835,13.34578],[77.08914,13.34574]]]}},{"type":"Feature","bbox":[77.08683,13.33644,77.09092,13.34268],"properties":{"ward":10},"geometry":{"type":"Polygon","coordinates":[[[77.09075,13.34249],[77.09044,13.34047],[77.08968,13.33872],[77.09023,13.3385],[77.09031,13.33865],[77.09055,13.33853],[77.09035,13.33816],[77.09092,13.33794],[77.09023,13.33644],[77.08683,13.33766],[77.08787,13.34056],[77.08833,13.34042],[77.08851,13.34113],[77.08865,13.3411],[77.08876,13.34224],[77.08888,13.34236],[77.08998,13.34231],[77.09004,13.34268],[77.09075,13.34249]]]}},{"type":"Feature","bbox":[77.05871,13.31331,77.09112,13.34305],"properties":{"ward":11},"geometry":{"type":"Polygon","coordinates":[[[77.07165,13.34305],[77.07601,13.3415],[77.07543,13.33984],[77.0769,13.33822],[77.07689,13.33699],[77.07801,13.33661],[77.07851,13.33665],[77.07911,13.33618],[77.08001,13.33639],[77.08003,13.33587],[77.0814,13.336],[77.08143,13.33565],[77.08115,13.33558],[77.08124,13.33493],[77.08206,13.33504],[77.08229,13.33405],[77.0825,13.33421],[77.08359,13.33434],[77.08745,13.33346],[77.08737,13.33169],[77.08824,13.32753],[77.08866,13.32646],[77.08889,13.32528],[77.08862,13.32214],[77.08874,13.32108],[77.08935,13.31825],[77.08989,13.31681],[77.09028,13.31635],[77.09112,13.31602],[77.09094,13.31559],[77.09044,13.31575],[77.09024,13.31558],[77.08988,13.3149],[77.08903,13.3151],[77.08894,13.31589],[77.08769,13.31645],[77.088,13.31718],[77.08732,13.31766],[77.08717,13.31758],[77.085,13.3182],[77.08504,13.31833],[77.08392,13.31863],[77.08334,13.31684],[77.08259,13.31739],[77.08236,13.31653],[77.08262,13.31666],[77.08352,13.31648],[77.08438,13.31602],[77.08523,13.31549],[77.08537,13.31481],[77.08509,13.31443],[77.08405,13.31404],[77.08203,13.31384],[77.08199,13.31332],[77.08118,13.31331],[77.08027,13.31387],[77.07881,13.31385],[77.07789,13.31413],[77.07223,13.31463],[77.07216,13.31514],[77.07086,13.31666],[77.07004,13.31715],[77.07036,13.31793],[77.07029,13.31815],[77.07073,13.31786],[77.07107,13.31784],[77.07129,13.3194],[77.07247,13.31927],[77.07285,13.32013],[77.07375,13.31995],[77.07402,13.32071],[77.07376,13.32082],[77.07381,13.32119],[77.07349,13.32128],[77.07325,13.32172],[77.07388,13.32389],[77.07355,13.32428],[77.07086,13.32624],[77.07058,13.32663],[77.07062,13.32727],[77.07038,13.32739],[77.06853,13.32753],[77.06594,13.32727],[77.06439,13.32752],[77.06277,13.32826],[77.06198,13.32817],[77.06147,13.32778],[77.06023,13.32828],[77.05914,13.32833],[77.05874,13.32908],[77.05871,13.32982],[77.05887,13.32983],[77.05893,13.33014],[77.05907,13.32984],[77.06101,13.32997],[77.06247,13.33102],[77.0644,13.3319],[77.06499,13.33244],[77.06498,13.3336],[77.06539,13.33498],[77.06588,13.33489],[77.06672,13.33513],[77.0674,13.33655],[77.0681,13.33675],[77.06834,13.33697],[77.06843,13.33778],[77.0692,13.33777],[77.06923,13.33836],[77.06967,13.33845],[77.06953,13.33892],[77.06751,13.33877],[77.06711,13.33904],[77.06743,13.34026],[77.06867,13.34022],[77.0699,13.34128],[77.07148,13.34297],[77.07165,13.34305]]]}},{"type":"Feature","bbox":[77.08737,13.32628,77.09633,13.33586],"properties":{"ward":12},"geometry":{"type":"Polygon","coordinates":[[[77.09633,13.33498],[77.0955,13.33159],[77.09413,13.32887],[77.09347,13.32628],[77.08821,13.32767],[77.08737,13.33169],[77.08743,13.33319],[77.08811,13.33339],[77.08968,13.33302],[77.09099,13.33245],[77.09189,13.3343],[77.09235,13.33586],[77.09633,13.33498]]]}},{"type":"Feature","bbox":[77.08591,13.33245,77.09235,13.33715],"properties":{"ward":13},"geometry":{"type":"Polygon","coordinates":[[[77.08826,13.33715],[77.09235,13.33586],[77.09189,13.3343],[77.09099,13.33245],[77.08968,13.33302],[77.08811,13.33339],[77.08743,13.33319],[77.08745,13.33346],[77.08638,13.33382],[77.08653,13.33503],[77.08615,13.33507],[77.08591,13.33546],[77.08628,13.3368],[77.08694,13.33672],[77.08696,13.33655],[77.08771,13.3365],[77.08772,13.33673],[77.08819,13.33694],[77.08826,13.33715]]]}},{"type":"Feature","bbox":[77.08968,13.33497,77.10197,13.34549],"properties":{"ward":14},"geometry":{"type":"Polygon","coordinates":[[[77.09534,13.34549],[77.09947,13.34497],[77.1019,13.34491],[77.10197,13.34438],[77.10137,13.33818],[77.0989,13.33849],[77.0974,13.3389],[77.09638,13.33497],[77.09023,13.33644],[77.09092,13.33794],[77.09035,13.33816],[77.09055,13.33853],[77.09031,13.33865],[77.09023,13.3385],[77.08968,13.33872],[77.09044,13.34047],[77.09075,13.34249],[77.09134,13.34243],[77.09133,13.34227],[77.09433,13.34177],[77.09475,13.34378],[77.09509,13.34374],[77.09534,13.34549]]]}},{"type":"Feature","bbox":[77.09638,13.33296,77.10624,13.3389],"properties":{"ward":15},"geometry":{"type":"Polygon","coordinates":[[[77.0989,13.33849],[77.10624,13.33758],[77.10578,13.33423],[77.10541,13.33432],[77.10533,13.33357],[77.10554,13.33353],[77.10539,13.33296],[77.09638,13.33497],[77.0974,13.3389],[77.0989,13.33849]]]}},{"type":"Feature","bbox":[77.10583,13.33761,77.11732,13.34491],"properties":{"ward":16},"geometry":{"type":"Polygon","coordinates":[[[77.11732,13.338],[77.11725,13.33787],[77.11222,13.33912],[77.11121,13.33921],[77.10894,13.33881],[77.10644,13.33761],[77.10583,13.33762],[77.10637,13.34491],[77.10834,13.34443],[77.11326,13.34077],[77.11732,13.338]]]}},{"type":"Feature","bbox":[77.09313,13.32237,77.09946,13.33497],"properties":{"ward":17},"geometry":{"type":"Polygon","coordinates":[[[77.09638,13.33497],[77.09946,13.33428],[77.09917,13.33248],[77.09867,13.33258],[77.09796,13.33083],[77.09762,13.32853],[77.09702,13.32603],[77.09629,13.32626],[77.09559,13.32237],[77.09335,13.32346],[77.09313,13.32458],[77.094,13.3285],[77.0955,13.33159],[77.09638,13.33497]]]}},{"type":"Feature","bbox":[77.09559,13.32033,77.10564,13.33428],"properties":{"ward":18},"geometry":{"type":"Polygon","coordinates":[[[77.09946,13.33428],[77.10564,13.33291],[77.1052,13.33059],[77.10534,13.33054],[77.10528,13.33033],[77.10253,13.3303],[77.10284,13.32973],[77.10281,13.32828],[77.10313,13.32817],[77.10235,13.32509],[77.10221,13.32459],[77.101,13.32492],[77.1001,13.32141],[77.0998,13.32147],[77.09967,13.32033],[77.09559,13.32237],[77.09629,13.32626],[77.09702,13.32603],[77.09762,13.32853],[77.09796,13.33083],[77.09867,13.33258],[77.09917,13.33248],[77.09946,13.33428]]]}},{"type":"Feature","bbox":[77.10404,13.338,77.12433,13.35447],"properties":{"ward":19},"geometry":{"type":"Polygon","coordinates":[[[77.12433,13.35285],[77.1237,13.35218],[77.1236,13.35143],[77.12304,13.35025],[77.12295,13.34893],[77.12317,13.34694],[77.12309,13.3455],[77.12323,13.34526],[77.11904,13.3426],[77.11905,13.34025],[77.11732,13.338],[77.11326,13.34077],[77.10819,13.34452],[77.10438,13.34516],[77.10404,13.34569],[77.10437,13.34756],[77.10418,13.34787],[77.10495,13.34823],[77.10623,13.34826],[77.10705,13.34784],[77.10773,13.34709],[77.10863,13.3452],[77.11012,13.34607],[77.11183,13.34617],[77.11188,13.34665],[77.11294,13.34661],[77.11297,13.34703],[77.11353,13.34695],[77.11364,13.34749],[77.11424,13.34783],[77.11471,13.34779],[77.11475,13.34822],[77.11627,13.34826],[77.11615,13.34899],[77.11601,13.34903],[77.11602,13.34983],[77.11628,13.34999],[77.11628,13.35031],[77.1171,13.35019],[77.11716,13.35166],[77.11653,13.35163],[77.11644,13.35197],[77.1158,13.35206],[77.11593,13.35447],[77.12016,13.35409],[77.12067,13.35381],[77.12254,13.35351],[77.12351,13.35301],[77.12433,13.35285]]]}},{"type":"Feature","bbox":[77.12295,13.34528,77.12797,13.35285],"properties":{"ward":20},"geometry":{"type":"Polygon","coordinates":[[[77.12433,13.35285],[77.12447,13.35141],[77.1242,13.3501],[77.12487,13.34992],[77.12534,13.34944],[77.1259,13.34953],[77.12797,13.34931],[77.12791,13.34812],[77.12714,13.34816],[77.12705,13.34741],[77.12583,13.34716],[77.12586,13.34684],[77.12322,13.34528],[77.12309,13.3455],[77.12317,13.34694],[77.12295,13.34893],[77.12304,13.35025],[77.1236,13.35143],[77.1237,13.35218],[77.12433,13.35285]]]}},{"type":"Feature","bbox":[77.11725,13.33548,77.12393,13.34526],"properties":{"ward":21},"geometry":{"type":"Polygon","coordinates":[[[77.12158,13.33548],[77.11846,13.3374],[77.11725,13.33787],[77.11905,13.34025],[77.11904,13.3426],[77.12323,13.34526],[77.12341,13.34513],[77.12393,13.34173],[77.12242,13.34153],[77.12229,13.34023],[77.12349,13.34013],[77.12355,13.33875],[77.12371,13.33856],[77.1236,13.33805],[77.12271,13.33752],[77.12297,13.33703],[77.12209,13.33648],[77.12158,13.33548]]]}},{"type":"Feature","bbox":[77.12158,13.32348,77.137,13.35162],"properties":{"ward":22},"geometry":{"type":"Polygon","coordinates":[[[77.137,13.33848],[77.1367,13.33737],[77.13545,13.33675],[77.13347,13.3318],[77.13498,13.33132],[77.13464,13.33066],[77.1342,13.33079],[77.13409,13.33043],[77.13497,13.33022],[77.13497,13.33009],[77.13606,13.33],[77.13605,13.32905],[77.13624,13.32893],[77.13603,13.328],[77.13603,13.32535],[77.13582,13.32348],[77.13184,13.3279],[77.13147,13.32801],[77.12735,13.33183],[77.12158,13.33548],[77.12209,13.33648],[77.12297,13.33703],[77.12271,13.33752],[77.1236,13.33805],[77.12371,13.33856],[77.12355,13.33875],[77.12349,13.34013],[77.12229,13.34023],[77.12242,13.34153],[77.12393,13.34173],[77.12341,13.34513],[77.12322,13.34528],[77.12586,13.34684],[77.12583,13.34716],[77.12705,13.34741],[77.12714,13.34816],[77.12791,13.34812],[77.12797,13.34931],[77.12916,13.3492],[77.12904,13.34972],[77.12914,13.34995],[77.13032,13.3494],[77.13055,13.35064],[77.13135,13.35041],[77.13158,13.35151],[77.13251,13.35123],[77.13613,13.35162],[77.13601,13.35057],[77.13543,13.35033],[77.13528,13.34889],[77.13414,13.34875],[77.13362,13.34884],[77.13341,13.34904],[77.13187,13.34917],[77.12973,13.34837],[77.1302,13.34789],[77.13025,13.34745],[77.12996,13.34541],[77.13092,13.34536],[77.13088,13.34393],[77.12988,13.34393],[77.12988,13.34212],[77.13008,13.34199],[77.12992,13.34157],[77.13054,13.34146],[77.1305,13.34122],[77.131,13.34121],[77.13091,13.34044],[77.13114,13.33995],[77.132,13.33965],[77.13181,13.33991],[77.13226,13.33989],[77.13223,13.33968],[77.13278,13.33978],[77.13482,13.33938],[77.13665,13.3388],[77.13658,13.33867],[77.137,13.33848]]]}},{"type":"Feature","bbox":[77.1091,13.35278,77.13817,13.37328],"properties":{"ward":23},"geometry":{"type":"Polygon","coordinates":[[[77.12443,13.35278],[77.12351,13.35301],[77.12254,13.35351],[77.12067,13.35381],[77.12016,13.35409],[77.11593,13.35447],[77.11514,13.35491],[77.11516,13.35648],[77.11539,13.35648],[77.11534,13.35734],[77.11504,13.35791],[77.1152,13.35803],[77.11302,13.3591],[77.11088,13.36047],[77.11051,13.36046],[77.11021,13.3618],[77.1091,13.36201],[77.10916,13.36274],[77.11351,13.36256],[77.11473,13.36321],[77.11612,13.3644],[77.11825,13.36583],[77.11689,13.36823],[77.11986,13.36812],[77.11991,13.36907],[77.1201,13.36906],[77.12021,13.37063],[77.12099,13.37053],[77.12122,13.37237],[77.12279,13.37241],[77.12365,13.37218],[77.12378,13.37328],[77.12566,13.37307],[77.12664,13.37279],[77.12693,13.37317],[77.12875,13.37299],[77.12879,13.37282],[77.12936,13.3728],[77.13022,13.37249],[77.13072,13.37144],[77.13276,13.36908],[77.13277,13.36788],[77.13317,13.36759],[77.13358,13.36752],[77.13346,13.36716],[77.13374,13.36689],[77.13534,13.36653],[77.13817,13.36663],[77.13779,13.36203],[77.13686,13.36177],[77.13417,13.35925],[77.12981,13.35568],[77.12887,13.3546],[77.1277,13.35364],[77.12606,13.3528],[77.12443,13.35278]]]}},{"type":"Feature","bbox":[77.10221,13.32135,77.1134,13.33291],"properties":{"ward":24},"geometry":{"type":"Polygon","coordinates":[[[77.1134,13.33038],[77.11253,13.32772],[77.11222,13.3261],[77.11172,13.32524],[77.11108,13.32548],[77.11099,13.32428],[77.11007,13.32447],[77.1095,13.32298],[77.10916,13.32135],[77.10649,13.32299],[77.10221,13.32459],[77.10313,13.32817],[77.10281,13.32828],[77.10284,13.32973],[77.10253,13.3303],[77.10528,13.33033],[77.10534,13.33054],[77.1052,13.33059],[77.10564,13.33291],[77.10933,13.33204],[77.1134,13.33038]]]}},{"type":"Feature","bbox":[77.10533,13.32954,77.11749,13.3392],"properties":{"ward":25},"geometry":{"type":"Polygon","coordinates":[[[77.11183,13.3392],[77.11749,13.33784],[77.11692,13.33636],[77.1171,13.33629],[77.1161,13.33332],[77.11652,13.33321],[77.11585,13.33136],[77.11597,13.33132],[77.11584,13.33086],[77.11566,13.3309],[77.11551,13.33027],[77.11562,13.33018],[77.11537,13.32954],[77.10933,13.33204],[77.10539,13.33296],[77.10554,13.33353],[77.10533,13.33357],[77.10541,13.33432],[77.10578,13.33423],[77.10624,13.33758],[77.10883,13.33878],[77.11057,13.33917],[77.11183,13.3392]]]}},{"type":"Feature","bbox":[77.11537,13.327,77.12223,13.33784],"properties":{"ward":26},"geometry":{"type":"Polygon","coordinates":[[[77.11846,13.3374],[77.12216,13.33513],[77.12121,13.33334],[77.12222,13.33293],[77.12178,13.3312],[77.12223,13.33114],[77.12223,13.33054],[77.12192,13.32873],[77.12155,13.32877],[77.12136,13.327],[77.11537,13.32954],[77.11562,13.33018],[77.11551,13.33027],[77.11566,13.3309],[77.11584,13.33086],[77.11597,13.33132],[77.11585,13.33136],[77.11652,13.33321],[77.1161,13.33332],[77.1171,13.33629],[77.11692,13.33636],[77.11749,13.33784],[77.11846,13.3374]]]}},{"type":"Feature","bbox":[77.12121,13.32368,77.13156,13.33513],"properties":{"ward":27},"geometry":{"type":"Polygon","coordinates":[[[77.13156,13.32805],[77.13147,13.32721],[77.13048,13.32644],[77.12981,13.32532],[77.12921,13.32368],[77.12136,13.327],[77.12155,13.32877],[77.12192,13.32873],[77.12223,13.33054],[77.12223,13.33114],[77.12178,13.3312],[77.12222,13.33293],[77.12121,13.33334],[77.12216,13.33513],[77.12716,13.33198],[77.13156,13.32805]]]}},{"type":"Feature","bbox":[77.08821,13.30718,77.10773,13.32767],"properties":{"ward":28},"geometry":{"type":"Polygon","coordinates":[[[77.09347,13.32628],[77.09313,13.32458],[77.09335,13.32346],[77.09967,13.32033],[77.0998,13.32147],[77.1001,13.32141],[77.101,13.32492],[77.1029,13.32441],[77.10289,13.32431],[77.10649,13.32299],[77.10721,13.3225],[77.10674,13.32047],[77.10533,13.32071],[77.105,13.32052],[77.10112,13.32119],[77.10049,13.31686],[77.10345,13.31634],[77.10443,13.31643],[77.10458,13.31594],[77.10613,13.31448],[77.1062,13.31409],[77.10773,13.31401],[77.10751,13.31316],[77.10725,13.31302],[77.10653,13.31173],[77.10675,13.31054],[77.10658,13.30915],[77.10497,13.30925],[77.10147,13.30983],[77.10059,13.30718],[77.10022,13.30721],[77.09964,13.30769],[77.09934,13.30822],[77.09871,13.31019],[77.09911,13.31137],[77.09824,13.31112],[77.09709,13.31128],[77.09539,13.31229],[77.09393,13.31274],[77.09237,13.3135],[77.0914,13.31539],[77.09094,13.31559],[77.09112,13.31602],[77.09028,13.31635],[77.09,13.31661],[77.08935,13.31825],[77.08862,13.32174],[77.08889,13.32528],[77.08866,13.32646],[77.08821,13.32767],[77.09347,13.32628]]]}},{"type":"Feature","bbox":[77.10049,13.31401,77.10916,13.3225],"properties":{"ward":29},"geometry":{"type":"Polygon","coordinates":[[[77.10916,13.32135],[77.10889,13.32012],[77.10861,13.31693],[77.10816,13.31481],[77.10773,13.31401],[77.1062,13.31409],[77.10613,13.31448],[77.10458,13.31594],[77.10443,13.31643],[77.10345,13.31634],[77.10049,13.31686],[77.10112,13.32119],[77.105,13.32052],[77.10533,13.32071],[77.10674,13.32047],[77.10721,13.3225],[77.10916,13.32135]]]}},{"type":"Feature","bbox":[77.10773,13.31337,77.1215,13.33038],"properties":{"ward":30},"geometry":{"type":"Polygon","coordinates":[[[77.1134,13.33038],[77.12136,13.327],[77.1215,13.32644],[77.12138,13.32484],[77.12044,13.32484],[77.11889,13.32511],[77.11972,13.32389],[77.12103,13.3185],[77.1178,13.31691],[77.11731,13.31689],[77.11733,13.3165],[77.11589,13.31697],[77.11421,13.31337],[77.10773,13.31401],[77.10819,13.31494],[77.10874,13.31776],[77.109,13.32069],[77.1095,13.32298],[77.11007,13.32447],[77.11099,13.32428],[77.11108,13.32548],[77.11172,13.32524],[77.11196,13.32558],[77.1134,13.33038]]]}},{"type":"Feature","bbox":[77.11421,13.31104,77.12921,13.327],"properties":{"ward":31},"geometry":{"type":"Polygon","coordinates":[[[77.12921,13.32368],[77.12743,13.31935],[77.12761,13.31757],[77.12737,13.31649],[77.12802,13.31484],[77.12794,13.31104],[77.12599,13.31128],[77.12248,13.3122],[77.11957,13.31243],[77.11421,13.31337],[77.11589,13.31697],[77.11733,13.3165],[77.11731,13.31689],[77.1178,13.31691],[77.12103,13.3185],[77.11972,13.32389],[77.11889,13.32511],[77.12044,13.32484],[77.12138,13.32484],[77.1215,13.32644],[77.12136,13.327],[77.12921,13.32368]]]}},{"type":"Feature","bbox":[77.10653,13.29205,77.1418,13.32368],"properties":{"ward":32},"geometry":{"type":"Polygon","coordinates":[[[77.13928,13.31941],[77.14126,13.31692],[77.1408,13.31566],[77.14032,13.31306],[77.1418,13.31277],[77.14161,13.31204],[77.14084,13.31108],[77.14051,13.31107],[77.14035,13.31069],[77.14032,13.31012],[77.14073,13.30999],[77.14082,13.30796],[77.13897,13.30697],[77.139,13.30658],[77.13694,13.30587],[77.13724,13.30439],[77.13626,13.30442],[77.13624,13.3041],[77.13465,13.30425],[77.1343,13.30393],[77.13333,13.30379],[77.13271,13.30063],[77.13128,13.30052],[77.13123,13.29967],[77.13143,13.29938],[77.13153,13.29869],[77.13014,13.29749],[77.12908,13.29747],[77.12714,13.29645],[77.12705,13.29586],[77.12617,13.29556],[77.12488,13.29362],[77.12459,13.29289],[77.1243,13.2929],[77.12364,13.29218],[77.1233,13.29205],[77.12257,13.29235],[77.12165,13.29245],[77.12094,13.29219],[77.12105,13.29254],[77.12071,13.2937],[77.12019,13.29392],[77.11989,13.29475],[77.11949,13.29478],[77.1193,13.29534],[77.11868,13.29616],[77.11781,13.29781],[77.11379,13.30262],[77.1133,13.30336],[77.1125,13.30536],[77.11133,13.30744],[77.11149,13.30935],[77.10956,13.30892],[77.10658,13.30915],[77.10675,13.31054],[77.10653,13.31173],[77.10725,13.31302],[77.10751,13.31316],[77.10773,13.31401],[77.11527,13.31326],[77.1198,13.3124],[77.12144,13.31236],[77.12663,13.31114],[77.12792,13.31103],[77.12802,13.31484],[77.12737,13.31649],[77.12761,13.31757],[77.12743,13.31935],[77.12921,13.32368],[77.13928,13.31941]]]}},{"type":"Feature","bbox":[77.14032,13.30772,77.14886,13.31692],"properties":{"ward":33},"geometry":{"type":"Polygon","coordinates":[[[77.14576,13.30847],[77.14452,13.30862],[77.14442,13.30846],[77.14387,13.30854],[77.14376,13.30869],[77.143,13.30861],[77.1428,13.30886],[77.14264,13.30881],[77.1424,13.30802],[77.14156,13.30796],[77.14108,13.30772],[77.14071,13.30779],[77.14082,13.30796],[77.14073,13.30999],[77.14032,13.31012],[77.14035,13.31069],[77.14051,13.31107],[77.14084,13.31108],[77.14161,13.31204],[77.1418,13.31277],[77.14032,13.31306],[77.1408,13.31566],[77.14126,13.31692],[77.14237,13.31553],[77.14325,13.31489],[77.14429,13.31454],[77.14612,13.31446],[77.14665,13.31427],[77.14886,13.31112],[77.148,13.31157],[77.14768,13.31098],[77.14667,13.31132],[77.14646,13.31091],[77.14598,13.31108],[77.14572,13.31014],[77.14585,13.31008],[77.14576,13.30847]]]}},{"type":"Feature","bbox":[77.13838,13.3062,77.15908,13.32106],"properties":{"ward":34},"geometry":{"type":"Polygon","coordinates":[[[77.14349,13.32073],[77.14504,13.32017],[77.14497,13.31953],[77.14681,13.31876],[77.14718,13.31959],[77.1491,13.3191],[77.14949,13.32008],[77.14972,13.32005],[77.14977,13.31985],[77.1515,13.31945],[77.15237,13.32009],[77.1527,13.31995],[77.15218,13.31869],[77.15151,13.31773],[77.15151,13.31747],[77.15194,13.31738],[77.15172,13.31658],[77.15215,13.31605],[77.15256,13.3141],[77.15369,13.31238],[77.15383,13.31084],[77.15712,13.31123],[77.15774,13.31103],[77.15784,13.31071],[77.15906,13.31028],[77.15886,13.30969],[77.15885,13.30942],[77.15908,13.30921],[77.15897,13.30898],[77.15864,13.30899],[77.15853,13.30853],[77.15806,13.30877],[77.15728,13.30884],[77.15577,13.30835],[77.15564,13.30785],[77.15489,13.30666],[77.15374,13.30736],[77.15354,13.307],[77.1534,13.30702],[77.15181,13.30751],[77.15142,13.30777],[77.15002,13.30806],[77.149,13.30807],[77.14876,13.30826],[77.14751,13.30817],[77.14715,13.30706],[77.1469,13.30709],[77.14677,13.3062],[77.14525,13.30639],[77.14562,13.30703],[77.14455,13.30738],[77.14467,13.30781],[77.14518,13.30822],[77.14529,13.30847],[77.14511,13.30856],[77.14576,13.30847],[77.14585,13.31008],[77.14572,13.31014],[77.14598,13.31108],[77.14646,13.31091],[77.14667,13.31132],[77.14768,13.31098],[77.148,13.31157],[77.14886,13.31112],[77.14665,13.31427],[77.14612,13.31446],[77.14391,13.31462],[77.14252,13.31538],[77.13838,13.32059],[77.13883,13.32093],[77.14001,13.32074],[77.14049,13.32106],[77.14099,13.32073],[77.14318,13.32],[77.14349,13.32073]]]}},{"type":"Feature","bbox":[77.12921,13.31941,77.15029,13.34013],"properties":{"ward":35},"geometry":{"type":"Polygon","coordinates":[[[77.14476,13.32024],[77.14349,13.32073],[77.14318,13.32],[77.14099,13.32073],[77.14049,13.32106],[77.14001,13.32074],[77.1388,13.32092],[77.13838,13.32059],[77.13928,13.31941],[77.12921,13.32368],[77.12981,13.32532],[77.13048,13.32644],[77.13147,13.32721],[77.13156,13.32805],[77.13184,13.3279],[77.13582,13.32348],[77.13603,13.32535],[77.13603,13.328],[77.13624,13.32893],[77.13605,13.32905],[77.13606,13.33],[77.13497,13.33009],[77.13497,13.33022],[77.13409,13.33043],[77.1342,13.33079],[77.13464,13.33066],[77.13498,13.33132],[77.13347,13.3318],[77.13545,13.33675],[77.1367,13.33737],[77.13691,13.33842],[77.13708,13.33843],[77.13747,13.33803],[77.13768,13.33842],[77.13808,13.33822],[77.13963,13.33828],[77.14125,13.33757],[77.14165,13.33848],[77.14262,13.33785],[77.14411,13.33794],[77.14493,13.3378],[77.1453,13.33857],[77.1468,13.34013],[77.14833,13.33859],[77.14846,13.3358],[77.148,13.33194],[77.14793,13.32937],[77.14816,13.32884],[77.14809,13.32775],[77.14865,13.32765],[77.14834,13.32704],[77.15029,13.32238],[77.1496,13.3228],[77.14874,13.32146],[77.14846,13.32137],[77.14797,13.32078],[77.14736,13.32121],[77.14662,13.32143],[77.14571,13.32108],[77.14475,13.32131],[77.14476,13.32024]]]}}]}