{"type":"FeatureCollection","features":[{"type":"Feature","bbox":[75.03014,14.17055,75.05197,14.18423],"properties":{"ward":1},"geometry":{"type":"Polygon","coordinates":[[[75.03014,14.171],[75.0306,14.17286],[75.03638,14.1763],[75.03573,14.17735],[75.03483,14.17827],[75.03506,14.17898],[75.03455,14.18076],[75.03515,14.18072],[75.0352,14.18161],[75.03469,14.18167],[75.03509,14.18219],[75.0359,14.18423],[75.03767,14.18359],[75.03707,14.17982],[75.03711,14.17916],[75.03807,14.17911],[75.03931,14.1783],[75.04107,14.1797],[75.0449,14.18044],[75.05197,14.18355],[75.04606,14.17194],[75.04517,14.17177],[75.04472,14.17131],[75.04439,14.17121],[75.04404,14.1714],[75.04359,14.1722],[75.04317,14.17229],[75.04243,14.17183],[75.04143,14.17163],[75.04095,14.17094],[75.04055,14.17069],[75.03989,14.1706],[75.03913,14.17078],[75.03831,14.17055],[75.038,14.1707],[75.03784,14.17115],[75.03816,14.17207],[75.03754,14.17217],[75.03651,14.1715],[75.03616,14.17202],[75.03566,14.17237],[75.03553,14.17279],[75.0352,14.1731],[75.03482,14.17329],[75.03311,14.17349],[75.03217,14.17302],[75.03154,14.17245],[75.03103,14.17238],[75.03056,14.17161],[75.03049,14.17102],[75.03014,14.171]]]}},{"type":"Feature","bbox":[75.0359,14.1783,75.05197,14.18969],"properties":{"ward":2},"geometry":{"type":"Polygon","coordinates":[[[75.03931,14.1783],[75.03807,14.17911],[75.03711,14.17916],[75.03707,14.17982],[75.03767,14.18359],[75.0359,14.18423],[75.03599,14.18546],[75.03627,14.1862],[75.0377,14.18718],[75.04006,14.18969],[75.04109,14.18852],[75.04209,14.18897],[75.04255,14.18861],[75.04458,14.18799],[75.045,14.18841],[75.05043,14.18923],[75.05197,14.18355],[75.0449,14.18044],[75.04107,14.1797],[75.03931,14.1783]]]}},{"type":"Feature","bbox":[75.02974,14.1837,75.03702,14.19093],"properties":{"ward":3},"geometry":{"type":"Polygon","coordinates":[[[75.03702,14.18956],[75.03409,14.18619],[75.03339,14.1837],[75.03056,14.18662],[75.02974,14.18688],[75.03005,14.18786],[75.03176,14.19093],[75.03365,14.18993],[75.0338,14.19032],[75.03597,14.18934],[75.03702,14.18956]]]}},{"type":"Feature","bbox":[75.029,14.17343,75.03942,14.18992],"properties":{"ward":4},"geometry":{"type":"Polygon","coordinates":[[[75.0359,14.18423],[75.03509,14.18219],[75.03469,14.18167],[75.0352,14.18161],[75.03515,14.18072],[75.03455,14.18076],[75.03457,14.18056],[75.03506,14.17898],[75.03483,14.17827],[75.03573,14.17735],[75.03638,14.1763],[75.03149,14.17343],[75.03147,14.17398],[75.03055,14.17527],[75.02976,14.17758],[75.02902,14.18159],[75.029,14.18312],[75.02974,14.18688],[75.03056,14.18662],[75.03339,14.1837],[75.03409,14.18619],[75.03654,14.18905],[75.03702,14.18956],[75.03827,14.18992],[75.03898,14.18979],[75.03942,14.18909],[75.0377,14.18718],[75.03627,14.1862],[75.03599,14.18546],[75.0359,14.18423]]]}},{"type":"Feature","bbox":[75.02387,14.17381,75.02917,14.18274],"properties":{"ward":5},"geometry":{"type":"Polygon","coordinates":[[[75.02643,14.17381],[75.02544,14.17415],[75.02455,14.17388],[75.02515,14.17578],[75.02537,14.17825],[75.0245,14.18128],[75.02387,14.18222],[75.02433,14.18235],[75.0244,14.1825],[75.02546,14.18274],[75.02669,14.18041],[75.02667,14.17999],[75.0275,14.1795],[75.02917,14.17734],[75.02825,14.17707],[75.0273,14.17705],[75.02655,14.17658],[75.02676,14.17461],[75.02643,14.17381]]]}},{"type":"Feature","bbox":[75.02033,14.17734,75.03135,14.19177],"properties":{"ward":6},"geometry":{"type":"Polygon","coordinates":[[[75.0307,14.19177],[75.0299,14.1912],[75.02916,14.1901],[75.03071,14.18959],[75.03135,14.19033],[75.02996,14.18762],[75.02912,14.18398],[75.02899,14.18183],[75.02973,14.17765],[75.02917,14.17734],[75.0275,14.1795],[75.02667,14.17999],[75.02669,14.18041],[75.02551,14.18274],[75.0244,14.1825],[75.02433,14.18235],[75.02387,14.18222],[75.02423,14.18176],[75.02368,14.1815],[75.02276,14.18364],[75.02099,14.18447],[75.02033,14.18521],[75.02105,14.18537],[75.02378,14.18797],[75.02357,14.19119],[75.02474,14.19117],[75.02571,14.19148],[75.02736,14.19167],[75.02946,14.19154],[75.0307,14.19177]]]}},{"type":"Feature","bbox":[75.01914,14.17373,75.02537,14.18521],"properties":{"ward":7},"geometry":{"type":"Polygon","coordinates":[[[75.02423,14.18176],[75.02502,14.17977],[75.02503,14.17925],[75.02537,14.17825],[75.02515,14.17578],[75.02455,14.17388],[75.0237,14.17384],[75.02292,14.174],[75.02199,14.17386],[75.0214,14.17398],[75.02042,14.17373],[75.02005,14.17403],[75.01928,14.174],[75.01918,14.17426],[75.01933,14.17484],[75.01914,14.1752],[75.0195,14.17505],[75.01971,14.17527],[75.01999,14.17684],[75.02004,14.17937],[75.02042,14.1808],[75.02033,14.18521],[75.02099,14.18447],[75.02276,14.18364],[75.02368,14.1815],[75.02423,14.18176]]]}},{"type":"Feature","bbox":[75.01662,14.1681,75.02677,14.17525],"properties":{"ward":8},"geometry":{"type":"Polygon","coordinates":[[[75.02307,14.1681],[75.01986,14.16933],[75.01923,14.16988],[75.01952,14.17026],[75.01961,14.17077],[75.01662,14.17181],[75.01686,14.1729],[75.0173,14.17301],[75.01777,14.17372],[75.01797,14.17525],[75.01914,14.1752],[75.01933,14.17484],[75.01918,14.17426],[75.01928,14.174],[75.02005,14.17403],[75.02042,14.17373],[75.0214,14.17398],[75.02199,14.17386],[75.02292,14.174],[75.0237,14.17384],[75.02449,14.17387],[75.02544,14.17415],[75.02643,14.17381],[75.02624,14.1734],[75.02677,14.17246],[75.02651,14.17082],[75.02549,14.16838],[75.02344,14.16921],[75.02307,14.1681]]]}},{"type":"Feature","bbox":[75.00335,14.16379,75.0186,14.17606],"properties":{"ward":9},"geometry":{"type":"Polygon","coordinates":[[[75.00706,14.17545],[75.00957,14.1753],[75.01005,14.17457],[75.01089,14.17405],[75.012,14.17531],[75.01284,14.17455],[75.01426,14.17541],[75.01521,14.17558],[75.01642,14.17565],[75.01709,14.17503],[75.01743,14.17494],[75.01797,14.17525],[75.01777,14.17372],[75.0173,14.17301],[75.01686,14.1729],[75.01657,14.17161],[75.0152,14.17144],[75.01532,14.17037],[75.01518,14.17003],[75.01562,14.16963],[75.01565,14.16943],[75.01519,14.16825],[75.01499,14.16802],[75.01454,14.1679],[75.01586,14.16682],[75.01761,14.16719],[75.0175,14.16597],[75.01784,14.16571],[75.01833,14.16565],[75.01839,14.1648],[75.0186,14.1644],[75.01738,14.16446],[75.01552,14.16516],[75.01538,14.1647],[75.01523,14.16486],[75.01334,14.16521],[75.01459,14.16703],[75.01362,14.16824],[75.01494,14.16832],[75.01537,14.16933],[75.01494,14.16988],[75.014,14.16923],[75.01378,14.1693],[75.01347,14.16914],[75.01325,14.16941],[75.01211,14.16922],[75.01084,14.16824],[75.01069,14.16829],[75.00929,14.16609],[75.00888,14.1649],[75.00887,14.16427],[75.00852,14.16379],[75.00577,14.1653],[75.00335,14.16536],[75.00594,14.17014],[75.00598,14.17333],[75.00638,14.17381],[75.00583,14.17454],[75.0058,14.17535],[75.0055,14.17606],[75.0065,14.17584],[75.00706,14.17545]]]}},{"type":"Feature","bbox":[75.01454,14.16682,75.02307,14.17181],"properties":{"ward":10},"geometry":{"type":"Polygon","coordinates":[[[75.01586,14.16682],[75.01454,14.1679],[75.01499,14.16802],[75.01519,14.16825],[75.01565,14.16943],[75.01562,14.16963],[75.01518,14.17003],[75.01532,14.17037],[75.0152,14.17144],[75.01657,14.17161],[75.01662,14.17181],[75.01961,14.17077],[75.01952,14.17026],[75.01923,14.16988],[75.01986,14.16933],[75.02307,14.1681],[75.02269,14.16714],[75.02062,14.1674],[75.01884,14.16739],[75.01586,14.16682]]]}},{"type":"Feature","bbox":[75.01534,14.16265,75.02736,14.16742],"properties":{"ward":11},"geometry":{"type":"Polygon","coordinates":[[[75.02269,14.16714],[75.0218,14.16474],[75.02204,14.1643],[75.02736,14.16356],[75.02731,14.16273],[75.02389,14.16309],[75.02223,14.16412],[75.02217,14.1634],[75.02181,14.16329],[75.02121,14.16317],[75.02093,14.16365],[75.01959,14.1631],[75.01753,14.16265],[75.01534,14.16399],[75.01552,14.16516],[75.01738,14.16446],[75.0186,14.1644],[75.01839,14.1648],[75.01833,14.16565],[75.01784,14.16571],[75.0175,14.16597],[75.01761,14.16719],[75.01993,14.16742],[75.02269,14.16714]]]}},{"type":"Feature","bbox":[75.02183,14.16365,75.02933,14.17381],"properties":{"ward":12},"geometry":{"type":"Polygon","coordinates":[[[75.02716,14.17261],[75.02822,14.17289],[75.02856,14.17219],[75.02933,14.17138],[75.02878,14.17088],[75.02907,14.1706],[75.02853,14.16992],[75.02841,14.16747],[75.02777,14.16755],[75.02668,14.16797],[75.02636,14.1672],[75.02628,14.1669],[75.02685,14.16665],[75.02663,14.16468],[75.02698,14.16459],[75.02685,14.16365],[75.02204,14.1643],[75.02185,14.16452],[75.02183,14.16486],[75.02344,14.16921],[75.02549,14.16838],[75.02568,14.16879],[75.02643,14.17055],[75.02675,14.1723],[75.02674,14.17261],[75.02624,14.1734],[75.02643,14.17381],[75.02665,14.17359],[75.02692,14.17278],[75.02716,14.17261]]]}},{"type":"Feature","bbox":[75.02643,14.16747,75.03037,14.17765],"properties":{"ward":14},"geometry":{"type":"Polygon","coordinates":[[[75.02989,14.17369],[75.03037,14.17217],[75.0299,14.1703],[75.02995,14.16755],[75.02841,14.16747],[75.02853,14.16992],[75.02907,14.1706],[75.02878,14.17088],[75.02933,14.17138],[75.02856,14.17219],[75.02822,14.17289],[75.0273,14.1726],[75.02692,14.17278],[75.02665,14.17359],[75.02643,14.17381],[75.02676,14.17461],[75.02655,14.17658],[75.0273,14.17705],[75.02825,14.17707],[75.02973,14.17765],[75.0303,14.17594],[75.03014,14.17581],[75.0302,14.17553],[75.02997,14.17481],[75.03027,14.1739],[75.02989,14.17369]]]}},{"type":"Feature","bbox":[75.02989,14.16279,75.03635,14.17594],"properties":{"ward":15},"geometry":{"type":"Polygon","coordinates":[[[75.03199,14.16863],[75.03297,14.16774],[75.03423,14.16909],[75.0347,14.16814],[75.03529,14.16751],[75.03635,14.16742],[75.03582,14.16678],[75.0357,14.16402],[75.03533,14.16356],[75.03483,14.16327],[75.03292,14.16279],[75.03262,14.1637],[75.03266,14.16427],[75.03199,14.16457],[75.03098,14.16386],[75.02997,14.16393],[75.03,14.16534],[75.03221,14.16516],[75.03232,14.16604],[75.03214,14.16767],[75.02995,14.16755],[75.0299,14.1703],[75.03039,14.17249],[75.02989,14.17369],[75.03027,14.1739],[75.02997,14.17481],[75.0302,14.17553],[75.03014,14.17581],[75.0303,14.17594],[75.03055,14.17527],[75.03147,14.17398],[75.0315,14.17372],[75.03149,14.17343],[75.03049,14.17277],[75.03014,14.171],[75.03048,14.17101],[75.03163,14.16987],[75.03154,14.1696],[75.03169,14.16922],[75.03199,14.16863]]]}},{"type":"Feature","bbox":[75.03048,14.16443,75.04833,14.17347],"properties":{"ward":16},"geometry":{"type":"Polygon","coordinates":[[[75.03373,14.17347],[75.0352,14.1731],[75.03553,14.17279],[75.03566,14.17237],[75.03616,14.17202],[75.03651,14.1715],[75.03754,14.17217],[75.03816,14.17207],[75.03784,14.17115],[75.038,14.1707],[75.03831,14.17055],[75.03913,14.17078],[75.03989,14.1706],[75.04055,14.17069],[75.04095,14.17094],[75.04143,14.17163],[75.04243,14.17183],[75.04317,14.17229],[75.04359,14.1722],[75.04411,14.17132],[75.04461,14.17124],[75.04455,14.17083],[75.04385,14.16946],[75.04389,14.16872],[75.04418,14.16802],[75.04445,14.16781],[75.04586,14.16775],[75.04593,14.16679],[75.0463,14.16613],[75.0469,14.16608],[75.04773,14.1664],[75.0482,14.16634],[75.04833,14.16607],[75.0482,14.16472],[75.04384,14.16653],[75.04145,14.16714],[75.04043,14.16653],[75.04004,14.16575],[75.03992,14.16498],[75.03735,14.16443],[75.03673,14.16596],[75.03591,14.16688],[75.03635,14.16742],[75.03529,14.16751],[75.0347,14.16814],[75.03423,14.16909],[75.03297,14.16774],[75.03199,14.16863],[75.03154,14.1696],[75.03163,14.16987],[75.03048,14.17101],[75.03056,14.17161],[75.03103,14.17238],[75.03154,14.17245],[75.03285,14.17341],[75.03373,14.17347]]]}},{"type":"Feature","bbox":[75.03992,14.15877,75.06511,14.17237],"properties":{"ward":17},"geometry":{"type":"Polygon","coordinates":[[[75.03992,14.16498],[75.04004,14.16575],[75.04043,14.16653],[75.04145,14.16714],[75.04384,14.16653],[75.0482,14.16472],[75.04833,14.16607],[75.0482,14.16634],[75.04773,14.1664],[75.0469,14.16608],[75.0463,14.16613],[75.04593,14.16679],[75.04586,14.16775],[75.04433,14.16785],[75.04399,14.16837],[75.04389,14.16959],[75.04455,14.17083],[75.04461,14.17124],[75.04527,14.17182],[75.04611,14.17201],[75.04719,14.17167],[75.04717,14.17071],[75.0482,14.17071],[75.04999,14.17168],[75.05053,14.17181],[75.05064,14.17207],[75.05121,14.17237],[75.05145,14.17094],[75.05085,14.17085],[75.05032,14.16949],[75.05093,14.16839],[75.05276,14.1685],[75.05319,14.1687],[75.05435,14.17132],[75.05484,14.17206],[75.05765,14.1711],[75.05944,14.17193],[75.05897,14.17111],[75.05965,14.17024],[75.06007,14.17015],[75.06057,14.17028],[75.06073,14.1716],[75.06207,14.17172],[75.06292,14.17203],[75.06359,14.1712],[75.06445,14.172],[75.06389,14.16888],[75.06347,14.16865],[75.0637,14.16654],[75.063,14.16591],[75.06337,14.16533],[75.06333,14.16413],[75.06417,14.16266],[75.06511,14.1615],[75.0641,14.16072],[75.06351,14.16002],[75.06084,14.1611],[75.06062,14.16051],[75.05961,14.15999],[75.06009,14.15993],[75.06004,14.15926],[75.05829,14.15925],[75.0582,14.15885],[75.05631,14.15926],[75.05514,14.15877],[75.05436,14.15942],[75.05338,14.15993],[75.05361,14.1614],[75.05204,14.16187],[75.05199,14.16216],[75.05134,14.16231],[75.05069,14.16309],[75.05055,14.16301],[75.04987,14.16347],[75.04727,14.16304],[75.04373,14.16195],[75.04362,14.16219],[75.04339,14.16215],[75.04337,14.16255],[75.04265,14.16412],[75.04148,14.1634],[75.04076,14.16498],[75.03992,14.16498]]]}},{"type":"Feature","bbox":[75.03735,14.15121,75.05081,14.16498],"properties":{"ward":18},"geometry":{"type":"Polygon","coordinates":[[[75.05081,14.16296],[75.05047,14.16275],[75.05027,14.16205],[75.04997,14.16166],[75.04857,14.16113],[75.04779,14.16054],[75.04725,14.16034],[75.04683,14.15987],[75.04661,14.15868],[75.0464,14.15847],[75.04644,14.1578],[75.04666,14.15768],[75.04652,14.15713],[75.04621,14.15689],[75.04619,14.15669],[75.04683,14.15646],[75.04681,14.15531],[75.04753,14.15543],[75.04749,14.1553],[75.0467,14.15513],[75.04633,14.15523],[75.04617,14.15491],[75.04558,14.15473],[75.04459,14.15121],[75.04361,14.15326],[75.03869,14.16136],[75.03735,14.16443],[75.03967,14.16496],[75.04076,14.16498],[75.04148,14.1634],[75.04265,14.16412],[75.04337,14.16255],[75.04339,14.16215],[75.04362,14.16219],[75.04373,14.16195],[75.04727,14.16304],[75.04987,14.16347],[75.05081,14.16296]]]}},{"type":"Feature","bbox":[75.0359,14.14918,75.04459,14.16212],"properties":{"ward":19},"geometry":{"type":"Polygon","coordinates":[[[75.03833,14.16212],[75.04361,14.15326],[75.04459,14.15121],[75.04415,14.15109],[75.04395,14.14918],[75.04157,14.14999],[75.04043,14.15124],[75.03966,14.15164],[75.0401,14.153],[75.04,14.15612],[75.03863,14.15626],[75.03785,14.15656],[75.03637,14.15971],[75.0359,14.16024],[75.03627,14.16044],[75.03708,14.16153],[75.03833,14.16212]]]}},{"type":"Feature","bbox":[75.02802,14.16137,75.03292,14.16471],"properties":{"ward":20},"geometry":{"type":"Polygon","coordinates":[[[75.02997,14.16393],[75.03098,14.16386],[75.03189,14.16455],[75.03223,14.16451],[75.03266,14.16427],[75.03262,14.1637],[75.03292,14.16279],[75.03104,14.16236],[75.02974,14.16244],[75.02927,14.16137],[75.02802,14.16174],[75.02826,14.16457],[75.03001,14.16471],[75.02997,14.16393]]]}},{"type":"Feature","bbox":[75.02474,14.15977,75.02826,14.16457],"properties":{"ward":21},"geometry":{"type":"Polygon","coordinates":[[[75.02826,14.16457],[75.02796,14.16125],[75.02736,14.16151],[75.0265,14.15977],[75.02474,14.16062],[75.02532,14.1629],[75.02761,14.1627],[75.02782,14.16454],[75.02826,14.16457]]]}},{"type":"Feature","bbox":[75.02312,14.15904,75.02535,14.16306],"properties":{"ward":22},"geometry":{"type":"Polygon","coordinates":[[[75.02532,14.1629],[75.02474,14.16065],[75.02535,14.16033],[75.02455,14.15904],[75.02312,14.15957],[75.02401,14.16306],[75.02532,14.1629]]]}},{"type":"Feature","bbox":[75.01139,14.14869,75.02455,14.16412],"properties":{"ward":23},"geometry":{"type":"Polygon","coordinates":[[[75.02223,14.16412],[75.02401,14.16306],[75.02312,14.15957],[75.02455,14.15904],[75.02393,14.15805],[75.02398,14.15723],[75.02289,14.15675],[75.02273,14.1561],[75.02283,14.15529],[75.02206,14.15277],[75.02133,14.1508],[75.02024,14.14888],[75.01997,14.14869],[75.01835,14.14908],[75.01865,14.15269],[75.01861,14.15428],[75.01605,14.1543],[75.01653,14.15664],[75.01597,14.15974],[75.01363,14.16011],[75.01346,14.16078],[75.0115,14.16153],[75.01139,14.16259],[75.01527,14.16184],[75.01534,14.16399],[75.01753,14.16265],[75.01959,14.1631],[75.02093,14.16365],[75.02121,14.16317],[75.02181,14.16329],[75.02217,14.1634],[75.02223,14.16412]]]}},{"type":"Feature","bbox":[75.0239,14.15687,75.02806,14.16033],"properties":{"ward":24},"geometry":{"type":"Polygon","coordinates":[[[75.02806,14.15902],[75.02744,14.15769],[75.02601,14.15784],[75.02567,14.15812],[75.02501,14.15687],[75.0239,14.15736],[75.02398,14.15816],[75.02535,14.16033],[75.02806,14.15902]]]}},{"type":"Feature","bbox":[75.0265,14.15882,75.03249,14.16268],"properties":{"ward":25},"geometry":{"type":"Polygon","coordinates":[[[75.03201,14.1615],[75.02954,14.15882],[75.02917,14.15943],[75.02852,14.15978],[75.02806,14.15902],[75.0265,14.15977],[75.02736,14.16151],[75.02796,14.16125],[75.02802,14.16174],[75.02927,14.16137],[75.02974,14.16244],[75.03104,14.16236],[75.03249,14.16268],[75.03201,14.1615]]]}},{"type":"Feature","bbox":[75.01811,14.14546,75.02752,14.15812],"properties":{"ward":26},"geometry":{"type":"Polygon","coordinates":[[[75.01835,14.14908],[75.02007,14.14868],[75.02083,14.14982],[75.02174,14.15183],[75.02283,14.15529],[75.02273,14.1561],[75.02294,14.15681],[75.02398,14.15723],[75.02501,14.15687],[75.02567,14.15812],[75.02601,14.15784],[75.02744,14.15769],[75.02752,14.15458],[75.02703,14.15325],[75.02666,14.15007],[75.02724,14.14845],[75.02728,14.14719],[75.02671,14.14546],[75.02249,14.14622],[75.02098,14.14684],[75.02051,14.14672],[75.01995,14.14694],[75.01811,14.14717],[75.01835,14.14908]]]}},{"type":"Feature","bbox":[75.02605,14.13633,75.03569,14.15978],"properties":{"ward":27},"geometry":{"type":"Polygon","coordinates":[[[75.03222,14.13818],[75.03211,14.13657],[75.03032,14.13633],[75.03012,14.13655],[75.02998,14.13958],[75.02915,14.14194],[75.02605,14.14318],[75.02728,14.14719],[75.02724,14.14845],[75.02666,14.15007],[75.02703,14.15325],[75.02752,14.15458],[75.02744,14.15769],[75.02847,14.15978],[75.02917,14.15943],[75.02996,14.15794],[75.03033,14.1576],[75.03086,14.1574],[75.03182,14.15785],[75.03241,14.1568],[75.03233,14.15629],[75.03104,14.15648],[75.031,14.15572],[75.02922,14.15602],[75.02919,14.15462],[75.02839,14.15054],[75.02877,14.14904],[75.0341,14.14892],[75.03569,14.14845],[75.03451,14.14645],[75.03416,14.14555],[75.03426,14.14533],[75.034,14.14521],[75.03356,14.1442],[75.03357,14.14311],[75.03304,14.1422],[75.03312,14.14094],[75.03342,14.13953],[75.0338,14.13874],[75.03222,14.13818]]]}},{"type":"Feature","bbox":[75.02954,14.15624,75.03833,14.16699],"properties":{"ward":28},"geometry":{"type":"Polygon","coordinates":[[[75.03637,14.15971],[75.03729,14.15757],[75.03606,14.15765],[75.0361,14.15785],[75.03551,14.15798],[75.03546,14.15772],[75.03445,14.15799],[75.03436,14.15767],[75.03361,14.15783],[75.03332,14.15663],[75.03301,14.15663],[75.03293,14.15624],[75.03233,14.15629],[75.0324,14.15688],[75.03182,14.15785],[75.03108,14.15744],[75.03065,14.15744],[75.02996,14.15794],[75.02954,14.15882],[75.03201,14.1615],[75.03249,14.16268],[75.03483,14.16327],[75.03558,14.16382],[75.0359,14.16699],[75.03673,14.16596],[75.03833,14.16212],[75.03708,14.16153],[75.03627,14.16044],[75.0359,14.16024],[75.03637,14.15971]]]}},{"type":"Feature","bbox":[75.02839,14.14902,75.03267,14.15602],"properties":{"ward":29},"geometry":{"type":"Polygon","coordinates":[[[75.02922,14.15602],[75.03166,14.15559],[75.03131,14.15454],[75.03267,14.15405],[75.03161,14.15123],[75.03157,14.15029],[75.03121,14.15039],[75.03113,14.1502],[75.03016,14.15019],[75.03009,14.14997],[75.02972,14.14995],[75.0295,14.14902],[75.02877,14.14904],[75.02839,14.15054],[75.02919,14.15462],[75.02922,14.15602]]]}},{"type":"Feature","bbox":[75.031,14.15328,75.03734,14.15799],"properties":{"ward":30},"geometry":{"type":"Polygon","coordinates":[[[75.03445,14.15799],[75.03546,14.15772],[75.03551,14.15798],[75.0361,14.15785],[75.03606,14.15765],[75.03729,14.15757],[75.03734,14.15742],[75.03704,14.15734],[75.03718,14.1552],[75.03701,14.15328],[75.03339,14.15342],[75.03254,14.15372],[75.03261,14.1541],[75.03131,14.15454],[75.03166,14.15559],[75.031,14.15572],[75.03104,14.15648],[75.03293,14.15624],[75.03301,14.15663],[75.03332,14.15663],[75.03361,14.15783],[75.03436,14.15767],[75.03445,14.15799]]]}},{"type":"Feature","bbox":[75.0295,14.14845,75.03712,14.15372],"properties":{"ward":31},"geometry":{"type":"Polygon","coordinates":[[[75.03358,14.15338],[75.03701,14.15328],[75.03709,14.15293],[75.03712,14.15195],[75.03663,14.15188],[75.03668,14.15106],[75.03686,14.15103],[75.0366,14.15032],[75.03616,14.14982],[75.03569,14.14845],[75.0341,14.14892],[75.0295,14.14902],[75.02972,14.14995],[75.03009,14.14997],[75.03016,14.15019],[75.03113,14.1502],[75.03121,14.15039],[75.03157,14.15029],[75.03161,14.15123],[75.03254,14.15372],[75.03358,14.15338]]]}}]}