{"type":"FeatureCollection","features":[{"type":"Feature","bbox":[77.04882,13.01335,77.06376,13.03437],"properties":{"ward":1},"geometry":{"type":"Polygon","coordinates":[[[77.05503,13.01545],[77.0555,13.01982],[77.05565,13.02066],[77.05587,13.02101],[77.05526,13.02107],[77.05523,13.02176],[77.05397,13.0218],[77.05404,13.02288],[77.05163,13.02292],[77.05161,13.02268],[77.05113,13.02269],[77.0489,13.02308],[77.04882,13.02421],[77.04944,13.02603],[77.04948,13.02732],[77.05016,13.02727],[77.05032,13.02773],[77.05247,13.02991],[77.05361,13.03099],[77.05438,13.03137],[77.05421,13.03294],[77.0545,13.03428],[77.05535,13.0342],[77.05804,13.03437],[77.05832,13.03376],[77.05824,13.03365],[77.05944,13.03365],[77.05958,13.03387],[77.06095,13.03367],[77.06011,13.03079],[77.06147,13.03067],[77.06123,13.02925],[77.06376,13.02852],[77.06328,13.02165],[77.06295,13.01997],[77.06267,13.01704],[77.06269,13.01511],[77.06313,13.01335],[77.05503,13.01545]]]}},{"type":"Feature","bbox":[77.03843,13.01545,77.05587,13.03383],"properties":{"ward":2},"geometry":{"type":"Polygon","coordinates":[[[77.05431,13.03361],[77.05421,13.03213],[77.05438,13.03137],[77.05361,13.03099],[77.05247,13.02991],[77.05032,13.02773],[77.05016,13.02727],[77.04948,13.02732],[77.04944,13.02603],[77.04882,13.02421],[77.04881,13.02369],[77.0489,13.02308],[77.05113,13.02269],[77.05161,13.02268],[77.05163,13.02292],[77.05404,13.02288],[77.05397,13.0218],[77.05523,13.02176],[77.05526,13.02107],[77.05587,13.02101],[77.05565,13.02066],[77.0555,13.01982],[77.05503,13.01545],[77.04814,13.01694],[77.04742,13.01676],[77.04623,13.01717],[77.04556,13.01656],[77.04525,13.01726],[77.04474,13.01773],[77.04318,13.01747],[77.04301,13.01774],[77.04329,13.01818],[77.04349,13.01821],[77.04342,13.01849],[77.0442,13.01868],[77.04417,13.01904],[77.04452,13.01913],[77.04427,13.02019],[77.04389,13.02098],[77.04343,13.02136],[77.04271,13.02237],[77.04242,13.02251],[77.04226,13.02333],[77.0419,13.02367],[77.04172,13.02669],[77.04127,13.02806],[77.03867,13.03182],[77.0385,13.03212],[77.03843,13.03324],[77.03899,13.03338],[77.03965,13.03299],[77.04202,13.03105],[77.04289,13.03161],[77.04232,13.03302],[77.0433,13.0335],[77.0438,13.03126],[77.04433,13.03125],[77.04507,13.03141],[77.04479,13.03235],[77.04504,13.03242],[77.0451,13.03233],[77.04669,13.03275],[77.04696,13.03162],[77.04715,13.03159],[77.0489,13.03266],[77.04979,13.03261],[77.05086,13.03216],[77.05143,13.03293],[77.05239,13.03383],[77.053,13.03345],[77.05431,13.03361]]]}},{"type":"Feature","bbox":[77.02679,13.01271,77.04452,13.02682],"properties":{"ward":3},"geometry":{"type":"Polygon","coordinates":[[[77.04318,13.01747],[77.04288,13.01589],[77.04245,13.01558],[77.04237,13.01512],[77.04076,13.0146],[77.04058,13.01395],[77.03857,13.01373],[77.03867,13.01272],[77.03807,13.01271],[77.038,13.01349],[77.0372,13.01311],[77.03721,13.01327],[77.03564,13.01346],[77.0356,13.0131],[77.03247,13.01399],[77.03194,13.01444],[77.0312,13.01463],[77.03123,13.0149],[77.02903,13.01523],[77.02916,13.01701],[77.02821,13.01706],[77.02799,13.01665],[77.02715,13.0166],[77.02711,13.01707],[77.0272,13.01866],[77.02846,13.01851],[77.02882,13.02172],[77.02917,13.02175],[77.02914,13.02301],[77.02911,13.02312],[77.02843,13.02293],[77.02831,13.02335],[77.02865,13.02344],[77.02858,13.02372],[77.02744,13.02365],[77.02746,13.02396],[77.02679,13.02411],[77.02696,13.02566],[77.03153,13.02548],[77.03439,13.0258],[77.03622,13.02581],[77.03858,13.02616],[77.04029,13.02668],[77.04168,13.02682],[77.0419,13.02367],[77.04226,13.02333],[77.04242,13.02251],[77.04271,13.02237],[77.04343,13.02136],[77.04389,13.02098],[77.04427,13.02019],[77.04452,13.01913],[77.04417,13.01904],[77.0442,13.01868],[77.04342,13.01849],[77.04349,13.01821],[77.04329,13.01818],[77.04301,13.01774],[77.04318,13.01747]]]}},{"type":"Feature","bbox":[77.02625,13.01851,77.02917,13.02411],"properties":{"ward":4},"geometry":{"type":"Polygon","coordinates":[[[77.02679,13.02411],[77.02746,13.02396],[77.02744,13.02365],[77.02858,13.02372],[77.02865,13.02344],[77.02831,13.02335],[77.02843,13.02293],[77.02911,13.02312],[77.02917,13.02175],[77.02882,13.02172],[77.02846,13.01851],[77.02731,13.01866],[77.02745,13.02012],[77.02798,13.02163],[77.02625,13.02188],[77.02679,13.02411]]]}},{"type":"Feature","bbox":[77.0259,13.02012,77.02798,13.02188],"properties":{"ward":5},"geometry":{"type":"Polygon","coordinates":[[[77.02745,13.02012],[77.02733,13.02031],[77.0259,13.02059],[77.02625,13.02188],[77.02798,13.02163],[77.02745,13.02012]]]}},{"type":"Feature","bbox":[77.02314,13.01702,77.02745,13.02059],"properties":{"ward":6},"geometry":{"type":"Polygon","coordinates":[[[77.02745,13.02012],[77.02711,13.01707],[77.02553,13.01702],[77.02413,13.01783],[77.02385,13.01831],[77.02314,13.01778],[77.02331,13.01846],[77.02405,13.01978],[77.02434,13.01973],[77.02436,13.01894],[77.02552,13.01946],[77.0259,13.02059],[77.02733,13.02031],[77.02745,13.02012]]]}},{"type":"Feature","bbox":[77.02405,13.01894,77.0262,13.02214],"properties":{"ward":7},"geometry":{"type":"Polygon","coordinates":[[[77.0262,13.0218],[77.02563,13.01962],[77.02545,13.0194],[77.02436,13.01894],[77.02434,13.01973],[77.02405,13.01978],[77.02491,13.02214],[77.0262,13.0218]]]}},{"type":"Feature","bbox":[77.02491,13.0218,77.02672,13.02436],"properties":{"ward":8},"geometry":{"type":"Polygon","coordinates":[[[77.02672,13.02412],[77.02622,13.0218],[77.02491,13.02214],[77.02517,13.02436],[77.02672,13.02412]]]}},{"type":"Feature","bbox":[77.02517,13.02411,77.02696,13.02566],"properties":{"ward":9},"geometry":{"type":"Polygon","coordinates":[[[77.02679,13.02411],[77.02517,13.02436],[77.02546,13.02549],[77.02696,13.02566],[77.02679,13.02411]]]}},{"type":"Feature","bbox":[77.02228,13.01652,77.02546,13.02549],"properties":{"ward":10},"geometry":{"type":"Polygon","coordinates":[[[77.02517,13.02436],[77.02506,13.02272],[77.02471,13.02152],[77.02398,13.0196],[77.02331,13.01846],[77.02286,13.01662],[77.0223,13.01652],[77.02239,13.01815],[77.02278,13.01936],[77.02228,13.01942],[77.0224,13.02114],[77.02296,13.02116],[77.02314,13.02305],[77.02356,13.02306],[77.02316,13.02449],[77.02454,13.02525],[77.02546,13.02549],[77.02517,13.02436]]]}},{"type":"Feature","bbox":[77.02037,13.01652,77.02356,13.02449],"properties":{"ward":11},"geometry":{"type":"Polygon","coordinates":[[[77.0223,13.01652],[77.02179,13.01662],[77.02157,13.01731],[77.02051,13.01698],[77.02037,13.01836],[77.02087,13.01902],[77.0212,13.02157],[77.02063,13.02347],[77.02316,13.02449],[77.02356,13.02306],[77.02314,13.02305],[77.02296,13.02116],[77.0224,13.02114],[77.02228,13.01942],[77.02278,13.01936],[77.02239,13.01815],[77.0223,13.01652]]]}},{"type":"Feature","bbox":[77.0184,13.02347,77.02656,13.02729],"properties":{"ward":12},"geometry":{"type":"Polygon","coordinates":[[[77.0263,13.02639],[77.02656,13.02565],[77.02474,13.02533],[77.02274,13.0243],[77.02063,13.02347],[77.02032,13.02403],[77.01972,13.02443],[77.01849,13.02447],[77.0184,13.02493],[77.01856,13.02577],[77.01957,13.02729],[77.02136,13.02716],[77.02512,13.02644],[77.0263,13.02639]]]}},{"type":"Feature","bbox":[77.01957,13.02639,77.02663,13.03154],"properties":{"ward":13},"geometry":{"type":"Polygon","coordinates":[[[77.02663,13.03103],[77.02602,13.02722],[77.0263,13.02639],[77.02512,13.02644],[77.02136,13.02716],[77.01957,13.02729],[77.02009,13.02791],[77.02073,13.02832],[77.02307,13.02908],[77.02334,13.02942],[77.02401,13.03114],[77.02557,13.03154],[77.02663,13.03103]]]}},{"type":"Feature","bbox":[77.02611,13.02556,77.02825,13.02671],"properties":{"ward":14},"geometry":{"type":"Polygon","coordinates":[[[77.02611,13.02671],[77.02825,13.0266],[77.0281,13.02556],[77.02656,13.02565],[77.02611,13.02671]]]}},{"type":"Feature","bbox":[77.02603,13.02662,77.02825,13.03103],"properties":{"ward":15},"geometry":{"type":"Polygon","coordinates":[[[77.0272,13.03081],[77.02739,13.03048],[77.02767,13.03049],[77.02821,13.0298],[77.02825,13.02876],[77.02793,13.02873],[77.02802,13.02662],[77.02611,13.02671],[77.02603,13.02693],[77.02614,13.02849],[77.02663,13.03103],[77.0272,13.03081]]]}},{"type":"Feature","bbox":[77.0272,13.02696,77.03015,13.03098],"properties":{"ward":16},"geometry":{"type":"Polygon","coordinates":[[[77.03015,13.02867],[77.02971,13.02838],[77.02907,13.02824],[77.02929,13.02722],[77.02889,13.02703],[77.02803,13.02696],[77.02793,13.02873],[77.02825,13.02876],[77.02821,13.0298],[77.02767,13.03049],[77.02739,13.03048],[77.0272,13.03081],[77.02767,13.03098],[77.02932,13.0297],[77.02969,13.02892],[77.03015,13.02867]]]}},{"type":"Feature","bbox":[77.02802,13.02548,77.03442,13.02867],"properties":{"ward":17},"geometry":{"type":"Polygon","coordinates":[[[77.03442,13.02588],[77.03153,13.02548],[77.0281,13.02556],[77.02825,13.0266],[77.02802,13.02662],[77.02803,13.02696],[77.02889,13.02703],[77.02929,13.02722],[77.02907,13.02824],[77.02971,13.02838],[77.03015,13.02867],[77.0305,13.02856],[77.03068,13.02827],[77.03094,13.02839],[77.03175,13.02828],[77.03194,13.0273],[77.03334,13.02616],[77.03333,13.02581],[77.03442,13.02588]]]}},{"type":"Feature","bbox":[77.03408,13.0258,77.04163,13.03338],"properties":{"ward":18},"geometry":{"type":"Polygon","coordinates":[[[77.03843,13.03324],[77.0385,13.03212],[77.04127,13.02806],[77.04163,13.02682],[77.0401,13.02664],[77.03858,13.02616],[77.0369,13.02588],[77.03443,13.0258],[77.03425,13.0261],[77.03447,13.02634],[77.03567,13.0265],[77.03575,13.0272],[77.03543,13.02719],[77.03454,13.02839],[77.0344,13.02835],[77.03439,13.02997],[77.03418,13.03042],[77.03408,13.03153],[77.03421,13.0318],[77.03441,13.0321],[77.0364,13.03324],[77.03686,13.03338],[77.03843,13.03324]]]}},{"type":"Feature","bbox":[77.01835,13.01764,77.0212,13.02347],"properties":{"ward":19},"geometry":{"type":"Polygon","coordinates":[[[77.02037,13.01771],[77.01931,13.01764],[77.01915,13.01916],[77.01878,13.01916],[77.01859,13.0198],[77.01865,13.02123],[77.01854,13.02123],[77.01835,13.02221],[77.02063,13.02347],[77.0212,13.02157],[77.02087,13.01902],[77.02037,13.01836],[77.02037,13.01771]]]}},{"type":"Feature","bbox":[77.0173,13.01618,77.02051,13.02221],"properties":{"ward":20},"geometry":{"type":"Polygon","coordinates":[[[77.02037,13.01771],[77.02051,13.01698],[77.01927,13.01648],[77.01871,13.01638],[77.01866,13.01654],[77.01782,13.01618],[77.0173,13.02174],[77.01835,13.02221],[77.01854,13.02123],[77.01865,13.02123],[77.01859,13.0198],[77.01878,13.01916],[77.01915,13.01916],[77.01931,13.01764],[77.02037,13.01771]]]}},{"type":"Feature","bbox":[77.01412,13.01389,77.01782,13.02174],"properties":{"ward":21},"geometry":{"type":"Polygon","coordinates":[[[77.01782,13.01618],[77.01705,13.01562],[77.01561,13.01497],[77.01498,13.01389],[77.01448,13.01548],[77.01455,13.01697],[77.01412,13.02035],[77.0173,13.02174],[77.01782,13.01618]]]}},{"type":"Feature","bbox":[77.0071,13.01077,77.01498,13.02035],"properties":{"ward":22},"geometry":{"type":"Polygon","coordinates":[[[77.01498,13.01389],[77.01463,13.01344],[77.01427,13.0132],[77.01409,13.01325],[77.01323,13.01261],[77.01165,13.01224],[77.0112,13.01173],[77.00867,13.01077],[77.00841,13.01207],[77.00822,13.01562],[77.0071,13.0179],[77.01055,13.0193],[77.01412,13.02035],[77.01455,13.01697],[77.01448,13.01548],[77.01498,13.01389]]]}},{"type":"Feature","bbox":[77.00521,13.01755,77.02063,13.02461],"properties":{"ward":23},"geometry":{"type":"Polygon","coordinates":[[[77.01849,13.02447],[77.01972,13.02443],[77.02032,13.02403],[77.02063,13.02347],[77.01853,13.02229],[77.01345,13.02006],[77.01117,13.01951],[77.00814,13.01825],[77.00564,13.01755],[77.00552,13.0179],[77.00564,13.01807],[77.00521,13.0196],[77.00531,13.0207],[77.00566,13.02165],[77.00637,13.02211],[77.00627,13.02236],[77.00707,13.02302],[77.00829,13.02297],[77.01055,13.02233],[77.01169,13.02232],[77.01383,13.0229],[77.01437,13.02422],[77.01489,13.02461],[77.01678,13.02456],[77.01806,13.02403],[77.01849,13.02447]]]}}]}