{"type":"FeatureCollection","features":[{"type":"Feature","bbox":[75.85291,12.59532,75.85604,12.60085],"properties":{"ward":1},"geometry":{"type":"Polygon","coordinates":[[[75.85584,12.59567],[75.85549,12.59532],[75.85529,12.59576],[75.85487,12.59552],[75.85489,12.59583],[75.85459,12.5956],[75.8548,12.59629],[75.85443,12.5966],[75.85451,12.5972],[75.85404,12.5979],[75.85396,12.59857],[75.85375,12.59871],[75.85369,12.59909],[75.85349,12.59906],[75.85338,12.59937],[75.85327,12.59932],[75.85311,12.59974],[75.85325,12.59981],[75.85322,12.60013],[75.85298,12.60016],[75.85291,12.60053],[75.85326,12.60085],[75.85439,12.59947],[75.85452,12.5995],[75.85455,12.59895],[75.85504,12.59908],[75.85536,12.59729],[75.85604,12.59622],[75.85566,12.59585],[75.85584,12.59567]]]}},{"type":"Feature","bbox":[75.85487,12.59432,75.85893,12.59632],"properties":{"ward":2},"geometry":{"type":"Polygon","coordinates":[[[75.85858,12.59453],[75.85677,12.59437],[75.85665,12.59458],[75.85615,12.59432],[75.85567,12.59493],[75.85515,12.59476],[75.85487,12.59552],[75.85529,12.59576],[75.85549,12.59532],[75.85635,12.59543],[75.8566,12.59513],[75.85692,12.59508],[75.85804,12.59547],[75.85811,12.59563],[75.85781,12.59609],[75.85815,12.59632],[75.85893,12.5955],[75.85864,12.59521],[75.85885,12.59469],[75.85857,12.59464],[75.85858,12.59453]]]}},{"type":"Feature","bbox":[75.85482,12.58872,75.85934,12.59493],"properties":{"ward":3},"geometry":{"type":"Polygon","coordinates":[[[75.85698,12.59446],[75.85745,12.59316],[75.85716,12.59301],[75.85727,12.59276],[75.85708,12.59266],[75.85805,12.59162],[75.85821,12.59079],[75.85873,12.59091],[75.85878,12.59066],[75.85836,12.59052],[75.8584,12.59004],[75.85868,12.58962],[75.85886,12.58965],[75.85872,12.58952],[75.85934,12.58872],[75.85708,12.58951],[75.85661,12.58946],[75.85661,12.5897],[75.85759,12.58979],[75.85804,12.59018],[75.85778,12.5903],[75.85781,12.59067],[75.85763,12.591],[75.85696,12.59137],[75.85647,12.59095],[75.85602,12.59104],[75.856,12.59124],[75.85632,12.59127],[75.85718,12.59206],[75.85692,12.59248],[75.85642,12.5923],[75.85609,12.59311],[75.85573,12.59297],[75.85564,12.59357],[75.855,12.59346],[75.85497,12.59382],[75.85482,12.59382],[75.85499,12.59451],[75.85522,12.59453],[75.85515,12.59476],[75.85567,12.59493],[75.85615,12.59432],[75.85665,12.59458],[75.85677,12.59437],[75.85698,12.59446]]]}},{"type":"Feature","bbox":[75.85023,12.59187,75.85494,12.59816],"properties":{"ward":4},"geometry":{"type":"Polygon","coordinates":[[[75.85404,12.5979],[75.85451,12.5972],[75.85443,12.5966],[75.8548,12.59629],[75.85459,12.5956],[75.85489,12.59583],[75.85494,12.59569],[75.85422,12.59527],[75.85386,12.59555],[75.85434,12.5962],[75.854,12.59639],[75.85389,12.5962],[75.85365,12.59632],[75.85338,12.59574],[75.85264,12.59573],[75.85256,12.59598],[75.85322,12.5967],[75.85287,12.59705],[75.8524,12.59684],[75.85244,12.59671],[75.85213,12.59648],[75.85201,12.59519],[75.85305,12.59233],[75.85238,12.59187],[75.85064,12.59203],[75.85023,12.59284],[75.85077,12.59298],[75.85062,12.59349],[75.85103,12.59356],[75.85094,12.59402],[75.85079,12.59407],[75.85065,12.59524],[75.85074,12.5957],[75.85057,12.59645],[75.85074,12.59662],[75.85048,12.59687],[75.85051,12.59715],[75.85069,12.59716],[75.85068,12.59744],[75.85095,12.59758],[75.85086,12.59777],[75.85161,12.59813],[75.85207,12.59816],[75.8524,12.59769],[75.85273,12.59781],[75.85285,12.59751],[75.85404,12.5979]]]}},{"type":"Feature","bbox":[75.84947,12.59751,75.85403,12.599],"properties":{"ward":5},"geometry":{"type":"Polygon","coordinates":[[[75.85365,12.599],[75.85396,12.59857],[75.85403,12.59789],[75.85285,12.59751],[75.85273,12.59781],[75.8524,12.59769],[75.85207,12.59816],[75.85161,12.59813],[75.85086,12.59777],[75.85077,12.59794],[75.8495,12.59755],[75.84947,12.59794],[75.84988,12.59829],[75.84994,12.59819],[75.85042,12.59833],[75.85115,12.59875],[75.85365,12.599]]]}},{"type":"Feature","bbox":[75.84982,12.59845,75.8537,12.60188],"properties":{"ward":6},"geometry":{"type":"Polygon","coordinates":[[[75.85326,12.60085],[75.85291,12.60053],[75.85298,12.60016],[75.85322,12.60013],[75.85325,12.59981],[75.85311,12.59974],[75.85327,12.59932],[75.85338,12.59937],[75.85349,12.59906],[75.8537,12.59902],[75.85162,12.59885],[75.85059,12.59845],[75.85052,12.59863],[75.85071,12.59876],[75.85054,12.59929],[75.85074,12.59989],[75.85018,12.60063],[75.85001,12.60151],[75.84982,12.60176],[75.85009,12.60188],[75.85079,12.60148],[75.85082,12.60184],[75.85192,12.60175],[75.85219,12.60163],[75.85274,12.601],[75.85305,12.60136],[75.8532,12.60126],[75.85311,12.60109],[75.85326,12.60085]]]}},{"type":"Feature","bbox":[75.84894,12.59349,75.85103,12.59794],"properties":{"ward":7},"geometry":{"type":"Polygon","coordinates":[[[75.85077,12.59794],[75.85095,12.59758],[75.85068,12.59744],[75.85069,12.59716],[75.85051,12.59715],[75.85048,12.59687],[75.85074,12.59662],[75.85057,12.59645],[75.85074,12.5957],[75.85065,12.59524],[75.85079,12.59407],[75.85094,12.59402],[75.85103,12.59356],[75.85062,12.59349],[75.85039,12.59473],[75.8499,12.59482],[75.84992,12.59513],[75.84955,12.59533],[75.84904,12.59643],[75.84898,12.59696],[75.84909,12.597],[75.84894,12.5974],[75.85077,12.59794]]]}},{"type":"Feature","bbox":[75.84951,12.59284,75.85077,12.59486],"properties":{"ward":8},"geometry":{"type":"Polygon","coordinates":[[[75.85039,12.59473],[75.85077,12.59298],[75.85023,12.59284],[75.84992,12.59358],[75.84975,12.59355],[75.84951,12.59471],[75.85012,12.59486],[75.85039,12.59473]]]}},{"type":"Feature","bbox":[75.84717,12.59296,75.84992,12.5974],"properties":{"ward":9},"geometry":{"type":"Polygon","coordinates":[[[75.8499,12.59482],[75.84926,12.59458],[75.84933,12.59431],[75.84888,12.59408],[75.84873,12.59377],[75.84866,12.59349],[75.84884,12.59322],[75.84827,12.59296],[75.84786,12.59391],[75.84812,12.59407],[75.84792,12.59503],[75.84805,12.59525],[75.84717,12.59654],[75.84797,12.59687],[75.84806,12.59669],[75.84836,12.59681],[75.84844,12.59663],[75.84866,12.59672],[75.84856,12.59696],[75.84879,12.59705],[75.84894,12.5974],[75.84909,12.597],[75.849,12.59654],[75.84955,12.59533],[75.84992,12.59513],[75.8499,12.59482]]]}},{"type":"Feature","bbox":[75.84525,12.59171,75.84842,12.59654],"properties":{"ward":10},"geometry":{"type":"Polygon","coordinates":[[[75.84717,12.59654],[75.84805,12.59525],[75.84792,12.59503],[75.84812,12.59407],[75.84786,12.59391],[75.84842,12.59275],[75.84797,12.5923],[75.84776,12.59238],[75.84741,12.59172],[75.84728,12.59186],[75.84694,12.59171],[75.84652,12.59249],[75.84636,12.59246],[75.8464,12.59298],[75.846,12.59337],[75.84653,12.59368],[75.8464,12.59395],[75.84653,12.59471],[75.84644,12.59496],[75.84567,12.5951],[75.84551,12.59557],[75.84596,12.59567],[75.84572,12.59596],[75.84542,12.59586],[75.84525,12.59637],[75.84557,12.59646],[75.84647,12.59616],[75.84651,12.59641],[75.84717,12.59654]]]}},{"type":"Feature","bbox":[75.84445,12.59594,75.85071,12.60009],"properties":{"ward":11},"geometry":{"type":"Polygon","coordinates":[[[75.85055,12.59927],[75.85071,12.59876],[75.85052,12.59863],[75.85059,12.59845],[75.84994,12.59819],[75.84988,12.59829],[75.8495,12.598],[75.8495,12.59755],[75.84886,12.59738],[75.84879,12.59705],[75.84856,12.59696],[75.84866,12.59672],[75.84844,12.59663],[75.84836,12.59681],[75.84806,12.59669],[75.84797,12.59687],[75.84651,12.59641],[75.84647,12.59616],[75.84555,12.59645],[75.84525,12.59637],[75.84537,12.59602],[75.84517,12.59594],[75.84504,12.59639],[75.84523,12.59643],[75.84518,12.59656],[75.84504,12.59649],[75.84475,12.59687],[75.84493,12.59715],[75.84445,12.59732],[75.84455,12.59762],[75.84542,12.5974],[75.84594,12.59889],[75.84597,12.59989],[75.84651,12.59989],[75.84651,12.60009],[75.84731,12.59988],[75.84721,12.59934],[75.84929,12.59887],[75.85055,12.59927]]]}}]}