{"type":"FeatureCollection","features":[{"type":"Feature","bbox":[75.90186,14.47507,75.92215,14.49911],"properties":{"ward":1,"name":"Gandhi Nagara"},"geometry":{"type":"Polygon","coordinates":[[[75.92186,14.49602],[75.92126,14.49598],[75.92123,14.49543],[75.9207,14.49539],[75.9205,14.49426],[75.91851,14.49412],[75.91867,14.49395],[75.91937,14.49386],[75.91961,14.4922],[75.91934,14.4915],[75.9194,14.49105],[75.91919,14.49041],[75.91852,14.49036],[75.9182,14.48959],[75.91882,14.48783],[75.91876,14.4846],[75.91838,14.48429],[75.92021,14.48417],[75.92044,14.47951],[75.92055,14.47928],[75.92196,14.47952],[75.92215,14.4772],[75.92041,14.47703],[75.92046,14.47556],[75.91933,14.47549],[75.91933,14.47511],[75.91874,14.47507],[75.91823,14.47635],[75.91842,14.47756],[75.91659,14.47799],[75.91708,14.48085],[75.9181,14.48432],[75.91428,14.48488],[75.9084,14.48529],[75.90843,14.48554],[75.90186,14.48576],[75.90222,14.48842],[75.90219,14.48978],[75.90369,14.49774],[75.91297,14.49816],[75.91338,14.49833],[75.91483,14.49841],[75.91494,14.4986],[75.91519,14.49864],[75.91634,14.49834],[75.91672,14.49911],[75.91891,14.49837],[75.92106,14.49854],[75.92138,14.49813],[75.92189,14.49786],[75.92186,14.49602]]]}},{"type":"Feature","bbox":[75.9182,14.48412,75.92605,14.49602],"properties":{"ward":2,"name":"Ssm Nagara"},"geometry":{"type":"Polygon","coordinates":[[[75.92605,14.49231],[75.92577,14.4903],[75.92565,14.48449],[75.92273,14.48412],[75.92235,14.48726],[75.92243,14.488],[75.92175,14.48803],[75.9217,14.48783],[75.92019,14.48799],[75.92011,14.48738],[75.91875,14.48702],[75.91877,14.48824],[75.9182,14.48959],[75.91852,14.49036],[75.91919,14.49041],[75.9194,14.49105],[75.91934,14.4915],[75.91961,14.4922],[75.91937,14.49386],[75.91867,14.49395],[75.91856,14.49422],[75.9205,14.49426],[75.9207,14.49539],[75.92123,14.49543],[75.92126,14.49598],[75.92186,14.49602],[75.9229,14.49551],[75.92334,14.49371],[75.92368,14.49336],[75.92501,14.49285],[75.92567,14.49231],[75.92605,14.49231]]]}},{"type":"Feature","bbox":[75.92293,14.47917,75.93007,14.49231],"properties":{"ward":3,"name":"Siddarameshwara Badavane"},"geometry":{"type":"Polygon","coordinates":[[[75.93007,14.48166],[75.92853,14.48152],[75.92852,14.47955],[75.92457,14.47917],[75.92459,14.48005],[75.92306,14.47986],[75.92293,14.48137],[75.92561,14.48157],[75.92571,14.48899],[75.92605,14.49231],[75.92706,14.49231],[75.9281,14.49161],[75.92835,14.48996],[75.92823,14.48885],[75.92765,14.48651],[75.92787,14.48517],[75.92812,14.48454],[75.92947,14.48306],[75.93007,14.48166]]]}},{"type":"Feature","bbox":[75.91838,14.47974,75.92565,14.48803],"properties":{"ward":4,"name":"Basha Nagara"},"geometry":{"type":"Polygon","coordinates":[[[75.92565,14.48449],[75.92561,14.48157],[75.92293,14.48137],[75.92302,14.48022],[75.92042,14.47974],[75.92021,14.48417],[75.91838,14.48429],[75.91876,14.4846],[75.91875,14.48702],[75.92011,14.48738],[75.92019,14.48799],[75.9217,14.48783],[75.92175,14.48803],[75.92243,14.488],[75.92235,14.48726],[75.92273,14.48412],[75.92565,14.48449]]]}},{"type":"Feature","bbox":[75.90688,14.47777,75.9181,14.48529],"properties":{"ward":5,"name":"Jag Jeevan Ram Nagara"},"geometry":{"type":"Polygon","coordinates":[[[75.91679,14.47911],[75.91513,14.47826],[75.91543,14.47989],[75.91094,14.48073],[75.91002,14.47777],[75.90688,14.4795],[75.90782,14.48147],[75.9084,14.48529],[75.91428,14.48488],[75.9181,14.48432],[75.91741,14.48222],[75.91679,14.47911]]]}},{"type":"Feature","bbox":[75.91002,14.4748,75.91874,14.48073],"properties":{"ward":6,"name":"Kurubara Beedi"},"geometry":{"type":"Polygon","coordinates":[[[75.91679,14.47911],[75.91659,14.47799],[75.91842,14.47756],[75.91823,14.47635],[75.91874,14.47507],[75.91706,14.47497],[75.91704,14.4748],[75.91536,14.47504],[75.91592,14.4769],[75.91196,14.47778],[75.91182,14.47677],[75.91002,14.47777],[75.91094,14.48073],[75.91543,14.47989],[75.91513,14.47826],[75.91679,14.47911]]]}},{"type":"Feature","bbox":[75.90436,14.47,75.91406,14.4795],"properties":{"ward":7,"name":"Jaali Nagara"},"geometry":{"type":"Polygon","coordinates":[[[75.9097,14.47795],[75.90953,14.47753],[75.90987,14.47485],[75.91071,14.47496],[75.91167,14.47486],[75.91102,14.4727],[75.91235,14.47236],[75.91237,14.47201],[75.91406,14.47171],[75.91353,14.47114],[75.91297,14.47],[75.90436,14.47424],[75.90467,14.47556],[75.90688,14.4795],[75.9097,14.47795]]]}},{"type":"Feature","bbox":[75.90953,14.47172,75.91571,14.47795],"properties":{"ward":8,"name":"Suresh Nagara"},"geometry":{"type":"Polygon","coordinates":[[[75.9097,14.47795],[75.91182,14.47677],[75.91196,14.47778],[75.91492,14.47713],[75.91421,14.4748],[75.91521,14.47454],[75.91571,14.47325],[75.91452,14.47421],[75.91404,14.47172],[75.91237,14.47201],[75.91235,14.47236],[75.91102,14.4727],[75.91167,14.47486],[75.91071,14.47496],[75.90987,14.47485],[75.90953,14.47753],[75.9097,14.47795]]]}},{"type":"Feature","bbox":[75.92042,14.4772,75.9256,14.48022],"properties":{"ward":9,"name":"Azad Nagara"},"geometry":{"type":"Polygon","coordinates":[[[75.9256,14.47922],[75.92558,14.4776],[75.92215,14.4772],[75.92196,14.47952],[75.92055,14.47928],[75.92042,14.47974],[75.92302,14.48022],[75.92306,14.47986],[75.92459,14.48005],[75.92457,14.47917],[75.9256,14.47922]]]}},{"type":"Feature","bbox":[75.91404,14.47129,75.91933,14.47713],"properties":{"ward":10,"name":"Ganesh Pete"},"geometry":{"type":"Polygon","coordinates":[[[75.91706,14.47497],[75.91933,14.47511],[75.91914,14.47229],[75.91645,14.47225],[75.91598,14.47257],[75.91568,14.47254],[75.91561,14.47129],[75.91506,14.47156],[75.91404,14.47172],[75.91452,14.47421],[75.91571,14.47325],[75.91521,14.47454],[75.91421,14.4748],[75.91492,14.47713],[75.91592,14.4769],[75.91536,14.47504],[75.91704,14.4748],[75.91706,14.47497]]]}},{"type":"Feature","bbox":[75.91923,14.47229,75.92874,14.47825],"properties":{"ward":11,"name":"Basavaraja Pete"},"geometry":{"type":"Polygon","coordinates":[[[75.92874,14.47643],[75.92561,14.4761],[75.92555,14.47468],[75.92052,14.47412],[75.92095,14.47236],[75.91959,14.47229],[75.9195,14.47321],[75.91923,14.47324],[75.91933,14.47549],[75.92545,14.47602],[75.92559,14.47637],[75.92832,14.47825],[75.92874,14.47643]]]}},{"type":"Feature","bbox":[75.92041,14.47556,75.92559,14.4776],"properties":{"ward":12,"name":"Ahmed Nagara"},"geometry":{"type":"Polygon","coordinates":[[[75.92559,14.47637],[75.92545,14.47602],[75.92046,14.47556],[75.92041,14.47703],[75.92558,14.4776],[75.92559,14.47637]]]}},{"type":"Feature","bbox":[75.92559,14.47637,75.93109,14.48166],"properties":{"ward":13,"name":"Karl Marx Nagara"},"geometry":{"type":"Polygon","coordinates":[[[75.93102,14.47979],[75.92832,14.47825],[75.92559,14.47637],[75.9256,14.47922],[75.92852,14.47955],[75.92853,14.48152],[75.93007,14.48166],[75.93038,14.4808],[75.93109,14.48001],[75.93102,14.47979]]]}},{"type":"Feature","bbox":[75.92052,14.47236,75.92944,14.47643],"properties":{"ward":14,"name":"Chamaraja Pete"},"geometry":{"type":"Polygon","coordinates":[[[75.92944,14.47343],[75.92549,14.47292],[75.92547,14.47278],[75.92095,14.47236],[75.92052,14.47412],[75.92555,14.47468],[75.92561,14.4761],[75.92874,14.47643],[75.92944,14.47343]]]}},{"type":"Feature","bbox":[75.884,14.46557,75.91297,14.4838],"properties":{"ward":15,"name":"Devraj Urs Badavane"},"geometry":{"type":"Polygon","coordinates":[[[75.8849,14.4838],[75.91297,14.47],[75.91264,14.46827],[75.90966,14.46885],[75.90887,14.46614],[75.90499,14.46562],[75.90269,14.46557],[75.90379,14.47018],[75.88586,14.47409],[75.884,14.47462],[75.88473,14.47971],[75.8849,14.4838]]]}},{"type":"Feature","bbox":[75.90887,14.46262,75.91228,14.46885],"properties":{"ward":16,"name":"Vinoba Nagara"},"geometry":{"type":"Polygon","coordinates":[[[75.91228,14.46834],[75.91089,14.4632],[75.91094,14.46262],[75.90981,14.46281],[75.90991,14.46327],[75.90906,14.46337],[75.90975,14.46589],[75.90887,14.46614],[75.90966,14.46885],[75.91228,14.46834]]]}},{"type":"Feature","bbox":[75.91089,14.46155,75.92111,14.47],"properties":{"ward":17,"name":"P J Badavane"},"geometry":{"type":"Polygon","coordinates":[[[75.92111,14.4679],[75.92107,14.46709],[75.91902,14.46716],[75.91994,14.46369],[75.91788,14.4632],[75.91794,14.46289],[75.91252,14.46155],[75.91219,14.46291],[75.91094,14.46262],[75.91089,14.4632],[75.91194,14.46715],[75.91228,14.46834],[75.91264,14.46827],[75.91297,14.47],[75.91489,14.46935],[75.92111,14.4679]]]}},{"type":"Feature","bbox":[75.91297,14.4679,75.92113,14.47257],"properties":{"ward":18,"name":"Kayi Pete"},"geometry":{"type":"Polygon","coordinates":[[[75.91914,14.47229],[75.91916,14.47065],[75.91956,14.47005],[75.92113,14.46855],[75.92111,14.4679],[75.91489,14.46935],[75.91297,14.47],[75.91353,14.47114],[75.91406,14.47171],[75.91506,14.47156],[75.91561,14.47129],[75.91568,14.47254],[75.91598,14.47257],[75.91645,14.47225],[75.91914,14.47229]]]}},{"type":"Feature","bbox":[75.91916,14.46364,75.93185,14.47343],"properties":{"ward":19,"name":"Mandi Pete"},"geometry":{"type":"Polygon","coordinates":[[[75.93037,14.46956],[75.93185,14.46496],[75.93168,14.46488],[75.93147,14.46364],[75.92985,14.46517],[75.92816,14.46612],[75.92111,14.4679],[75.92113,14.46855],[75.91956,14.47005],[75.91916,14.47065],[75.91923,14.47324],[75.9195,14.47321],[75.91959,14.47229],[75.92032,14.47228],[75.92547,14.47278],[75.92549,14.47292],[75.92944,14.47343],[75.93037,14.46956]]]}},{"type":"Feature","bbox":[75.93073,14.46505,75.93836,14.47159],"properties":{"ward":20,"name":"Bharath Colony"},"geometry":{"type":"Polygon","coordinates":[[[75.93785,14.46525],[75.93512,14.46542],[75.93349,14.46575],[75.93183,14.46505],[75.93118,14.46705],[75.93177,14.46716],[75.9317,14.46813],[75.93128,14.46823],[75.9312,14.46841],[75.93073,14.47136],[75.93154,14.47138],[75.93175,14.47159],[75.93494,14.47136],[75.93476,14.47082],[75.93496,14.47013],[75.93695,14.47023],[75.93705,14.4692],[75.93835,14.46931],[75.93836,14.46869],[75.93768,14.46821],[75.93808,14.46705],[75.93786,14.46628],[75.93785,14.46525]]]}},{"type":"Feature","bbox":[75.92832,14.45895,75.95935,14.47979],"properties":{"ward":21,"name":"Basavapura"},"geometry":{"type":"Polygon","coordinates":[[[75.95924,14.45895],[75.95236,14.45982],[75.95049,14.46044],[75.94584,14.46158],[75.9449,14.46145],[75.94373,14.46171],[75.94286,14.46168],[75.9395,14.46208],[75.93981,14.46257],[75.93854,14.46342],[75.93789,14.46468],[75.93786,14.46628],[75.93808,14.46705],[75.93768,14.46821],[75.93836,14.46869],[75.93835,14.46931],[75.93705,14.4692],[75.93695,14.47023],[75.93496,14.47013],[75.93476,14.47082],[75.93494,14.47136],[75.93175,14.47159],[75.93154,14.47138],[75.93073,14.47136],[75.9312,14.46841],[75.93128,14.46823],[75.9317,14.46813],[75.93177,14.46716],[75.93118,14.46705],[75.93018,14.47029],[75.92832,14.47825],[75.93102,14.47979],[75.93116,14.47845],[75.93131,14.47833],[75.93446,14.47783],[75.93465,14.4775],[75.93506,14.4774],[75.93779,14.47564],[75.93975,14.47415],[75.94009,14.47468],[75.9402,14.47527],[75.94091,14.47558],[75.94431,14.4753],[75.94648,14.4755],[75.947,14.47528],[75.95075,14.47509],[75.95123,14.47492],[75.95451,14.47468],[75.95698,14.47418],[75.95929,14.47408],[75.95903,14.4695],[75.95935,14.4689],[75.95918,14.46585],[75.95924,14.45895]]]}},{"type":"Feature","bbox":[75.9026,14.46345,75.90975,14.46614],"properties":{"ward":22,"name":"Yellamma Nagara"},"geometry":{"type":"Polygon","coordinates":[[[75.90916,14.4637],[75.90532,14.46345],[75.9026,14.46347],[75.90269,14.46557],[75.90499,14.46562],[75.90887,14.46614],[75.90975,14.46589],[75.90916,14.4637]]]}},{"type":"Feature","bbox":[75.89441,14.44485,75.91005,14.4637],"properties":{"ward":23,"name":"Nijalingappa Badavane"},"geometry":{"type":"Polygon","coordinates":[[[75.90991,14.46327],[75.90968,14.46233],[75.91005,14.46093],[75.90865,14.46056],[75.90937,14.45768],[75.90831,14.45742],[75.90827,14.45653],[75.90705,14.45669],[75.90554,14.45476],[75.89991,14.44485],[75.8994,14.44607],[75.89945,14.44727],[75.89723,14.44741],[75.89705,14.45452],[75.89553,14.45516],[75.89441,14.45647],[75.89639,14.45663],[75.90226,14.45615],[75.9026,14.46347],[75.90532,14.46345],[75.90916,14.4637],[75.90906,14.46337],[75.90991,14.46327]]]}},{"type":"Feature","bbox":[75.90827,14.45268,75.92049,14.46369],"properties":{"ward":24,"name":"Mcc A Block"},"geometry":{"type":"Polygon","coordinates":[[[75.92049,14.46168],[75.91983,14.45927],[75.91983,14.45813],[75.92012,14.45666],[75.91997,14.45383],[75.91564,14.45268],[75.91425,14.45776],[75.90875,14.45642],[75.90827,14.45653],[75.90831,14.45742],[75.90937,14.45768],[75.90865,14.46056],[75.91005,14.46093],[75.90968,14.46233],[75.90981,14.46281],[75.91068,14.46258],[75.91219,14.46291],[75.91252,14.46155],[75.91794,14.46289],[75.91788,14.4632],[75.91994,14.46369],[75.92049,14.46168]]]}},{"type":"Feature","bbox":[75.91902,14.44966,75.93924,14.46788],"properties":{"ward":25,"name":"K B Badavane"},"geometry":{"type":"Polygon","coordinates":[[[75.93057,14.46459],[75.93466,14.45948],[75.93924,14.45047],[75.93755,14.44966],[75.93626,14.4498],[75.93538,14.45022],[75.93507,14.45166],[75.93329,14.45168],[75.93411,14.45263],[75.93398,14.45326],[75.93407,14.45484],[75.93221,14.45476],[75.93221,14.45437],[75.92909,14.45439],[75.92923,14.45703],[75.92991,14.45827],[75.92843,14.4581],[75.92828,14.45927],[75.92764,14.4593],[75.9275,14.45908],[75.9265,14.45902],[75.9265,14.46149],[75.9236,14.46147],[75.92049,14.46168],[75.91902,14.46716],[75.92107,14.46709],[75.92121,14.46788],[75.92719,14.46647],[75.92915,14.46564],[75.93057,14.46459]]]}},{"type":"Feature","bbox":[75.91983,14.45883,75.92656,14.46168],"properties":{"ward":26,"name":"Ktj Nagara Ii"},"geometry":{"type":"Polygon","coordinates":[[[75.92656,14.46052],[75.92348,14.46047],[75.92421,14.45883],[75.91983,14.45904],[75.91994,14.46004],[75.92049,14.46168],[75.9236,14.46147],[75.9265,14.46149],[75.92656,14.46052]]]}},{"type":"Feature","bbox":[75.91983,14.45617,75.92475,14.45904],"properties":{"ward":27,"name":"Ktj Nagara I"},"geometry":{"type":"Polygon","coordinates":[[[75.92421,14.45883],[75.92475,14.45617],[75.92168,14.45635],[75.92169,14.4567],[75.92011,14.45677],[75.91983,14.45813],[75.91983,14.45904],[75.92421,14.45883]]]}},{"type":"Feature","bbox":[75.92348,14.45179,75.92991,14.46052],"properties":{"ward":28,"name":"Bhagath Singh Nagara"},"geometry":{"type":"Polygon","coordinates":[[[75.92923,14.45703],[75.92901,14.45179],[75.92795,14.45266],[75.92507,14.45452],[75.92427,14.45872],[75.92348,14.46047],[75.92645,14.46052],[75.9265,14.45902],[75.9275,14.45908],[75.92764,14.4593],[75.92828,14.45927],[75.92843,14.4581],[75.92991,14.45827],[75.92923,14.45703]]]}},{"type":"Feature","bbox":[75.929,14.45106,75.93411,14.45484],"properties":{"ward":29,"name":"Nituvalli"},"geometry":{"type":"Polygon","coordinates":[[[75.93411,14.45263],[75.93285,14.45106],[75.93197,14.45137],[75.93125,14.45136],[75.93118,14.45165],[75.92992,14.45245],[75.929,14.45252],[75.92909,14.45439],[75.93221,14.45437],[75.93221,14.45476],[75.93407,14.45484],[75.93398,14.45326],[75.93411,14.45263]]]}},{"type":"Feature","bbox":[75.93147,14.43025,75.97926,14.46575],"properties":{"ward":30,"name":"Avaragere"},"geometry":{"type":"Polygon","coordinates":[[[75.93785,14.46525],[75.93801,14.46423],[75.93825,14.4638],[75.93854,14.46342],[75.93981,14.46257],[75.9395,14.46208],[75.9398,14.46203],[75.94286,14.46168],[75.94373,14.46171],[75.94509,14.46143],[75.94584,14.46158],[75.95049,14.46044],[75.95236,14.45982],[75.95826,14.45901],[75.97178,14.45876],[75.97683,14.45831],[75.97771,14.45512],[75.97839,14.45116],[75.97819,14.45011],[75.97823,14.44835],[75.97926,14.44455],[75.97421,14.44307],[75.97199,14.44087],[75.96904,14.43729],[75.9677,14.43202],[75.96708,14.43025],[75.96082,14.43449],[75.95671,14.43755],[75.95504,14.43826],[75.95332,14.43818],[75.94667,14.43567],[75.93502,14.45887],[75.93422,14.46016],[75.93147,14.46364],[75.93183,14.46505],[75.93349,14.46575],[75.93512,14.46542],[75.93785,14.46525]]]}},{"type":"Feature","bbox":[75.94024,14.41941,75.96708,14.43826],"properties":{"ward":31,"name":"Sog Colony"},"geometry":{"type":"Polygon","coordinates":[[[75.96708,14.43025],[75.96621,14.42807],[75.96541,14.42664],[75.96293,14.4262],[75.96142,14.42573],[75.95878,14.42462],[75.95765,14.42433],[75.95763,14.42417],[75.9567,14.42399],[75.95664,14.42382],[75.95546,14.42329],[75.95171,14.42194],[75.95168,14.42174],[75.95007,14.42113],[75.94623,14.42005],[75.94348,14.41948],[75.9411,14.41941],[75.94126,14.41991],[75.94105,14.42283],[75.94063,14.42617],[75.94026,14.42678],[75.94024,14.42798],[75.94075,14.43358],[75.95332,14.43818],[75.95504,14.43826],[75.95671,14.43755],[75.96082,14.43449],[75.96708,14.43025]]]}},{"type":"Feature","bbox":[75.929,14.43353,75.94667,14.45252],"properties":{"ward":32,"name":"Chikkanahalli Badavane"},"geometry":{"type":"Polygon","coordinates":[[[75.93329,14.45168],[75.93507,14.45166],[75.93538,14.45022],[75.93626,14.4498],[75.93755,14.44966],[75.93924,14.45047],[75.94667,14.43567],[75.94059,14.43353],[75.93997,14.43645],[75.9391,14.43843],[75.93671,14.44128],[75.93314,14.44374],[75.9331,14.44402],[75.93359,14.44579],[75.9331,14.4479],[75.9329,14.44821],[75.93236,14.4486],[75.93052,14.4487],[75.92937,14.4491],[75.92958,14.45081],[75.92901,14.45179],[75.929,14.45252],[75.92992,14.45245],[75.93118,14.45165],[75.93125,14.45136],[75.93197,14.45137],[75.93285,14.45106],[75.93329,14.45168]]]}},{"type":"Feature","bbox":[75.92168,14.42961,75.94059,14.4491],"properties":{"ward":33,"name":"Saraswathi Badavane"},"geometry":{"type":"Polygon","coordinates":[[[75.94059,14.43353],[75.93086,14.43013],[75.92872,14.42961],[75.92638,14.42961],[75.92168,14.43151],[75.92242,14.43201],[75.92319,14.43292],[75.92311,14.43402],[75.92679,14.43741],[75.92774,14.44154],[75.9282,14.44267],[75.92862,14.44549],[75.92936,14.44843],[75.92937,14.4491],[75.93052,14.4487],[75.93236,14.4486],[75.9329,14.44821],[75.9331,14.4479],[75.93359,14.44579],[75.9331,14.44402],[75.93314,14.44374],[75.93671,14.44128],[75.9391,14.43843],[75.93997,14.43645],[75.94059,14.43353]]]}},{"type":"Feature","bbox":[75.92133,14.43402,75.92934,14.4486],"properties":{"ward":34,"name":"Shivakumara Swamy Badavane"},"geometry":{"type":"Polygon","coordinates":[[[75.92934,14.44835],[75.92862,14.44549],[75.9282,14.44267],[75.92774,14.44154],[75.92679,14.43741],[75.92311,14.43402],[75.92257,14.43643],[75.92312,14.43902],[75.92133,14.44449],[75.92196,14.44465],[75.92423,14.44467],[75.9246,14.44486],[75.92463,14.44524],[75.92571,14.44514],[75.92621,14.44832],[75.92702,14.4486],[75.92934,14.44835]]]}},{"type":"Feature","bbox":[75.92447,14.44965,75.92959,14.45452],"properties":{"ward":35,"name":"Nituvalli Hosa Badavane"},"geometry":{"type":"Polygon","coordinates":[[[75.92901,14.45179],[75.92959,14.45066],[75.92939,14.44995],[75.92858,14.44965],[75.92797,14.44972],[75.92672,14.45021],[75.92447,14.45036],[75.92507,14.45452],[75.92795,14.45266],[75.92901,14.45179]]]}},{"type":"Feature","bbox":[75.92012,14.44449,75.92939,14.45111],"properties":{"ward":36,"name":"Lenin Nagara"},"geometry":{"type":"Polygon","coordinates":[[[75.92346,14.4504],[75.92672,14.45021],[75.92825,14.44964],[75.92939,14.44995],[75.92934,14.44835],[75.92702,14.4486],[75.92621,14.44832],[75.92571,14.44514],[75.92463,14.44524],[75.9246,14.44486],[75.92423,14.44467],[75.92196,14.44465],[75.92133,14.44449],[75.92012,14.44765],[75.92032,14.45111],[75.92171,14.45093],[75.92346,14.4504]]]}},{"type":"Feature","bbox":[75.91995,14.45036,75.92507,14.45677],"properties":{"ward":37,"name":"Keb Colony"},"geometry":{"type":"Polygon","coordinates":[[[75.92475,14.45617],[75.92507,14.45452],[75.92447,14.45036],[75.92346,14.4504],[75.92171,14.45093],[75.92032,14.45111],[75.91995,14.45399],[75.92011,14.45677],[75.92169,14.4567],[75.92168,14.45635],[75.92475,14.45617]]]}},{"type":"Feature","bbox":[75.90842,14.44368,75.92079,14.45776],"properties":{"ward":38,"name":"Mcc B Block"},"geometry":{"type":"Polygon","coordinates":[[[75.91997,14.45383],[75.92036,14.4504],[75.92015,14.44948],[75.92012,14.44765],[75.92079,14.44583],[75.91873,14.44536],[75.91736,14.44464],[75.91595,14.44458],[75.91598,14.44393],[75.91388,14.44368],[75.91422,14.44525],[75.91408,14.44821],[75.91141,14.44854],[75.91134,14.44892],[75.90842,14.44928],[75.90924,14.45176],[75.9093,14.45399],[75.90892,14.4554],[75.90909,14.4565],[75.91425,14.45776],[75.91564,14.45268],[75.91997,14.45383]]]}},{"type":"Feature","bbox":[75.91561,14.43151,75.92327,14.44583],"properties":{"ward":39,"name":"Vidya Nagara"},"geometry":{"type":"Polygon","coordinates":[[[75.92079,14.44583],[75.92312,14.43902],[75.92257,14.43643],[75.92327,14.43319],[75.9229,14.4325],[75.92168,14.43151],[75.91677,14.43366],[75.91715,14.43592],[75.91615,14.43774],[75.91561,14.44039],[75.91599,14.44085],[75.91656,14.44091],[75.91632,14.44397],[75.91598,14.44393],[75.91595,14.44458],[75.91736,14.44464],[75.91873,14.44536],[75.92079,14.44583]]]}},{"type":"Feature","bbox":[75.90159,14.43366,75.91715,14.44928],"properties":{"ward":40,"name":"Anjaneya Badavane"},"geometry":{"type":"Polygon","coordinates":[[[75.91388,14.44368],[75.91632,14.44397],[75.91656,14.44091],[75.91599,14.44085],[75.91561,14.44039],[75.91615,14.43774],[75.91715,14.43592],[75.91677,14.43366],[75.90159,14.44027],[75.90186,14.44068],[75.90282,14.44131],[75.90367,14.44243],[75.90453,14.44311],[75.90537,14.44407],[75.90549,14.4452],[75.9057,14.44558],[75.90842,14.44928],[75.91134,14.44892],[75.91141,14.44854],[75.91408,14.44821],[75.91422,14.44525],[75.91388,14.44368]]]}},{"type":"Feature","bbox":[75.89776,14.41889,75.94126,14.44052],"properties":{"ward":41,"name":"Banashankari Badavane"},"geometry":{"type":"Polygon","coordinates":[[[75.90101,14.44052],[75.92297,14.43093],[75.92638,14.42961],[75.92872,14.42961],[75.93086,14.43013],[75.94075,14.43358],[75.94024,14.42798],[75.94026,14.42678],[75.94063,14.42617],[75.94105,14.42283],[75.94126,14.41991],[75.94112,14.41953],[75.93944,14.41916],[75.93681,14.41935],[75.9367,14.41889],[75.93448,14.42001],[75.92878,14.42003],[75.92868,14.4198],[75.92663,14.42041],[75.92683,14.42454],[75.92315,14.42461],[75.92343,14.42673],[75.91976,14.42803],[75.91971,14.4282],[75.9177,14.42843],[75.91584,14.42812],[75.91583,14.42795],[75.91162,14.42741],[75.90954,14.42707],[75.90893,14.42683],[75.90537,14.42646],[75.89824,14.42605],[75.89834,14.42889],[75.89776,14.43003],[75.8985,14.43523],[75.89904,14.43718],[75.9001,14.43639],[75.90103,14.43888],[75.90079,14.43898],[75.90092,14.43929],[75.90113,14.43921],[75.90129,14.43952],[75.90107,14.43965],[75.90101,14.44052]]]}},{"type":"Feature","bbox":[75.89941,14.44027,75.9093,14.45669],"properties":{"ward":42,"name":"Siddaveerappa Badavane"},"geometry":{"type":"Polygon","coordinates":[[[75.90705,14.45669],[75.90909,14.4565],[75.90892,14.4554],[75.9093,14.45399],[75.90924,14.45176],[75.90845,14.44932],[75.9057,14.44558],[75.90549,14.4452],[75.90537,14.44407],[75.90453,14.44311],[75.90367,14.44243],[75.90282,14.44131],[75.90186,14.44068],[75.90159,14.44027],[75.89941,14.44121],[75.89991,14.44485],[75.90467,14.45336],[75.90554,14.45476],[75.90705,14.45669]]]}},{"type":"Feature","bbox":[75.84447,14.42104,75.90129,14.46155],"properties":{"ward":43,"name":"Shamanuru"},"geometry":{"type":"Polygon","coordinates":[[[75.87877,14.4501],[75.90101,14.44052],[75.90107,14.43965],[75.90129,14.43952],[75.90113,14.43921],[75.90092,14.43929],[75.90079,14.43898],[75.90103,14.43888],[75.9001,14.43639],[75.89904,14.43718],[75.89832,14.43423],[75.89776,14.43003],[75.89834,14.42889],[75.89823,14.42605],[75.89911,14.42381],[75.89967,14.42138],[75.89839,14.42104],[75.89776,14.4214],[75.89696,14.42252],[75.8964,14.42407],[75.8961,14.42452],[75.89486,14.42482],[75.894,14.42468],[75.89276,14.42416],[75.89128,14.42438],[75.89086,14.42476],[75.89042,14.42579],[75.89141,14.42711],[75.88788,14.42844],[75.88379,14.43125],[75.88221,14.43216],[75.8822,14.43432],[75.87755,14.43756],[75.87663,14.43783],[75.87325,14.43792],[75.86656,14.43539],[75.86511,14.43508],[75.86469,14.43566],[75.86221,14.43725],[75.85018,14.4446],[75.84447,14.44828],[75.84616,14.45072],[75.84909,14.45389],[75.85133,14.45717],[75.8525,14.45934],[75.85313,14.46155],[75.87877,14.4501]]]}},{"type":"Feature","bbox":[75.85296,14.44121,75.90379,14.47462],"properties":{"ward":44,"name":"Ss Badavane"},"geometry":{"type":"Polygon","coordinates":[[[75.90269,14.46557],[75.90226,14.45615],[75.89639,14.45663],[75.89441,14.45647],[75.89553,14.45516],[75.89705,14.45452],[75.89723,14.44741],[75.89945,14.44727],[75.8994,14.44607],[75.89991,14.44485],[75.89941,14.44121],[75.87877,14.4501],[75.85313,14.46155],[75.85386,14.46327],[75.85296,14.46575],[75.86565,14.46941],[75.87012,14.47113],[75.87574,14.47276],[75.88375,14.47355],[75.884,14.47462],[75.88586,14.47409],[75.90379,14.47018],[75.90269,14.46557]]]}},{"type":"Feature","bbox":[75.8849,14.47424,75.90843,14.49944],"properties":{"ward":45,"name":"Sjm Nagar"},"geometry":{"type":"Polygon","coordinates":[[[75.90387,14.49842],[75.90219,14.48978],[75.90222,14.48842],[75.90186,14.48576],[75.90843,14.48554],[75.90769,14.48103],[75.90467,14.47556],[75.90436,14.47424],[75.8849,14.48387],[75.88519,14.48831],[75.88604,14.49164],[75.88618,14.49887],[75.88642,14.49894],[75.88741,14.49822],[75.88918,14.49752],[75.89289,14.49759],[75.89299,14.49709],[75.89582,14.4967],[75.89754,14.49666],[75.89748,14.49944],[75.90108,14.49908],[75.90099,14.49877],[75.90275,14.4984],[75.9028,14.49852],[75.90387,14.49842]]]}}]}