{"type":"FeatureCollection","features":[{"type":"Feature","bbox":[75.06668,13.91625,75.07675,13.91777],"properties":{"ward":1},"geometry":{"type":"Polygon","coordinates":[[[75.06769,13.91766],[75.06761,13.91721],[75.07002,13.91694],[75.07236,13.91706],[75.07494,13.91684],[75.07675,13.91712],[75.07665,13.91663],[75.07471,13.91625],[75.07199,13.9164],[75.07008,13.9163],[75.06749,13.91664],[75.06761,13.91718],[75.06668,13.91733],[75.06679,13.91777],[75.06769,13.91766]]]}},{"type":"Feature","bbox":[75.06265,13.91276,75.07204,13.91733],"properties":{"ward":2},"geometry":{"type":"Polygon","coordinates":[[[75.06985,13.91631],[75.07203,13.9164],[75.07204,13.91591],[75.06978,13.9157],[75.06746,13.91607],[75.06672,13.91601],[75.06668,13.91576],[75.0663,13.91555],[75.06621,13.91406],[75.06579,13.91276],[75.06437,13.91316],[75.06429,13.91284],[75.06265,13.91324],[75.06668,13.91733],[75.06761,13.91718],[75.06749,13.91664],[75.06985,13.91631]]]}},{"type":"Feature","bbox":[75.06233,13.91093,75.06571,13.91324],"properties":{"ward":3},"geometry":{"type":"Polygon","coordinates":[[[75.06437,13.91316],[75.06571,13.91277],[75.06544,13.91198],[75.06487,13.91107],[75.06451,13.91093],[75.06296,13.91121],[75.06362,13.91271],[75.06233,13.91266],[75.06265,13.91324],[75.06429,13.91284],[75.06437,13.91316]]]}},{"type":"Feature","bbox":[75.05776,13.9119,75.06432,13.91863],"properties":{"ward":4},"geometry":{"type":"Polygon","coordinates":[[[75.063,13.91842],[75.06286,13.91755],[75.06335,13.91738],[75.06345,13.91782],[75.06432,13.9175],[75.06425,13.91716],[75.06391,13.91721],[75.06362,13.91619],[75.06313,13.9163],[75.06275,13.91464],[75.06379,13.9144],[75.06249,13.91307],[75.06233,13.91266],[75.06205,13.91287],[75.06195,13.91239],[75.06122,13.91253],[75.06116,13.91229],[75.061,13.91239],[75.05986,13.9119],[75.05926,13.91369],[75.05968,13.91382],[75.061,13.91487],[75.06102,13.91506],[75.06149,13.91529],[75.06264,13.91656],[75.06206,13.91692],[75.06241,13.91743],[75.06205,13.91754],[75.05776,13.91643],[75.06117,13.91787],[75.06204,13.91863],[75.063,13.91842]]]}},{"type":"Feature","bbox":[75.06275,13.9144,75.06679,13.91866],"properties":{"ward":5},"geometry":{"type":"Polygon","coordinates":[[[75.06452,13.91847],[75.06679,13.91777],[75.06668,13.91733],[75.06379,13.9144],[75.06275,13.91464],[75.06313,13.9163],[75.06362,13.91619],[75.06391,13.91721],[75.06425,13.91716],[75.06432,13.9175],[75.06345,13.91782],[75.06335,13.91738],[75.06286,13.91755],[75.063,13.91842],[75.06353,13.91827],[75.06361,13.91866],[75.06454,13.91858],[75.06452,13.91847]]]}},{"type":"Feature","bbox":[75.04781,13.91768,75.06223,13.92209],"properties":{"ward":6},"geometry":{"type":"Polygon","coordinates":[[[75.05846,13.92154],[75.05853,13.92136],[75.05832,13.92131],[75.05812,13.92029],[75.06223,13.91867],[75.06078,13.91768],[75.06043,13.91837],[75.0611,13.91867],[75.06113,13.91905],[75.05975,13.91948],[75.05959,13.91916],[75.05918,13.91929],[75.05936,13.91966],[75.05807,13.92022],[75.05598,13.92056],[75.05289,13.92033],[75.05286,13.91977],[75.05223,13.9198],[75.0522,13.92032],[75.05181,13.92034],[75.05028,13.9199],[75.04889,13.9197],[75.04784,13.91973],[75.04781,13.92111],[75.04929,13.92143],[75.04927,13.9218],[75.04991,13.92186],[75.04997,13.9202],[75.05183,13.92055],[75.0521,13.92209],[75.05262,13.92201],[75.05286,13.92164],[75.05375,13.92144],[75.0538,13.92097],[75.05443,13.92105],[75.05529,13.92169],[75.05522,13.92136],[75.05685,13.92155],[75.05684,13.92175],[75.05846,13.92154]]]}},{"type":"Feature","bbox":[75.0581,13.91827,75.06462,13.92154],"properties":{"ward":7},"geometry":{"type":"Polygon","coordinates":[[[75.05934,13.92142],[75.05967,13.92025],[75.06176,13.9195],[75.06289,13.92023],[75.06258,13.92094],[75.06395,13.92075],[75.06367,13.91899],[75.06462,13.91898],[75.06454,13.91858],[75.06361,13.91866],[75.06353,13.91827],[75.0581,13.9203],[75.05832,13.92131],[75.05853,13.92136],[75.05846,13.92154],[75.05934,13.92142]]]}},{"type":"Feature","bbox":[75.06102,13.91898,75.06486,13.92495],"properties":{"ward":8},"geometry":{"type":"Polygon","coordinates":[[[75.06367,13.91899],[75.06395,13.92075],[75.06258,13.92094],[75.06207,13.92144],[75.06144,13.92156],[75.06102,13.9225],[75.06124,13.92302],[75.06108,13.92333],[75.06124,13.92337],[75.06131,13.92373],[75.06105,13.92387],[75.06107,13.92401],[75.0612,13.92404],[75.06129,13.92466],[75.06176,13.9249],[75.06214,13.92441],[75.06265,13.92426],[75.06348,13.92451],[75.06391,13.92492],[75.06412,13.92495],[75.06445,13.92462],[75.06471,13.92464],[75.06418,13.92355],[75.06446,13.92269],[75.06433,13.92076],[75.06486,13.92065],[75.06462,13.91898],[75.06367,13.91899]]]}},{"type":"Feature","bbox":[75.06418,13.91762,75.06934,13.92444],"properties":{"ward":9},"geometry":{"type":"Polygon","coordinates":[[[75.06934,13.92],[75.06843,13.91845],[75.0682,13.91762],[75.06645,13.91784],[75.06452,13.91847],[75.06486,13.92065],[75.06433,13.92076],[75.06446,13.92269],[75.06418,13.92355],[75.06458,13.92444],[75.06447,13.92403],[75.06503,13.92206],[75.06558,13.92084],[75.06576,13.91936],[75.06569,13.91861],[75.06596,13.91835],[75.06674,13.91843],[75.06703,13.91878],[75.0673,13.92024],[75.06703,13.92021],[75.06681,13.92044],[75.06934,13.92]]]}},{"type":"Feature","bbox":[75.06761,13.91686,75.07823,13.91937],"properties":{"ward":10},"geometry":{"type":"Polygon","coordinates":[[[75.07266,13.91853],[75.07518,13.91819],[75.07522,13.91838],[75.07573,13.91844],[75.07583,13.91882],[75.07614,13.91874],[75.07656,13.91937],[75.07691,13.9191],[75.07754,13.91917],[75.07756,13.91934],[75.07823,13.91901],[75.07791,13.91838],[75.07675,13.91717],[75.07521,13.91686],[75.07236,13.91706],[75.07002,13.91694],[75.06761,13.91721],[75.06769,13.91766],[75.06962,13.91751],[75.07253,13.9177],[75.07266,13.91853]]]}},{"type":"Feature","bbox":[75.0682,13.91751,75.07646,13.92228],"properties":{"ward":11},"geometry":{"type":"Polygon","coordinates":[[[75.0747,13.92228],[75.07417,13.92096],[75.07388,13.921],[75.07364,13.9207],[75.07371,13.91937],[75.07345,13.9189],[75.07349,13.91851],[75.07425,13.91839],[75.07451,13.91905],[75.07465,13.92054],[75.07515,13.92177],[75.07564,13.9215],[75.07558,13.92084],[75.07601,13.92071],[75.0759,13.9202],[75.07646,13.92],[75.07604,13.91943],[75.0756,13.91834],[75.07522,13.91838],[75.07518,13.91819],[75.07268,13.91854],[75.07253,13.9177],[75.06962,13.91751],[75.0682,13.91762],[75.06843,13.91845],[75.06934,13.92],[75.0717,13.91973],[75.07241,13.9207],[75.07369,13.92189],[75.0747,13.92228]]]}}]}