{"type":"FeatureCollection","features":[{"type":"Feature","bbox":[77.29006,14.1038,77.29558,14.10692],"properties":{"ward":1},"geometry":{"type":"Polygon","coordinates":[[[77.29425,14.10489],[77.29344,14.10533],[77.29026,14.1038],[77.29006,14.10392],[77.29132,14.10466],[77.29128,14.10531],[77.29267,14.10573],[77.29262,14.10629],[77.29316,14.10634],[77.293,14.10664],[77.29384,14.10662],[77.29472,14.10692],[77.29558,14.10551],[77.29475,14.10531],[77.29425,14.10489]]]}},{"type":"Feature","bbox":[77.28633,14.10286,77.29351,14.11551],"properties":{"ward":2},"geometry":{"type":"Polygon","coordinates":[[[77.29245,14.108],[77.29316,14.10634],[77.29262,14.10629],[77.29267,14.10573],[77.29128,14.10531],[77.29132,14.10466],[77.28833,14.10286],[77.2877,14.10439],[77.28637,14.10407],[77.28633,14.10422],[77.28687,14.10434],[77.28673,14.10587],[77.28784,14.10573],[77.28795,14.10678],[77.28785,14.10679],[77.28811,14.10802],[77.28855,14.10838],[77.28922,14.1111],[77.28921,14.11296],[77.28949,14.11371],[77.28962,14.11368],[77.28997,14.11415],[77.2899,14.11455],[77.2903,14.11551],[77.29101,14.11526],[77.29176,14.11469],[77.29172,14.11374],[77.29237,14.11264],[77.29263,14.11183],[77.29248,14.11057],[77.29344,14.11013],[77.29333,14.10865],[77.29351,14.10851],[77.29278,14.10834],[77.29245,14.108]]]}},{"type":"Feature","bbox":[77.28554,14.09986,77.29425,14.10533],"properties":{"ward":3},"geometry":{"type":"Polygon","coordinates":[[[77.29425,14.10489],[77.29401,14.10325],[77.29355,14.10298],[77.29361,14.10213],[77.29309,14.10142],[77.29227,14.10108],[77.29155,14.10114],[77.28971,14.10054],[77.28589,14.09986],[77.28554,14.10225],[77.28793,14.10266],[77.29006,14.10392],[77.29026,14.1038],[77.29344,14.10533],[77.29425,14.10489]]]}},{"type":"Feature","bbox":[77.28094,14.0893,77.29469,14.10225],"properties":{"ward":4},"geometry":{"type":"Polygon","coordinates":[[[77.29333,14.10162],[77.29412,14.09984],[77.29469,14.09911],[77.29443,14.09775],[77.29422,14.09776],[77.29417,14.09742],[77.29279,14.09733],[77.29238,14.09012],[77.29077,14.09064],[77.29061,14.09096],[77.28985,14.09108],[77.2898,14.0893],[77.28513,14.0937],[77.28458,14.0951],[77.2831,14.09598],[77.2824,14.09616],[77.2815,14.09698],[77.28094,14.09806],[77.28272,14.09957],[77.28431,14.10212],[77.28554,14.10225],[77.28589,14.09986],[77.28971,14.10054],[77.29155,14.10114],[77.29227,14.10108],[77.29333,14.10162]]]}},{"type":"Feature","bbox":[77.28351,14.10212,77.28949,14.11604],"properties":{"ward":5},"geometry":{"type":"Polygon","coordinates":[[[77.28949,14.11371],[77.28921,14.11296],[77.28922,14.1111],[77.28855,14.10838],[77.28811,14.10802],[77.28785,14.10679],[77.28795,14.10678],[77.28784,14.10573],[77.28673,14.10587],[77.28687,14.10434],[77.28633,14.10422],[77.28637,14.10407],[77.2877,14.10439],[77.28833,14.10286],[77.28764,14.10256],[77.28431,14.10212],[77.28487,14.10316],[77.28489,14.10462],[77.28371,14.11434],[77.28359,14.11433],[77.28351,14.11481],[77.28401,14.11491],[77.28489,14.11406],[77.28569,14.11604],[77.2885,14.11365],[77.28872,14.11391],[77.28949,14.11371]]]}},{"type":"Feature","bbox":[77.27428,14.10209,77.28489,14.11465],"properties":{"ward":6},"geometry":{"type":"Polygon","coordinates":[[[77.28359,14.11433],[77.28371,14.11434],[77.28489,14.10462],[77.28487,14.10316],[77.2843,14.10209],[77.28356,14.10251],[77.28284,14.10261],[77.28287,14.10326],[77.28317,14.10325],[77.28228,14.10695],[77.28178,14.10829],[77.28195,14.10912],[77.28052,14.10947],[77.2804,14.10911],[77.27978,14.10901],[77.27826,14.10966],[77.27815,14.11004],[77.27628,14.10943],[77.27538,14.10961],[77.27516,14.11361],[77.27428,14.11386],[77.27449,14.11456],[77.27466,14.11465],[77.2756,14.1143],[77.27691,14.11423],[77.28366,14.11413],[77.28359,14.11433]]]}},{"type":"Feature","bbox":[77.28213,14.10045,77.2843,14.10328],"properties":{"ward":7},"geometry":{"type":"Polygon","coordinates":[[[77.28287,14.10326],[77.28285,14.10259],[77.28356,14.10251],[77.2843,14.10209],[77.28328,14.10045],[77.28213,14.1006],[77.28255,14.10328],[77.28287,14.10326]]]}},{"type":"Feature","bbox":[77.27937,14.09867,77.28198,14.10115],"properties":{"ward":8},"geometry":{"type":"Polygon","coordinates":[[[77.28135,14.10115],[77.28138,14.10063],[77.28177,14.10066],[77.28198,14.1003],[77.28162,14.09959],[77.28038,14.09867],[77.27944,14.10007],[77.27937,14.10091],[77.28012,14.10115],[77.28135,14.10115]]]}},{"type":"Feature","bbox":[77.28038,14.09806,77.28328,14.10233],"properties":{"ward":9},"geometry":{"type":"Polygon","coordinates":[[[77.28328,14.10045],[77.28262,14.09947],[77.28094,14.09806],[77.28058,14.09837],[77.28038,14.09867],[77.28162,14.09959],[77.28198,14.1003],[77.28177,14.10066],[77.28138,14.10063],[77.28133,14.10153],[77.28106,14.10194],[77.28208,14.10211],[77.28207,14.10229],[77.28241,14.10233],[77.28213,14.1006],[77.28328,14.10045]]]}},{"type":"Feature","bbox":[77.27967,14.10194,77.28255,14.10338],"properties":{"ward":10},"geometry":{"type":"Polygon","coordinates":[[[77.28255,14.10328],[77.28241,14.10233],[77.28207,14.10229],[77.28208,14.10211],[77.28106,14.10194],[77.28021,14.10243],[77.27996,14.10241],[77.27967,14.10297],[77.28024,14.10338],[77.28255,14.10328]]]}},{"type":"Feature","bbox":[77.27917,14.10091,77.28135,14.10297],"properties":{"ward":11},"geometry":{"type":"Polygon","coordinates":[[[77.28106,14.10194],[77.28133,14.10153],[77.28135,14.10115],[77.28012,14.10115],[77.27937,14.10091],[77.2794,14.10159],[77.27917,14.10262],[77.27967,14.10297],[77.27996,14.10241],[77.28021,14.10243],[77.28106,14.10194]]]}},{"type":"Feature","bbox":[77.27687,14.10035,77.2794,14.10262],"properties":{"ward":12},"geometry":{"type":"Polygon","coordinates":[[[77.2794,14.10159],[77.27937,14.10072],[77.27687,14.10035],[77.27719,14.10156],[77.27849,14.10214],[77.27917,14.10262],[77.2794,14.10159]]]}},{"type":"Feature","bbox":[77.27644,14.09939,77.27943,14.10072],"properties":{"ward":13},"geometry":{"type":"Polygon","coordinates":[[[77.27943,14.10011],[77.27805,14.09989],[77.27669,14.09939],[77.27644,14.10026],[77.27937,14.10072],[77.27943,14.10011]]]}},{"type":"Feature","bbox":[77.27669,14.09879,77.27985,14.10011],"properties":{"ward":14},"geometry":{"type":"Polygon","coordinates":[[[77.27985,14.09947],[77.27891,14.0991],[77.27726,14.09879],[77.27669,14.09939],[77.27805,14.09989],[77.27943,14.10011],[77.27985,14.09947]]]}},{"type":"Feature","bbox":[77.27678,14.0965,77.28094,14.09947],"properties":{"ward":15},"geometry":{"type":"Polygon","coordinates":[[[77.27985,14.09947],[77.28094,14.09806],[77.27692,14.0965],[77.27678,14.09733],[77.27838,14.0977],[77.27826,14.09896],[77.27985,14.09947]]]}},{"type":"Feature","bbox":[77.27838,14.09418,77.28472,14.09806],"properties":{"ward":16},"geometry":{"type":"Polygon","coordinates":[[[77.28472,14.09485],[77.2834,14.09493],[77.28238,14.09522],[77.28232,14.09508],[77.28205,14.09511],[77.28202,14.09491],[77.28048,14.09509],[77.27899,14.09493],[77.27916,14.09421],[77.27879,14.09418],[77.27838,14.09708],[77.28094,14.09806],[77.2815,14.09698],[77.2824,14.09616],[77.2831,14.09598],[77.28429,14.09535],[77.28472,14.09485]]]}},{"type":"Feature","bbox":[77.27879,14.0866,77.28985,14.09522],"properties":{"ward":17},"geometry":{"type":"Polygon","coordinates":[[[77.28472,14.09485],[77.28513,14.0937],[77.2898,14.0893],[77.28985,14.08906],[77.28957,14.08901],[77.28884,14.08959],[77.28554,14.09022],[77.28289,14.08892],[77.28183,14.08864],[77.28058,14.0866],[77.28019,14.08734],[77.27988,14.08878],[77.28014,14.08981],[77.27896,14.09274],[77.27879,14.09418],[77.27916,14.09421],[77.27894,14.09492],[77.28048,14.09509],[77.28202,14.09491],[77.28205,14.09511],[77.28232,14.09508],[77.28238,14.09522],[77.2834,14.09493],[77.28472,14.09485]]]}},{"type":"Feature","bbox":[77.27042,14.08648,77.28058,14.09521],"properties":{"ward":18},"geometry":{"type":"Polygon","coordinates":[[[77.27867,14.09521],[77.27896,14.09274],[77.28014,14.08981],[77.27988,14.08878],[77.28019,14.08734],[77.28058,14.0866],[77.27955,14.08648],[77.27919,14.08819],[77.27755,14.08876],[77.27748,14.09063],[77.27669,14.09212],[77.27461,14.09236],[77.27204,14.09131],[77.27136,14.09291],[77.27069,14.09281],[77.27042,14.09347],[77.27152,14.09457],[77.27287,14.09339],[77.27392,14.09324],[77.27452,14.09346],[77.2758,14.09348],[77.27613,14.09408],[77.27668,14.09459],[77.27867,14.09521]]]}},{"type":"Feature","bbox":[77.27152,14.09324,77.27867,14.09708],"properties":{"ward":19},"geometry":{"type":"Polygon","coordinates":[[[77.27867,14.09521],[77.27668,14.09459],[77.27613,14.09408],[77.2758,14.09348],[77.27452,14.09346],[77.27392,14.09324],[77.27287,14.09339],[77.27152,14.09457],[77.27406,14.09562],[77.27533,14.09633],[77.27677,14.09645],[77.27838,14.09708],[77.27867,14.09521]]]}},{"type":"Feature","bbox":[77.27541,14.09709,77.27838,14.09896],"properties":{"ward":20},"geometry":{"type":"Polygon","coordinates":[[[77.27676,14.09709],[77.27622,14.09717],[77.27563,14.09751],[77.27541,14.09769],[77.27556,14.09801],[77.27676,14.09811],[77.27675,14.09841],[77.2775,14.09859],[77.27747,14.09882],[77.27826,14.09896],[77.27838,14.0977],[77.27678,14.09733],[77.27676,14.09709]]]}},{"type":"Feature","bbox":[77.27479,14.09802,77.2775,14.10156],"properties":{"ward":21},"geometry":{"type":"Polygon","coordinates":[[[77.27687,14.10035],[77.27644,14.10026],[77.27658,14.09949],[77.27726,14.09879],[77.27747,14.09882],[77.2775,14.09859],[77.27675,14.09841],[77.27676,14.09811],[77.27576,14.09802],[77.27577,14.09824],[77.27536,14.09826],[77.27549,14.09925],[77.27481,14.09943],[77.27479,14.10058],[77.27719,14.10156],[77.27687,14.10035]]]}},{"type":"Feature","bbox":[77.2718,14.09711,77.27577,14.10058],"properties":{"ward":22},"geometry":{"type":"Polygon","coordinates":[[[77.27576,14.09802],[77.27556,14.09801],[77.27506,14.09711],[77.2718,14.09909],[77.2725,14.10012],[77.27479,14.10058],[77.27481,14.09943],[77.27549,14.09925],[77.27536,14.09826],[77.27577,14.09824],[77.27576,14.09802]]]}},{"type":"Feature","bbox":[77.26919,14.09439,77.27692,14.10054],"properties":{"ward":23},"geometry":{"type":"Polygon","coordinates":[[[77.2718,14.09909],[77.27506,14.09711],[77.27541,14.09769],[77.27622,14.09717],[77.27676,14.09709],[77.27692,14.0965],[77.27533,14.09633],[77.27363,14.09543],[77.27209,14.09489],[77.27131,14.09439],[77.27145,14.0953],[77.26928,14.09733],[77.26942,14.09786],[77.26932,14.0985],[77.26973,14.09863],[77.26954,14.09949],[77.26919,14.09991],[77.26983,14.10054],[77.27028,14.10008],[77.27016,14.0999],[77.27069,14.09933],[77.27174,14.09899],[77.2718,14.09909]]]}}]}