{"type":"FeatureCollection","features":[{"type":"Feature","bbox":[75.71662,12.42064,75.7301,12.43876],"properties":{"ward":1},"geometry":{"type":"Polygon","coordinates":[[[75.7271,12.43552],[75.72699,12.43475],[75.7264,12.43486],[75.72607,12.43474],[75.72492,12.4342],[75.72416,12.4336],[75.72332,12.43217],[75.72294,12.43104],[75.72304,12.43042],[75.72338,12.42999],[75.72562,12.42995],[75.7269,12.42917],[75.7273,12.42821],[75.72769,12.42771],[75.72909,12.42705],[75.72961,12.42701],[75.7301,12.42608],[75.72894,12.42561],[75.72835,12.42504],[75.72802,12.42332],[75.72824,12.42223],[75.72781,12.42079],[75.72694,12.42064],[75.72682,12.42064],[75.72692,12.42101],[75.72676,12.42163],[75.7262,12.42209],[75.72553,12.42209],[75.72517,12.42239],[75.7232,12.42319],[75.72206,12.42436],[75.7216,12.42413],[75.72103,12.42432],[75.72078,12.42508],[75.72035,12.42564],[75.7209,12.4261],[75.72095,12.42634],[75.71992,12.42735],[75.72033,12.4277],[75.72019,12.42825],[75.7204,12.4283],[75.7202,12.42873],[75.71995,12.42905],[75.7194,12.4291],[75.71908,12.42936],[75.71878,12.42932],[75.71817,12.42979],[75.7167,12.43041],[75.71662,12.43109],[75.71698,12.43202],[75.71755,12.43254],[75.71785,12.43263],[75.71808,12.4325],[75.71882,12.43381],[75.71881,12.4362],[75.71927,12.43577],[75.71979,12.43576],[75.72017,12.43746],[75.72089,12.43835],[75.7212,12.43849],[75.72211,12.43876],[75.72298,12.43872],[75.72357,12.43828],[75.72441,12.43851],[75.72576,12.43731],[75.72606,12.43781],[75.7268,12.43736],[75.72689,12.43708],[75.72676,12.43608],[75.7271,12.43552]]]}},{"type":"Feature","bbox":[75.73694,12.42792,75.73986,12.43344],"properties":{"ward":2},"geometry":{"type":"Polygon","coordinates":[[[75.73986,12.43231],[75.73948,12.43228],[75.73937,12.43202],[75.73893,12.42934],[75.73846,12.42792],[75.7377,12.42818],[75.73804,12.42872],[75.73786,12.42944],[75.73694,12.42955],[75.73754,12.42993],[75.73809,12.43064],[75.73813,12.43162],[75.7379,12.43243],[75.73753,12.433],[75.73762,12.43344],[75.73871,12.43306],[75.7396,12.4326],[75.73986,12.43231]]]}},{"type":"Feature","bbox":[75.7384,12.42747,75.74048,12.432],"properties":{"ward":3},"geometry":{"type":"Polygon","coordinates":[[[75.74023,12.42888],[75.73944,12.42894],[75.73876,12.42747],[75.7384,12.42769],[75.73893,12.42934],[75.73936,12.432],[75.74048,12.4319],[75.74026,12.43074],[75.74041,12.42926],[75.74023,12.42888]]]}},{"type":"Feature","bbox":[75.73814,12.42335,75.73993,12.42894],"properties":{"ward":4},"geometry":{"type":"Polygon","coordinates":[[[75.73993,12.42885],[75.73983,12.42727],[75.73927,12.42735],[75.73915,12.42605],[75.73878,12.4252],[75.73876,12.42496],[75.73897,12.4248],[75.73881,12.42443],[75.73905,12.4242],[75.73876,12.42335],[75.73814,12.42445],[75.73838,12.42471],[75.7386,12.42704],[75.73944,12.42894],[75.73993,12.42885]]]}},{"type":"Feature","bbox":[75.73688,12.42445,75.73876,12.42818],"properties":{"ward":5},"geometry":{"type":"Polygon","coordinates":[[[75.73846,12.42792],[75.7384,12.42769],[75.73876,12.42747],[75.73852,12.42658],[75.73838,12.42471],[75.73814,12.42445],[75.73778,12.42578],[75.73721,12.42587],[75.73688,12.42667],[75.7377,12.42818],[75.73846,12.42792]]]}},{"type":"Feature","bbox":[75.73344,12.42427,75.73814,12.42955],"properties":{"ward":6},"geometry":{"type":"Polygon","coordinates":[[[75.73804,12.42872],[75.73687,12.42665],[75.73721,12.42587],[75.73778,12.42578],[75.73814,12.42445],[75.73625,12.42427],[75.73531,12.42436],[75.73476,12.42461],[75.73401,12.42565],[75.73344,12.42581],[75.73462,12.42678],[75.73642,12.42867],[75.73694,12.42955],[75.73786,12.42944],[75.73804,12.42872]]]}},{"type":"Feature","bbox":[75.7269,12.4243,75.73816,12.43438],"properties":{"ward":7},"geometry":{"type":"Polygon","coordinates":[[[75.737,12.43373],[75.73605,12.43292],[75.73597,12.43227],[75.73634,12.43164],[75.73713,12.43165],[75.73779,12.4314],[75.73816,12.43111],[75.73809,12.43064],[75.73754,12.42993],[75.73699,12.42966],[75.73642,12.42867],[75.73486,12.42702],[75.73345,12.4259],[75.73406,12.42561],[75.73457,12.42487],[75.7315,12.4243],[75.73024,12.42582],[75.72961,12.42701],[75.72909,12.42705],[75.72794,12.42751],[75.72736,12.4281],[75.7269,12.42917],[75.72883,12.4306],[75.72907,12.43071],[75.72923,12.43043],[75.72943,12.43044],[75.72932,12.43017],[75.72941,12.42991],[75.72966,12.42991],[75.73047,12.42901],[75.73167,12.43096],[75.73231,12.43136],[75.73265,12.43253],[75.73312,12.43279],[75.73371,12.43268],[75.73462,12.4328],[75.7349,12.43333],[75.735,12.43407],[75.73602,12.43404],[75.73636,12.43438],[75.737,12.43373]]]}},{"type":"Feature","bbox":[75.73597,12.43111,75.73816,12.43373],"properties":{"ward":8},"geometry":{"type":"Polygon","coordinates":[[[75.73762,12.43344],[75.73753,12.433],[75.73795,12.4323],[75.73816,12.43111],[75.73726,12.43163],[75.73634,12.43164],[75.73597,12.43227],[75.73605,12.43292],[75.737,12.43373],[75.73762,12.43344]]]}},{"type":"Feature","bbox":[75.72297,12.42901,75.73661,12.43657],"properties":{"ward":9},"geometry":{"type":"Polygon","coordinates":[[[75.73416,12.43631],[75.73383,12.43543],[75.73426,12.43525],[75.73484,12.43538],[75.73598,12.43531],[75.73661,12.4346],[75.73602,12.43404],[75.73497,12.43406],[75.7349,12.43333],[75.73462,12.4328],[75.73371,12.43268],[75.73312,12.43279],[75.73265,12.43253],[75.73231,12.43136],[75.73167,12.43096],[75.73047,12.42901],[75.72966,12.42991],[75.72941,12.42991],[75.72932,12.43017],[75.72943,12.43044],[75.72923,12.43043],[75.72906,12.43072],[75.72728,12.42957],[75.7269,12.42917],[75.72562,12.42995],[75.72359,12.42996],[75.72311,12.43029],[75.72297,12.43131],[75.72389,12.43326],[75.72492,12.4342],[75.72632,12.43484],[75.72699,12.43475],[75.7271,12.43552],[75.7289,12.43465],[75.72903,12.43483],[75.72956,12.43456],[75.72955,12.4343],[75.72987,12.43422],[75.73134,12.43519],[75.73172,12.43523],[75.73183,12.43503],[75.73203,12.43503],[75.73249,12.43521],[75.73243,12.43601],[75.7333,12.43572],[75.73336,12.43616],[75.73354,12.43636],[75.73386,12.43657],[75.73416,12.43631]]]}},{"type":"Feature","bbox":[75.7315,12.42236,75.73898,12.42487],"properties":{"ward":10},"geometry":{"type":"Polygon","coordinates":[[[75.73814,12.42445],[75.73898,12.42278],[75.73782,12.423],[75.73511,12.42236],[75.73467,12.42249],[75.73345,12.42365],[75.73277,12.42358],[75.73232,12.42334],[75.7315,12.4243],[75.73457,12.42487],[75.73497,12.42446],[75.73561,12.42429],[75.73814,12.42445]]]}},{"type":"Feature","bbox":[75.73232,12.41484,75.74062,12.42365],"properties":{"ward":11},"geometry":{"type":"Polygon","coordinates":[[[75.73782,12.423],[75.74025,12.42266],[75.74062,12.42202],[75.73972,12.41973],[75.73988,12.41871],[75.73954,12.4184],[75.73856,12.4163],[75.73724,12.41487],[75.73702,12.41484],[75.73641,12.41529],[75.73617,12.41712],[75.7357,12.41825],[75.73403,12.42032],[75.73294,12.42255],[75.73232,12.42334],[75.73277,12.42358],[75.73345,12.42365],[75.73493,12.42235],[75.73782,12.423]]]}},{"type":"Feature","bbox":[75.7265,12.4107,75.73664,12.42042],"properties":{"ward":12},"geometry":{"type":"Polygon","coordinates":[[[75.73445,12.41983],[75.73508,12.41916],[75.73583,12.41797],[75.73617,12.41712],[75.73637,12.41542],[75.73664,12.41501],[75.73648,12.41427],[75.73606,12.41372],[75.73579,12.4129],[75.73549,12.41269],[75.73546,12.41218],[75.73466,12.41186],[75.7343,12.41211],[75.73383,12.41174],[75.73386,12.41144],[75.73332,12.41144],[75.73278,12.4107],[75.73182,12.41115],[75.73163,12.41191],[75.73088,12.412],[75.72994,12.41285],[75.72955,12.41213],[75.72916,12.41185],[75.72875,12.4118],[75.72788,12.41223],[75.72735,12.41415],[75.72696,12.41643],[75.7265,12.41729],[75.72674,12.41859],[75.72767,12.41888],[75.7279,12.41954],[75.72879,12.41942],[75.72902,12.41927],[75.72947,12.41827],[75.73018,12.41804],[75.73048,12.41745],[75.73076,12.41725],[75.73247,12.41764],[75.7324,12.41923],[75.73165,12.42042],[75.73236,12.42025],[75.73305,12.41917],[75.73365,12.41902],[75.73387,12.41908],[75.73412,12.41971],[75.73445,12.41983]]]}},{"type":"Feature","bbox":[75.7267,12.41725,75.73445,12.42608],"properties":{"ward":13},"geometry":{"type":"Polygon","coordinates":[[[75.7301,12.42608],[75.7328,12.42279],[75.73403,12.42032],[75.73445,12.41983],[75.73412,12.41971],[75.73387,12.41908],[75.73305,12.41917],[75.73236,12.42025],[75.73165,12.42042],[75.7324,12.41923],[75.73247,12.41764],[75.73076,12.41725],[75.73048,12.41745],[75.73018,12.41804],[75.72947,12.41827],[75.72902,12.41927],[75.72879,12.41942],[75.7279,12.41954],[75.72767,12.41888],[75.72674,12.41859],[75.72684,12.41893],[75.7267,12.42029],[75.72682,12.42064],[75.72779,12.42075],[75.72824,12.42223],[75.72802,12.42332],[75.72835,12.42504],[75.72894,12.42561],[75.7301,12.42608]]]}},{"type":"Feature","bbox":[75.73648,12.41259,75.74473,12.42303],"properties":{"ward":14},"geometry":{"type":"Polygon","coordinates":[[[75.74473,12.42286],[75.74444,12.42273],[75.74431,12.42228],[75.74362,12.42172],[75.74373,12.4212],[75.74315,12.42067],[75.74286,12.42078],[75.74288,12.41937],[75.74234,12.41949],[75.74174,12.41939],[75.74167,12.41868],[75.74081,12.41821],[75.74099,12.41751],[75.74067,12.41707],[75.74065,12.41653],[75.74148,12.4161],[75.7417,12.4156],[75.74154,12.41551],[75.74066,12.41597],[75.73999,12.41519],[75.73965,12.41502],[75.73926,12.41436],[75.73939,12.41362],[75.73876,12.41259],[75.7384,12.41268],[75.73796,12.41299],[75.73793,12.4134],[75.73763,12.41381],[75.73648,12.41427],[75.73664,12.41501],[75.73724,12.41487],[75.73856,12.4163],[75.73954,12.4184],[75.73988,12.41871],[75.73972,12.41973],[75.74062,12.42194],[75.74034,12.42253],[75.74109,12.42255],[75.74199,12.42303],[75.74245,12.42288],[75.74473,12.42286]]]}},{"type":"Feature","bbox":[75.74119,12.4099,75.75054,12.41821],"properties":{"ward":15},"geometry":{"type":"Polygon","coordinates":[[[75.7439,12.41781],[75.7448,12.41661],[75.74639,12.41504],[75.74686,12.41494],[75.74779,12.41507],[75.74906,12.41451],[75.74965,12.41487],[75.75054,12.41437],[75.74981,12.41374],[75.7496,12.41314],[75.74927,12.41295],[75.74898,12.41319],[75.74879,12.41286],[75.74761,12.41188],[75.74771,12.41149],[75.74689,12.41151],[75.74625,12.4111],[75.74595,12.41107],[75.74574,12.41037],[75.74522,12.40999],[75.74452,12.4099],[75.74423,12.4109],[75.74383,12.41133],[75.74405,12.41201],[75.74402,12.41265],[75.74387,12.41277],[75.74346,12.41244],[75.74299,12.41299],[75.74271,12.41353],[75.74285,12.41401],[75.74262,12.41486],[75.74301,12.41503],[75.74418,12.41478],[75.74426,12.41507],[75.74279,12.4155],[75.74264,12.41585],[75.74314,12.4169],[75.74294,12.41694],[75.74252,12.41659],[75.74223,12.41665],[75.74182,12.41786],[75.74119,12.41821],[75.74337,12.41805],[75.7439,12.41781]]]}},{"type":"Feature","bbox":[75.73876,12.40855,75.74796,12.42078],"properties":{"ward":16},"geometry":{"type":"Polygon","coordinates":[[[75.74286,12.42078],[75.74371,12.42013],[75.74429,12.42055],[75.74503,12.42049],[75.74528,12.42027],[75.74616,12.42006],[75.7466,12.42038],[75.74776,12.41974],[75.74796,12.41918],[75.74762,12.41902],[75.74638,12.419],[75.74568,12.41847],[75.7451,12.41862],[75.7448,12.41841],[75.74447,12.41849],[75.74513,12.41798],[75.74506,12.41783],[75.74466,12.41787],[75.74456,12.41774],[75.7439,12.41781],[75.74337,12.41805],[75.74119,12.41821],[75.74182,12.41786],[75.74223,12.41665],[75.74252,12.41659],[75.74294,12.41694],[75.74314,12.4169],[75.74264,12.41585],[75.74279,12.4155],[75.74426,12.41507],[75.74418,12.41478],[75.74301,12.41503],[75.74262,12.41486],[75.74285,12.41401],[75.74271,12.41353],[75.74299,12.41299],[75.74346,12.41244],[75.74387,12.41277],[75.74402,12.41265],[75.74405,12.41201],[75.74383,12.41133],[75.74423,12.4109],[75.74454,12.40995],[75.74414,12.40991],[75.74298,12.41049],[75.74286,12.41029],[75.74295,12.40984],[75.74204,12.40939],[75.74184,12.40858],[75.74161,12.40898],[75.74083,12.40915],[75.73966,12.40855],[75.73935,12.40898],[75.73924,12.40967],[75.73957,12.41019],[75.7396,12.41055],[75.73876,12.41259],[75.73939,12.41362],[75.73921,12.41425],[75.73965,12.41502],[75.73999,12.41519],[75.7407,12.41599],[75.74154,12.41551],[75.7417,12.4156],[75.74148,12.4161],[75.74065,12.41653],[75.74067,12.41707],[75.74099,12.41751],[75.74081,12.41821],[75.74167,12.41868],[75.74174,12.41939],[75.74234,12.41949],[75.74287,12.41935],[75.74286,12.42078]]]}},{"type":"Feature","bbox":[75.74779,12.41226,75.75651,12.41975],"properties":{"ward":17},"geometry":{"type":"Polygon","coordinates":[[[75.74927,12.41295],[75.74967,12.41321],[75.74981,12.41374],[75.75053,12.41441],[75.7496,12.41488],[75.74929,12.41458],[75.74885,12.41454],[75.74779,12.41507],[75.7487,12.41512],[75.74909,12.41563],[75.75005,12.41775],[75.74985,12.4187],[75.75033,12.41975],[75.75077,12.41916],[75.75144,12.41905],[75.75187,12.41844],[75.75248,12.4182],[75.75287,12.41734],[75.7541,12.41744],[75.7548,12.41779],[75.75513,12.41751],[75.75537,12.41663],[75.75609,12.41633],[75.75651,12.41577],[75.75622,12.41476],[75.75537,12.41286],[75.75501,12.4132],[75.75455,12.4142],[75.75453,12.41438],[75.75481,12.41451],[75.75467,12.4148],[75.75325,12.41462],[75.75253,12.41407],[75.75112,12.41335],[75.75106,12.41245],[75.75088,12.41226],[75.75027,12.41255],[75.74955,12.41264],[75.74927,12.41295]]]}},{"type":"Feature","bbox":[75.74315,12.41499,75.75033,12.4234],"properties":{"ward":18},"geometry":{"type":"Polygon","coordinates":[[[75.74835,12.42249],[75.749,12.42266],[75.74895,12.42073],[75.74926,12.42046],[75.75003,12.42031],[75.75022,12.42007],[75.75018,12.41981],[75.75033,12.41975],[75.74985,12.4187],[75.75005,12.41775],[75.74878,12.41518],[75.74654,12.41499],[75.74492,12.41648],[75.7439,12.41781],[75.7451,12.41785],[75.74506,12.41812],[75.74447,12.41849],[75.7448,12.41841],[75.7451,12.41862],[75.74568,12.41847],[75.74638,12.419],[75.74769,12.41904],[75.74796,12.41918],[75.74787,12.4196],[75.74655,12.4204],[75.74616,12.42006],[75.74528,12.42027],[75.74503,12.42049],[75.74429,12.42055],[75.74371,12.42013],[75.74315,12.42067],[75.74373,12.4212],[75.74362,12.42172],[75.74431,12.42228],[75.74442,12.42271],[75.7452,12.42301],[75.74538,12.4234],[75.74642,12.42326],[75.74685,12.42303],[75.7472,12.42309],[75.74835,12.42249]]]}},{"type":"Feature","bbox":[75.73876,12.42249,75.74874,12.42587],"properties":{"ward":19},"geometry":{"type":"Polygon","coordinates":[[[75.74874,12.42251],[75.74835,12.42249],[75.7472,12.42309],[75.74685,12.42303],[75.74658,12.42322],[75.74547,12.42341],[75.7452,12.42301],[75.74488,12.42288],[75.74328,12.42283],[75.74199,12.42303],[75.74109,12.42255],[75.73967,12.42264],[75.73898,12.42278],[75.73876,12.42335],[75.73905,12.4242],[75.73881,12.42445],[75.73897,12.4248],[75.73933,12.42468],[75.7396,12.42502],[75.73997,12.42444],[75.74062,12.42487],[75.74142,12.42466],[75.7422,12.425],[75.74298,12.42562],[75.74372,12.42562],[75.74423,12.42542],[75.74646,12.42587],[75.74658,12.4257],[75.74637,12.42536],[75.747,12.42377],[75.74772,12.42343],[75.74805,12.42295],[75.74874,12.42251]]]}},{"type":"Feature","bbox":[75.73877,12.42444,75.75367,12.43341],"properties":{"ward":20},"geometry":{"type":"Polygon","coordinates":[[[75.7512,12.43318],[75.75123,12.43298],[75.75287,12.43213],[75.75357,12.43131],[75.75367,12.43103],[75.75314,12.43056],[75.75311,12.43015],[75.75064,12.42949],[75.74999,12.42843],[75.74931,12.42827],[75.74877,12.42869],[75.74786,12.42863],[75.74656,12.42737],[75.7464,12.42681],[75.74588,12.42693],[75.74557,12.42671],[75.74554,12.42647],[75.74608,12.4261],[75.74611,12.42585],[75.74551,12.42578],[75.74527,12.42556],[75.74423,12.42542],[75.74372,12.42562],[75.74298,12.42562],[75.7422,12.425],[75.74142,12.42466],[75.74062,12.42487],[75.73997,12.42444],[75.73963,12.42502],[75.73933,12.42468],[75.73877,12.42493],[75.73885,12.42554],[75.73901,12.42556],[75.73915,12.42605],[75.73926,12.42732],[75.73982,12.42725],[75.73993,12.42885],[75.74023,12.42888],[75.74041,12.42926],[75.74026,12.43074],[75.74048,12.43193],[75.73936,12.432],[75.73948,12.43228],[75.74075,12.43239],[75.74227,12.43341],[75.74287,12.43288],[75.74357,12.43261],[75.74459,12.43282],[75.74429,12.43232],[75.74444,12.43195],[75.74467,12.43184],[75.74526,12.43206],[75.74672,12.43206],[75.74793,12.43275],[75.74804,12.43248],[75.74782,12.43193],[75.74815,12.43176],[75.74903,12.43248],[75.74931,12.43305],[75.75031,12.43336],[75.7512,12.43318]]]}},{"type":"Feature","bbox":[75.74554,12.42251,75.75357,12.43015],"properties":{"ward":21},"geometry":{"type":"Polygon","coordinates":[[[75.749,12.42266],[75.74874,12.42251],[75.74805,12.42295],[75.74772,12.42343],[75.74705,12.42372],[75.74637,12.42536],[75.74656,12.4258],[75.74611,12.42585],[75.74608,12.4261],[75.74554,12.42647],[75.74557,12.42671],[75.74588,12.42693],[75.7464,12.42681],[75.74656,12.42737],[75.74793,12.42866],[75.74877,12.42869],[75.74931,12.42827],[75.74999,12.42843],[75.75064,12.42949],[75.75311,12.43015],[75.75301,12.42911],[75.75357,12.4284],[75.75337,12.42802],[75.75258,12.42756],[75.75288,12.4267],[75.75244,12.42653],[75.75262,12.42579],[75.75222,12.4257],[75.75193,12.425],[75.74951,12.42356],[75.74908,12.42302],[75.749,12.42266]]]}},{"type":"Feature","bbox":[75.73383,12.43231,75.74162,12.4384],"properties":{"ward":22},"geometry":{"type":"Polygon","coordinates":[[[75.74005,12.43799],[75.74063,12.43798],[75.74069,12.43743],[75.74098,12.43692],[75.74092,12.43661],[75.74039,12.43621],[75.74041,12.43513],[75.74081,12.43494],[75.74114,12.43375],[75.74162,12.43358],[75.74147,12.43296],[75.74075,12.43239],[75.73986,12.43231],[75.7396,12.4326],[75.73871,12.43306],[75.73712,12.43361],[75.73636,12.43438],[75.73662,12.43462],[75.73598,12.43531],[75.73484,12.43538],[75.73426,12.43525],[75.73383,12.43543],[75.73416,12.43631],[75.73485,12.43669],[75.73518,12.43662],[75.73557,12.4369],[75.73611,12.43702],[75.73699,12.43782],[75.73744,12.4379],[75.73754,12.43742],[75.73772,12.43737],[75.73811,12.43744],[75.73931,12.43838],[75.7396,12.4384],[75.74005,12.43799]]]}},{"type":"Feature","bbox":[75.74032,12.43176,75.75205,12.44426],"properties":{"ward":23},"geometry":{"type":"Polygon","coordinates":[[[75.7512,12.43318],[75.75031,12.43336],[75.74931,12.43305],[75.74903,12.43248],[75.74815,12.43176],[75.74782,12.43193],[75.74804,12.43252],[75.74788,12.43276],[75.74672,12.43206],[75.74526,12.43206],[75.74467,12.43184],[75.74444,12.43195],[75.74429,12.43232],[75.74461,12.43273],[75.74453,12.43284],[75.74357,12.43261],[75.74287,12.43288],[75.74223,12.43342],[75.74147,12.43296],[75.74161,12.43361],[75.74111,12.43379],[75.74084,12.4349],[75.74042,12.4351],[75.74032,12.43551],[75.74045,12.43633],[75.74092,12.43661],[75.74098,12.43692],[75.74069,12.43743],[75.74063,12.43798],[75.74044,12.43803],[75.74061,12.43829],[75.74094,12.43791],[75.7412,12.43787],[75.7427,12.43811],[75.74262,12.43841],[75.74322,12.43879],[75.74305,12.4389],[75.74378,12.44011],[75.74487,12.43995],[75.74567,12.44052],[75.74673,12.44091],[75.74694,12.44204],[75.74712,12.44216],[75.74775,12.4421],[75.74804,12.44239],[75.74778,12.44291],[75.74677,12.44322],[75.74681,12.44365],[75.74746,12.44426],[75.7477,12.44423],[75.74833,12.44371],[75.74862,12.44309],[75.74831,12.44223],[75.74848,12.44188],[75.74705,12.44127],[75.74706,12.44062],[75.74778,12.43997],[75.74783,12.43973],[75.74747,12.43828],[75.74901,12.43798],[75.75009,12.43835],[75.75022,12.43746],[75.75082,12.43705],[75.75114,12.43645],[75.75163,12.43627],[75.75204,12.43573],[75.75205,12.43548],[75.75106,12.43448],[75.7512,12.43318]]]}}]}