{"type":"FeatureCollection","features":[{"type":"Feature","bbox":[76.76305,17.01384,76.77596,17.04351],"properties":{"ward":1},"geometry":{"type":"Polygon","coordinates":[[[76.77596,17.03983],[76.77519,17.03738],[76.77341,17.03307],[76.77386,17.02905],[76.77339,17.02734],[76.77289,17.02448],[76.77292,17.02238],[76.7723,17.02147],[76.77071,17.0197],[76.77054,17.01924],[76.77037,17.01662],[76.77053,17.01631],[76.77085,17.01626],[76.77086,17.01596],[76.77141,17.01578],[76.77146,17.01491],[76.7716,17.01477],[76.77147,17.01453],[76.77151,17.01389],[76.77096,17.01384],[76.77025,17.0144],[76.77023,17.01736],[76.77049,17.01904],[76.77007,17.01928],[76.7693,17.01816],[76.76828,17.01785],[76.76825,17.01806],[76.76874,17.0187],[76.76874,17.01951],[76.76716,17.02065],[76.76305,17.02277],[76.76335,17.02384],[76.76465,17.03425],[76.76371,17.03714],[76.76443,17.03741],[76.76386,17.03935],[76.76404,17.03947],[76.76408,17.04242],[76.76426,17.04349],[76.76489,17.04351],[76.76699,17.04293],[76.76842,17.04303],[76.76863,17.04231],[76.7691,17.04186],[76.77077,17.0416],[76.77596,17.03983]]]}},{"type":"Feature","bbox":[76.77085,17.01546,76.77436,17.01705],"properties":{"ward":2},"geometry":{"type":"Polygon","coordinates":[[[76.77436,17.01639],[76.77417,17.01546],[76.77354,17.01548],[76.77223,17.01581],[76.77154,17.01575],[76.77086,17.01596],[76.77085,17.01626],[76.77163,17.01658],[76.772,17.01705],[76.77436,17.01639]]]}},{"type":"Feature","bbox":[76.77141,17.01465,76.77381,17.01581],"properties":{"ward":3},"geometry":{"type":"Polygon","coordinates":[[[76.77381,17.01548],[76.77344,17.01503],[76.77295,17.0151],[76.77279,17.01492],[76.77175,17.01465],[76.77148,17.01482],[76.77141,17.01578],[76.77223,17.01581],[76.77381,17.01548]]]}},{"type":"Feature","bbox":[76.77287,17.01375,76.77487,17.01557],"properties":{"ward":4},"geometry":{"type":"Polygon","coordinates":[[[76.77467,17.01375],[76.77287,17.01424],[76.77381,17.01548],[76.77428,17.01557],[76.77487,17.01416],[76.77467,17.01375]]]}},{"type":"Feature","bbox":[76.7703,17.0131,76.79333,17.03983],"properties":{"ward":6},"geometry":{"type":"Polygon","coordinates":[[[76.79333,17.03572],[76.78451,17.03195],[76.78376,17.03144],[76.78095,17.02463],[76.77828,17.02096],[76.77499,17.0131],[76.77379,17.01355],[76.77394,17.01394],[76.77467,17.01375],[76.77487,17.01416],[76.77437,17.01545],[76.77419,17.01557],[76.77436,17.01639],[76.77193,17.01705],[76.77163,17.01658],[76.77085,17.01626],[76.77053,17.01631],[76.7703,17.01698],[76.77054,17.01924],[76.77071,17.0197],[76.7723,17.02147],[76.77292,17.02238],[76.77289,17.02448],[76.77339,17.02734],[76.77386,17.02905],[76.77341,17.03307],[76.77519,17.03738],[76.77596,17.03983],[76.78149,17.03785],[76.78611,17.03685],[76.78909,17.03657],[76.79333,17.03572]]]}},{"type":"Feature","bbox":[76.776,17.01552,76.80605,17.03572],"properties":{"ward":7},"geometry":{"type":"Polygon","coordinates":[[[76.79831,17.02033],[76.79633,17.02032],[76.78934,17.01943],[76.78563,17.01873],[76.78488,17.01873],[76.78031,17.01706],[76.77668,17.01553],[76.776,17.01552],[76.77835,17.02109],[76.78095,17.02463],[76.78376,17.03144],[76.78451,17.03195],[76.79333,17.03572],[76.79801,17.0346],[76.79991,17.03466],[76.8016,17.03429],[76.80269,17.03434],[76.80426,17.03405],[76.80605,17.03331],[76.80375,17.02877],[76.80381,17.02794],[76.80359,17.02782],[76.80398,17.02679],[76.80423,17.02662],[76.80021,17.02378],[76.79882,17.02306],[76.79831,17.02033]]]}},{"type":"Feature","bbox":[76.77706,17.01448,76.79831,17.02033],"properties":{"ward":8},"geometry":{"type":"Polygon","coordinates":[[[76.79831,17.02033],[76.79789,17.01675],[76.79398,17.01693],[76.79395,17.01721],[76.79234,17.0173],[76.79218,17.01679],[76.78937,17.01695],[76.78934,17.01546],[76.7829,17.01599],[76.78255,17.016],[76.78253,17.01561],[76.77988,17.01591],[76.77996,17.01554],[76.7794,17.0155],[76.77949,17.01482],[76.77916,17.01486],[76.77906,17.01448],[76.77706,17.01466],[76.77715,17.01574],[76.78488,17.01873],[76.78563,17.01873],[76.78934,17.01943],[76.79633,17.02032],[76.79831,17.02033]]]}},{"type":"Feature","bbox":[76.77697,17.01233,76.79789,17.0173],"properties":{"ward":10},"geometry":{"type":"Polygon","coordinates":[[[76.79789,17.01675],[76.79743,17.01338],[76.79482,17.01352],[76.79026,17.01431],[76.78984,17.01233],[76.78756,17.01257],[76.78776,17.0132],[76.78711,17.01333],[76.78249,17.01363],[76.78093,17.01323],[76.77756,17.01386],[76.77754,17.01358],[76.77709,17.01355],[76.77714,17.01384],[76.77697,17.01386],[76.77706,17.01466],[76.77906,17.01448],[76.77916,17.01486],[76.77949,17.01482],[76.7794,17.0155],[76.77996,17.01554],[76.77988,17.01591],[76.78253,17.01561],[76.78255,17.016],[76.7829,17.01599],[76.78934,17.01546],[76.78937,17.01695],[76.79218,17.01679],[76.79234,17.0173],[76.79395,17.01721],[76.79398,17.01693],[76.79789,17.01675]]]}},{"type":"Feature","bbox":[76.77776,17.01014,76.79743,17.01431],"properties":{"ward":11},"geometry":{"type":"Polygon","coordinates":[[[76.79743,17.01338],[76.79724,17.01048],[76.79302,17.01081],[76.7914,17.01066],[76.78999,17.01014],[76.78672,17.01022],[76.78479,17.01045],[76.78293,17.01085],[76.78294,17.01099],[76.77899,17.01168],[76.77821,17.012],[76.77825,17.01228],[76.77776,17.01257],[76.77793,17.01382],[76.77808,17.01381],[76.77806,17.01367],[76.78093,17.01323],[76.78249,17.01363],[76.78711,17.01333],[76.78776,17.0132],[76.78756,17.01257],[76.78984,17.01233],[76.79026,17.01431],[76.79482,17.01352],[76.79743,17.01338]]]}},{"type":"Feature","bbox":[76.77402,17.00653,76.7976,17.01384],"properties":{"ward":12},"geometry":{"type":"Polygon","coordinates":[[[76.77596,17.01338],[76.77825,17.01228],[76.77821,17.012],[76.77899,17.01168],[76.78618,17.01028],[76.78999,17.01014],[76.7914,17.01066],[76.79302,17.01081],[76.79724,17.01048],[76.7976,17.00666],[76.79699,17.00653],[76.794,17.00674],[76.7933,17.00658],[76.79324,17.00729],[76.79123,17.00706],[76.7889,17.00766],[76.78522,17.008],[76.77845,17.01013],[76.77839,17.00982],[76.7762,17.01013],[76.77402,17.01075],[76.7753,17.01384],[76.77596,17.01338]]]}},{"type":"Feature","bbox":[76.77363,17.00091,76.7933,17.01075],"properties":{"ward":13},"geometry":{"type":"Polygon","coordinates":[[[76.7933,17.00658],[76.79112,17.00091],[76.78688,17.00431],[76.78191,17.00693],[76.77901,17.00797],[76.77363,17.00893],[76.77402,17.01075],[76.7762,17.01013],[76.77839,17.00982],[76.77845,17.01013],[76.78522,17.008],[76.7889,17.00766],[76.79123,17.00706],[76.79324,17.00729],[76.7933,17.00658]]]}},{"type":"Feature","bbox":[76.77286,17.01086,76.77499,17.01355],"properties":{"ward":14},"geometry":{"type":"Polygon","coordinates":[[[76.77499,17.0131],[76.77405,17.01086],[76.77286,17.01135],[76.77379,17.01355],[76.77499,17.0131]]]}},{"type":"Feature","bbox":[76.77171,17.01135,76.77394,17.01424],"properties":{"ward":15},"geometry":{"type":"Polygon","coordinates":[[[76.77394,17.01394],[76.77286,17.01135],[76.77171,17.01178],[76.7725,17.0139],[76.77287,17.01424],[76.77394,17.01394]]]}},{"type":"Feature","bbox":[76.77021,17.0098,76.7725,17.01397],"properties":{"ward":16},"geometry":{"type":"Polygon","coordinates":[[[76.77151,17.01389],[76.77205,17.01371],[76.7725,17.0139],[76.7709,17.0098],[76.77021,17.01011],[76.77072,17.01197],[76.77076,17.01397],[76.77096,17.01384],[76.77151,17.01389]]]}},{"type":"Feature","bbox":[76.76928,16.99106,76.79112,17.0094],"properties":{"ward":17},"geometry":{"type":"Polygon","coordinates":[[[76.77363,17.00893],[76.77901,17.00797],[76.78191,17.00693],[76.78688,17.00431],[76.79112,17.00091],[76.78842,16.99327],[76.78798,16.99106],[76.78119,16.99255],[76.77682,16.99289],[76.77055,16.99375],[76.76928,16.99379],[76.76935,16.99618],[76.76994,16.9995],[76.77007,17.00224],[76.77091,17.00682],[76.77078,17.00849],[76.77118,17.00837],[76.77175,17.0094],[76.77346,17.00864],[76.77363,17.00893]]]}},{"type":"Feature","bbox":[76.76876,16.99379,76.77134,17.00895],"properties":{"ward":19},"geometry":{"type":"Polygon","coordinates":[[[76.77134,17.0088],[76.77118,17.00837],[76.77078,17.00849],[76.77091,17.00682],[76.77007,17.00224],[76.76994,16.9995],[76.76935,16.99618],[76.76928,16.99379],[76.76876,16.9938],[76.76909,16.99657],[76.76954,16.99838],[76.77,17.00502],[76.77056,17.00885],[76.77071,17.00895],[76.77134,17.0088]]]}},{"type":"Feature","bbox":[76.7646,16.9938,76.77175,17.01021],"properties":{"ward":20},"geometry":{"type":"Polygon","coordinates":[[[76.77001,17.01021],[76.77175,17.0094],[76.77134,17.0088],[76.77071,17.00895],[76.77056,17.00885],[76.77,17.00502],[76.76954,16.99838],[76.76909,16.99657],[76.76876,16.9938],[76.76493,16.99408],[76.7646,16.99456],[76.76463,16.99521],[76.76547,16.99675],[76.76595,16.99905],[76.76692,17.00223],[76.76651,17.00297],[76.76648,17.00523],[76.76691,17.0061],[76.77001,17.01021]]]}},{"type":"Feature","bbox":[76.75917,17.01011,76.77076,17.02277],"properties":{"ward":21},"geometry":{"type":"Polygon","coordinates":[[[76.77076,17.01397],[76.77072,17.01197],[76.77021,17.01011],[76.76755,17.01117],[76.76226,17.01148],[76.76239,17.01233],[76.76148,17.01254],[76.76172,17.0143],[76.75917,17.01487],[76.75939,17.01587],[76.76084,17.01592],[76.76105,17.0165],[76.76093,17.01782],[76.76304,17.01718],[76.76343,17.01956],[76.76118,17.02048],[76.76305,17.02277],[76.76716,17.02065],[76.76874,17.01951],[76.76874,17.0187],[76.76825,17.01806],[76.76828,17.01785],[76.7693,17.01816],[76.77007,17.01928],[76.77049,17.01904],[76.77023,17.01736],[76.77025,17.0144],[76.77076,17.01397]]]}},{"type":"Feature","bbox":[76.73084,17.01148,76.76465,17.04393],"properties":{"ward":22},"geometry":{"type":"Polygon","coordinates":[[[76.76426,17.04349],[76.76408,17.04242],[76.76404,17.03947],[76.76386,17.03935],[76.76443,17.03741],[76.76371,17.03714],[76.76465,17.03425],[76.76335,17.02384],[76.76314,17.02286],[76.76286,17.02242],[76.76118,17.02048],[76.76343,17.01956],[76.76319,17.01754],[76.76304,17.01718],[76.76093,17.01782],[76.76105,17.0165],[76.76084,17.01592],[76.75939,17.01587],[76.75917,17.01487],[76.76172,17.0143],[76.76148,17.01254],[76.76239,17.01233],[76.76226,17.01148],[76.73108,17.01313],[76.73111,17.01626],[76.73084,17.01985],[76.73084,17.0222],[76.73218,17.02794],[76.73214,17.03315],[76.73344,17.03234],[76.73533,17.03195],[76.73599,17.03196],[76.73852,17.03282],[76.74141,17.03348],[76.74527,17.03464],[76.74705,17.03475],[76.74769,17.035],[76.74826,17.03499],[76.75175,17.03608],[76.75331,17.03638],[76.75379,17.03655],[76.75376,17.03709],[76.75345,17.03699],[76.75378,17.03986],[76.75398,17.03987],[76.75417,17.04053],[76.75905,17.04023],[76.75917,17.04096],[76.75873,17.04378],[76.7595,17.04393],[76.76426,17.04349]]]}},{"type":"Feature","bbox":[76.73108,16.99408,76.77001,17.01313],"properties":{"ward":23},"geometry":{"type":"Polygon","coordinates":[[[76.73108,17.01313],[76.76755,17.01117],[76.77001,17.01021],[76.76691,17.0061],[76.76648,17.00523],[76.76651,17.00297],[76.76692,17.00223],[76.76595,16.99905],[76.76547,16.99675],[76.76463,16.99521],[76.7646,16.99456],[76.76493,16.99408],[76.74961,16.99447],[76.7475,16.99446],[76.74565,16.99425],[76.74171,16.99444],[76.73776,16.99484],[76.73238,16.99497],[76.73243,16.99832],[76.73218,17.00312],[76.73108,17.01313]]]}}]}