{"type":"FeatureCollection","features":[{"type":"Feature","bbox":[75.57434,11.60244,75.58093,11.60833],"properties":{"ward":1,"name":"Kuriyadi"},"geometry":{"type":"Polygon","coordinates":[[[75.57973,11.60244],[75.57973,11.60277],[75.57953,11.60301],[75.57905,11.60328],[75.57866,11.60328],[75.57785,11.60282],[75.57698,11.60325],[75.57606,11.60323],[75.57545,11.60457],[75.57434,11.60789],[75.57519,11.60822],[75.57629,11.60833],[75.57673,11.6073],[75.57671,11.60744],[75.57723,11.60757],[75.57726,11.60779],[75.57837,11.60803],[75.57835,11.60822],[75.57859,11.60833],[75.57952,11.60805],[75.57968,11.60773],[75.57994,11.60579],[75.58043,11.60402],[75.58093,11.60298],[75.57973,11.60244]]]}},{"type":"Feature","bbox":[75.57968,11.60014,75.58841,11.60842],"properties":{"ward":2,"name":"Veerancheri"},"geometry":{"type":"Polygon","coordinates":[[[75.58158,11.60134],[75.58043,11.60402],[75.57994,11.60579],[75.57968,11.60773],[75.58125,11.6076],[75.58261,11.60786],[75.58254,11.608],[75.5833,11.60837],[75.58376,11.60808],[75.58444,11.60842],[75.58733,11.60749],[75.58841,11.60666],[75.58799,11.60585],[75.58812,11.60443],[75.58658,11.60368],[75.58463,11.60397],[75.58475,11.60141],[75.58361,11.60103],[75.58228,11.60014],[75.58158,11.60134]]]}},{"type":"Feature","bbox":[75.5825,11.60666,75.59256,11.61622],"properties":{"ward":3,"name":"Kulangarath"},"geometry":{"type":"Polygon","coordinates":[[[75.59256,11.61168],[75.59125,11.61132],[75.58989,11.61115],[75.58926,11.61086],[75.589,11.60756],[75.58841,11.60666],[75.58733,11.60749],[75.58492,11.60831],[75.58538,11.60902],[75.58544,11.6097],[75.58593,11.60964],[75.58599,11.61074],[75.5851,11.61075],[75.58512,11.61089],[75.58438,11.61112],[75.58424,11.61158],[75.58297,11.61141],[75.5825,11.61163],[75.58275,11.61198],[75.58293,11.61195],[75.58303,11.61231],[75.58328,11.61223],[75.5834,11.61252],[75.58351,11.61248],[75.58338,11.61264],[75.58364,11.61289],[75.58494,11.61358],[75.58491,11.61373],[75.5858,11.61394],[75.58574,11.61412],[75.58609,11.61422],[75.58646,11.61488],[75.58655,11.61479],[75.58686,11.61492],[75.58679,11.6151],[75.58778,11.61622],[75.5886,11.61497],[75.58908,11.61365],[75.59,11.61319],[75.59164,11.61347],[75.59202,11.6134],[75.5924,11.61287],[75.59256,11.61168]]]}},{"type":"Feature","bbox":[75.58778,11.61141,75.59669,11.61771],"properties":{"ward":4,"name":"Pazhangavu"},"geometry":{"type":"Polygon","coordinates":[[[75.59566,11.61141],[75.59256,11.61168],[75.5924,11.61287],[75.59202,11.6134],[75.59164,11.61347],[75.59,11.61319],[75.58908,11.61365],[75.5886,11.61497],[75.58778,11.61622],[75.58813,11.61644],[75.588,11.61663],[75.58824,11.61763],[75.58964,11.61771],[75.59252,11.61736],[75.59393,11.6169],[75.59536,11.61599],[75.59669,11.61477],[75.59624,11.61419],[75.59571,11.61238],[75.59566,11.61141]]]}},{"type":"Feature","bbox":[75.58822,11.60914,75.6056,11.62228],"properties":{"ward":5,"name":"Arakkiladu"},"geometry":{"type":"Polygon","coordinates":[[[75.59526,11.61151],[75.59566,11.61141],[75.59571,11.61238],[75.59624,11.61419],[75.59669,11.61477],[75.59536,11.61599],[75.59393,11.6169],[75.59252,11.61736],[75.59116,11.61758],[75.58964,11.61771],[75.58824,11.61763],[75.58822,11.61796],[75.58842,11.61798],[75.58846,11.61829],[75.58826,11.61893],[75.58995,11.62015],[75.5904,11.62068],[75.59053,11.62074],[75.59062,11.62054],[75.5909,11.62061],[75.59137,11.62092],[75.59178,11.62147],[75.59314,11.62088],[75.59357,11.62083],[75.59474,11.62111],[75.59519,11.62102],[75.59516,11.62056],[75.5954,11.62049],[75.59561,11.62061],[75.59565,11.62091],[75.5959,11.62102],[75.59733,11.62097],[75.59786,11.62164],[75.59827,11.62176],[75.59826,11.62204],[75.59846,11.62228],[75.60004,11.6209],[75.59906,11.61983],[75.59927,11.61977],[75.59925,11.61941],[75.59953,11.61943],[75.5998,11.61843],[75.60093,11.61752],[75.60114,11.61702],[75.60107,11.61662],[75.6015,11.61653],[75.60178,11.61694],[75.60237,11.61669],[75.60236,11.6165],[75.60317,11.61606],[75.60453,11.61584],[75.60454,11.61572],[75.60519,11.61582],[75.60535,11.61549],[75.60521,11.61537],[75.6056,11.61455],[75.60189,11.61255],[75.601,11.61253],[75.60062,11.61189],[75.59989,11.61132],[75.5987,11.61102],[75.59818,11.61104],[75.59775,11.61028],[75.59769,11.60943],[75.59749,11.60914],[75.59702,11.60927],[75.59526,11.61151]]]}},{"type":"Feature","bbox":[75.58841,11.60384,75.59702,11.61168],"properties":{"ward":6,"name":"Paravanthala"},"geometry":{"type":"Polygon","coordinates":[[[75.59472,11.60432],[75.59279,11.60422],[75.59174,11.60405],[75.59133,11.60384],[75.58841,11.60666],[75.589,11.60756],[75.58926,11.61086],[75.58989,11.61115],[75.59125,11.61132],[75.59238,11.61168],[75.59526,11.61151],[75.59702,11.60927],[75.59587,11.60849],[75.59542,11.60797],[75.59479,11.60631],[75.59441,11.60589],[75.59472,11.60432]]]}},{"type":"Feature","bbox":[75.58799,11.60199,75.59602,11.60666],"properties":{"ward":7,"name":"Vadakara Theru"},"geometry":{"type":"Polygon","coordinates":[[[75.59074,11.60199],[75.59033,11.6024],[75.59003,11.60348],[75.589,11.6042],[75.58812,11.60443],[75.58799,11.60585],[75.58841,11.60666],[75.59133,11.60384],[75.59174,11.60405],[75.59401,11.60435],[75.59472,11.60432],[75.5948,11.60389],[75.59602,11.60389],[75.59586,11.60231],[75.59387,11.60241],[75.59074,11.60199]]]}},{"type":"Feature","bbox":[75.58463,11.59952,75.59074,11.60443],"properties":{"ward":8,"name":"Cholamvayal"},"geometry":{"type":"Polygon","coordinates":[[[75.59074,11.60199],[75.58982,11.60117],[75.58942,11.60057],[75.58873,11.60012],[75.58726,11.59952],[75.58644,11.59956],[75.58486,11.60074],[75.58463,11.60397],[75.58658,11.60368],[75.58812,11.60443],[75.589,11.6042],[75.59003,11.60348],[75.59033,11.6024],[75.59074,11.60199]]]}},{"type":"Feature","bbox":[75.58228,11.59,75.59538,11.6023],"properties":{"ward":9,"name":"Kottapparambu"},"geometry":{"type":"Polygon","coordinates":[[[75.59239,11.6023],[75.59452,11.59882],[75.59538,11.59693],[75.59521,11.59553],[75.59427,11.59337],[75.59103,11.59261],[75.59121,11.5905],[75.58955,11.59],[75.58574,11.59571],[75.58479,11.5967],[75.58228,11.60014],[75.58361,11.60103],[75.58475,11.60141],[75.58486,11.60074],[75.58522,11.60036],[75.58644,11.59956],[75.58726,11.59952],[75.58792,11.59972],[75.58942,11.60057],[75.5906,11.60195],[75.59239,11.6023]]]}},{"type":"Feature","bbox":[75.59239,11.59696,75.60068,11.60332],"properties":{"ward":10,"name":"Kakkuzhiyil"},"geometry":{"type":"Polygon","coordinates":[[[75.59498,11.59784],[75.59239,11.6023],[75.5951,11.60242],[75.59678,11.60223],[75.59728,11.60258],[75.59914,11.60332],[75.59946,11.60273],[75.59959,11.60181],[75.5998,11.60148],[75.60021,11.60155],[75.60032,11.60014],[75.60068,11.59956],[75.60065,11.59854],[75.60025,11.59749],[75.5994,11.59761],[75.59867,11.59696],[75.59833,11.59722],[75.59729,11.59885],[75.59626,11.59986],[75.59585,11.59936],[75.5959,11.59834],[75.59498,11.59784]]]}},{"type":"Feature","bbox":[75.59441,11.60223,75.60308,11.60979],"properties":{"ward":11,"name":"Kuzhichal"},"geometry":{"type":"Polygon","coordinates":[[[75.5948,11.60389],[75.59441,11.60589],[75.59479,11.60631],[75.59542,11.60797],[75.59587,11.60849],[75.59702,11.60927],[75.59867,11.60873],[75.60042,11.60979],[75.60146,11.60963],[75.6022,11.60894],[75.60229,11.60804],[75.60251,11.60781],[75.60308,11.60765],[75.60251,11.60712],[75.60252,11.60645],[75.60234,11.60596],[75.60199,11.60566],[75.60125,11.60547],[75.60068,11.60464],[75.5994,11.60345],[75.59728,11.60258],[75.59678,11.60223],[75.59586,11.60231],[75.59602,11.60389],[75.5948,11.60389]]]}},{"type":"Feature","bbox":[75.59914,11.60148,75.60453,11.60778],"properties":{"ward":12,"name":"Cherussery"},"geometry":{"type":"Polygon","coordinates":[[[75.60241,11.60168],[75.60203,11.60152],[75.5998,11.60148],[75.59959,11.60181],[75.59946,11.60273],[75.59914,11.60332],[75.60068,11.60464],[75.60125,11.60547],[75.60199,11.60566],[75.60234,11.60596],[75.60252,11.60645],[75.60251,11.60712],[75.60326,11.60778],[75.60358,11.60753],[75.60405,11.60663],[75.60449,11.6065],[75.60453,11.60555],[75.60396,11.60467],[75.60329,11.604],[75.60276,11.60378],[75.60223,11.60296],[75.60201,11.60244],[75.60241,11.60168]]]}},{"type":"Feature","bbox":[75.60201,11.59701,75.61167,11.60519],"properties":{"ward":13,"name":"Makkool"},"geometry":{"type":"Polygon","coordinates":[[[75.60273,11.60112],[75.60201,11.60244],[75.60276,11.60378],[75.60329,11.604],[75.60396,11.60467],[75.60414,11.60512],[75.6049,11.60519],[75.60541,11.60478],[75.60598,11.60383],[75.6074,11.60222],[75.60761,11.60176],[75.60809,11.60163],[75.60868,11.60183],[75.60953,11.60276],[75.60953,11.60314],[75.61071,11.6021],[75.61167,11.60081],[75.60924,11.60081],[75.60714,11.60039],[75.60674,11.60018],[75.60655,11.5998],[75.60653,11.59878],[75.60619,11.59838],[75.60626,11.5971],[75.60547,11.59723],[75.6028,11.59701],[75.60251,11.59978],[75.60273,11.60112]]]}},{"type":"Feature","bbox":[75.59749,11.60163,75.60953,11.61455],"properties":{"ward":14,"name":"Akloth Nada"},"geometry":{"type":"Polygon","coordinates":[[[75.59749,11.60914],[75.59769,11.60943],[75.59775,11.61028],[75.59818,11.61104],[75.5987,11.61102],[75.59989,11.61132],[75.60062,11.61189],[75.601,11.61253],[75.60189,11.61255],[75.6056,11.61455],[75.60599,11.61386],[75.60568,11.61347],[75.60577,11.6126],[75.60653,11.61164],[75.60678,11.61117],[75.6066,11.61103],[75.60666,11.61082],[75.60714,11.61006],[75.60645,11.6093],[75.60526,11.60892],[75.60381,11.60821],[75.60471,11.60696],[75.60688,11.60569],[75.60879,11.60401],[75.60915,11.60342],[75.60953,11.60314],[75.60953,11.60276],[75.60868,11.60183],[75.60809,11.60163],[75.60761,11.60176],[75.6074,11.60222],[75.60598,11.60383],[75.60541,11.60478],[75.6049,11.60519],[75.60414,11.60512],[75.60453,11.60555],[75.60449,11.6065],[75.60405,11.60663],[75.60358,11.60753],[75.60326,11.60778],[75.60308,11.60765],[75.60251,11.60781],[75.60229,11.60804],[75.6022,11.60894],[75.60146,11.60963],[75.60042,11.60979],[75.59867,11.60873],[75.59749,11.60914]]]}},{"type":"Feature","bbox":[75.60381,11.60314,75.62051,11.61241],"properties":{"ward":15,"name":"Arikkoth"},"geometry":{"type":"Polygon","coordinates":[[[75.60953,11.60314],[75.60915,11.60342],[75.60879,11.60401],[75.60688,11.60569],[75.60471,11.60696],[75.60381,11.60821],[75.60526,11.60892],[75.60645,11.6093],[75.60714,11.61006],[75.60719,11.60989],[75.60736,11.6099],[75.60818,11.61053],[75.60901,11.61071],[75.60904,11.61099],[75.60971,11.61133],[75.6098,11.61122],[75.61171,11.61179],[75.61295,11.61181],[75.61371,11.61218],[75.61446,11.61231],[75.6146,11.61195],[75.61508,11.61215],[75.61516,11.61206],[75.61576,11.61241],[75.61586,11.61205],[75.61668,11.61229],[75.6168,11.6122],[75.61692,11.6113],[75.61761,11.6115],[75.61791,11.61131],[75.61846,11.6117],[75.61865,11.61209],[75.61958,11.61206],[75.62051,11.61171],[75.62041,11.61129],[75.61994,11.61114],[75.61941,11.61067],[75.61925,11.61013],[75.61927,11.60915],[75.61891,11.60911],[75.61897,11.60836],[75.6186,11.60789],[75.61882,11.60755],[75.61936,11.6072],[75.61941,11.6069],[75.61933,11.60584],[75.61973,11.60447],[75.61959,11.60421],[75.61962,11.60372],[75.61948,11.60374],[75.61926,11.60316],[75.61464,11.60339],[75.61337,11.60366],[75.6134,11.60523],[75.61377,11.60649],[75.61254,11.606],[75.61172,11.60596],[75.61121,11.60628],[75.60963,11.60641],[75.60933,11.60621],[75.60907,11.60562],[75.60986,11.60541],[75.61073,11.60411],[75.61082,11.60373],[75.61039,11.60339],[75.60953,11.60314]]]}},{"type":"Feature","bbox":[75.60907,11.59945,75.61926,11.60649],"properties":{"ward":16,"name":"Kallunira"},"geometry":{"type":"Polygon","coordinates":[[[75.61167,11.60081],[75.61071,11.6021],[75.60953,11.60314],[75.61039,11.60339],[75.61082,11.60373],[75.61073,11.60411],[75.60986,11.60541],[75.60907,11.60562],[75.60933,11.60621],[75.60963,11.60641],[75.61121,11.60628],[75.61172,11.60596],[75.61254,11.606],[75.61377,11.60649],[75.6134,11.60523],[75.61337,11.60366],[75.61464,11.60339],[75.61926,11.60316],[75.61912,11.60187],[75.61657,11.60186],[75.61519,11.6014],[75.61416,11.60084],[75.61421,11.60026],[75.61365,11.59945],[75.61167,11.60081]]]}},{"type":"Feature","bbox":[75.60619,11.5971,75.61913,11.60187],"properties":{"ward":17,"name":"Kurumbayil"},"geometry":{"type":"Polygon","coordinates":[[[75.61167,11.60081],[75.61365,11.59945],[75.61421,11.60026],[75.61416,11.60084],[75.61519,11.6014],[75.61657,11.60186],[75.61912,11.60187],[75.61913,11.59954],[75.61862,11.59968],[75.6176,11.59942],[75.61716,11.59852],[75.61637,11.59865],[75.61584,11.59835],[75.61178,11.59923],[75.61065,11.59885],[75.60839,11.59843],[75.60626,11.5971],[75.60619,11.59838],[75.60653,11.59878],[75.60655,11.5998],[75.60674,11.60018],[75.60714,11.60039],[75.60924,11.60081],[75.61167,11.60081]]]}},{"type":"Feature","bbox":[75.60467,11.58975,75.61739,11.5991],"properties":{"ward":18,"name":"Sidhasramam"},"geometry":{"type":"Polygon","coordinates":[[[75.61209,11.5991],[75.61584,11.59835],[75.61637,11.59865],[75.61716,11.59852],[75.61739,11.598],[75.61669,11.59751],[75.61544,11.59718],[75.61591,11.59466],[75.61552,11.59369],[75.61507,11.59376],[75.61497,11.59336],[75.6147,11.59339],[75.61454,11.59312],[75.61448,11.59254],[75.6147,11.59241],[75.61465,11.59194],[75.61348,11.59187],[75.61344,11.59086],[75.6133,11.59079],[75.61236,11.59106],[75.61223,11.58975],[75.61061,11.59011],[75.60675,11.58988],[75.60467,11.59014],[75.60516,11.59104],[75.60593,11.59102],[75.60635,11.59118],[75.60753,11.59232],[75.6102,11.59243],[75.61152,11.59543],[75.61292,11.59644],[75.61301,11.5969],[75.6124,11.59808],[75.61209,11.5991]]]}},{"type":"Feature","bbox":[75.60516,11.59102,75.61301,11.59923],"properties":{"ward":19,"name":"Kunjankuzhi"},"geometry":{"type":"Polygon","coordinates":[[[75.60516,11.59104],[75.60606,11.59264],[75.60626,11.5971],[75.60839,11.59843],[75.61065,11.59885],[75.61178,11.59923],[75.61209,11.5991],[75.6124,11.59808],[75.61301,11.5969],[75.61292,11.59644],[75.61152,11.59543],[75.6102,11.59243],[75.60753,11.59232],[75.60635,11.59118],[75.60593,11.59102],[75.60516,11.59104]]]}},{"type":"Feature","bbox":[75.59888,11.59014,75.60626,11.59723],"properties":{"ward":20,"name":"Puthiyappu"},"geometry":{"type":"Polygon","coordinates":[[[75.60626,11.5971],[75.60606,11.59264],[75.60467,11.59014],[75.6043,11.59028],[75.60372,11.59108],[75.60299,11.59108],[75.60071,11.59214],[75.60007,11.59209],[75.59918,11.59176],[75.59888,11.59182],[75.59956,11.59316],[75.60086,11.59317],[75.60121,11.59365],[75.60148,11.59451],[75.60121,11.59603],[75.60169,11.59682],[75.6017,11.59723],[75.6028,11.59701],[75.60547,11.59723],[75.60626,11.5971]]]}},{"type":"Feature","bbox":[75.60021,11.59701,75.6028,11.60168],"properties":{"ward":21,"name":"Achammandi"},"geometry":{"type":"Polygon","coordinates":[[[75.6028,11.59701],[75.60025,11.59749],[75.60065,11.59854],[75.60068,11.59956],[75.60032,11.60014],[75.60021,11.60155],[75.60203,11.60152],[75.60241,11.60168],[75.60273,11.60112],[75.60251,11.59978],[75.6028,11.59701]]]}},{"type":"Feature","bbox":[75.5969,11.59182,75.6017,11.59734],"properties":{"ward":22,"name":"Mamballi"},"geometry":{"type":"Polygon","coordinates":[[[75.59888,11.59182],[75.5969,11.5926],[75.59747,11.59364],[75.59813,11.59441],[75.59827,11.59521],[75.59931,11.59488],[75.59996,11.59502],[75.60025,11.59534],[75.60038,11.59661],[75.6008,11.59734],[75.6017,11.59723],[75.60169,11.59682],[75.60121,11.59603],[75.60148,11.59451],[75.60121,11.59365],[75.60086,11.59317],[75.59956,11.59316],[75.59888,11.59182]]]}},{"type":"Feature","bbox":[75.59427,11.5926,75.6008,11.59986],"properties":{"ward":23,"name":"Cheeramveedu"},"geometry":{"type":"Polygon","coordinates":[[[75.5969,11.5926],[75.59558,11.59318],[75.59427,11.59337],[75.59521,11.59553],[75.59538,11.59693],[75.59498,11.59784],[75.5959,11.59834],[75.59585,11.59936],[75.59626,11.59986],[75.59729,11.59885],[75.59833,11.59722],[75.59867,11.59696],[75.5994,11.59761],[75.6008,11.59734],[75.60038,11.59661],[75.60034,11.5957],[75.60017,11.59524],[75.59962,11.59489],[75.59827,11.59521],[75.59813,11.59441],[75.59747,11.59364],[75.5969,11.5926]]]}},{"type":"Feature","bbox":[75.59223,11.58788,75.59929,11.59337],"properties":{"ward":24,"name":"Narayana Nagaram"},"geometry":{"type":"Polygon","coordinates":[[[75.59929,11.5918],[75.59837,11.58931],[75.59893,11.58824],[75.59742,11.58824],[75.59694,11.58813],[75.59678,11.58792],[75.59563,11.58788],[75.59409,11.58842],[75.59336,11.58941],[75.59223,11.5894],[75.59427,11.59337],[75.59558,11.59318],[75.59817,11.59202],[75.59929,11.5918]]]}},{"type":"Feature","bbox":[75.58955,11.58887,75.59427,11.59337],"properties":{"ward":25,"name":"Edodi"},"geometry":{"type":"Polygon","coordinates":[[[75.58992,11.58887],[75.58955,11.59],[75.59121,11.5905],[75.59103,11.59261],[75.59427,11.59337],[75.59223,11.5894],[75.59041,11.58909],[75.58992,11.58887]]]}},{"type":"Feature","bbox":[75.58992,11.58524,75.59967,11.58945],"properties":{"ward":26,"name":"Karimbana"},"geometry":{"type":"Polygon","coordinates":[[[75.58992,11.58887],[75.59041,11.58909],[75.59278,11.58945],[75.59336,11.58941],[75.59409,11.58842],[75.59563,11.58788],[75.59678,11.58792],[75.59694,11.58813],[75.59742,11.58824],[75.59893,11.58824],[75.59951,11.58682],[75.59967,11.58572],[75.59918,11.58579],[75.59897,11.58607],[75.59829,11.58637],[75.59749,11.5864],[75.59709,11.58631],[75.5957,11.58531],[75.59538,11.58524],[75.59484,11.58545],[75.59411,11.58532],[75.59366,11.58559],[75.59316,11.58559],[75.59291,11.58543],[75.59183,11.58558],[75.59079,11.5855],[75.59009,11.58526],[75.59031,11.58778],[75.58992,11.58887]]]}},{"type":"Feature","bbox":[75.59009,11.58128,75.59973,11.5864],"properties":{"ward":27,"name":"Cheenam Veedu"},"geometry":{"type":"Polygon","coordinates":[[[75.59009,11.58526],[75.59079,11.5855],[75.59183,11.58558],[75.59291,11.58543],[75.59316,11.58559],[75.59366,11.58559],[75.59411,11.58532],[75.59484,11.58545],[75.59538,11.58524],[75.5957,11.58531],[75.59709,11.58631],[75.59749,11.5864],[75.59829,11.58637],[75.59897,11.58607],[75.59918,11.58579],[75.59967,11.58572],[75.59973,11.58556],[75.59967,11.58439],[75.59917,11.58339],[75.59878,11.58322],[75.59642,11.58299],[75.59546,11.58275],[75.59483,11.58217],[75.59412,11.58186],[75.59343,11.5818],[75.59181,11.58128],[75.59123,11.58235],[75.59137,11.5825],[75.59049,11.58397],[75.59009,11.58526]]]}},{"type":"Feature","bbox":[75.59837,11.58356,75.60512,11.59214],"properties":{"ward":28,"name":"Meppayil"},"geometry":{"type":"Polygon","coordinates":[[[75.59929,11.5918],[75.60071,11.59214],[75.60299,11.59108],[75.60372,11.59108],[75.6043,11.59028],[75.60512,11.59009],[75.60512,11.58949],[75.60464,11.5876],[75.60365,11.58476],[75.60344,11.58361],[75.60031,11.58356],[75.59947,11.58387],[75.59967,11.58439],[75.59973,11.58556],[75.59951,11.58682],[75.59837,11.58931],[75.59929,11.5918]]]}},{"type":"Feature","bbox":[75.60344,11.57857,75.61445,11.59011],"properties":{"ward":29,"name":"Kokkanjathu"},"geometry":{"type":"Polygon","coordinates":[[[75.60344,11.58361],[75.60365,11.58476],[75.60464,11.5876],[75.60512,11.58949],[75.60512,11.59009],[75.60675,11.58988],[75.61061,11.59011],[75.61223,11.58975],[75.61227,11.58928],[75.61203,11.58934],[75.61187,11.58862],[75.61156,11.58863],[75.61152,11.58825],[75.61126,11.58817],[75.61138,11.58742],[75.61105,11.58718],[75.61122,11.58586],[75.61139,11.58576],[75.61139,11.58474],[75.6115,11.5842],[75.61205,11.58386],[75.61169,11.58336],[75.61243,11.5828],[75.61238,11.58255],[75.61343,11.58253],[75.61357,11.58236],[75.61356,11.58208],[75.61379,11.58186],[75.61424,11.57929],[75.61445,11.57893],[75.61134,11.5786],[75.60882,11.57882],[75.6083,11.57857],[75.60727,11.58117],[75.6065,11.58227],[75.60661,11.58315],[75.60402,11.58325],[75.60344,11.58361]]]}},{"type":"Feature","bbox":[75.59181,11.57438,75.60734,11.58387],"properties":{"ward":30,"name":"Chandhanam Paramba"},"geometry":{"type":"Polygon","coordinates":[[[75.5974,11.57438],[75.59394,11.5778],[75.59181,11.58128],[75.59343,11.5818],[75.59412,11.58186],[75.59483,11.58217],[75.59546,11.58275],[75.59642,11.58299],[75.59878,11.58322],[75.59917,11.58339],[75.59947,11.58387],[75.60031,11.58356],[75.60363,11.58361],[75.60402,11.58325],[75.60661,11.58315],[75.6065,11.58227],[75.60734,11.58094],[75.60614,11.58043],[75.60495,11.58017],[75.60324,11.57903],[75.60148,11.57903],[75.60089,11.57874],[75.60075,11.5784],[75.59978,11.57767],[75.59932,11.57684],[75.59889,11.57651],[75.59808,11.57514],[75.5974,11.57438]]]}},{"type":"Feature","bbox":[75.5974,11.56797,75.6083,11.58094],"properties":{"ward":31,"name":"Puthuppanam"},"geometry":{"type":"Polygon","coordinates":[[[75.60467,11.56797],[75.6042,11.56906],[75.60337,11.57028],[75.60287,11.57074],[75.60169,11.57169],[75.59998,11.5726],[75.5974,11.57438],[75.59808,11.57514],[75.59889,11.57651],[75.59932,11.57684],[75.59978,11.57767],[75.60075,11.5784],[75.60089,11.57874],[75.60148,11.57903],[75.60324,11.57903],[75.60495,11.58017],[75.60614,11.58043],[75.60734,11.58094],[75.6083,11.57857],[75.60706,11.57753],[75.60747,11.57676],[75.60767,11.57555],[75.60638,11.57428],[75.60502,11.57359],[75.6057,11.57252],[75.60606,11.57081],[75.60652,11.56994],[75.60691,11.56961],[75.60645,11.56932],[75.60636,11.56898],[75.60541,11.56867],[75.60467,11.56797]]]}},{"type":"Feature","bbox":[75.60706,11.5725,75.61609,11.58217],"properties":{"ward":32,"name":"Nalladath"},"geometry":{"type":"Polygon","coordinates":[[[75.6083,11.57857],[75.60882,11.57882],[75.61134,11.5786],[75.61445,11.57893],[75.61424,11.57929],[75.61379,11.58186],[75.61536,11.58208],[75.61548,11.58198],[75.61609,11.58217],[75.61584,11.57855],[75.61597,11.57817],[75.6157,11.57622],[75.61537,11.57573],[75.61499,11.574],[75.61461,11.57359],[75.61341,11.57332],[75.61195,11.57254],[75.6114,11.5725],[75.61087,11.57351],[75.61072,11.57543],[75.60903,11.5754],[75.60759,11.57613],[75.60747,11.57676],[75.60706,11.57753],[75.6083,11.57857]]]}},{"type":"Feature","bbox":[75.61341,11.56896,75.62522,11.58696],"properties":{"ward":33,"name":"Panikkotti"},"geometry":{"type":"Polygon","coordinates":[[[75.61341,11.57332],[75.61461,11.57359],[75.61499,11.574],[75.61537,11.57573],[75.6157,11.57622],[75.61597,11.57817],[75.61584,11.57855],[75.61609,11.58217],[75.61645,11.58228],[75.6161,11.58321],[75.61635,11.58387],[75.61721,11.58429],[75.61768,11.58399],[75.61824,11.58395],[75.61829,11.58449],[75.61905,11.58434],[75.61908,11.58448],[75.62157,11.58445],[75.62169,11.58422],[75.62132,11.58312],[75.62144,11.58286],[75.62163,11.58285],[75.62207,11.58373],[75.62243,11.58352],[75.62269,11.58412],[75.62282,11.585],[75.62262,11.58587],[75.62286,11.58633],[75.6229,11.58696],[75.6238,11.5869],[75.62382,11.58609],[75.6247,11.58624],[75.62472,11.58571],[75.62488,11.58573],[75.62522,11.58458],[75.62513,11.5831],[75.62446,11.58261],[75.62488,11.58201],[75.62482,11.58125],[75.62462,11.58096],[75.62438,11.58106],[75.6245,11.58138],[75.62383,11.58175],[75.62364,11.58165],[75.62386,11.58146],[75.62372,11.58088],[75.62338,11.58093],[75.62328,11.5806],[75.62303,11.58075],[75.62242,11.58008],[75.6223,11.58019],[75.62113,11.57938],[75.62081,11.57855],[75.6209,11.57787],[75.62066,11.5778],[75.62085,11.57725],[75.62107,11.57737],[75.62124,11.57502],[75.62173,11.57426],[75.62031,11.57365],[75.62043,11.57349],[75.61962,11.57277],[75.61956,11.57165],[75.61841,11.57193],[75.61696,11.57144],[75.61504,11.57031],[75.61428,11.56939],[75.6139,11.56919],[75.61389,11.56896],[75.61364,11.56913],[75.61391,11.56957],[75.61418,11.57158],[75.61403,11.57201],[75.61353,11.57254],[75.61341,11.57332]]]}},{"type":"Feature","bbox":[75.60635,11.56317,75.61493,11.57332],"properties":{"ward":34,"name":"Mooradu"},"geometry":{"type":"Polygon","coordinates":[[[75.60635,11.56405],[75.61086,11.56539],[75.6114,11.56581],[75.61165,11.56641],[75.61173,11.56724],[75.61169,11.56876],[75.61135,11.57042],[75.6115,11.5725],[75.61195,11.57254],[75.61341,11.57332],[75.61353,11.57254],[75.61403,11.57201],[75.61418,11.57158],[75.61391,11.56957],[75.61364,11.56913],[75.61389,11.56896],[75.61493,11.56597],[75.61281,11.5658],[75.61082,11.56503],[75.60859,11.5639],[75.60659,11.56317],[75.60635,11.56405]]]}},{"type":"Feature","bbox":[75.60467,11.56405,75.61173,11.57613],"properties":{"ward":35,"name":"Velutha Mala"},"geometry":{"type":"Polygon","coordinates":[[[75.60467,11.56797],[75.60541,11.56867],[75.60636,11.56898],[75.60645,11.56932],[75.60691,11.56961],[75.60652,11.56994],[75.60606,11.57081],[75.6057,11.57252],[75.60502,11.57359],[75.60638,11.57428],[75.60708,11.57486],[75.60767,11.57555],[75.60759,11.57613],[75.60903,11.5754],[75.61072,11.57543],[75.61087,11.57351],[75.6115,11.5725],[75.61135,11.57042],[75.61169,11.56876],[75.61173,11.56724],[75.61165,11.56641],[75.6114,11.56581],[75.61086,11.56539],[75.60635,11.56405],[75.60576,11.56593],[75.60467,11.56797]]]}},{"type":"Feature","bbox":[75.60098,11.56269,75.60659,11.57074],"properties":{"ward":36,"name":"Karukayil"},"geometry":{"type":"Polygon","coordinates":[[[75.60287,11.57074],[75.60337,11.57028],[75.60432,11.56887],[75.60607,11.56509],[75.60659,11.56317],[75.60546,11.56269],[75.60401,11.56504],[75.60226,11.56542],[75.60099,11.56548],[75.60098,11.56809],[75.60125,11.57024],[75.60172,11.57015],[75.60209,11.57073],[75.60287,11.57074]]]}},{"type":"Feature","bbox":[75.59557,11.56548,75.60287,11.57495],"properties":{"ward":37,"name":"Kakkattiyil"},"geometry":{"type":"Polygon","coordinates":[[[75.59678,11.57495],[75.5983,11.57366],[75.60169,11.57169],[75.60287,11.57074],[75.60209,11.57073],[75.60172,11.57015],[75.60125,11.57024],[75.60098,11.56809],[75.60099,11.56548],[75.6,11.56554],[75.59845,11.56741],[75.59574,11.5688],[75.59557,11.56935],[75.59598,11.57377],[75.59678,11.57495]]]}},{"type":"Feature","bbox":[75.58961,11.5688,75.59678,11.5759],"properties":{"ward":38,"name":"Thuruthiyil"},"geometry":{"type":"Polygon","coordinates":[[[75.59678,11.57495],[75.59598,11.57377],[75.59557,11.56935],[75.59574,11.5688],[75.59231,11.57081],[75.5914,11.5707],[75.59122,11.57189],[75.59062,11.57309],[75.58961,11.57589],[75.59296,11.5759],[75.59486,11.57519],[75.59558,11.57514],[75.59637,11.5754],[75.59678,11.57495]]]}},{"type":"Feature","bbox":[75.58785,11.57514,75.59637,11.58235],"properties":{"ward":39,"name":"Kayyil"},"geometry":{"type":"Polygon","coordinates":[[[75.59123,11.58235],[75.59394,11.5778],[75.59637,11.5754],[75.59558,11.57514],[75.59486,11.57519],[75.59296,11.5759],[75.58961,11.57589],[75.58922,11.57691],[75.58858,11.58035],[75.58804,11.58103],[75.58785,11.58188],[75.58951,11.58201],[75.59037,11.58185],[75.59052,11.58222],[75.59073,11.5821],[75.59081,11.58235],[75.59123,11.58235]]]}},{"type":"Feature","bbox":[75.58365,11.56824,75.5914,11.58238],"properties":{"ward":40,"name":"Azhithala"},"geometry":{"type":"Polygon","coordinates":[[[75.58774,11.58238],[75.58804,11.58103],[75.58858,11.58035],[75.58922,11.57691],[75.59062,11.57309],[75.59122,11.57189],[75.5914,11.57096],[75.5914,11.5707],[75.59095,11.57064],[75.58892,11.56824],[75.58842,11.5684],[75.58789,11.57035],[75.58709,11.57228],[75.5862,11.57515],[75.58455,11.57882],[75.58365,11.58189],[75.58544,11.5823],[75.5858,11.58214],[75.58596,11.58133],[75.58774,11.58238]]]}},{"type":"Feature","bbox":[75.58279,11.58133,75.58774,11.58678],"properties":{"ward":41,"name":"Purangara"},"geometry":{"type":"Polygon","coordinates":[[[75.58598,11.58678],[75.58723,11.58485],[75.58774,11.58238],[75.58596,11.58133],[75.5858,11.58214],[75.58544,11.5823],[75.58364,11.5819],[75.58279,11.58504],[75.58558,11.58614],[75.58598,11.58678]]]}},{"type":"Feature","bbox":[75.58644,11.58185,75.59137,11.58897],"properties":{"ward":42,"name":"Pakkayil"},"geometry":{"type":"Polygon","coordinates":[[[75.58989,11.58897],[75.59031,11.58778],[75.59009,11.58526],[75.59049,11.58397],[75.59137,11.5825],[75.59117,11.58228],[75.59081,11.58235],[75.59073,11.5821],[75.59052,11.58222],[75.59037,11.58185],[75.58951,11.58201],[75.58785,11.58188],[75.58723,11.58485],[75.58644,11.586],[75.58751,11.58701],[75.58725,11.58764],[75.58989,11.58897]]]}},{"type":"Feature","bbox":[75.58268,11.586,75.58989,11.5958],"properties":{"ward":43,"name":"Nadol"},"geometry":{"type":"Polygon","coordinates":[[[75.58955,11.59],[75.58989,11.58897],[75.58725,11.58764],[75.58751,11.58701],[75.58644,11.586],[75.58579,11.58715],[75.5859,11.58787],[75.5855,11.58852],[75.5845,11.58932],[75.5845,11.58983],[75.58278,11.59356],[75.58268,11.5948],[75.5831,11.59498],[75.58316,11.59521],[75.58462,11.5958],[75.58574,11.59571],[75.58955,11.59]]]}},{"type":"Feature","bbox":[75.58096,11.58505,75.58598,11.59356],"properties":{"ward":44,"name":"Koyilandi Valappu"},"geometry":{"type":"Polygon","coordinates":[[[75.58579,11.58715],[75.58598,11.58678],[75.58558,11.58614],[75.58278,11.58505],[75.5819,11.58668],[75.58096,11.58934],[75.58234,11.59023],[75.58255,11.59066],[75.58234,11.59105],[75.58219,11.59212],[75.58278,11.59356],[75.5845,11.58983],[75.5845,11.58932],[75.5855,11.58852],[75.5859,11.58787],[75.58579,11.58715]]]}},{"type":"Feature","bbox":[75.57784,11.58946,75.58278,11.59895],"properties":{"ward":45,"name":"Pandikasala"},"geometry":{"type":"Polygon","coordinates":[[[75.58273,11.59398],[75.58278,11.59356],[75.58219,11.59212],[75.58234,11.59105],[75.58255,11.59066],[75.58234,11.59023],[75.58111,11.58946],[75.57784,11.59867],[75.57931,11.59895],[75.57952,11.59835],[75.58107,11.59817],[75.58164,11.59784],[75.58152,11.59746],[75.58161,11.5963],[75.58273,11.59398]]]}},{"type":"Feature","bbox":[75.57973,11.59398,75.58574,11.60298],"properties":{"ward":46,"name":"Mukkola"},"geometry":{"type":"Polygon","coordinates":[[[75.58054,11.59824],[75.5812,11.59901],[75.58115,11.60062],[75.58088,11.60136],[75.57973,11.60244],[75.58093,11.60298],[75.58158,11.60134],[75.58228,11.60014],[75.58479,11.5967],[75.58574,11.59571],[75.5848,11.59585],[75.58316,11.59521],[75.5831,11.59498],[75.58268,11.5948],[75.58273,11.59398],[75.58161,11.5963],[75.58152,11.59746],[75.58164,11.59784],[75.58107,11.59817],[75.58054,11.59824]]]}},{"type":"Feature","bbox":[75.57606,11.59824,75.5812,11.60328],"properties":{"ward":47,"name":"Mukacheri"},"geometry":{"type":"Polygon","coordinates":[[[75.57973,11.60244],[75.58088,11.60136],[75.58115,11.60062],[75.5812,11.59901],[75.58054,11.59824],[75.57952,11.59835],[75.57931,11.59895],[75.57784,11.59867],[75.57768,11.59881],[75.57606,11.60323],[75.57698,11.60325],[75.57785,11.60282],[75.57866,11.60328],[75.57905,11.60328],[75.57953,11.60301],[75.57973,11.60277],[75.57973,11.60244]]]}}]}