{"type":"FeatureCollection","features":[{"type":"Feature","bbox":[77.18394,12.64287,77.19316,12.65009],"properties":{"ward":1},"geometry":{"type":"Polygon","coordinates":[[[77.19305,12.64739],[77.19265,12.64736],[77.19243,12.6463],[77.19184,12.64631],[77.19179,12.64518],[77.19195,12.64453],[77.19214,12.64452],[77.19228,12.6437],[77.19094,12.6435],[77.19074,12.64379],[77.19005,12.64381],[77.18935,12.64449],[77.18914,12.64448],[77.18883,12.64491],[77.18852,12.6448],[77.18836,12.64498],[77.18745,12.64478],[77.18753,12.6442],[77.18777,12.64424],[77.18772,12.64395],[77.188,12.64296],[77.18767,12.64287],[77.18722,12.64351],[77.1872,12.64378],[77.18691,12.64404],[77.18693,12.64424],[77.18494,12.64378],[77.18486,12.64352],[77.18464,12.6435],[77.18425,12.64504],[77.18394,12.6477],[77.1842,12.64805],[77.18416,12.6485],[77.18451,12.649],[77.1865,12.64869],[77.1875,12.64871],[77.193,12.65009],[77.19316,12.64852],[77.19305,12.64739]]]}},{"type":"Feature","bbox":[77.19287,12.64414,77.19745,12.65047],"properties":{"ward":2},"geometry":{"type":"Polygon","coordinates":[[[77.19573,12.64681],[77.19644,12.64638],[77.19692,12.64519],[77.19745,12.64481],[77.19721,12.64479],[77.19721,12.6446],[77.19697,12.64459],[77.19696,12.64477],[77.19531,12.6446],[77.19522,12.64414],[77.19287,12.64441],[77.19298,12.64643],[77.19316,12.64718],[77.19305,12.64739],[77.19316,12.64852],[77.193,12.65009],[77.19429,12.65047],[77.19441,12.64693],[77.19573,12.64681]]]}},{"type":"Feature","bbox":[77.19179,12.63684,77.19918,12.64921],"properties":{"ward":3},"geometry":{"type":"Polygon","coordinates":[[[77.19841,12.64921],[77.19918,12.64907],[77.1991,12.64816],[77.1981,12.64824],[77.19812,12.6478],[77.19908,12.64788],[77.19904,12.64686],[77.19888,12.64683],[77.19892,12.64648],[77.19914,12.64648],[77.19916,12.64537],[77.19895,12.64535],[77.19792,12.64437],[77.19766,12.64442],[77.19751,12.64232],[77.1986,12.63829],[77.19732,12.63785],[77.1969,12.63759],[77.19669,12.63719],[77.19603,12.63684],[77.19569,12.63692],[77.19546,12.63735],[77.19535,12.63733],[77.19486,12.64056],[77.19474,12.64054],[77.19466,12.64089],[77.19355,12.6411],[77.19347,12.64136],[77.19312,12.64147],[77.19249,12.64148],[77.19269,12.64248],[77.19214,12.64452],[77.19195,12.64453],[77.19179,12.64518],[77.19184,12.64631],[77.19243,12.6463],[77.19265,12.64736],[77.19313,12.64732],[77.19287,12.64441],[77.19522,12.64414],[77.19531,12.6446],[77.19696,12.64477],[77.19697,12.64459],[77.19721,12.6446],[77.19721,12.64479],[77.19745,12.64481],[77.19692,12.64519],[77.19644,12.64638],[77.19573,12.64681],[77.19581,12.64902],[77.19841,12.64921]]]}},{"type":"Feature","bbox":[77.19429,12.64681,77.19884,12.65219],"properties":{"ward":4},"geometry":{"type":"Polygon","coordinates":[[[77.1988,12.64909],[77.19841,12.64921],[77.19581,12.64902],[77.19573,12.64681],[77.19441,12.64693],[77.19429,12.65047],[77.19795,12.65219],[77.19884,12.64975],[77.1988,12.64909]]]}},{"type":"Feature","bbox":[77.19795,12.6478,77.20285,12.65352],"properties":{"ward":5},"geometry":{"type":"Polygon","coordinates":[[[77.20285,12.6529],[77.20273,12.65242],[77.201,12.65247],[77.20098,12.6515],[77.20039,12.65152],[77.20033,12.64985],[77.19967,12.65007],[77.19944,12.64788],[77.19812,12.6478],[77.1981,12.64824],[77.1991,12.64816],[77.19918,12.64907],[77.1988,12.64909],[77.19884,12.64975],[77.19795,12.65219],[77.20051,12.65352],[77.20285,12.6529]]]}},{"type":"Feature","bbox":[77.20029,12.64878,77.20467,12.6529],"properties":{"ward":6},"geometry":{"type":"Polygon","coordinates":[[[77.20178,12.64878],[77.20129,12.64895],[77.20085,12.64948],[77.20029,12.64979],[77.20039,12.65152],[77.20098,12.6515],[77.201,12.65247],[77.20273,12.65242],[77.20285,12.6529],[77.20378,12.65262],[77.20358,12.65177],[77.20467,12.65157],[77.20464,12.65103],[77.20241,12.65108],[77.20215,12.64974],[77.20178,12.64878]]]}},{"type":"Feature","bbox":[77.20058,12.64602,77.20857,12.65688],"properties":{"ward":7},"geometry":{"type":"Polygon","coordinates":[[[77.20582,12.65481],[77.20793,12.65338],[77.20839,12.6525],[77.20857,12.6518],[77.20827,12.65181],[77.20841,12.65021],[77.20782,12.65042],[77.20615,12.65054],[77.20442,12.65004],[77.20449,12.64968],[77.20554,12.64807],[77.20556,12.64687],[77.20468,12.64693],[77.20341,12.64643],[77.20345,12.64625],[77.20196,12.64602],[77.20197,12.64661],[77.20173,12.64747],[77.20176,12.64873],[77.20215,12.64974],[77.20241,12.65108],[77.20464,12.65103],[77.20467,12.65157],[77.20358,12.65177],[77.20378,12.65262],[77.20061,12.65353],[77.20058,12.65366],[77.20174,12.65457],[77.20414,12.65688],[77.20582,12.65481]]]}},{"type":"Feature","bbox":[77.19751,12.64044,77.20715,12.65007],"properties":{"ward":8},"geometry":{"type":"Polygon","coordinates":[[[77.19967,12.65007],[77.20085,12.64948],[77.20129,12.64895],[77.20178,12.64878],[77.20173,12.64747],[77.20197,12.64661],[77.20196,12.64602],[77.20345,12.64625],[77.20341,12.64643],[77.20468,12.64693],[77.20556,12.64687],[77.20596,12.64617],[77.20715,12.64599],[77.20697,12.6451],[77.20467,12.64525],[77.20514,12.6418],[77.20413,12.64159],[77.204,12.64046],[77.20151,12.64059],[77.2008,12.64088],[77.19984,12.64071],[77.19911,12.64079],[77.19802,12.64044],[77.19751,12.64222],[77.19766,12.64442],[77.19792,12.64437],[77.19895,12.64535],[77.19916,12.64537],[77.19914,12.64648],[77.19892,12.64648],[77.19888,12.64683],[77.19904,12.64686],[77.19908,12.64788],[77.19944,12.64788],[77.19967,12.65007]]]}},{"type":"Feature","bbox":[77.19827,12.65274,77.20174,12.65664],"properties":{"ward":9},"geometry":{"type":"Polygon","coordinates":[[[77.20174,12.65457],[77.20058,12.65366],[77.20061,12.65353],[77.19897,12.65274],[77.19857,12.65367],[77.19827,12.65558],[77.20105,12.65664],[77.20146,12.65507],[77.20174,12.65457]]]}},{"type":"Feature","bbox":[77.18403,12.64869,77.19897,12.65654],"properties":{"ward":10},"geometry":{"type":"Polygon","coordinates":[[[77.19849,12.65406],[77.19897,12.65274],[77.19481,12.65065],[77.1875,12.64871],[77.1865,12.64869],[77.18451,12.649],[77.18487,12.64983],[77.18491,12.65039],[77.18471,12.65203],[77.18403,12.65407],[77.19447,12.65654],[77.19456,12.65411],[77.19546,12.65425],[77.19549,12.65386],[77.19593,12.65389],[77.19601,12.65363],[77.19849,12.65406]]]}},{"type":"Feature","bbox":[77.19447,12.65363,77.19969,12.65753],"properties":{"ward":11},"geometry":{"type":"Polygon","coordinates":[[[77.19969,12.65609],[77.19827,12.65558],[77.19855,12.65407],[77.19601,12.65363],[77.19593,12.65389],[77.19549,12.65386],[77.19546,12.65425],[77.19456,12.65411],[77.19447,12.65654],[77.19852,12.65753],[77.19869,12.65646],[77.19957,12.65657],[77.19969,12.65609]]]}},{"type":"Feature","bbox":[77.19852,12.65609,77.20404,12.65935],"properties":{"ward":12},"geometry":{"type":"Polygon","coordinates":[[[77.20343,12.65935],[77.20404,12.65736],[77.20133,12.65675],[77.19969,12.65609],[77.19957,12.65657],[77.19869,12.65646],[77.19852,12.65753],[77.20091,12.65819],[77.20343,12.65935]]]}},{"type":"Feature","bbox":[77.20105,12.65457,77.21039,12.65998],"properties":{"ward":13},"geometry":{"type":"Polygon","coordinates":[[[77.21039,12.65983],[77.21011,12.65952],[77.21019,12.65886],[77.2055,12.65785],[77.20368,12.6565],[77.20174,12.65457],[77.20151,12.65497],[77.20105,12.65664],[77.20404,12.65736],[77.20375,12.65839],[77.20665,12.65967],[77.20951,12.65998],[77.21039,12.65983]]]}},{"type":"Feature","bbox":[77.19579,12.6569,77.20615,12.66204],"properties":{"ward":14},"geometry":{"type":"Polygon","coordinates":[[[77.20603,12.66058],[77.20091,12.65819],[77.19585,12.6569],[77.19579,12.65728],[77.19718,12.65829],[77.19851,12.65833],[77.19856,12.65872],[77.19926,12.659],[77.19923,12.65985],[77.20228,12.66009],[77.20201,12.66127],[77.20474,12.6614],[77.20486,12.66204],[77.20615,12.66187],[77.20597,12.66119],[77.20603,12.66058]]]}},{"type":"Feature","bbox":[77.20201,12.66058,77.21376,12.67151],"properties":{"ward":15},"geometry":{"type":"Polygon","coordinates":[[[77.21215,12.66497],[77.20894,12.66236],[77.20603,12.66058],[77.20597,12.66119],[77.20615,12.66187],[77.20486,12.66204],[77.20474,12.6614],[77.20201,12.66127],[77.20232,12.66386],[77.20253,12.6641],[77.204,12.6641],[77.20398,12.66441],[77.20434,12.66451],[77.20436,12.66473],[77.2046,12.66482],[77.20446,12.66594],[77.20563,12.66587],[77.20596,12.66803],[77.20738,12.66765],[77.20727,12.6701],[77.20691,12.67138],[77.20743,12.67111],[77.20885,12.67151],[77.21051,12.67148],[77.21035,12.66964],[77.21051,12.6686],[77.21223,12.66804],[77.21317,12.66817],[77.21346,12.66797],[77.21376,12.66732],[77.21122,12.6664],[77.21132,12.66507],[77.21215,12.66497]]]}},{"type":"Feature","bbox":[77.20343,12.65839,77.20854,12.66208],"properties":{"ward":16},"geometry":{"type":"Polygon","coordinates":[[[77.20836,12.66067],[77.20753,12.6606],[77.2073,12.65972],[77.20632,12.6596],[77.2045,12.65863],[77.20375,12.65839],[77.20343,12.65935],[77.20642,12.66078],[77.20854,12.66208],[77.20854,12.66092],[77.20835,12.66093],[77.20836,12.66067]]]}},{"type":"Feature","bbox":[77.2073,12.65971,77.21248,12.66212],"properties":{"ward":17},"geometry":{"type":"Polygon","coordinates":[[[77.21248,12.66045],[77.21039,12.65983],[77.20951,12.65998],[77.2073,12.65971],[77.2076,12.66065],[77.2085,12.66067],[77.20866,12.6606],[77.20873,12.66025],[77.20935,12.66029],[77.2094,12.66087],[77.21096,12.66086],[77.21099,12.66182],[77.21186,12.66208],[77.21217,12.66212],[77.21248,12.66045]]]}},{"type":"Feature","bbox":[77.20835,12.66025,77.21312,12.66549],"properties":{"ward":18},"geometry":{"type":"Polygon","coordinates":[[[77.21312,12.66061],[77.21248,12.66045],[77.21217,12.66212],[77.21099,12.66182],[77.21096,12.66086],[77.2094,12.66087],[77.20935,12.66029],[77.20873,12.66025],[77.20865,12.66061],[77.20836,12.66067],[77.20835,12.66093],[77.20854,12.66092],[77.20854,12.66208],[77.21285,12.66549],[77.21304,12.66525],[77.21312,12.66061]]]}},{"type":"Feature","bbox":[77.21285,12.66061,77.22241,12.67202],"properties":{"ward":19},"geometry":{"type":"Polygon","coordinates":[[[77.22115,12.67171],[77.22059,12.67135],[77.22007,12.67071],[77.2206,12.67046],[77.22079,12.66964],[77.22196,12.66983],[77.22241,12.668],[77.22003,12.66761],[77.21996,12.66842],[77.21874,12.66831],[77.21513,12.66148],[77.21312,12.66061],[77.21304,12.66525],[77.21285,12.66549],[77.22073,12.67202],[77.22083,12.67179],[77.22115,12.67171]]]}},{"type":"Feature","bbox":[77.21153,12.65375,77.23248,12.67171],"properties":{"ward":20},"geometry":{"type":"Polygon","coordinates":[[[77.21878,12.65397],[77.21556,12.65375],[77.21535,12.65624],[77.21194,12.65596],[77.21153,12.65595],[77.21155,12.65615],[77.21172,12.65672],[77.21251,12.65793],[77.21563,12.66223],[77.21874,12.66831],[77.21996,12.66842],[77.22003,12.66761],[77.22241,12.668],[77.22196,12.66983],[77.22079,12.66964],[77.2206,12.67046],[77.22007,12.67071],[77.22059,12.67135],[77.22115,12.67171],[77.22137,12.67165],[77.22152,12.6711],[77.22209,12.67132],[77.22319,12.66893],[77.22384,12.66905],[77.22415,12.66732],[77.22468,12.66744],[77.22459,12.66595],[77.22416,12.66534],[77.22428,12.66508],[77.22526,12.66537],[77.22536,12.66426],[77.22557,12.66399],[77.22617,12.66404],[77.22646,12.66329],[77.22663,12.66323],[77.2279,12.6634],[77.22859,12.66327],[77.2299,12.66341],[77.23223,12.66331],[77.23248,12.66275],[77.23087,12.65915],[77.23027,12.65961],[77.22976,12.65958],[77.23004,12.65993],[77.22913,12.65972],[77.22909,12.65927],[77.22895,12.65947],[77.22797,12.65927],[77.22679,12.65833],[77.22638,12.6583],[77.22616,12.65855],[77.22477,12.65809],[77.22155,12.65802],[77.2207,12.65775],[77.22071,12.65709],[77.21949,12.65655],[77.21969,12.65564],[77.21936,12.65569],[77.21878,12.65397]]]}},{"type":"Feature","bbox":[77.20751,12.65624,77.2113,12.65886],"properties":{"ward":21},"geometry":{"type":"Polygon","coordinates":[[[77.20766,12.6565],[77.20751,12.65826],[77.21019,12.65886],[77.21071,12.6582],[77.2113,12.65689],[77.21027,12.65668],[77.21007,12.65624],[77.20921,12.6565],[77.20766,12.6565]]]}},{"type":"Feature","bbox":[77.20414,12.65393,77.20766,12.65826],"properties":{"ward":22},"geometry":{"type":"Polygon","coordinates":[[[77.20751,12.65826],[77.20766,12.6564],[77.20713,12.65637],[77.20711,12.65393],[77.20582,12.65481],[77.20414,12.65688],[77.2055,12.65785],[77.20751,12.65826]]]}},{"type":"Feature","bbox":[77.20766,12.65413,77.21513,12.66148],"properties":{"ward":23},"geometry":{"type":"Polygon","coordinates":[[[77.21513,12.66148],[77.21171,12.6567],[77.21153,12.65595],[77.21156,12.65413],[77.21001,12.65417],[77.21022,12.6556],[77.20772,12.65578],[77.20766,12.6565],[77.20921,12.6565],[77.21007,12.65624],[77.21027,12.65668],[77.2113,12.65689],[77.21071,12.6582],[77.21008,12.65904],[77.21011,12.65953],[77.21028,12.65978],[77.21403,12.66091],[77.21513,12.66148]]]}},{"type":"Feature","bbox":[77.20711,12.65338,77.21022,12.6564],"properties":{"ward":24},"geometry":{"type":"Polygon","coordinates":[[[77.21001,12.65417],[77.20786,12.65423],[77.20793,12.65338],[77.20711,12.65393],[77.20713,12.65637],[77.20766,12.6564],[77.20772,12.65578],[77.21022,12.6556],[77.21001,12.65417]]]}},{"type":"Feature","bbox":[77.20786,12.6518,77.21156,12.65423],"properties":{"ward":25},"geometry":{"type":"Polygon","coordinates":[[[77.20786,12.65423],[77.21156,12.65413],[77.21128,12.65288],[77.21036,12.65193],[77.20857,12.6518],[77.20793,12.65338],[77.20786,12.65423]]]}},{"type":"Feature","bbox":[77.21153,12.65297,77.21557,12.65624],"properties":{"ward":26},"geometry":{"type":"Polygon","coordinates":[[[77.21535,12.65624],[77.21557,12.65356],[77.21536,12.65354],[77.21537,12.65299],[77.21476,12.65297],[77.21466,12.65376],[77.214,12.65374],[77.21393,12.65573],[77.21153,12.65572],[77.21153,12.65595],[77.21535,12.65624]]]}},{"type":"Feature","bbox":[77.21031,12.64619,77.21878,12.65573],"properties":{"ward":27},"geometry":{"type":"Polygon","coordinates":[[[77.21556,12.65375],[77.21878,12.65397],[77.21867,12.65364],[77.21809,12.65343],[77.21703,12.65054],[77.21643,12.65052],[77.21646,12.64966],[77.21571,12.64957],[77.21536,12.64823],[77.21515,12.6482],[77.21509,12.64743],[77.21426,12.64746],[77.21408,12.64782],[77.21303,12.6477],[77.21246,12.64629],[77.21166,12.64619],[77.21168,12.64634],[77.21153,12.64636],[77.21183,12.6472],[77.21165,12.64873],[77.21173,12.65045],[77.21031,12.65002],[77.21036,12.65193],[77.21109,12.65259],[77.21151,12.65345],[77.21153,12.65572],[77.21393,12.65573],[77.214,12.65374],[77.21466,12.65376],[77.21477,12.65297],[77.21537,12.65299],[77.21536,12.65354],[77.21557,12.65356],[77.21556,12.65375]]]}},{"type":"Feature","bbox":[77.20439,12.64599,77.21036,12.65193],"properties":{"ward":28},"geometry":{"type":"Polygon","coordinates":[[[77.21031,12.65],[77.20843,12.64983],[77.20806,12.64743],[77.20954,12.64741],[77.20954,12.64644],[77.20726,12.64644],[77.20715,12.64599],[77.20596,12.64616],[77.20576,12.64636],[77.2055,12.64707],[77.20554,12.64807],[77.20439,12.64993],[77.20615,12.65054],[77.20782,12.65042],[77.20841,12.65021],[77.20827,12.65181],[77.21036,12.65193],[77.21031,12.65]]]}},{"type":"Feature","bbox":[77.20806,12.64619,77.21183,12.65045],"properties":{"ward":29},"geometry":{"type":"Polygon","coordinates":[[[77.21166,12.64619],[77.20954,12.64631],[77.20954,12.64741],[77.20806,12.64743],[77.20843,12.64983],[77.21018,12.64995],[77.21173,12.65045],[77.21165,12.64873],[77.21183,12.6472],[77.21153,12.64636],[77.21168,12.64634],[77.21166,12.64619]]]}},{"type":"Feature","bbox":[77.20467,12.64047,77.20977,12.64644],"properties":{"ward":30},"geometry":{"type":"Polygon","coordinates":[[[77.20954,12.64644],[77.20977,12.64451],[77.20751,12.64469],[77.20729,12.64258],[77.20762,12.64256],[77.20765,12.64052],[77.20588,12.64047],[77.20523,12.64124],[77.20467,12.64525],[77.20697,12.6451],[77.20726,12.64643],[77.20954,12.64644]]]}},{"type":"Feature","bbox":[77.19802,12.63442,77.21683,12.64631],"properties":{"ward":31},"geometry":{"type":"Polygon","coordinates":[[[77.20954,12.64631],[77.21187,12.64618],[77.21175,12.64432],[77.21186,12.64412],[77.2121,12.64433],[77.21683,12.64425],[77.21682,12.64389],[77.21601,12.64322],[77.2159,12.64262],[77.21535,12.64187],[77.21487,12.64168],[77.2147,12.64102],[77.21428,12.64062],[77.21413,12.63864],[77.21424,12.63815],[77.21391,12.63808],[77.21393,12.63721],[77.21338,12.63715],[77.21403,12.63591],[77.21428,12.63503],[77.21171,12.63506],[77.21161,12.63522],[77.21106,12.63511],[77.21116,12.63478],[77.2072,12.63482],[77.20734,12.63459],[77.20724,12.63442],[77.20547,12.63471],[77.20538,12.63453],[77.20508,12.6345],[77.20488,12.63488],[77.20445,12.63501],[77.20167,12.63535],[77.20072,12.63575],[77.19932,12.63588],[77.19802,12.64044],[77.19911,12.64079],[77.19984,12.64071],[77.2008,12.64088],[77.20151,12.64059],[77.204,12.64046],[77.20413,12.64159],[77.20514,12.6418],[77.20525,12.64118],[77.20588,12.64047],[77.20765,12.64052],[77.20762,12.64256],[77.20729,12.64258],[77.20751,12.64469],[77.20977,12.64451],[77.20954,12.64631]]]}}]}