{"type":"FeatureCollection","features":[{"type":"Feature","bbox":[76.31308,10.32989,76.32512,10.34513],"properties":{"ward":1},"geometry":{"type":"Polygon","coordinates":[[[76.31529,10.34321],[76.31589,10.34349],[76.31908,10.34349],[76.32144,10.34321],[76.32139,10.34352],[76.32369,10.34513],[76.32409,10.34437],[76.32433,10.34421],[76.32481,10.3444],[76.32512,10.34121],[76.32398,10.33768],[76.32353,10.33493],[76.32353,10.32989],[76.32236,10.32995],[76.31553,10.3325],[76.31362,10.33284],[76.31308,10.33399],[76.3144,10.3349],[76.31472,10.33567],[76.31449,10.33629],[76.31379,10.33706],[76.31372,10.33737],[76.31464,10.33902],[76.3143,10.34036],[76.31511,10.34265],[76.31541,10.34253],[76.31529,10.34321]]]}},{"type":"Feature","bbox":[76.32353,10.32973,76.33668,10.34516],"properties":{"ward":2},"geometry":{"type":"Polygon","coordinates":[[[76.33165,10.34385],[76.33165,10.34362],[76.33234,10.34277],[76.33403,10.34222],[76.3345,10.34191],[76.33488,10.34075],[76.3348,10.34006],[76.33502,10.33975],[76.33668,10.33938],[76.33614,10.33788],[76.33603,10.33666],[76.33496,10.33588],[76.33469,10.33523],[76.33464,10.33504],[76.33495,10.33458],[76.33499,10.33419],[76.33448,10.33308],[76.3343,10.33288],[76.32939,10.336],[76.32871,10.33582],[76.32881,10.33383],[76.32897,10.33373],[76.32819,10.3313],[76.328,10.32978],[76.32623,10.3302],[76.32519,10.33029],[76.32527,10.32973],[76.32353,10.32989],[76.32353,10.33493],[76.32398,10.33768],[76.32512,10.34121],[76.32481,10.3444],[76.32556,10.34497],[76.32626,10.34481],[76.32811,10.34349],[76.32903,10.34325],[76.32934,10.34348],[76.32958,10.34479],[76.33066,10.34516],[76.33089,10.34509],[76.33165,10.34385]]]}},{"type":"Feature","bbox":[76.3246,10.32324,76.3343,10.336],"properties":{"ward":3},"geometry":{"type":"Polygon","coordinates":[[[76.33078,10.32652],[76.32945,10.32662],[76.32846,10.32698],[76.3284,10.32635],[76.32882,10.32611],[76.32894,10.32583],[76.32884,10.32512],[76.32925,10.32472],[76.32971,10.32457],[76.32961,10.3239],[76.32939,10.3238],[76.32817,10.32436],[76.32621,10.32443],[76.32538,10.32355],[76.32472,10.32324],[76.3246,10.32337],[76.32464,10.324],[76.32555,10.32724],[76.32561,10.32828],[76.32519,10.33029],[76.32623,10.3302],[76.328,10.32978],[76.32819,10.3313],[76.32897,10.33373],[76.32881,10.33383],[76.32871,10.33582],[76.32939,10.336],[76.3343,10.33288],[76.33421,10.33111],[76.33386,10.3306],[76.33381,10.33013],[76.33345,10.32961],[76.33281,10.32961],[76.33247,10.32935],[76.33078,10.32652]]]}},{"type":"Feature","bbox":[76.33078,10.32386,76.34169,10.33298],"properties":{"ward":4},"geometry":{"type":"Polygon","coordinates":[[[76.34169,10.32899],[76.34128,10.32682],[76.34118,10.32525],[76.33963,10.32523],[76.33884,10.32386],[76.33628,10.32467],[76.3358,10.32459],[76.33546,10.3243],[76.33499,10.32436],[76.33147,10.32638],[76.33078,10.32652],[76.33247,10.32935],[76.33281,10.32961],[76.33345,10.32961],[76.33381,10.33013],[76.33386,10.3306],[76.33421,10.33111],[76.33415,10.33173],[76.33439,10.33298],[76.33629,10.3321],[76.33803,10.33055],[76.33964,10.32951],[76.34054,10.32917],[76.34169,10.32899]]]}},{"type":"Feature","bbox":[76.33439,10.32876,76.34642,10.33938],"properties":{"ward":5},"geometry":{"type":"Polygon","coordinates":[[[76.34642,10.33796],[76.34618,10.33717],[76.34548,10.3365],[76.34536,10.33584],[76.34426,10.33517],[76.34315,10.33179],[76.34223,10.33091],[76.34187,10.33014],[76.34222,10.32971],[76.34283,10.32947],[76.34438,10.32939],[76.34591,10.32876],[76.34225,10.3289],[76.34004,10.32931],[76.33803,10.33055],[76.33629,10.3321],[76.33439,10.33298],[76.33499,10.33419],[76.33495,10.33458],[76.33464,10.33504],[76.33469,10.33523],[76.33496,10.33588],[76.33603,10.33666],[76.33614,10.33788],[76.33668,10.33938],[76.34003,10.33879],[76.34003,10.33829],[76.34103,10.33822],[76.34251,10.33757],[76.34412,10.33715],[76.3446,10.33715],[76.34642,10.33796]]]}},{"type":"Feature","bbox":[76.34116,10.3198,76.35118,10.32899],"properties":{"ward":6},"geometry":{"type":"Polygon","coordinates":[[[76.34658,10.3217],[76.34647,10.32228],[76.34469,10.32162],[76.34475,10.32058],[76.34373,10.31988],[76.34339,10.31984],[76.34302,10.32003],[76.34221,10.3198],[76.34198,10.31998],[76.34231,10.32124],[76.34128,10.32276],[76.34116,10.32442],[76.34128,10.32682],[76.34169,10.32899],[76.34591,10.32876],[76.34745,10.32706],[76.34776,10.3269],[76.34961,10.32781],[76.34992,10.32773],[76.34992,10.32689],[76.35091,10.3245],[76.35075,10.32311],[76.35118,10.32174],[76.34658,10.3217]]]}},{"type":"Feature","bbox":[76.33546,10.31775,76.34231,10.32525],"properties":{"ward":7},"geometry":{"type":"Polygon","coordinates":[[[76.33595,10.31845],[76.33604,10.31954],[76.33623,10.31995],[76.33672,10.32026],[76.33734,10.32266],[76.33688,10.32365],[76.33546,10.3243],[76.33558,10.32446],[76.33598,10.32466],[76.3368,10.32459],[76.33884,10.32386],[76.33963,10.32523],[76.34118,10.32525],[76.34128,10.32276],[76.34231,10.32124],[76.34198,10.31998],[76.34094,10.31899],[76.34006,10.31775],[76.33962,10.31802],[76.33714,10.31848],[76.33595,10.31845]]]}},{"type":"Feature","bbox":[76.32472,10.31635,76.33734,10.32698],"properties":{"ward":8},"geometry":{"type":"Polygon","coordinates":[[[76.32672,10.31811],[76.32568,10.32034],[76.32531,10.32231],[76.32472,10.32324],[76.32538,10.32355],[76.32621,10.32443],[76.32817,10.32436],[76.32939,10.3238],[76.32961,10.3239],[76.32971,10.32457],[76.32925,10.32472],[76.32884,10.32512],[76.32894,10.32583],[76.32882,10.32611],[76.3284,10.32635],[76.32846,10.32698],[76.32945,10.32662],[76.33147,10.32638],[76.33421,10.32474],[76.33688,10.32365],[76.33734,10.32266],[76.33672,10.32026],[76.33623,10.31995],[76.33604,10.31954],[76.33595,10.31845],[76.33414,10.31854],[76.3336,10.31824],[76.33227,10.31833],[76.33108,10.31804],[76.33014,10.31708],[76.32897,10.31635],[76.3285,10.31682],[76.32733,10.31744],[76.32672,10.31811]]]}},{"type":"Feature","bbox":[76.32897,10.3136,76.34006,10.31854],"properties":{"ward":9},"geometry":{"type":"Polygon","coordinates":[[[76.33108,10.3136],[76.32944,10.31446],[76.32897,10.31635],[76.33014,10.31708],[76.33108,10.31804],[76.33227,10.31833],[76.3336,10.31824],[76.33414,10.31854],[76.33574,10.3184],[76.33676,10.31851],[76.33962,10.31802],[76.34006,10.31775],[76.3386,10.31478],[76.33819,10.31438],[76.33783,10.31425],[76.33417,10.31407],[76.33108,10.3136]]]}},{"type":"Feature","bbox":[76.33108,10.31,76.34146,10.31948],"properties":{"ward":10},"geometry":{"type":"Polygon","coordinates":[[[76.33108,10.3136],[76.33417,10.31407],[76.33783,10.31425],[76.33819,10.31438],[76.3386,10.31478],[76.34006,10.31775],[76.34146,10.31948],[76.34106,10.31793],[76.33914,10.31362],[76.33722,10.31115],[76.33622,10.31029],[76.33568,10.31],[76.33463,10.31158],[76.33108,10.3136]]]}},{"type":"Feature","bbox":[76.33957,10.31449,76.34788,10.32228],"properties":{"ward":11},"geometry":{"type":"Polygon","coordinates":[[[76.34397,10.31604],[76.34227,10.31591],[76.34151,10.31449],[76.33957,10.3146],[76.34106,10.31793],[76.34146,10.31948],[76.34198,10.31998],[76.34221,10.3198],[76.34302,10.32003],[76.34339,10.31984],[76.34373,10.31988],[76.34475,10.32058],[76.34469,10.32162],[76.34647,10.32228],[76.34681,10.32088],[76.34775,10.31975],[76.34788,10.31928],[76.34763,10.31703],[76.3467,10.31679],[76.34468,10.31686],[76.34428,10.31671],[76.34397,10.31604]]]}},{"type":"Feature","bbox":[76.34333,10.30978,76.35264,10.32174],"properties":{"ward":12},"geometry":{"type":"Polygon","coordinates":[[[76.35213,10.31326],[76.35194,10.31318],[76.35197,10.31284],[76.35092,10.3124],[76.3507,10.31196],[76.34919,10.31176],[76.34556,10.30978],[76.34521,10.31005],[76.34436,10.31019],[76.34401,10.3111],[76.34333,10.31134],[76.34339,10.31297],[76.34395,10.31338],[76.34422,10.31413],[76.34425,10.31541],[76.34397,10.31604],[76.34428,10.31671],[76.34468,10.31686],[76.34706,10.31682],[76.34763,10.31703],[76.34788,10.31928],[76.34775,10.31975],[76.34681,10.32088],[76.34658,10.3217],[76.35118,10.32174],[76.35215,10.31811],[76.35264,10.31538],[76.35264,10.31486],[76.35202,10.31391],[76.35213,10.31326]]]}},{"type":"Feature","bbox":[76.33568,10.30905,76.34429,10.31604],"properties":{"ward":13},"geometry":{"type":"Polygon","coordinates":[[[76.34397,10.31604],[76.34429,10.31508],[76.34412,10.31372],[76.34395,10.31338],[76.34339,10.31297],[76.3427,10.31326],[76.34168,10.31325],[76.34137,10.31172],[76.34089,10.31115],[76.3411,10.30971],[76.34096,10.30924],[76.34047,10.30905],[76.33795,10.30928],[76.33626,10.30921],[76.33568,10.31],[76.33722,10.31115],[76.33914,10.31362],[76.33957,10.3146],[76.34151,10.31449],[76.34227,10.31591],[76.34397,10.31604]]]}},{"type":"Feature","bbox":[76.33626,10.30324,76.34555,10.31326],"properties":{"ward":14},"geometry":{"type":"Polygon","coordinates":[[[76.34339,10.31297],[76.34333,10.31134],[76.34401,10.3111],[76.34436,10.31019],[76.34521,10.31005],[76.34555,10.30979],[76.34505,10.3086],[76.34365,10.30661],[76.34287,10.30489],[76.34213,10.30424],[76.34161,10.30324],[76.34071,10.30342],[76.34044,10.30353],[76.34035,10.30471],[76.34012,10.30511],[76.33762,10.30531],[76.33626,10.30921],[76.33795,10.30928],[76.34047,10.30905],[76.34096,10.30924],[76.3411,10.30971],[76.34089,10.31115],[76.34137,10.31172],[76.34168,10.31325],[76.3427,10.31326],[76.34339,10.31297]]]}},{"type":"Feature","bbox":[76.34161,10.30203,76.3507,10.31196],"properties":{"ward":15},"geometry":{"type":"Polygon","coordinates":[[[76.3507,10.31196],[76.35032,10.31121],[76.34925,10.30574],[76.34788,10.30318],[76.34668,10.30203],[76.34381,10.303],[76.34161,10.30324],[76.34213,10.30424],[76.34305,10.30516],[76.34365,10.30661],[76.34505,10.3086],[76.34555,10.30979],[76.34919,10.31176],[76.3507,10.31196]]]}},{"type":"Feature","bbox":[76.33915,10.29666,76.34668,10.30339],"properties":{"ward":16},"geometry":{"type":"Polygon","coordinates":[[[76.34515,10.29973],[76.34525,10.29839],[76.34131,10.29812],[76.34097,10.29777],[76.34054,10.29773],[76.34058,10.29675],[76.33929,10.29666],[76.33915,10.29711],[76.33922,10.29886],[76.33964,10.29951],[76.3392,10.29965],[76.34018,10.30246],[76.34073,10.30242],[76.34086,10.30339],[76.34381,10.303],[76.34668,10.30203],[76.34574,10.30092],[76.34515,10.29973]]]}},{"type":"Feature","bbox":[76.33929,10.29056,76.34746,10.29839],"properties":{"ward":17},"geometry":{"type":"Polygon","coordinates":[[[76.34525,10.29839],[76.34592,10.29574],[76.34693,10.29408],[76.34729,10.29313],[76.34746,10.29056],[76.34374,10.29058],[76.34321,10.29224],[76.34287,10.2923],[76.34297,10.2932],[76.34184,10.29349],[76.34169,10.29382],[76.34171,10.29447],[76.34141,10.295],[76.33931,10.29538],[76.33929,10.29666],[76.34058,10.29675],[76.34054,10.29773],[76.34097,10.29777],[76.34131,10.29812],[76.34525,10.29839]]]}},{"type":"Feature","bbox":[76.33499,10.28741,76.34747,10.29796],"properties":{"ward":18},"geometry":{"type":"Polygon","coordinates":[[[76.3447,10.28752],[76.34414,10.28741],[76.34361,10.28784],[76.34182,10.29033],[76.34027,10.29211],[76.33866,10.29342],[76.33682,10.29455],[76.33563,10.29503],[76.33499,10.29503],[76.33508,10.29608],[76.3361,10.29594],[76.33731,10.29796],[76.33916,10.29754],[76.33937,10.29528],[76.34141,10.295],[76.34171,10.29447],[76.34169,10.29382],[76.34184,10.29349],[76.34297,10.2932],[76.34287,10.2923],[76.34321,10.29224],[76.34374,10.29058],[76.34746,10.29056],[76.34747,10.28956],[76.34651,10.28843],[76.3447,10.28752]]]}},{"type":"Feature","bbox":[76.3373,10.29754,76.34086,10.30531],"properties":{"ward":19},"geometry":{"type":"Polygon","coordinates":[[[76.3377,10.30531],[76.34012,10.30511],[76.34035,10.30471],[76.34044,10.30353],[76.34086,10.30339],[76.34073,10.30242],[76.34018,10.30246],[76.3392,10.29965],[76.33964,10.29951],[76.33922,10.29886],[76.33916,10.29754],[76.33731,10.29796],[76.3373,10.29996],[76.33785,10.30403],[76.3377,10.30531]]]}},{"type":"Feature","bbox":[76.32968,10.29528,76.33734,10.30334],"properties":{"ward":20},"geometry":{"type":"Polygon","coordinates":[[[76.33503,10.29546],[76.33315,10.29528],[76.33211,10.2959],[76.33171,10.29723],[76.32968,10.2971],[76.33177,10.29985],[76.33274,10.30029],[76.33365,10.3001],[76.33373,10.30084],[76.33303,10.30174],[76.33342,10.30334],[76.3342,10.30325],[76.33476,10.30084],[76.33673,10.30033],[76.33734,10.30033],[76.33731,10.29796],[76.3361,10.29594],[76.33508,10.29608],[76.33503,10.29546]]]}},{"type":"Feature","bbox":[76.32904,10.2985,76.33785,10.31],"properties":{"ward":21},"geometry":{"type":"Polygon","coordinates":[[[76.33227,10.30791],[76.33568,10.31],[76.33626,10.30921],[76.3377,10.30531],[76.33785,10.30403],[76.33734,10.30033],[76.33673,10.30033],[76.33476,10.30084],[76.3342,10.30325],[76.33342,10.30334],[76.33303,10.30174],[76.33373,10.30084],[76.33365,10.3001],[76.33274,10.30029],[76.33239,10.3002],[76.33177,10.29985],[76.33085,10.29862],[76.3307,10.29876],[76.32983,10.29852],[76.32904,10.2985],[76.32904,10.29917],[76.33017,10.30432],[76.33318,10.30538],[76.33227,10.30791]]]}},{"type":"Feature","bbox":[76.32522,10.29117,76.33503,10.29876],"properties":{"ward":22},"geometry":{"type":"Polygon","coordinates":[[[76.3303,10.29178],[76.33009,10.29117],[76.32732,10.2945],[76.32522,10.29658],[76.32714,10.29743],[76.32729,10.29829],[76.32804,10.29825],[76.32904,10.29856],[76.32983,10.29852],[76.3307,10.29876],[76.33085,10.29862],[76.32968,10.2971],[76.33171,10.29723],[76.33211,10.2959],[76.33315,10.29528],[76.33503,10.29546],[76.33499,10.29503],[76.33295,10.29432],[76.33129,10.29318],[76.3303,10.29178]]]}},{"type":"Feature","bbox":[76.32121,10.29655,76.33017,10.30432],"properties":{"ward":23},"geometry":{"type":"Polygon","coordinates":[[[76.32121,10.30096],[76.32304,10.30177],[76.33017,10.30432],[76.32904,10.29917],[76.32904,10.29856],[76.32804,10.29825],[76.32729,10.29829],[76.32714,10.29743],[76.32584,10.29677],[76.32512,10.29655],[76.32249,10.2991],[76.32237,10.29964],[76.32121,10.30096]]]}},{"type":"Feature","bbox":[76.31915,10.28908,76.33009,10.29848],"properties":{"ward":24},"geometry":{"type":"Polygon","coordinates":[[[76.33009,10.29117],[76.3295,10.28908],[76.32501,10.28929],[76.32079,10.28924],[76.32007,10.29029],[76.32001,10.29111],[76.31959,10.29209],[76.31915,10.29376],[76.31959,10.29636],[76.31986,10.29626],[76.32014,10.29574],[76.32118,10.29582],[76.32221,10.29543],[76.32251,10.29656],[76.32291,10.29694],[76.32316,10.29848],[76.32732,10.2945],[76.33009,10.29117]]]}},{"type":"Feature","bbox":[76.31591,10.29447,76.32316,10.30404],"properties":{"ward":25},"geometry":{"type":"Polygon","coordinates":[[[76.31591,10.29545],[76.31599,10.29709],[76.31724,10.29896],[76.31707,10.30089],[76.31673,10.30236],[76.31746,10.30381],[76.31792,10.30404],[76.31982,10.30243],[76.32237,10.29964],[76.32249,10.2991],[76.32316,10.29848],[76.32291,10.29694],[76.32251,10.29656],[76.32221,10.29543],[76.32118,10.29582],[76.32014,10.29574],[76.31986,10.29626],[76.31959,10.29636],[76.31924,10.29452],[76.31905,10.29447],[76.31842,10.29475],[76.31804,10.29472],[76.31794,10.2952],[76.31763,10.29553],[76.31591,10.29545]]]}},{"type":"Feature","bbox":[76.30983,10.28015,76.3295,10.29561],"properties":{"ward":26},"geometry":{"type":"Polygon","coordinates":[[[76.32655,10.28728],[76.32439,10.28688],[76.3204,10.2845],[76.31751,10.28235],[76.3164,10.28185],[76.3107,10.28045],[76.31007,10.28015],[76.30983,10.28148],[76.3117,10.28194],[76.31217,10.28236],[76.31372,10.28296],[76.31494,10.28424],[76.31625,10.28501],[76.31584,10.28642],[76.31538,10.28728],[76.31531,10.2879],[76.31532,10.28966],[76.31554,10.29102],[76.31492,10.29128],[76.31357,10.29142],[76.31291,10.29099],[76.31165,10.29088],[76.31128,10.29109],[76.31135,10.29187],[76.31159,10.29211],[76.31206,10.29336],[76.31475,10.29316],[76.31514,10.29359],[76.31591,10.29545],[76.31737,10.29561],[76.31784,10.29539],[76.31804,10.29472],[76.31924,10.29452],[76.31915,10.29376],[76.31959,10.29209],[76.32001,10.29111],[76.32007,10.29029],[76.32079,10.28924],[76.32501,10.28929],[76.3295,10.28908],[76.32903,10.28807],[76.32655,10.28728]]]}},{"type":"Feature","bbox":[76.3025,10.27383,76.31624,10.29187],"properties":{"ward":27},"geometry":{"type":"Polygon","coordinates":[[[76.31007,10.28015],[76.30844,10.27938],[76.30577,10.27718],[76.30392,10.27383],[76.30332,10.27482],[76.30325,10.27523],[76.30389,10.27591],[76.30465,10.27723],[76.30472,10.27799],[76.30371,10.27899],[76.30386,10.27969],[76.30326,10.28021],[76.30329,10.28096],[76.3025,10.28277],[76.30262,10.2835],[76.30339,10.28409],[76.30308,10.28537],[76.30527,10.28644],[76.30602,10.28725],[76.30836,10.28794],[76.30865,10.28846],[76.3087,10.29045],[76.30936,10.29094],[76.30953,10.29146],[76.30978,10.29159],[76.31085,10.29168],[76.31135,10.29187],[76.31128,10.29109],[76.31165,10.29088],[76.31291,10.29099],[76.31357,10.29142],[76.31492,10.29128],[76.31554,10.29102],[76.31532,10.28966],[76.31531,10.2879],[76.31538,10.28728],[76.31624,10.2852],[76.31619,10.28488],[76.31494,10.28424],[76.31372,10.28296],[76.31217,10.28236],[76.3117,10.28194],[76.30983,10.28148],[76.31007,10.28015]]]}},{"type":"Feature","bbox":[76.30286,10.28537,76.31613,10.29859],"properties":{"ward":28},"geometry":{"type":"Polygon","coordinates":[[[76.30333,10.29047],[76.30495,10.29048],[76.30794,10.29092],[76.30964,10.2919],[76.31053,10.2926],[76.31157,10.29451],[76.31136,10.29699],[76.31113,10.29762],[76.31126,10.29836],[76.31324,10.29859],[76.31447,10.2985],[76.31453,10.29819],[76.31493,10.29773],[76.31494,10.29741],[76.31613,10.29732],[76.3159,10.29664],[76.31579,10.29499],[76.31497,10.29331],[76.31475,10.29316],[76.31206,10.29336],[76.31159,10.29211],[76.31127,10.29179],[76.30953,10.29146],[76.30936,10.29094],[76.3087,10.29045],[76.30865,10.28846],[76.30836,10.28794],[76.30602,10.28725],[76.30527,10.28644],[76.30308,10.28537],[76.30306,10.28635],[76.30335,10.2871],[76.30316,10.28744],[76.30318,10.28802],[76.30286,10.28848],[76.30335,10.28942],[76.30333,10.29047]]]}},{"type":"Feature","bbox":[76.30834,10.29732,76.31746,10.3107],"properties":{"ward":29},"geometry":{"type":"Polygon","coordinates":[[[76.31013,10.31019],[76.311,10.3107],[76.31255,10.30835],[76.31746,10.30381],[76.31673,10.30236],[76.31707,10.30089],[76.31724,10.29896],[76.31613,10.29732],[76.31494,10.29741],[76.31493,10.29773],[76.31453,10.29819],[76.31447,10.2985],[76.31324,10.29859],[76.31126,10.29836],[76.31141,10.29886],[76.31126,10.29935],[76.31086,10.29963],[76.31076,10.30041],[76.30998,10.30085],[76.30999,10.30126],[76.31043,10.30172],[76.31079,10.30316],[76.30979,10.30376],[76.30918,10.30388],[76.30867,10.3046],[76.30834,10.30609],[76.30876,10.30612],[76.30899,10.30666],[76.30927,10.30666],[76.30929,10.30759],[76.30965,10.30891],[76.31017,10.3094],[76.31013,10.31019]]]}},{"type":"Feature","bbox":[76.31591,10.30096,76.33318,10.30911],"properties":{"ward":30},"geometry":{"type":"Polygon","coordinates":[[[76.33318,10.30538],[76.32304,10.30177],[76.32121,10.30096],[76.31877,10.3034],[76.31792,10.30404],[76.31746,10.30381],[76.31591,10.30529],[76.31845,10.3067],[76.32079,10.30729],[76.32151,10.30698],[76.32266,10.30678],[76.32578,10.30715],[76.32614,10.30752],[76.32663,10.30864],[76.32789,10.30911],[76.32928,10.309],[76.33049,10.3087],[76.33154,10.30891],[76.33227,10.30791],[76.33318,10.30538]]]}},{"type":"Feature","bbox":[76.32618,10.30791,76.33568,10.31923],"properties":{"ward":31},"geometry":{"type":"Polygon","coordinates":[[[76.33568,10.31],[76.33227,10.30791],[76.33154,10.30891],[76.33049,10.3087],[76.32928,10.309],[76.32789,10.30911],[76.32663,10.30864],[76.32623,10.31417],[76.32755,10.31533],[76.32623,10.31812],[76.32618,10.31923],[76.32672,10.31811],[76.32733,10.31744],[76.3285,10.31682],[76.32897,10.31635],[76.32944,10.31446],[76.33419,10.3119],[76.33513,10.31096],[76.33568,10.31]]]}},{"type":"Feature","bbox":[76.31466,10.30678,76.32663,10.31578],"properties":{"ward":32},"geometry":{"type":"Polygon","coordinates":[[[76.32079,10.30729],[76.32094,10.30777],[76.32134,10.30827],[76.32157,10.3098],[76.32076,10.31019],[76.31863,10.30992],[76.31663,10.31014],[76.31557,10.30996],[76.31569,10.31048],[76.31562,10.31109],[76.31466,10.31321],[76.31528,10.31573],[76.31573,10.31578],[76.3168,10.31542],[76.31805,10.31432],[76.3195,10.31366],[76.31984,10.3132],[76.3213,10.31379],[76.32229,10.31383],[76.32257,10.31367],[76.32357,10.31241],[76.32623,10.31417],[76.32663,10.30864],[76.32597,10.30725],[76.32266,10.30678],[76.32151,10.30698],[76.32079,10.30729]]]}},{"type":"Feature","bbox":[76.31097,10.30529,76.32157,10.31573],"properties":{"ward":33},"geometry":{"type":"Polygon","coordinates":[[[76.31097,10.31525],[76.31222,10.31556],[76.31528,10.31573],[76.31466,10.31321],[76.31562,10.31109],[76.31569,10.31048],[76.31557,10.30996],[76.31663,10.31014],[76.31863,10.30992],[76.32076,10.31019],[76.32157,10.3098],[76.32134,10.30827],[76.32094,10.30777],[76.32079,10.30729],[76.31845,10.3067],[76.31591,10.30529],[76.31255,10.30835],[76.311,10.3107],[76.31128,10.31119],[76.31149,10.31208],[76.31202,10.31229],[76.31219,10.31286],[76.31212,10.31317],[76.31108,10.31436],[76.31097,10.31525]]]}},{"type":"Feature","bbox":[76.31004,10.31525,76.31964,10.33284],"properties":{"ward":34},"geometry":{"type":"Polygon","coordinates":[[[76.31127,10.32793],[76.31252,10.32954],[76.31314,10.32984],[76.31353,10.3303],[76.31353,10.33076],[76.31314,10.3313],[76.31362,10.33222],[76.31362,10.33284],[76.31553,10.3325],[76.31964,10.33099],[76.31896,10.32955],[76.31844,10.32937],[76.31809,10.32878],[76.31762,10.32842],[76.31739,10.32792],[76.31749,10.32773],[76.31809,10.32759],[76.31813,10.32732],[76.31771,10.3241],[76.31783,10.32396],[76.31801,10.32084],[76.31633,10.32146],[76.31447,10.32004],[76.31356,10.31878],[76.31316,10.31673],[76.31331,10.31562],[76.31222,10.31556],[76.31097,10.31525],[76.31074,10.31556],[76.31081,10.3168],[76.31036,10.31716],[76.31004,10.31904],[76.31076,10.32023],[76.3108,10.32115],[76.31021,10.32295],[76.31036,10.32379],[76.31069,10.32451],[76.31113,10.3248],[76.31019,10.32733],[76.31127,10.32793]]]}},{"type":"Feature","bbox":[76.31316,10.31241,76.32755,10.32336],"properties":{"ward":35},"geometry":{"type":"Polygon","coordinates":[[[76.32618,10.31923],[76.32623,10.31812],[76.32755,10.31533],[76.32523,10.31341],[76.32357,10.31241],[76.32257,10.31367],[76.32229,10.31383],[76.3213,10.31379],[76.31984,10.3132],[76.3195,10.31366],[76.31805,10.31432],[76.31748,10.31492],[76.31641,10.31561],[76.31573,10.31578],[76.31331,10.31562],[76.31316,10.31673],[76.31356,10.31878],[76.31447,10.32004],[76.31633,10.32146],[76.31842,10.3207],[76.31912,10.3206],[76.31956,10.32154],[76.32011,10.32213],[76.32026,10.32269],[76.32155,10.32254],[76.32254,10.32336],[76.32316,10.32305],[76.32409,10.32287],[76.32481,10.3231],[76.32531,10.32231],[76.32568,10.32034],[76.32618,10.31923]]]}},{"type":"Feature","bbox":[76.31739,10.3206,76.32561,10.33099],"properties":{"ward":36},"geometry":{"type":"Polygon","coordinates":[[[76.31964,10.33099],[76.32236,10.32995],[76.32527,10.32973],[76.32561,10.32828],[76.32555,10.32724],[76.32464,10.324],[76.3246,10.32337],[76.32481,10.3231],[76.32409,10.32287],[76.32316,10.32305],[76.32254,10.32336],[76.32155,10.32254],[76.32026,10.32269],[76.32011,10.32213],[76.31956,10.32154],[76.31921,10.32066],[76.31895,10.3206],[76.31801,10.32084],[76.31783,10.32396],[76.31771,10.3241],[76.31813,10.32732],[76.31809,10.32759],[76.31749,10.32773],[76.31739,10.32792],[76.31762,10.32842],[76.31809,10.32878],[76.31844,10.32937],[76.31896,10.32955],[76.31964,10.33099]]]}}]}