{"type":"FeatureCollection","features":[{"type":"Feature","bbox":[77.85626,13.38133,77.86279,13.38619],"properties":{"ward":1},"geometry":{"type":"Polygon","coordinates":[[[77.85785,13.38619],[77.85934,13.3859],[77.85955,13.386],[77.86047,13.38567],[77.86075,13.38578],[77.86267,13.38545],[77.86279,13.38394],[77.86211,13.38371],[77.86202,13.38183],[77.86094,13.38138],[77.86046,13.38133],[77.8573,13.38151],[77.85632,13.38178],[77.85626,13.38324],[77.85656,13.38482],[77.85852,13.38409],[77.85867,13.38432],[77.85878,13.38487],[77.85836,13.3848],[77.85836,13.38525],[77.85819,13.38524],[77.85822,13.38571],[77.85787,13.38572],[77.85785,13.38619]]]}},{"type":"Feature","bbox":[77.86202,13.38183,77.86515,13.38598],"properties":{"ward":2},"geometry":{"type":"Polygon","coordinates":[[[77.8649,13.38571],[77.86474,13.38513],[77.86515,13.38308],[77.86484,13.38298],[77.86481,13.3827],[77.8635,13.38233],[77.86348,13.38207],[77.86291,13.38186],[77.86202,13.38183],[77.86211,13.38371],[77.86279,13.38394],[77.86268,13.38598],[77.8649,13.38571]]]}},{"type":"Feature","bbox":[77.86268,13.38571,77.86528,13.38799],"properties":{"ward":3},"geometry":{"type":"Polygon","coordinates":[[[77.86528,13.38783],[77.8649,13.38571],[77.86268,13.38598],[77.86272,13.38661],[77.86405,13.38651],[77.86456,13.38799],[77.86528,13.38783]]]}},{"type":"Feature","bbox":[77.85764,13.38545,77.86273,13.38957],"properties":{"ward":4},"geometry":{"type":"Polygon","coordinates":[[[77.86149,13.38873],[77.86102,13.38701],[77.86273,13.38675],[77.86267,13.38545],[77.85817,13.3861],[77.85785,13.38619],[77.85795,13.38643],[77.85764,13.38649],[77.85791,13.38818],[77.85862,13.38804],[77.85882,13.38957],[77.86011,13.38936],[77.86009,13.38907],[77.86149,13.38873]]]}},{"type":"Feature","bbox":[77.86272,13.38651,77.86468,13.38915],"properties":{"ward":5},"geometry":{"type":"Polygon","coordinates":[[[77.86468,13.3888],[77.86448,13.38758],[77.86405,13.38651],[77.86272,13.38661],[77.86332,13.38915],[77.86468,13.3888]]]}},{"type":"Feature","bbox":[77.86332,13.3888,77.86503,13.39036],"properties":{"ward":6},"geometry":{"type":"Polygon","coordinates":[[[77.86503,13.39029],[77.86468,13.3888],[77.86332,13.38915],[77.86352,13.39036],[77.86503,13.39029]]]}},{"type":"Feature","bbox":[77.86149,13.38832,77.86352,13.39046],"properties":{"ward":7},"geometry":{"type":"Polygon","coordinates":[[[77.86352,13.39036],[77.86315,13.38832],[77.86149,13.38873],[77.86197,13.39015],[77.86259,13.39015],[77.86266,13.39046],[77.86352,13.39036]]]}},{"type":"Feature","bbox":[77.85764,13.38873,77.86266,13.39104],"properties":{"ward":8},"geometry":{"type":"Polygon","coordinates":[[[77.86266,13.39046],[77.86259,13.39015],[77.86196,13.39013],[77.86149,13.38873],[77.86009,13.38907],[77.86011,13.38936],[77.85764,13.38967],[77.85778,13.3902],[77.8583,13.39014],[77.85832,13.39047],[77.85855,13.39052],[77.85864,13.39104],[77.86266,13.39046]]]}},{"type":"Feature","bbox":[77.85547,13.39046,77.86308,13.39826],"properties":{"ward":9},"geometry":{"type":"Polygon","coordinates":[[[77.85642,13.39791],[77.86006,13.39318],[77.86131,13.39247],[77.86308,13.39223],[77.86266,13.39046],[77.85864,13.39104],[77.85875,13.3916],[77.85793,13.39174],[77.8576,13.39188],[77.85762,13.39214],[77.85705,13.39222],[77.85737,13.39242],[77.85732,13.39286],[77.85813,13.39287],[77.85815,13.39305],[77.85684,13.39303],[77.85678,13.39348],[77.85738,13.39356],[77.85725,13.39418],[77.85743,13.3944],[77.85696,13.39427],[77.85698,13.39502],[77.85678,13.39528],[77.85653,13.39521],[77.85638,13.39603],[77.85616,13.39598],[77.85595,13.39679],[77.85566,13.39677],[77.85562,13.39745],[77.85547,13.39756],[77.85569,13.39758],[77.8556,13.39821],[77.85601,13.39826],[77.85642,13.39791]]]}},{"type":"Feature","bbox":[77.86456,13.38772,77.8664,13.39029],"properties":{"ward":10},"geometry":{"type":"Polygon","coordinates":[[[77.86593,13.39025],[77.86589,13.3897],[77.86635,13.3896],[77.8664,13.38903],[77.86615,13.38772],[77.86456,13.38799],[77.86503,13.39029],[77.86593,13.39025]]]}},{"type":"Feature","bbox":[77.86589,13.38772,77.86762,13.39025],"properties":{"ward":11},"geometry":{"type":"Polygon","coordinates":[[[77.86762,13.39014],[77.86753,13.38782],[77.86615,13.38772],[77.8664,13.38903],[77.86635,13.3896],[77.86589,13.3897],[77.86593,13.39025],[77.86762,13.39014]]]}},{"type":"Feature","bbox":[77.86552,13.3922,77.87006,13.39863],"properties":{"ward":12},"geometry":{"type":"Polygon","coordinates":[[[77.87006,13.39835],[77.86942,13.39627],[77.86899,13.39633],[77.86862,13.39525],[77.86787,13.39542],[77.86753,13.39465],[77.86701,13.3922],[77.86552,13.39221],[77.86579,13.39644],[77.86607,13.3964],[77.86616,13.39654],[77.86745,13.39639],[77.86824,13.39614],[77.86906,13.398],[77.86915,13.39863],[77.87006,13.39835]]]}},{"type":"Feature","bbox":[77.86266,13.39014,77.86783,13.39223],"properties":{"ward":13},"geometry":{"type":"Polygon","coordinates":[[[77.86762,13.39014],[77.86266,13.39046],[77.86308,13.39223],[77.86783,13.39219],[77.86762,13.39014]]]}},{"type":"Feature","bbox":[77.85783,13.39225,77.86419,13.39678],"properties":{"ward":14},"geometry":{"type":"Polygon","coordinates":[[[77.86325,13.39672],[77.86389,13.39534],[77.86419,13.39392],[77.86389,13.39356],[77.86269,13.39379],[77.86243,13.39225],[77.86131,13.39247],[77.86006,13.39318],[77.85783,13.39602],[77.86155,13.39561],[77.86207,13.39636],[77.86218,13.39678],[77.86325,13.39672]]]}},{"type":"Feature","bbox":[77.86701,13.39219,77.87316,13.39889],"properties":{"ward":15},"geometry":{"type":"Polygon","coordinates":[[[77.87016,13.39433],[77.86907,13.39281],[77.8684,13.39219],[77.86701,13.3922],[77.86753,13.39465],[77.86787,13.39542],[77.86862,13.39525],[77.86899,13.39633],[77.86942,13.39627],[77.87006,13.39835],[77.8713,13.39795],[77.87186,13.39889],[77.87316,13.3983],[77.87264,13.39809],[77.87221,13.3974],[77.87164,13.39688],[77.87016,13.39433]]]}},{"type":"Feature","bbox":[77.86243,13.39221,77.86602,13.39736],"properties":{"ward":16},"geometry":{"type":"Polygon","coordinates":[[[77.86602,13.39725],[77.86572,13.39596],[77.86572,13.39401],[77.86552,13.39221],[77.86243,13.39225],[77.86269,13.39379],[77.86389,13.39356],[77.86419,13.39392],[77.86389,13.39534],[77.86325,13.39672],[77.8645,13.39706],[77.86527,13.397],[77.86529,13.39736],[77.86602,13.39725]]]}},{"type":"Feature","bbox":[77.86579,13.39614,77.86892,13.39836],"properties":{"ward":17},"geometry":{"type":"Polygon","coordinates":[[[77.86892,13.39768],[77.86824,13.39614],[77.86745,13.39639],[77.86616,13.39654],[77.86607,13.3964],[77.86579,13.39644],[77.86641,13.39836],[77.86892,13.39768]]]}},{"type":"Feature","bbox":[77.86182,13.3993,77.86789,13.4028],"properties":{"ward":18},"geometry":{"type":"Polygon","coordinates":[[[77.86789,13.40189],[77.86703,13.39985],[77.86667,13.39995],[77.86646,13.3993],[77.86365,13.39997],[77.86342,13.39954],[77.86296,13.39968],[77.86218,13.39947],[77.86187,13.40061],[77.86182,13.40253],[77.86262,13.40255],[77.86448,13.4021],[77.86467,13.4028],[77.86789,13.40189]]]}},{"type":"Feature","bbox":[77.86218,13.39836,77.86703,13.39997],"properties":{"ward":19},"geometry":{"type":"Polygon","coordinates":[[[77.86703,13.39985],[77.86641,13.39836],[77.86296,13.39902],[77.86232,13.39902],[77.86218,13.39947],[77.86296,13.39968],[77.86342,13.39954],[77.86365,13.39997],[77.86646,13.3993],[77.86667,13.39995],[77.86703,13.39985]]]}},{"type":"Feature","bbox":[77.85901,13.39561,77.8632,13.40427],"properties":{"ward":20},"geometry":{"type":"Polygon","coordinates":[[[77.86161,13.40387],[77.86179,13.40313],[77.86187,13.40061],[77.86245,13.39862],[77.8632,13.39681],[77.86218,13.39678],[77.86207,13.39636],[77.86155,13.39561],[77.86083,13.39569],[77.86133,13.39705],[77.86157,13.39901],[77.85985,13.39921],[77.86038,13.40174],[77.86038,13.40334],[77.85901,13.40364],[77.85923,13.40427],[77.86161,13.40387]]]}},{"type":"Feature","bbox":[77.86474,13.38513,77.86683,13.38783],"properties":{"ward":21},"geometry":{"type":"Polygon","coordinates":[[[77.86528,13.38783],[77.86659,13.38775],[77.86635,13.38688],[77.86612,13.3865],[77.86596,13.38648],[77.86594,13.38622],[77.86683,13.38627],[77.86646,13.38589],[77.86474,13.38513],[77.86528,13.38783]]]}},{"type":"Feature","bbox":[77.86474,13.384,77.86858,13.38946],"properties":{"ward":22},"geometry":{"type":"Polygon","coordinates":[[[77.86835,13.38943],[77.86858,13.3866],[77.86779,13.38614],[77.86765,13.38563],[77.86646,13.38409],[77.865,13.384],[77.86474,13.38513],[77.86646,13.38589],[77.86681,13.38622],[77.86685,13.38635],[77.86596,13.38621],[77.86596,13.38648],[77.86612,13.3865],[77.86635,13.38688],[77.86659,13.38775],[77.86753,13.38782],[77.86756,13.38946],[77.86835,13.38943]]]}},{"type":"Feature","bbox":[77.86833,13.38653,77.87438,13.39347],"properties":{"ward":23},"geometry":{"type":"Polygon","coordinates":[[[77.86858,13.3866],[77.86833,13.38924],[77.86835,13.38943],[77.86867,13.3895],[77.86858,13.38967],[77.86835,13.38969],[77.86836,13.38993],[77.8689,13.39005],[77.86894,13.39044],[77.8698,13.39041],[77.87021,13.38974],[77.87066,13.39006],[77.8706,13.39037],[77.871,13.3927],[77.87223,13.39347],[77.87438,13.39284],[77.87414,13.39254],[77.87403,13.39152],[77.87401,13.3912],[77.87421,13.39105],[77.87416,13.39057],[77.8734,13.38933],[77.87325,13.38943],[77.87251,13.38862],[77.87174,13.38835],[77.87168,13.3886],[77.87149,13.38852],[77.87169,13.38814],[77.87171,13.38756],[77.87145,13.38731],[77.87136,13.38668],[77.87085,13.38653],[77.87012,13.38719],[77.86889,13.38684],[77.86858,13.3866]]]}},{"type":"Feature","bbox":[77.86641,13.39768,77.86932,13.39999],"properties":{"ward":24},"geometry":{"type":"Polygon","coordinates":[[[77.86932,13.39939],[77.86892,13.39768],[77.86641,13.39836],[77.86709,13.39999],[77.86932,13.39939]]]}},{"type":"Feature","bbox":[77.86709,13.39939,77.87152,13.40698],"properties":{"ward":25},"geometry":{"type":"Polygon","coordinates":[[[77.86932,13.39939],[77.86709,13.39999],[77.86846,13.40302],[77.86975,13.40669],[77.86999,13.40662],[77.87018,13.40698],[77.87152,13.40665],[77.87034,13.40263],[77.87011,13.40249],[77.87002,13.40164],[77.86932,13.39939]]]}},{"type":"Feature","bbox":[77.86106,13.40189,77.86975,13.40746],"properties":{"ward":26},"geometry":{"type":"Polygon","coordinates":[[[77.86975,13.40669],[77.86846,13.40302],[77.86789,13.40189],[77.86467,13.4028],[77.86448,13.4021],[77.86262,13.40255],[77.86182,13.40253],[77.86153,13.40463],[77.86106,13.40622],[77.86228,13.40611],[77.86619,13.40529],[77.86676,13.40746],[77.86975,13.40669]]]}},{"type":"Feature","bbox":[77.85803,13.39784,77.86156,13.39927],"properties":{"ward":27},"geometry":{"type":"Polygon","coordinates":[[[77.85803,13.39927],[77.86156,13.39902],[77.86145,13.39784],[77.85836,13.39811],[77.85839,13.3988],[77.85806,13.39877],[77.85803,13.39927]]]}},{"type":"Feature","bbox":[77.85642,13.39569,77.86145,13.39814],"properties":{"ward":28},"geometry":{"type":"Polygon","coordinates":[[[77.85836,13.39811],[77.86145,13.39784],[77.86133,13.39705],[77.86083,13.39569],[77.85783,13.39602],[77.85642,13.39791],[77.85701,13.39811],[77.85803,13.39814],[77.85801,13.39777],[77.85838,13.39781],[77.85836,13.39811]]]}},{"type":"Feature","bbox":[77.86232,13.39672,77.86641,13.39902],"properties":{"ward":29},"geometry":{"type":"Polygon","coordinates":[[[77.86641,13.39836],[77.86602,13.39725],[77.86529,13.39736],[77.86527,13.397],[77.8645,13.39706],[77.86325,13.39672],[77.86232,13.39902],[77.86296,13.39902],[77.86641,13.39836]]]}},{"type":"Feature","bbox":[77.86102,13.38675,77.86315,13.38873],"properties":{"ward":30},"geometry":{"type":"Polygon","coordinates":[[[77.86315,13.38832],[77.86273,13.38675],[77.86102,13.38701],[77.86149,13.38873],[77.86315,13.38832]]]}},{"type":"Feature","bbox":[77.86756,13.3894,77.87223,13.39433],"properties":{"ward":31},"geometry":{"type":"Polygon","coordinates":[[[77.87223,13.39347],[77.871,13.3927],[77.8706,13.39037],[77.87066,13.39006],[77.87021,13.38974],[77.8698,13.39041],[77.86889,13.39043],[77.8689,13.39005],[77.86836,13.38993],[77.86835,13.38969],[77.86858,13.38967],[77.86867,13.3894],[77.86756,13.38946],[77.86783,13.39219],[77.8684,13.39219],[77.86886,13.39259],[77.87016,13.39433],[77.87223,13.39347]]]}}]}