{"type":"FeatureCollection","features":[{"type":"Feature","bbox":[76.7051,9.90836,76.71381,9.91563],"properties":{"ward":3,"name":"Vengathanam"},"geometry":{"type":"Polygon","coordinates":[[[76.70657,9.91449],[76.71023,9.91503],[76.71154,9.91563],[76.71279,9.91467],[76.71328,9.91352],[76.71359,9.91322],[76.71381,9.91248],[76.71378,9.9118],[76.71243,9.90939],[76.71164,9.90836],[76.71092,9.90891],[76.70944,9.90962],[76.70903,9.9106],[76.70867,9.91072],[76.70754,9.91064],[76.70684,9.91108],[76.70611,9.90907],[76.7051,9.91083],[76.7054,9.91243],[76.706,9.91326],[76.70657,9.91449]]]}},{"type":"Feature","bbox":[76.70514,9.90367,76.71813,9.91108],"properties":{"ward":5,"name":"Mun. Up School"},"geometry":{"type":"Polygon","coordinates":[[[76.71656,9.90367],[76.71633,9.90413],[76.71567,9.90437],[76.71381,9.90463],[76.71229,9.90464],[76.71082,9.90412],[76.70975,9.90489],[76.70907,9.90506],[76.70722,9.90514],[76.70643,9.90561],[76.70581,9.90612],[76.70514,9.90724],[76.70611,9.90907],[76.70684,9.91108],[76.70754,9.91064],[76.70867,9.91072],[76.70903,9.9106],[76.70944,9.90962],[76.71092,9.90891],[76.71164,9.90836],[76.71243,9.90939],[76.71546,9.90923],[76.71813,9.90938],[76.71767,9.90568],[76.71741,9.90498],[76.71656,9.90367]]]}},{"type":"Feature","bbox":[76.70862,9.89619,76.71707,9.90464],"properties":{"ward":6,"name":"Ambalam"},"geometry":{"type":"Polygon","coordinates":[[[76.71136,9.89619],[76.71078,9.89723],[76.71006,9.8979],[76.70862,9.90039],[76.70978,9.90193],[76.7111,9.90311],[76.71082,9.90412],[76.71229,9.90464],[76.7147,9.90455],[76.71633,9.90413],[76.7167,9.9031],[76.71707,9.90272],[76.71558,9.90227],[76.71575,9.90185],[76.71558,9.90027],[76.71488,9.90009],[76.7136,9.89924],[76.71358,9.89761],[76.71136,9.89619]]]}},{"type":"Feature","bbox":[76.71358,9.89761,76.72391,9.90405],"properties":{"ward":7,"name":"B.H.S"},"geometry":{"type":"Polygon","coordinates":[[[76.71598,9.89827],[76.71358,9.89761],[76.7136,9.89924],[76.71488,9.90009],[76.71558,9.90027],[76.71575,9.90185],[76.71558,9.90227],[76.72106,9.9038],[76.72285,9.90405],[76.72358,9.90364],[76.72391,9.90303],[76.72391,9.90255],[76.72044,9.90039],[76.71598,9.89827]]]}},{"type":"Feature","bbox":[76.71656,9.90272,76.7247,9.91185],"properties":{"ward":8,"name":"Vadakkummuri"},"geometry":{"type":"Polygon","coordinates":[[[76.71656,9.90367],[76.71741,9.90498],[76.71767,9.90568],[76.71782,9.90754],[76.71816,9.90893],[76.71815,9.91122],[76.72001,9.91177],[76.72113,9.91185],[76.72131,9.90691],[76.72304,9.90756],[76.72433,9.90761],[76.7247,9.90736],[76.72387,9.90612],[76.72285,9.90405],[76.72106,9.9038],[76.71707,9.90272],[76.7167,9.9031],[76.71656,9.90367]]]}},{"type":"Feature","bbox":[76.72108,9.90255,76.7319,9.91409],"properties":{"ward":9,"name":"Pettenad"},"geometry":{"type":"Polygon","coordinates":[[[76.72391,9.90255],[76.72391,9.90303],[76.72358,9.90364],[76.72285,9.90405],[76.72387,9.90612],[76.7247,9.90736],[76.72433,9.90761],[76.72304,9.90756],[76.72131,9.90691],[76.72108,9.91097],[76.72364,9.91169],[76.72497,9.91168],[76.72453,9.91255],[76.72453,9.91306],[76.7248,9.91344],[76.72543,9.91384],[76.72758,9.91409],[76.72889,9.91278],[76.72903,9.91236],[76.72902,9.91162],[76.72869,9.91062],[76.72948,9.90988],[76.73026,9.90987],[76.73099,9.91042],[76.73147,9.91041],[76.7319,9.9102],[76.73177,9.90961],[76.73114,9.909],[76.72961,9.90802],[76.72776,9.90498],[76.72737,9.90544],[76.7272,9.90606],[76.72652,9.90562],[76.72586,9.90563],[76.72558,9.90577],[76.7254,9.90563],[76.7254,9.90439],[76.72594,9.90354],[76.72391,9.90255]]]}},{"type":"Feature","bbox":[76.72108,9.90987,76.73464,9.92438],"properties":{"ward":10,"name":"Holy Family Hospital"},"geometry":{"type":"Polygon","coordinates":[[[76.72253,9.92007],[76.72242,9.92038],[76.7229,9.92119],[76.72383,9.9222],[76.72411,9.92209],[76.72431,9.9229],[76.72493,9.92289],[76.72516,9.92311],[76.72512,9.92342],[76.72557,9.92375],[76.72564,9.924],[76.72542,9.92419],[76.72622,9.92438],[76.72756,9.9211],[76.72822,9.92069],[76.73012,9.92032],[76.73153,9.9195],[76.73299,9.91795],[76.7327,9.91365],[76.73379,9.91288],[76.73464,9.91119],[76.7319,9.9102],[76.73147,9.91041],[76.73099,9.91042],[76.73026,9.90987],[76.72948,9.90988],[76.72869,9.91062],[76.72902,9.91162],[76.72889,9.91278],[76.72758,9.91409],[76.72543,9.91384],[76.7248,9.91344],[76.72453,9.91306],[76.72453,9.91255],[76.72497,9.91168],[76.72364,9.91169],[76.72108,9.91097],[76.7212,9.91322],[76.72174,9.91394],[76.72327,9.91676],[76.72328,9.91778],[76.72212,9.91936],[76.72253,9.92007]]]}},{"type":"Feature","bbox":[76.72613,9.91761,76.74092,9.93719],"properties":{"ward":11,"name":"Kallumari"},"geometry":{"type":"Polygon","coordinates":[[[76.72645,9.92439],[76.72613,9.92514],[76.72624,9.92583],[76.72672,9.92583],[76.72671,9.9263],[76.72705,9.92649],[76.72702,9.92671],[76.72729,9.92703],[76.72753,9.92698],[76.72798,9.92643],[76.72869,9.92664],[76.72873,9.92764],[76.72928,9.92934],[76.72992,9.92948],[76.73073,9.92933],[76.73083,9.9297],[76.73063,9.92983],[76.73052,9.93143],[76.72985,9.93318],[76.73034,9.93419],[76.73019,9.93502],[76.73044,9.93572],[76.73085,9.9358],[76.7316,9.93525],[76.73181,9.93559],[76.7323,9.93524],[76.73296,9.93564],[76.73328,9.93616],[76.73376,9.93654],[76.73385,9.93688],[76.73459,9.93719],[76.73503,9.93702],[76.73544,9.93654],[76.73593,9.93642],[76.73769,9.93661],[76.73819,9.93648],[76.73847,9.93674],[76.74015,9.9362],[76.74076,9.93526],[76.74092,9.93471],[76.74078,9.934],[76.73984,9.93166],[76.73781,9.92766],[76.73719,9.92602],[76.7374,9.92513],[76.73641,9.9221],[76.7363,9.92035],[76.73587,9.91793],[76.7355,9.91793],[76.73484,9.91832],[76.73375,9.91761],[76.73299,9.91795],[76.73153,9.9195],[76.73012,9.92032],[76.72822,9.92069],[76.72756,9.9211],[76.72627,9.92434],[76.72645,9.92439]]]}},{"type":"Feature","bbox":[76.72956,9.90668,76.73919,9.91795],"properties":{"ward":14,"name":"Muthalakodam"},"geometry":{"type":"Polygon","coordinates":[[[76.73919,9.91185],[76.73816,9.91138],[76.73547,9.90896],[76.73526,9.90796],[76.73478,9.90946],[76.73439,9.90877],[76.73404,9.90849],[76.73274,9.90837],[76.7321,9.90809],[76.73183,9.90764],[76.73172,9.90694],[76.73027,9.90668],[76.73037,9.9072],[76.72956,9.90723],[76.72961,9.90802],[76.73132,9.90913],[76.73177,9.90961],[76.7319,9.9102],[76.73464,9.91119],[76.73379,9.91288],[76.7327,9.91365],[76.73299,9.91795],[76.73375,9.91761],[76.73439,9.917],[76.73568,9.91479],[76.73651,9.91368],[76.73691,9.91334],[76.7383,9.91265],[76.73919,9.91185]]]}},{"type":"Feature","bbox":[76.7239,9.90036,76.73037,9.90802],"properties":{"ward":15,"name":"Undaplavu"},"geometry":{"type":"Polygon","coordinates":[[[76.72853,9.90213],[76.72699,9.90036],[76.72674,9.90092],[76.72636,9.90132],[76.72453,9.90133],[76.7239,9.90184],[76.72391,9.90255],[76.72594,9.90354],[76.7254,9.90439],[76.7254,9.90563],[76.72558,9.90577],[76.72586,9.90563],[76.72652,9.90562],[76.7272,9.90606],[76.72737,9.90544],[76.72776,9.90498],[76.72961,9.90802],[76.72952,9.90761],[76.72965,9.90714],[76.73037,9.9072],[76.73026,9.90633],[76.72939,9.90541],[76.7284,9.9039],[76.72833,9.90343],[76.72853,9.90213]]]}},{"type":"Feature","bbox":[76.72833,9.90213,76.736,9.90946],"properties":{"ward":16,"name":"B T M School"},"geometry":{"type":"Polygon","coordinates":[[[76.73526,9.90796],[76.736,9.90796],[76.73562,9.90634],[76.73492,9.90616],[76.73319,9.90485],[76.72915,9.90281],[76.72853,9.90213],[76.72833,9.90343],[76.7284,9.9039],[76.72939,9.90541],[76.73026,9.90633],[76.73027,9.90668],[76.73172,9.90694],[76.73183,9.90764],[76.7321,9.90809],[76.73274,9.90837],[76.73404,9.90849],[76.73439,9.90877],[76.73478,9.90946],[76.73526,9.90796]]]}},{"type":"Feature","bbox":[76.72699,9.89837,76.73609,9.90633],"properties":{"ward":17,"name":"Kumbamkallu"},"geometry":{"type":"Polygon","coordinates":[[[76.72699,9.90036],[76.72915,9.90281],[76.73319,9.90485],[76.73492,9.90616],[76.73609,9.90633],[76.73588,9.90568],[76.73557,9.90533],[76.73479,9.90504],[76.73509,9.9046],[76.73511,9.90393],[76.73556,9.90287],[76.73553,9.90253],[76.7336,9.90215],[76.73287,9.90231],[76.73251,9.90263],[76.73235,9.90256],[76.73011,9.90087],[76.72966,9.90015],[76.72936,9.89898],[76.729,9.89837],[76.72699,9.90036]]]}},{"type":"Feature","bbox":[76.72539,9.89275,76.73578,9.90263],"properties":{"ward":20,"name":"Muthaliyarmadam"},"geometry":{"type":"Polygon","coordinates":[[[76.73407,9.8948],[76.72994,9.89275],[76.72904,9.89328],[76.72762,9.89308],[76.72705,9.89281],[76.7266,9.89363],[76.72565,9.89361],[76.72539,9.89377],[76.7258,9.89476],[76.72655,9.89527],[76.727,9.89581],[76.72603,9.89735],[76.72645,9.89745],[76.72719,9.89725],[76.72765,9.8973],[76.7285,9.89768],[76.72936,9.89898],[76.72966,9.90015],[76.73011,9.90087],[76.73251,9.90263],[76.73325,9.90219],[76.73421,9.90221],[76.73553,9.90253],[76.73565,9.90222],[76.73578,9.90145],[76.73569,9.90088],[76.73544,9.90021],[76.73489,9.89952],[76.73465,9.8982],[76.73422,9.89755],[76.73396,9.89624],[76.73345,9.89525],[76.73407,9.8948]]]}},{"type":"Feature","bbox":[76.71598,9.89327,76.729,9.90255],"properties":{"ward":21,"name":"College"},"geometry":{"type":"Polygon","coordinates":[[[76.72699,9.90036],[76.729,9.89837],[76.7285,9.89768],[76.72807,9.89742],[76.72719,9.89725],[76.72645,9.89745],[76.72603,9.89735],[76.727,9.89581],[76.72655,9.89527],[76.7258,9.89476],[76.72539,9.89377],[76.7245,9.89358],[76.7231,9.89409],[76.72186,9.89387],[76.72058,9.89327],[76.71928,9.89328],[76.71885,9.89342],[76.71746,9.89333],[76.71727,9.89435],[76.71688,9.89515],[76.71604,9.89527],[76.71628,9.8972],[76.71598,9.89827],[76.72044,9.90039],[76.72391,9.90255],[76.7239,9.90184],[76.72453,9.90133],[76.72636,9.90132],[76.72674,9.90092],[76.72699,9.90036]]]}},{"type":"Feature","bbox":[76.71876,9.88466,76.72994,9.89409],"properties":{"ward":22,"name":"Maramkunnu"},"geometry":{"type":"Polygon","coordinates":[[[76.72994,9.89275],[76.72813,9.89195],[76.72634,9.89159],[76.72658,9.88725],[76.72728,9.88605],[76.72627,9.88591],[76.72533,9.88617],[76.72438,9.88483],[76.72443,9.88466],[76.72336,9.88594],[76.72222,9.88681],[76.72106,9.88697],[76.71951,9.88681],[76.71968,9.88777],[76.71927,9.88835],[76.71922,9.88906],[76.71876,9.89008],[76.7189,9.89171],[76.72087,9.89181],[76.72141,9.89198],[76.72252,9.89186],[76.72158,9.89318],[76.72211,9.89386],[76.7231,9.89409],[76.7245,9.89358],[76.72539,9.89377],[76.72565,9.89361],[76.7266,9.89363],[76.72705,9.89281],[76.72762,9.89308],[76.72904,9.89328],[76.72994,9.89275]]]}},{"type":"Feature","bbox":[76.71136,9.88555,76.72252,9.89827],"properties":{"ward":23,"name":"Municipal Office"},"geometry":{"type":"Polygon","coordinates":[[[76.71358,9.89761],[76.71598,9.89827],[76.71628,9.8972],[76.71604,9.89527],[76.71688,9.89515],[76.71727,9.89435],[76.71746,9.89333],[76.71885,9.89342],[76.71928,9.89328],[76.72058,9.89327],[76.72211,9.89386],[76.72158,9.89318],[76.72252,9.89186],[76.72141,9.89198],[76.72087,9.89181],[76.7189,9.89171],[76.71876,9.89008],[76.71922,9.88906],[76.71927,9.88835],[76.71968,9.88777],[76.71951,9.88681],[76.71876,9.88642],[76.71789,9.88618],[76.71725,9.88618],[76.71534,9.88555],[76.71514,9.88693],[76.71366,9.89043],[76.71377,9.89398],[76.71245,9.89446],[76.71186,9.89494],[76.71136,9.89619],[76.71358,9.89761]]]}},{"type":"Feature","bbox":[76.70655,9.88602,76.71492,9.89619],"properties":{"ward":27,"name":"Kothaikunnu"},"geometry":{"type":"Polygon","coordinates":[[[76.71383,9.88621],[76.71184,9.88602],[76.7114,9.88649],[76.71108,9.8873],[76.71075,9.88762],[76.70901,9.88805],[76.70851,9.88847],[76.70816,9.88913],[76.70736,9.88965],[76.70655,9.89198],[76.70788,9.8931],[76.70834,9.89429],[76.70902,9.89511],[76.70912,9.89573],[76.71136,9.89619],[76.71186,9.89494],[76.71245,9.89446],[76.71377,9.89398],[76.71366,9.89043],[76.71492,9.88753],[76.71383,9.88621]]]}},{"type":"Feature","bbox":[76.69488,9.88467,76.70912,9.8965],"properties":{"ward":28,"name":"Chungam"},"geometry":{"type":"Polygon","coordinates":[[[76.70712,9.89025],[76.70627,9.89],[76.70578,9.88953],[76.70652,9.88912],[76.70632,9.88798],[76.70409,9.88467],[76.70336,9.88486],[76.70322,9.88603],[76.70294,9.88647],[76.70197,9.8873],[76.70124,9.8876],[76.70016,9.88763],[76.69814,9.8869],[76.69638,9.8865],[76.69557,9.88609],[76.69719,9.88841],[76.69655,9.88882],[76.69536,9.88897],[76.69488,9.88919],[76.69553,9.88966],[76.69628,9.88994],[76.69864,9.89048],[76.70156,9.89041],[76.70277,9.89405],[76.70421,9.8965],[76.7046,9.89608],[76.70532,9.89567],[76.70616,9.89543],[76.70724,9.89542],[76.7081,9.89568],[76.70912,9.89573],[76.70902,9.89511],[76.70834,9.89429],[76.70788,9.8931],[76.70655,9.89198],[76.70712,9.89025]]]}},{"type":"Feature","bbox":[76.68058,9.87811,76.69282,9.89255],"properties":{"ward":31,"name":"Parakkadavu"},"geometry":{"type":"Polygon","coordinates":[[[76.68274,9.87811],[76.6821,9.87854],[76.68205,9.8784],[76.68151,9.8783],[76.68126,9.87882],[76.6811,9.88042],[76.68058,9.88189],[76.68058,9.88219],[76.68093,9.88261],[76.68125,9.88265],[76.68181,9.8832],[76.68211,9.8839],[76.68116,9.88367],[76.68099,9.88387],[76.68103,9.88545],[76.68168,9.88743],[76.68113,9.88873],[76.68133,9.88934],[76.68118,9.88943],[76.68128,9.88997],[76.68085,9.89048],[76.68079,9.89096],[76.68098,9.89108],[76.68145,9.89095],[76.6817,9.89114],[76.68261,9.89125],[76.68295,9.89159],[76.68318,9.89225],[76.68434,9.89233],[76.68542,9.89199],[76.6859,9.89222],[76.68611,9.89255],[76.68779,9.88972],[76.68958,9.88506],[76.69282,9.88235],[76.69232,9.88163],[76.69094,9.88084],[76.69008,9.88004],[76.68882,9.87937],[76.68274,9.87811]]]}},{"type":"Feature","bbox":[76.69246,9.89224,76.70421,9.9006],"properties":{"ward":33,"name":"Co - Operative Hospital"},"geometry":{"type":"Polygon","coordinates":[[[76.70156,9.89895],[76.7026,9.89761],[76.70421,9.8965],[76.70277,9.89405],[76.70221,9.89224],[76.70139,9.89258],[76.70088,9.89334],[76.69816,9.89297],[76.69681,9.89335],[76.69507,9.89419],[76.69246,9.89434],[76.69354,9.89525],[76.69405,9.89541],[76.69434,9.89582],[76.69407,9.89692],[76.69419,9.89776],[76.69411,9.89951],[76.6943,9.9006],[76.69589,9.90043],[76.69884,9.89978],[76.70015,9.89921],[76.70156,9.89895]]]}},{"type":"Feature","bbox":[76.70156,9.89542,76.71136,9.90193],"properties":{"ward":34,"name":"Riverview"},"geometry":{"type":"Polygon","coordinates":[[[76.7046,9.89608],[76.7026,9.89761],[76.70156,9.89895],[76.70192,9.89937],[76.70251,9.89967],[76.70298,9.9003],[76.70366,9.90193],[76.70539,9.90076],[76.70571,9.90076],[76.70614,9.90113],[76.70862,9.90039],[76.71006,9.8979],[76.71078,9.89723],[76.71136,9.89619],[76.70724,9.89542],[76.70616,9.89543],[76.70532,9.89567],[76.7046,9.89608]]]}}]}