{"type":"FeatureCollection","features":[{"type":"Feature","bbox":[77.70769,13.67004,77.71548,13.67691],"properties":{"ward":1},"geometry":{"type":"Polygon","coordinates":[[[77.71547,13.67004],[77.71347,13.67026],[77.71177,13.67079],[77.70805,13.67153],[77.70842,13.67386],[77.70769,13.67436],[77.70801,13.67464],[77.70798,13.67499],[77.70836,13.6746],[77.70973,13.67544],[77.71141,13.67691],[77.71176,13.67658],[77.71149,13.67611],[77.71121,13.67632],[77.71061,13.67577],[77.70977,13.67537],[77.70917,13.67414],[77.7093,13.67308],[77.70906,13.6725],[77.70966,13.67256],[77.70949,13.67328],[77.70981,13.67341],[77.71006,13.67318],[77.7105,13.67345],[77.7113,13.67362],[77.71141,13.6733],[77.71101,13.67327],[77.71033,13.67287],[77.71053,13.67254],[77.71191,13.67269],[77.71194,13.67334],[77.71311,13.67385],[77.71382,13.67379],[77.71404,13.67447],[77.71427,13.67442],[77.71404,13.67362],[77.71228,13.67209],[77.7123,13.67196],[77.71493,13.67169],[77.71478,13.67131],[77.71502,13.67105],[77.71477,13.67022],[77.71548,13.67015],[77.71547,13.67004]]]}},{"type":"Feature","bbox":[77.70511,13.67153,77.70828,13.67346],"properties":{"ward":2},"geometry":{"type":"Polygon","coordinates":[[[77.70828,13.67299],[77.70805,13.67153],[77.70708,13.67172],[77.70511,13.6716],[77.70528,13.67264],[77.70515,13.67278],[77.7058,13.6732],[77.70666,13.67346],[77.70828,13.67299]]]}},{"type":"Feature","bbox":[77.70268,13.67142,77.70528,13.67539],"properties":{"ward":3},"geometry":{"type":"Polygon","coordinates":[[[77.70515,13.67278],[77.70528,13.67264],[77.70511,13.6716],[77.70316,13.67142],[77.70322,13.67261],[77.70268,13.67272],[77.70275,13.6735],[77.70322,13.67368],[77.70318,13.67395],[77.70359,13.67411],[77.70351,13.67464],[77.70415,13.67471],[77.70437,13.67516],[77.70475,13.67539],[77.70505,13.67508],[77.70472,13.67477],[77.70478,13.6744],[77.70427,13.67437],[77.7044,13.67403],[77.70422,13.67401],[77.70413,13.67317],[77.70455,13.67274],[77.70485,13.67263],[77.70515,13.67278]]]}},{"type":"Feature","bbox":[77.69753,13.67142,77.70322,13.67366],"properties":{"ward":4},"geometry":{"type":"Polygon","coordinates":[[[77.70275,13.6735],[77.70269,13.6727],[77.70322,13.67261],[77.70316,13.67142],[77.70133,13.67142],[77.69774,13.67231],[77.69753,13.6725],[77.69774,13.6732],[77.69814,13.67296],[77.69949,13.67274],[77.70032,13.67219],[77.70067,13.67335],[77.7015,13.67366],[77.70148,13.67348],[77.70174,13.67346],[77.70174,13.67285],[77.70212,13.67284],[77.70218,13.6732],[77.70275,13.6735]]]}},{"type":"Feature","bbox":[77.69534,13.67084,77.69956,13.67329],"properties":{"ward":5},"geometry":{"type":"Polygon","coordinates":[[[77.69566,13.67329],[77.69774,13.67231],[77.69956,13.6719],[77.69947,13.67149],[77.6969,13.67202],[77.69696,13.6712],[77.69678,13.67084],[77.69665,13.67103],[77.69614,13.67119],[77.69557,13.6711],[77.69582,13.6724],[77.69534,13.67242],[77.69554,13.67263],[77.69543,13.67276],[77.69566,13.67329]]]}},{"type":"Feature","bbox":[77.6989,13.66769,77.70112,13.6719],"properties":{"ward":6},"geometry":{"type":"Polygon","coordinates":[[[77.70112,13.67149],[77.70048,13.66914],[77.70088,13.66906],[77.70102,13.66874],[77.70017,13.66847],[77.70023,13.66797],[77.70005,13.66811],[77.69906,13.66769],[77.6992,13.66804],[77.6989,13.66922],[77.69907,13.66982],[77.69975,13.66983],[77.69979,13.67042],[77.69893,13.67028],[77.69897,13.67053],[77.69917,13.67044],[77.6994,13.67099],[77.69956,13.6719],[77.70112,13.67149]]]}},{"type":"Feature","bbox":[77.7005,13.6687,77.70343,13.67149],"properties":{"ward":7},"geometry":{"type":"Polygon","coordinates":[[[77.70112,13.67149],[77.70343,13.67146],[77.70343,13.67124],[77.70251,13.67033],[77.70253,13.66918],[77.70221,13.6687],[77.70102,13.66874],[77.70088,13.66906],[77.7005,13.6691],[77.70112,13.67149]]]}},{"type":"Feature","bbox":[77.70213,13.66841,77.70511,13.6716],"properties":{"ward":8},"geometry":{"type":"Polygon","coordinates":[[[77.7051,13.67045],[77.70456,13.67049],[77.7037,13.6702],[77.70341,13.67],[77.70341,13.6697],[77.7031,13.66967],[77.70298,13.66845],[77.70213,13.66841],[77.70253,13.66918],[77.70251,13.67033],[77.70335,13.67111],[77.70343,13.67146],[77.70511,13.6716],[77.7051,13.67045]]]}},{"type":"Feature","bbox":[77.70296,13.66838,77.70519,13.67047],"properties":{"ward":9},"geometry":{"type":"Polygon","coordinates":[[[77.7051,13.67045],[77.70494,13.6697],[77.70519,13.66922],[77.70345,13.66885],[77.7034,13.66854],[77.70313,13.66856],[77.70296,13.66838],[77.7031,13.66967],[77.70341,13.6697],[77.70341,13.67],[77.70448,13.67047],[77.7051,13.67045]]]}},{"type":"Feature","bbox":[77.70279,13.66597,77.70633,13.66922],"properties":{"ward":10},"geometry":{"type":"Polygon","coordinates":[[[77.70633,13.66767],[77.70571,13.66699],[77.70569,13.66678],[77.70556,13.66683],[77.70554,13.66621],[77.70524,13.66598],[77.70475,13.66597],[77.70487,13.66683],[77.70449,13.66707],[77.70423,13.66696],[77.70394,13.66718],[77.70412,13.66753],[77.70412,13.66804],[77.70395,13.66776],[77.70333,13.66811],[77.7029,13.66807],[77.70279,13.66824],[77.70308,13.66837],[77.70313,13.66856],[77.7034,13.66854],[77.70345,13.66885],[77.70519,13.66922],[77.70633,13.66767]]]}},{"type":"Feature","bbox":[77.70496,13.66671,77.71547,13.67172],"properties":{"ward":11},"geometry":{"type":"Polygon","coordinates":[[[77.70708,13.67172],[77.71177,13.67079],[77.71347,13.67026],[77.71547,13.67004],[77.71544,13.66948],[77.71479,13.66958],[77.71275,13.669],[77.71372,13.66968],[77.71383,13.67007],[77.71211,13.67044],[77.71194,13.66998],[77.71141,13.67004],[77.71145,13.66965],[77.7113,13.66943],[77.71015,13.6697],[77.70884,13.66972],[77.7087,13.67035],[77.70803,13.67049],[77.70758,13.67032],[77.70714,13.67047],[77.70686,13.67036],[77.70706,13.66933],[77.70762,13.6691],[77.70813,13.66931],[77.70792,13.66848],[77.70791,13.66821],[77.70807,13.6682],[77.70799,13.66801],[77.70842,13.66788],[77.70847,13.66838],[77.70904,13.66831],[77.70915,13.66901],[77.7098,13.6689],[77.70975,13.66791],[77.71001,13.66787],[77.71005,13.66765],[77.70973,13.66742],[77.70938,13.66751],[77.7093,13.66722],[77.70863,13.66734],[77.70844,13.66671],[77.70762,13.6669],[77.70711,13.66672],[77.70697,13.66743],[77.70611,13.66787],[77.70496,13.66965],[77.70511,13.6716],[77.70708,13.67172]]]}}]}