{"type":"FeatureCollection","features":[{"type":"Feature","bbox":[77.28177,12.72904,77.29381,12.74375],"properties":{"ward":1},"geometry":{"type":"Polygon","coordinates":[[[77.29381,12.73896],[77.29233,12.73792],[77.29137,12.73628],[77.29048,12.73697],[77.28977,12.73562],[77.28783,12.73631],[77.28763,12.73542],[77.28832,12.73503],[77.28822,12.73457],[77.28798,12.73447],[77.28789,12.73375],[77.28767,12.73379],[77.28748,12.73353],[77.28678,12.73358],[77.2868,12.73407],[77.28636,12.73415],[77.28615,12.73319],[77.28589,12.7331],[77.28591,12.73293],[77.28615,12.73291],[77.28588,12.73137],[77.28532,12.73144],[77.28464,12.72904],[77.28277,12.72921],[77.28177,12.72958],[77.28206,12.73165],[77.28193,12.73274],[77.28193,12.73695],[77.28235,12.73869],[77.2841,12.74101],[77.28667,12.74256],[77.28778,12.74375],[77.28825,12.74353],[77.2882,12.74341],[77.28947,12.74286],[77.28904,12.74172],[77.28905,12.74143],[77.28937,12.74107],[77.28985,12.74131],[77.28952,12.7417],[77.29079,12.7421],[77.2918,12.74315],[77.29286,12.74194],[77.29232,12.74161],[77.29139,12.74167],[77.29108,12.74075],[77.2919,12.73955],[77.29213,12.73948],[77.29244,12.74065],[77.29381,12.73896]]]}},{"type":"Feature","bbox":[77.28589,12.72934,77.30246,12.74566],"properties":{"ward":2},"geometry":{"type":"Polygon","coordinates":[[[77.29754,12.73256],[77.29156,12.72934],[77.28949,12.73019],[77.28855,12.73075],[77.28883,12.73111],[77.28847,12.73135],[77.28858,12.73185],[77.28792,12.73221],[77.28792,12.73234],[77.28727,12.73249],[77.28708,12.73239],[77.28642,12.73287],[77.28591,12.73293],[77.28589,12.73307],[77.28615,12.73319],[77.28637,12.73416],[77.2868,12.73407],[77.28678,12.73358],[77.28748,12.73353],[77.28767,12.73379],[77.28789,12.73375],[77.28798,12.73447],[77.28822,12.73457],[77.28832,12.73503],[77.28763,12.73542],[77.28783,12.73631],[77.28977,12.73562],[77.29048,12.73697],[77.29137,12.73628],[77.29233,12.73792],[77.29381,12.73896],[77.29557,12.73979],[77.29493,12.73986],[77.29444,12.74051],[77.29476,12.74102],[77.29509,12.74097],[77.29516,12.74125],[77.2958,12.74152],[77.29646,12.74252],[77.29717,12.74548],[77.29794,12.74566],[77.29741,12.74396],[77.29832,12.744],[77.29906,12.74376],[77.2988,12.74264],[77.29883,12.74116],[77.29868,12.74083],[77.29831,12.74082],[77.29802,12.7396],[77.2982,12.73913],[77.29797,12.73829],[77.29839,12.73746],[77.29775,12.73476],[77.29782,12.73463],[77.29851,12.73468],[77.29878,12.73501],[77.30044,12.73577],[77.30246,12.73648],[77.30208,12.73598],[77.30228,12.73566],[77.29923,12.73352],[77.29759,12.73276],[77.29754,12.73256]]]}},{"type":"Feature","bbox":[77.28281,12.72627,77.28883,12.73291],"properties":{"ward":3},"geometry":{"type":"Polygon","coordinates":[[[77.28883,12.73111],[77.28668,12.72863],[77.28426,12.72627],[77.28367,12.72678],[77.2836,12.72663],[77.28281,12.72705],[77.28354,12.7291],[77.28464,12.72904],[77.28532,12.73144],[77.28588,12.73137],[77.28615,12.73291],[77.28711,12.73239],[77.28727,12.73249],[77.28792,12.73234],[77.28792,12.73221],[77.28858,12.73185],[77.28847,12.73135],[77.28883,12.73111]]]}},{"type":"Feature","bbox":[77.28029,12.72526,77.28418,12.72965],"properties":{"ward":4},"geometry":{"type":"Polygon","coordinates":[[[77.2816,12.72965],[77.28354,12.7291],[77.28281,12.72705],[77.2836,12.72663],[77.28367,12.72678],[77.28418,12.72634],[77.28267,12.72526],[77.28203,12.72538],[77.28218,12.7261],[77.28249,12.72665],[77.28109,12.7268],[77.28029,12.72848],[77.2816,12.72965]]]}},{"type":"Feature","bbox":[77.27796,12.72642,77.28118,12.72848],"properties":{"ward":5},"geometry":{"type":"Polygon","coordinates":[[[77.28029,12.72848],[77.28118,12.72648],[77.28069,12.72642],[77.27906,12.72671],[77.27796,12.72718],[77.28029,12.72848]]]}},{"type":"Feature","bbox":[77.27682,12.72359,77.28267,12.72718],"properties":{"ward":6},"geometry":{"type":"Polygon","coordinates":[[[77.28109,12.7268],[77.28249,12.72665],[77.28218,12.7261],[77.28203,12.72538],[77.28267,12.72526],[77.28199,12.72477],[77.28203,12.72434],[77.28166,12.72421],[77.28141,12.72371],[77.28102,12.72377],[77.28092,12.72399],[77.28038,12.72359],[77.28062,12.72544],[77.27859,12.7255],[77.27682,12.72598],[77.2775,12.72695],[77.27796,12.72718],[77.27906,12.72671],[77.28069,12.72642],[77.28118,12.72648],[77.28109,12.7268]]]}},{"type":"Feature","bbox":[77.2768,12.71872,77.2813,12.72598],"properties":{"ward":7},"geometry":{"type":"Polygon","coordinates":[[[77.2813,12.72373],[77.2813,12.72304],[77.2808,12.72304],[77.28059,12.72176],[77.28104,12.72163],[77.28044,12.71872],[77.27939,12.7189],[77.27992,12.72087],[77.27784,12.72103],[77.2778,12.72232],[77.2768,12.72456],[77.27682,12.72598],[77.27859,12.7255],[77.28062,12.72544],[77.28038,12.72359],[77.28092,12.72399],[77.28102,12.72377],[77.2813,12.72373]]]}},{"type":"Feature","bbox":[77.26472,12.70748,77.2816,12.73055],"properties":{"ward":8},"geometry":{"type":"Polygon","coordinates":[[[77.2816,12.72965],[77.28093,12.72894],[77.27986,12.72817],[77.2775,12.72695],[77.27682,12.72598],[77.2768,12.72456],[77.2778,12.72232],[77.27784,12.72103],[77.27992,12.72087],[77.27941,12.71897],[77.27819,12.71931],[77.27809,12.71815],[77.27762,12.71827],[77.27743,12.71549],[77.27696,12.71345],[77.277,12.7129],[77.27739,12.71199],[77.27672,12.71223],[77.27603,12.71028],[77.27556,12.71014],[77.27335,12.71137],[77.27355,12.71188],[77.27323,12.7118],[77.27264,12.71104],[77.27185,12.71114],[77.27174,12.71101],[77.27162,12.70975],[77.27069,12.70967],[77.27016,12.70988],[77.26983,12.70909],[77.26912,12.70875],[77.26887,12.70878],[77.26898,12.70945],[77.26852,12.70955],[77.26836,12.70886],[77.26786,12.70891],[77.26716,12.70871],[77.2668,12.70823],[77.26583,12.70748],[77.26517,12.70768],[77.26472,12.70806],[77.26518,12.70848],[77.27187,12.71308],[77.27423,12.71551],[77.27504,12.7166],[77.27502,12.72006],[77.27524,12.72235],[77.27413,12.72385],[77.27456,12.72433],[77.2744,12.72485],[77.274,12.72534],[77.27427,12.72718],[77.27312,12.7275],[77.27233,12.72752],[77.27221,12.72896],[77.27245,12.73016],[77.2726,12.73034],[77.2741,12.72938],[77.27432,12.72894],[77.27423,12.72793],[77.27478,12.72774],[77.27553,12.72879],[77.27673,12.72984],[77.27803,12.7305],[77.27934,12.73055],[77.2816,12.72965]]]}},{"type":"Feature","bbox":[77.28059,12.72051,77.28418,12.72634],"properties":{"ward":9},"geometry":{"type":"Polygon","coordinates":[[[77.28418,12.72634],[77.28337,12.72329],[77.28198,12.72349],[77.28188,12.72189],[77.28302,12.72177],[77.28276,12.72051],[77.28078,12.72077],[77.28104,12.72163],[77.28059,12.72176],[77.2808,12.72304],[77.2813,12.72304],[77.2813,12.72373],[77.28167,12.72422],[77.28203,12.72434],[77.28199,12.72477],[77.28418,12.72634]]]}},{"type":"Feature","bbox":[77.28188,12.71945,77.28654,12.72583],"properties":{"ward":10},"geometry":{"type":"Polygon","coordinates":[[[77.28633,12.72456],[77.28302,12.71945],[77.28276,12.71959],[77.28275,12.72043],[77.28302,12.72177],[77.28188,12.72189],[77.28198,12.72349],[77.28337,12.72329],[77.28407,12.72583],[77.28654,12.7251],[77.28623,12.72463],[77.28633,12.72456]]]}},{"type":"Feature","bbox":[77.28162,12.71626,77.28579,12.72145],"properties":{"ward":11},"geometry":{"type":"Polygon","coordinates":[[[77.28579,12.72092],[77.28564,12.71999],[77.28577,12.71889],[77.28478,12.71843],[77.28446,12.71783],[77.28424,12.71785],[77.28451,12.71684],[77.28408,12.71626],[77.28307,12.71659],[77.28231,12.71654],[77.28162,12.71673],[77.28239,12.71847],[77.2843,12.72145],[77.28579,12.72092]]]}},{"type":"Feature","bbox":[77.28407,12.72034,77.29156,12.73075],"properties":{"ward":12},"geometry":{"type":"Polygon","coordinates":[[[77.29156,12.72934],[77.28955,12.72821],[77.28847,12.72738],[77.28758,12.72642],[77.28634,12.72458],[77.28692,12.72449],[77.28755,12.72465],[77.28953,12.72467],[77.28955,12.72425],[77.28938,12.72427],[77.28905,12.72342],[77.28871,12.72349],[77.2886,12.72262],[77.28823,12.72268],[77.28762,12.72034],[77.2843,12.72145],[77.28633,12.72456],[77.28623,12.72463],[77.28654,12.7251],[77.28407,12.72583],[77.2843,12.72633],[77.28668,12.72863],[77.28855,12.73075],[77.28949,12.73019],[77.29156,12.72934]]]}},{"type":"Feature","bbox":[77.2803,12.71511,77.28302,12.72077],"properties":{"ward":13},"geometry":{"type":"Polygon","coordinates":[[[77.28276,12.72051],[77.28276,12.71959],[77.28302,12.71945],[77.28184,12.71736],[77.28118,12.71511],[77.28074,12.71519],[77.28105,12.71652],[77.28048,12.71658],[77.28061,12.71771],[77.2803,12.71775],[77.28078,12.72077],[77.28276,12.72051]]]}},{"type":"Feature","bbox":[77.27809,12.71519,77.28105,12.71931],"properties":{"ward":14},"geometry":{"type":"Polygon","coordinates":[[[77.27819,12.71931],[77.28044,12.71872],[77.2803,12.71775],[77.28061,12.71771],[77.28048,12.71658],[77.28105,12.71652],[77.28074,12.71519],[77.28008,12.71541],[77.28024,12.71648],[77.27945,12.71657],[77.27949,12.71711],[77.27921,12.7176],[77.27923,12.71797],[77.27831,12.71799],[77.27809,12.71815],[77.27819,12.71931]]]}},{"type":"Feature","bbox":[77.28118,12.70772,77.28476,12.71673],"properties":{"ward":15},"geometry":{"type":"Polygon","coordinates":[[[77.28388,12.71633],[77.28345,12.71513],[77.28394,12.71489],[77.28301,12.71323],[77.28374,12.71214],[77.28476,12.71161],[77.2843,12.71025],[77.28441,12.71022],[77.28379,12.70772],[77.2831,12.70824],[77.28125,12.70913],[77.28249,12.71347],[77.28216,12.71377],[77.2818,12.71483],[77.28118,12.71511],[77.28162,12.71673],[77.28231,12.71654],[77.28307,12.71659],[77.28388,12.71633]]]}},{"type":"Feature","bbox":[77.27794,12.70913,77.28249,12.71536],"properties":{"ward":16},"geometry":{"type":"Polygon","coordinates":[[[77.28002,12.71536],[77.2818,12.71483],[77.28216,12.71377],[77.28249,12.71347],[77.28125,12.70913],[77.28084,12.7094],[77.28061,12.7093],[77.27889,12.71031],[77.27846,12.71064],[77.27794,12.71157],[77.27949,12.71269],[77.2795,12.71333],[77.28002,12.71536]]]}},{"type":"Feature","bbox":[77.27696,12.71157,77.28024,12.71827],"properties":{"ward":17},"geometry":{"type":"Polygon","coordinates":[[[77.27762,12.71827],[77.27831,12.71799],[77.27923,12.71797],[77.27921,12.7176],[77.27949,12.71711],[77.27945,12.71657],[77.28024,12.71648],[77.2795,12.71333],[77.27949,12.71269],[77.27794,12.71157],[77.27757,12.71206],[77.27739,12.71199],[77.277,12.7129],[77.27696,12.71345],[77.27743,12.71549],[77.27762,12.71827]]]}},{"type":"Feature","bbox":[77.28379,12.70412,77.29153,12.71332],"properties":{"ward":18},"geometry":{"type":"Polygon","coordinates":[[[77.29153,12.7096],[77.2908,12.70877],[77.29048,12.70877],[77.29038,12.70902],[77.28945,12.70593],[77.28914,12.70527],[77.28854,12.70483],[77.28835,12.70412],[77.28609,12.70598],[77.28496,12.70653],[77.28504,12.70712],[77.28379,12.70772],[77.28441,12.71022],[77.2843,12.71025],[77.28476,12.71161],[77.28525,12.71128],[77.28552,12.71152],[77.28664,12.71149],[77.28675,12.71207],[77.28697,12.71199],[77.28701,12.71211],[77.28687,12.71235],[77.28708,12.71332],[77.28815,12.71323],[77.28813,12.71306],[77.28884,12.71296],[77.28875,12.71245],[77.28912,12.71237],[77.28873,12.71115],[77.28896,12.71096],[77.28903,12.71048],[77.28955,12.71028],[77.28976,12.71081],[77.28994,12.71058],[77.29151,12.7098],[77.29153,12.7096]]]}},{"type":"Feature","bbox":[77.28301,12.71128,77.28754,12.71633],"properties":{"ward":19},"geometry":{"type":"Polygon","coordinates":[[[77.28388,12.71633],[77.28537,12.7158],[77.28547,12.71606],[77.28586,12.71596],[77.28643,12.71561],[77.28754,12.71535],[77.28687,12.71235],[77.28701,12.71211],[77.28697,12.71199],[77.28675,12.71207],[77.28664,12.71149],[77.28552,12.71152],[77.28525,12.71128],[77.28503,12.71153],[77.28389,12.71202],[77.28336,12.71256],[77.28301,12.71323],[77.28394,12.71489],[77.28345,12.71513],[77.28388,12.71633]]]}},{"type":"Feature","bbox":[77.28408,12.71567,77.28683,12.71785],"properties":{"ward":20},"geometry":{"type":"Polygon","coordinates":[[[77.28424,12.71785],[77.28637,12.71765],[77.28683,12.71741],[77.28646,12.71655],[77.28635,12.71567],[77.28586,12.71596],[77.28547,12.71606],[77.28537,12.7158],[77.28408,12.71626],[77.28451,12.71684],[77.28424,12.71785]]]}},{"type":"Feature","bbox":[77.28446,12.71749,77.28726,12.72092],"properties":{"ward":21},"geometry":{"type":"Polygon","coordinates":[[[77.28726,12.72045],[77.28674,12.71749],[77.28446,12.71783],[77.28476,12.71841],[77.28577,12.71889],[77.28564,12.71999],[77.28579,12.72092],[77.28726,12.72045]]]}},{"type":"Feature","bbox":[77.28674,12.71213,77.29658,12.72045],"properties":{"ward":22},"geometry":{"type":"Polygon","coordinates":[[[77.28726,12.72045],[77.28979,12.72003],[77.28986,12.71957],[77.29383,12.71895],[77.294,12.71888],[77.29389,12.71844],[77.29545,12.7188],[77.29658,12.71828],[77.29627,12.71805],[77.2958,12.71808],[77.29523,12.7173],[77.29515,12.71684],[77.29563,12.7151],[77.29562,12.71387],[77.29448,12.71387],[77.29243,12.71328],[77.29231,12.71283],[77.29208,12.7126],[77.29213,12.71213],[77.29119,12.71318],[77.2909,12.71425],[77.29051,12.71493],[77.28869,12.71639],[77.28735,12.71702],[77.28674,12.71749],[77.28726,12.72045]]]}},{"type":"Feature","bbox":[77.28634,12.71908,77.29944,12.73256],"properties":{"ward":23},"geometry":{"type":"Polygon","coordinates":[[[77.29464,12.71937],[77.29469,12.71951],[77.29392,12.71986],[77.29215,12.72024],[77.29221,12.72066],[77.29146,12.72076],[77.28994,12.72093],[77.29012,12.72],[77.28761,12.7203],[77.28823,12.72268],[77.2886,12.72262],[77.28871,12.72349],[77.28905,12.72342],[77.28938,12.72427],[77.28955,12.72425],[77.28953,12.72467],[77.28755,12.72465],[77.28692,12.72449],[77.28634,12.72458],[77.28788,12.72679],[77.28933,12.72806],[77.29754,12.73256],[77.29763,12.73118],[77.29809,12.73064],[77.2971,12.72963],[77.29944,12.72781],[77.29853,12.72685],[77.29804,12.72713],[77.29806,12.72536],[77.29819,12.72533],[77.29799,12.72484],[77.29757,12.72462],[77.29737,12.72428],[77.29684,12.72435],[77.29683,12.72459],[77.29668,12.72458],[77.29665,12.72437],[77.29641,12.72439],[77.29639,12.72406],[77.29697,12.72398],[77.29711,12.72376],[77.2968,12.72314],[77.29634,12.72277],[77.29563,12.72095],[77.29503,12.72016],[77.29509,12.71976],[77.29559,12.71953],[77.29541,12.71908],[77.29464,12.71937]]]}},{"type":"Feature","bbox":[77.28634,12.7096,77.29213,12.71741],"properties":{"ward":24},"geometry":{"type":"Polygon","coordinates":[[[77.29213,12.71213],[77.2918,12.70983],[77.29153,12.7096],[77.29151,12.7098],[77.28994,12.71058],[77.28976,12.71081],[77.28955,12.71028],[77.28903,12.71048],[77.28896,12.71096],[77.28873,12.71115],[77.28912,12.71237],[77.28875,12.71245],[77.28884,12.71296],[77.28813,12.71306],[77.28815,12.71323],[77.28708,12.71332],[77.28754,12.71535],[77.28634,12.71569],[77.28646,12.71655],[77.28683,12.71741],[77.28743,12.71697],[77.28869,12.71639],[77.29051,12.71493],[77.2909,12.71425],[77.29119,12.71318],[77.29213,12.71213]]]}},{"type":"Feature","bbox":[77.25833,12.72635,77.26701,12.73365],"properties":{"ward":25},"geometry":{"type":"Polygon","coordinates":[[[77.26695,12.7306],[77.26682,12.72971],[77.26686,12.72902],[77.26701,12.72897],[77.26665,12.72676],[77.26371,12.72737],[77.26251,12.72705],[77.26147,12.72635],[77.25892,12.72637],[77.25912,12.72783],[77.2588,12.72794],[77.25837,12.72785],[77.25833,12.72909],[77.25843,12.72967],[77.25864,12.72975],[77.25888,12.73051],[77.25904,12.73231],[77.26018,12.73261],[77.26085,12.73349],[77.26331,12.73325],[77.26516,12.7335],[77.26526,12.73365],[77.26653,12.73351],[77.26678,12.73339],[77.26679,12.73284],[77.26663,12.73278],[77.26681,12.73192],[77.26598,12.73186],[77.26572,12.73161],[77.26574,12.73112],[77.26585,12.73045],[77.26695,12.7306]]]}},{"type":"Feature","bbox":[77.26664,12.7229,77.2739,12.73068],"properties":{"ward":26},"geometry":{"type":"Polygon","coordinates":[[[77.26948,12.72949],[77.27077,12.7281],[77.27152,12.72693],[77.27192,12.72528],[77.27309,12.72503],[77.2739,12.72403],[77.27205,12.72416],[77.27197,12.72293],[77.2704,12.7229],[77.27043,12.72488],[77.27021,12.72632],[77.26762,12.72632],[77.26664,12.72664],[77.26701,12.72897],[77.26686,12.72902],[77.26682,12.72971],[77.26695,12.7306],[77.26742,12.73068],[77.26749,12.73049],[77.26909,12.7297],[77.26919,12.72937],[77.26948,12.72949]]]}},{"type":"Feature","bbox":[77.26948,12.72503,77.28206,12.73823],"properties":{"ward":27},"geometry":{"type":"Polygon","coordinates":[[[77.28193,12.73688],[77.28193,12.73274],[77.28206,12.73165],[77.28177,12.72958],[77.27934,12.73055],[77.27803,12.7305],[77.27673,12.72984],[77.27553,12.72879],[77.27478,12.72774],[77.27423,12.72793],[77.27432,12.72894],[77.2741,12.72938],[77.2726,12.73034],[77.27229,12.72972],[77.27225,12.72828],[77.27247,12.72644],[77.27309,12.72503],[77.27192,12.72528],[77.27152,12.72693],[77.27077,12.7281],[77.26948,12.72949],[77.26952,12.72966],[77.26983,12.72971],[77.27013,12.73062],[77.27072,12.73061],[77.27063,12.73083],[77.27083,12.73146],[77.27131,12.73198],[77.27107,12.7321],[77.27134,12.73335],[77.27099,12.73378],[77.27113,12.73385],[77.27101,12.73502],[77.27115,12.73533],[77.27153,12.73575],[77.27177,12.73572],[77.27201,12.73596],[77.2737,12.73582],[77.27374,12.73554],[77.27431,12.73554],[77.27442,12.73568],[77.27429,12.73646],[77.27488,12.73818],[77.27537,12.73823],[77.27557,12.73784],[77.27578,12.73779],[77.27776,12.73779],[77.27783,12.73766],[77.27803,12.73776],[77.27833,12.73757],[77.27832,12.73735],[77.27884,12.73721],[77.27926,12.73683],[77.27991,12.73665],[77.28026,12.73704],[77.28193,12.73688]]]}},{"type":"Feature","bbox":[77.27162,12.71634,77.27524,12.72752],"properties":{"ward":28},"geometry":{"type":"Polygon","coordinates":[[[77.27494,12.71634],[77.27276,12.71657],[77.27162,12.71698],[77.27171,12.71739],[77.27202,12.71761],[77.27219,12.71798],[77.27246,12.71951],[77.27286,12.72057],[77.2735,12.7208],[77.27354,12.72125],[77.27391,12.72125],[77.27414,12.72183],[77.27438,12.72343],[77.27287,12.72539],[77.27246,12.72647],[77.27233,12.72752],[77.27312,12.7275],[77.27427,12.72718],[77.274,12.72534],[77.2744,12.72485],[77.27456,12.72433],[77.27413,12.72385],[77.27524,12.72235],[77.27502,12.72006],[77.27511,12.71711],[77.27494,12.71634]]]}},{"type":"Feature","bbox":[77.27166,12.72125,77.27438,12.72416],"properties":{"ward":29},"geometry":{"type":"Polygon","coordinates":[[[77.2739,12.72403],[77.27438,12.72343],[77.27414,12.72183],[77.27391,12.72125],[77.2731,12.72126],[77.27166,12.72172],[77.27197,12.72293],[77.27205,12.72416],[77.2739,12.72403]]]}},{"type":"Feature","bbox":[77.2686,12.71818,77.27354,12.72293],"properties":{"ward":30},"geometry":{"type":"Polygon","coordinates":[[[77.27197,12.72293],[77.27166,12.72172],[77.27354,12.72125],[77.2735,12.7208],[77.27285,12.72055],[77.27246,12.71951],[77.27225,12.71818],[77.27053,12.71835],[77.26909,12.71882],[77.26869,12.71878],[77.2686,12.72006],[77.26916,12.71998],[77.26937,12.72065],[77.26975,12.7206],[77.26998,12.72094],[77.27012,12.72089],[77.27033,12.72212],[77.26982,12.72214],[77.2704,12.7229],[77.27197,12.72293]]]}},{"type":"Feature","bbox":[77.25581,12.70848,77.27494,12.72737],"properties":{"ward":31},"geometry":{"type":"Polygon","coordinates":[[[77.26665,12.72676],[77.26664,12.72664],[77.26759,12.72632],[77.27021,12.72632],[77.27043,12.72488],[77.2704,12.7229],[77.26982,12.72214],[77.27033,12.72212],[77.2703,12.72143],[77.27012,12.72089],[77.26998,12.72094],[77.26975,12.7206],[77.26937,12.72065],[77.26916,12.71998],[77.2686,12.72006],[77.26869,12.71878],[77.26909,12.71882],[77.27053,12.71835],[77.27225,12.71818],[77.27202,12.71761],[77.27171,12.71739],[77.27164,12.71696],[77.27276,12.71657],[77.27494,12.71634],[77.27187,12.71308],[77.26518,12.70848],[77.26443,12.70906],[77.26325,12.70909],[77.2632,12.7102],[77.26278,12.71044],[77.26307,12.71196],[77.26282,12.71222],[77.26392,12.71243],[77.26477,12.71241],[77.26523,12.71336],[77.26549,12.71448],[77.26568,12.71489],[77.26589,12.71487],[77.2666,12.71643],[77.2671,12.71654],[77.26757,12.71617],[77.2676,12.71689],[77.26745,12.71726],[77.26672,12.71739],[77.26559,12.717],[77.26428,12.71763],[77.26309,12.71875],[77.25777,12.71941],[77.25782,12.71998],[77.25764,12.72009],[77.2574,12.72072],[77.25655,12.7211],[77.25581,12.72122],[77.25603,12.72203],[77.25683,12.72205],[77.25726,12.72136],[77.25838,12.72088],[77.25855,12.72121],[77.25822,12.72152],[77.25824,12.72265],[77.25882,12.72265],[77.25936,12.72341],[77.2594,12.72485],[77.25959,12.72505],[77.25955,12.72565],[77.25975,12.72631],[77.26147,12.72635],[77.26251,12.72705],[77.26371,12.72737],[77.26665,12.72676]]]}}]}