{"type":"FeatureCollection","features":[{"type":"Feature","bbox":[75.90361,10.90975,75.90989,10.92485],"properties":{"ward":1},"geometry":{"type":"Polygon","coordinates":[[[75.90734,10.92132],[75.90722,10.92099],[75.90883,10.91599],[75.90977,10.91615],[75.90989,10.91435],[75.90951,10.91428],[75.90871,10.9133],[75.90842,10.91177],[75.90814,10.91115],[75.90633,10.90975],[75.90581,10.91123],[75.9059,10.91169],[75.90618,10.91203],[75.90476,10.91471],[75.90429,10.91518],[75.90428,10.91541],[75.90403,10.91545],[75.90364,10.91625],[75.90361,10.9167],[75.90415,10.9178],[75.90403,10.91829],[75.90518,10.91885],[75.9053,10.91927],[75.90604,10.92009],[75.90545,10.92162],[75.90514,10.92363],[75.90521,10.924],[75.90598,10.92485],[75.90693,10.92445],[75.90683,10.9231],[75.90664,10.92294],[75.90734,10.92132]]]}},{"type":"Feature","bbox":[75.90967,10.9132,75.91885,10.91887],"properties":{"ward":2},"geometry":{"type":"Polygon","coordinates":[[[75.91885,10.91566],[75.91812,10.91495],[75.91599,10.91354],[75.91481,10.91323],[75.9138,10.9132],[75.91106,10.91436],[75.90989,10.91435],[75.90967,10.91613],[75.91296,10.91707],[75.91732,10.91887],[75.91799,10.91795],[75.91885,10.91566]]]}},{"type":"Feature","bbox":[75.91219,10.91566,75.92203,10.92559],"properties":{"ward":3},"geometry":{"type":"Polygon","coordinates":[[[75.92063,10.92516],[75.92197,10.92489],[75.92203,10.92382],[75.92102,10.92221],[75.92075,10.92123],[75.92065,10.91976],[75.91885,10.91566],[75.91799,10.91795],[75.91663,10.91992],[75.91572,10.92098],[75.91405,10.92229],[75.91219,10.92444],[75.91369,10.92436],[75.91521,10.92456],[75.91795,10.92559],[75.91833,10.92521],[75.91951,10.92504],[75.92063,10.92516]]]}},{"type":"Feature","bbox":[75.90722,10.91599,75.91732,10.92481],"properties":{"ward":4},"geometry":{"type":"Polygon","coordinates":[[[75.91219,10.92444],[75.91405,10.92229],[75.91572,10.92098],[75.91732,10.91887],[75.91296,10.91707],[75.90883,10.91599],[75.90722,10.92099],[75.9076,10.92152],[75.90837,10.92177],[75.90797,10.92275],[75.908,10.92317],[75.90837,10.92353],[75.90847,10.92404],[75.90904,10.92465],[75.90902,10.92481],[75.91087,10.92447],[75.91219,10.92444]]]}},{"type":"Feature","bbox":[75.90598,10.92132,75.90904,10.92931],"properties":{"ward":5},"geometry":{"type":"Polygon","coordinates":[[[75.90897,10.92685],[75.90904,10.92465],[75.90847,10.92404],[75.90837,10.92353],[75.908,10.92317],[75.90797,10.92275],[75.90837,10.92177],[75.90734,10.92132],[75.90664,10.92294],[75.90683,10.9231],[75.90693,10.92445],[75.90598,10.92485],[75.90642,10.92635],[75.90606,10.92807],[75.9061,10.92896],[75.90645,10.92929],[75.90792,10.92931],[75.90844,10.92865],[75.90897,10.92685]]]}},{"type":"Feature","bbox":[75.90792,10.92436,75.91795,10.93223],"properties":{"ward":6},"geometry":{"type":"Polygon","coordinates":[[[75.91594,10.93081],[75.91531,10.92998],[75.91532,10.92906],[75.91583,10.92843],[75.91704,10.92784],[75.91795,10.92559],[75.91521,10.92456],[75.91369,10.92436],[75.91087,10.92447],[75.90902,10.92481],[75.90897,10.92685],[75.90878,10.92763],[75.90844,10.92865],[75.90792,10.92931],[75.90867,10.92946],[75.91064,10.9315],[75.91183,10.93223],[75.9121,10.93152],[75.91209,10.93048],[75.91243,10.92969],[75.9155,10.93097],[75.91584,10.931],[75.91594,10.93081]]]}},{"type":"Feature","bbox":[75.91183,10.92969,75.92424,10.93924],"properties":{"ward":7},"geometry":{"type":"Polygon","coordinates":[[[75.92323,10.93512],[75.92344,10.93443],[75.92364,10.93217],[75.92424,10.93078],[75.92184,10.9313],[75.92135,10.93111],[75.92061,10.93026],[75.92021,10.93007],[75.91898,10.93022],[75.91726,10.931],[75.91594,10.93081],[75.91584,10.931],[75.91243,10.92969],[75.91209,10.93048],[75.9121,10.93152],[75.91183,10.93223],[75.91286,10.93286],[75.91255,10.93503],[75.9131,10.93574],[75.91365,10.93576],[75.91387,10.93592],[75.91394,10.93623],[75.91365,10.93775],[75.91394,10.93822],[75.91378,10.93845],[75.91384,10.93883],[75.91407,10.93899],[75.91553,10.93924],[75.91618,10.93872],[75.9171,10.93854],[75.91725,10.93782],[75.91853,10.93725],[75.91878,10.937],[75.91904,10.9363],[75.91917,10.93523],[75.91951,10.93451],[75.91974,10.93436],[75.92086,10.93436],[75.92323,10.93512]]]}},{"type":"Feature","bbox":[75.91553,10.93436,75.92931,10.94544],"properties":{"ward":8},"geometry":{"type":"Polygon","coordinates":[[[75.92747,10.94218],[75.92851,10.93902],[75.92912,10.93868],[75.92931,10.93814],[75.92323,10.93512],[75.92086,10.93436],[75.91974,10.93436],[75.91951,10.93451],[75.91917,10.93523],[75.91904,10.9363],[75.91878,10.937],[75.91853,10.93725],[75.91725,10.93782],[75.9171,10.93854],[75.91618,10.93872],[75.91553,10.93924],[75.91992,10.94005],[75.92176,10.94058],[75.92221,10.94105],[75.92241,10.94175],[75.92386,10.94434],[75.92417,10.9445],[75.92495,10.94544],[75.92614,10.94437],[75.92677,10.9428],[75.92747,10.94218]]]}},{"type":"Feature","bbox":[75.92323,10.93078,75.93274,10.93814],"properties":{"ward":9},"geometry":{"type":"Polygon","coordinates":[[[75.93274,10.9348],[75.93254,10.93472],[75.93145,10.93507],[75.93044,10.9344],[75.92838,10.9323],[75.92711,10.93146],[75.92622,10.93103],[75.92424,10.93078],[75.92364,10.93217],[75.92344,10.93443],[75.92323,10.93512],[75.92931,10.93814],[75.92916,10.93794],[75.92981,10.93738],[75.92951,10.93642],[75.93035,10.93665],[75.93107,10.93657],[75.93161,10.93687],[75.93195,10.93684],[75.93216,10.9365],[75.93166,10.93615],[75.93161,10.93578],[75.93197,10.93525],[75.93256,10.9354],[75.93274,10.9348]]]}},{"type":"Feature","bbox":[75.91531,10.92504,75.92946,10.93185],"properties":{"ward":10},"geometry":{"type":"Polygon","coordinates":[[[75.92745,10.92751],[75.92675,10.92792],[75.92665,10.92841],[75.92673,10.92886],[75.92735,10.92977],[75.92675,10.92974],[75.92488,10.92887],[75.92469,10.92844],[75.92467,10.92779],[75.91977,10.92774],[75.91976,10.92658],[75.91998,10.92638],[75.92111,10.92612],[75.92063,10.92516],[75.91951,10.92504],[75.91833,10.92521],[75.91795,10.92559],[75.91704,10.92784],[75.91628,10.92815],[75.91547,10.92877],[75.91532,10.92906],[75.91531,10.92998],[75.91573,10.93063],[75.91636,10.93096],[75.91726,10.931],[75.91898,10.93022],[75.92021,10.93007],[75.92061,10.93026],[75.92161,10.93126],[75.92424,10.93078],[75.92622,10.93103],[75.92777,10.93185],[75.92927,10.92998],[75.92946,10.92964],[75.92945,10.92879],[75.92911,10.92817],[75.92864,10.92774],[75.92775,10.92772],[75.92745,10.92751]]]}},{"type":"Feature","bbox":[75.91967,10.92475,75.92784,10.92982],"properties":{"ward":11},"geometry":{"type":"Polygon","coordinates":[[[75.92745,10.92751],[75.92784,10.92683],[75.92778,10.9253],[75.92744,10.92487],[75.92663,10.92475],[75.92541,10.92501],[75.92432,10.92578],[75.92385,10.92579],[75.92302,10.92548],[75.92278,10.92581],[75.91998,10.92638],[75.91968,10.92692],[75.91967,10.92757],[75.91999,10.92779],[75.92467,10.92779],[75.92469,10.92844],[75.92488,10.92887],[75.92621,10.92956],[75.92722,10.92982],[75.92735,10.92977],[75.92725,10.92953],[75.92673,10.92886],[75.92665,10.92841],[75.92675,10.92792],[75.92745,10.92751]]]}},{"type":"Feature","bbox":[75.92745,10.92501,75.93447,10.93507],"properties":{"ward":12},"geometry":{"type":"Polygon","coordinates":[[[75.93274,10.9348],[75.93267,10.93372],[75.93278,10.93335],[75.93408,10.93298],[75.93447,10.93265],[75.93394,10.93174],[75.93289,10.93068],[75.93246,10.9299],[75.93173,10.92917],[75.93042,10.92888],[75.93011,10.92861],[75.92946,10.92616],[75.92939,10.92534],[75.92912,10.92501],[75.92757,10.92503],[75.92778,10.9253],[75.92788,10.92613],[75.92784,10.92683],[75.92745,10.92751],[75.92775,10.92772],[75.92864,10.92774],[75.92911,10.92817],[75.92945,10.92879],[75.92946,10.92964],[75.92927,10.92998],[75.92777,10.93185],[75.93093,10.93479],[75.93145,10.93507],[75.93254,10.93472],[75.93274,10.9348]]]}},{"type":"Feature","bbox":[75.92927,10.92221,75.93835,10.93265],"properties":{"ward":13},"geometry":{"type":"Polygon","coordinates":[[[75.93743,10.92999],[75.93741,10.92958],[75.93664,10.92964],[75.93642,10.92909],[75.93659,10.92871],[75.93726,10.92862],[75.93694,10.92666],[75.93835,10.92487],[75.93776,10.92349],[75.93766,10.92271],[75.93776,10.92221],[75.93695,10.92222],[75.93577,10.92271],[75.93472,10.92415],[75.93409,10.9245],[75.9323,10.9244],[75.93193,10.92361],[75.93181,10.92254],[75.93135,10.92283],[75.92999,10.92445],[75.92949,10.92481],[75.92927,10.9252],[75.93011,10.92861],[75.93042,10.92888],[75.93173,10.92917],[75.93246,10.9299],[75.93289,10.93068],[75.93394,10.93174],[75.93447,10.93265],[75.93522,10.93197],[75.93626,10.93175],[75.93673,10.93143],[75.93743,10.92999]]]}},{"type":"Feature","bbox":[75.92241,10.91841,75.92949,10.92581],"properties":{"ward":14},"geometry":{"type":"Polygon","coordinates":[[[75.92757,10.92503],[75.92912,10.92501],[75.92927,10.9252],[75.92949,10.92481],[75.92943,10.92429],[75.92861,10.92296],[75.92795,10.92228],[75.92534,10.92035],[75.92415,10.91841],[75.92399,10.91841],[75.92351,10.91902],[75.92281,10.91906],[75.92245,10.92057],[75.92241,10.92164],[75.92255,10.92255],[75.92326,10.92437],[75.92312,10.92552],[75.92412,10.92581],[75.92452,10.92569],[75.92541,10.92501],[75.92608,10.9248],[75.92744,10.92487],[75.92757,10.92503]]]}},{"type":"Feature","bbox":[75.91956,10.91369,75.92662,10.92612],"properties":{"ward":15},"geometry":{"type":"Polygon","coordinates":[[[75.92312,10.92552],[75.92326,10.92437],[75.92255,10.92255],[75.92241,10.92164],[75.92245,10.92057],[75.92276,10.91914],[75.92351,10.91902],[75.92399,10.91841],[75.92415,10.91841],[75.92435,10.9188],[75.92448,10.9187],[75.92608,10.91706],[75.92662,10.9161],[75.92496,10.91488],[75.92365,10.91503],[75.92315,10.91472],[75.92251,10.91369],[75.92095,10.91618],[75.91956,10.91747],[75.92065,10.91976],[75.92075,10.92123],[75.92102,10.92221],[75.92203,10.92382],[75.92197,10.92489],[75.92063,10.92516],[75.92111,10.92612],[75.92278,10.92581],[75.92312,10.92552]]]}},{"type":"Feature","bbox":[75.92251,10.90698,75.92992,10.91727],"properties":{"ward":16},"geometry":{"type":"Polygon","coordinates":[[[75.92889,10.91116],[75.92858,10.91098],[75.92857,10.91232],[75.92828,10.91431],[75.92672,10.91228],[75.92651,10.91064],[75.92649,10.90987],[75.92758,10.90788],[75.92769,10.90749],[75.92754,10.90698],[75.92396,10.91136],[75.92251,10.91369],[75.92315,10.91472],[75.92365,10.91503],[75.92496,10.91488],[75.92662,10.9161],[75.9293,10.91727],[75.92982,10.91594],[75.92992,10.91488],[75.92947,10.91219],[75.92889,10.91116]]]}},{"type":"Feature","bbox":[75.92435,10.9161,75.92955,10.92257],"properties":{"ward":17},"geometry":{"type":"Polygon","coordinates":[[[75.92955,10.92113],[75.9293,10.91727],[75.92662,10.9161],[75.92608,10.91706],[75.92435,10.9188],[75.92534,10.92035],[75.92823,10.92257],[75.9294,10.92163],[75.92955,10.92113]]]}},{"type":"Feature","bbox":[75.92823,10.91698,75.93691,10.92481],"properties":{"ward":18},"geometry":{"type":"Polygon","coordinates":[[[75.93181,10.92254],[75.93182,10.92116],[75.93226,10.92051],[75.93334,10.91981],[75.93609,10.9191],[75.9366,10.91869],[75.93691,10.91809],[75.93688,10.91704],[75.93556,10.91698],[75.93434,10.91729],[75.931,10.91879],[75.92949,10.91891],[75.92955,10.92113],[75.9294,10.92163],[75.92823,10.92257],[75.92943,10.92429],[75.92949,10.92481],[75.92999,10.92445],[75.93135,10.92283],[75.93181,10.92254]]]}},{"type":"Feature","bbox":[75.93172,10.9167,75.94173,10.9245],"properties":{"ward":19},"geometry":{"type":"Polygon","coordinates":[[[75.93776,10.92221],[75.93815,10.92128],[75.93804,10.92039],[75.93859,10.91955],[75.94173,10.91881],[75.93948,10.91703],[75.93843,10.9167],[75.93684,10.91674],[75.93691,10.91809],[75.9366,10.91869],[75.93609,10.9191],[75.93334,10.91981],[75.93272,10.92011],[75.93182,10.92116],[75.93172,10.92173],[75.93193,10.92361],[75.9323,10.9244],[75.93311,10.9245],[75.93409,10.9245],[75.93472,10.92415],[75.93577,10.92271],[75.93641,10.92237],[75.93776,10.92221]]]}},{"type":"Feature","bbox":[75.93319,10.91097,75.94557,10.91881],"properties":{"ward":20},"geometry":{"type":"Polygon","coordinates":[[[75.943,10.91866],[75.94344,10.91829],[75.94431,10.91667],[75.94538,10.91521],[75.94557,10.91464],[75.94545,10.91424],[75.94449,10.91357],[75.94388,10.91288],[75.94346,10.91211],[75.94261,10.91236],[75.94232,10.91264],[75.94159,10.91241],[75.93987,10.91244],[75.93938,10.91218],[75.93864,10.91145],[75.93731,10.91097],[75.93516,10.91099],[75.93354,10.91124],[75.93319,10.91157],[75.93379,10.9136],[75.93446,10.91451],[75.93585,10.91566],[75.93684,10.91674],[75.93843,10.9167],[75.93948,10.91703],[75.94173,10.91881],[75.943,10.91866]]]}},{"type":"Feature","bbox":[75.92889,10.91087,75.93688,10.91891],"properties":{"ward":21},"geometry":{"type":"Polygon","coordinates":[[[75.93688,10.91704],[75.93684,10.91674],[75.93585,10.91566],[75.93446,10.91451],[75.93379,10.9136],[75.93319,10.91157],[75.93196,10.91158],[75.93142,10.91143],[75.93052,10.91088],[75.92995,10.91087],[75.92889,10.91116],[75.92947,10.91219],[75.92992,10.91488],[75.92982,10.91594],[75.9293,10.91727],[75.92949,10.91891],[75.931,10.91879],[75.93434,10.91729],[75.93556,10.91698],[75.93688,10.91704]]]}},{"type":"Feature","bbox":[75.92649,10.90749,75.93154,10.91431],"properties":{"ward":22},"geometry":{"type":"Polygon","coordinates":[[[75.92889,10.91116],[75.92995,10.91087],[75.93052,10.91088],[75.93128,10.91124],[75.9313,10.91076],[75.93154,10.91049],[75.92769,10.90749],[75.92649,10.90987],[75.92651,10.91064],[75.92672,10.91228],[75.92828,10.91431],[75.92857,10.91232],[75.92858,10.91098],[75.92889,10.91116]]]}},{"type":"Feature","bbox":[75.92754,10.905,75.93207,10.91049],"properties":{"ward":23},"geometry":{"type":"Polygon","coordinates":[[[75.93142,10.90622],[75.93002,10.90612],[75.93001,10.90502],[75.92959,10.905],[75.9281,10.90626],[75.92754,10.90698],[75.92769,10.90749],[75.93154,10.91049],[75.93188,10.91015],[75.93207,10.90949],[75.93204,10.90906],[75.93183,10.90879],[75.93116,10.90866],[75.93108,10.90849],[75.93142,10.90622]]]}},{"type":"Feature","bbox":[75.93108,10.90433,75.93444,10.91158],"properties":{"ward":24},"geometry":{"type":"Polygon","coordinates":[[[75.93319,10.91157],[75.93383,10.91069],[75.93444,10.9089],[75.93298,10.90883],[75.9329,10.90868],[75.93298,10.90774],[75.93343,10.90656],[75.93336,10.90513],[75.93301,10.90433],[75.93256,10.90472],[75.93223,10.9044],[75.93189,10.90496],[75.93142,10.90622],[75.93108,10.90849],[75.93116,10.90866],[75.93183,10.90879],[75.93204,10.90906],[75.93207,10.90949],[75.93188,10.91015],[75.9313,10.91076],[75.93121,10.91113],[75.93142,10.91143],[75.93196,10.91158],[75.93319,10.91157]]]}},{"type":"Feature","bbox":[75.93354,10.90299,75.94346,10.91264],"properties":{"ward":25},"geometry":{"type":"Polygon","coordinates":[[[75.94346,10.91211],[75.94312,10.91102],[75.94309,10.90948],[75.94261,10.90848],[75.94185,10.90804],[75.94113,10.90719],[75.94063,10.90608],[75.94059,10.90578],[75.94086,10.90497],[75.94075,10.90466],[75.93989,10.90403],[75.93922,10.90299],[75.93667,10.90386],[75.93554,10.90506],[75.93502,10.90624],[75.93444,10.9089],[75.93354,10.91124],[75.93516,10.91099],[75.93731,10.91097],[75.93864,10.91145],[75.93938,10.91218],[75.94024,10.9125],[75.94159,10.91241],[75.94232,10.91264],[75.94261,10.91236],[75.94346,10.91211]]]}},{"type":"Feature","bbox":[75.92959,10.89821,75.94132,10.9089],"properties":{"ward":26},"geometry":{"type":"Polygon","coordinates":[[[75.93444,10.9089],[75.93502,10.90624],[75.93554,10.90506],[75.93603,10.90443],[75.93702,10.90365],[75.93922,10.90299],[75.93915,10.90245],[75.93932,10.90212],[75.94046,10.90201],[75.94107,10.90164],[75.94128,10.90133],[75.94132,10.90082],[75.94114,10.90012],[75.94088,10.89977],[75.94068,10.89965],[75.93976,10.89968],[75.9393,10.89982],[75.93897,10.90026],[75.93833,10.90047],[75.93764,10.90029],[75.93742,10.90013],[75.93714,10.89943],[75.93709,10.89851],[75.93689,10.89821],[75.93265,10.90198],[75.92959,10.905],[75.93001,10.90502],[75.93002,10.90612],[75.93142,10.90622],[75.93223,10.9044],[75.93256,10.90472],[75.93301,10.90433],[75.93336,10.90513],[75.93343,10.90656],[75.93298,10.90774],[75.9329,10.90868],[75.93298,10.90883],[75.93444,10.9089]]]}},{"type":"Feature","bbox":[75.92407,10.89392,75.93689,10.90049],"properties":{"ward":27},"geometry":{"type":"Polygon","coordinates":[[[75.93689,10.89821],[75.93605,10.8977],[75.93471,10.89721],[75.93491,10.89692],[75.93273,10.8968],[75.9312,10.89572],[75.93055,10.8955],[75.92802,10.89517],[75.92752,10.89496],[75.92688,10.89432],[75.92577,10.89392],[75.92526,10.89701],[75.92407,10.89906],[75.92616,10.89953],[75.92785,10.89952],[75.92927,10.8991],[75.93024,10.89914],[75.93266,10.90035],[75.93431,10.90049],[75.93689,10.89821]]]}},{"type":"Feature","bbox":[75.92314,10.88971,75.9354,10.89692],"properties":{"ward":28},"geometry":{"type":"Polygon","coordinates":[[[75.9303,10.89021],[75.92746,10.88989],[75.92634,10.89008],[75.92414,10.88971],[75.92314,10.88986],[75.9237,10.89432],[75.92395,10.89473],[75.92431,10.89459],[75.92465,10.89399],[75.92532,10.89378],[75.92577,10.89386],[75.92688,10.89432],[75.92752,10.89496],[75.92802,10.89517],[75.93055,10.8955],[75.9312,10.89572],[75.93273,10.8968],[75.93491,10.89692],[75.93524,10.89646],[75.9354,10.89562],[75.93524,10.895],[75.93469,10.89415],[75.93482,10.89336],[75.93378,10.89202],[75.93248,10.89106],[75.9303,10.89021]]]}},{"type":"Feature","bbox":[75.91904,10.88986,75.92577,10.8993],"properties":{"ward":29},"geometry":{"type":"Polygon","coordinates":[[[75.92506,10.89743],[75.92526,10.89701],[75.92577,10.89386],[75.92532,10.89378],[75.92465,10.89399],[75.92431,10.89459],[75.92395,10.89473],[75.9237,10.89432],[75.92314,10.88986],[75.92265,10.89018],[75.92127,10.89056],[75.91968,10.89139],[75.91904,10.89619],[75.9191,10.89812],[75.91925,10.89848],[75.91946,10.8987],[75.92032,10.89882],[75.92166,10.8993],[75.92165,10.89833],[75.92329,10.89698],[75.92423,10.89703],[75.92506,10.89743]]]}},{"type":"Feature","bbox":[75.90957,10.89139,75.92092,10.90173],"properties":{"ward":30},"geometry":{"type":"Polygon","coordinates":[[[75.92092,10.9006],[75.92036,10.89957],[75.91925,10.89848],[75.9191,10.89812],[75.91904,10.89619],[75.91968,10.89139],[75.91909,10.89173],[75.91639,10.89209],[75.91645,10.89284],[75.91594,10.89472],[75.91577,10.89504],[75.91545,10.8952],[75.91475,10.89514],[75.9131,10.89447],[75.91046,10.89404],[75.90997,10.89409],[75.90973,10.89436],[75.90957,10.89509],[75.90976,10.89564],[75.91226,10.89745],[75.91259,10.8979],[75.91241,10.89853],[75.91052,10.8994],[75.91173,10.90001],[75.91312,10.90139],[75.91371,10.90168],[75.91428,10.90173],[75.91516,10.90037],[75.91561,10.89996],[75.91625,10.89997],[75.91802,10.90118],[75.91863,10.90125],[75.92092,10.9006]]]}},{"type":"Feature","bbox":[75.91946,10.89698,75.92506,10.90236],"properties":{"ward":31},"geometry":{"type":"Polygon","coordinates":[[[75.92354,10.90236],[75.92407,10.89906],[75.92506,10.89743],[75.92423,10.89703],[75.92329,10.89698],[75.92174,10.89821],[75.92166,10.8993],[75.92032,10.89882],[75.91946,10.8987],[75.92036,10.89957],[75.92072,10.90013],[75.92127,10.90184],[75.92354,10.90236]]]}},{"type":"Feature","bbox":[75.9228,10.90006,75.92818,10.90531],"properties":{"ward":32},"geometry":{"type":"Polygon","coordinates":[[[75.92397,10.90006],[75.92377,10.90152],[75.9228,10.90468],[75.92452,10.90456],[75.92471,10.90528],[75.92615,10.90531],[75.92599,10.90421],[75.92695,10.90349],[75.92787,10.90337],[75.92818,10.90281],[75.92805,10.90197],[75.92764,10.90144],[75.92618,10.90084],[75.92532,10.9008],[75.92458,10.90058],[75.92397,10.90006]]]}},{"type":"Feature","bbox":[75.92397,10.89906,75.93431,10.9059],"properties":{"ward":33},"geometry":{"type":"Polygon","coordinates":[[[75.92903,10.9054],[75.93431,10.90049],[75.93266,10.90035],[75.93024,10.89914],[75.92927,10.8991],[75.92785,10.89952],[75.92616,10.89953],[75.92407,10.89906],[75.92397,10.90006],[75.92458,10.90058],[75.92532,10.9008],[75.92618,10.90084],[75.92764,10.90144],[75.92805,10.90197],[75.92818,10.90281],[75.92787,10.90337],[75.92695,10.90349],[75.92599,10.90421],[75.92607,10.90521],[75.92676,10.9059],[75.92777,10.90551],[75.92903,10.9054]]]}},{"type":"Feature","bbox":[75.92207,10.90456,75.92676,10.90871],"properties":{"ward":34},"geometry":{"type":"Polygon","coordinates":[[[75.92676,10.9059],[75.92615,10.90531],[75.92471,10.90528],[75.92452,10.90456],[75.9228,10.90468],[75.92207,10.90706],[75.92274,10.90753],[75.92344,10.90758],[75.92361,10.90777],[75.92331,10.90868],[75.92508,10.90871],[75.92524,10.90863],[75.9255,10.90753],[75.92657,10.90646],[75.92676,10.9059]]]}},{"type":"Feature","bbox":[75.91428,10.89996,75.92354,10.91118],"properties":{"ward":35},"geometry":{"type":"Polygon","coordinates":[[[75.91986,10.91092],[75.92017,10.91058],[75.92113,10.91025],[75.92249,10.90828],[75.92274,10.90753],[75.92221,10.90727],[75.92207,10.90706],[75.92214,10.90664],[75.92354,10.90236],[75.92127,10.90184],[75.92092,10.9006],[75.91863,10.90125],[75.91802,10.90118],[75.91625,10.89997],[75.91561,10.89996],[75.91516,10.90037],[75.91428,10.90173],[75.91432,10.90299],[75.91439,10.90308],[75.91503,10.90272],[75.91538,10.90266],[75.91553,10.90279],[75.91528,10.90369],[75.91642,10.90498],[75.9168,10.90609],[75.91685,10.90727],[75.91913,10.90748],[75.91825,10.90862],[75.91719,10.91118],[75.91986,10.91092]]]}},{"type":"Feature","bbox":[75.90939,10.8994,75.91913,10.91129],"properties":{"ward":36},"geometry":{"type":"Polygon","coordinates":[[[75.91719,10.91118],[75.91825,10.90862],[75.91913,10.90748],[75.91685,10.90727],[75.9168,10.90609],[75.91642,10.90498],[75.91528,10.90369],[75.91553,10.90279],[75.91538,10.90266],[75.91503,10.90272],[75.91439,10.90308],[75.91428,10.90173],[75.91371,10.90168],[75.91312,10.90139],[75.91173,10.90001],[75.91052,10.8994],[75.9095,10.90063],[75.90939,10.90317],[75.90975,10.90341],[75.9111,10.90336],[75.91156,10.90369],[75.91258,10.90525],[75.91284,10.90601],[75.91281,10.9068],[75.91259,10.90735],[75.91202,10.90781],[75.9113,10.90783],[75.91052,10.90748],[75.90975,10.90759],[75.911,10.90838],[75.91263,10.90884],[75.9129,10.90861],[75.91321,10.90677],[75.91344,10.90642],[75.9137,10.90631],[75.91424,10.9066],[75.91447,10.90731],[75.91443,10.90912],[75.91464,10.91031],[75.91496,10.91107],[75.91585,10.91129],[75.91719,10.91118]]]}},{"type":"Feature","bbox":[75.91885,10.9054,75.92903,10.91747],"properties":{"ward":37,"name":"Townhall"},"geometry":{"type":"Polygon","coordinates":[[[75.92095,10.91618],[75.92396,10.91136],[75.9281,10.90626],[75.92903,10.9054],[75.92777,10.90551],[75.92676,10.9059],[75.92657,10.90646],[75.9255,10.90753],[75.92524,10.90863],[75.92508,10.90871],[75.92331,10.90868],[75.92361,10.90777],[75.92344,10.90758],[75.92274,10.90753],[75.92249,10.90828],[75.92113,10.91025],[75.92017,10.91058],[75.91986,10.91092],[75.91912,10.91505],[75.91885,10.91566],[75.91956,10.91747],[75.92095,10.91618]]]}},{"type":"Feature","bbox":[75.90633,10.90631,75.91986,10.91566],"properties":{"ward":38},"geometry":{"type":"Polygon","coordinates":[[[75.91986,10.91092],[75.91662,10.91128],[75.91585,10.91129],[75.91496,10.91107],[75.91464,10.91031],[75.91443,10.90912],[75.91447,10.90731],[75.91424,10.9066],[75.9137,10.90631],[75.91344,10.90642],[75.91321,10.90677],[75.9129,10.90861],[75.91263,10.90884],[75.911,10.90838],[75.90975,10.90759],[75.90775,10.9086],[75.90633,10.90975],[75.90814,10.91115],[75.90842,10.91177],[75.90871,10.9133],[75.90951,10.91428],[75.91029,10.91442],[75.91106,10.91436],[75.9138,10.9132],[75.91481,10.91323],[75.91599,10.91354],[75.91681,10.91401],[75.91885,10.91566],[75.91912,10.91505],[75.91986,10.91092]]]}}]}