{"type":"FeatureCollection","features":[{"type":"Feature","bbox":[77.42324,12.54745,77.43508,12.58169],"properties":{"ward":1,"name":"Boodikere"},"geometry":{"type":"Polygon","coordinates":[[[77.42921,12.5503],[77.428,12.54745],[77.42605,12.54801],[77.4247,12.54805],[77.42473,12.54857],[77.42451,12.54858],[77.42485,12.551],[77.42486,12.5562],[77.42561,12.55918],[77.42581,12.56161],[77.42581,12.56237],[77.42537,12.5624],[77.42535,12.56303],[77.42462,12.5632],[77.42458,12.56469],[77.42494,12.56819],[77.42533,12.56816],[77.42544,12.56838],[77.42578,12.56837],[77.42562,12.56886],[77.42566,12.56942],[77.42551,12.5696],[77.4246,12.56961],[77.42324,12.56997],[77.42342,12.57072],[77.42555,12.57063],[77.42559,12.57192],[77.42482,12.57193],[77.42484,12.57234],[77.42468,12.57257],[77.4248,12.57381],[77.42472,12.57454],[77.4244,12.57463],[77.42445,12.57499],[77.42455,12.57511],[77.42532,12.57509],[77.42715,12.57487],[77.4272,12.57536],[77.42743,12.57544],[77.42776,12.57733],[77.4278,12.57676],[77.42783,12.57715],[77.42938,12.57719],[77.42989,12.57651],[77.43115,12.57904],[77.43158,12.58161],[77.43197,12.58169],[77.43127,12.57676],[77.43159,12.57672],[77.43163,12.57595],[77.43193,12.57591],[77.4323,12.57458],[77.43201,12.57456],[77.43176,12.57392],[77.43233,12.57306],[77.43301,12.57277],[77.43307,12.57235],[77.43357,12.57205],[77.43363,12.5715],[77.43428,12.57008],[77.4348,12.5698],[77.43486,12.56952],[77.43508,12.56942],[77.43435,12.56909],[77.43311,12.56926],[77.43246,12.56814],[77.43222,12.56608],[77.432,12.565],[77.43166,12.56423],[77.43171,12.56388],[77.43063,12.56389],[77.43069,12.56288],[77.43034,12.56185],[77.43034,12.56066],[77.43018,12.56005],[77.43029,12.55884],[77.42976,12.55879],[77.43001,12.55727],[77.42951,12.55683],[77.43004,12.55566],[77.43003,12.55293],[77.42974,12.55158],[77.4293,12.55098],[77.42971,12.5506],[77.42948,12.55068],[77.42921,12.5503]]]}},{"type":"Feature","bbox":[77.42586,12.54187,77.43559,12.54866],"properties":{"ward":2,"name":"Malagalu"},"geometry":{"type":"Polygon","coordinates":[[[77.42885,12.54261],[77.42586,12.54359],[77.42618,12.54446],[77.42649,12.54439],[77.42629,12.545],[77.42637,12.54529],[77.42667,12.54541],[77.42717,12.5477],[77.428,12.54745],[77.42842,12.54866],[77.42973,12.54826],[77.43065,12.54762],[77.43105,12.54751],[77.43133,12.54775],[77.43176,12.54762],[77.43183,12.54779],[77.43395,12.54775],[77.43388,12.54724],[77.43414,12.54715],[77.43559,12.54749],[77.43559,12.54649],[77.43488,12.54563],[77.43414,12.54478],[77.43088,12.54197],[77.42885,12.54187],[77.42885,12.54261]]]}},{"type":"Feature","bbox":[77.42326,12.53826,77.42717,12.54808],"properties":{"ward":3,"name":"Kote-1"},"geometry":{"type":"Polygon","coordinates":[[[77.42379,12.54808],[77.42605,12.54801],[77.42717,12.5477],[77.42667,12.54541],[77.42637,12.54529],[77.42629,12.545],[77.42649,12.54439],[77.42618,12.54446],[77.42586,12.54359],[77.42697,12.54316],[77.42679,12.54219],[77.42622,12.54035],[77.42566,12.53935],[77.42529,12.53826],[77.42326,12.53898],[77.4235,12.53958],[77.42392,12.54223],[77.42342,12.54233],[77.42386,12.54518],[77.42379,12.54808]]]}},{"type":"Feature","bbox":[77.42123,12.54068,77.42392,12.54627],"properties":{"ward":4,"name":"Kote-2"},"geometry":{"type":"Polygon","coordinates":[[[77.42362,12.54068],[77.42123,12.54119],[77.42212,12.54478],[77.42383,12.54627],[77.42385,12.54512],[77.42342,12.54233],[77.42392,12.54223],[77.42362,12.54068]]]}},{"type":"Feature","bbox":[77.42075,12.53225,77.42555,12.54119],"properties":{"ward":5,"name":"Kurupete"},"geometry":{"type":"Polygon","coordinates":[[[77.42362,12.54068],[77.4235,12.53958],[77.42326,12.53898],[77.42529,12.53826],[77.42518,12.53795],[77.42543,12.5379],[77.42508,12.53776],[77.42463,12.53683],[77.42465,12.53555],[77.42503,12.53441],[77.42555,12.53371],[77.42496,12.53273],[77.42392,12.5325],[77.42376,12.53225],[77.42306,12.53309],[77.42114,12.53759],[77.42075,12.53915],[77.42123,12.54119],[77.42362,12.54068]]]}},{"type":"Feature","bbox":[77.41741,12.53137,77.42376,12.53835],"properties":{"ward":6,"name":"Kurupete Ak Colony"},"geometry":{"type":"Polygon","coordinates":[[[77.42116,12.53752],[77.42317,12.53283],[77.42376,12.53225],[77.42346,12.53151],[77.42153,12.53153],[77.42052,12.53179],[77.41884,12.5315],[77.41881,12.53137],[77.41758,12.53168],[77.41741,12.53194],[77.41748,12.53543],[77.41809,12.53825],[77.41852,12.53835],[77.41938,12.5382],[77.42116,12.53752]]]}},{"type":"Feature","bbox":[77.4065,12.51456,77.42411,12.53825],"properties":{"ward":7,"name":"Veerabhadraswami Badavane"},"geometry":{"type":"Polygon","coordinates":[[[77.41881,12.53137],[77.41825,12.53016],[77.41848,12.53006],[77.41835,12.52791],[77.41721,12.52749],[77.41743,12.52677],[77.41701,12.52665],[77.41777,12.5249],[77.419,12.52538],[77.41974,12.5252],[77.4197,12.52145],[77.42042,12.52147],[77.4206,12.51917],[77.41926,12.51894],[77.41936,12.51844],[77.41867,12.51855],[77.4185,12.51707],[77.41887,12.51703],[77.41882,12.5159],[77.4206,12.51546],[77.42192,12.51641],[77.42187,12.51571],[77.42282,12.51578],[77.42411,12.51552],[77.4241,12.51456],[77.41246,12.51713],[77.41226,12.51689],[77.409,12.51801],[77.40885,12.51832],[77.40946,12.51808],[77.40961,12.51973],[77.41135,12.51935],[77.41116,12.52058],[77.41139,12.52126],[77.41179,12.52118],[77.41189,12.52141],[77.41149,12.52151],[77.41376,12.52341],[77.41302,12.52424],[77.41337,12.52454],[77.41338,12.52478],[77.41321,12.52516],[77.41222,12.52602],[77.41157,12.52543],[77.40834,12.52501],[77.4065,12.52555],[77.40681,12.52603],[77.40659,12.52612],[77.40712,12.52693],[77.40923,12.52922],[77.41016,12.53276],[77.41131,12.53458],[77.41204,12.5353],[77.41369,12.53602],[77.41542,12.53768],[77.41596,12.53759],[77.41809,12.53825],[77.41748,12.53543],[77.41742,12.53188],[77.41769,12.53162],[77.41881,12.53137]]]}},{"type":"Feature","bbox":[77.40541,12.52612,77.41222,12.54053],"properties":{"ward":8,"name":"Khb Colony"},"geometry":{"type":"Polygon","coordinates":[[[77.41204,12.5353],[77.41131,12.53458],[77.41022,12.53289],[77.40954,12.53009],[77.40911,12.52903],[77.40758,12.52751],[77.40659,12.52612],[77.40541,12.5267],[77.40606,12.52752],[77.40655,12.52875],[77.40713,12.5286],[77.40726,12.52893],[77.4077,12.53017],[77.40734,12.53014],[77.40743,12.53196],[77.4085,12.53192],[77.40812,12.53424],[77.40776,12.53425],[77.4072,12.53392],[77.40587,12.53403],[77.40656,12.53512],[77.40634,12.53548],[77.40645,12.53735],[77.40625,12.53777],[77.40663,12.53902],[77.40729,12.5396],[77.40728,12.54008],[77.4097,12.54024],[77.41063,12.5405],[77.41208,12.54053],[77.41222,12.53866],[77.41201,12.53761],[77.41209,12.53727],[77.41177,12.53613],[77.41204,12.5353]]]}},{"type":"Feature","bbox":[77.41177,12.53526,77.41753,12.54064],"properties":{"ward":9,"name":"Dr Ambedkar Nagara"},"geometry":{"type":"Polygon","coordinates":[[[77.41753,12.54006],[77.41389,12.53618],[77.41205,12.53526],[77.41177,12.53613],[77.41209,12.53727],[77.41201,12.53761],[77.41222,12.53866],[77.41208,12.54053],[77.41446,12.54017],[77.41462,12.54064],[77.41753,12.54006]]]}},{"type":"Feature","bbox":[77.41542,12.53752,77.42128,12.54143],"properties":{"ward":10,"name":"Kenkeri Badavane"},"geometry":{"type":"Polygon","coordinates":[[[77.42128,12.5414],[77.42075,12.53919],[77.42116,12.53752],[77.41948,12.53818],[77.4185,12.53835],[77.41596,12.53759],[77.41542,12.53768],[77.41684,12.53945],[77.41872,12.54117],[77.42069,12.5408],[77.42111,12.54143],[77.42128,12.5414]]]}},{"type":"Feature","bbox":[77.41462,12.54006,77.4199,12.54359],"properties":{"ward":11,"name":"Henchina Factory Badavane"},"geometry":{"type":"Polygon","coordinates":[[[77.41555,12.54359],[77.4199,12.54273],[77.41807,12.54051],[77.41753,12.54006],[77.41462,12.54064],[77.41555,12.54359]]]}},{"type":"Feature","bbox":[77.4056,12.54008,77.41614,12.54633],"properties":{"ward":12,"name":"Basaveswara Nagara"},"geometry":{"type":"Polygon","coordinates":[[[77.41614,12.54555],[77.41446,12.54017],[77.4115,12.54053],[77.40728,12.54008],[77.40733,12.5406],[77.40608,12.5406],[77.40609,12.54111],[77.40576,12.5416],[77.4056,12.5433],[77.40588,12.54556],[77.40835,12.54633],[77.41027,12.54607],[77.41161,12.54515],[77.4116,12.54527],[77.41199,12.54529],[77.41199,12.54545],[77.41249,12.54545],[77.41244,12.54566],[77.41343,12.54584],[77.41453,12.54583],[77.41614,12.54555]]]}},{"type":"Feature","bbox":[77.3831,12.53736,77.41716,12.55027],"properties":{"ward":13,"name":"Maharajara Katte"},"geometry":{"type":"Polygon","coordinates":[[[77.40636,12.55027],[77.40608,12.54912],[77.40636,12.54894],[77.40677,12.54939],[77.40748,12.54929],[77.40929,12.54852],[77.40918,12.54797],[77.40998,12.54793],[77.41068,12.5482],[77.41191,12.54832],[77.41348,12.54874],[77.41716,12.54863],[77.41614,12.54555],[77.41453,12.54583],[77.41343,12.54584],[77.41244,12.54566],[77.41249,12.54545],[77.41199,12.54545],[77.41199,12.54529],[77.4116,12.54527],[77.41161,12.54515],[77.41027,12.54607],[77.40835,12.54633],[77.40588,12.54556],[77.4056,12.5433],[77.40576,12.5416],[77.40609,12.54111],[77.40608,12.5406],[77.39891,12.53985],[77.38443,12.53799],[77.38447,12.53814],[77.38415,12.5381],[77.3831,12.53736],[77.38569,12.54563],[77.38581,12.54559],[77.38683,12.54748],[77.38698,12.54806],[77.3985,12.54639],[77.40207,12.54623],[77.40359,12.54599],[77.4039,12.54673],[77.40398,12.54826],[77.40438,12.54869],[77.40485,12.54886],[77.40506,12.55025],[77.40636,12.55027]]]}},{"type":"Feature","bbox":[77.41555,12.5432,77.41819,12.54706],"properties":{"ward":14,"name":"Jc Badavane-2"},"geometry":{"type":"Polygon","coordinates":[[[77.41819,12.54704],[77.4176,12.5432],[77.41555,12.54359],[77.41648,12.54648],[77.41772,12.54677],[77.41789,12.54706],[77.41819,12.54704]]]}},{"type":"Feature","bbox":[77.4176,12.54273,77.42144,12.54469],"properties":{"ward":15,"name":"Jc Badavane-1"},"geometry":{"type":"Polygon","coordinates":[[[77.42144,12.54419],[77.4199,12.54273],[77.4176,12.5432],[77.41786,12.54469],[77.42144,12.54419]]]}},{"type":"Feature","bbox":[77.41872,12.5408,77.42212,12.54478],"properties":{"ward":16,"name":"Hm Doddi"},"geometry":{"type":"Polygon","coordinates":[[[77.42128,12.5414],[77.42111,12.54143],[77.42069,12.5408],[77.41872,12.54117],[77.42014,12.543],[77.42212,12.54478],[77.42128,12.5414]]]}},{"type":"Feature","bbox":[77.41786,12.54419,77.42383,12.54841],"properties":{"ward":17,"name":"Azad Nagara"},"geometry":{"type":"Polygon","coordinates":[[[77.42132,12.54821],[77.42262,12.54789],[77.42376,12.54782],[77.42383,12.54631],[77.42362,12.54597],[77.42144,12.54419],[77.41786,12.54469],[77.4182,12.54713],[77.42073,12.54722],[77.42072,12.54841],[77.42123,12.54837],[77.42132,12.54821]]]}},{"type":"Feature","bbox":[77.42162,12.54782,77.424,12.54986],"properties":{"ward":18,"name":"Muslim Block"},"geometry":{"type":"Polygon","coordinates":[[[77.42309,12.54963],[77.424,12.5492],[77.42376,12.54782],[77.42262,12.54789],[77.42162,12.54815],[77.42175,12.54986],[77.42309,12.54963]]]}},{"type":"Feature","bbox":[77.41648,12.54648,77.42175,12.54986],"properties":{"ward":19,"name":"Police Quartus"},"geometry":{"type":"Polygon","coordinates":[[[77.42162,12.54815],[77.42132,12.54821],[77.42123,12.54837],[77.42072,12.54841],[77.42073,12.54722],[77.4182,12.54713],[77.41789,12.54706],[77.41772,12.54677],[77.41648,12.54648],[77.4171,12.54843],[77.41844,12.5484],[77.41866,12.54976],[77.42027,12.54955],[77.42048,12.54973],[77.42175,12.54986],[77.42162,12.54815]]]}},{"type":"Feature","bbox":[77.40608,12.54793,77.41867,12.55055],"properties":{"ward":20,"name":"Indiranagara"},"geometry":{"type":"Polygon","coordinates":[[[77.41779,12.55049],[77.41771,12.55018],[77.41782,12.55008],[77.41867,12.54983],[77.41844,12.5484],[77.4171,12.54843],[77.41716,12.54863],[77.41526,12.54877],[77.41348,12.54874],[77.41191,12.54832],[77.41068,12.5482],[77.40998,12.54793],[77.40918,12.54797],[77.40929,12.54852],[77.40748,12.54929],[77.40677,12.54939],[77.40636,12.54894],[77.40608,12.54912],[77.40636,12.55027],[77.41061,12.55017],[77.4106,12.55],[77.41216,12.54986],[77.4128,12.5499],[77.41337,12.55013],[77.41339,12.55054],[77.41464,12.55039],[77.41559,12.55055],[77.41779,12.55049]]]}},{"type":"Feature","bbox":[77.40429,12.54986,77.41817,12.55301],"properties":{"ward":21,"name":"Ajeej Nagara"},"geometry":{"type":"Polygon","coordinates":[[[77.41444,12.55266],[77.4171,12.55279],[77.41716,12.5516],[77.41817,12.55162],[77.41779,12.55049],[77.41559,12.55055],[77.41464,12.55039],[77.41339,12.55054],[77.41337,12.55013],[77.4128,12.5499],[77.41216,12.54986],[77.4106,12.55],[77.41061,12.55017],[77.40549,12.55031],[77.4054,12.55086],[77.40557,12.55128],[77.40532,12.55167],[77.40486,12.55187],[77.40429,12.55242],[77.40618,12.5528],[77.40619,12.55301],[77.40926,12.55275],[77.41004,12.55254],[77.41011,12.55273],[77.41437,12.55236],[77.41444,12.55266]]]}},{"type":"Feature","bbox":[77.41771,12.54955,77.4212,12.55098],"properties":{"ward":22,"name":"Khalak Nagara"},"geometry":{"type":"Polygon","coordinates":[[[77.42115,12.54978],[77.42048,12.54973],[77.42027,12.54955],[77.41946,12.54959],[77.41771,12.55018],[77.4178,12.55053],[77.42025,12.55057],[77.42025,12.55094],[77.4212,12.55098],[77.42115,12.54978]]]}},{"type":"Feature","bbox":[77.41881,12.54978,77.42195,12.5541],"properties":{"ward":23,"name":"Bananthamaramma Badavane"},"geometry":{"type":"Polygon","coordinates":[[[77.41936,12.5541],[77.42104,12.55261],[77.42195,12.55205],[77.42177,12.54986],[77.42115,12.54978],[77.4212,12.55098],[77.42025,12.55094],[77.42025,12.55057],[77.41881,12.55054],[77.41936,12.5541]]]}},{"type":"Feature","bbox":[77.42177,12.54963,77.42325,12.55205],"properties":{"ward":24,"name":"Megala Beedhi"},"geometry":{"type":"Polygon","coordinates":[[[77.42325,12.55164],[77.42309,12.54963],[77.42177,12.54986],[77.42195,12.55205],[77.42254,12.55172],[77.42325,12.55164]]]}},{"type":"Feature","bbox":[77.42218,12.54805,77.42578,12.56063],"properties":{"ward":25,"name":"Pete Beedhi"},"geometry":{"type":"Polygon","coordinates":[[[77.42471,12.56063],[77.42578,12.56054],[77.42561,12.55918],[77.42486,12.5562],[77.42485,12.551],[77.42451,12.54858],[77.42473,12.54857],[77.4247,12.54805],[77.42379,12.54808],[77.424,12.5492],[77.42306,12.54971],[77.42343,12.55274],[77.42306,12.55898],[77.42218,12.55924],[77.42239,12.56037],[77.42302,12.56009],[77.42456,12.55991],[77.42471,12.56063]]]}},{"type":"Feature","bbox":[77.4199,12.55164,77.42343,12.55382],"properties":{"ward":26,"name":"Vivekanada Nagara"},"geometry":{"type":"Polygon","coordinates":[[[77.42325,12.55164],[77.42251,12.55173],[77.42158,12.55223],[77.4199,12.55358],[77.42334,12.55382],[77.42343,12.55274],[77.42325,12.55164]]]}},{"type":"Feature","bbox":[77.41936,12.55358,77.42334,12.56118],"properties":{"ward":27,"name":"Neelakanteshwara School Badavane"},"geometry":{"type":"Polygon","coordinates":[[[77.42239,12.56037],[77.42218,12.55924],[77.42306,12.55898],[77.42334,12.55382],[77.4199,12.55358],[77.41936,12.5541],[77.41953,12.5571],[77.42052,12.56118],[77.42239,12.56037]]]}},{"type":"Feature","bbox":[77.41697,12.5541,77.42052,12.5614],"properties":{"ward":28,"name":"Nirvahaneshwara Nagara"},"geometry":{"type":"Polygon","coordinates":[[[77.42052,12.56118],[77.41953,12.55712],[77.41936,12.5541],[77.41703,12.55604],[77.41716,12.55634],[77.41697,12.55655],[77.41734,12.55679],[77.41705,12.55743],[77.41735,12.55789],[77.41778,12.55817],[77.41872,12.55824],[77.41868,12.55865],[77.41889,12.55876],[77.41959,12.56018],[77.42003,12.5614],[77.42052,12.56118]]]}},{"type":"Feature","bbox":[77.41698,12.55053,77.41934,12.55574],"properties":{"ward":29,"name":"Bhuvaneshwari Nagara"},"geometry":{"type":"Polygon","coordinates":[[[77.41934,12.55411],[77.41881,12.55054],[77.4178,12.55053],[77.41817,12.55162],[77.41716,12.5516],[77.4171,12.55279],[77.41698,12.55279],[77.41743,12.55574],[77.41934,12.55411]]]}},{"type":"Feature","bbox":[77.40619,12.55236,77.41743,12.55764],"properties":{"ward":30,"name":"Melekote-1"},"geometry":{"type":"Polygon","coordinates":[[[77.41482,12.55764],[77.41743,12.55574],[77.41698,12.55279],[77.41444,12.55266],[77.41437,12.55236],[77.41011,12.55273],[77.41004,12.55254],[77.40926,12.55275],[77.40619,12.55301],[77.4067,12.5558],[77.40786,12.55644],[77.40865,12.55654],[77.41037,12.55645],[77.41177,12.55729],[77.41249,12.55734],[77.41303,12.55762],[77.41482,12.55764]]]}},{"type":"Feature","bbox":[77.4067,12.5558,77.42003,12.56451],"properties":{"ward":31,"name":"Melekote-2"},"geometry":{"type":"Polygon","coordinates":[[[77.42003,12.5614],[77.41959,12.56018],[77.41889,12.55876],[77.41868,12.55865],[77.41872,12.55824],[77.41778,12.55817],[77.41735,12.55789],[77.41705,12.55743],[77.41734,12.55679],[77.41697,12.55655],[77.41716,12.55634],[77.41703,12.55604],[77.41482,12.55764],[77.41306,12.55762],[77.41249,12.55734],[77.41161,12.55723],[77.41061,12.5565],[77.40805,12.55648],[77.4067,12.5558],[77.40745,12.5594],[77.4077,12.55954],[77.40784,12.56219],[77.40832,12.5623],[77.40873,12.56283],[77.40899,12.56293],[77.40893,12.56365],[77.40918,12.56451],[77.41183,12.56405],[77.4149,12.56386],[77.41911,12.56199],[77.42003,12.5614]]]}}]}