{"type":"FeatureCollection","features":[{"type":"Feature","bbox":[78.04317,13.40155,78.04897,13.40438],"properties":{"ward":1},"geometry":{"type":"Polygon","coordinates":[[[78.04897,13.40324],[78.0489,13.40305],[78.04824,13.40276],[78.04647,13.40239],[78.04623,13.40155],[78.04559,13.40169],[78.04586,13.40253],[78.04435,13.40283],[78.04376,13.4035],[78.04317,13.40385],[78.04327,13.40438],[78.04897,13.40324]]]}},{"type":"Feature","bbox":[78.03983,13.38962,78.04613,13.40201],"properties":{"ward":2,"name":"Venkatagiri Kote Sourth/Td & Gt"},"geometry":{"type":"Polygon","coordinates":[[[78.04613,13.401],[78.04579,13.39969],[78.04519,13.39982],[78.04481,13.39817],[78.04464,13.39795],[78.04444,13.39796],[78.04414,13.39745],[78.04391,13.39755],[78.04342,13.39689],[78.04352,13.39662],[78.04309,13.39532],[78.04361,13.39546],[78.04365,13.39319],[78.04328,13.39115],[78.04302,13.39101],[78.04291,13.39015],[78.04305,13.38994],[78.04283,13.38962],[78.04247,13.38992],[78.04169,13.39142],[78.04055,13.39278],[78.04037,13.39409],[78.04052,13.39422],[78.04042,13.39498],[78.03985,13.39539],[78.03983,13.39608],[78.04013,13.39605],[78.04107,13.39744],[78.04225,13.39857],[78.04161,13.39935],[78.04198,13.40027],[78.04215,13.40022],[78.04282,13.40201],[78.04311,13.40196],[78.04338,13.40164],[78.04613,13.401]]]}},{"type":"Feature","bbox":[78.04513,13.40022,78.04922,13.40299],"properties":{"ward":3,"name":"Venkatagiri Kote Colony/Td & Gt"},"geometry":{"type":"Polygon","coordinates":[[[78.04603,13.40059],[78.0462,13.40125],[78.04513,13.40152],[78.04537,13.402],[78.04567,13.40192],[78.04561,13.40169],[78.04625,13.40156],[78.04647,13.4024],[78.04873,13.40299],[78.04922,13.40273],[78.04914,13.40244],[78.04781,13.40121],[78.04737,13.40022],[78.04603,13.40059]]]}},{"type":"Feature","bbox":[78.04309,13.39532,78.04856,13.40059],"properties":{"ward":4,"name":"Tank Bund Road West/Td&Gt;"},"geometry":{"type":"Polygon","coordinates":[[[78.04603,13.40059],[78.04856,13.39988],[78.04627,13.39669],[78.04577,13.39574],[78.04443,13.3954],[78.04351,13.39546],[78.04309,13.39532],[78.04352,13.39662],[78.04342,13.39689],[78.04391,13.39755],[78.04414,13.39745],[78.04444,13.39796],[78.04464,13.39795],[78.04481,13.39817],[78.04519,13.39982],[78.04579,13.39969],[78.04603,13.40059]]]}},{"type":"Feature","bbox":[78.04577,13.39574,78.0501,13.40178],"properties":{"ward":5,"name":"Tank Bund Road East/Td&Gt;"},"geometry":{"type":"Polygon","coordinates":[[[78.0501,13.40085],[78.049,13.39688],[78.04577,13.39574],[78.04627,13.39669],[78.04856,13.39986],[78.04737,13.40022],[78.04781,13.40121],[78.0484,13.40178],[78.04957,13.40138],[78.04936,13.40104],[78.0501,13.40085]]]}},{"type":"Feature","bbox":[78.04571,13.39361,78.05129,13.39688],"properties":{"ward":6,"name":"Anjani Extension/Td&Gt;"},"geometry":{"type":"Polygon","coordinates":[[[78.04951,13.39361],[78.04874,13.39407],[78.04571,13.3947],[78.04577,13.39574],[78.049,13.39688],[78.04966,13.39679],[78.05129,13.39605],[78.04951,13.39361]]]}},{"type":"Feature","bbox":[78.04291,13.38687,78.04951,13.39574],"properties":{"ward":7,"name":"Ashwini Extension/Td&Gt;"},"geometry":{"type":"Polygon","coordinates":[[[78.04305,13.38994],[78.04291,13.39015],[78.04302,13.39101],[78.04328,13.39115],[78.04365,13.39319],[78.04361,13.39546],[78.04443,13.3954],[78.04577,13.39574],[78.04571,13.3947],[78.04874,13.39407],[78.04951,13.39361],[78.04582,13.38687],[78.04409,13.38738],[78.04401,13.38814],[78.04345,13.38824],[78.04292,13.38929],[78.04305,13.38994]]]}},{"type":"Feature","bbox":[78.03435,13.37242,78.05663,13.38922],"properties":{"ward":8,"name":"Kannampalli/Td&Gt;"},"geometry":{"type":"Polygon","coordinates":[[[78.05663,13.38368],[78.05356,13.38375],[78.05286,13.38393],[78.05289,13.38428],[78.05122,13.38441],[78.05117,13.38358],[78.05093,13.38295],[78.04981,13.38088],[78.04979,13.37921],[78.04946,13.37809],[78.04959,13.3776],[78.04924,13.37348],[78.0463,13.37302],[78.04451,13.37332],[78.04184,13.37296],[78.04057,13.37242],[78.04135,13.37622],[78.0379,13.37566],[78.03813,13.37588],[78.03937,13.37945],[78.03793,13.37938],[78.03541,13.37896],[78.03451,13.3794],[78.03454,13.38168],[78.03486,13.38182],[78.03435,13.38201],[78.03436,13.38348],[78.03628,13.38273],[78.03696,13.38231],[78.03765,13.38216],[78.0385,13.38228],[78.03898,13.38293],[78.04255,13.38324],[78.04244,13.38279],[78.0428,13.38278],[78.04278,13.38321],[78.04221,13.38347],[78.04209,13.38384],[78.04276,13.38473],[78.0427,13.38515],[78.04387,13.38722],[78.04424,13.38739],[78.04582,13.38687],[78.04712,13.38922],[78.05219,13.38736],[78.05444,13.38709],[78.05571,13.38371],[78.05663,13.38368]]]}},{"type":"Feature","bbox":[78.04884,13.38992,78.05439,13.39864],"properties":{"ward":9,"name":"Malapalli/Td&Gt;"},"geometry":{"type":"Polygon","coordinates":[[[78.05432,13.39756],[78.05305,13.39551],[78.05352,13.39522],[78.05392,13.3958],[78.05439,13.39556],[78.05401,13.3947],[78.05354,13.39464],[78.05322,13.39342],[78.05351,13.39329],[78.05326,13.39264],[78.05322,13.3911],[78.05344,13.38992],[78.05241,13.3903],[78.05191,13.39006],[78.05047,13.3904],[78.05012,13.39165],[78.04884,13.3923],[78.04956,13.3937],[78.05115,13.39583],[78.05294,13.39864],[78.05333,13.39841],[78.05324,13.39814],[78.05432,13.39756]]]}},{"type":"Feature","bbox":[78.04712,13.38367,78.0578,13.39756],"properties":{"ward":10,"name":"N.R Extension/Td&Gt;"},"geometry":{"type":"Polygon","coordinates":[[[78.05571,13.3837],[78.05444,13.38709],[78.05219,13.38736],[78.04712,13.38922],[78.04884,13.3923],[78.05012,13.39165],[78.05047,13.3904],[78.05191,13.39006],[78.05241,13.3903],[78.05344,13.38992],[78.05322,13.3911],[78.05326,13.39264],[78.05351,13.39329],[78.05322,13.39342],[78.05354,13.39464],[78.05401,13.3947],[78.05439,13.39556],[78.05392,13.3958],[78.05352,13.39522],[78.05305,13.39551],[78.05432,13.39756],[78.05481,13.39727],[78.05436,13.39648],[78.05671,13.39524],[78.0578,13.39491],[78.05725,13.39339],[78.05709,13.3934],[78.0569,13.39305],[78.05653,13.39185],[78.0569,13.39161],[78.05681,13.38934],[78.05695,13.38915],[78.05698,13.38795],[78.05665,13.3876],[78.05673,13.38741],[78.05694,13.38747],[78.05703,13.3873],[78.05701,13.38502],[78.05738,13.38498],[78.05733,13.38367],[78.05571,13.3837]]]}},{"type":"Feature","bbox":[78.05294,13.39468,78.05875,13.39956],"properties":{"ward":11,"name":"Venkateshwara Extension/Td & Gt"},"geometry":{"type":"Polygon","coordinates":[[[78.0535,13.39956],[78.05694,13.39762],[78.05713,13.39791],[78.0583,13.39722],[78.05823,13.39698],[78.05867,13.39677],[78.05802,13.39543],[78.05875,13.39517],[78.05859,13.39468],[78.05694,13.39515],[78.05436,13.39648],[78.05481,13.39729],[78.05324,13.39814],[78.05333,13.39841],[78.05294,13.39864],[78.0535,13.39956]]]}},{"type":"Feature","bbox":[78.049,13.39605,78.05699,13.40286],"properties":{"ward":12,"name":"K.R.Extension/Td&Gt;"},"geometry":{"type":"Polygon","coordinates":[[[78.05059,13.40286],[78.05563,13.40185],[78.05699,13.40052],[78.05632,13.39976],[78.05592,13.39956],[78.05501,13.39994],[78.05446,13.399],[78.05345,13.39954],[78.05129,13.39605],[78.04966,13.39679],[78.049,13.39688],[78.05059,13.40286]]]}},{"type":"Feature","bbox":[78.05446,13.39677,78.05934,13.40052],"properties":{"ward":13,"name":"Sonnashettahalli/Td&Gt;"},"geometry":{"type":"Polygon","coordinates":[[[78.05867,13.39677],[78.05823,13.39698],[78.0583,13.39722],[78.05779,13.39742],[78.05784,13.39758],[78.05713,13.39791],[78.05694,13.39762],[78.05446,13.399],[78.055,13.39993],[78.05601,13.39958],[78.05699,13.40052],[78.05934,13.39816],[78.05867,13.39677]]]}},{"type":"Feature","bbox":[78.05653,13.38358,78.06445,13.39816],"properties":{"ward":14,"name":"Tapateshwara Colony/Td&Gt;"},"geometry":{"type":"Polygon","coordinates":[[[78.05934,13.39816],[78.06354,13.3939],[78.06414,13.39201],[78.06424,13.39123],[78.06445,13.39107],[78.06445,13.38815],[78.06403,13.38402],[78.06374,13.38402],[78.06375,13.38413],[78.06145,13.38358],[78.05733,13.38367],[78.05738,13.38498],[78.05701,13.38502],[78.05703,13.3873],[78.05694,13.38747],[78.05673,13.38741],[78.05665,13.3876],[78.05698,13.38795],[78.05695,13.38915],[78.05681,13.38934],[78.0569,13.39161],[78.05653,13.39185],[78.0569,13.39305],[78.05709,13.3934],[78.05725,13.39339],[78.0578,13.39491],[78.05859,13.39468],[78.05875,13.39517],[78.05802,13.39543],[78.05934,13.39816]]]}},{"type":"Feature","bbox":[78.06177,13.39377,78.06861,13.39933],"properties":{"ward":15,"name":"Tippu Nagar/Td&Gt;"},"geometry":{"type":"Polygon","coordinates":[[[78.06247,13.39933],[78.06861,13.39773],[78.06853,13.39704],[78.06611,13.39698],[78.06604,13.39669],[78.06566,13.39664],[78.06557,13.39643],[78.0651,13.39623],[78.0643,13.39466],[78.0638,13.39472],[78.06367,13.39377],[78.06265,13.39487],[78.06304,13.39634],[78.06294,13.39697],[78.06307,13.39739],[78.06177,13.39786],[78.06247,13.39933]]]}},{"type":"Feature","bbox":[78.06169,13.39802,78.06852,13.41185],"properties":{"ward":16,"name":"Gandhi Nagar/Td&Gt;"},"geometry":{"type":"Polygon","coordinates":[[[78.06829,13.41134],[78.06792,13.40993],[78.0676,13.40994],[78.0673,13.40869],[78.06682,13.40868],[78.06666,13.40853],[78.06664,13.40787],[78.06602,13.40798],[78.06598,13.40712],[78.06549,13.40667],[78.06606,13.40415],[78.06601,13.40294],[78.06626,13.40295],[78.06637,13.40275],[78.0672,13.40301],[78.06795,13.40304],[78.06818,13.4029],[78.0682,13.40269],[78.06852,13.40269],[78.06725,13.39992],[78.06704,13.39898],[78.06712,13.39802],[78.06247,13.39933],[78.06267,13.39983],[78.06197,13.4002],[78.06244,13.40117],[78.06305,13.40343],[78.06169,13.40385],[78.0628,13.40486],[78.06333,13.40562],[78.06656,13.41185],[78.06829,13.41134]]]}},{"type":"Feature","bbox":[78.06019,13.39487,78.06307,13.40049],"properties":{"ward":17,"name":"Chowdareddy Palya/Td&Gt;"},"geometry":{"type":"Polygon","coordinates":[[[78.06267,13.39983],[78.06177,13.39786],[78.06307,13.39739],[78.06294,13.39697],[78.06304,13.39634],[78.06265,13.39487],[78.06019,13.39732],[78.06048,13.39773],[78.06024,13.39792],[78.06146,13.40049],[78.06267,13.39983]]]}},{"type":"Feature","bbox":[78.05637,13.39732,78.06146,13.40299],"properties":{"ward":18,"name":"Keerthi Nagara/Td&Gt;"},"geometry":{"type":"Polygon","coordinates":[[[78.05771,13.40269],[78.06146,13.40049],[78.06024,13.39792],[78.06048,13.39773],[78.06019,13.39732],[78.05699,13.40052],[78.05812,13.40128],[78.05637,13.40236],[78.05665,13.40299],[78.05771,13.40269]]]}},{"type":"Feature","bbox":[78.05454,13.40052,78.05812,13.40567],"properties":{"ward":19,"name":"Bomboobazar/Td&Gt;"},"geometry":{"type":"Polygon","coordinates":[[[78.05741,13.40536],[78.05719,13.40436],[78.05637,13.40234],[78.05737,13.40186],[78.05812,13.40128],[78.05699,13.40052],[78.05563,13.40185],[78.05454,13.40213],[78.05532,13.40567],[78.05741,13.40536]]]}},{"type":"Feature","bbox":[78.05665,13.4002,78.06746,13.41369],"properties":{"ward":20,"name":"Sriramanagar/Td&Gt;"},"geometry":{"type":"Polygon","coordinates":[[[78.06746,13.4136],[78.06333,13.40562],[78.0628,13.40486],[78.06169,13.40385],[78.06305,13.40343],[78.06244,13.40117],[78.06197,13.4002],[78.05824,13.40243],[78.05665,13.40299],[78.05734,13.40485],[78.05744,13.40581],[78.05951,13.40527],[78.05973,13.40653],[78.06088,13.40631],[78.06096,13.40842],[78.06075,13.4092],[78.0611,13.40971],[78.0611,13.4105],[78.06136,13.41082],[78.06141,13.41164],[78.06194,13.41198],[78.06215,13.41247],[78.06413,13.413],[78.06527,13.41302],[78.06611,13.41369],[78.06746,13.4136]]]}},{"type":"Feature","bbox":[78.05542,13.40623,78.06393,13.41785],"properties":{"ward":21,"name":"J.J. Colony/Td&Gt;"},"geometry":{"type":"Polygon","coordinates":[[[78.06393,13.41293],[78.06219,13.41251],[78.06194,13.41198],[78.06141,13.41164],[78.06136,13.41082],[78.0611,13.4105],[78.06113,13.40982],[78.06075,13.4092],[78.06076,13.40888],[78.05826,13.4092],[78.0577,13.40902],[78.05735,13.40848],[78.05707,13.40709],[78.05761,13.40693],[78.05739,13.40623],[78.05542,13.40662],[78.05552,13.40821],[78.05659,13.40973],[78.05723,13.41164],[78.05832,13.41341],[78.05848,13.41447],[78.05901,13.41611],[78.0602,13.41765],[78.06077,13.41785],[78.06096,13.41682],[78.06151,13.41678],[78.06157,13.41502],[78.06287,13.41435],[78.06252,13.41397],[78.06336,13.4138],[78.06393,13.41293]]]}},{"type":"Feature","bbox":[78.0484,13.40085,78.05467,13.40388],"properties":{"ward":22,"name":"Hoovina Pete/Td&Gt;"},"geometry":{"type":"Polygon","coordinates":[[[78.0508,13.40388],[78.0519,13.4034],[78.0528,13.40336],[78.05406,13.40303],[78.05407,13.40285],[78.05467,13.4027],[78.05454,13.40213],[78.05059,13.40286],[78.0501,13.40085],[78.04936,13.40104],[78.04957,13.40138],[78.0484,13.40178],[78.04919,13.4025],[78.04922,13.40273],[78.04873,13.40299],[78.04898,13.40325],[78.05024,13.40302],[78.05046,13.40378],[78.0508,13.40388]]]}},{"type":"Feature","bbox":[78.05304,13.40272,78.06096,13.4092],"properties":{"ward":23,"name":"Halepete/Td&Gt;"},"geometry":{"type":"Polygon","coordinates":[[[78.06081,13.40893],[78.06096,13.40842],[78.06088,13.40631],[78.05973,13.40653],[78.05951,13.40527],[78.05744,13.40581],[78.05741,13.40536],[78.05532,13.40567],[78.05465,13.40272],[78.05407,13.40285],[78.05406,13.40303],[78.05304,13.40326],[78.05364,13.40418],[78.05422,13.4046],[78.05424,13.40473],[78.05368,13.40491],[78.05377,13.40541],[78.05385,13.4056],[78.05439,13.40584],[78.05433,13.40616],[78.05479,13.40757],[78.05557,13.40751],[78.05542,13.40662],[78.05739,13.40623],[78.05761,13.40693],[78.05707,13.40709],[78.05735,13.40848],[78.05773,13.40905],[78.05826,13.4092],[78.06081,13.40893]]]}},{"type":"Feature","bbox":[78.0508,13.40326,78.05372,13.40594],"properties":{"ward":24,"name":"Narashima Pete/Td&Gt;"},"geometry":{"type":"Polygon","coordinates":[[[78.05183,13.40487],[78.05276,13.40431],[78.05372,13.40422],[78.05304,13.40326],[78.0519,13.4034],[78.0508,13.40388],[78.05106,13.4049],[78.05124,13.40491],[78.05096,13.4056],[78.05098,13.40594],[78.05151,13.40577],[78.05183,13.40487]]]}},{"type":"Feature","bbox":[78.04191,13.40302,78.05124,13.4068],"properties":{"ward":25,"name":"N.N.T. South/Td&Gt;"},"geometry":{"type":"Polygon","coordinates":[[[78.04323,13.40661],[78.04344,13.40633],[78.04521,13.40575],[78.04855,13.405],[78.04881,13.40608],[78.04974,13.40597],[78.05094,13.40567],[78.05124,13.40491],[78.05106,13.4049],[78.0508,13.40388],[78.05046,13.40378],[78.05024,13.40302],[78.04191,13.40469],[78.04236,13.4068],[78.04323,13.40661]]]}},{"type":"Feature","bbox":[78.04297,13.405,78.05112,13.40833],"properties":{"ward":26,"name":"N.N.T. North/Td&Gt;"},"geometry":{"type":"Polygon","coordinates":[[[78.05112,13.40805],[78.05094,13.40567],[78.04881,13.40608],[78.04857,13.405],[78.04521,13.40575],[78.04344,13.40633],[78.04297,13.40707],[78.04322,13.40755],[78.04404,13.40769],[78.04658,13.40793],[78.04854,13.40771],[78.04854,13.40808],[78.04961,13.40833],[78.04976,13.40803],[78.05112,13.40805]]]}},{"type":"Feature","bbox":[78.02985,13.40469,78.05262,13.42089],"properties":{"ward":27,"name":"Shanthi Nagara/Td&Gt;"},"geometry":{"type":"Polygon","coordinates":[[[78.05112,13.40805],[78.04976,13.40803],[78.04961,13.40833],[78.04854,13.40808],[78.04854,13.40771],[78.04658,13.40793],[78.04327,13.40757],[78.04297,13.40707],[78.04323,13.40661],[78.04236,13.4068],[78.04191,13.40469],[78.03817,13.4054],[78.03702,13.40537],[78.03732,13.40873],[78.03444,13.41017],[78.02989,13.41128],[78.03002,13.41206],[78.02985,13.4124],[78.03044,13.41222],[78.03343,13.41197],[78.03429,13.41224],[78.03524,13.41557],[78.0358,13.41554],[78.03832,13.4161],[78.03908,13.41502],[78.03959,13.41538],[78.04007,13.41546],[78.04168,13.41514],[78.04172,13.41499],[78.04221,13.41507],[78.04261,13.41667],[78.04219,13.41769],[78.04393,13.41785],[78.04591,13.41835],[78.04772,13.41911],[78.04851,13.42089],[78.04866,13.42059],[78.04961,13.42055],[78.05008,13.42021],[78.05012,13.42053],[78.05262,13.4195],[78.05161,13.41829],[78.05181,13.41725],[78.05217,13.41646],[78.0513,13.41294],[78.05137,13.41174],[78.05119,13.41155],[78.05085,13.40914],[78.05121,13.40862],[78.05112,13.40805]]]}},{"type":"Feature","bbox":[78.05085,13.40668,78.05358,13.41174],"properties":{"ward":28,"name":"Mehaboob Nagara/Td&Gt;"},"geometry":{"type":"Polygon","coordinates":[[[78.05339,13.40755],[78.05333,13.40709],[78.05358,13.40684],[78.05108,13.40668],[78.05103,13.40753],[78.05121,13.40862],[78.05085,13.40914],[78.05119,13.41155],[78.05137,13.41174],[78.05178,13.41152],[78.05142,13.40835],[78.05174,13.40802],[78.05339,13.40755]]]}},{"type":"Feature","bbox":[78.05098,13.40422,78.05465,13.40755],"properties":{"ward":29,"name":"Nekkundi Pete/Td&Gt;"},"geometry":{"type":"Polygon","coordinates":[[[78.05465,13.4072],[78.05433,13.40616],[78.05439,13.40584],[78.05385,13.4056],[78.05368,13.40491],[78.05423,13.40463],[78.05372,13.40422],[78.05276,13.40431],[78.0519,13.40482],[78.05151,13.40577],[78.05098,13.40594],[78.05108,13.40668],[78.05358,13.40684],[78.05333,13.40709],[78.05339,13.40755],[78.05465,13.4072]]]}},{"type":"Feature","bbox":[78.0513,13.4072,78.0602,13.41991],"properties":{"ward":30,"name":"Patalamma Temple/Td&Gt;"},"geometry":{"type":"Polygon","coordinates":[[[78.0602,13.41765],[78.05901,13.41611],[78.05848,13.41447],[78.05832,13.41341],[78.05723,13.41164],[78.05659,13.40973],[78.05552,13.40821],[78.05557,13.40751],[78.05487,13.4076],[78.05465,13.4072],[78.05167,13.40806],[78.05142,13.40835],[78.05178,13.41152],[78.05137,13.41174],[78.0513,13.41294],[78.05217,13.41646],[78.05181,13.41725],[78.05161,13.41829],[78.05246,13.41933],[78.05263,13.41951],[78.05542,13.41991],[78.05672,13.41988],[78.0586,13.41959],[78.05917,13.41967],[78.05898,13.41888],[78.05961,13.41794],[78.0602,13.41765]]]}}]}