{"type":"FeatureCollection","features":[{"type":"Feature","bbox":[76.94027,11.90037,76.94946,11.9116],"properties":{"ward":1},"geometry":{"type":"Polygon","coordinates":[[[76.94906,11.90037],[76.94798,11.90077],[76.94735,11.90134],[76.94687,11.90128],[76.94646,11.90088],[76.94547,11.90164],[76.94405,11.90224],[76.94373,11.90288],[76.94132,11.9034],[76.94071,11.90331],[76.94027,11.90396],[76.94173,11.90645],[76.94194,11.90735],[76.94237,11.90797],[76.94297,11.90796],[76.94306,11.90811],[76.94457,11.90805],[76.94556,11.90843],[76.94442,11.91101],[76.94472,11.9116],[76.94641,11.91138],[76.94623,11.91047],[76.94594,11.91005],[76.94595,11.90985],[76.94674,11.90971],[76.94667,11.90743],[76.9465,11.90675],[76.94891,11.9064],[76.9488,11.90581],[76.94895,11.90487],[76.94916,11.90471],[76.94896,11.90259],[76.94946,11.90232],[76.9493,11.90222],[76.94906,11.90037]]]}},{"type":"Feature","bbox":[76.93774,11.90306,76.94556,11.92221],"properties":{"ward":2},"geometry":{"type":"Polygon","coordinates":[[[76.94185,11.91653],[76.94556,11.90843],[76.94457,11.90805],[76.94306,11.90811],[76.94297,11.90796],[76.94237,11.90797],[76.94194,11.90735],[76.94173,11.90645],[76.94027,11.90396],[76.93812,11.90306],[76.93805,11.90419],[76.93845,11.90611],[76.93835,11.90778],[76.93804,11.90857],[76.9378,11.91051],[76.93796,11.91215],[76.9378,11.91365],[76.93805,11.91485],[76.93774,11.91596],[76.93777,11.92221],[76.94185,11.91653]]]}},{"type":"Feature","bbox":[76.93157,11.90247,76.93845,11.91631],"properties":{"ward":3},"geometry":{"type":"Polygon","coordinates":[[[76.93663,11.91621],[76.93674,11.91506],[76.93774,11.91596],[76.93801,11.91531],[76.93803,11.91452],[76.93779,11.9135],[76.93796,11.91215],[76.9378,11.91051],[76.93804,11.90857],[76.93835,11.90778],[76.93845,11.90591],[76.93805,11.90419],[76.93812,11.90306],[76.93673,11.90247],[76.93614,11.90359],[76.93589,11.90368],[76.93565,11.90406],[76.93588,11.90444],[76.93563,11.9048],[76.93527,11.90484],[76.93493,11.90464],[76.93395,11.90505],[76.93275,11.90519],[76.93281,11.90529],[76.93157,11.90528],[76.9319,11.90587],[76.93169,11.90601],[76.93177,11.90622],[76.93238,11.90726],[76.93255,11.90719],[76.93292,11.9075],[76.93319,11.90738],[76.9334,11.90834],[76.93408,11.91002],[76.93392,11.9102],[76.93423,11.91136],[76.93398,11.9116],[76.93384,11.91296],[76.93435,11.91421],[76.93444,11.91516],[76.9336,11.91531],[76.93372,11.91631],[76.93663,11.91621]]]}},{"type":"Feature","bbox":[76.92285,11.90528,76.93444,11.91852],"properties":{"ward":4},"geometry":{"type":"Polygon","coordinates":[[[76.93372,11.91631],[76.9336,11.91531],[76.93444,11.91516],[76.93435,11.91421],[76.93384,11.91296],[76.93398,11.9116],[76.93423,11.91136],[76.93392,11.9102],[76.93408,11.91002],[76.9334,11.90834],[76.93319,11.90738],[76.93292,11.9075],[76.93255,11.90719],[76.93238,11.90726],[76.93177,11.90622],[76.93169,11.90601],[76.9319,11.90587],[76.93157,11.90528],[76.93073,11.90533],[76.9306,11.90537],[76.93087,11.90585],[76.9302,11.90597],[76.93012,11.90642],[76.92937,11.90667],[76.92924,11.90747],[76.92956,11.90811],[76.9283,11.90854],[76.92648,11.90855],[76.92687,11.91054],[76.9274,11.91192],[76.92764,11.91187],[76.92784,11.91244],[76.92831,11.91417],[76.92839,11.91465],[76.92828,11.9149],[76.92594,11.91535],[76.92567,11.91515],[76.92547,11.91432],[76.92435,11.91437],[76.92412,11.91419],[76.92288,11.91524],[76.92285,11.9154],[76.92295,11.91562],[76.92903,11.91776],[76.93178,11.91825],[76.93252,11.91852],[76.93237,11.91643],[76.93372,11.91631]]]}},{"type":"Feature","bbox":[76.93239,11.91616,76.93663,11.91932],"properties":{"ward":5},"geometry":{"type":"Polygon","coordinates":[[[76.93663,11.91621],[76.93542,11.91616],[76.93239,11.91641],[76.93252,11.91852],[76.93341,11.91891],[76.93344,11.91818],[76.93602,11.91799],[76.936,11.91931],[76.93622,11.91932],[76.93622,11.91907],[76.9366,11.91893],[76.93663,11.91621]]]}},{"type":"Feature","bbox":[76.93341,11.91506,76.93777,11.92273],"properties":{"ward":6},"geometry":{"type":"Polygon","coordinates":[[[76.93777,11.92221],[76.93774,11.91596],[76.93674,11.91506],[76.93661,11.9155],[76.93659,11.91896],[76.93634,11.91896],[76.93622,11.91932],[76.936,11.91931],[76.93602,11.91799],[76.93344,11.91818],[76.93341,11.91891],[76.93736,11.92273],[76.93777,11.92221]]]}},{"type":"Feature","bbox":[76.92193,11.91562,76.93667,11.92499],"properties":{"ward":7},"geometry":{"type":"Polygon","coordinates":[[[76.93667,11.92207],[76.93318,11.91878],[76.93178,11.91825],[76.92903,11.91776],[76.92295,11.91562],[76.92295,11.91681],[76.92193,11.91776],[76.92214,11.91871],[76.92276,11.91936],[76.92241,11.91945],[76.92225,11.91992],[76.9223,11.92075],[76.92296,11.92098],[76.92352,11.92219],[76.9247,11.92233],[76.925,11.92267],[76.9256,11.92277],[76.92607,11.92404],[76.92781,11.9239],[76.92858,11.92404],[76.92864,11.92373],[76.93067,11.92378],[76.93068,11.92278],[76.9324,11.92257],[76.93455,11.92258],[76.93442,11.92372],[76.9345,11.92477],[76.93517,11.92476],[76.93586,11.92499],[76.93581,11.92446],[76.9354,11.92436],[76.93536,11.92403],[76.93505,11.9239],[76.93518,11.92251],[76.93529,11.92237],[76.93614,11.92241],[76.93618,11.92203],[76.93667,11.92207]]]}},{"type":"Feature","bbox":[76.93505,11.92203,76.93741,11.92558],"properties":{"ward":8},"geometry":{"type":"Polygon","coordinates":[[[76.93719,11.92551],[76.93741,11.92278],[76.93667,11.92207],[76.93618,11.92203],[76.93614,11.92241],[76.93525,11.9224],[76.93505,11.9239],[76.93536,11.92403],[76.9354,11.92436],[76.93581,11.92446],[76.93594,11.92558],[76.93719,11.92551]]]}},{"type":"Feature","bbox":[76.93736,11.91101,76.94758,11.92307],"properties":{"ward":9},"geometry":{"type":"Polygon","coordinates":[[[76.94456,11.9222],[76.94469,11.92128],[76.94649,11.92101],[76.94658,11.92028],[76.94758,11.91964],[76.94687,11.91744],[76.94605,11.91578],[76.94602,11.91505],[76.94573,11.91458],[76.94574,11.9143],[76.94601,11.91417],[76.94572,11.91377],[76.94552,11.91267],[76.94442,11.91101],[76.94185,11.91653],[76.93736,11.92273],[76.9398,11.92307],[76.93974,11.92296],[76.9419,11.92293],[76.94202,11.92256],[76.94429,11.92236],[76.94456,11.9222]]]}},{"type":"Feature","bbox":[76.94472,11.90015,76.96424,11.92371],"properties":{"ward":10},"geometry":{"type":"Polygon","coordinates":[[[76.96415,11.92267],[76.96405,11.92269],[76.96312,11.91853],[76.96258,11.91866],[76.96201,11.91646],[76.96213,11.91629],[76.96175,11.91463],[76.96194,11.91439],[76.96187,11.91376],[76.96115,11.91066],[76.96082,11.91022],[76.9597,11.9103],[76.95931,11.90914],[76.95786,11.90766],[76.95653,11.90541],[76.95555,11.90482],[76.9545,11.9037],[76.95496,11.90273],[76.95485,11.90224],[76.95564,11.902],[76.95503,11.90018],[76.95258,11.90091],[76.9498,11.90015],[76.94906,11.90037],[76.9493,11.90222],[76.94946,11.90232],[76.94896,11.90259],[76.94916,11.90471],[76.94895,11.90487],[76.9488,11.90581],[76.94891,11.9064],[76.9465,11.90675],[76.94667,11.90743],[76.94674,11.90971],[76.94595,11.90985],[76.94594,11.91005],[76.94623,11.91047],[76.94641,11.91138],[76.94472,11.9116],[76.94552,11.91267],[76.94572,11.91377],[76.94601,11.91417],[76.94574,11.9143],[76.94573,11.91458],[76.94602,11.91505],[76.94605,11.91578],[76.94687,11.91744],[76.94732,11.91883],[76.94944,11.91826],[76.95055,11.91948],[76.9493,11.91974],[76.94975,11.92236],[76.95015,11.92231],[76.95007,11.92169],[76.95219,11.92121],[76.95251,11.92193],[76.95307,11.92186],[76.95328,11.92207],[76.95491,11.92235],[76.95499,11.92269],[76.95848,11.92331],[76.96214,11.92371],[76.96239,11.92345],[76.96424,11.92301],[76.96415,11.92267]]]}},{"type":"Feature","bbox":[76.93718,11.9222,76.94499,11.9251],"properties":{"ward":11},"geometry":{"type":"Polygon","coordinates":[[[76.9407,11.92446],[76.9407,11.92367],[76.94107,11.92325],[76.94499,11.92308],[76.94466,11.9222],[76.94429,11.92236],[76.94202,11.92256],[76.9419,11.92293],[76.93974,11.92296],[76.9398,11.92307],[76.93741,11.92278],[76.93718,11.9251],[76.93763,11.92505],[76.93767,11.92456],[76.9407,11.92446]]]}},{"type":"Feature","bbox":[76.93718,11.92446,76.94094,11.92723],"properties":{"ward":12},"geometry":{"type":"Polygon","coordinates":[[[76.9401,11.92693],[76.94006,11.926],[76.94094,11.92596],[76.9407,11.92446],[76.93767,11.92456],[76.93763,11.92505],[76.93718,11.9251],[76.93747,11.92723],[76.93925,11.92723],[76.93932,11.92689],[76.9401,11.92693]]]}},{"type":"Feature","bbox":[76.94006,11.92456,76.94497,11.92755],"properties":{"ward":13},"geometry":{"type":"Polygon","coordinates":[[[76.94476,11.92527],[76.94332,11.92552],[76.94314,11.92456],[76.94211,11.92462],[76.94205,11.9252],[76.94091,11.92535],[76.94094,11.92596],[76.94006,11.926],[76.9401,11.92696],[76.94431,11.92755],[76.94427,11.92647],[76.94497,11.92624],[76.94476,11.92527]]]}},{"type":"Feature","bbox":[76.9407,11.91964,76.94832,11.92552],"properties":{"ward":14},"geometry":{"type":"Polygon","coordinates":[[[76.94476,11.92527],[76.9456,11.92492],[76.94557,11.92405],[76.94535,11.92338],[76.94694,11.92315],[76.9474,11.92274],[76.94727,11.92208],[76.94832,11.92189],[76.94758,11.91964],[76.94658,11.92028],[76.94649,11.92101],[76.94466,11.92132],[76.94456,11.9222],[76.94499,11.92308],[76.94129,11.9232],[76.94098,11.92331],[76.9407,11.92367],[76.94083,11.92536],[76.94205,11.9252],[76.94211,11.92462],[76.94295,11.92454],[76.94316,11.92458],[76.94332,11.92552],[76.94476,11.92527]]]}},{"type":"Feature","bbox":[76.94427,11.91826,76.95057,11.92835],"properties":{"ward":15},"geometry":{"type":"Polygon","coordinates":[[[76.95015,11.92231],[76.94975,11.92236],[76.9493,11.91974],[76.95057,11.91956],[76.95028,11.91914],[76.94944,11.91826],[76.94732,11.91883],[76.94833,11.92188],[76.94727,11.92208],[76.9474,11.92274],[76.94694,11.92315],[76.94535,11.92338],[76.94557,11.92405],[76.9456,11.92492],[76.94476,11.92527],[76.94497,11.92624],[76.94427,11.92647],[76.94431,11.92755],[76.9499,11.92835],[76.95015,11.92543],[76.95015,11.92231]]]}},{"type":"Feature","bbox":[76.92551,11.92955,76.93917,11.94206],"properties":{"ward":16},"geometry":{"type":"Polygon","coordinates":[[[76.93917,11.94138],[76.9388,11.93635],[76.93781,11.92955],[76.93362,11.93075],[76.93216,11.93143],[76.92551,11.93696],[76.92584,11.93714],[76.92758,11.9371],[76.92866,11.93677],[76.92933,11.93677],[76.9301,11.93637],[76.93009,11.93671],[76.93124,11.93675],[76.93121,11.9371],[76.93318,11.93752],[76.93363,11.93807],[76.93492,11.93885],[76.93519,11.93911],[76.93521,11.93989],[76.93671,11.9408],[76.93676,11.94196],[76.93821,11.94206],[76.93839,11.94158],[76.93917,11.94138]]]}},{"type":"Feature","bbox":[76.93799,11.93038,76.94397,11.94138],"properties":{"ward":17},"geometry":{"type":"Polygon","coordinates":[[[76.94397,11.93962],[76.94391,11.93738],[76.94374,11.93734],[76.94362,11.93659],[76.94372,11.93637],[76.94122,11.93455],[76.94092,11.93347],[76.94218,11.93319],[76.94178,11.93038],[76.93799,11.93079],[76.9388,11.93635],[76.93917,11.94138],[76.93951,11.94124],[76.94109,11.9413],[76.94199,11.94102],[76.94303,11.94039],[76.94311,11.93999],[76.94397,11.93962]]]}},{"type":"Feature","bbox":[76.9379,11.92988,76.94178,11.93079],"properties":{"ward":18},"geometry":{"type":"Polygon","coordinates":[[[76.94178,11.93038],[76.94173,11.92998],[76.94023,11.93014],[76.94022,11.92988],[76.9379,11.93018],[76.93799,11.93079],[76.94178,11.93038]]]}},{"type":"Feature","bbox":[76.93762,11.92822,76.94022,11.93018],"properties":{"ward":19},"geometry":{"type":"Polygon","coordinates":[[[76.94022,11.92988],[76.94017,11.92855],[76.93762,11.92822],[76.9379,11.93018],[76.94022,11.92988]]]}},{"type":"Feature","bbox":[76.92071,11.92257,76.93781,11.93696],"properties":{"ward":20},"geometry":{"type":"Polygon","coordinates":[[[76.93781,11.92955],[76.93719,11.92551],[76.93603,11.92562],[76.93586,11.92499],[76.93517,11.92476],[76.9345,11.92477],[76.93443,11.92351],[76.93457,11.92258],[76.9324,11.92257],[76.93068,11.92278],[76.93067,11.92378],[76.92864,11.92373],[76.92858,11.92404],[76.92682,11.92391],[76.92596,11.92401],[76.92597,11.92423],[76.92453,11.92435],[76.92314,11.9243],[76.92236,11.92296],[76.92071,11.92322],[76.92098,11.92457],[76.92201,11.9245],[76.92248,11.92867],[76.92186,11.92874],[76.9224,11.93046],[76.92255,11.93239],[76.92234,11.93249],[76.92253,11.93544],[76.92165,11.93576],[76.92178,11.93623],[76.92165,11.93658],[76.92277,11.93673],[76.92306,11.93621],[76.9241,11.93588],[76.92435,11.93612],[76.92477,11.93621],[76.92507,11.93669],[76.92551,11.93696],[76.93216,11.93143],[76.93362,11.93075],[76.93781,11.92955]]]}},{"type":"Feature","bbox":[76.93747,11.92689,76.94017,11.92855],"properties":{"ward":21},"geometry":{"type":"Polygon","coordinates":[[[76.9401,11.92696],[76.93932,11.92689],[76.93925,11.92723],[76.93747,11.92723],[76.93762,11.92822],[76.94017,11.92855],[76.9401,11.92696]]]}},{"type":"Feature","bbox":[76.9401,11.92696,76.95011,11.93236],"properties":{"ward":22},"geometry":{"type":"Polygon","coordinates":[[[76.94998,11.93206],[76.94991,11.93027],[76.95004,11.9301],[76.95011,11.92837],[76.9401,11.92696],[76.94021,11.92949],[76.94188,11.92934],[76.94557,11.92944],[76.94548,11.92995],[76.94576,11.93047],[76.94548,11.93079],[76.94545,11.93133],[76.94729,11.93188],[76.9477,11.93184],[76.94796,11.93236],[76.94807,11.93211],[76.94838,11.93202],[76.94998,11.93206]]]}},{"type":"Feature","bbox":[76.94021,11.92934,76.95035,11.93477],"properties":{"ward":23},"geometry":{"type":"Polygon","coordinates":[[[76.94987,11.93457],[76.94985,11.93397],[76.95022,11.93363],[76.95035,11.9322],[76.94993,11.93205],[76.94838,11.93202],[76.94807,11.93211],[76.94796,11.93236],[76.9477,11.93184],[76.94729,11.93188],[76.94545,11.93133],[76.94548,11.93079],[76.94576,11.93047],[76.94548,11.92995],[76.94557,11.92944],[76.94188,11.92934],[76.94021,11.92949],[76.94023,11.93014],[76.94173,11.92998],[76.94218,11.93319],[76.94092,11.93347],[76.94122,11.93455],[76.94155,11.93477],[76.94987,11.93457]]]}},{"type":"Feature","bbox":[76.94155,11.93456,76.94994,11.94003],"properties":{"ward":24},"geometry":{"type":"Polygon","coordinates":[[[76.94994,11.93456],[76.94842,11.93465],[76.94155,11.93477],[76.94372,11.93637],[76.94362,11.93659],[76.94374,11.93734],[76.94391,11.93738],[76.94397,11.93962],[76.94477,11.94003],[76.94544,11.93992],[76.94593,11.93934],[76.94702,11.93932],[76.94723,11.93968],[76.94838,11.93961],[76.9487,11.93929],[76.94877,11.93887],[76.94925,11.93883],[76.94925,11.93647],[76.9499,11.9364],[76.94994,11.93456]]]}},{"type":"Feature","bbox":[76.94985,11.92837,76.96015,11.93544],"properties":{"ward":25},"geometry":{"type":"Polygon","coordinates":[[[76.96015,11.93243],[76.95968,11.93122],[76.95909,11.93054],[76.95845,11.92992],[76.95775,11.9296],[76.95011,11.92837],[76.95004,11.9301],[76.94991,11.93027],[76.94998,11.93206],[76.95036,11.93227],[76.95022,11.93363],[76.94985,11.93397],[76.94987,11.93457],[76.95207,11.93454],[76.95225,11.93448],[76.95225,11.93424],[76.95315,11.93412],[76.95351,11.93392],[76.95513,11.93381],[76.95537,11.93479],[76.95547,11.93476],[76.95582,11.93544],[76.95798,11.93484],[76.95929,11.93478],[76.9595,11.93467],[76.95907,11.93262],[76.96015,11.93243]]]}},{"type":"Feature","bbox":[76.9499,11.92121,76.95685,11.92943],"properties":{"ward":26},"geometry":{"type":"Polygon","coordinates":[[[76.95645,11.92295],[76.95496,11.92268],[76.95491,11.92235],[76.95328,11.92207],[76.95307,11.92186],[76.95251,11.92193],[76.95222,11.92121],[76.95007,11.92169],[76.95021,11.92264],[76.95015,11.92543],[76.9499,11.92835],[76.9568,11.92943],[76.95685,11.92897],[76.95655,11.92771],[76.95663,11.92717],[76.95624,11.92575],[76.95645,11.92295]]]}},{"type":"Feature","bbox":[76.95624,11.92295,76.96198,11.92992],"properties":{"ward":27},"geometry":{"type":"Polygon","coordinates":[[[76.96122,11.92934],[76.95956,11.92821],[76.95921,11.92736],[76.96138,11.92706],[76.96198,11.92677],[76.96138,11.92479],[76.96135,11.92364],[76.95645,11.92295],[76.95624,11.92575],[76.95663,11.92717],[76.95655,11.92771],[76.95685,11.92897],[76.9568,11.92943],[76.95775,11.9296],[76.95845,11.92992],[76.96064,11.92966],[76.96122,11.92934]]]}},{"type":"Feature","bbox":[76.95845,11.92866,76.96472,11.93201],"properties":{"ward":28},"geometry":{"type":"Polygon","coordinates":[[[76.96005,11.93201],[76.96328,11.93106],[76.96296,11.93012],[76.96455,11.92956],[76.96472,11.92866],[76.9639,11.92902],[76.9626,11.92918],[76.96152,11.92954],[76.96122,11.92934],[76.96064,11.92966],[76.95845,11.92992],[76.95958,11.93108],[76.96005,11.93201]]]}},{"type":"Feature","bbox":[76.95921,11.92141,76.97145,11.93278],"properties":{"ward":29},"geometry":{"type":"Polygon","coordinates":[[[76.96404,11.93225],[76.96395,11.93147],[76.96407,11.93129],[76.96495,11.93124],[76.96522,11.93184],[76.96681,11.93144],[76.96776,11.93074],[76.97145,11.93013],[76.97137,11.92877],[76.97071,11.9289],[76.97036,11.92692],[76.97084,11.92671],[76.97023,11.92392],[76.96932,11.92141],[76.96913,11.92165],[76.96822,11.92194],[76.96783,11.92202],[76.96784,11.92175],[76.96636,11.92202],[76.96638,11.92217],[76.96415,11.92267],[76.96424,11.92301],[76.96239,11.92345],[76.96214,11.92371],[76.96135,11.92364],[76.96138,11.92479],[76.96198,11.92677],[76.96138,11.92706],[76.95921,11.92736],[76.95956,11.92821],[76.96138,11.92957],[76.9626,11.92918],[76.9639,11.92902],[76.96472,11.92866],[76.96455,11.92956],[76.96296,11.93012],[76.96328,11.93106],[76.96115,11.93167],[76.96161,11.93278],[76.96336,11.93252],[76.96404,11.93225]]]}},{"type":"Feature","bbox":[76.96215,11.93028,76.97103,11.94089],"properties":{"ward":30},"geometry":{"type":"Polygon","coordinates":[[[76.97038,11.93028],[76.96776,11.93074],[76.96681,11.93144],[76.96522,11.93184],[76.96495,11.93124],[76.96407,11.93129],[76.96395,11.93147],[76.96414,11.93291],[76.96236,11.9332],[76.96263,11.93451],[76.96215,11.93438],[76.96225,11.9351],[76.96293,11.93681],[76.96337,11.93732],[76.96395,11.93858],[76.96397,11.9404],[76.96536,11.94089],[76.96648,11.94067],[76.96647,11.93984],[76.96827,11.93927],[76.96806,11.93849],[76.96694,11.93726],[76.9676,11.9369],[76.96775,11.93642],[76.96979,11.93613],[76.97103,11.93623],[76.9709,11.93353],[76.97038,11.93028]]]}},{"type":"Feature","bbox":[76.95582,11.93166,76.96414,11.9404],"properties":{"ward":31},"geometry":{"type":"Polygon","coordinates":[[[76.96404,11.93225],[76.96336,11.93252],[76.96164,11.93278],[76.96115,11.93166],[76.96005,11.93201],[76.96015,11.93243],[76.95907,11.93262],[76.9595,11.9347],[76.95798,11.93484],[76.95582,11.93544],[76.95616,11.9361],[76.95645,11.93606],[76.95696,11.93704],[76.95731,11.93714],[76.95755,11.93774],[76.95835,11.93846],[76.95942,11.93891],[76.95946,11.9391],[76.96025,11.93935],[76.96166,11.93945],[76.96169,11.93968],[76.96268,11.93981],[76.96287,11.94009],[76.96397,11.9404],[76.96395,11.93858],[76.96238,11.9356],[76.96214,11.9344],[76.96263,11.93455],[76.96236,11.9332],[76.96414,11.93291],[76.96404,11.93225]]]}}]}