{"type":"FeatureCollection","features":[{"type":"Feature","bbox":[79.46788,11.94603,79.49435,11.95705],"properties":{"ward":1},"geometry":{"type":"Polygon","coordinates":[[[79.49351,11.95561],[79.49394,11.95628],[79.49435,11.9562],[79.49169,11.95186],[79.49151,11.95127],[79.49126,11.9499],[79.49114,11.94703],[79.48918,11.94702],[79.48925,11.94612],[79.47135,11.94603],[79.47133,11.94837],[79.46875,11.94976],[79.4688,11.95152],[79.46788,11.95533],[79.47219,11.95705],[79.47267,11.95674],[79.47289,11.95601],[79.47612,11.95606],[79.47643,11.95592],[79.47824,11.95593],[79.47866,11.9558],[79.47967,11.95598],[79.48128,11.95584],[79.48414,11.95589],[79.4842,11.95563],[79.48618,11.95589],[79.48799,11.95563],[79.49139,11.95564],[79.49168,11.95578],[79.49351,11.95561]]]}},{"type":"Feature","bbox":[79.49122,11.94802,79.49528,11.9562],"properties":{"ward":2},"geometry":{"type":"Polygon","coordinates":[[[79.49435,11.9562],[79.49527,11.95601],[79.49528,11.9481],[79.49337,11.94802],[79.49317,11.94989],[79.4919,11.94997],[79.4917,11.94883],[79.49122,11.94883],[79.49126,11.9499],[79.49169,11.95186],[79.49435,11.9562]]]}},{"type":"Feature","bbox":[79.49527,11.9481,79.4997,11.95601],"properties":{"ward":3},"geometry":{"type":"Polygon","coordinates":[[[79.49571,11.95592],[79.49957,11.95351],[79.4997,11.95115],[79.49596,11.95134],[79.49595,11.94812],[79.49528,11.9481],[79.49527,11.95601],[79.49571,11.95592]]]}},{"type":"Feature","bbox":[79.49394,11.94928,79.51537,11.95989],"properties":{"ward":4},"geometry":{"type":"Polygon","coordinates":[[[79.51485,11.95774],[79.51537,11.95638],[79.51339,11.95538],[79.51235,11.9541],[79.51173,11.95269],[79.51321,11.95267],[79.51327,11.94985],[79.51137,11.94951],[79.50988,11.95013],[79.50852,11.95011],[79.5071,11.94953],[79.50653,11.95007],[79.50527,11.95007],[79.5041,11.94928],[79.50264,11.94997],[79.50214,11.95146],[79.50204,11.95276],[79.50063,11.95284],[79.49571,11.95592],[79.49394,11.95628],[79.49548,11.95875],[79.49642,11.95853],[79.50061,11.95822],[79.50151,11.95952],[79.50177,11.95959],[79.50677,11.95965],[79.50964,11.95989],[79.51398,11.9598],[79.51355,11.95942],[79.51485,11.95774]]]}},{"type":"Feature","bbox":[79.51173,11.94019,79.53553,11.95638],"properties":{"ward":5},"geometry":{"type":"Polygon","coordinates":[[[79.52727,11.94338],[79.52554,11.94248],[79.52504,11.94463],[79.52406,11.945],[79.52344,11.94453],[79.52261,11.94452],[79.52186,11.94372],[79.52033,11.94365],[79.52034,11.9431],[79.51929,11.94243],[79.51735,11.94157],[79.5172,11.941],[79.5164,11.94103],[79.51586,11.94019],[79.51375,11.94019],[79.51243,11.9405],[79.51235,11.94426],[79.51335,11.94491],[79.51321,11.95267],[79.51173,11.95269],[79.51235,11.9541],[79.51339,11.95538],[79.51537,11.95638],[79.51703,11.95518],[79.51727,11.95484],[79.51747,11.95263],[79.51734,11.95109],[79.51698,11.94963],[79.51707,11.94906],[79.51832,11.94896],[79.51832,11.94969],[79.51955,11.94999],[79.51957,11.95029],[79.52148,11.95074],[79.52386,11.95081],[79.52392,11.95051],[79.52539,11.95021],[79.52952,11.95008],[79.53033,11.95],[79.53059,11.94969],[79.53196,11.94977],[79.5329,11.94961],[79.5341,11.94858],[79.53553,11.94821],[79.53471,11.9445],[79.53452,11.94447],[79.53425,11.9435],[79.53327,11.9436],[79.53323,11.94337],[79.53291,11.94339],[79.53274,11.94274],[79.53147,11.94283],[79.52988,11.94323],[79.5288,11.94317],[79.52727,11.94338]]]}},{"type":"Feature","bbox":[79.49995,11.93923,79.51335,11.95013],"properties":{"ward":6},"geometry":{"type":"Polygon","coordinates":[[[79.51335,11.94491],[79.51235,11.94426],[79.50749,11.94436],[79.50715,11.93929],[79.50039,11.93923],[79.50046,11.93994],[79.49995,11.94663],[79.50522,11.94595],[79.50557,11.95007],[79.50653,11.95007],[79.5071,11.94953],[79.50852,11.95011],[79.50988,11.95013],[79.51137,11.94951],[79.51327,11.94985],[79.51335,11.94491]]]}},{"type":"Feature","bbox":[79.49779,11.94595,79.50557,11.95351],"properties":{"ward":7},"geometry":{"type":"Polygon","coordinates":[[[79.50527,11.95007],[79.50557,11.95007],[79.50522,11.94595],[79.49995,11.94663],[79.49806,11.94655],[79.49779,11.94943],[79.49977,11.94951],[79.49957,11.95351],[79.50063,11.95284],[79.50204,11.95276],[79.50214,11.95146],[79.50264,11.94997],[79.5041,11.94928],[79.50527,11.95007]]]}},{"type":"Feature","bbox":[79.49369,11.94584,79.49977,11.95134],"properties":{"ward":8},"geometry":{"type":"Polygon","coordinates":[[[79.49596,11.95134],[79.4997,11.95115],[79.49977,11.94951],[79.49779,11.94943],[79.49806,11.94655],[79.49675,11.94653],[79.49674,11.946],[79.49393,11.94584],[79.49369,11.9476],[79.49596,11.94768],[79.49596,11.95134]]]}},{"type":"Feature","bbox":[79.49117,11.94767,79.49596,11.94997],"properties":{"ward":9},"geometry":{"type":"Polygon","coordinates":[[[79.49596,11.94768],[79.49117,11.94767],[79.49122,11.94883],[79.4917,11.94883],[79.4919,11.94997],[79.49317,11.94989],[79.49337,11.94802],[79.49595,11.94812],[79.49596,11.94768]]]}},{"type":"Feature","bbox":[79.48918,11.94522,79.49387,11.94767],"properties":{"ward":10},"geometry":{"type":"Polygon","coordinates":[[[79.49369,11.9476],[79.49387,11.94611],[79.49048,11.94612],[79.49031,11.94547],[79.48934,11.94522],[79.48918,11.94702],[79.49114,11.94703],[79.49117,11.94767],[79.49369,11.9476]]]}},{"type":"Feature","bbox":[79.47114,11.93868,79.48946,11.94612],"properties":{"ward":11},"geometry":{"type":"Polygon","coordinates":[[[79.48908,11.93984],[79.48397,11.94006],[79.4819,11.93868],[79.48038,11.94113],[79.47364,11.94157],[79.47276,11.94185],[79.47114,11.94409],[79.4713,11.94446],[79.47135,11.94603],[79.48925,11.94612],[79.48946,11.94408],[79.48908,11.93984]]]}},{"type":"Feature","bbox":[79.48934,11.9413,79.49469,11.94612],"properties":{"ward":12},"geometry":{"type":"Polygon","coordinates":[[[79.49048,11.94612],[79.49387,11.94611],[79.49393,11.94584],[79.49468,11.94588],[79.49469,11.94562],[79.49448,11.94561],[79.49466,11.94145],[79.49271,11.9413],[79.49254,11.9437],[79.492,11.94368],[79.49202,11.94483],[79.49086,11.94481],[79.48946,11.94408],[79.48934,11.94522],[79.49031,11.94547],[79.49048,11.94612]]]}},{"type":"Feature","bbox":[79.48921,11.94111,79.49271,11.94483],"properties":{"ward":13},"geometry":{"type":"Polygon","coordinates":[[[79.49254,11.9437],[79.49271,11.9413],[79.49209,11.94111],[79.48921,11.9412],[79.48946,11.94408],[79.49086,11.94481],[79.49202,11.94483],[79.492,11.94368],[79.49254,11.9437]]]}},{"type":"Feature","bbox":[79.49448,11.94065,79.49871,11.946],"properties":{"ward":14},"geometry":{"type":"Polygon","coordinates":[[[79.49663,11.94145],[79.49466,11.94145],[79.49448,11.94561],[79.49469,11.94562],[79.49468,11.94588],[79.49674,11.946],[79.49677,11.94536],[79.49802,11.94538],[79.49806,11.94449],[79.49789,11.94449],[79.49796,11.94249],[79.49871,11.9425],[79.49865,11.94065],[79.49663,11.94145]]]}},{"type":"Feature","bbox":[79.49675,11.93772,79.50046,11.94663],"properties":{"ward":15},"geometry":{"type":"Polygon","coordinates":[[[79.49675,11.94653],[79.49995,11.94663],[79.50046,11.93994],[79.50023,11.93772],[79.49951,11.93813],[79.49862,11.93814],[79.49871,11.9425],[79.49796,11.94249],[79.49789,11.94449],[79.49806,11.94449],[79.49802,11.94538],[79.49677,11.94536],[79.49675,11.94653]]]}},{"type":"Feature","bbox":[79.50715,11.93704,79.51235,11.94436],"properties":{"ward":16},"geometry":{"type":"Polygon","coordinates":[[[79.51235,11.94426],[79.51235,11.93817],[79.50908,11.93704],[79.50765,11.93717],[79.50787,11.93921],[79.50715,11.93929],[79.50749,11.94436],[79.51235,11.94426]]]}},{"type":"Feature","bbox":[79.5107,11.93089,79.51984,11.9405],"properties":{"ward":17},"geometry":{"type":"Polygon","coordinates":[[[79.5146,11.93089],[79.51139,11.93201],[79.5107,11.93757],[79.51235,11.93817],[79.51243,11.9405],[79.51375,11.94019],[79.51586,11.94019],[79.51641,11.93966],[79.51773,11.93961],[79.51984,11.9378],[79.51931,11.93662],[79.51919,11.93317],[79.51762,11.93262],[79.51723,11.93126],[79.51647,11.93122],[79.51507,11.93181],[79.5146,11.93089]]]}},{"type":"Feature","bbox":[79.49918,11.92779,79.51139,11.93923],"properties":{"ward":18},"geometry":{"type":"Polygon","coordinates":[[[79.51014,11.93739],[79.5107,11.93757],[79.51139,11.93201],[79.51092,11.92827],[79.50007,11.92779],[79.49995,11.93388],[79.49918,11.93391],[79.49951,11.93813],[79.50023,11.93772],[79.50039,11.93923],[79.50289,11.93922],[79.50263,11.93705],[79.50265,11.93649],[79.50284,11.93631],[79.50662,11.93615],[79.50647,11.93334],[79.5089,11.93324],[79.51009,11.93364],[79.51014,11.93739]]]}},{"type":"Feature","bbox":[79.50265,11.93324,79.51014,11.93922],"properties":{"ward":19},"geometry":{"type":"Polygon","coordinates":[[[79.50908,11.93704],[79.51014,11.93739],[79.51009,11.93364],[79.5089,11.93324],[79.50647,11.93334],[79.50662,11.93615],[79.50284,11.93631],[79.50265,11.93649],[79.50289,11.93922],[79.50787,11.93921],[79.50765,11.93717],[79.50908,11.93704]]]}},{"type":"Feature","bbox":[79.49614,11.93813,79.49865,11.94145],"properties":{"ward":20},"geometry":{"type":"Polygon","coordinates":[[[79.49862,11.93814],[79.49755,11.93813],[79.49758,11.93858],[79.49614,11.93855],[79.49615,11.94142],[79.49663,11.94145],[79.49865,11.94065],[79.49862,11.93814]]]}},{"type":"Feature","bbox":[79.49295,11.93565,79.49758,11.94142],"properties":{"ward":21},"geometry":{"type":"Polygon","coordinates":[[[79.49312,11.94138],[79.49615,11.94142],[79.49614,11.93855],[79.49758,11.93858],[79.49745,11.9365],[79.49723,11.93648],[79.49725,11.93565],[79.49491,11.93566],[79.49473,11.93857],[79.49295,11.93858],[79.49312,11.94138]]]}},{"type":"Feature","bbox":[79.49249,11.93409,79.49573,11.93859],"properties":{"ward":22},"geometry":{"type":"Polygon","coordinates":[[[79.49261,11.93859],[79.49473,11.93857],[79.49491,11.93566],[79.49563,11.93568],[79.49573,11.93409],[79.49398,11.93425],[79.49398,11.93528],[79.49249,11.93528],[79.49261,11.93859]]]}},{"type":"Feature","bbox":[79.49095,11.93172,79.49451,11.94138],"properties":{"ward":23},"geometry":{"type":"Polygon","coordinates":[[[79.49209,11.94111],[79.49312,11.94138],[79.49295,11.93858],[79.49261,11.93859],[79.49249,11.93528],[79.49398,11.93528],[79.49398,11.93425],[79.49451,11.93421],[79.49451,11.93274],[79.49363,11.93202],[79.49214,11.93172],[79.49192,11.93192],[79.49144,11.93323],[79.49114,11.93507],[79.49095,11.93864],[79.49103,11.94115],[79.49209,11.94111]]]}},{"type":"Feature","bbox":[79.4769,11.93507,79.49114,11.9412],"properties":{"ward":24},"geometry":{"type":"Polygon","coordinates":[[[79.48921,11.9412],[79.49103,11.94115],[79.49095,11.93864],[79.49114,11.93507],[79.49034,11.936],[79.48765,11.93603],[79.48496,11.93534],[79.4812,11.93545],[79.48039,11.93551],[79.47984,11.93574],[79.4769,11.93584],[79.47892,11.93669],[79.48397,11.94006],[79.48908,11.93984],[79.48921,11.9412]]]}},{"type":"Feature","bbox":[79.46994,11.93584,79.4819,11.94185],"properties":{"ward":25},"geometry":{"type":"Polygon","coordinates":[[[79.48038,11.94113],[79.4819,11.93868],[79.47892,11.93669],[79.4769,11.93584],[79.47389,11.93588],[79.46994,11.93654],[79.47152,11.93743],[79.47276,11.93738],[79.47368,11.93783],[79.47276,11.94185],[79.47364,11.94157],[79.48038,11.94113]]]}},{"type":"Feature","bbox":[79.44955,11.92635,79.48496,11.93685],"properties":{"ward":26},"geometry":{"type":"Polygon","coordinates":[[[79.48364,11.93036],[79.48265,11.9275],[79.47675,11.92878],[79.4746,11.92905],[79.47288,11.92899],[79.4722,11.92881],[79.46734,11.92635],[79.4658,11.92835],[79.46535,11.92866],[79.46425,11.92902],[79.46159,11.92923],[79.45965,11.92987],[79.45724,11.92986],[79.45603,11.93004],[79.45263,11.92986],[79.45257,11.9288],[79.45102,11.92887],[79.44986,11.92864],[79.44958,11.92922],[79.44955,11.93157],[79.45198,11.93144],[79.45306,11.93153],[79.45329,11.93169],[79.45357,11.93249],[79.45397,11.9328],[79.45491,11.93337],[79.45793,11.93449],[79.45835,11.93476],[79.45833,11.93493],[79.46134,11.93578],[79.46834,11.93685],[79.47389,11.93588],[79.47984,11.93574],[79.48039,11.93551],[79.48496,11.93534],[79.48364,11.93036]]]}},{"type":"Feature","bbox":[79.48412,11.92824,79.50003,11.93603],"properties":{"ward":27},"geometry":{"type":"Polygon","coordinates":[[[79.49998,11.92931],[79.50003,11.92839],[79.49625,11.92824],[79.49049,11.92923],[79.48597,11.93067],[79.4855,11.93087],[79.48412,11.93215],[79.48496,11.93534],[79.48765,11.93603],[79.49034,11.936],[79.49114,11.93507],[79.49144,11.93323],[79.49192,11.93192],[79.49214,11.93172],[79.49219,11.93041],[79.49252,11.93018],[79.49281,11.93],[79.49593,11.92961],[79.49998,11.92931]]]}},{"type":"Feature","bbox":[79.49214,11.92931,79.49998,11.93421],"properties":{"ward":28},"geometry":{"type":"Polygon","coordinates":[[[79.49451,11.93421],[79.49573,11.93409],[79.49565,11.93242],[79.49678,11.931],[79.49997,11.93054],[79.49998,11.92931],[79.49281,11.93],[79.49219,11.93041],[79.49214,11.93172],[79.49363,11.93202],[79.49451,11.93274],[79.49451,11.93421]]]}},{"type":"Feature","bbox":[79.49563,11.93054,79.49997,11.93813],"properties":{"ward":29},"geometry":{"type":"Polygon","coordinates":[[[79.49755,11.93813],[79.49951,11.93813],[79.49918,11.93391],[79.49995,11.93388],[79.49997,11.93054],[79.49678,11.931],[79.49565,11.93242],[79.49563,11.93568],[79.49725,11.93565],[79.49723,11.93648],[79.49745,11.9365],[79.49755,11.93813]]]}},{"type":"Feature","bbox":[79.51092,11.92627,79.53171,11.945],"properties":{"ward":30},"geometry":{"type":"Polygon","coordinates":[[[79.5314,11.93028],[79.53112,11.92628],[79.52895,11.92627],[79.52759,11.92694],[79.52461,11.92717],[79.5231,11.92772],[79.52221,11.92835],[79.52088,11.93006],[79.51935,11.92989],[79.51311,11.92798],[79.51092,11.92827],[79.51139,11.93201],[79.5146,11.93089],[79.51507,11.93181],[79.51647,11.93122],[79.51723,11.93126],[79.51762,11.93262],[79.51919,11.93317],[79.51931,11.93662],[79.51984,11.9378],[79.51773,11.93961],[79.51641,11.93966],[79.51586,11.94019],[79.5164,11.94103],[79.5172,11.941],[79.51735,11.94157],[79.51929,11.94243],[79.52034,11.9431],[79.52033,11.94365],[79.52186,11.94372],[79.52261,11.94452],[79.52344,11.94453],[79.52406,11.945],[79.52504,11.94463],[79.52565,11.94223],[79.52564,11.94085],[79.52546,11.93977],[79.525,11.93886],[79.52433,11.93612],[79.52489,11.93594],[79.5247,11.93547],[79.52678,11.93431],[79.52645,11.9331],[79.52929,11.93292],[79.52984,11.93258],[79.53171,11.93226],[79.5314,11.93028]]]}},{"type":"Feature","bbox":[79.48158,11.92377,79.50007,11.93215],"properties":{"ward":31},"geometry":{"type":"Polygon","coordinates":[[[79.49625,11.92824],[79.50003,11.92839],[79.50007,11.92779],[79.496,11.92644],[79.49503,11.926],[79.49455,11.92537],[79.4938,11.92535],[79.49326,11.92557],[79.49291,11.92597],[79.49257,11.92704],[79.49035,11.92748],[79.49025,11.92515],[79.48994,11.92526],[79.48941,11.92377],[79.48522,11.9239],[79.48158,11.92479],[79.48364,11.93036],[79.48412,11.93215],[79.4855,11.93087],[79.48942,11.92956],[79.49049,11.92923],[79.49625,11.92824]]]}},{"type":"Feature","bbox":[79.47385,11.92264,79.48265,11.92896],"properties":{"ward":32},"geometry":{"type":"Polygon","coordinates":[[[79.47506,11.92382],[79.47385,11.92439],[79.4751,11.92667],[79.47535,11.92764],[79.47532,11.92896],[79.47675,11.92878],[79.48265,11.9275],[79.48058,11.92264],[79.47731,11.92372],[79.47506,11.92382]]]}},{"type":"Feature","bbox":[79.45145,11.91088,79.47535,11.92939],"properties":{"ward":33},"geometry":{"type":"Polygon","coordinates":[[[79.47057,11.91893],[79.46918,11.91707],[79.46759,11.91369],[79.46776,11.9109],[79.46721,11.91095],[79.46589,11.91157],[79.45761,11.91141],[79.45759,11.91118],[79.45693,11.91088],[79.45691,11.91132],[79.4552,11.9114],[79.45499,11.91125],[79.45264,11.91176],[79.45263,11.91192],[79.45145,11.9121],[79.45145,11.91321],[79.45172,11.91353],[79.45211,11.91462],[79.45254,11.91459],[79.45278,11.91541],[79.45318,11.91531],[79.45332,11.91551],[79.45446,11.91552],[79.45592,11.91627],[79.45697,11.91634],[79.45788,11.91668],[79.45849,11.91673],[79.45844,11.91728],[79.45903,11.9191],[79.45899,11.92026],[79.45931,11.92089],[79.45944,11.92202],[79.4592,11.92207],[79.45907,11.92311],[79.45965,11.92374],[79.45985,11.92376],[79.45988,11.92529],[79.46039,11.92537],[79.46091,11.92939],[79.46425,11.92902],[79.46535,11.92866],[79.4658,11.92835],[79.46734,11.92635],[79.4722,11.92881],[79.47288,11.92899],[79.47532,11.92896],[79.47535,11.92764],[79.4751,11.92667],[79.47057,11.91893]]]}},{"type":"Feature","bbox":[79.47057,11.91893,79.47938,11.92439],"properties":{"ward":34},"geometry":{"type":"Polygon","coordinates":[[[79.47592,11.91998],[79.47057,11.91893],[79.47385,11.92439],[79.47506,11.92382],[79.47731,11.92372],[79.47938,11.92303],[79.4787,11.9208],[79.4783,11.92017],[79.47592,11.91998]]]}},{"type":"Feature","bbox":[79.46759,11.9109,79.48058,11.92303],"properties":{"ward":35},"geometry":{"type":"Polygon","coordinates":[[[79.48058,11.92264],[79.47244,11.91127],[79.46972,11.91116],[79.46776,11.9109],[79.46759,11.91369],[79.46918,11.91707],[79.47057,11.91893],[79.47592,11.91998],[79.4783,11.92017],[79.4787,11.9208],[79.47938,11.92303],[79.48058,11.92264]]]}},{"type":"Feature","bbox":[79.48094,11.92147,79.50132,11.92779],"properties":{"ward":36},"geometry":{"type":"Polygon","coordinates":[[[79.50112,11.92308],[79.50132,11.92147],[79.49662,11.9219],[79.4925,11.92211],[79.4904,11.92205],[79.48459,11.92243],[79.48299,11.92268],[79.48094,11.92323],[79.48158,11.92479],[79.48522,11.9239],[79.48941,11.92377],[79.48994,11.92526],[79.49025,11.92515],[79.49035,11.92748],[79.49257,11.92704],[79.49291,11.92597],[79.49326,11.92557],[79.4938,11.92535],[79.49455,11.92537],[79.49503,11.926],[79.496,11.92644],[79.50007,11.92779],[79.5001,11.92714],[79.50112,11.92308]]]}},{"type":"Feature","bbox":[79.50007,11.91375,79.54473,11.93006],"properties":{"ward":37},"geometry":{"type":"Polygon","coordinates":[[[79.54412,11.91438],[79.54473,11.91458],[79.54412,11.91389],[79.54365,11.91375],[79.53815,11.91402],[79.53562,11.91492],[79.53238,11.91632],[79.5302,11.91671],[79.50193,11.91611],[79.50112,11.92308],[79.5001,11.92714],[79.50007,11.92779],[79.51092,11.92827],[79.51311,11.92798],[79.51935,11.92989],[79.52088,11.93006],[79.52221,11.92835],[79.5231,11.92772],[79.52461,11.92717],[79.52759,11.92694],[79.52895,11.92627],[79.53112,11.92628],[79.53072,11.92375],[79.53075,11.92303],[79.53088,11.92286],[79.53145,11.92282],[79.53166,11.91999],[79.53298,11.91991],[79.53683,11.91904],[79.53936,11.91897],[79.54105,11.91875],[79.54213,11.91883],[79.54183,11.91631],[79.54219,11.91625],[79.54219,11.91598],[79.54332,11.91559],[79.54412,11.91438]]]}},{"type":"Feature","bbox":[79.48058,11.91662,79.50191,11.92323],"properties":{"ward":38},"geometry":{"type":"Polygon","coordinates":[[[79.4925,11.92211],[79.50132,11.92147],[79.50191,11.91662],[79.49682,11.91938],[79.49348,11.92001],[79.49265,11.91999],[79.49164,11.91946],[79.49034,11.91984],[79.48758,11.91991],[79.48514,11.92052],[79.48058,11.92264],[79.48094,11.92323],[79.48299,11.92268],[79.48459,11.92243],[79.4904,11.92205],[79.4925,11.92211]]]}},{"type":"Feature","bbox":[79.47244,11.91117,79.50191,11.92264],"properties":{"ward":39},"geometry":{"type":"Polygon","coordinates":[[[79.48758,11.91991],[79.49034,11.91984],[79.49164,11.91946],[79.49265,11.91999],[79.49348,11.92001],[79.49682,11.91938],[79.50191,11.91662],[79.49895,11.91592],[79.49247,11.91503],[79.48589,11.91535],[79.47844,11.91614],[79.47678,11.91481],[79.47644,11.91434],[79.47632,11.91127],[79.47393,11.91117],[79.47244,11.91127],[79.48058,11.92264],[79.48514,11.92052],[79.48758,11.91991]]]}},{"type":"Feature","bbox":[79.48348,11.90919,79.50191,11.91662],"properties":{"ward":40},"geometry":{"type":"Polygon","coordinates":[[[79.49564,11.90956],[79.49502,11.9093],[79.49293,11.90919],[79.49257,11.9097],[79.49114,11.90976],[79.48813,11.91025],[79.48752,11.91058],[79.48602,11.91232],[79.48615,11.91369],[79.48364,11.91423],[79.48348,11.91561],[79.48589,11.91535],[79.49247,11.91503],[79.49895,11.91592],[79.50191,11.91662],[79.49913,11.91473],[79.49564,11.90956]]]}},{"type":"Feature","bbox":[79.47632,11.90159,79.50029,11.91614],"properties":{"ward":41},"geometry":{"type":"Polygon","coordinates":[[[79.47885,11.91134],[79.47632,11.91127],[79.47644,11.91434],[79.47678,11.91481],[79.47844,11.91614],[79.48348,11.91561],[79.48364,11.91423],[79.48615,11.91369],[79.48602,11.91232],[79.48752,11.91058],[79.48813,11.91025],[79.48908,11.91005],[79.49257,11.9097],[79.49293,11.90919],[79.49502,11.9093],[79.49564,11.90956],[79.49912,11.9147],[79.49902,11.91285],[79.50014,11.9121],[79.50029,11.91035],[79.49948,11.90837],[79.49577,11.90159],[79.49451,11.90462],[79.49298,11.90458],[79.49286,11.90475],[79.49128,11.90502],[79.49027,11.90502],[79.48852,11.9058],[79.48747,11.90663],[79.48471,11.90774],[79.48456,11.90854],[79.48467,11.90931],[79.48527,11.91102],[79.48544,11.91238],[79.48452,11.91255],[79.48401,11.91288],[79.48329,11.91303],[79.48322,11.91288],[79.48084,11.91306],[79.4802,11.91296],[79.47885,11.91134]]]}},{"type":"Feature","bbox":[79.49921,11.90827,79.54485,11.91671],"properties":{"ward":42},"geometry":{"type":"Polygon","coordinates":[[[79.49921,11.91469],[79.50191,11.91662],[79.50193,11.91611],[79.5302,11.91671],[79.53238,11.91632],[79.53562,11.91492],[79.53815,11.91402],[79.54365,11.91375],[79.54412,11.91389],[79.54473,11.91458],[79.54462,11.91218],[79.54485,11.91139],[79.54464,11.91049],[79.54428,11.91053],[79.54378,11.90913],[79.54341,11.90892],[79.54295,11.90827],[79.54116,11.90895],[79.53896,11.90947],[79.53641,11.91046],[79.53508,11.91073],[79.53493,11.9109],[79.53252,11.91117],[79.53184,11.91156],[79.53175,11.9114],[79.53039,11.9118],[79.52793,11.91187],[79.52643,11.91154],[79.52447,11.91158],[79.5236,11.91178],[79.51912,11.91144],[79.51748,11.91171],[79.51743,11.91188],[79.51673,11.91189],[79.51665,11.91205],[79.51477,11.91213],[79.51437,11.91235],[79.51382,11.91234],[79.51372,11.91272],[79.51274,11.91286],[79.51215,11.91204],[79.50834,11.91177],[79.50569,11.91118],[79.50299,11.91116],[79.50201,11.91418],[79.50152,11.91415],[79.49921,11.91469]]]}}]}