{"type":"FeatureCollection","features":[{"type":"Feature","bbox":[77.50436,10.45738,77.51309,10.46847],"properties":{"ward":1},"geometry":{"type":"Polygon","coordinates":[[[77.50499,10.46847],[77.51309,10.46478],[77.51165,10.45974],[77.50937,10.45905],[77.50956,10.4585],[77.50913,10.45856],[77.50835,10.45838],[77.50789,10.45814],[77.50723,10.45738],[77.50589,10.45778],[77.50436,10.45776],[77.50496,10.45993],[77.50495,10.46261],[77.50513,10.4644],[77.50574,10.46501],[77.50542,10.46563],[77.50568,10.46563],[77.50621,10.46615],[77.50499,10.46847]]]}},{"type":"Feature","bbox":[77.51171,10.45956,77.51836,10.46473],"properties":{"ward":2},"geometry":{"type":"Polygon","coordinates":[[[77.51171,10.45976],[77.51313,10.46473],[77.51464,10.46395],[77.51535,10.46374],[77.51506,10.46181],[77.51717,10.46167],[77.51836,10.46117],[77.51825,10.46099],[77.51625,10.46135],[77.51617,10.46113],[77.51481,10.46141],[77.51473,10.46124],[77.51385,10.46154],[77.51378,10.46138],[77.5132,10.46149],[77.51249,10.45956],[77.51171,10.45976]]]}},{"type":"Feature","bbox":[77.51311,10.45673,77.52609,10.47567],"properties":{"ward":3},"geometry":{"type":"Polygon","coordinates":[[[77.52308,10.45673],[77.51869,10.46194],[77.51837,10.4612],[77.51679,10.46176],[77.51512,10.46185],[77.51539,10.46376],[77.51467,10.46398],[77.51311,10.46487],[77.51358,10.46585],[77.51464,10.46592],[77.51481,10.46677],[77.51403,10.46734],[77.51504,10.46999],[77.51675,10.47363],[77.51854,10.47463],[77.51868,10.47557],[77.51952,10.47567],[77.52059,10.47087],[77.52118,10.47069],[77.52122,10.47101],[77.52185,10.47101],[77.52214,10.47092],[77.52207,10.4705],[77.5224,10.47076],[77.52438,10.47031],[77.52434,10.46658],[77.52594,10.46678],[77.52609,10.46456],[77.52551,10.46349],[77.5249,10.46158],[77.5236,10.46049],[77.52504,10.45854],[77.52308,10.45673]]]}},{"type":"Feature","bbox":[77.51254,10.45599,77.52299,10.46182],"properties":{"ward":4},"geometry":{"type":"Polygon","coordinates":[[[77.5204,10.45846],[77.51999,10.4588],[77.51962,10.45784],[77.51727,10.45803],[77.51749,10.45861],[77.51254,10.45952],[77.51322,10.46144],[77.51382,10.46134],[77.51385,10.4615],[77.51479,10.46119],[77.51482,10.46137],[77.51619,10.46109],[77.51629,10.46129],[77.51832,10.46091],[77.51873,10.46182],[77.52299,10.4567],[77.52232,10.45599],[77.52075,10.45793],[77.52094,10.45813],[77.52063,10.45859],[77.5204,10.45846]]]}},{"type":"Feature","bbox":[77.51195,10.45468,77.51742,10.4589],"properties":{"ward":5},"geometry":{"type":"Polygon","coordinates":[[[77.51742,10.45853],[77.51587,10.45468],[77.51199,10.4549],[77.51195,10.45599],[77.51302,10.45598],[77.51302,10.45665],[77.5134,10.45725],[77.51441,10.45674],[77.51501,10.45679],[77.51541,10.4589],[77.51742,10.45853]]]}},{"type":"Feature","bbox":[77.50943,10.45678,77.51533,10.45971],"properties":{"ward":6},"geometry":{"type":"Polygon","coordinates":[[[77.51337,10.4573],[77.51225,10.45832],[77.51102,10.45834],[77.51084,10.45799],[77.51003,10.45776],[77.50943,10.45901],[77.51169,10.45971],[77.51533,10.45894],[77.51499,10.45683],[77.51441,10.45678],[77.51337,10.4573]]]}},{"type":"Feature","bbox":[77.50507,10.45678,77.5101,10.45848],"properties":{"ward":7},"geometry":{"type":"Polygon","coordinates":[[[77.50523,10.45778],[77.50728,10.45736],[77.50792,10.45809],[77.50893,10.45848],[77.50944,10.45846],[77.5101,10.45733],[77.50775,10.45678],[77.50507,10.45706],[77.50523,10.45778]]]}},{"type":"Feature","bbox":[77.50381,10.45465,77.50654,10.45774],"properties":{"ward":8},"geometry":{"type":"Polygon","coordinates":[[[77.50391,10.45704],[77.50436,10.45765],[77.50514,10.45774],[77.505,10.45696],[77.50654,10.45688],[77.50647,10.45627],[77.50612,10.45624],[77.50618,10.45594],[77.50644,10.45588],[77.50625,10.45528],[77.50592,10.45529],[77.50583,10.45465],[77.50435,10.45477],[77.50381,10.45595],[77.50391,10.45704]]]}},{"type":"Feature","bbox":[77.50586,10.45433,77.5077,10.45686],"properties":{"ward":9},"geometry":{"type":"Polygon","coordinates":[[[77.5077,10.45433],[77.50586,10.45464],[77.50598,10.45526],[77.50626,10.45519],[77.50645,10.45586],[77.50618,10.45615],[77.50656,10.45627],[77.50659,10.45686],[77.50766,10.4567],[77.5077,10.45433]]]}},{"type":"Feature","bbox":[77.50778,10.45409,77.51066,10.45727],"properties":{"ward":10},"geometry":{"type":"Polygon","coordinates":[[[77.50778,10.45429],[77.50784,10.4567],[77.51006,10.45727],[77.51066,10.4562],[77.50949,10.45594],[77.50951,10.45537],[77.50923,10.45493],[77.50883,10.4548],[77.50865,10.45409],[77.50778,10.45429]]]}},{"type":"Feature","bbox":[77.50869,10.4537,77.51138,10.45613],"properties":{"ward":11},"geometry":{"type":"Polygon","coordinates":[[[77.50869,10.45407],[77.50898,10.45477],[77.5095,10.45521],[77.50952,10.45589],[77.51069,10.45613],[77.51138,10.45442],[77.51078,10.45437],[77.51047,10.45411],[77.50969,10.45437],[77.50937,10.4537],[77.50869,10.45407]]]}},{"type":"Feature","bbox":[77.51005,10.45486,77.51336,10.45831],"properties":{"ward":12},"geometry":{"type":"Polygon","coordinates":[[[77.51196,10.45491],[77.5114,10.45486],[77.51005,10.45771],[77.51086,10.45796],[77.51105,10.45831],[77.51225,10.45826],[77.51336,10.45727],[77.51299,10.45667],[77.51298,10.45599],[77.51192,10.45602],[77.51196,10.45491]]]}},{"type":"Feature","bbox":[77.51593,10.4542,77.51956,10.45794],"properties":{"ward":13},"geometry":{"type":"Polygon","coordinates":[[[77.51956,10.45774],[77.51907,10.45603],[77.5179,10.4542],[77.51593,10.45469],[77.5165,10.4563],[77.5173,10.45794],[77.51956,10.45774]]]}},{"type":"Feature","bbox":[77.51804,10.45276,77.52464,10.45871],"properties":{"ward":14},"geometry":{"type":"Polygon","coordinates":[[[77.51998,10.45399],[77.51804,10.45427],[77.5192,10.45601],[77.52,10.45871],[77.5204,10.45839],[77.52058,10.4585],[77.5209,10.45815],[77.52067,10.45793],[77.52193,10.45652],[77.52232,10.45565],[77.52395,10.45392],[77.52464,10.45341],[77.5238,10.45276],[77.5228,10.45384],[77.51998,10.45399]]]}},{"type":"Feature","bbox":[77.52378,10.4482,77.52796,10.45358],"properties":{"ward":15},"geometry":{"type":"Polygon","coordinates":[[[77.52646,10.4482],[77.5245,10.44849],[77.52464,10.4498],[77.52429,10.45017],[77.52419,10.45067],[77.52433,10.45124],[77.52424,10.45217],[77.52382,10.45226],[77.52378,10.45264],[77.52499,10.45357],[77.5254,10.45358],[77.52796,10.45217],[77.52646,10.4482]]]}},{"type":"Feature","bbox":[77.52152,10.44852,77.52458,10.45384],"properties":{"ward":16},"geometry":{"type":"Polygon","coordinates":[[[77.52375,10.45266],[77.52377,10.45222],[77.52419,10.45215],[77.52428,10.45121],[77.52416,10.45016],[77.52458,10.44977],[77.52444,10.44852],[77.52165,10.44855],[77.52152,10.44956],[77.52183,10.45384],[77.52275,10.45378],[77.52375,10.45266]]]}},{"type":"Feature","bbox":[77.51624,10.44855,77.52172,10.45411],"properties":{"ward":17},"geometry":{"type":"Polygon","coordinates":[[[77.52172,10.45379],[77.52144,10.44948],[77.52157,10.44855],[77.51996,10.44875],[77.51624,10.45007],[77.51669,10.45199],[77.51804,10.45411],[77.51981,10.45385],[77.52172,10.45379]]]}},{"type":"Feature","bbox":[77.51302,10.45073,77.51791,10.45472],"properties":{"ward":18},"geometry":{"type":"Polygon","coordinates":[[[77.51434,10.45073],[77.51302,10.45135],[77.51325,10.45213],[77.51361,10.45211],[77.5137,10.45345],[77.5139,10.45345],[77.51405,10.45472],[77.51582,10.45464],[77.51791,10.45413],[77.51649,10.4517],[77.51476,10.45224],[77.51434,10.45073]]]}},{"type":"Feature","bbox":[77.51136,10.45141,77.51394,10.45475],"properties":{"ward":19},"geometry":{"type":"Polygon","coordinates":[[[77.51136,10.45475],[77.51394,10.45467],[77.51385,10.45353],[77.51359,10.45347],[77.51353,10.45218],[77.51315,10.45217],[77.51287,10.45141],[77.51136,10.45475]]]}},{"type":"Feature","bbox":[77.50944,10.45139,77.5128,10.45435],"properties":{"ward":20},"geometry":{"type":"Polygon","coordinates":[[[77.50944,10.4537],[77.50974,10.45427],[77.51054,10.45407],[77.51084,10.45433],[77.5114,10.45435],[77.5128,10.45139],[77.51148,10.45216],[77.50944,10.4537]]]}},{"type":"Feature","bbox":[77.5045,10.45137,77.50776,10.45467],"properties":{"ward":21},"geometry":{"type":"Polygon","coordinates":[[[77.5045,10.45467],[77.50776,10.45421],[77.50764,10.45354],[77.50722,10.45293],[77.50696,10.45157],[77.50679,10.45137],[77.50625,10.45165],[77.50594,10.45213],[77.50527,10.45359],[77.5045,10.45467]]]}},{"type":"Feature","bbox":[77.50691,10.45121,77.50828,10.45416],"properties":{"ward":22},"geometry":{"type":"Polygon","coordinates":[[[77.50691,10.45132],[77.50719,10.45266],[77.50767,10.45356],[77.50777,10.45416],[77.50828,10.45408],[77.50809,10.45274],[77.50782,10.45271],[77.50803,10.45235],[77.50788,10.45202],[77.50772,10.45198],[77.50762,10.45166],[77.50745,10.45169],[77.50729,10.45121],[77.50691,10.45132]]]}},{"type":"Feature","bbox":[77.50731,10.45078,77.5088,10.45406],"properties":{"ward":23},"geometry":{"type":"Polygon","coordinates":[[[77.50731,10.45109],[77.50747,10.45166],[77.50766,10.45164],[77.50808,10.45238],[77.50788,10.45268],[77.50815,10.45276],[77.50812,10.45332],[77.50833,10.45406],[77.5088,10.45397],[77.5086,10.45314],[77.50861,10.4527],[77.50874,10.45265],[77.50863,10.45171],[77.50824,10.45179],[77.50802,10.45078],[77.50731,10.45109]]]}},{"type":"Feature","bbox":[77.50807,10.4499,77.51065,10.45388],"properties":{"ward":24},"geometry":{"type":"Polygon","coordinates":[[[77.50807,10.45079],[77.50827,10.45173],[77.50869,10.45166],[77.50883,10.45388],[77.51065,10.45273],[77.51039,10.4524],[77.51004,10.45234],[77.50984,10.45117],[77.50943,10.45077],[77.50924,10.4508],[77.5089,10.45036],[77.50881,10.4499],[77.50838,10.45062],[77.50807,10.45079]]]}},{"type":"Feature","bbox":[77.50882,10.44936,77.51434,10.45265],"properties":{"ward":25},"geometry":{"type":"Polygon","coordinates":[[[77.51072,10.45265],[77.51173,10.45188],[77.51434,10.45051],[77.51423,10.45021],[77.51253,10.45037],[77.51219,10.44996],[77.51106,10.44991],[77.50963,10.44936],[77.50882,10.44972],[77.50896,10.45037],[77.50991,10.45113],[77.5101,10.45227],[77.51046,10.45231],[77.51072,10.45265]]]}},{"type":"Feature","bbox":[77.51441,10.44637,77.52413,10.4521],"properties":{"ward":26},"geometry":{"type":"Polygon","coordinates":[[[77.51709,10.44719],[77.51675,10.44764],[77.51523,10.44717],[77.51441,10.45053],[77.51488,10.4521],[77.5165,10.45161],[77.51618,10.4499],[77.51954,10.44871],[77.52413,10.44824],[77.52404,10.44714],[77.52153,10.44757],[77.52147,10.44742],[77.52061,10.44744],[77.52055,10.44637],[77.5187,10.44649],[77.51867,10.44711],[77.51709,10.44719]]]}},{"type":"Feature","bbox":[77.52051,10.44482,77.52639,10.4483],"properties":{"ward":27},"geometry":{"type":"Polygon","coordinates":[[[77.52442,10.44829],[77.52639,10.44799],[77.52556,10.44641],[77.52588,10.44625],[77.52605,10.44582],[77.52578,10.44482],[77.52285,10.44555],[77.52132,10.44549],[77.52133,10.44582],[77.52065,10.44585],[77.52072,10.4463],[77.52051,10.4464],[77.52061,10.4474],[77.52145,10.44733],[77.52159,10.44746],[77.52333,10.44706],[77.52334,10.4483],[77.52442,10.44829]]]}},{"type":"Feature","bbox":[77.51912,10.44471,77.5213,10.44634],"properties":{"ward":28},"geometry":{"type":"Polygon","coordinates":[[[77.51912,10.44507],[77.51927,10.44634],[77.52065,10.44625],[77.52068,10.44585],[77.5213,10.44583],[77.52126,10.44496],[77.52035,10.44471],[77.51912,10.44507]]]}},{"type":"Feature","bbox":[77.51658,10.44424,77.51925,10.44751],"properties":{"ward":29},"geometry":{"type":"Polygon","coordinates":[[[77.5172,10.44591],[77.51658,10.4474],[77.51676,10.44751],[77.51716,10.44711],[77.51863,10.4471],[77.51865,10.4464],[77.51925,10.44634],[77.51905,10.44501],[77.51853,10.44424],[77.5172,10.44591]]]}},{"type":"Feature","bbox":[77.5109,10.43858,77.51647,10.44498],"properties":{"ward":30},"geometry":{"type":"Polygon","coordinates":[[[77.51552,10.44043],[77.51552,10.43889],[77.5152,10.43927],[77.51468,10.43925],[77.51419,10.43903],[77.51382,10.43858],[77.51288,10.43934],[77.51227,10.44009],[77.51174,10.44018],[77.5109,10.44076],[77.51231,10.4423],[77.51388,10.44332],[77.51418,10.44402],[77.51522,10.44445],[77.51562,10.44498],[77.51586,10.44458],[77.51647,10.44201],[77.51636,10.44061],[77.51552,10.44043]]]}},{"type":"Feature","bbox":[77.51556,10.43577,77.52451,10.44587],"properties":{"ward":31},"geometry":{"type":"Polygon","coordinates":[[[77.51654,10.44201],[77.51573,10.4451],[77.51685,10.44521],[77.51724,10.44587],[77.51797,10.44478],[77.51955,10.443],[77.52015,10.44255],[77.52051,10.44248],[77.52423,10.4429],[77.52383,10.44186],[77.52425,10.43972],[77.52451,10.4391],[77.52448,10.43859],[77.52407,10.43841],[77.52402,10.43697],[77.5237,10.43652],[77.5229,10.436],[77.52151,10.43577],[77.52109,10.43581],[77.52074,10.43607],[77.51883,10.43671],[77.51766,10.43617],[77.51696,10.43615],[77.51647,10.437],[77.51647,10.43752],[77.51556,10.43885],[77.5156,10.44039],[77.51639,10.44055],[77.51654,10.44201]]]}},{"type":"Feature","bbox":[77.51857,10.44258,77.52162,10.44503],"properties":{"ward":32},"geometry":{"type":"Polygon","coordinates":[[[77.51857,10.44419],[77.51919,10.44503],[77.52021,10.44469],[77.52146,10.44492],[77.52147,10.44305],[77.52162,10.44268],[77.52016,10.44258],[77.51857,10.44419]]]}},{"type":"Feature","bbox":[77.5213,10.44267,77.52519,10.44553],"properties":{"ward":33},"geometry":{"type":"Polygon","coordinates":[[[77.52149,10.44491],[77.5213,10.44499],[77.52135,10.44547],[77.5228,10.44553],[77.52518,10.44503],[77.52519,10.44492],[77.52489,10.44368],[77.52431,10.44295],[77.52168,10.44267],[77.5215,10.44306],[77.52149,10.44491]]]}}]}