{"type":"FeatureCollection","features":[{"type":"Feature","bbox":[79.6252,10.5368,79.63338,10.54179],"properties":{"ward":1},"geometry":{"type":"Polygon","coordinates":[[[79.63278,10.5368],[79.63162,10.53825],[79.6252,10.53846],[79.62523,10.53995],[79.63085,10.5398],[79.63025,10.54171],[79.63274,10.54179],[79.63206,10.54134],[79.63256,10.53873],[79.63338,10.53685],[79.63278,10.5368]]]}},{"type":"Feature","bbox":[79.62523,10.53981,79.63274,10.54386],"properties":{"ward":2},"geometry":{"type":"Polygon","coordinates":[[[79.62523,10.53997],[79.62523,10.54242],[79.62802,10.54246],[79.62822,10.54293],[79.62813,10.54346],[79.62958,10.54386],[79.63015,10.54354],[79.63037,10.54373],[79.63274,10.54181],[79.63023,10.54172],[79.63083,10.53981],[79.62523,10.53997]]]}},{"type":"Feature","bbox":[79.63039,10.53649,79.63643,10.54459],"properties":{"ward":3},"geometry":{"type":"Polygon","coordinates":[[[79.63039,10.54373],[79.63046,10.54405],[79.63643,10.54459],[79.63534,10.54125],[79.63506,10.54114],[79.63421,10.53832],[79.63396,10.53649],[79.63341,10.53686],[79.63259,10.53872],[79.63208,10.54134],[79.63276,10.5418],[79.63039,10.54373]]]}},{"type":"Feature","bbox":[79.63398,10.53518,79.63844,10.54525],"properties":{"ward":4},"geometry":{"type":"Polygon","coordinates":[[[79.63398,10.53561],[79.63678,10.54449],[79.63699,10.54419],[79.63738,10.54492],[79.63844,10.54525],[79.63623,10.53631],[79.63726,10.53568],[79.63606,10.53575],[79.63569,10.53518],[79.63398,10.53561]]]}},{"type":"Feature","bbox":[79.6357,10.53272,79.64365,10.54618],"properties":{"ward":5},"geometry":{"type":"Polygon","coordinates":[[[79.63628,10.53633],[79.63866,10.54615],[79.6397,10.54618],[79.63975,10.54348],[79.63936,10.54316],[79.63979,10.54254],[79.64365,10.54262],[79.6435,10.53952],[79.63916,10.53973],[79.63919,10.53949],[79.63996,10.53956],[79.64114,10.53537],[79.63803,10.53505],[79.63823,10.53399],[79.63871,10.53286],[79.63854,10.53272],[79.63796,10.53414],[79.63783,10.53515],[79.63741,10.53511],[79.63742,10.53421],[79.63601,10.53405],[79.6357,10.53513],[79.63608,10.53571],[79.6373,10.53567],[79.63628,10.53633]]]}},{"type":"Feature","bbox":[79.63746,10.5376,79.65493,10.55392],"properties":{"ward":6},"geometry":{"type":"Polygon","coordinates":[[[79.63973,10.54617],[79.64038,10.54623],[79.64019,10.54724],[79.6397,10.54801],[79.63927,10.54756],[79.63907,10.54765],[79.63746,10.54929],[79.63802,10.5507],[79.63802,10.55182],[79.63872,10.55392],[79.63945,10.55377],[79.64068,10.55223],[79.64263,10.55065],[79.64439,10.54962],[79.64602,10.5491],[79.64948,10.54852],[79.651,10.54808],[79.65207,10.54806],[79.65277,10.54691],[79.65493,10.5458],[79.65455,10.54257],[79.65461,10.54166],[79.64751,10.54278],[79.6464,10.5376],[79.6435,10.53784],[79.64367,10.54263],[79.63979,10.54256],[79.63939,10.54315],[79.63977,10.54346],[79.63973,10.54617]]]}},{"type":"Feature","bbox":[79.63805,10.53287,79.64521,10.53972],"properties":{"ward":7},"geometry":{"type":"Polygon","coordinates":[[[79.63873,10.53287],[79.63823,10.53398],[79.63805,10.53503],[79.64117,10.53535],[79.63996,10.53958],[79.63921,10.5395],[79.63917,10.53972],[79.64351,10.5395],[79.64345,10.5378],[79.64521,10.53762],[79.64511,10.5342],[79.64116,10.53424],[79.63873,10.53287]]]}},{"type":"Feature","bbox":[79.63424,10.53127,79.63853,10.53553],"properties":{"ward":8},"geometry":{"type":"Polygon","coordinates":[[[79.63795,10.53413],[79.63853,10.53271],[79.63708,10.53242],[79.63732,10.53127],[79.63585,10.53177],[79.6351,10.53229],[79.63474,10.53276],[79.63424,10.53553],[79.63567,10.53515],[79.63599,10.53405],[79.63745,10.53419],[79.63742,10.5351],[79.63783,10.53514],[79.63795,10.53413]]]}},{"type":"Feature","bbox":[79.63709,10.53153,79.64225,10.53422],"properties":{"ward":9},"geometry":{"type":"Polygon","coordinates":[[[79.63711,10.53231],[79.63709,10.53242],[79.63853,10.5327],[79.64117,10.53422],[79.64204,10.53421],[79.64225,10.53315],[79.64138,10.53242],[79.63896,10.53153],[79.63822,10.53244],[79.63711,10.53231]]]}},{"type":"Feature","bbox":[79.64147,10.53199,79.65466,10.54277],"properties":{"ward":10},"geometry":{"type":"Polygon","coordinates":[[[79.64147,10.53248],[79.64226,10.53313],[79.64206,10.53421],[79.64513,10.53417],[79.64525,10.53768],[79.64642,10.53759],[79.64753,10.54277],[79.65457,10.54163],[79.65466,10.5414],[79.65296,10.53946],[79.65291,10.53813],[79.65246,10.53733],[79.65082,10.53636],[79.64955,10.53382],[79.64851,10.53309],[79.64737,10.53239],[79.64432,10.53219],[79.64385,10.53199],[79.64184,10.53216],[79.64147,10.53248]]]}},{"type":"Feature","bbox":[79.6448,10.52987,79.64772,10.53209],"properties":{"ward":11},"geometry":{"type":"Polygon","coordinates":[[[79.64516,10.53199],[79.64743,10.53209],[79.64772,10.53069],[79.64757,10.52987],[79.64592,10.52993],[79.6448,10.53024],[79.64487,10.53108],[79.64526,10.53164],[79.64516,10.53199]]]}},{"type":"Feature","bbox":[79.64184,10.53021,79.64743,10.53239],"properties":{"ward":12},"geometry":{"type":"Polygon","coordinates":[[[79.64351,10.53176],[79.64184,10.53191],[79.64184,10.53215],[79.64386,10.53199],[79.64434,10.53219],[79.64739,10.53239],[79.64743,10.5321],[79.64514,10.532],[79.64522,10.53164],[79.64486,10.53111],[79.64475,10.53021],[79.64352,10.53029],[79.64335,10.5309],[79.64351,10.53176]]]}},{"type":"Feature","bbox":[79.64156,10.53006,79.64351,10.53192],"properties":{"ward":13},"geometry":{"type":"Polygon","coordinates":[[[79.64181,10.53192],[79.6435,10.53175],[79.64333,10.53088],[79.64351,10.53029],[79.64162,10.53006],[79.64156,10.53177],[79.64181,10.53192]]]}},{"type":"Feature","bbox":[79.63712,10.52997,79.64183,10.53247],"properties":{"ward":14},"geometry":{"type":"Polygon","coordinates":[[[79.63712,10.5323],[79.6382,10.53242],[79.63828,10.53224],[79.63846,10.53226],[79.63897,10.5315],[79.64147,10.53247],[79.64183,10.53214],[79.64182,10.53194],[79.64154,10.53176],[79.64158,10.53003],[79.64007,10.52997],[79.63938,10.53023],[79.63842,10.53086],[79.6375,10.53115],[79.63735,10.53127],[79.63712,10.5323]]]}},{"type":"Feature","bbox":[79.63169,10.52905,79.63859,10.53558],"properties":{"ward":15},"geometry":{"type":"Polygon","coordinates":[[[79.63566,10.5317],[79.63859,10.53055],[79.63827,10.53019],[79.63841,10.5296],[79.63768,10.52905],[79.63169,10.52906],[79.63384,10.53558],[79.63418,10.53548],[79.63457,10.53274],[79.63482,10.53231],[79.63566,10.5317]]]}},{"type":"Feature","bbox":[79.62509,10.52058,79.63376,10.53843],"properties":{"ward":16},"geometry":{"type":"Polygon","coordinates":[[[79.6252,10.53843],[79.63162,10.53821],[79.63275,10.53677],[79.63313,10.53678],[79.63376,10.5361],[79.63373,10.53564],[79.62895,10.52058],[79.62798,10.5208],[79.62662,10.5206],[79.62541,10.52123],[79.62719,10.53181],[79.62509,10.53635],[79.6252,10.53843]]]}},{"type":"Feature","bbox":[79.63087,10.52551,79.6377,10.52904],"properties":{"ward":17},"geometry":{"type":"Polygon","coordinates":[[[79.63087,10.52609],[79.63169,10.52902],[79.63767,10.52904],[79.6377,10.52876],[79.63735,10.5287],[79.6377,10.52673],[79.63674,10.52595],[79.63441,10.52554],[79.63441,10.5259],[79.63339,10.52597],[79.63323,10.52551],[79.63087,10.52609]]]}},{"type":"Feature","bbox":[79.63728,10.52637,79.64004,10.53053],"properties":{"ward":18},"geometry":{"type":"Polygon","coordinates":[[[79.63859,10.53053],[79.64004,10.52992],[79.63968,10.52826],[79.63957,10.52662],[79.63728,10.52637],[79.63772,10.52672],[79.63738,10.52868],[79.63773,10.52874],[79.63769,10.52903],[79.63844,10.5296],[79.63831,10.5302],[79.63859,10.53053]]]}},{"type":"Feature","bbox":[79.63991,10.52767,79.64616,10.53016],"properties":{"ward":19},"geometry":{"type":"Polygon","coordinates":[[[79.63991,10.52886],[79.64006,10.5299],[79.64089,10.52976],[79.64252,10.53012],[79.64425,10.53016],[79.64588,10.52971],[79.64616,10.52945],[79.64577,10.5281],[79.64458,10.5281],[79.6436,10.52855],[79.64207,10.52826],[79.64154,10.5288],[79.64122,10.52884],[79.64124,10.52781],[79.64056,10.52767],[79.64043,10.52769],[79.64057,10.52878],[79.63991,10.52886]]]}},{"type":"Feature","bbox":[79.64477,10.51664,79.65557,10.52991],"properties":{"ward":20},"geometry":{"type":"Polygon","coordinates":[[[79.64488,10.5281],[79.64581,10.52807],[79.64616,10.52909],[79.64609,10.52991],[79.64755,10.52984],[79.6474,10.52907],[79.64693,10.52896],[79.64693,10.52828],[79.64802,10.52797],[79.64921,10.52648],[79.65025,10.52611],[79.65117,10.5262],[79.65191,10.52573],[79.65241,10.52411],[79.65222,10.52261],[79.65285,10.52122],[79.65557,10.5213],[79.65555,10.52047],[79.65274,10.51982],[79.65414,10.51722],[79.65277,10.51683],[79.65071,10.51664],[79.65063,10.51726],[79.64997,10.51726],[79.64803,10.52008],[79.6478,10.52008],[79.64568,10.52267],[79.64493,10.52406],[79.64477,10.52737],[79.64488,10.5281]]]}},{"type":"Feature","bbox":[79.63896,10.50817,79.64862,10.52885],"properties":{"ward":21},"geometry":{"type":"Polygon","coordinates":[[[79.63937,10.51921],[79.63969,10.52826],[79.6399,10.52885],[79.64055,10.52875],[79.6404,10.52769],[79.64057,10.52764],[79.64125,10.52778],[79.64123,10.52881],[79.64154,10.52877],[79.64207,10.52824],[79.6436,10.52854],[79.64469,10.52807],[79.64458,10.52737],[79.64475,10.52391],[79.64609,10.52173],[79.64662,10.52126],[79.64755,10.51995],[79.64778,10.51352],[79.64862,10.51277],[79.64812,10.511],[79.64815,10.50817],[79.63896,10.5188],[79.63937,10.51921]]]}},{"type":"Feature","bbox":[79.63323,10.51889,79.63954,10.52657],"properties":{"ward":22},"geometry":{"type":"Polygon","coordinates":[[[79.63323,10.5255],[79.63339,10.52595],[79.6344,10.52587],[79.63441,10.52552],[79.63675,10.52592],[79.63727,10.52633],[79.63954,10.52657],[79.63933,10.51926],[79.63896,10.51889],[79.63323,10.5255]]]}},{"type":"Feature","bbox":[79.62908,10.51254,79.63891,10.52604],"properties":{"ward":23},"geometry":{"type":"Polygon","coordinates":[[[79.63392,10.51254],[79.63365,10.51292],[79.6337,10.51365],[79.63454,10.51385],[79.63505,10.51579],[79.63377,10.51676],[79.63258,10.5169],[79.63231,10.51779],[79.63205,10.51806],[79.63182,10.51915],[79.63022,10.51925],[79.63047,10.5204],[79.62908,10.52061],[79.63086,10.52604],[79.63318,10.52546],[79.63891,10.51844],[79.63392,10.51254]]]}},{"type":"Feature","bbox":[79.634,10.49455,79.64828,10.51828],"properties":{"ward":24},"geometry":{"type":"Polygon","coordinates":[[[79.634,10.51246],[79.6358,10.51416],[79.63909,10.51828],[79.64807,10.50785],[79.64828,10.49455],[79.63854,10.49667],[79.63834,10.49997],[79.63971,10.50087],[79.6406,10.49886],[79.64267,10.49882],[79.64243,10.50114],[79.64119,10.50259],[79.63934,10.5037],[79.63924,10.50571],[79.63874,10.50743],[79.63834,10.50859],[79.63723,10.50855],[79.63683,10.51102],[79.63618,10.51114],[79.6356,10.5119],[79.63521,10.51185],[79.63473,10.51255],[79.63414,10.51231],[79.634,10.51246]]]}}]}