{"type":"FeatureCollection","features":[{"type":"Feature","bbox":[77.77649,9.9689,77.78664,9.97609],"properties":{"ward":1},"geometry":{"type":"Polygon","coordinates":[[[77.78641,9.97071],[77.78606,9.96907],[77.78542,9.9692],[77.78522,9.9689],[77.78235,9.96939],[77.78143,9.97028],[77.7809,9.97049],[77.77931,9.97041],[77.77742,9.97089],[77.77684,9.9722],[77.77649,9.97372],[77.77743,9.97507],[77.77895,9.97609],[77.78042,9.97404],[77.78374,9.97386],[77.7856,9.97337],[77.78531,9.97294],[77.78518,9.97151],[77.78664,9.9714],[77.78663,9.97076],[77.78641,9.97071]]]}},{"type":"Feature","bbox":[77.78176,9.96658,77.78649,9.96936],"properties":{"ward":2},"geometry":{"type":"Polygon","coordinates":[[[77.7858,9.96658],[77.78382,9.96739],[77.78176,9.96775],[77.7821,9.96936],[77.78529,9.96888],[77.7855,9.96918],[77.7862,9.96895],[77.78649,9.96826],[77.7858,9.96658]]]}},{"type":"Feature","bbox":[77.77691,9.96772,77.78217,9.97085],"properties":{"ward":3},"geometry":{"type":"Polygon","coordinates":[[[77.78217,9.96948],[77.7819,9.96898],[77.78168,9.96782],[77.77823,9.96811],[77.77778,9.96809],[77.77774,9.96772],[77.77708,9.96803],[77.77691,9.96829],[77.77711,9.97033],[77.77735,9.97085],[77.77937,9.97035],[77.78084,9.97044],[77.7814,9.97022],[77.78217,9.96948]]]}},{"type":"Feature","bbox":[77.77781,9.96515,77.78406,9.96806],"properties":{"ward":4},"geometry":{"type":"Polygon","coordinates":[[[77.77786,9.96806],[77.78125,9.96779],[77.78371,9.96737],[77.78358,9.96645],[77.78406,9.96636],[77.78397,9.96516],[77.78142,9.96515],[77.78096,9.96582],[77.77999,9.966],[77.77988,9.96633],[77.77816,9.96655],[77.77781,9.9675],[77.77786,9.96806]]]}},{"type":"Feature","bbox":[77.78362,9.96579,77.78589,9.96733],"properties":{"ward":5},"geometry":{"type":"Polygon","coordinates":[[[77.78589,9.96635],[77.78585,9.96579],[77.78404,9.96598],[77.7841,9.96641],[77.78362,9.96648],[77.78376,9.96733],[77.78589,9.96635]]]}},{"type":"Feature","bbox":[77.784,9.96393,77.78846,9.9663],"properties":{"ward":6},"geometry":{"type":"Polygon","coordinates":[[[77.78602,9.9663],[77.78846,9.96496],[77.78836,9.96393],[77.7863,9.96433],[77.78638,9.96495],[77.78587,9.96511],[77.78568,9.9654],[77.784,9.9655],[77.78402,9.96595],[77.78589,9.96579],[77.78602,9.9663]]]}},{"type":"Feature","bbox":[77.7783,9.95973,77.78545,9.96542],"properties":{"ward":7},"geometry":{"type":"Polygon","coordinates":[[[77.77933,9.96094],[77.7783,9.96113],[77.77961,9.96231],[77.78087,9.96247],[77.78128,9.96282],[77.78152,9.96323],[77.78163,9.96503],[77.78401,9.96508],[77.78406,9.96542],[77.78545,9.96525],[77.78526,9.96404],[77.78476,9.96403],[77.78463,9.96157],[77.7817,9.95976],[77.78072,9.95973],[77.77933,9.96094]]]}},{"type":"Feature","bbox":[77.77914,9.96235,77.78159,9.96609],"properties":{"ward":8},"geometry":{"type":"Polygon","coordinates":[[[77.77948,9.96235],[77.77914,9.96285],[77.77984,9.96609],[77.78024,9.96585],[77.78093,9.96576],[77.78133,9.96516],[77.78159,9.96508],[77.78141,9.96307],[77.78092,9.96257],[77.77948,9.96235]]]}},{"type":"Feature","bbox":[77.776,9.96032,77.77983,9.96646],"properties":{"ward":9},"geometry":{"type":"Polygon","coordinates":[[[77.77827,9.96115],[77.77734,9.96086],[77.77674,9.96032],[77.776,9.96139],[77.77603,9.96192],[77.77704,9.96223],[77.77762,9.963],[77.77809,9.96535],[77.77809,9.96646],[77.77932,9.96641],[77.77983,9.96625],[77.77934,9.96443],[77.77911,9.96283],[77.77943,9.96233],[77.77827,9.96115]]]}},{"type":"Feature","bbox":[77.78171,9.95138,77.78906,9.96535],"properties":{"ward":10},"geometry":{"type":"Polygon","coordinates":[[[77.78835,9.96385],[77.78899,9.95744],[77.78906,9.95138],[77.78529,9.95223],[77.78474,9.95248],[77.78372,9.95332],[77.78189,9.95626],[77.78171,9.9597],[77.78474,9.96153],[77.7849,9.96404],[77.78535,9.96395],[77.78555,9.96535],[77.7863,9.96492],[77.78624,9.96432],[77.78835,9.96385]]]}},{"type":"Feature","bbox":[77.79063,9.97096,77.79988,9.97727],"properties":{"ward":11},"geometry":{"type":"Polygon","coordinates":[[[77.79063,9.97311],[77.79102,9.97591],[77.79146,9.97563],[77.79238,9.97432],[77.793,9.97403],[77.79382,9.97389],[77.79716,9.97727],[77.79885,9.9772],[77.79933,9.97665],[77.7998,9.97574],[77.79988,9.97409],[77.79944,9.97096],[77.79609,9.97219],[77.79543,9.97141],[77.79449,9.97171],[77.79366,9.97247],[77.7927,9.97253],[77.79063,9.97311]]]}},{"type":"Feature","bbox":[77.7898,9.96815,77.79464,9.97193],"properties":{"ward":12},"geometry":{"type":"Polygon","coordinates":[[[77.79442,9.9689],[77.7928,9.96815],[77.79076,9.96859],[77.79055,9.96829],[77.7898,9.96847],[77.79032,9.97193],[77.79464,9.9705],[77.79442,9.9689]]]}},{"type":"Feature","bbox":[77.78882,9.96572,77.7928,9.96851],"properties":{"ward":13},"geometry":{"type":"Polygon","coordinates":[[[77.78963,9.96727],[77.78975,9.96842],[77.79061,9.96822],[77.79089,9.96851],[77.7928,9.96807],[77.7926,9.96793],[77.79222,9.96707],[77.79196,9.96574],[77.79124,9.96584],[77.78882,9.96572],[77.78963,9.96727]]]}},{"type":"Feature","bbox":[77.79199,9.96309,77.80401,9.97012],"properties":{"ward":14},"geometry":{"type":"Polygon","coordinates":[[[77.79302,9.96573],[77.79199,9.96575],[77.792,9.96627],[77.79252,9.9677],[77.79283,9.96802],[77.79446,9.96883],[77.79471,9.97012],[77.79526,9.97003],[77.7994,9.96889],[77.80353,9.96751],[77.80349,9.96686],[77.80385,9.96678],[77.80371,9.96428],[77.80401,9.96375],[77.80381,9.96309],[77.80104,9.96413],[77.79452,9.96511],[77.79302,9.96573]]]}},{"type":"Feature","bbox":[77.79433,9.96042,77.80374,9.96493],"properties":{"ward":15},"geometry":{"type":"Polygon","coordinates":[[[77.79942,9.96104],[77.79934,9.96042],[77.79643,9.96116],[77.79433,9.96152],[77.79458,9.96493],[77.80072,9.96401],[77.80374,9.96289],[77.80363,9.96245],[77.80278,9.96313],[77.80254,9.96305],[77.80104,9.96208],[77.80027,9.96133],[77.79942,9.96104]]]}},{"type":"Feature","bbox":[77.79261,9.96156,77.79452,9.96526],"properties":{"ward":16},"geometry":{"type":"Polygon","coordinates":[[[77.79452,9.96493],[77.7943,9.96156],[77.79261,9.96177],[77.79274,9.96306],[77.79303,9.96299],[77.79303,9.96339],[77.79335,9.96339],[77.79358,9.96526],[77.79452,9.96493]]]}},{"type":"Feature","bbox":[77.79274,9.96302,77.79355,9.96544],"properties":{"ward":17},"geometry":{"type":"Polygon","coordinates":[[[77.79274,9.96308],[77.79292,9.96544],[77.79355,9.96526],[77.79332,9.96342],[77.79301,9.96343],[77.79299,9.96302],[77.79274,9.96308]]]}},{"type":"Feature","bbox":[77.78933,9.96029,77.7927,9.96361],"properties":{"ward":18},"geometry":{"type":"Polygon","coordinates":[[[77.7927,9.96303],[77.79247,9.96103],[77.79259,9.96076],[77.79244,9.96029],[77.79132,9.96148],[77.78933,9.96294],[77.78937,9.96361],[77.78991,9.9635],[77.78995,9.96318],[77.79102,9.96305],[77.791,9.96326],[77.7927,9.96303]]]}},{"type":"Feature","bbox":[77.78842,9.96298,77.79099,9.96553],"properties":{"ward":19},"geometry":{"type":"Polygon","coordinates":[[[77.78849,9.96306],[77.78842,9.96411],[77.78873,9.96553],[77.78935,9.96549],[77.7893,9.96453],[77.78988,9.96446],[77.78988,9.9641],[77.79092,9.96398],[77.7908,9.96346],[77.79097,9.96333],[77.79099,9.96307],[77.78998,9.96322],[77.78996,9.96353],[77.78933,9.96367],[77.78925,9.96298],[77.78849,9.96306]]]}},{"type":"Feature","bbox":[77.79243,9.95865,77.7953,9.96169],"properties":{"ward":20},"geometry":{"type":"Polygon","coordinates":[[[77.79243,9.96019],[77.79264,9.96077],[77.79249,9.96104],[77.79269,9.96169],[77.7953,9.96122],[77.7947,9.95865],[77.79319,9.9589],[77.79243,9.96019]]]}},{"type":"Feature","bbox":[77.78863,9.95797,77.793,9.96281],"properties":{"ward":21},"geometry":{"type":"Polygon","coordinates":[[[77.78919,9.95839],[77.78863,9.96281],[77.78922,9.96281],[77.79188,9.96061],[77.793,9.95893],[77.79285,9.95824],[77.79248,9.95832],[77.79227,9.95797],[77.78919,9.95839]]]}},{"type":"Feature","bbox":[77.7892,9.95068,77.79375,9.95888],"properties":{"ward":22},"geometry":{"type":"Polygon","coordinates":[[[77.78921,9.95122],[77.7892,9.95824],[77.79232,9.95788],[77.79256,9.95821],[77.79292,9.95818],[77.79312,9.95888],[77.79375,9.95724],[77.79343,9.95575],[77.79346,9.95475],[77.79271,9.95488],[77.79243,9.95188],[77.79225,9.95162],[77.79048,9.95068],[77.78921,9.95122]]]}},{"type":"Feature","bbox":[77.79245,9.95148,77.79973,9.96125],"properties":{"ward":23},"geometry":{"type":"Polygon","coordinates":[[[77.79536,9.96125],[77.79929,9.96037],[77.79927,9.95998],[77.79973,9.95981],[77.79811,9.95857],[77.79756,9.95851],[77.7969,9.95782],[77.79626,9.95768],[77.79531,9.9578],[77.79427,9.95455],[77.79443,9.95434],[77.79392,9.95148],[77.79309,9.95198],[77.79245,9.95169],[77.79278,9.95481],[77.79353,9.95473],[77.79348,9.95573],[77.79382,9.95728],[77.79324,9.95879],[77.79474,9.95858],[77.79536,9.96125]]]}},{"type":"Feature","bbox":[77.7938,9.94977,77.79897,9.95852],"properties":{"ward":24},"geometry":{"type":"Polygon","coordinates":[[[77.7938,9.94977],[77.79399,9.95191],[77.79455,9.95443],[77.79442,9.95458],[77.79505,9.95684],[77.79526,9.95691],[77.79531,9.95772],[77.79628,9.95763],[77.79692,9.95775],[77.79769,9.95852],[77.79893,9.95811],[77.79897,9.95595],[77.79588,9.95411],[77.79647,9.95078],[77.7938,9.94977]]]}}]}