{"type":"FeatureCollection","features":[{"type":"Feature","bbox":[78.77446,9.23186,78.78391,9.23978],"properties":{"ward":1},"geometry":{"type":"Polygon","coordinates":[[[78.77924,9.23186],[78.77446,9.23362],[78.77749,9.2371],[78.7787,9.23776],[78.7792,9.23846],[78.78008,9.23865],[78.78145,9.23978],[78.78391,9.23948],[78.78321,9.23888],[78.78296,9.23822],[78.78159,9.23816],[78.7818,9.23702],[78.78238,9.23621],[78.78121,9.23629],[78.78021,9.23195],[78.77924,9.23186]]]}},{"type":"Feature","bbox":[78.78163,9.23621,78.785,9.23952],"properties":{"ward":2},"geometry":{"type":"Polygon","coordinates":[[[78.78464,9.23952],[78.785,9.23623],[78.78243,9.23621],[78.78185,9.237],[78.78163,9.23814],[78.78301,9.23819],[78.78325,9.23887],[78.78395,9.23946],[78.78464,9.23952]]]}},{"type":"Feature","bbox":[78.78438,9.22982,78.78689,9.23951],"properties":{"ward":3},"geometry":{"type":"Polygon","coordinates":[[[78.78583,9.2323],[78.78593,9.23154],[78.78564,9.22982],[78.78438,9.23015],[78.78514,9.23399],[78.78513,9.23556],[78.78467,9.23951],[78.78689,9.23851],[78.7862,9.23581],[78.78665,9.23562],[78.78633,9.23294],[78.78613,9.23224],[78.78583,9.2323]]]}},{"type":"Feature","bbox":[78.78617,9.23207,78.7881,9.23725],"properties":{"ward":4},"geometry":{"type":"Polygon","coordinates":[[[78.7881,9.23507],[78.78791,9.23442],[78.787,9.23406],[78.78681,9.23316],[78.78715,9.23292],[78.78703,9.23207],[78.78617,9.23224],[78.78667,9.23561],[78.78626,9.2358],[78.78655,9.23706],[78.78788,9.23725],[78.78736,9.23529],[78.7881,9.23507]]]}},{"type":"Feature","bbox":[78.78743,9.23462,78.79092,9.2372],"properties":{"ward":5},"geometry":{"type":"Polygon","coordinates":[[[78.78743,9.23532],[78.78794,9.2372],[78.79092,9.23637],[78.79054,9.23574],[78.789,9.23493],[78.78802,9.23462],[78.78816,9.23509],[78.78743,9.23532]]]}},{"type":"Feature","bbox":[78.78686,9.23293,78.79054,9.23569],"properties":{"ward":6},"geometry":{"type":"Polygon","coordinates":[[[78.79047,9.23541],[78.78718,9.23293],[78.78686,9.23309],[78.78701,9.23403],[78.79054,9.23569],[78.79047,9.23541]]]}},{"type":"Feature","bbox":[78.78091,9.2334,78.7851,9.23628],"properties":{"ward":7},"geometry":{"type":"Polygon","coordinates":[[[78.78285,9.23436],[78.78091,9.23461],[78.78122,9.23628],[78.78499,9.23619],[78.7851,9.23553],[78.78501,9.2334],[78.78464,9.23357],[78.78462,9.23386],[78.78384,9.23395],[78.78285,9.23436]]]}},{"type":"Feature","bbox":[78.78025,9.23121,78.78332,9.23456],"properties":{"ward":8},"geometry":{"type":"Polygon","coordinates":[[[78.78097,9.23154],[78.78025,9.23195],[78.7809,9.23456],[78.78332,9.23415],[78.78245,9.23121],[78.78097,9.23154]]]}},{"type":"Feature","bbox":[78.78307,9.23251,78.78497,9.23415],"properties":{"ward":9},"geometry":{"type":"Polygon","coordinates":[[[78.78307,9.23284],[78.78337,9.23415],[78.7846,9.23383],[78.78461,9.23356],[78.78497,9.23338],[78.78473,9.23251],[78.78307,9.23284]]]}},{"type":"Feature","bbox":[78.78688,9.231,78.79212,9.23636],"properties":{"ward":10},"geometry":{"type":"Polygon","coordinates":[[[78.79051,9.23539],[78.79099,9.23636],[78.79199,9.23561],[78.79212,9.23505],[78.79087,9.23373],[78.78871,9.23185],[78.7882,9.231],[78.78688,9.23141],[78.78719,9.23288],[78.79051,9.23539]]]}},{"type":"Feature","bbox":[78.78569,9.22971,78.787,9.23227],"properties":{"ward":11},"geometry":{"type":"Polygon","coordinates":[[[78.787,9.23206],[78.78643,9.22971],[78.78569,9.2298],[78.78597,9.23156],[78.78587,9.23227],[78.787,9.23206]]]}},{"type":"Feature","bbox":[78.78244,9.22954,78.78471,9.23281],"properties":{"ward":12},"geometry":{"type":"Polygon","coordinates":[[[78.78244,9.22996],[78.7825,9.23121],[78.78306,9.23281],[78.78471,9.23249],[78.78413,9.22954],[78.78244,9.22996]]]}},{"type":"Feature","bbox":[78.78061,9.22995,78.78248,9.23144],"properties":{"ward":13},"geometry":{"type":"Polygon","coordinates":[[[78.78241,9.22995],[78.78061,9.23011],[78.78098,9.23144],[78.78248,9.23118],[78.78241,9.22995]]]}},{"type":"Feature","bbox":[78.77415,9.22417,78.78094,9.23359],"properties":{"ward":14},"geometry":{"type":"Polygon","coordinates":[[[78.78094,9.23151],[78.77998,9.22806],[78.78003,9.2264],[78.77725,9.22532],[78.7751,9.22417],[78.77493,9.22691],[78.77535,9.23074],[78.7749,9.23085],[78.77415,9.23243],[78.77443,9.23359],[78.77814,9.23215],[78.77924,9.23184],[78.78026,9.23191],[78.78094,9.23151]]]}},{"type":"Feature","bbox":[78.78006,9.22639,78.7824,9.23008],"properties":{"ward":15},"geometry":{"type":"Polygon","coordinates":[[[78.7824,9.22994],[78.78191,9.22801],[78.78174,9.22767],[78.78156,9.22768],[78.7814,9.22646],[78.78006,9.22639],[78.78007,9.22802],[78.78059,9.23008],[78.7824,9.22994]]]}},{"type":"Feature","bbox":[78.78142,9.22647,78.78328,9.22991],"properties":{"ward":16},"geometry":{"type":"Polygon","coordinates":[[[78.78328,9.22747],[78.78142,9.22647],[78.78157,9.22765],[78.78175,9.22765],[78.78194,9.228],[78.78243,9.22991],[78.78322,9.22977],[78.78304,9.22919],[78.78328,9.22747]]]}},{"type":"Feature","bbox":[78.78309,9.22748,78.78421,9.22978],"properties":{"ward":17},"geometry":{"type":"Polygon","coordinates":[[[78.78415,9.22945],[78.78421,9.22755],[78.7833,9.22748],[78.78309,9.22921],[78.78326,9.22978],[78.78415,9.22945]]]}},{"type":"Feature","bbox":[78.78416,9.22756,78.78653,9.23011],"properties":{"ward":18},"geometry":{"type":"Polygon","coordinates":[[[78.78423,9.22756],[78.78416,9.22952],[78.78435,9.23011],[78.78535,9.22979],[78.78644,9.22968],[78.78653,9.22887],[78.78559,9.22813],[78.78423,9.22756]]]}},{"type":"Feature","bbox":[78.78655,9.22889,78.78822,9.23136],"properties":{"ward":19},"geometry":{"type":"Polygon","coordinates":[[[78.78655,9.22889],[78.78657,9.23055],[78.78688,9.23136],[78.78822,9.23097],[78.78798,9.23028],[78.78794,9.22923],[78.78655,9.22889]]]}},{"type":"Feature","bbox":[78.78796,9.22923,78.79306,9.235],"properties":{"ward":20},"geometry":{"type":"Polygon","coordinates":[[[78.79075,9.22987],[78.78796,9.22923],[78.78801,9.23027],[78.78824,9.23096],[78.7888,9.23181],[78.79217,9.235],[78.79306,9.23435],[78.79214,9.2334],[78.79188,9.23233],[78.79187,9.23138],[78.79072,9.23077],[78.79075,9.22987]]]}},{"type":"Feature","bbox":[78.79075,9.22965,78.79535,9.23432],"properties":{"ward":21},"geometry":{"type":"Polygon","coordinates":[[[78.79193,9.23136],[78.79193,9.23236],[78.79225,9.23344],[78.79313,9.23432],[78.79487,9.2342],[78.79535,9.23159],[78.79397,9.22978],[78.79317,9.22965],[78.79155,9.22994],[78.79077,9.22987],[78.79075,9.23071],[78.79193,9.23136]]]}}]}