{"type":"FeatureCollection","features":[{"type":"Feature","bbox":[77.09565,11.24041,77.10871,11.25619],"properties":{"ward":1},"geometry":{"type":"Polygon","coordinates":[[[77.10374,11.24081],[77.10178,11.24041],[77.09949,11.2407],[77.09945,11.24196],[77.09924,11.24232],[77.09923,11.24351],[77.0966,11.24698],[77.09595,11.24814],[77.09565,11.24902],[77.096,11.25025],[77.09612,11.25165],[77.09586,11.25184],[77.09581,11.25216],[77.09631,11.25233],[77.09617,11.25366],[77.09682,11.25446],[77.09702,11.25504],[77.09693,11.25592],[77.0983,11.25619],[77.09857,11.25509],[77.10398,11.25543],[77.10592,11.25593],[77.1066,11.25267],[77.10809,11.25227],[77.10805,11.25169],[77.10871,11.25136],[77.10753,11.24856],[77.10667,11.24571],[77.10526,11.24405],[77.1046,11.24294],[77.10374,11.24081]]]}},{"type":"Feature","bbox":[77.10376,11.23579,77.11998,11.25037],"properties":{"ward":2},"geometry":{"type":"Polygon","coordinates":[[[77.10376,11.24082],[77.1046,11.24293],[77.10527,11.24403],[77.10668,11.24572],[77.10824,11.25037],[77.10935,11.24957],[77.10926,11.2491],[77.11305,11.24799],[77.11296,11.24766],[77.11486,11.24687],[77.11478,11.24648],[77.11508,11.24592],[77.11683,11.24569],[77.11761,11.2454],[77.11832,11.24364],[77.1188,11.24297],[77.11917,11.24274],[77.11998,11.2426],[77.11979,11.24086],[77.11988,11.23923],[77.11955,11.23723],[77.11738,11.23662],[77.11647,11.2368],[77.11569,11.23579],[77.11012,11.23715],[77.1102,11.2399],[77.10773,11.24009],[77.10749,11.24081],[77.1063,11.24101],[77.10376,11.24082]]]}},{"type":"Feature","bbox":[77.1162,11.22098,77.1267,11.24258],"properties":{"ward":3},"geometry":{"type":"Polygon","coordinates":[[[77.11955,11.23722],[77.1199,11.23922],[77.11981,11.24085],[77.11999,11.24258],[77.12161,11.24202],[77.12556,11.24118],[77.12541,11.23592],[77.1257,11.23426],[77.12606,11.23372],[77.12625,11.23256],[77.1267,11.23239],[77.12668,11.22974],[77.12644,11.22744],[77.12576,11.22554],[77.12536,11.2236],[77.12533,11.22227],[77.12453,11.22167],[77.1201,11.22118],[77.11742,11.22124],[77.11737,11.22098],[77.1162,11.22135],[77.11708,11.22579],[77.1186,11.22715],[77.11877,11.22951],[77.11969,11.22895],[77.12045,11.23155],[77.11955,11.23722]]]}},{"type":"Feature","bbox":[77.10975,11.22367,77.12043,11.23721],"properties":{"ward":4},"geometry":{"type":"Polygon","coordinates":[[[77.11017,11.22642],[77.10975,11.2294],[77.1099,11.23015],[77.11123,11.22996],[77.11145,11.23217],[77.11224,11.23205],[77.11279,11.23419],[77.11346,11.23468],[77.11368,11.23548],[77.11419,11.23556],[77.11448,11.23608],[77.1157,11.23576],[77.11648,11.23678],[77.11738,11.23659],[77.11953,11.23721],[77.12043,11.23157],[77.11968,11.22899],[77.11876,11.22955],[77.11858,11.22717],[77.11705,11.2258],[77.11662,11.22367],[77.11399,11.22427],[77.11355,11.22708],[77.11254,11.22677],[77.11017,11.22642]]]}},{"type":"Feature","bbox":[77.104,11.23353,77.11445,11.241],"properties":{"ward":5},"geometry":{"type":"Polygon","coordinates":[[[77.11417,11.23558],[77.11366,11.23551],[77.11344,11.23469],[77.11279,11.23423],[77.11165,11.23465],[77.10839,11.23476],[77.10744,11.23518],[77.10707,11.23448],[77.10606,11.23353],[77.10561,11.23369],[77.10595,11.23474],[77.10614,11.23479],[77.10619,11.23554],[77.104,11.23567],[77.104,11.23812],[77.10431,11.23922],[77.10426,11.24081],[77.10628,11.241],[77.10748,11.2408],[77.10772,11.24007],[77.11019,11.23989],[77.11011,11.23714],[77.11445,11.23608],[77.11417,11.23558]]]}},{"type":"Feature","bbox":[77.10646,11.22997,77.11277,11.23461],"properties":{"ward":6},"geometry":{"type":"Polygon","coordinates":[[[77.10932,11.23459],[77.11164,11.23461],[77.11277,11.2342],[77.11223,11.23208],[77.11143,11.2322],[77.11121,11.22997],[77.10947,11.2303],[77.10904,11.23062],[77.10754,11.23072],[77.10677,11.23059],[77.10646,11.23273],[77.10779,11.23283],[77.1089,11.23271],[77.10932,11.23459]]]}},{"type":"Feature","bbox":[77.10496,11.23241,77.1093,11.23515],"properties":{"ward":7},"geometry":{"type":"Polygon","coordinates":[[[77.10606,11.2335],[77.10709,11.23447],[77.10745,11.23515],[77.10837,11.23473],[77.1093,11.23462],[77.10889,11.23272],[77.10779,11.23284],[77.10645,11.23274],[77.10648,11.23241],[77.10496,11.2328],[77.10504,11.23325],[77.1055,11.2334],[77.10559,11.23367],[77.10606,11.2335]]]}},{"type":"Feature","bbox":[77.10237,11.23182,77.10655,11.24082],"properties":{"ward":8},"geometry":{"type":"Polygon","coordinates":[[[77.1024,11.23823],[77.10278,11.24068],[77.10425,11.24082],[77.1043,11.23922],[77.10399,11.23813],[77.10398,11.23566],[77.10617,11.23552],[77.10612,11.2348],[77.10594,11.23477],[77.10549,11.23341],[77.10503,11.23325],[77.10495,11.2328],[77.10647,11.2324],[77.10655,11.23186],[77.10502,11.23204],[77.10381,11.23182],[77.103,11.23226],[77.10275,11.23341],[77.10237,11.23347],[77.10251,11.23626],[77.1024,11.23823]]]}},{"type":"Feature","bbox":[77.10114,11.22345,77.11014,11.23227],"properties":{"ward":9},"geometry":{"type":"Polygon","coordinates":[[[77.10279,11.23169],[77.10297,11.23227],[77.1038,11.23181],[77.10501,11.23203],[77.10659,11.23185],[77.10677,11.23059],[77.10755,11.23071],[77.10903,11.23061],[77.1099,11.23019],[77.10974,11.2294],[77.11014,11.22643],[77.10707,11.22704],[77.10636,11.22632],[77.10562,11.22603],[77.1049,11.22511],[77.10422,11.22345],[77.10272,11.22408],[77.10248,11.22467],[77.10279,11.22726],[77.10114,11.22751],[77.10132,11.22836],[77.1016,11.22828],[77.10176,11.22862],[77.10395,11.22837],[77.10431,11.22861],[77.1043,11.22887],[77.10445,11.22894],[77.10397,11.23153],[77.10279,11.23169]]]}},{"type":"Feature","bbox":[77.10175,11.22838,77.10443,11.23184],"properties":{"ward":10},"geometry":{"type":"Polygon","coordinates":[[[77.10192,11.23184],[77.10396,11.23152],[77.10443,11.22895],[77.10429,11.22888],[77.10429,11.22862],[77.10394,11.22838],[77.10175,11.22864],[77.10192,11.23184]]]}},{"type":"Feature","bbox":[77.09837,11.2283,77.10301,11.24069],"properties":{"ward":11},"geometry":{"type":"Polygon","coordinates":[[[77.09911,11.23697],[77.09948,11.24069],[77.10179,11.2404],[77.10277,11.24069],[77.10238,11.23828],[77.10249,11.23626],[77.10236,11.23346],[77.10274,11.23341],[77.10301,11.23258],[77.10278,11.23169],[77.1019,11.23185],[77.10168,11.22935],[77.10175,11.22851],[77.10159,11.2283],[77.10025,11.22866],[77.1004,11.22942],[77.09882,11.23036],[77.09837,11.23415],[77.09911,11.23697]]]}},{"type":"Feature","bbox":[77.09036,11.22062,77.10277,11.23034],"properties":{"ward":12},"geometry":{"type":"Polygon","coordinates":[[[77.09368,11.22135],[77.09352,11.22062],[77.09036,11.22126],[77.09524,11.227],[77.09781,11.22921],[77.09883,11.23034],[77.10039,11.22942],[77.10023,11.22864],[77.10131,11.22836],[77.10112,11.2275],[77.10277,11.22725],[77.10246,11.22467],[77.10269,11.2241],[77.10241,11.2239],[77.09998,11.22415],[77.09944,11.22438],[77.09709,11.22431],[77.0971,11.22193],[77.09504,11.22109],[77.09368,11.22135]]]}},{"type":"Feature","bbox":[77.08632,11.20979,77.11397,11.22705],"properties":{"ward":13},"geometry":{"type":"Polygon","coordinates":[[[77.08968,11.21347],[77.08806,11.21432],[77.08845,11.21551],[77.08683,11.21576],[77.08632,11.216],[77.08691,11.21718],[77.09035,11.22125],[77.09353,11.22061],[77.09368,11.22134],[77.09505,11.22107],[77.09676,11.22168],[77.09712,11.22192],[77.09711,11.22429],[77.09944,11.22436],[77.10002,11.22413],[77.10242,11.22388],[77.10269,11.22408],[77.10423,11.22344],[77.10491,11.2251],[77.10563,11.22602],[77.10637,11.22631],[77.10707,11.22702],[77.11015,11.2264],[77.11255,11.22676],[77.11354,11.22705],[77.11364,11.22585],[77.11397,11.22462],[77.11396,11.22307],[77.11223,11.22302],[77.11255,11.22085],[77.11332,11.21939],[77.11248,11.21869],[77.11208,11.21859],[77.11234,11.21798],[77.11111,11.21767],[77.111,11.21733],[77.10952,11.21705],[77.10959,11.21644],[77.10759,11.21635],[77.1058,11.21601],[77.10437,11.21657],[77.10411,11.21636],[77.10411,11.21491],[77.10159,11.21511],[77.10025,11.21421],[77.09726,11.21108],[77.09671,11.2101],[77.09529,11.20979],[77.09369,11.20986],[77.09135,11.21063],[77.09112,11.21095],[77.09145,11.21236],[77.09075,11.21237],[77.08968,11.21347]]]}},{"type":"Feature","bbox":[77.09673,11.19088,77.11399,11.21797],"properties":{"ward":14},"geometry":{"type":"Polygon","coordinates":[[[77.11385,11.20513],[77.11391,11.19727],[77.11275,11.19352],[77.11234,11.191],[77.11188,11.19088],[77.11109,11.19099],[77.11053,11.19123],[77.1106,11.1934],[77.11151,11.19353],[77.11125,11.19765],[77.10982,11.19769],[77.10933,11.19808],[77.10868,11.19946],[77.10802,11.20027],[77.1071,11.20068],[77.10522,11.20083],[77.10474,11.20391],[77.10432,11.20418],[77.10424,11.20495],[77.10386,11.20509],[77.10405,11.20592],[77.10281,11.20712],[77.10169,11.20752],[77.10146,11.20807],[77.1019,11.2092],[77.10105,11.20907],[77.10102,11.20954],[77.10054,11.20956],[77.10045,11.2099],[77.09993,11.20998],[77.09987,11.21064],[77.09909,11.21081],[77.09804,11.21093],[77.09759,11.21005],[77.09673,11.21009],[77.09727,11.21108],[77.10027,11.21421],[77.10159,11.2151],[77.10413,11.21489],[77.10412,11.21635],[77.10437,11.21655],[77.1058,11.21599],[77.10759,11.21633],[77.1096,11.21642],[77.10953,11.21704],[77.11101,11.21731],[77.11113,11.21765],[77.11236,11.21797],[77.11355,11.21522],[77.11214,11.21355],[77.11221,11.21262],[77.11248,11.21221],[77.11332,11.21226],[77.11399,11.20736],[77.11364,11.20604],[77.11385,11.20513]]]}},{"type":"Feature","bbox":[77.11212,11.18902,77.12736,11.22425],"properties":{"ward":15},"geometry":{"type":"Polygon","coordinates":[[[77.11662,11.22365],[77.11618,11.22133],[77.11738,11.22096],[77.11743,11.22122],[77.12011,11.22116],[77.12454,11.22166],[77.12529,11.22221],[77.12561,11.2214],[77.12546,11.21955],[77.12627,11.21695],[77.12604,11.21555],[77.12615,11.21455],[77.12707,11.21224],[77.12736,11.20948],[77.12696,11.20936],[77.12686,11.20838],[77.12714,11.20825],[77.12691,11.20766],[77.12704,11.20712],[77.12644,11.20705],[77.12638,11.20675],[77.12609,11.20679],[77.12606,11.20632],[77.1253,11.20645],[77.12521,11.20585],[77.12447,11.20587],[77.12454,11.20481],[77.12392,11.20381],[77.12341,11.20377],[77.1223,11.19959],[77.12164,11.19948],[77.12245,11.19865],[77.12215,11.19802],[77.12065,11.19815],[77.12059,11.1979],[77.11982,11.19791],[77.11861,11.19571],[77.11775,11.19314],[77.11739,11.19252],[77.11725,11.19179],[77.11651,11.19091],[77.11533,11.18902],[77.11448,11.19012],[77.11384,11.19066],[77.11237,11.19099],[77.11277,11.19352],[77.11393,11.19726],[77.11387,11.20513],[77.11366,11.20604],[77.11402,11.20736],[77.11334,11.21228],[77.11248,11.21223],[77.11224,11.21261],[77.11217,11.21354],[77.11357,11.21521],[77.11212,11.21857],[77.11249,11.21868],[77.11334,11.21939],[77.11257,11.22086],[77.11226,11.223],[77.11398,11.22305],[77.11397,11.22425],[77.11662,11.22365]]]}}]}