{"type":"FeatureCollection","features":[{"type":"Feature","bbox":[76.92282,10.93099,76.92441,10.93351],"properties":{"ward":1},"geometry":{"type":"Polygon","coordinates":[[[76.92282,10.93112],[76.9235,10.93347],[76.92381,10.93351],[76.92441,10.93327],[76.92346,10.93099],[76.92282,10.93112]]]}},{"type":"Feature","bbox":[76.92327,10.93031,76.925,10.93327],"properties":{"ward":2},"geometry":{"type":"Polygon","coordinates":[[[76.925,10.93304],[76.92487,10.93251],[76.92406,10.93113],[76.92369,10.93096],[76.92354,10.93031],[76.92327,10.93037],[76.92336,10.93101],[76.9237,10.93142],[76.92441,10.93327],[76.925,10.93304]]]}},{"type":"Feature","bbox":[76.91873,10.92006,76.92741,10.93133],"properties":{"ward":3},"geometry":{"type":"Polygon","coordinates":[[[76.92369,10.93096],[76.92468,10.9313],[76.92723,10.93133],[76.9274,10.93088],[76.92724,10.93023],[76.92741,10.92799],[76.92702,10.92633],[76.92577,10.92338],[76.92393,10.92202],[76.92362,10.92091],[76.92226,10.9209],[76.92222,10.9204],[76.91987,10.92006],[76.9194,10.92106],[76.91898,10.9215],[76.91873,10.92564],[76.91942,10.92658],[76.9204,10.92664],[76.9218,10.92823],[76.92282,10.93112],[76.92336,10.93101],[76.92327,10.93037],[76.92354,10.93031],[76.92369,10.93096]]]}},{"type":"Feature","bbox":[76.92399,10.92237,76.9415,10.93416],"properties":{"ward":4},"geometry":{"type":"Polygon","coordinates":[[[76.925,10.93304],[76.92727,10.93274],[76.92744,10.93327],[76.92808,10.93333],[76.9282,10.93306],[76.92996,10.93229],[76.93117,10.93249],[76.93182,10.93244],[76.93257,10.93302],[76.93319,10.93311],[76.93399,10.93245],[76.93529,10.93307],[76.93629,10.93295],[76.93667,10.93334],[76.93711,10.93317],[76.93776,10.93324],[76.93809,10.93391],[76.93889,10.93354],[76.93978,10.93375],[76.94021,10.93416],[76.94062,10.93382],[76.94138,10.93364],[76.9415,10.93319],[76.94051,10.93139],[76.93953,10.93003],[76.93775,10.92817],[76.93358,10.92545],[76.93277,10.92677],[76.932,10.92689],[76.92774,10.92495],[76.92775,10.92258],[76.92692,10.92237],[76.92594,10.92353],[76.92576,10.9234],[76.92702,10.92634],[76.92742,10.928],[76.92724,10.93023],[76.9274,10.93088],[76.92723,10.93133],[76.92467,10.9313],[76.92399,10.93105],[76.92487,10.93251],[76.925,10.93304]]]}},{"type":"Feature","bbox":[76.94894,10.92017,76.9688,10.93001],"properties":{"ward":5},"geometry":{"type":"Polygon","coordinates":[[[76.96079,10.92485],[76.96001,10.92397],[76.95948,10.92362],[76.95452,10.92127],[76.95266,10.92017],[76.9527,10.92051],[76.95194,10.9212],[76.95132,10.92147],[76.9509,10.92249],[76.95014,10.9217],[76.94977,10.92162],[76.94894,10.92183],[76.94961,10.9294],[76.95067,10.92986],[76.95114,10.92997],[76.95191,10.92971],[76.95286,10.93001],[76.95365,10.9298],[76.95502,10.92907],[76.95766,10.92835],[76.95822,10.92784],[76.95949,10.92738],[76.96136,10.92772],[76.9646,10.92878],[76.96632,10.92917],[76.96792,10.92909],[76.9688,10.92846],[76.9648,10.92727],[76.96298,10.92639],[76.96079,10.92485]]]}},{"type":"Feature","bbox":[76.94834,10.9121,76.96167,10.92539],"properties":{"ward":6},"geometry":{"type":"Polygon","coordinates":[[[76.94899,10.9144],[76.94849,10.91455],[76.94834,10.91686],[76.94894,10.92184],[76.94977,10.92162],[76.95014,10.9217],[76.9509,10.92249],[76.95132,10.92147],[76.95194,10.92119],[76.95235,10.9208],[76.95268,10.92046],[76.95265,10.92018],[76.95415,10.92106],[76.95952,10.92362],[76.96082,10.92488],[76.96167,10.92539],[76.9596,10.92303],[76.95851,10.92067],[76.95816,10.91945],[76.95796,10.91821],[76.95794,10.91656],[76.95868,10.91213],[76.95605,10.9121],[76.95405,10.91357],[76.95188,10.914],[76.95116,10.91446],[76.94935,10.91404],[76.94899,10.9144]]]}},{"type":"Feature","bbox":[76.95794,10.91195,76.97073,10.92846],"properties":{"ward":7},"geometry":{"type":"Polygon","coordinates":[[[76.959,10.91195],[76.95868,10.91211],[76.95818,10.91489],[76.95794,10.91656],[76.95796,10.91821],[76.95851,10.92067],[76.9596,10.92303],[76.96041,10.92409],[76.96177,10.92547],[76.96298,10.92639],[76.96482,10.92728],[76.9688,10.92846],[76.96939,10.92799],[76.97073,10.92792],[76.97065,10.92483],[76.96725,10.92408],[76.96546,10.92227],[76.96504,10.91904],[76.96426,10.91786],[76.96358,10.91727],[76.96308,10.91709],[76.9602,10.91653],[76.96095,10.91459],[76.96155,10.91215],[76.95912,10.91207],[76.959,10.91195]]]}},{"type":"Feature","bbox":[76.95867,10.91044,76.97421,10.9282],"properties":{"ward":8},"geometry":{"type":"Polygon","coordinates":[[[76.96725,10.92408],[76.97066,10.92483],[76.97075,10.92794],[76.97392,10.9282],[76.97385,10.92672],[76.97414,10.92563],[76.97421,10.92459],[76.97373,10.92177],[76.97379,10.92097],[76.97183,10.91985],[76.97011,10.91918],[76.96895,10.91576],[76.96827,10.91288],[76.96789,10.91293],[76.96638,10.91249],[76.9656,10.91256],[76.96361,10.91216],[76.96393,10.91044],[76.9587,10.91082],[76.95867,10.91211],[76.95899,10.91196],[76.96155,10.91215],[76.96087,10.91485],[76.96077,10.91483],[76.9602,10.91652],[76.96324,10.91714],[76.96426,10.91787],[76.96504,10.91903],[76.96545,10.92226],[76.96725,10.92408]]]}},{"type":"Feature","bbox":[76.96827,10.91288,76.974,10.92077],"properties":{"ward":9},"geometry":{"type":"Polygon","coordinates":[[[76.96992,10.91294],[76.96827,10.91288],[76.96839,10.91372],[76.97011,10.91919],[76.9707,10.91932],[76.97316,10.92067],[76.97363,10.92077],[76.974,10.91864],[76.97376,10.91855],[76.97373,10.91745],[76.97347,10.91723],[76.97381,10.91659],[76.97063,10.91385],[76.96992,10.91294]]]}},{"type":"Feature","bbox":[76.96505,10.90506,76.97467,10.91697],"properties":{"ward":10},"geometry":{"type":"Polygon","coordinates":[[[76.96657,10.90527],[76.96505,10.90506],[76.96537,10.90657],[76.96518,10.90782],[76.96657,10.90862],[76.96763,10.91046],[76.9666,10.91069],[76.96663,10.91255],[76.96786,10.91293],[76.96992,10.91294],[76.97063,10.91386],[76.97437,10.91697],[76.97467,10.91637],[76.97456,10.91547],[76.97389,10.91508],[76.97379,10.91484],[76.97395,10.91419],[76.97373,10.91359],[76.97318,10.91318],[76.9733,10.91149],[76.97316,10.91082],[76.97365,10.90938],[76.97338,10.90892],[76.97207,10.90826],[76.97191,10.90799],[76.97168,10.90581],[76.97155,10.90565],[76.97082,10.9056],[76.96975,10.9061],[76.96963,10.90631],[76.96657,10.90527]]]}},{"type":"Feature","bbox":[76.96476,10.90874,76.96762,10.91256],"properties":{"ward":11},"geometry":{"type":"Polygon","coordinates":[[[76.96476,10.91116],[76.96563,10.91256],[76.96663,10.91255],[76.9666,10.91069],[76.96762,10.91046],[76.96668,10.90874],[76.96552,10.91026],[76.96555,10.91112],[76.96476,10.91116]]]}},{"type":"Feature","bbox":[76.9588,10.90404,76.96668,10.91256],"properties":{"ward":12},"geometry":{"type":"Polygon","coordinates":[[[76.9588,10.90981],[76.95895,10.91079],[76.96393,10.91043],[76.96361,10.91216],[76.96562,10.91256],[76.96476,10.91116],[76.96555,10.91112],[76.96552,10.91027],[76.96668,10.90874],[76.96518,10.90782],[76.96537,10.90657],[76.96519,10.90537],[76.96489,10.90467],[76.96302,10.90404],[76.96059,10.90414],[76.96035,10.90549],[76.96086,10.90737],[76.95975,10.9076],[76.95963,10.90818],[76.95883,10.9082],[76.9588,10.90981]]]}},{"type":"Feature","bbox":[76.95485,10.9031,76.96086,10.91082],"properties":{"ward":13},"geometry":{"type":"Polygon","coordinates":[[[76.95502,10.9031],[76.95485,10.9032],[76.95646,10.90491],[76.95727,10.90612],[76.95832,10.90858],[76.95869,10.91082],[76.95895,10.91074],[76.95873,10.90922],[76.95883,10.9082],[76.95962,10.90819],[76.95975,10.9076],[76.96086,10.90737],[76.96038,10.90574],[76.96059,10.90413],[76.9581,10.90396],[76.95502,10.9031]]]}},{"type":"Feature","bbox":[76.94849,10.90317,76.95868,10.91454],"properties":{"ward":14},"geometry":{"type":"Polygon","coordinates":[[[76.95301,10.90947],[76.94877,10.91077],[76.94849,10.91454],[76.94899,10.9144],[76.94935,10.91404],[76.95116,10.91446],[76.95188,10.914],[76.95405,10.91357],[76.95605,10.9121],[76.95868,10.91213],[76.95852,10.9094],[76.95794,10.90748],[76.95647,10.90491],[76.95497,10.90331],[76.95358,10.90317],[76.95381,10.90366],[76.95369,10.90426],[76.95384,10.90455],[76.95363,10.90545],[76.95345,10.90565],[76.95366,10.90633],[76.95429,10.90703],[76.9542,10.90739],[76.95445,10.90885],[76.95301,10.90947]]]}},{"type":"Feature","bbox":[76.94633,10.91814,76.94896,10.92258],"properties":{"ward":15},"geometry":{"type":"Polygon","coordinates":[[[76.94662,10.91843],[76.94633,10.91862],[76.94647,10.91951],[76.94896,10.92258],[76.94842,10.91814],[76.94662,10.91843]]]}},{"type":"Feature","bbox":[76.94358,10.91503,76.94844,10.91862],"properties":{"ward":16},"geometry":{"type":"Polygon","coordinates":[[[76.94358,10.91541],[76.94365,10.91557],[76.94409,10.91568],[76.94473,10.91638],[76.94506,10.91639],[76.94518,10.91693],[76.94632,10.91862],[76.94662,10.91844],[76.94842,10.91814],[76.94844,10.91503],[76.94558,10.91504],[76.94358,10.91541]]]}},{"type":"Feature","bbox":[76.93316,10.90422,76.94883,10.91545],"properties":{"ward":17},"geometry":{"type":"Polygon","coordinates":[[[76.94394,10.90422],[76.93316,10.90751],[76.9333,10.90946],[76.93362,10.90948],[76.9338,10.91032],[76.93427,10.91135],[76.93515,10.91095],[76.9358,10.91105],[76.94261,10.91457],[76.94351,10.91545],[76.94443,10.91516],[76.94559,10.91504],[76.94844,10.91503],[76.94883,10.91129],[76.94871,10.91023],[76.94779,10.90864],[76.94548,10.90569],[76.94394,10.90422]]]}},{"type":"Feature","bbox":[76.92936,10.90117,76.94394,10.90772],"properties":{"ward":18},"geometry":{"type":"Polygon","coordinates":[[[76.93317,10.90761],[76.93371,10.90727],[76.94394,10.90422],[76.94225,10.90318],[76.9412,10.90228],[76.94025,10.90117],[76.9402,10.90175],[76.93917,10.90163],[76.93872,10.90183],[76.93822,10.90183],[76.93797,10.90276],[76.93723,10.90357],[76.9345,10.90403],[76.93276,10.90474],[76.92936,10.90535],[76.92986,10.90579],[76.93055,10.90602],[76.93192,10.90772],[76.93317,10.90761]]]}},{"type":"Feature","bbox":[76.92605,10.90008,76.94025,10.90534],"properties":{"ward":19},"geometry":{"type":"Polygon","coordinates":[[[76.92673,10.90296],[76.92937,10.90534],[76.93276,10.90474],[76.9345,10.90403],[76.93723,10.90357],[76.93798,10.90276],[76.93822,10.90182],[76.93852,10.90187],[76.93917,10.90163],[76.9402,10.90175],[76.94025,10.90117],[76.93959,10.90042],[76.93725,10.90008],[76.93727,10.90029],[76.93648,10.90018],[76.93403,10.90069],[76.93375,10.90059],[76.93165,10.90082],[76.92613,10.90052],[76.92605,10.90099],[76.92673,10.90296]]]}},{"type":"Feature","bbox":[76.91975,10.89616,76.9396,10.90042],"properties":{"ward":20},"geometry":{"type":"Polygon","coordinates":[[[76.92386,10.89762],[76.91975,10.89793],[76.92552,10.90014],[76.93125,10.90035],[76.93468,10.89978],[76.93723,10.89967],[76.93725,10.90008],[76.9396,10.90042],[76.93746,10.89773],[76.93434,10.89616],[76.93297,10.89666],[76.93081,10.89698],[76.92862,10.89779],[76.92701,10.89762],[76.92467,10.89772],[76.92386,10.89762]]]}},{"type":"Feature","bbox":[76.93959,10.90041,76.95445,10.91077],"properties":{"ward":21},"geometry":{"type":"Polygon","coordinates":[[[76.94887,10.90064],[76.93959,10.90041],[76.9412,10.90228],[76.94226,10.90318],[76.94394,10.90422],[76.94548,10.90569],[76.94846,10.90964],[76.94877,10.91077],[76.95319,10.90941],[76.95445,10.90885],[76.9542,10.90739],[76.95429,10.90703],[76.95366,10.90633],[76.95345,10.90565],[76.95363,10.90545],[76.95384,10.90455],[76.95369,10.90426],[76.95381,10.90366],[76.95358,10.90317],[76.95177,10.90272],[76.95173,10.90301],[76.95128,10.90342],[76.95073,10.90325],[76.95029,10.9045],[76.94943,10.90426],[76.94882,10.90459],[76.94828,10.9039],[76.94887,10.90064]]]}},{"type":"Feature","bbox":[76.94828,10.90065,76.95501,10.90459],"properties":{"ward":22},"geometry":{"type":"Polygon","coordinates":[[[76.95131,10.90119],[76.94888,10.90065],[76.94828,10.9039],[76.94882,10.90459],[76.94943,10.90426],[76.95029,10.9045],[76.95073,10.90325],[76.95128,10.90343],[76.95173,10.90301],[76.95177,10.90272],[76.95501,10.90339],[76.9542,10.90267],[76.95288,10.9019],[76.95131,10.90119]]]}},{"type":"Feature","bbox":[76.91625,10.88359,76.9401,10.90042],"properties":{"ward":23},"geometry":{"type":"Polygon","coordinates":[[[76.91974,10.89793],[76.92702,10.89762],[76.92863,10.89779],[76.93081,10.89698],[76.93299,10.89666],[76.93435,10.89617],[76.93747,10.89774],[76.93959,10.90041],[76.93994,10.90042],[76.93979,10.89773],[76.9399,10.89432],[76.93922,10.89239],[76.93922,10.89204],[76.93949,10.8915],[76.93944,10.89118],[76.9401,10.89075],[76.94002,10.88919],[76.93943,10.88888],[76.93942,10.88359],[76.93673,10.88459],[76.93275,10.88465],[76.92557,10.88729],[76.92502,10.88726],[76.92409,10.8885],[76.92195,10.88863],[76.9211,10.88806],[76.92097,10.8868],[76.92043,10.88597],[76.91745,10.88694],[76.91625,10.88843],[76.91974,10.89793]]]}},{"type":"Feature","bbox":[76.93922,10.88778,76.95911,10.90403],"properties":{"ward":24},"geometry":{"type":"Polygon","coordinates":[[[76.9399,10.90042],[76.94888,10.90064],[76.95015,10.90089],[76.95131,10.90119],[76.95297,10.90194],[76.95485,10.9032],[76.95503,10.9031],[76.9581,10.90396],[76.95911,10.90403],[76.95868,10.90335],[76.95799,10.90268],[76.95703,10.90094],[76.95719,10.89944],[76.95691,10.89805],[76.95569,10.89559],[76.95465,10.89403],[76.95477,10.89244],[76.95455,10.89145],[76.95362,10.89121],[76.95295,10.89076],[76.94911,10.88925],[76.94798,10.88922],[76.94761,10.88897],[76.9464,10.88884],[76.94463,10.88818],[76.94123,10.88825],[76.94045,10.88778],[76.93946,10.88783],[76.93943,10.8889],[76.94004,10.8892],[76.94014,10.8908],[76.93975,10.89091],[76.93945,10.89122],[76.93922,10.89203],[76.93989,10.89433],[76.93979,10.89718],[76.9399,10.90042]]]}},{"type":"Feature","bbox":[76.95456,10.89145,76.96608,10.90417],"properties":{"ward":25},"geometry":{"type":"Polygon","coordinates":[[[76.9591,10.90403],[76.96167,10.90417],[76.96301,10.90404],[76.96348,10.90267],[76.96376,10.90092],[76.96206,10.90011],[76.96198,10.89661],[76.96429,10.89683],[76.96463,10.8952],[76.96494,10.89506],[76.96608,10.89228],[76.96602,10.89162],[76.96546,10.89173],[76.96466,10.89149],[76.9635,10.8918],[76.96171,10.89189],[76.9609,10.89267],[76.96064,10.89269],[76.95813,10.89222],[76.95807,10.89145],[76.95456,10.89146],[76.95478,10.8924],[76.95462,10.89395],[76.95569,10.8956],[76.95692,10.89806],[76.95719,10.89943],[76.95703,10.90093],[76.95799,10.90268],[76.95869,10.90336],[76.9591,10.90403]]]}},{"type":"Feature","bbox":[76.96197,10.89229,76.97156,10.90527],"properties":{"ward":26},"geometry":{"type":"Polygon","coordinates":[[[76.96379,10.9009],[76.96301,10.90404],[76.96448,10.90444],[76.96489,10.90467],[76.96506,10.90506],[76.96648,10.90527],[76.96707,10.90204],[76.96771,10.90084],[76.96958,10.8986],[76.97156,10.89505],[76.97036,10.8944],[76.96682,10.8931],[76.96631,10.89271],[76.96608,10.89229],[76.96495,10.89507],[76.96463,10.8952],[76.96427,10.89681],[76.96301,10.89658],[76.96197,10.89659],[76.96206,10.90011],[76.96379,10.9009]]]}},{"type":"Feature","bbox":[76.96648,10.89506,76.97291,10.90631],"properties":{"ward":27},"geometry":{"type":"Polygon","coordinates":[[[76.96708,10.90199],[76.96648,10.90528],[76.96963,10.90631],[76.96975,10.90611],[76.97082,10.9056],[76.97155,10.90565],[76.97191,10.90435],[76.97137,10.90403],[76.9704,10.90302],[76.97116,10.90199],[76.97158,10.90093],[76.97172,10.89894],[76.97201,10.89806],[76.97271,10.89801],[76.97291,10.89667],[76.97268,10.89591],[76.97156,10.89506],[76.96957,10.89859],[76.96772,10.90084],[76.96708,10.90199]]]}}]}