{"type":"FeatureCollection","features":[{"type":"Feature","bbox":[77.27128,11.16386,77.27988,11.1758],"properties":{"ward":1},"geometry":{"type":"Polygon","coordinates":[[[77.27259,11.16497],[77.27171,11.16559],[77.27128,11.16762],[77.27189,11.16749],[77.27217,11.16765],[77.27168,11.16882],[77.27172,11.16912],[77.27539,11.16887],[77.27518,11.17094],[77.27522,11.17209],[77.27433,11.17213],[77.27428,11.17298],[77.27489,11.17269],[77.27577,11.17324],[77.27666,11.17415],[77.27686,11.17539],[77.27795,11.1758],[77.27868,11.17538],[77.27893,11.17553],[77.27894,11.17474],[77.27851,11.17343],[77.27857,11.17052],[77.27905,11.16927],[77.27988,11.16816],[77.27937,11.1654],[77.27929,11.16386],[77.27807,11.16388],[77.27751,11.16416],[77.27589,11.16446],[77.27499,11.16482],[77.27346,11.16472],[77.27259,11.16497]]]}},{"type":"Feature","bbox":[77.27848,11.16809,77.28459,11.1784],"properties":{"ward":2},"geometry":{"type":"Polygon","coordinates":[[[77.28051,11.16885],[77.28045,11.16809],[77.27982,11.16822],[77.27903,11.16928],[77.27855,11.17055],[77.27848,11.17249],[77.27862,11.17404],[77.27894,11.17478],[77.28161,11.17541],[77.28281,11.17609],[77.28349,11.17687],[77.28418,11.1784],[77.28459,11.17812],[77.28403,11.17715],[77.28405,11.17643],[77.28282,11.17431],[77.28289,11.17411],[77.28361,11.17369],[77.2827,11.17273],[77.28158,11.17068],[77.28113,11.16948],[77.28051,11.16885]]]}},{"type":"Feature","bbox":[77.2798,11.16366,77.30357,11.17694],"properties":{"ward":3},"geometry":{"type":"Polygon","coordinates":[[[77.28273,11.17284],[77.28479,11.17474],[77.28573,11.17502],[77.28662,11.17602],[77.28695,11.17595],[77.28721,11.17611],[77.28785,11.17694],[77.2895,11.17651],[77.29017,11.17566],[77.29119,11.17489],[77.29236,11.17474],[77.29419,11.17479],[77.29493,11.17444],[77.29533,11.17492],[77.29555,11.17491],[77.29646,11.17428],[77.29766,11.17277],[77.29962,11.17084],[77.30231,11.16905],[77.30357,11.16793],[77.30353,11.16776],[77.30295,11.16676],[77.30206,11.16603],[77.30168,11.16495],[77.30076,11.16391],[77.30019,11.16366],[77.29956,11.16366],[77.2983,11.1641],[77.29727,11.16475],[77.2958,11.16609],[77.2955,11.16617],[77.29451,11.16591],[77.29282,11.16491],[77.29176,11.16453],[77.29148,11.16419],[77.28864,11.16401],[77.28778,11.16433],[77.28518,11.16443],[77.28491,11.16466],[77.2848,11.16637],[77.28275,11.16682],[77.28087,11.16683],[77.28037,11.16788],[77.2798,11.16799],[77.27988,11.16816],[77.28045,11.16811],[77.28051,11.16885],[77.28109,11.16946],[77.28152,11.17062],[77.28273,11.17284]]]}},{"type":"Feature","bbox":[77.29643,11.16795,77.30389,11.17467],"properties":{"ward":4},"geometry":{"type":"Polygon","coordinates":[[[77.30176,11.1744],[77.30218,11.17256],[77.30217,11.17166],[77.30199,11.17105],[77.30273,11.17014],[77.30367,11.16943],[77.30389,11.16828],[77.30362,11.16795],[77.30156,11.16962],[77.29962,11.17084],[77.29766,11.17278],[77.29643,11.1743],[77.29714,11.17359],[77.29744,11.17397],[77.29831,11.17352],[77.29866,11.17467],[77.3005,11.17465],[77.30176,11.1744]]]}},{"type":"Feature","bbox":[77.30177,11.16821,77.30857,11.17586],"properties":{"ward":5},"geometry":{"type":"Polygon","coordinates":[[[77.30393,11.1683],[77.30364,11.16948],[77.30283,11.17004],[77.30199,11.17105],[77.30219,11.17244],[77.30177,11.1744],[77.30284,11.17506],[77.30285,11.17584],[77.30321,11.17586],[77.30327,11.17556],[77.30432,11.1756],[77.30472,11.17382],[77.30549,11.17229],[77.30565,11.17151],[77.30679,11.17177],[77.30857,11.17187],[77.30793,11.17137],[77.3078,11.17087],[77.30573,11.17028],[77.30501,11.16831],[77.30478,11.16821],[77.30393,11.1683]]]}},{"type":"Feature","bbox":[77.3078,11.16767,77.31225,11.17188],"properties":{"ward":6},"geometry":{"type":"Polygon","coordinates":[[[77.3078,11.17087],[77.30795,11.1714],[77.30857,11.17188],[77.30979,11.17157],[77.31007,11.17116],[77.31114,11.17083],[77.31116,11.16922],[77.31225,11.1692],[77.31218,11.16818],[77.31085,11.16804],[77.30944,11.16768],[77.30838,11.16767],[77.30819,11.16944],[77.3078,11.17087]]]}},{"type":"Feature","bbox":[77.30837,11.16474,77.31218,11.16818],"properties":{"ward":7},"geometry":{"type":"Polygon","coordinates":[[[77.30837,11.16765],[77.30943,11.16768],[77.31086,11.16804],[77.31218,11.16818],[77.31186,11.16643],[77.31202,11.16624],[77.31191,11.16521],[77.30978,11.16474],[77.30891,11.1648],[77.30846,11.16612],[77.30837,11.16765]]]}},{"type":"Feature","bbox":[77.30524,11.16709,77.3084,11.17087],"properties":{"ward":8},"geometry":{"type":"Polygon","coordinates":[[[77.30524,11.16866],[77.30545,11.16975],[77.3058,11.17035],[77.3078,11.17087],[77.30825,11.16908],[77.3084,11.16709],[77.30705,11.16713],[77.30574,11.16809],[77.30524,11.16866]]]}},{"type":"Feature","bbox":[77.30358,11.16609,77.30714,11.16867],"properties":{"ward":9},"geometry":{"type":"Polygon","coordinates":[[[77.30709,11.16711],[77.30714,11.16684],[77.30635,11.16694],[77.30606,11.16609],[77.30358,11.16794],[77.30389,11.16831],[77.30487,11.16822],[77.30523,11.16867],[77.30574,11.16809],[77.30709,11.16711]]]}},{"type":"Feature","bbox":[77.29992,11.16089,77.30939,11.16798],"properties":{"ward":10},"geometry":{"type":"Polygon","coordinates":[[[77.29992,11.16366],[77.30065,11.16384],[77.30169,11.16496],[77.30206,11.16604],[77.30295,11.16677],[77.30357,11.16798],[77.30703,11.16529],[77.30797,11.16341],[77.30939,11.1612],[77.309,11.16096],[77.30839,11.16089],[77.30635,11.16133],[77.30488,11.16191],[77.30256,11.16311],[77.30149,11.16318],[77.30087,11.16296],[77.30028,11.16302],[77.30004,11.16322],[77.29992,11.16366]]]}},{"type":"Feature","bbox":[77.28917,11.15785,77.3,11.16618],"properties":{"ward":11},"geometry":{"type":"Polygon","coordinates":[[[77.29052,11.16307],[77.29174,11.16453],[77.29284,11.16493],[77.29449,11.16591],[77.29551,11.16618],[77.29587,11.16604],[77.29726,11.16476],[77.29831,11.1641],[77.29906,11.16378],[77.29992,11.16366],[77.3,11.16318],[77.29848,11.15965],[77.2981,11.15797],[77.29168,11.15785],[77.29092,11.15832],[77.28988,11.15861],[77.28947,11.15889],[77.28917,11.15919],[77.2895,11.16004],[77.28979,11.16191],[77.29052,11.16307]]]}},{"type":"Feature","bbox":[77.28465,11.15919,77.29148,11.16448],"properties":{"ward":12},"geometry":{"type":"Polygon","coordinates":[[[77.28504,11.16448],[77.28776,11.16434],[77.28859,11.16402],[77.29148,11.16419],[77.28983,11.16195],[77.28951,11.16002],[77.28919,11.15919],[77.28898,11.15941],[77.28759,11.15977],[77.28732,11.15997],[77.28624,11.15995],[77.28509,11.15962],[77.28465,11.15965],[77.28469,11.16227],[77.28497,11.16295],[77.28504,11.16448]]]}},{"type":"Feature","bbox":[77.27523,11.15897,77.28509,11.16799],"properties":{"ward":13},"geometry":{"type":"Polygon","coordinates":[[[77.27523,11.16468],[77.27747,11.16418],[77.27821,11.16386],[77.27928,11.16387],[77.27935,11.16539],[77.27981,11.16799],[77.2804,11.16789],[77.28087,11.16684],[77.28262,11.16686],[77.28484,11.16638],[77.28481,11.16529],[77.28509,11.164],[77.28463,11.16133],[77.28459,11.1599],[77.28475,11.15955],[77.28249,11.15897],[77.27935,11.15903],[77.27844,11.16074],[77.27776,11.16127],[77.27771,11.16181],[77.27656,11.16275],[77.27611,11.16377],[77.27568,11.16437],[77.27523,11.16468]]]}},{"type":"Feature","bbox":[77.26938,11.15466,77.28028,11.16499],"properties":{"ward":14},"geometry":{"type":"Polygon","coordinates":[[[77.2694,11.15695],[77.27113,11.16119],[77.27078,11.16223],[77.27125,11.16388],[77.27245,11.16465],[77.27255,11.16499],[77.27346,11.16473],[77.27499,11.16482],[77.27546,11.16456],[77.27617,11.16368],[77.27658,11.16276],[77.27774,11.16182],[77.27779,11.16129],[77.27853,11.16064],[77.27919,11.1592],[77.27944,11.15903],[77.28028,11.15909],[77.28004,11.1582],[77.27882,11.1583],[77.27838,11.1571],[77.27709,11.15739],[77.27687,11.15675],[77.27643,11.15683],[77.27426,11.15623],[77.27401,11.15608],[77.27403,11.15562],[77.27055,11.15466],[77.26979,11.15543],[77.26938,11.15659],[77.2694,11.15695]]]}},{"type":"Feature","bbox":[77.26664,11.14534,77.28003,11.15834],"properties":{"ward":15},"geometry":{"type":"Polygon","coordinates":[[[77.27882,11.15834],[77.28003,11.15822],[77.27945,11.1556],[77.27928,11.15338],[77.27944,11.15255],[77.27897,11.15238],[77.27875,11.15196],[77.27781,11.14905],[77.2772,11.14783],[77.27514,11.1458],[77.27422,11.14534],[77.27393,11.14543],[77.27292,11.14736],[77.27096,11.14716],[77.26978,11.1489],[77.26913,11.14889],[77.26851,11.1486],[77.2683,11.14904],[77.26784,11.14914],[77.26768,11.14935],[77.26664,11.15171],[77.2687,11.15266],[77.26911,11.15325],[77.26878,11.15465],[77.26879,11.15548],[77.26899,11.15596],[77.26866,11.15623],[77.26828,11.15628],[77.26803,11.15693],[77.26801,11.15753],[77.26855,11.15766],[77.26941,11.15695],[77.26981,11.15544],[77.27056,11.15468],[77.27407,11.15567],[77.27399,11.15609],[77.27424,11.15624],[77.27639,11.15684],[77.27686,11.15677],[77.27709,11.15742],[77.27837,11.15711],[77.27882,11.15834]]]}},{"type":"Feature","bbox":[77.27392,11.14289,77.28385,11.15931],"properties":{"ward":16},"geometry":{"type":"Polygon","coordinates":[[[77.2825,11.15897],[77.28366,11.15931],[77.28385,11.15805],[77.28365,11.15749],[77.28357,11.15582],[77.28281,11.15331],[77.28236,11.15087],[77.2818,11.14917],[77.28128,11.1467],[77.28042,11.1451],[77.27851,11.14399],[77.27787,11.14312],[77.27746,11.14289],[77.27693,11.14347],[77.27637,11.14479],[77.27462,11.14498],[77.2741,11.14485],[77.27392,11.14542],[77.27424,11.14533],[77.2753,11.14591],[77.27681,11.14733],[77.27771,11.14881],[77.27874,11.15195],[77.27897,11.15239],[77.27943,11.15256],[77.27926,11.1533],[77.27944,11.15565],[77.28026,11.15909],[77.28133,11.15892],[77.2825,11.15897]]]}},{"type":"Feature","bbox":[77.27749,11.14258,77.29451,11.15998],"properties":{"ward":17},"geometry":{"type":"Polygon","coordinates":[[[77.29451,11.15798],[77.29437,11.15633],[77.29385,11.15469],[77.2927,11.1527],[77.29093,11.15238],[77.28803,11.15213],[77.28508,11.15119],[77.28437,11.1508],[77.28355,11.14854],[77.28252,11.14634],[77.28224,11.14448],[77.28165,11.14258],[77.2777,11.14272],[77.27749,11.14288],[77.27788,11.14311],[77.27851,11.14395],[77.28043,11.14507],[77.28102,11.14601],[77.28157,11.14785],[77.28186,11.14952],[77.28233,11.15087],[77.28278,11.1533],[77.28348,11.1555],[77.28365,11.15763],[77.28383,11.15806],[77.28366,11.1593],[77.28624,11.15997],[77.28731,11.15998],[77.28757,11.15978],[77.28893,11.15945],[77.28986,11.15863],[77.29089,11.15834],[77.29169,11.15786],[77.29451,11.15798]]]}},{"type":"Feature","bbox":[77.28167,11.13926,77.29807,11.15797],"properties":{"ward":18},"geometry":{"type":"Polygon","coordinates":[[[77.29803,11.15797],[77.29807,11.15696],[77.29739,11.15288],[77.2975,11.15206],[77.29801,11.15172],[77.29776,11.15049],[77.29734,11.14883],[77.29709,11.14859],[77.29607,11.14883],[77.29578,11.14876],[77.29498,11.14757],[77.29458,11.14606],[77.29447,11.1438],[77.29459,11.14231],[77.29452,11.14137],[77.29435,11.1411],[77.29274,11.14052],[77.292,11.14045],[77.29068,11.13989],[77.28813,11.13926],[77.28724,11.14017],[77.28406,11.14194],[77.28327,11.14282],[77.28167,11.14258],[77.28222,11.1445],[77.28254,11.14642],[77.28343,11.14828],[77.28398,11.15008],[77.28436,11.15082],[77.28505,11.1512],[77.28798,11.15213],[77.29093,11.15238],[77.2927,11.15271],[77.29384,11.15469],[77.29436,11.15634],[77.29452,11.15797],[77.29803,11.15797]]]}},{"type":"Feature","bbox":[77.29739,11.15137,77.3021,11.15807],"properties":{"ward":19},"geometry":{"type":"Polygon","coordinates":[[[77.29809,11.15798],[77.29957,11.15807],[77.29996,11.15669],[77.30191,11.15654],[77.30166,11.15585],[77.3021,11.15383],[77.30204,11.1535],[77.30181,11.1532],[77.30151,11.15203],[77.3007,11.15137],[77.29802,11.15173],[77.2975,11.15204],[77.29739,11.15303],[77.29805,11.15685],[77.29809,11.15798]]]}},{"type":"Feature","bbox":[77.29808,11.15416,77.30933,11.1633],"properties":{"ward":20},"geometry":{"type":"Polygon","coordinates":[[[77.30238,11.15645],[77.29996,11.15667],[77.29959,11.15803],[77.2983,11.15792],[77.29808,11.15802],[77.29848,11.1597],[77.30002,11.1633],[77.30048,11.16298],[77.30161,11.1632],[77.30258,11.16311],[77.3049,11.16191],[77.30543,11.16178],[77.30464,11.15959],[77.30491,11.15815],[77.30482,11.15768],[77.30461,11.15751],[77.30538,11.15663],[77.30725,11.15617],[77.30748,11.15584],[77.30933,11.15547],[77.30891,11.15416],[77.30467,11.15549],[77.30238,11.15645]]]}},{"type":"Feature","bbox":[77.30466,11.15763,77.30978,11.16178],"properties":{"ward":21},"geometry":{"type":"Polygon","coordinates":[[[77.3049,11.15815],[77.30466,11.15976],[77.30543,11.16178],[77.30637,11.16133],[77.30833,11.1609],[77.309,11.16097],[77.30938,11.1612],[77.30963,11.16075],[77.30977,11.15997],[77.30978,11.15763],[77.30817,11.15792],[77.30661,11.15875],[77.3049,11.15815]]]}},{"type":"Feature","bbox":[77.30607,11.1608,77.31581,11.1671],"properties":{"ward":22},"geometry":{"type":"Polygon","coordinates":[[[77.31532,11.16263],[77.31581,11.16083],[77.31463,11.1608],[77.31268,11.16112],[77.31149,11.1622],[77.31009,11.16209],[77.30878,11.16222],[77.30799,11.16338],[77.30714,11.16511],[77.30607,11.16609],[77.30635,11.16697],[77.30713,11.16686],[77.30716,11.16709],[77.30841,11.1671],[77.30851,11.16599],[77.309,11.16477],[77.31039,11.16485],[77.31191,11.16523],[77.31259,11.16422],[77.31383,11.16435],[77.31393,11.16375],[77.31358,11.1637],[77.3135,11.16276],[77.3142,11.16255],[77.31532,11.16263]]]}},{"type":"Feature","bbox":[77.30878,11.15651,77.31633,11.16223],"properties":{"ward":23},"geometry":{"type":"Polygon","coordinates":[[[77.31493,11.15721],[77.31251,11.15767],[77.30978,11.15843],[77.30965,11.16067],[77.30878,11.16223],[77.31008,11.1621],[77.31152,11.1622],[77.31268,11.16113],[77.31451,11.16082],[77.31581,11.16084],[77.31633,11.15789],[77.31621,11.15651],[77.31493,11.15721]]]}},{"type":"Feature","bbox":[77.30884,11.15084,77.31297,11.15844],"properties":{"ward":24},"geometry":{"type":"Polygon","coordinates":[[[77.30979,11.15844],[77.31297,11.15756],[77.31262,11.15589],[77.31225,11.15519],[77.31239,11.15413],[77.31103,11.15459],[77.31023,11.15355],[77.3101,11.15252],[77.31013,11.15187],[77.31238,11.15178],[77.31241,11.15084],[77.31191,11.15144],[77.31139,11.15178],[77.30918,11.15172],[77.30884,11.15198],[77.30886,11.1539],[77.30956,11.15655],[77.30979,11.15844]]]}},{"type":"Feature","bbox":[77.30461,11.15547,77.30974,11.15875],"properties":{"ward":25},"geometry":{"type":"Polygon","coordinates":[[[77.30974,11.15764],[77.30933,11.15547],[77.30743,11.15584],[77.30725,11.15617],[77.30538,11.15663],[77.30461,11.15751],[77.30481,11.15768],[77.3049,11.15817],[77.30643,11.15875],[77.30816,11.15794],[77.30974,11.15764]]]}},{"type":"Feature","bbox":[77.3007,11.15047,77.30669,11.15655],"properties":{"ward":26},"geometry":{"type":"Polygon","coordinates":[[[77.30669,11.15487],[77.30624,11.15373],[77.30628,11.15181],[77.30571,11.15139],[77.30541,11.15083],[77.30485,11.15076],[77.3044,11.15047],[77.304,11.15049],[77.3007,11.15137],[77.30152,11.15204],[77.30182,11.1532],[77.30205,11.15351],[77.30166,11.15585],[77.30192,11.15655],[77.30669,11.15487]]]}},{"type":"Feature","bbox":[77.30541,11.15037,77.31185,11.1548],"properties":{"ward":27},"geometry":{"type":"Polygon","coordinates":[[[77.30668,11.1548],[77.30892,11.15417],[77.3088,11.1524],[77.30903,11.15177],[77.31121,11.15181],[77.31185,11.1515],[77.30996,11.15107],[77.30948,11.15088],[77.30931,11.15052],[77.30836,11.15037],[77.308,11.15158],[77.30621,11.15093],[77.30541,11.15084],[77.30572,11.15142],[77.30627,11.15183],[77.30623,11.15373],[77.30668,11.1548]]]}}]}