{"type":"FeatureCollection","features":[{"type":"Feature","bbox":[77.5468,11.01133,77.5567,11.02391],"properties":{"ward":1},"geometry":{"type":"Polygon","coordinates":[[[77.55067,11.01376],[77.5468,11.01718],[77.54725,11.01798],[77.54768,11.0183],[77.54811,11.01787],[77.54953,11.01894],[77.54957,11.01971],[77.55002,11.02146],[77.55059,11.02208],[77.55151,11.0236],[77.55198,11.02391],[77.5564,11.02359],[77.5567,11.02275],[77.55625,11.02123],[77.55421,11.02065],[77.55436,11.01927],[77.55412,11.01726],[77.5543,11.01719],[77.55463,11.0157],[77.55571,11.01596],[77.55599,11.0152],[77.55556,11.01509],[77.55551,11.0149],[77.55575,11.0135],[77.55565,11.013],[77.55395,11.01221],[77.55317,11.01133],[77.55197,11.01224],[77.55067,11.01376]]]}},{"type":"Feature","bbox":[77.55319,11.00906,77.56928,11.03026],"properties":{"ward":2},"geometry":{"type":"Polygon","coordinates":[[[77.56928,11.03026],[77.56667,11.02192],[77.56428,11.01561],[77.56031,11.01575],[77.56008,11.01174],[77.55799,11.01162],[77.55782,11.01233],[77.55678,11.01213],[77.55709,11.01035],[77.5566,11.01029],[77.5567,11.00906],[77.55319,11.01132],[77.55391,11.01214],[77.55568,11.01299],[77.55577,11.01345],[77.55553,11.0149],[77.55558,11.01504],[77.55604,11.0152],[77.55575,11.01602],[77.5554,11.01605],[77.55538,11.01644],[77.555,11.01648],[77.55474,11.01713],[77.55416,11.01729],[77.55438,11.01934],[77.55426,11.02062],[77.55626,11.02121],[77.55673,11.02272],[77.56162,11.0236],[77.56316,11.02409],[77.56493,11.02501],[77.56547,11.02573],[77.56644,11.02962],[77.56928,11.03026]]]}},{"type":"Feature","bbox":[77.56388,11.00785,77.58537,11.03338],"properties":{"ward":3},"geometry":{"type":"Polygon","coordinates":[[[77.57903,11.01792],[77.57509,11.01528],[77.57333,11.01225],[77.57216,11.0107],[77.57006,11.00859],[77.56855,11.00802],[77.56683,11.00785],[77.56727,11.00859],[77.56726,11.00989],[77.56745,11.01064],[77.56695,11.01156],[77.56613,11.01166],[77.56597,11.01382],[77.56388,11.01427],[77.56667,11.02192],[77.56928,11.03013],[77.5698,11.03029],[77.5728,11.03043],[77.57319,11.03187],[77.57433,11.03338],[77.57761,11.03338],[77.57954,11.03307],[77.58313,11.03066],[77.58477,11.02918],[77.58527,11.02816],[77.58537,11.02756],[77.585,11.02374],[77.5849,11.02021],[77.58153,11.01857],[77.5805,11.01819],[77.57903,11.01792]]]}},{"type":"Feature","bbox":[77.55657,11.00534,77.56744,11.01576],"properties":{"ward":4},"geometry":{"type":"Polygon","coordinates":[[[77.56613,11.01166],[77.56696,11.01153],[77.56744,11.01065],[77.56728,11.01022],[77.56723,11.00859],[77.56681,11.00782],[77.56437,11.00684],[77.56382,11.00629],[77.56093,11.00534],[77.55887,11.00744],[77.5567,11.00894],[77.55657,11.01028],[77.55711,11.01036],[77.55682,11.01212],[77.55781,11.01228],[77.55798,11.01158],[77.56008,11.01174],[77.56037,11.01561],[77.56054,11.01576],[77.56373,11.01572],[77.56436,11.01556],[77.56385,11.01424],[77.56594,11.01375],[77.56613,11.01166]]]}},{"type":"Feature","bbox":[77.55564,11.00564,77.55917,11.00894],"properties":{"ward":5},"geometry":{"type":"Polygon","coordinates":[[[77.55873,11.00681],[77.55783,11.00674],[77.55781,11.00564],[77.55604,11.00581],[77.55613,11.00652],[77.55564,11.00648],[77.55606,11.00805],[77.5567,11.00894],[77.55917,11.00714],[77.55873,11.00681]]]}},{"type":"Feature","bbox":[77.5502,11.00625,77.5567,11.01109],"properties":{"ward":6},"geometry":{"type":"Polygon","coordinates":[[[77.5536,11.01109],[77.5567,11.00894],[77.55606,11.00805],[77.55564,11.00648],[77.55613,11.00652],[77.55566,11.00648],[77.55087,11.00625],[77.55077,11.00661],[77.5502,11.00673],[77.55021,11.00713],[77.55077,11.0084],[77.55164,11.00819],[77.552,11.0079],[77.55234,11.0079],[77.5524,11.01011],[77.55283,11.01003],[77.5536,11.01109]]]}},{"type":"Feature","bbox":[77.55039,11.0079,77.5536,11.01355],"properties":{"ward":7},"geometry":{"type":"Polygon","coordinates":[[[77.5536,11.01109],[77.55283,11.01003],[77.5524,11.01011],[77.55234,11.0079],[77.55078,11.00837],[77.55039,11.01133],[77.5507,11.01343],[77.5509,11.01355],[77.55189,11.01237],[77.5536,11.01109]]]}},{"type":"Feature","bbox":[77.5359,11.00111,77.5509,11.01716],"properties":{"ward":8},"geometry":{"type":"MultiPolygon","coordinates":[[[[77.54475,11.01572],[77.54682,11.01715],[77.54813,11.01584],[77.5509,11.01355],[77.55067,11.01342],[77.55039,11.01129],[77.55077,11.00836],[77.55021,11.00713],[77.54825,11.00722],[77.54796,11.0076],[77.54793,11.01016],[77.54756,11.01083],[77.54709,11.01088],[77.54679,11.01026],[77.54677,11.00752],[77.54098,11.00744],[77.54036,11.00121],[77.53758,11.00111],[77.53655,11.00122],[77.53694,11.00179],[77.53694,11.00282],[77.53641,11.00784],[77.5359,11.00952],[77.53742,11.01009],[77.53922,11.01002],[77.5427,11.01127],[77.54328,11.01201],[77.54428,11.01422],[77.54475,11.01572]]],[[[77.54682,11.01715],[77.54681,11.01716],[77.54682,11.01715],[77.54682,11.01715]]]]}},{"type":"Feature","bbox":[77.53644,10.99381,77.55613,11.01088],"properties":{"ward":9},"geometry":{"type":"Polygon","coordinates":[[[77.55077,11.00661],[77.55087,11.00625],[77.55613,11.00652],[77.55573,11.00434],[77.55579,11.00327],[77.55476,11.00309],[77.55516,11.00088],[77.5495,10.99864],[77.54237,10.99631],[77.53703,10.99381],[77.53645,10.99578],[77.53644,11.00095],[77.53694,11.00122],[77.53759,11.0011],[77.54036,11.00121],[77.54106,11.00746],[77.54677,11.00752],[77.54679,11.01026],[77.54709,11.01088],[77.54756,11.01083],[77.54793,11.01016],[77.54796,11.0076],[77.54825,11.00722],[77.55021,11.00713],[77.5502,11.00673],[77.55077,11.00661]]]}},{"type":"Feature","bbox":[77.55476,11.00088,77.56246,11.00714],"properties":{"ward":10},"geometry":{"type":"Polygon","coordinates":[[[77.55917,11.00714],[77.56093,11.00534],[77.56142,11.0036],[77.56246,11.00174],[77.55864,11.00182],[77.55628,11.00133],[77.55516,11.00088],[77.55476,11.00309],[77.55579,11.00327],[77.55573,11.00434],[77.55604,11.00581],[77.55781,11.00564],[77.55783,11.00674],[77.55873,11.00681],[77.55917,11.00714]]]}},{"type":"Feature","bbox":[77.56093,11.00123,77.56788,11.00795],"properties":{"ward":11},"geometry":{"type":"Polygon","coordinates":[[[77.56696,11.00519],[77.56692,11.00123],[77.56246,11.00174],[77.56142,11.0036],[77.56093,11.00534],[77.56382,11.00629],[77.56437,11.00684],[77.5668,11.00782],[77.56788,11.00795],[77.56766,11.00621],[77.56717,11.00592],[77.56723,11.00552],[77.56696,11.00519]]]}},{"type":"Feature","bbox":[77.56692,11.00053,77.5748,11.01458],"properties":{"ward":12},"geometry":{"type":"Polygon","coordinates":[[[77.57384,11.00791],[77.5734,11.00458],[77.56955,11.00494],[77.56962,11.00413],[77.5687,11.00155],[77.56886,11.00053],[77.56692,11.00123],[77.56696,11.00519],[77.56723,11.00552],[77.56717,11.00592],[77.56766,11.00621],[77.56788,11.00796],[77.56852,11.00798],[77.57006,11.00859],[77.57345,11.01219],[77.5748,11.01458],[77.57414,11.00813],[77.57384,11.00791]]]}},{"type":"Feature","bbox":[77.56246,10.99654,77.57798,11.01525],"properties":{"ward":13},"geometry":{"type":"Polygon","coordinates":[[[77.57584,11.00608],[77.5757,11.00325],[77.57634,11.00262],[77.5767,11.00057],[77.57752,10.9985],[77.57798,10.99668],[77.57468,10.99654],[77.57079,10.99679],[77.57017,10.99816],[77.56894,10.99893],[77.5685,10.99854],[77.56804,10.99767],[77.5663,10.99764],[77.56555,10.99881],[77.56354,10.99874],[77.56246,11.00174],[77.56692,11.00123],[77.56886,11.00053],[77.5687,11.00155],[77.56962,11.00413],[77.56955,11.00494],[77.5734,11.00458],[77.57384,11.00791],[77.57414,11.00813],[77.5748,11.01458],[77.57519,11.01525],[77.5755,11.015],[77.5754,11.01375],[77.57587,11.0102],[77.57559,11.00914],[77.57584,11.00608]]]}},{"type":"Feature","bbox":[77.55335,10.99624,77.56375,11.00182],"properties":{"ward":14},"geometry":{"type":"Polygon","coordinates":[[[77.55864,11.00182],[77.56246,11.00174],[77.56267,11.00134],[77.56351,10.99898],[77.56375,10.99633],[77.56262,10.99624],[77.56245,10.99871],[77.56172,10.99878],[77.55655,11.0002],[77.55521,11.00001],[77.55374,10.99999],[77.55335,11.00015],[77.55628,11.00133],[77.55864,11.00182]]]}},{"type":"Feature","bbox":[77.53703,10.96823,77.56262,11.0002],"properties":{"ward":15},"geometry":{"type":"Polygon","coordinates":[[[77.55374,10.99999],[77.55655,11.0002],[77.55901,10.99956],[77.55861,10.99766],[77.55821,10.99706],[77.55823,10.99548],[77.55806,10.99421],[77.55862,10.99386],[77.55863,10.99315],[77.55902,10.99154],[77.5604,10.99144],[77.56032,10.98908],[77.55995,10.98753],[77.55997,10.9869],[77.55939,10.98588],[77.5602,10.98541],[77.56013,10.98508],[77.56262,10.98451],[77.56129,10.98],[77.56041,10.97522],[77.55792,10.96879],[77.55753,10.96823],[77.55257,10.9685],[77.55046,10.97356],[77.55046,10.97497],[77.55021,10.97608],[77.55022,10.97824],[77.54973,10.98172],[77.54958,10.98645],[77.54909,10.99036],[77.54761,10.99073],[77.54551,10.99025],[77.53873,10.98741],[77.53771,10.989],[77.53775,10.99048],[77.53703,10.99381],[77.54237,10.99631],[77.5495,10.99864],[77.55335,11.00015],[77.55374,10.99999]]]}},{"type":"Feature","bbox":[77.55806,10.99148,77.56411,10.99956],"properties":{"ward":16},"geometry":{"type":"Polygon","coordinates":[[[77.56203,10.9987],[77.56245,10.99871],[77.56262,10.99624],[77.56375,10.99633],[77.56411,10.99188],[77.56377,10.99194],[77.56142,10.99148],[77.55902,10.99154],[77.55863,10.99315],[77.55862,10.99386],[77.55806,10.99421],[77.55823,10.99548],[77.55821,10.99706],[77.55861,10.99766],[77.55901,10.99956],[77.56203,10.9987]]]}},{"type":"Feature","bbox":[77.56354,10.99148,77.56878,10.99881],"properties":{"ward":17},"geometry":{"type":"Polygon","coordinates":[[[77.5663,10.99764],[77.56804,10.99767],[77.56803,10.99577],[77.56823,10.99546],[77.56843,10.99341],[77.56813,10.99309],[77.56878,10.99235],[77.5683,10.99148],[77.56794,10.99156],[77.56728,10.99239],[77.56629,10.9917],[77.56411,10.99188],[77.56354,10.99874],[77.56555,10.99881],[77.5663,10.99764]]]}},{"type":"Feature","bbox":[77.55754,10.96689,77.57808,10.99885],"properties":{"ward":18},"geometry":{"type":"Polygon","coordinates":[[[77.56036,10.98892],[77.56043,10.9914],[77.56149,10.99145],[77.56373,10.99186],[77.56612,10.99161],[77.56727,10.9923],[77.56827,10.99139],[77.56882,10.99233],[77.56829,10.99303],[77.56846,10.99333],[77.56831,10.99538],[77.56811,10.99582],[77.56808,10.99774],[77.56855,10.99849],[77.56898,10.99885],[77.56972,10.99849],[77.57017,10.99805],[77.57082,10.99671],[77.57455,10.99649],[77.57808,10.99666],[77.57804,10.99607],[77.57711,10.99549],[77.57679,10.99574],[77.57631,10.99549],[77.57363,10.99556],[77.5712,10.99588],[77.57022,10.99573],[77.56953,10.99529],[77.56976,10.99448],[77.57092,10.9943],[77.5714,10.99332],[77.57123,10.99242],[77.57197,10.99139],[77.57228,10.98966],[77.5732,10.9875],[77.57252,10.98719],[77.57231,10.98784],[77.5694,10.98771],[77.5691,10.98692],[77.56906,10.98553],[77.56832,10.98517],[77.56941,10.98286],[77.56952,10.97975],[77.57011,10.97702],[77.56922,10.97546],[77.56947,10.96689],[77.56713,10.96732],[77.56361,10.96717],[77.56199,10.96763],[77.55754,10.96822],[77.55866,10.97059],[77.5604,10.97518],[77.5613,10.97992],[77.56264,10.98451],[77.56018,10.9851],[77.56025,10.98541],[77.55943,10.9859],[77.55999,10.98677],[77.56,10.98752],[77.56036,10.98892]]]}}]}