{"type":"FeatureCollection","features":[{"type":"Feature","bbox":[75.47902,31.04984,75.48501,31.05745],"properties":{"ward":1},"geometry":{"type":"Polygon","coordinates":[[[75.48212,31.05745],[75.48501,31.05188],[75.48386,31.04984],[75.48295,31.05007],[75.48297,31.05031],[75.4825,31.05073],[75.48039,31.0507],[75.48043,31.05049],[75.47946,31.05064],[75.47935,31.05043],[75.47902,31.05042],[75.4794,31.05109],[75.47953,31.05315],[75.48062,31.0559],[75.48212,31.05745]]]}},{"type":"Feature","bbox":[75.47809,31.04672,75.4838,31.05065],"properties":{"ward":2},"geometry":{"type":"Polygon","coordinates":[[[75.4828,31.05002],[75.4838,31.04976],[75.48233,31.04719],[75.48117,31.04799],[75.47968,31.04672],[75.47861,31.0471],[75.47834,31.04692],[75.4781,31.04714],[75.47836,31.04742],[75.47809,31.04791],[75.47844,31.04841],[75.47827,31.04896],[75.4787,31.04939],[75.47887,31.05036],[75.4794,31.0504],[75.47951,31.05058],[75.48053,31.05041],[75.48053,31.05058],[75.48245,31.05065],[75.48282,31.0503],[75.4828,31.05002]]]}},{"type":"Feature","bbox":[75.47626,31.0472,75.47833,31.04999],"properties":{"ward":3},"geometry":{"type":"Polygon","coordinates":[[[75.478,31.0472],[75.47722,31.04762],[75.47678,31.04764],[75.47638,31.04797],[75.47655,31.04864],[75.47626,31.0494],[75.47725,31.04999],[75.47725,31.04971],[75.47753,31.0492],[75.47827,31.04875],[75.47833,31.04841],[75.47796,31.04798],[75.47822,31.0474],[75.478,31.0472]]]}},{"type":"Feature","bbox":[75.47332,31.04151,75.48229,31.04784],"properties":{"ward":4},"geometry":{"type":"Polygon","coordinates":[[[75.4819,31.04709],[75.48229,31.04707],[75.48101,31.04477],[75.47853,31.04192],[75.47776,31.04151],[75.47676,31.04367],[75.47435,31.04516],[75.47332,31.04621],[75.47493,31.04577],[75.47624,31.04714],[75.47603,31.04739],[75.4764,31.04778],[75.4783,31.04674],[75.47855,31.04692],[75.47967,31.04656],[75.48119,31.04784],[75.48195,31.04723],[75.4819,31.04709]]]}},{"type":"Feature","bbox":[75.47441,31.04746,75.47726,31.05101],"properties":{"ward":5},"geometry":{"type":"Polygon","coordinates":[[[75.47589,31.05089],[75.47671,31.05061],[75.47726,31.05013],[75.47636,31.04974],[75.47612,31.0494],[75.47641,31.04863],[75.47633,31.04784],[75.47596,31.04746],[75.47556,31.04759],[75.47601,31.04822],[75.47527,31.04864],[75.47465,31.04825],[75.47441,31.04861],[75.475,31.04863],[75.47531,31.04885],[75.47452,31.04937],[75.47487,31.05027],[75.47454,31.05068],[75.47456,31.05101],[75.47589,31.05089]]]}},{"type":"Feature","bbox":[75.47356,31.04589,75.47609,31.04926],"properties":{"ward":6},"geometry":{"type":"Polygon","coordinates":[[[75.47609,31.04717],[75.47489,31.04589],[75.47392,31.04608],[75.47405,31.04631],[75.47356,31.04648],[75.47373,31.04753],[75.47397,31.04747],[75.47412,31.04813],[75.47371,31.0484],[75.47447,31.04926],[75.47513,31.04885],[75.47416,31.04864],[75.47459,31.04808],[75.47527,31.04848],[75.47588,31.0482],[75.47539,31.04757],[75.47609,31.04717]]]}},{"type":"Feature","bbox":[75.47147,31.04614,75.47471,31.05126],"properties":{"ward":7},"geometry":{"type":"Polygon","coordinates":[[[75.47378,31.04614],[75.47331,31.04632],[75.47304,31.04721],[75.47345,31.04847],[75.47229,31.04832],[75.47237,31.04953],[75.47185,31.04969],[75.47175,31.05001],[75.47147,31.05014],[75.47243,31.05126],[75.47425,31.05046],[75.47442,31.05095],[75.47444,31.05057],[75.47471,31.05026],[75.47439,31.04943],[75.47354,31.04838],[75.47401,31.04806],[75.47389,31.04757],[75.47362,31.04761],[75.47342,31.04643],[75.47387,31.04627],[75.47378,31.04614]]]}},{"type":"Feature","bbox":[75.45545,31.03955,75.47225,31.05017],"properties":{"ward":8},"geometry":{"type":"Polygon","coordinates":[[[75.47035,31.05017],[75.47164,31.04991],[75.47172,31.04962],[75.47225,31.04945],[75.47219,31.04812],[75.47048,31.0462],[75.46653,31.04342],[75.46305,31.04227],[75.45892,31.04174],[75.45545,31.03955],[75.45579,31.04713],[75.4568,31.04756],[75.45996,31.0476],[75.46257,31.04816],[75.4656,31.04845],[75.47035,31.05017]]]}},{"type":"Feature","bbox":[75.45544,31.03691,75.47757,31.04828],"properties":{"ward":9},"geometry":{"type":"Polygon","coordinates":[[[75.47317,31.04828],[75.47287,31.04706],[75.47299,31.04644],[75.47335,31.04576],[75.4741,31.04506],[75.47665,31.04353],[75.47757,31.04149],[75.4683,31.03707],[75.46295,31.03691],[75.45544,31.03891],[75.45561,31.03945],[75.45902,31.04163],[75.4631,31.04214],[75.46662,31.04326],[75.47071,31.04621],[75.47232,31.04804],[75.47317,31.04828]]]}},{"type":"Feature","bbox":[75.45587,31.04739,75.47215,31.05381],"properties":{"ward":10},"geometry":{"type":"Polygon","coordinates":[[[75.45587,31.04739],[75.45593,31.04813],[75.46194,31.05381],[75.46327,31.05345],[75.46608,31.05307],[75.46784,31.05311],[75.46842,31.05227],[75.4689,31.05211],[75.46892,31.05196],[75.46996,31.05181],[75.47057,31.05144],[75.47215,31.05128],[75.47136,31.05025],[75.47033,31.05034],[75.46562,31.04863],[75.46234,31.0483],[75.45985,31.04776],[75.45677,31.04775],[75.45587,31.04739]]]}},{"type":"Feature","bbox":[75.46206,31.05193,75.4764,31.06416],"properties":{"ward":11},"geometry":{"type":"Polygon","coordinates":[[[75.46206,31.05391],[75.46922,31.06071],[75.47603,31.06416],[75.4764,31.0613],[75.47597,31.05736],[75.47602,31.05627],[75.47576,31.05464],[75.47503,31.05369],[75.47479,31.05295],[75.47322,31.05318],[75.47331,31.05344],[75.4729,31.05347],[75.47316,31.05399],[75.47273,31.05414],[75.47188,31.05331],[75.46979,31.05358],[75.46972,31.05292],[75.46981,31.05266],[75.47008,31.05249],[75.46983,31.05193],[75.46857,31.05225],[75.46794,31.05318],[75.46512,31.05332],[75.46324,31.05357],[75.46206,31.05391]]]}},{"type":"Feature","bbox":[75.46989,31.05072,75.47478,31.05405],"properties":{"ward":12},"geometry":{"type":"Polygon","coordinates":[[[75.47478,31.05284],[75.47418,31.05072],[75.4726,31.05144],[75.47058,31.05154],[75.46993,31.0519],[75.47022,31.05253],[75.46989,31.05271],[75.4699,31.05344],[75.47195,31.05321],[75.47276,31.05405],[75.47309,31.05394],[75.47282,31.05344],[75.47319,31.0534],[75.47309,31.05309],[75.47478,31.05284]]]}},{"type":"Feature","bbox":[75.47449,31.04891,75.48202,31.06471],"properties":{"ward":13},"geometry":{"type":"Polygon","coordinates":[[[75.47449,31.05114],[75.47506,31.05345],[75.47594,31.05479],[75.47618,31.05622],[75.47612,31.05734],[75.47649,31.06092],[75.47644,31.06258],[75.47613,31.0642],[75.47723,31.06471],[75.48202,31.05754],[75.48048,31.05593],[75.47983,31.05439],[75.47942,31.05321],[75.4793,31.05107],[75.47891,31.05046],[75.47878,31.05047],[75.47849,31.04925],[75.47803,31.04891],[75.47763,31.04924],[75.47736,31.04975],[75.47736,31.05005],[75.47752,31.05011],[75.47646,31.05088],[75.47449,31.05114]]]}}]}