{"type":"FeatureCollection","features":[{"type":"Feature","bbox":[78.07392,30.86826,78.08242,30.87766],"properties":{"ward":1,"name":"Purola Gaon"},"geometry":{"type":"Polygon","coordinates":[[[78.07931,30.86826],[78.07835,30.86921],[78.07704,30.87145],[78.0766,30.87333],[78.07698,30.8742],[78.0759,30.87427],[78.07561,30.87445],[78.07392,30.87642],[78.07459,30.87593],[78.07613,30.87556],[78.07661,30.87523],[78.07803,30.87517],[78.07994,30.8767],[78.07998,30.87707],[78.08065,30.87738],[78.08075,30.87766],[78.08102,30.877],[78.08242,30.87626],[78.0817,30.87569],[78.08125,30.87569],[78.08101,30.8753],[78.08086,30.87481],[78.08125,30.87404],[78.08121,30.87332],[78.07984,30.87061],[78.07944,30.87009],[78.07925,30.86894],[78.07931,30.86826]]]}},{"type":"Feature","bbox":[78.06847,30.87517,78.08072,30.88122],"properties":{"ward":2,"name":"Srigul Mandir"},"geometry":{"type":"MultiPolygon","coordinates":[[[[78.06867,30.88099],[78.06909,30.88061],[78.06911,30.88094],[78.06948,30.88122],[78.06988,30.88019],[78.07009,30.88005],[78.0711,30.88001],[78.07243,30.88024],[78.07294,30.88094],[78.07321,30.88107],[78.07368,30.881],[78.07484,30.88056],[78.07719,30.87917],[78.07783,30.87919],[78.07839,30.87947],[78.07855,30.87933],[78.07937,30.87937],[78.08034,30.87849],[78.08072,30.8777],[78.08055,30.87738],[78.07995,30.87709],[78.07989,30.87671],[78.07901,30.8761],[78.07833,30.87532],[78.07751,30.87517],[78.07662,30.87526],[78.07632,30.87554],[78.07464,30.87596],[78.07389,30.87646],[78.07321,30.87724],[78.07104,30.87782],[78.06999,30.87825],[78.06914,30.87884],[78.06852,30.88005],[78.06847,30.88037],[78.06867,30.88099]]],[[[78.06904,30.88079],[78.069,30.88093],[78.06904,30.88079],[78.06904,30.88079]]]]}},{"type":"Feature","bbox":[78.06965,30.87856,78.0849,30.88701],"properties":{"ward":3,"name":"Vidhya Mandir"},"geometry":{"type":"Polygon","coordinates":[[[78.06965,30.88117],[78.07135,30.88116],[78.07316,30.88157],[78.07552,30.88167],[78.0768,30.88285],[78.07713,30.88292],[78.08032,30.88203],[78.08077,30.88325],[78.08004,30.8847],[78.0802,30.88453],[78.08037,30.88467],[78.08069,30.88572],[78.08073,30.88627],[78.08005,30.88692],[78.0804,30.88701],[78.0807,30.8868],[78.08109,30.88689],[78.08311,30.88485],[78.08403,30.88355],[78.08462,30.88112],[78.0849,30.88087],[78.08464,30.88003],[78.08356,30.88148],[78.08335,30.88129],[78.08359,30.88079],[78.08309,30.87948],[78.08222,30.87877],[78.08115,30.87856],[78.08034,30.87862],[78.07961,30.87934],[78.07919,30.87954],[78.07876,30.87937],[78.07837,30.87957],[78.07782,30.87925],[78.07717,30.87929],[78.07515,30.88046],[78.07334,30.88114],[78.07302,30.88109],[78.07233,30.88037],[78.07173,30.88017],[78.07014,30.88015],[78.06996,30.8802],[78.06965,30.88117]]]}},{"type":"Feature","bbox":[78.07639,30.88099,78.07738,30.88236],"properties":{"ward":4,"name":"Court Road"},"geometry":{"type":"Polygon","coordinates":[[[78.07738,30.88161],[78.07661,30.88099],[78.07639,30.88192],[78.07714,30.88236],[78.07738,30.88161]]]}},{"type":"Feature","bbox":[78.0793,30.86633,78.09292,30.8818],"properties":{"ward":5,"name":"Khawali Sera"},"geometry":{"type":"Polygon","coordinates":[[[78.08132,30.87569],[78.0846,30.8775],[78.08493,30.87808],[78.08534,30.87959],[78.08571,30.88022],[78.08653,30.87996],[78.08728,30.88017],[78.0885,30.8802],[78.08893,30.88057],[78.08904,30.88147],[78.08952,30.88175],[78.09034,30.8818],[78.09122,30.88142],[78.09249,30.88176],[78.09292,30.88161],[78.09258,30.88078],[78.09212,30.87843],[78.09125,30.87819],[78.09037,30.87744],[78.08991,30.87747],[78.08966,30.87777],[78.08931,30.87737],[78.08915,30.87742],[78.08932,30.87787],[78.08828,30.87873],[78.08794,30.87798],[78.0876,30.87846],[78.08675,30.87866],[78.08659,30.87967],[78.08543,30.87695],[78.08527,30.87696],[78.08496,30.87637],[78.08416,30.87549],[78.08371,30.87567],[78.08285,30.87486],[78.08269,30.87361],[78.08123,30.8677],[78.08125,30.86749],[78.08148,30.86736],[78.08257,30.86694],[78.08176,30.86633],[78.08024,30.86648],[78.07934,30.86852],[78.0793,30.86919],[78.07974,30.87044],[78.08015,30.87088],[78.08124,30.87298],[78.08135,30.87369],[78.08108,30.87461],[78.08132,30.87569]]]}},{"type":"Feature","bbox":[78.08561,30.88006,78.09314,30.88603],"properties":{"ward":6,"name":"Durga Mandir"},"geometry":{"type":"Polygon","coordinates":[[[78.08674,30.88006],[78.08561,30.88035],[78.08632,30.88123],[78.088,30.88229],[78.08875,30.88294],[78.0895,30.88418],[78.09124,30.88515],[78.09193,30.88603],[78.09188,30.88508],[78.09267,30.88489],[78.09298,30.88447],[78.09314,30.88261],[78.09284,30.88179],[78.09119,30.88155],[78.09016,30.88188],[78.08946,30.88185],[78.08909,30.88168],[78.08887,30.8806],[78.08843,30.88025],[78.08733,30.88027],[78.08674,30.88006]]]}},{"type":"Feature","bbox":[78.09223,30.87412,78.09903,30.88263],"properties":{"ward":7,"name":"Nagraj Mandir"},"geometry":{"type":"Polygon","coordinates":[[[78.09325,30.88221],[78.0938,30.88206],[78.09417,30.88166],[78.0959,30.88133],[78.09615,30.88172],[78.09695,30.88158],[78.09745,30.88204],[78.09774,30.88263],[78.09847,30.88255],[78.09903,30.88209],[78.09852,30.88112],[78.09708,30.87998],[78.09686,30.87914],[78.09711,30.87875],[78.09711,30.87844],[78.09638,30.87806],[78.09614,30.87774],[78.09623,30.87734],[78.09713,30.87654],[78.09694,30.87603],[78.09738,30.87515],[78.09722,30.87451],[78.09695,30.8742],[78.09623,30.87412],[78.09604,30.87482],[78.09555,30.87533],[78.0954,30.87577],[78.09517,30.87578],[78.09502,30.87667],[78.09482,30.87691],[78.09341,30.87725],[78.09223,30.87843],[78.09278,30.8812],[78.09325,30.88221]]]}}]}