{"type":"FeatureCollection","features":[{"type":"Feature","bbox":[82.50275,20.80998,82.52534,20.82763],"properties":{"ward":1,"name":"Sakhatora"},"geometry":{"type":"Polygon","coordinates":[[[82.52467,20.81193],[82.5246,20.81057],[82.52406,20.81017],[82.52251,20.81007],[82.5224,20.81018],[82.52207,20.80998],[82.52102,20.81076],[82.5194,20.81098],[82.51867,20.81127],[82.51821,20.81169],[82.51775,20.81143],[82.51725,20.81201],[82.5157,20.81243],[82.51471,20.81312],[82.51219,20.81279],[82.51117,20.81295],[82.51077,20.81248],[82.5103,20.81284],[82.50932,20.81322],[82.50905,20.8135],[82.50678,20.81341],[82.50658,20.8138],[82.50598,20.81384],[82.50275,20.8136],[82.50277,20.81585],[82.50369,20.81847],[82.50419,20.81936],[82.50491,20.81999],[82.50979,20.82172],[82.51009,20.82198],[82.51058,20.82291],[82.51086,20.82316],[82.5114,20.82329],[82.51246,20.82413],[82.51345,20.82432],[82.51442,20.82399],[82.51553,20.824],[82.51689,20.82527],[82.51761,20.82568],[82.51947,20.82601],[82.52133,20.8273],[82.52274,20.82763],[82.52313,20.82579],[82.52298,20.82385],[82.52409,20.82298],[82.5245,20.82251],[82.52457,20.82206],[82.52449,20.82157],[82.52394,20.82082],[82.52404,20.81909],[82.52374,20.81769],[82.52392,20.81726],[82.52478,20.81643],[82.52534,20.81519],[82.52496,20.81486],[82.52444,20.81327],[82.52467,20.81193]]]}},{"type":"Feature","bbox":[82.50221,20.79814,82.52499,20.81385],"properties":{"ward":2,"name":"Godtor"},"geometry":{"type":"Polygon","coordinates":[[[82.50277,20.81169],[82.5028,20.81361],[82.5058,20.81385],[82.50662,20.81378],[82.5068,20.81344],[82.50905,20.8135],[82.51078,20.8125],[82.51119,20.81293],[82.51186,20.81295],[82.51222,20.8128],[82.51472,20.81313],[82.5157,20.81243],[82.51721,20.81203],[82.5178,20.81147],[82.51821,20.8117],[82.5191,20.81111],[82.52101,20.81076],[82.52205,20.80999],[82.5224,20.81017],[82.52384,20.81011],[82.5246,20.81055],[82.52499,20.80841],[82.52478,20.80797],[82.52389,20.80743],[82.52365,20.80673],[82.52353,20.80604],[82.52365,20.80483],[82.52426,20.80295],[82.5239,20.80213],[82.52382,20.80146],[82.5235,20.80094],[82.52319,20.79913],[82.52238,20.79846],[82.52249,20.79815],[82.51512,20.79828],[82.51407,20.79814],[82.51192,20.79898],[82.5105,20.79991],[82.50945,20.79978],[82.50825,20.79939],[82.507,20.79938],[82.50602,20.79994],[82.50387,20.8019],[82.5033,20.80318],[82.50324,20.80424],[82.50269,20.80572],[82.50221,20.80846],[82.50252,20.81015],[82.5025,20.811],[82.50277,20.81169]]]}},{"type":"Feature","bbox":[82.52349,20.80083,82.53377,20.81198],"properties":{"ward":3,"name":"Thakurnuapada"},"geometry":{"type":"Polygon","coordinates":[[[82.52468,20.81198],[82.5293,20.81164],[82.52944,20.81191],[82.53025,20.81181],[82.53032,20.81068],[82.53056,20.8106],[82.53189,20.81081],[82.5322,20.81169],[82.53266,20.81169],[82.53285,20.8095],[82.5327,20.80808],[82.53253,20.80779],[82.53142,20.808],[82.53112,20.80656],[82.53116,20.80594],[82.53377,20.80553],[82.53334,20.80264],[82.53251,20.80257],[82.53253,20.80186],[82.53233,20.80174],[82.53148,20.80177],[82.53008,20.80118],[82.5289,20.80117],[82.5272,20.80083],[82.52567,20.80105],[82.52349,20.8009],[82.52382,20.80145],[82.52391,20.80212],[82.52426,20.80297],[82.52368,20.80467],[82.52354,20.80604],[82.52365,20.80674],[82.52391,20.80745],[82.52478,20.80793],[82.52498,20.8084],[82.52453,20.81081],[82.52468,20.81198]]]}},{"type":"Feature","bbox":[82.52273,20.81061,82.5338,20.82882],"properties":{"ward":4,"name":"Thakurnuapada"},"geometry":{"type":"Polygon","coordinates":[[[82.53257,20.8126],[82.53272,20.8117],[82.53216,20.8117],[82.53185,20.81075],[82.53048,20.81061],[82.53029,20.81085],[82.53026,20.81183],[82.52942,20.81191],[82.52932,20.81164],[82.52465,20.81192],[82.52443,20.81325],[82.52495,20.81486],[82.52534,20.81519],[82.52479,20.81642],[82.52393,20.81724],[82.52374,20.81767],[82.52404,20.81913],[82.52386,20.82046],[82.52393,20.82083],[82.52448,20.82157],[82.5245,20.82251],[82.52296,20.82384],[82.52311,20.82579],[82.52273,20.82764],[82.52391,20.82874],[82.52525,20.82882],[82.52817,20.82794],[82.52862,20.82762],[82.52953,20.82426],[82.53146,20.81981],[82.53185,20.81856],[82.53186,20.81788],[82.53209,20.81744],[82.53199,20.81714],[82.53237,20.81657],[82.53298,20.81611],[82.5338,20.81471],[82.53315,20.81454],[82.53257,20.8126]]]}},{"type":"Feature","bbox":[82.52865,20.81011,82.5354,20.82801],"properties":{"ward":5,"name":"Rajpurnuapada"},"geometry":{"type":"Polygon","coordinates":[[[82.5354,20.81635],[82.53442,20.81011],[82.53361,20.81021],[82.53274,20.81054],[82.53261,20.81279],[82.53315,20.81454],[82.53379,20.81471],[82.53298,20.81611],[82.53233,20.8166],[82.53198,20.81716],[82.53211,20.81745],[82.53188,20.81781],[82.53186,20.81856],[82.53128,20.82031],[82.53053,20.82169],[82.5301,20.82306],[82.52957,20.82413],[82.52865,20.82755],[82.52953,20.82767],[82.52998,20.82801],[82.53105,20.82778],[82.5352,20.81765],[82.5354,20.81635]]]}},{"type":"Feature","bbox":[82.5311,20.80813,82.54612,20.82779],"properties":{"ward":6,"name":"Rajpurnuapada"},"geometry":{"type":"Polygon","coordinates":[[[82.53536,20.81699],[82.5311,20.82779],[82.53196,20.82592],[82.54612,20.81374],[82.5444,20.81164],[82.54328,20.81079],[82.5422,20.81027],[82.54087,20.81036],[82.5411,20.80926],[82.54093,20.80838],[82.53943,20.80828],[82.53937,20.80816],[82.53414,20.80813],[82.53536,20.81601],[82.53536,20.81699]]]}},{"type":"Feature","bbox":[82.54769,20.79393,82.58001,20.82135],"properties":{"ward":7,"name":"Parsaguda"},"geometry":{"type":"Polygon","coordinates":[[[82.55367,20.81225],[82.55309,20.81239],[82.55064,20.8143],[82.54927,20.8149],[82.54769,20.81456],[82.55105,20.81833],[82.55699,20.82018],[82.56239,20.81354],[82.57104,20.82135],[82.57816,20.81677],[82.57968,20.81567],[82.58001,20.80516],[82.57571,20.80601],[82.57564,20.80524],[82.5761,20.80255],[82.5767,20.80085],[82.57723,20.79998],[82.57751,20.79915],[82.57896,20.7972],[82.57948,20.79688],[82.579,20.79522],[82.57841,20.79467],[82.57661,20.79406],[82.57542,20.79393],[82.57432,20.79402],[82.57232,20.79478],[82.5708,20.79664],[82.57028,20.79805],[82.56923,20.79829],[82.5683,20.7989],[82.56746,20.79915],[82.56634,20.79895],[82.56633,20.79921],[82.56661,20.79959],[82.56608,20.80069],[82.56235,20.80033],[82.56163,20.80072],[82.56097,20.80056],[82.55958,20.80186],[82.55854,20.80336],[82.55737,20.80471],[82.55649,20.80548],[82.55623,20.80547],[82.55509,20.80634],[82.55503,20.80722],[82.55478,20.80765],[82.55367,20.81225]]]}},{"type":"Feature","bbox":[82.53942,20.79129,82.56651,20.81473],"properties":{"ward":8,"name":"Salebhata"},"geometry":{"type":"Polygon","coordinates":[[[82.54754,20.81445],[82.54926,20.81473],[82.5506,20.81417],[82.55189,20.8133],[82.55304,20.81229],[82.55359,20.81218],[82.55373,20.81112],[82.55435,20.80944],[82.55467,20.80768],[82.55495,20.8072],[82.55495,20.80626],[82.55681,20.80501],[82.55831,20.80345],[82.55952,20.8018],[82.56099,20.80048],[82.56163,20.80062],[82.56237,20.80026],[82.56604,20.80054],[82.56644,20.79991],[82.56651,20.79959],[82.56623,20.79923],[82.56626,20.79899],[82.56443,20.79857],[82.56132,20.79724],[82.55873,20.79562],[82.55733,20.79392],[82.55696,20.7931],[82.55709,20.79265],[82.55692,20.79129],[82.556,20.7915],[82.55554,20.79202],[82.55374,20.79316],[82.55207,20.79535],[82.55154,20.79565],[82.54817,20.79644],[82.54834,20.79688],[82.54781,20.79703],[82.54547,20.79728],[82.5448,20.7976],[82.54394,20.79755],[82.54221,20.79779],[82.54021,20.79873],[82.53987,20.79922],[82.5398,20.80124],[82.54067,20.8022],[82.54047,20.80248],[82.54001,20.80263],[82.53944,20.80415],[82.53942,20.80638],[82.5396,20.80772],[82.53948,20.80806],[82.53956,20.80821],[82.54099,20.80828],[82.5412,20.80924],[82.54099,20.81028],[82.54221,20.81021],[82.54354,20.81085],[82.54551,20.81273],[82.54619,20.81365],[82.54655,20.8134],[82.54754,20.81445]]]}},{"type":"Feature","bbox":[82.53118,20.80233,82.53987,20.81028],"properties":{"ward":9,"name":"Rajpurnuapada"},"geometry":{"type":"Polygon","coordinates":[[[82.53431,20.81001],[82.53408,20.80836],[82.53409,20.80814],[82.53427,20.80807],[82.53934,20.80804],[82.53952,20.80741],[82.53931,20.80648],[82.53921,20.80474],[82.53935,20.80375],[82.53987,20.80256],[82.53977,20.80247],[82.53893,20.80233],[82.53757,20.80252],[82.53726,20.80234],[82.53541,20.80239],[82.53434,20.80285],[82.53351,20.80298],[82.53382,20.80557],[82.53137,20.80592],[82.53122,20.80598],[82.53118,20.80646],[82.53146,20.80788],[82.53256,20.80771],[82.53276,20.80801],[82.53289,20.81028],[82.53431,20.81001]]]}},{"type":"Feature","bbox":[82.52249,20.7949,82.54053,20.80283],"properties":{"ward":10,"name":"Sirtol"},"geometry":{"type":"Polygon","coordinates":[[[82.53343,20.80283],[82.53431,20.80274],[82.53496,20.80238],[82.53583,20.8022],[82.53715,20.80221],[82.53751,20.80238],[82.53934,20.80225],[82.54009,20.80247],[82.54053,20.8023],[82.53967,20.80138],[82.53977,20.80014],[82.5396,20.79942],[82.53887,20.79928],[82.53854,20.79906],[82.53476,20.79931],[82.53507,20.79774],[82.53443,20.79774],[82.53463,20.79645],[82.53434,20.79624],[82.53294,20.79633],[82.53187,20.79581],[82.53126,20.7958],[82.5307,20.79551],[82.52928,20.79554],[82.52671,20.79519],[82.52597,20.7949],[82.52444,20.7968],[82.52249,20.79834],[82.52324,20.799],[82.52354,20.80082],[82.52562,20.80097],[82.5272,20.80074],[82.52887,20.8011],[82.5301,20.80108],[82.53147,20.80168],[82.53244,20.80171],[82.53259,20.80182],[82.53257,20.8025],[82.53273,20.80259],[82.53342,20.80244],[82.53343,20.80283]]]}},{"type":"Feature","bbox":[82.53449,20.78672,82.54065,20.79931],"properties":{"ward":11,"name":"Sirtol"},"geometry":{"type":"Polygon","coordinates":[[[82.53514,20.79768],[82.53482,20.79921],[82.53853,20.79898],[82.53886,20.79918],[82.53972,20.79931],[82.54044,20.79841],[82.54039,20.79745],[82.54055,20.79714],[82.5404,20.79692],[82.54052,20.79632],[82.54039,20.79593],[82.54059,20.79555],[82.54012,20.79503],[82.54035,20.79489],[82.54003,20.79407],[82.54045,20.79387],[82.54012,20.79297],[82.5405,20.79268],[82.54065,20.79202],[82.54025,20.78948],[82.53997,20.78915],[82.53981,20.78855],[82.53976,20.78742],[82.53993,20.78672],[82.53752,20.78942],[82.53632,20.7909],[82.53599,20.79153],[82.53449,20.79761],[82.53514,20.79768]]]}},{"type":"Feature","bbox":[82.52604,20.78169,82.53989,20.79629],"properties":{"ward":12,"name":"Sirtol"},"geometry":{"type":"Polygon","coordinates":[[[82.53469,20.79629],[82.53563,20.7924],[82.5363,20.7908],[82.53989,20.78664],[82.53966,20.78564],[82.53918,20.78565],[82.53895,20.78548],[82.53814,20.78386],[82.53823,20.78321],[82.53798,20.78313],[82.53795,20.78273],[82.53763,20.7827],[82.53755,20.78169],[82.53668,20.78278],[82.53477,20.78455],[82.53447,20.78601],[82.53372,20.78667],[82.53264,20.78939],[82.53188,20.7898],[82.53145,20.79055],[82.53018,20.79192],[82.5291,20.79222],[82.52857,20.79257],[82.52604,20.79484],[82.5267,20.79514],[82.52922,20.79545],[82.53071,20.79542],[82.53122,20.79574],[82.53202,20.79578],[82.53241,20.79612],[82.53293,20.79627],[82.53469,20.79629]]]}},{"type":"Feature","bbox":[82.53489,20.77315,82.56524,20.7984],"properties":{"ward":13,"name":"Mahuabhatal"},"geometry":{"type":"Polygon","coordinates":[[[82.54049,20.7984],[82.54246,20.79762],[82.54371,20.79752],[82.54334,20.79556],[82.54371,20.7941],[82.54433,20.79301],[82.54449,20.79178],[82.54491,20.79074],[82.54592,20.7892],[82.5459,20.78899],[82.54639,20.78856],[82.54629,20.78802],[82.54663,20.78684],[82.54767,20.78677],[82.54767,20.78656],[82.54791,20.78646],[82.54803,20.78673],[82.54888,20.78643],[82.5494,20.78588],[82.55003,20.78592],[82.55137,20.78567],[82.55282,20.78591],[82.5532,20.78567],[82.5552,20.78528],[82.55976,20.78484],[82.55982,20.78323],[82.56072,20.78227],[82.56175,20.78151],[82.56195,20.78072],[82.56249,20.78024],[82.56307,20.77835],[82.56524,20.77572],[82.56504,20.7738],[82.56324,20.77342],[82.56288,20.77315],[82.56243,20.77339],[82.56186,20.7734],[82.56143,20.77495],[82.56045,20.77597],[82.5581,20.77595],[82.55692,20.77645],[82.5557,20.77605],[82.55515,20.77649],[82.5541,20.77677],[82.55367,20.77732],[82.55174,20.77746],[82.54992,20.77678],[82.5489,20.77687],[82.54853,20.77655],[82.54918,20.77585],[82.5489,20.77525],[82.54375,20.7777],[82.53802,20.77718],[82.53489,20.78108],[82.53655,20.78099],[82.53729,20.78119],[82.53759,20.78158],[82.53766,20.78267],[82.53797,20.78268],[82.53804,20.78309],[82.53832,20.78317],[82.53814,20.78373],[82.53899,20.78546],[82.53971,20.78559],[82.53976,20.78625],[82.53998,20.78667],[82.5398,20.78747],[82.53986,20.78857],[82.54001,20.78912],[82.5403,20.78947],[82.54071,20.79201],[82.54061,20.79265],[82.54018,20.79299],[82.54049,20.79388],[82.54008,20.7941],[82.54039,20.79491],[82.5402,20.79504],[82.54067,20.79559],[82.5405,20.79565],[82.54045,20.79596],[82.54059,20.79635],[82.54044,20.79688],[82.54059,20.79714],[82.54045,20.79748],[82.54049,20.7984]]]}},{"type":"Feature","bbox":[82.54338,20.7849,82.55975,20.79753],"properties":{"ward":14,"name":"Mahuabhata"},"geometry":{"type":"Polygon","coordinates":[[[82.55874,20.78755],[82.55975,20.7849],[82.55495,20.78537],[82.55322,20.78571],[82.55283,20.78599],[82.55137,20.78572],[82.54941,20.78592],[82.54891,20.78646],[82.54802,20.78677],[82.54791,20.78653],[82.54773,20.78657],[82.54772,20.7868],[82.54666,20.78686],[82.54632,20.78802],[82.54641,20.7886],[82.54595,20.78899],[82.54592,20.78928],[82.54498,20.79067],[82.54454,20.79179],[82.54436,20.79305],[82.54374,20.79413],[82.54338,20.79557],[82.54377,20.7975],[82.54478,20.79753],[82.54547,20.79721],[82.54755,20.797],[82.5482,20.7968],[82.54798,20.79636],[82.55094,20.79556],[82.55155,20.79552],[82.55213,20.79515],[82.55373,20.79304],[82.55552,20.79193],[82.55596,20.79143],[82.55693,20.79121],[82.55859,20.78833],[82.55874,20.78755]]]}}]}