{"type":"FeatureCollection","features":[{"type":"Feature","bbox":[78.58251,15.88406,78.59639,15.90895],"properties":{"ward":1,"name":"Nadigadda"},"geometry":{"type":"Polygon","coordinates":[[[78.5832,15.89684],[78.58251,15.90817],[78.58353,15.9086],[78.5835,15.9082],[78.58502,15.90814],[78.58675,15.90851],[78.59247,15.90895],[78.59587,15.90874],[78.59639,15.90857],[78.59549,15.90686],[78.59535,15.90645],[78.59544,15.90628],[78.595,15.90552],[78.59544,15.90526],[78.59473,15.9042],[78.5949,15.90397],[78.59345,15.90118],[78.5931,15.89962],[78.59351,15.8997],[78.59371,15.8995],[78.59345,15.89915],[78.59326,15.89835],[78.5927,15.89841],[78.59247,15.89736],[78.59196,15.8971],[78.59195,15.89678],[78.59245,15.89676],[78.5921,15.89514],[78.59275,15.89501],[78.59258,15.89448],[78.5919,15.89457],[78.59057,15.89021],[78.59017,15.89027],[78.58969,15.8881],[78.58905,15.8866],[78.5892,15.88631],[78.58912,15.88594],[78.58874,15.88586],[78.58846,15.88478],[78.58777,15.88496],[78.5875,15.88406],[78.58616,15.8844],[78.58581,15.88428],[78.58549,15.88445],[78.58539,15.88518],[78.5846,15.8852],[78.58491,15.88606],[78.58631,15.88568],[78.58578,15.88755],[78.58554,15.88784],[78.58493,15.88809],[78.58437,15.89016],[78.58327,15.89281],[78.5832,15.89684]]]}},{"type":"Feature","bbox":[78.58827,15.88107,78.6186,15.90857],"properties":{"ward":2,"name":"Spg Palem"},"geometry":{"type":"Polygon","coordinates":[[[78.59535,15.90645],[78.59639,15.90857],[78.60356,15.90629],[78.60589,15.90537],[78.60724,15.9038],[78.60767,15.90422],[78.60841,15.90379],[78.6094,15.90377],[78.60953,15.90401],[78.60942,15.90429],[78.60864,15.90439],[78.60848,15.90469],[78.60912,15.90459],[78.6099,15.90532],[78.6109,15.90581],[78.61211,15.90534],[78.61379,15.90567],[78.61427,15.90526],[78.61587,15.90462],[78.61578,15.90428],[78.61838,15.90344],[78.6186,15.9029],[78.6181,15.90192],[78.61691,15.89805],[78.61725,15.89792],[78.61718,15.89752],[78.61641,15.89686],[78.61685,15.89659],[78.61622,15.89397],[78.61578,15.89385],[78.61574,15.89327],[78.61524,15.89298],[78.61482,15.89298],[78.61468,15.8928],[78.61411,15.89269],[78.61267,15.89285],[78.61141,15.89194],[78.60789,15.89113],[78.60722,15.89063],[78.60577,15.8901],[78.60284,15.88975],[78.59924,15.88834],[78.59571,15.88796],[78.59391,15.88724],[78.59373,15.88708],[78.59367,15.88656],[78.59287,15.88601],[78.59286,15.88541],[78.59241,15.88417],[78.59249,15.88389],[78.59236,15.8836],[78.59246,15.88301],[78.59311,15.88293],[78.5936,15.88254],[78.59363,15.88166],[78.59235,15.88169],[78.59221,15.88107],[78.59143,15.88112],[78.59127,15.88119],[78.59133,15.88165],[78.59125,15.88202],[78.59105,15.8821],[78.59105,15.88267],[78.59033,15.88273],[78.59033,15.88292],[78.58994,15.88314],[78.59001,15.88342],[78.58956,15.88359],[78.58956,15.8834],[78.58902,15.8835],[78.58891,15.88389],[78.58853,15.884],[78.58867,15.88422],[78.58827,15.88432],[78.58847,15.88462],[78.58873,15.88583],[78.58912,15.88594],[78.5892,15.88631],[78.58905,15.8866],[78.58969,15.8881],[78.59017,15.89027],[78.59057,15.89021],[78.5919,15.89457],[78.59255,15.89445],[78.59275,15.89494],[78.5921,15.89514],[78.59245,15.89676],[78.59195,15.89678],[78.59196,15.8971],[78.59247,15.89736],[78.5927,15.89841],[78.59326,15.89835],[78.59345,15.89915],[78.59371,15.8995],[78.59351,15.8997],[78.5931,15.89962],[78.5933,15.90066],[78.5949,15.90397],[78.59473,15.9042],[78.59544,15.90526],[78.595,15.90552],[78.59544,15.90628],[78.59535,15.90645]]]}},{"type":"Feature","bbox":[78.59144,15.87887,78.63541,15.89327],"properties":{"ward":4,"name":"Neelithotla Veedi"},"geometry":{"type":"Polygon","coordinates":[[[78.59144,15.8811],[78.59221,15.88107],[78.59235,15.88169],[78.59363,15.88166],[78.5936,15.88254],[78.59311,15.88293],[78.59246,15.88301],[78.59236,15.8836],[78.59249,15.88389],[78.59241,15.88417],[78.59286,15.88541],[78.59287,15.88601],[78.59367,15.88656],[78.59373,15.88708],[78.59391,15.88724],[78.59571,15.88796],[78.59924,15.88834],[78.60284,15.88975],[78.60577,15.8901],[78.60722,15.89063],[78.60789,15.89113],[78.61141,15.89194],[78.61267,15.89285],[78.61411,15.89269],[78.61468,15.8928],[78.61482,15.89298],[78.61524,15.89298],[78.61574,15.89327],[78.61573,15.89303],[78.61516,15.89281],[78.61557,15.89245],[78.61575,15.89204],[78.6157,15.89178],[78.61513,15.89118],[78.61504,15.89076],[78.61692,15.88788],[78.61735,15.88784],[78.61868,15.88955],[78.62004,15.89031],[78.62138,15.88984],[78.62263,15.88988],[78.6232,15.89014],[78.62382,15.89006],[78.62433,15.88945],[78.62511,15.88918],[78.62667,15.88944],[78.62725,15.88938],[78.62785,15.88897],[78.62815,15.88747],[78.62859,15.88648],[78.62928,15.88629],[78.63034,15.88527],[78.6303,15.88449],[78.63078,15.88411],[78.63086,15.8838],[78.63282,15.88371],[78.6352,15.88321],[78.63541,15.88181],[78.63525,15.88094],[78.6294,15.88152],[78.6296,15.88225],[78.6294,15.88253],[78.62947,15.88332],[78.6279,15.88364],[78.62766,15.88237],[78.61455,15.88019],[78.59305,15.87887],[78.59305,15.87959],[78.5922,15.87984],[78.5921,15.87994],[78.59224,15.88041],[78.59175,15.88062],[78.59144,15.8811]]]}},{"type":"Feature","bbox":[78.56315,15.8794,78.5833,15.88589],"properties":{"ward":5,"name":"Islam Peta"},"geometry":{"type":"Polygon","coordinates":[[[78.56421,15.88199],[78.56315,15.88211],[78.56324,15.88328],[78.56347,15.8843],[78.5637,15.88483],[78.56422,15.88527],[78.56489,15.8851],[78.56664,15.88536],[78.56687,15.88566],[78.56889,15.88589],[78.5707,15.88581],[78.57036,15.88459],[78.57187,15.88424],[78.57191,15.8844],[78.57418,15.88384],[78.57414,15.88359],[78.57762,15.88281],[78.57751,15.88219],[78.57792,15.8821],[78.57794,15.88235],[78.57946,15.88226],[78.5833,15.8809],[78.58297,15.88069],[78.58262,15.87983],[78.58219,15.8794],[78.58028,15.87992],[78.57936,15.88033],[78.57354,15.88187],[78.56694,15.88315],[78.5653,15.88308],[78.56421,15.88199]]]}},{"type":"Feature","bbox":[78.58388,15.88235,78.58766,15.8852],"properties":{"ward":6,"name":"Kishan Sing Street"},"geometry":{"type":"Polygon","coordinates":[[[78.58392,15.88364],[78.5846,15.8852],[78.58537,15.88519],[78.58553,15.88441],[78.5875,15.88406],[78.58742,15.88358],[78.58766,15.88355],[78.5875,15.88318],[78.58712,15.88304],[78.58658,15.88332],[78.58609,15.88308],[78.58616,15.88245],[78.58535,15.88235],[78.5854,15.88252],[78.58388,15.88306],[78.58409,15.88355],[78.58392,15.88364]]]}},{"type":"Feature","bbox":[78.58711,15.88239,78.59001,15.88496],"properties":{"ward":7,"name":"Kishan Sing Street"},"geometry":{"type":"Polygon","coordinates":[[[78.58742,15.88358],[78.58777,15.88496],[78.58799,15.88493],[78.58846,15.88478],[78.58827,15.88432],[78.58867,15.88422],[78.58853,15.884],[78.58891,15.88389],[78.58902,15.8835],[78.58956,15.8834],[78.58956,15.88359],[78.59001,15.88341],[78.58977,15.88284],[78.58829,15.88338],[78.58815,15.88239],[78.58741,15.88249],[78.58743,15.8827],[78.58711,15.88269],[78.58712,15.88304],[78.5875,15.88318],[78.58766,15.88355],[78.58742,15.88358]]]}},{"type":"Feature","bbox":[78.5551,15.86388,78.58219,15.88315],"properties":{"ward":8,"name":"Eklavya Nagar"},"geometry":{"type":"Polygon","coordinates":[[[78.56314,15.88209],[78.56416,15.88197],[78.56526,15.88306],[78.56694,15.88315],[78.57354,15.88187],[78.57936,15.88033],[78.58028,15.87992],[78.58219,15.8794],[78.58156,15.87774],[78.58118,15.8761],[78.58001,15.87374],[78.57957,15.87123],[78.57901,15.87123],[78.57871,15.8701],[78.5783,15.86931],[78.5774,15.86642],[78.57753,15.86616],[78.57743,15.86553],[78.57686,15.86388],[78.57397,15.86421],[78.57103,15.86515],[78.56929,15.86611],[78.56943,15.86641],[78.56722,15.86703],[78.562,15.86906],[78.55636,15.87],[78.55532,15.87033],[78.55572,15.87129],[78.55535,15.87294],[78.5551,15.87314],[78.55528,15.87399],[78.55516,15.87446],[78.55598,15.87547],[78.55675,15.87689],[78.55744,15.87764],[78.55789,15.87762],[78.55916,15.87886],[78.56007,15.87918],[78.56114,15.88051],[78.56229,15.88058],[78.56287,15.88083],[78.56314,15.88209]]]}},{"type":"Feature","bbox":[78.58821,15.87952,78.59161,15.88338],"properties":{"ward":9,"name":"Indira Nagar"},"geometry":{"type":"Polygon","coordinates":[[[78.58821,15.88269],[78.58829,15.88338],[78.58977,15.88284],[78.58986,15.88317],[78.59033,15.88292],[78.59033,15.88273],[78.59105,15.88267],[78.59105,15.8821],[78.59125,15.88202],[78.59133,15.88165],[78.59127,15.88119],[78.59149,15.88105],[78.59134,15.88046],[78.59161,15.88035],[78.59105,15.87952],[78.58982,15.88031],[78.58963,15.8809],[78.58969,15.88147],[78.59006,15.88196],[78.5894,15.88219],[78.58897,15.88208],[78.5885,15.88225],[78.58862,15.88251],[78.58821,15.88269]]]}},{"type":"Feature","bbox":[78.58502,15.88119,78.58897,15.88332],"properties":{"ward":10,"name":"Gareeb Nagar"},"geometry":{"type":"Polygon","coordinates":[[[78.58712,15.88304],[78.58711,15.88269],[78.58743,15.8827],[78.58741,15.88249],[78.58815,15.88239],[78.58821,15.88269],[78.58862,15.88251],[78.5885,15.88225],[78.58897,15.88208],[78.58875,15.88155],[78.58836,15.88168],[78.58801,15.88208],[78.58707,15.88234],[78.58701,15.88203],[78.58645,15.88223],[78.58614,15.88153],[78.58533,15.88119],[78.58502,15.88159],[78.58535,15.88235],[78.58616,15.88245],[78.58609,15.88308],[78.58658,15.88332],[78.58712,15.88304]]]}},{"type":"Feature","bbox":[78.58226,15.87904,78.58547,15.88306],"properties":{"ward":11,"name":"Urban Colony"},"geometry":{"type":"Polygon","coordinates":[[[78.5833,15.8809],[78.58388,15.88306],[78.5854,15.88252],[78.58502,15.88159],[78.58547,15.8812],[78.58544,15.88029],[78.58523,15.8803],[78.58507,15.87906],[78.58381,15.87904],[78.58226,15.87943],[78.58262,15.87983],[78.58297,15.88069],[78.5833,15.8809]]]}},{"type":"Feature","bbox":[78.587,15.8808,78.58875,15.88234],"properties":{"ward":12,"name":"Akkiraju Colony"},"geometry":{"type":"Polygon","coordinates":[[[78.587,15.88194],[78.58707,15.88234],[78.58801,15.88208],[78.58836,15.88168],[78.58875,15.88155],[78.58847,15.8808],[78.58767,15.88113],[78.58772,15.88159],[78.587,15.88194]]]}},{"type":"Feature","bbox":[78.58561,15.88086,78.58715,15.88223],"properties":{"ward":13,"name":"Chityala Veedhi"},"geometry":{"type":"Polygon","coordinates":[[[78.58696,15.88204],[78.58681,15.88134],[78.58715,15.88086],[78.58641,15.88087],[78.58561,15.88121],[78.58614,15.88153],[78.58645,15.88223],[78.58696,15.88204]]]}},{"type":"Feature","bbox":[78.58847,15.88031,78.59006,15.88219],"properties":{"ward":14,"name":"Santha Market"},"geometry":{"type":"Polygon","coordinates":[[[78.58847,15.8808],[78.58901,15.88215],[78.5894,15.88219],[78.59006,15.88196],[78.58969,15.88147],[78.58963,15.8809],[78.58982,15.88031],[78.58847,15.8808]]]}},{"type":"Feature","bbox":[78.5874,15.86176,78.62793,15.88237],"properties":{"ward":15,"name":"Kotha Peta"},"geometry":{"type":"Polygon","coordinates":[[[78.58863,15.87589],[78.58987,15.87884],[78.59382,15.8789],[78.61455,15.88019],[78.62766,15.88237],[78.62733,15.88025],[78.62753,15.87889],[78.62793,15.87795],[78.62761,15.87787],[78.62738,15.87678],[78.6254,15.87727],[78.62439,15.87721],[78.62334,15.87739],[78.6232,15.87678],[78.62235,15.877],[78.62226,15.87545],[78.62141,15.87556],[78.62109,15.87325],[78.62034,15.87338],[78.61981,15.87164],[78.61745,15.87222],[78.61739,15.87198],[78.6146,15.87272],[78.61456,15.87151],[78.61483,15.8714],[78.61443,15.86947],[78.61449,15.86911],[78.61473,15.86889],[78.61463,15.86703],[78.61449,15.86706],[78.61457,15.86598],[78.61219,15.86618],[78.61217,15.86524],[78.60928,15.86657],[78.60809,15.86468],[78.60777,15.86479],[78.60709,15.86369],[78.60562,15.8661],[78.60525,15.86555],[78.60366,15.86702],[78.6029,15.86501],[78.60131,15.86543],[78.60123,15.86487],[78.60089,15.86495],[78.60076,15.86382],[78.59928,15.86379],[78.59911,15.86244],[78.59783,15.86222],[78.59613,15.86232],[78.59584,15.86176],[78.5908,15.86241],[78.5874,15.86236],[78.58781,15.86439],[78.58794,15.86775],[78.58883,15.87042],[78.58863,15.87589]]]}},{"type":"Feature","bbox":[78.58681,15.8809,78.58772,15.88183],"properties":{"ward":16,"name":"Tearu Veedhi"},"geometry":{"type":"Polygon","coordinates":[[[78.58699,15.88183],[78.58772,15.88159],[78.58768,15.8809],[78.58728,15.88102],[78.58709,15.88093],[78.58681,15.88134],[78.58699,15.88183]]]}},{"type":"Feature","bbox":[78.58507,15.87884,78.59018,15.88121],"properties":{"ward":17,"name":"Tearu Veedhi"},"geometry":{"type":"Polygon","coordinates":[[[78.58544,15.88029],[78.58547,15.8812],[78.58561,15.88121],[78.58641,15.88087],[78.58697,15.88081],[78.58726,15.88102],[78.58768,15.8809],[78.58767,15.88113],[78.58988,15.88028],[78.59018,15.87989],[78.58988,15.87884],[78.58507,15.87906],[78.58523,15.8803],[78.58544,15.88029]]]}},{"type":"Feature","bbox":[78.58988,15.87884,78.59305,15.88105],"properties":{"ward":18,"name":"Veera Bhadra Colony"},"geometry":{"type":"Polygon","coordinates":[[[78.59017,15.87996],[78.59105,15.87952],[78.59161,15.88035],[78.59134,15.88046],[78.59149,15.88105],[78.59175,15.88062],[78.59224,15.88041],[78.5921,15.87994],[78.5922,15.87984],[78.59305,15.87959],[78.59305,15.87887],[78.58988,15.87884],[78.59017,15.87996]]]}},{"type":"Feature","bbox":[78.57686,15.86344,78.58753,15.87939],"properties":{"ward":19,"name":"Vengalreddy Nagar"},"geometry":{"type":"Polygon","coordinates":[[[78.58218,15.87939],[78.58381,15.87904],[78.58753,15.87891],[78.58748,15.87843],[78.58599,15.87856],[78.58602,15.87748],[78.58566,15.87757],[78.58562,15.878],[78.58429,15.87819],[78.58423,15.87732],[78.58436,15.87729],[78.58408,15.87599],[78.58434,15.87594],[78.58427,15.87535],[78.5849,15.87521],[78.58482,15.8748],[78.58435,15.87487],[78.58393,15.87348],[78.58474,15.87322],[78.58461,15.87273],[78.58492,15.87255],[78.58469,15.87186],[78.585,15.87101],[78.58284,15.8666],[78.58236,15.86595],[78.58215,15.86604],[78.5814,15.86521],[78.58035,15.86348],[78.57835,15.86344],[78.57724,15.86372],[78.57686,15.86388],[78.57743,15.86553],[78.57753,15.86616],[78.5774,15.86642],[78.5783,15.86931],[78.57871,15.8701],[78.57901,15.87123],[78.57957,15.87123],[78.58001,15.87374],[78.58118,15.8761],[78.58156,15.87774],[78.58218,15.87939]]]}},{"type":"Feature","bbox":[78.58035,15.86236,78.58987,15.8789],"properties":{"ward":20,"name":"Thotageri"},"geometry":{"type":"Polygon","coordinates":[[[78.58753,15.8789],[78.58987,15.87884],[78.58863,15.87589],[78.58883,15.87042],[78.58794,15.86775],[78.58781,15.86439],[78.5874,15.86236],[78.58492,15.86284],[78.58356,15.86281],[78.5831,15.86306],[78.58035,15.86348],[78.5814,15.86521],[78.58215,15.86604],[78.58236,15.86595],[78.58302,15.86688],[78.585,15.87101],[78.58469,15.87186],[78.58492,15.87255],[78.58461,15.87273],[78.58474,15.87322],[78.58393,15.87348],[78.58435,15.87487],[78.58482,15.8748],[78.5849,15.87521],[78.58427,15.87535],[78.58434,15.87594],[78.58408,15.87599],[78.58436,15.87729],[78.58423,15.87732],[78.58429,15.87819],[78.58562,15.878],[78.58566,15.87757],[78.58602,15.87748],[78.58599,15.87856],[78.58747,15.87841],[78.58753,15.8789]]]}}]}