{"type":"FeatureCollection","features":[{"type":"Feature","bbox":[79.5072,15.40653,79.51258,15.41251],"properties":{"ward":1,"name":"Indira Colony"},"geometry":{"type":"Polygon","coordinates":[[[79.5072,15.41099],[79.50802,15.41115],[79.50804,15.41131],[79.50967,15.41197],[79.51006,15.41251],[79.51047,15.41202],[79.51103,15.41191],[79.51151,15.41143],[79.51237,15.41122],[79.51258,15.41075],[79.51247,15.41011],[79.51164,15.40992],[79.51145,15.40937],[79.51099,15.40933],[79.51088,15.40881],[79.51114,15.40653],[79.50867,15.40694],[79.50925,15.40924],[79.50897,15.40942],[79.509,15.40959],[79.50943,15.40952],[79.50943,15.40986],[79.50809,15.41058],[79.50751,15.4107],[79.5072,15.41099]]]}},{"type":"Feature","bbox":[79.50883,15.39889,79.51785,15.42164],"properties":{"ward":2,"name":"Indira Colony"},"geometry":{"type":"Polygon","coordinates":[[[79.51005,15.41258],[79.51088,15.41289],[79.51102,15.41317],[79.51136,15.41321],[79.51236,15.41412],[79.51236,15.41434],[79.51306,15.41515],[79.5137,15.41564],[79.51414,15.41566],[79.51457,15.41652],[79.51339,15.41686],[79.51279,15.41778],[79.51104,15.41807],[79.50931,15.41947],[79.50883,15.42164],[79.51005,15.4215],[79.511,15.4211],[79.51157,15.4204],[79.51244,15.41969],[79.51481,15.42031],[79.51713,15.42054],[79.51702,15.41883],[79.51655,15.41739],[79.51785,15.41657],[79.51782,15.41621],[79.51726,15.41534],[79.51734,15.41471],[79.51713,15.41432],[79.51734,15.41409],[79.51705,15.41369],[79.5167,15.4124],[79.51699,15.41214],[79.51672,15.41027],[79.51555,15.4103],[79.5155,15.41015],[79.51564,15.40945],[79.51615,15.40869],[79.51595,15.40811],[79.51626,15.40598],[79.51619,15.40577],[79.51559,15.4055],[79.51505,15.40498],[79.51445,15.40486],[79.51348,15.4035],[79.51306,15.40173],[79.51142,15.40022],[79.51047,15.39889],[79.50923,15.39983],[79.51038,15.40152],[79.51101,15.40111],[79.51154,15.40163],[79.51176,15.40272],[79.51223,15.40291],[79.51237,15.40339],[79.51134,15.40389],[79.51145,15.40542],[79.5112,15.40604],[79.51087,15.40862],[79.51098,15.40934],[79.51145,15.40933],[79.51162,15.40992],[79.51249,15.4101],[79.51257,15.41039],[79.51238,15.41124],[79.5115,15.41142],[79.51108,15.4119],[79.51052,15.41196],[79.51005,15.41258]]]}},{"type":"Feature","bbox":[79.51045,15.39396,79.53835,15.43253],"properties":{"ward":3,"name":"Sivanagar Colony"},"geometry":{"type":"Polygon","coordinates":[[[79.51709,15.42054],[79.51843,15.42024],[79.52005,15.42038],[79.52212,15.42079],[79.52307,15.42142],[79.52355,15.42198],[79.52283,15.42301],[79.52114,15.42297],[79.51961,15.42373],[79.51568,15.42488],[79.51812,15.42576],[79.52047,15.42626],[79.52361,15.4275],[79.52638,15.42813],[79.52737,15.4275],[79.52859,15.42957],[79.52999,15.43253],[79.53166,15.43147],[79.53407,15.43143],[79.53513,15.4316],[79.53591,15.4312],[79.5351,15.42985],[79.53402,15.4275],[79.53505,15.42628],[79.53664,15.42581],[79.53782,15.42581],[79.53835,15.42598],[79.53513,15.42227],[79.53417,15.42063],[79.53304,15.41916],[79.53129,15.41444],[79.53077,15.41236],[79.52949,15.40861],[79.5289,15.4076],[79.52743,15.40561],[79.52622,15.40449],[79.52427,15.40207],[79.52253,15.40063],[79.52187,15.39969],[79.52208,15.39925],[79.52226,15.39919],[79.52205,15.39869],[79.52247,15.3986],[79.52388,15.3994],[79.52427,15.39916],[79.5243,15.3989],[79.52479,15.39864],[79.52475,15.39849],[79.52585,15.39815],[79.52521,15.39616],[79.52478,15.39564],[79.52379,15.39578],[79.52262,15.39569],[79.52176,15.39514],[79.52156,15.39476],[79.51991,15.39396],[79.51445,15.39591],[79.51276,15.39692],[79.51045,15.39894],[79.51053,15.39928],[79.51111,15.39973],[79.5114,15.40022],[79.51301,15.40167],[79.51348,15.40365],[79.51441,15.40478],[79.51514,15.40504],[79.51551,15.40547],[79.51621,15.40586],[79.51596,15.40811],[79.51615,15.4087],[79.5156,15.40945],[79.51544,15.41013],[79.51551,15.41031],[79.51676,15.41024],[79.51693,15.41191],[79.51674,15.41236],[79.51701,15.41369],[79.51737,15.41418],[79.51714,15.41426],[79.5173,15.41484],[79.51722,15.41529],[79.51789,15.41653],[79.51657,15.41734],[79.51704,15.41899],[79.51709,15.42054]]]}},{"type":"Feature","bbox":[79.5201,15.38974,79.54828,15.42786],"properties":{"ward":4,"name":"Shankavaram"},"geometry":{"type":"Polygon","coordinates":[[[79.53816,15.4257],[79.54053,15.42786],[79.54365,15.42751],[79.5434,15.42694],[79.54218,15.42687],[79.54174,15.42622],[79.54128,15.42463],[79.54089,15.42183],[79.54143,15.42053],[79.54158,15.4189],[79.54191,15.41844],[79.54208,15.4172],[79.54231,15.41693],[79.54238,15.4155],[79.54278,15.41469],[79.54366,15.41362],[79.54443,15.41148],[79.54467,15.41032],[79.54448,15.40897],[79.54628,15.40873],[79.54824,15.40879],[79.54828,15.40783],[79.54788,15.40651],[79.54772,15.40498],[79.54711,15.40427],[79.54679,15.40358],[79.54708,15.40283],[79.5471,15.40199],[79.54682,15.40106],[79.54636,15.40045],[79.54699,15.39711],[79.54644,15.39709],[79.54596,15.39743],[79.54493,15.39757],[79.54466,15.39741],[79.54418,15.39624],[79.54215,15.39472],[79.54021,15.39385],[79.53956,15.39371],[79.53699,15.39195],[79.53269,15.38977],[79.53222,15.38974],[79.528,15.39147],[79.52181,15.3924],[79.5201,15.39402],[79.5215,15.39474],[79.52197,15.3954],[79.52259,15.39568],[79.52381,15.39579],[79.52483,15.39565],[79.52563,15.39724],[79.52582,15.39815],[79.52473,15.39845],[79.52479,15.39861],[79.52385,15.39937],[79.52246,15.39854],[79.52208,15.39869],[79.52226,15.39921],[79.52187,15.39968],[79.52255,15.40064],[79.52431,15.4021],[79.52615,15.40433],[79.52725,15.40537],[79.5288,15.40748],[79.52949,15.40865],[79.53075,15.41233],[79.53118,15.41414],[79.53303,15.41906],[79.53564,15.42289],[79.53816,15.4257]]]}},{"type":"Feature","bbox":[79.50291,15.38045,79.53226,15.40382],"properties":{"ward":5,"name":"Chinthalapalem"},"geometry":{"type":"Polygon","coordinates":[[[79.50315,15.39933],[79.50306,15.3995],[79.50356,15.40169],[79.5043,15.40382],[79.50535,15.40309],[79.50863,15.40016],[79.51142,15.39822],[79.51278,15.39679],[79.51429,15.396],[79.51592,15.39553],[79.51841,15.39442],[79.52013,15.39397],[79.52182,15.39247],[79.52218,15.39232],[79.52808,15.3915],[79.53226,15.38974],[79.53063,15.38903],[79.52936,15.38821],[79.52735,15.38635],[79.52466,15.38498],[79.5237,15.38145],[79.52241,15.38147],[79.52129,15.38078],[79.52059,15.38072],[79.52029,15.38045],[79.51745,15.38426],[79.51576,15.38831],[79.51387,15.3915],[79.51181,15.39322],[79.50738,15.39596],[79.50412,15.39674],[79.50302,15.39757],[79.50291,15.39809],[79.50315,15.39933]]]}},{"type":"Feature","bbox":[79.47896,15.35061,79.5203,15.3915],"properties":{"ward":6,"name":"Patha Kuchipudi Palli"},"geometry":{"type":"Polygon","coordinates":[[[79.48066,15.38329],[79.48735,15.38415],[79.49022,15.38305],[79.49121,15.38284],[79.49367,15.38277],[79.49406,15.38242],[79.49498,15.382],[79.49694,15.38174],[79.50233,15.3791],[79.50378,15.37889],[79.50548,15.37834],[79.50608,15.37971],[79.50755,15.3818],[79.50948,15.3863],[79.51116,15.38892],[79.51172,15.39022],[79.51389,15.3915],[79.5162,15.38744],[79.5175,15.38418],[79.5203,15.38039],[79.5195,15.37989],[79.51868,15.38022],[79.51844,15.38019],[79.51681,15.37683],[79.5159,15.37697],[79.51469,15.37649],[79.51421,15.37603],[79.51332,15.37578],[79.51222,15.37583],[79.51061,15.37539],[79.51035,15.37543],[79.51012,15.37475],[79.50983,15.37459],[79.50943,15.37373],[79.50919,15.37378],[79.50866,15.37267],[79.50848,15.37188],[79.50856,15.37152],[79.5106,15.37046],[79.50947,15.3674],[79.50942,15.36663],[79.51116,15.36593],[79.51034,15.3615],[79.50781,15.3566],[79.50716,15.35617],[79.50586,15.35744],[79.50448,15.35793],[79.50314,15.35799],[79.50215,15.35831],[79.49917,15.36088],[79.49791,15.36051],[79.4944,15.36058],[79.49025,15.35961],[79.48913,15.35846],[79.48846,15.35811],[79.48716,15.35782],[79.4859,15.35581],[79.48492,15.35536],[79.48322,15.35395],[79.4799,15.35061],[79.47896,15.35075],[79.48264,15.36103],[79.48401,15.36639],[79.48379,15.36643],[79.48417,15.36796],[79.4833,15.36818],[79.48015,15.3701],[79.4806,15.37118],[79.48134,15.37153],[79.48199,15.37235],[79.48145,15.37286],[79.48191,15.37582],[79.48138,15.37811],[79.48065,15.37963],[79.47961,15.38048],[79.48066,15.38329]]]}},{"type":"Feature","bbox":[79.47832,15.37837,79.51389,15.39953],"properties":{"ward":7,"name":"Machavaram"},"geometry":{"type":"Polygon","coordinates":[[[79.51389,15.3915],[79.51178,15.39031],[79.51087,15.38837],[79.50977,15.38684],[79.5075,15.38161],[79.50659,15.38017],[79.5061,15.3797],[79.50552,15.37837],[79.50396,15.37885],[79.50235,15.3791],[79.49694,15.38171],[79.49519,15.38188],[79.49403,15.38239],[79.49366,15.38279],[79.49186,15.38277],[79.49078,15.38295],[79.48961,15.38326],[79.4874,15.38417],[79.48671,15.38417],[79.48728,15.3872],[79.48507,15.38803],[79.48371,15.3888],[79.48262,15.39018],[79.48261,15.39054],[79.47832,15.39247],[79.4794,15.39541],[79.48062,15.39774],[79.48227,15.39708],[79.48244,15.39637],[79.48428,15.39605],[79.48588,15.3965],[79.48543,15.39509],[79.48633,15.39455],[79.48776,15.39406],[79.4893,15.39413],[79.49321,15.39502],[79.49321,15.39477],[79.49431,15.39492],[79.49541,15.39536],[79.49778,15.39671],[79.49877,15.39678],[79.49927,15.39733],[79.49973,15.3975],[79.50055,15.39745],[79.5012,15.39721],[79.50309,15.39953],[79.50318,15.39927],[79.503,15.39892],[79.5029,15.39799],[79.50304,15.39759],[79.50412,15.39674],[79.50738,15.39596],[79.51182,15.39324],[79.51389,15.3915]]]}},{"type":"Feature","bbox":[79.4807,15.39408,79.50431,15.40471],"properties":{"ward":8,"name":"Badullavari Street"},"geometry":{"type":"Polygon","coordinates":[[[79.4807,15.39778],[79.48153,15.39989],[79.48197,15.40051],[79.48431,15.40243],[79.48628,15.40353],[79.49107,15.40293],[79.49265,15.40288],[79.49388,15.40314],[79.49391,15.40177],[79.49594,15.40006],[79.49667,15.40007],[79.49698,15.40071],[79.49737,15.40092],[79.49961,15.39955],[79.49933,15.39887],[79.49986,15.3985],[79.50061,15.39929],[79.50113,15.40106],[79.50189,15.40288],[79.50229,15.40471],[79.50414,15.40405],[79.50431,15.40373],[79.50349,15.40128],[79.50307,15.39948],[79.50118,15.39725],[79.49971,15.39747],[79.49919,15.39725],[79.49872,15.39677],[79.49772,15.39669],[79.49507,15.39516],[79.49427,15.39492],[79.49325,15.3948],[79.49319,15.39504],[79.48916,15.39417],[79.48777,15.39408],[79.48642,15.39449],[79.48544,15.39506],[79.48583,15.39651],[79.48432,15.39607],[79.48242,15.3964],[79.4822,15.39709],[79.4807,15.39778]]]}},{"type":"Feature","bbox":[79.47447,15.39853,79.5023,15.40897],"properties":{"ward":9,"name":"Boyapalem"},"geometry":{"type":"Polygon","coordinates":[[[79.47487,15.40319],[79.47729,15.40897],[79.47817,15.40862],[79.48213,15.40815],[79.48259,15.40794],[79.48386,15.40794],[79.48404,15.40842],[79.48514,15.40801],[79.48545,15.40862],[79.48632,15.40848],[79.48618,15.40746],[79.48904,15.40732],[79.49013,15.40684],[79.49188,15.4065],[79.49237,15.40662],[79.4928,15.40695],[79.49451,15.40656],[79.49628,15.40573],[79.4979,15.40522],[79.49994,15.40425],[79.50155,15.40651],[79.50161,15.4058],[79.50205,15.40485],[79.5023,15.4047],[79.5023,15.40441],[79.50192,15.40301],[79.50108,15.40103],[79.50059,15.39923],[79.49982,15.39853],[79.49931,15.39885],[79.49959,15.39955],[79.49769,15.4006],[79.4974,15.40093],[79.49696,15.40072],[79.49666,15.40008],[79.49592,15.40009],[79.49389,15.40179],[79.49384,15.40315],[79.49267,15.40291],[79.49107,15.40292],[79.48628,15.40348],[79.48419,15.40244],[79.4819,15.40056],[79.48118,15.39895],[79.47447,15.40078],[79.47487,15.40319]]]}},{"type":"Feature","bbox":[79.47722,15.40425,79.50159,15.41511],"properties":{"ward":10,"name":"Pathur"},"geometry":{"type":"Polygon","coordinates":[[[79.4781,15.40865],[79.47722,15.409],[79.47745,15.41096],[79.47801,15.41201],[79.47846,15.41338],[79.47919,15.41434],[79.47948,15.41511],[79.48332,15.41338],[79.48487,15.41289],[79.4872,15.41169],[79.48899,15.41106],[79.49081,15.4101],[79.49214,15.4097],[79.49371,15.4096],[79.49545,15.41019],[79.4983,15.41033],[79.50016,15.40852],[79.50142,15.40693],[79.50159,15.40651],[79.49995,15.40425],[79.49794,15.40524],[79.49631,15.40575],[79.49444,15.40661],[79.49278,15.40696],[79.49239,15.40662],[79.49191,15.4065],[79.49097,15.40661],[79.48907,15.40734],[79.48715,15.40724],[79.48621,15.40751],[79.4863,15.40848],[79.48545,15.40863],[79.48515,15.40804],[79.48401,15.40841],[79.48383,15.40794],[79.48256,15.40793],[79.48207,15.4082],[79.4781,15.40865]]]}},{"type":"Feature","bbox":[79.47409,15.40972,79.52277,15.45446],"properties":{"ward":11,"name":"Kasireddy Colony"},"geometry":{"type":"Polygon","coordinates":[[[79.47944,15.41519],[79.48006,15.41746],[79.47489,15.41922],[79.47639,15.42449],[79.47409,15.42592],[79.47494,15.42911],[79.4761,15.42908],[79.47692,15.42932],[79.47835,15.43051],[79.47922,15.43175],[79.48051,15.43176],[79.48108,15.43155],[79.48185,15.43071],[79.48164,15.42853],[79.48614,15.42919],[79.48096,15.43297],[79.47515,15.45331],[79.47531,15.45446],[79.48405,15.453],[79.48943,15.45169],[79.49338,15.45099],[79.4964,15.45075],[79.49605,15.44894],[79.50074,15.44747],[79.50241,15.44713],[79.50399,15.44868],[79.5078,15.44751],[79.50864,15.44876],[79.51095,15.44813],[79.51198,15.44804],[79.5129,15.44798],[79.51296,15.4483],[79.51763,15.44781],[79.52108,15.44796],[79.52277,15.44774],[79.52265,15.44577],[79.51879,15.446],[79.51704,15.44537],[79.51617,15.44454],[79.51557,15.44452],[79.51527,15.44408],[79.51448,15.44374],[79.51303,15.44391],[79.51087,15.44383],[79.5087,15.44187],[79.50851,15.44127],[79.508,15.44088],[79.50771,15.44095],[79.50725,15.43977],[79.50734,15.43931],[79.50665,15.43929],[79.50615,15.43852],[79.50624,15.43805],[79.50608,15.43776],[79.50541,15.43735],[79.50508,15.43671],[79.50427,15.43634],[79.50443,15.43539],[79.50493,15.43506],[79.50508,15.43418],[79.50402,15.43312],[79.50337,15.43283],[79.50117,15.4309],[79.50075,15.43008],[79.50093,15.42699],[79.50068,15.42569],[79.49846,15.42457],[79.4977,15.42381],[79.49733,15.42306],[79.49745,15.42208],[79.49709,15.4218],[79.49686,15.42134],[79.4963,15.42112],[79.49574,15.42113],[79.49542,15.42092],[79.49583,15.42071],[79.49488,15.41982],[79.49563,15.4173],[79.49834,15.41037],[79.49605,15.41033],[79.49333,15.40973],[79.49232,15.40972],[79.49069,15.41025],[79.47944,15.41519]]]}},{"type":"Feature","bbox":[79.49489,15.40791,79.50152,15.42207],"properties":{"ward":12,"name":"S C Colony"},"geometry":{"type":"Polygon","coordinates":[[[79.50077,15.40791],[79.49832,15.41037],[79.49557,15.41751],[79.49489,15.41982],[79.49583,15.42072],[79.49543,15.42092],[79.49573,15.42113],[79.49629,15.42113],[79.49685,15.42135],[79.4971,15.42181],[79.49745,15.42207],[79.49794,15.42142],[79.50075,15.42043],[79.50123,15.41992],[79.50102,15.41947],[79.5011,15.41868],[79.50074,15.418],[79.50064,15.4174],[79.50071,15.4155],[79.50152,15.41355],[79.50152,15.41279],[79.50112,15.41234],[79.50137,15.41136],[79.50137,15.41049],[79.50073,15.40985],[79.50066,15.40949],[79.50058,15.40873],[79.50077,15.40791]]]}},{"type":"Feature","bbox":[79.50058,15.40727,79.50391,15.41367],"properties":{"ward":13,"name":"Mangalamanyam"},"geometry":{"type":"Polygon","coordinates":[[[79.50154,15.41277],[79.50155,15.41366],[79.50182,15.41367],[79.50222,15.41309],[79.50191,15.41219],[79.50192,15.41153],[79.50236,15.41156],[79.50266,15.4109],[79.50226,15.40968],[79.50262,15.41],[79.50391,15.40968],[79.50345,15.4094],[79.50297,15.40864],[79.50239,15.40808],[79.50124,15.40727],[79.50082,15.4077],[79.50058,15.40866],[79.50073,15.40986],[79.5014,15.41051],[79.50148,15.41117],[79.50115,15.41241],[79.50154,15.41277]]]}},{"type":"Feature","bbox":[79.50162,15.40406,79.50474,15.40788],"properties":{"ward":14,"name":"Boddi Chavidi"},"geometry":{"type":"Polygon","coordinates":[[[79.50474,15.40557],[79.50414,15.40406],[79.50319,15.40434],[79.50196,15.40495],[79.50162,15.40593],[79.50162,15.40651],[79.50249,15.40748],[79.5032,15.40776],[79.50447,15.40788],[79.50371,15.40667],[79.50355,15.40586],[79.50474,15.40557]]]}},{"type":"Feature","bbox":[79.50415,15.39978,79.51052,15.40558],"properties":{"ward":15,"name":"Boddi Chavidi"},"geometry":{"type":"Polygon","coordinates":[[[79.50921,15.39978],[79.50415,15.40395],[79.50474,15.40558],[79.50846,15.40429],[79.50923,15.40418],[79.50903,15.4033],[79.51047,15.40288],[79.50993,15.40194],[79.51052,15.40154],[79.5102,15.40128],[79.50921,15.39978]],[[79.50919,15.39983],[79.5092,15.39982],[79.50919,15.39983],[79.50919,15.39983]]]}},{"type":"Feature","bbox":[79.50472,15.40113,79.5124,15.40623],"properties":{"ward":16,"name":"Kasireddy Bazar"},"geometry":{"type":"Polygon","coordinates":[[[79.50494,15.40623],[79.50825,15.4052],[79.50825,15.40536],[79.51144,15.4046],[79.5113,15.40402],[79.51147,15.4038],[79.5124,15.40335],[79.51229,15.403],[79.51177,15.4027],[79.51156,15.40163],[79.51102,15.40113],[79.51043,15.40148],[79.51044,15.40161],[79.50993,15.40194],[79.51046,15.40287],[79.50902,15.40328],[79.5092,15.40418],[79.5086,15.40424],[79.50472,15.40551],[79.50494,15.40623]]]}},{"type":"Feature","bbox":[79.50495,15.4046,79.51151,15.40664],"properties":{"ward":17,"name":"Parasara Bharathi Street"},"geometry":{"type":"Polygon","coordinates":[[[79.50495,15.40622],[79.50506,15.40664],[79.50845,15.40559],[79.51151,15.40492],[79.51146,15.4046],[79.50826,15.40536],[79.50827,15.4052],[79.50495,15.40622]]]}},{"type":"Feature","bbox":[79.50507,15.40492,79.51146,15.40798],"properties":{"ward":18,"name":"Neelakantam Vari Street"},"geometry":{"type":"Polygon","coordinates":[[[79.50841,15.40561],[79.50507,15.40664],[79.5053,15.40777],[79.5055,15.40798],[79.50876,15.40708],[79.50878,15.40689],[79.51114,15.40657],[79.51146,15.40492],[79.50841,15.40561]]]}},{"type":"Feature","bbox":[79.50125,15.40551,79.50559,15.41083],"properties":{"ward":19,"name":"Doravu Bazar"},"geometry":{"type":"Polygon","coordinates":[[[79.50541,15.41083],[79.50522,15.40962],[79.50559,15.40904],[79.50514,15.40669],[79.50471,15.40551],[79.50352,15.40585],[79.50372,15.40663],[79.50448,15.40785],[79.50251,15.40753],[79.50153,15.40649],[79.50125,15.40736],[79.50225,15.40802],[79.50328,15.40923],[79.50396,15.40975],[79.50451,15.40973],[79.50487,15.41052],[79.50541,15.41083]]]}},{"type":"Feature","bbox":[79.50522,15.40706,79.5095,15.41111],"properties":{"ward":20,"name":"Garlapeta Road"},"geometry":{"type":"Polygon","coordinates":[[[79.50612,15.41111],[79.5072,15.41102],[79.50745,15.41072],[79.50826,15.41045],[79.5095,15.40976],[79.50944,15.40949],[79.50906,15.40959],[79.50915,15.40887],[79.50869,15.40706],[79.50537,15.40798],[79.50555,15.40899],[79.50522,15.40963],[79.50545,15.41082],[79.50612,15.41111]]]}}]}