{"type":"FeatureCollection","features":[{"type":"Feature","bbox":[79.86646,15.58718,79.88399,15.62753],"properties":{"ward":1,"name":"1Th Ward"},"geometry":{"type":"Polygon","coordinates":[[[79.86954,15.62753],[79.871,15.62716],[79.87262,15.62626],[79.87384,15.62538],[79.87476,15.62431],[79.87474,15.62284],[79.87446,15.62092],[79.87678,15.61869],[79.8779,15.61596],[79.88232,15.60922],[79.88399,15.60856],[79.88305,15.60712],[79.88172,15.60414],[79.8812,15.60054],[79.87891,15.59843],[79.87788,15.5969],[79.87745,15.59583],[79.8765,15.59434],[79.87524,15.59267],[79.87384,15.59143],[79.87214,15.58896],[79.87137,15.58829],[79.87067,15.58728],[79.86968,15.58718],[79.86906,15.58764],[79.86752,15.58773],[79.86774,15.58888],[79.86722,15.59002],[79.86714,15.59121],[79.86779,15.59984],[79.86879,15.6066],[79.86858,15.60819],[79.86646,15.61207],[79.86827,15.61513],[79.86884,15.61557],[79.86961,15.61748],[79.8696,15.61839],[79.86916,15.62001],[79.86895,15.62163],[79.8692,15.62189],[79.87027,15.62232],[79.87047,15.623],[79.87043,15.62338],[79.86988,15.62369],[79.86974,15.62392],[79.86943,15.62509],[79.8693,15.62595],[79.86954,15.62753]]]}},{"type":"Feature","bbox":[79.86657,15.58518,79.87067,15.58773],"properties":{"ward":2,"name":"2Th Ward"},"geometry":{"type":"Polygon","coordinates":[[[79.86888,15.58518],[79.86657,15.58603],[79.86752,15.58773],[79.86906,15.58764],[79.86968,15.58718],[79.87067,15.58728],[79.86979,15.58634],[79.86923,15.58654],[79.86888,15.58518]]]}},{"type":"Feature","bbox":[79.86888,15.58445,79.87177,15.58654],"properties":{"ward":3,"name":"3Th Ward"},"geometry":{"type":"Polygon","coordinates":[[[79.86923,15.58654],[79.87177,15.58577],[79.87152,15.58467],[79.87059,15.58445],[79.86888,15.58518],[79.86923,15.58654]]]}},{"type":"Feature","bbox":[79.86979,15.58486,79.87601,15.58987],"properties":{"ward":4,"name":"4Th Ward"},"geometry":{"type":"Polygon","coordinates":[[[79.86979,15.58634],[79.87284,15.58987],[79.87407,15.58956],[79.87388,15.58849],[79.87527,15.58807],[79.87598,15.5861],[79.87601,15.58543],[79.87268,15.58486],[79.87291,15.58569],[79.87218,15.58589],[79.87214,15.58573],[79.87144,15.58582],[79.86979,15.58634]]]}},{"type":"Feature","bbox":[79.87059,15.58279,79.87509,15.58589],"properties":{"ward":5,"name":"5Th Ward"},"geometry":{"type":"Polygon","coordinates":[[[79.87059,15.58445],[79.87152,15.58467],[79.87179,15.58578],[79.87214,15.58573],[79.87218,15.58589],[79.87291,15.58569],[79.87268,15.58486],[79.87509,15.58529],[79.87424,15.58279],[79.87059,15.58445]]]}},{"type":"Feature","bbox":[79.87424,15.57684,79.88934,15.58565],"properties":{"ward":6,"name":"6Th Ward"},"geometry":{"type":"Polygon","coordinates":[[[79.87424,15.58279],[79.87509,15.58529],[79.87741,15.58565],[79.87696,15.58453],[79.87897,15.58396],[79.87892,15.58181],[79.88934,15.57751],[79.88907,15.57684],[79.87424,15.58279]]]}},{"type":"Feature","bbox":[79.87128,15.57617,79.8809,15.5826],"properties":{"ward":7,"name":"7Th Ward"},"geometry":{"type":"Polygon","coordinates":[[[79.87473,15.5826],[79.8809,15.58012],[79.88005,15.57617],[79.87511,15.57764],[79.87128,15.57729],[79.8718,15.57877],[79.8723,15.57923],[79.87275,15.57849],[79.87443,15.58169],[79.87473,15.5826]]]}},{"type":"Feature","bbox":[79.86985,15.57729,79.87473,15.58305],"properties":{"ward":8,"name":"8Th Ward"},"geometry":{"type":"Polygon","coordinates":[[[79.87473,15.5826],[79.87443,15.58169],[79.87275,15.57849],[79.8723,15.57923],[79.8718,15.57877],[79.87128,15.57729],[79.87056,15.57754],[79.87017,15.57824],[79.86985,15.57975],[79.87137,15.57942],[79.87176,15.58014],[79.87196,15.5798],[79.87363,15.58305],[79.87473,15.5826]]]}},{"type":"Feature","bbox":[79.87062,15.5798,79.87363,15.58405],"properties":{"ward":9,"name":"9Th Ward"},"geometry":{"type":"Polygon","coordinates":[[[79.87363,15.58305],[79.87269,15.58113],[79.87196,15.5798],[79.87152,15.58058],[79.87159,15.58073],[79.87062,15.58204],[79.87142,15.58405],[79.87363,15.58305]]]}},{"type":"Feature","bbox":[79.86981,15.57942,79.87176,15.58457],"properties":{"ward":10,"name":"10Th Ward"},"geometry":{"type":"Polygon","coordinates":[[[79.87025,15.58457],[79.87142,15.58405],[79.87062,15.58204],[79.87159,15.58073],[79.87152,15.58058],[79.87176,15.58021],[79.87137,15.57942],[79.86981,15.57976],[79.87038,15.58212],[79.87054,15.58211],[79.87025,15.58457]]]}},{"type":"Feature","bbox":[79.8678,15.57692,79.87128,15.58325],"properties":{"ward":11,"name":"11Th Ward"},"geometry":{"type":"Polygon","coordinates":[[[79.86838,15.58323],[79.86937,15.58301],[79.86941,15.58325],[79.8704,15.58306],[79.87054,15.58211],[79.87038,15.58212],[79.86981,15.57976],[79.8704,15.57776],[79.87056,15.57754],[79.87128,15.57729],[79.8678,15.57692],[79.86839,15.57906],[79.86818,15.57912],[79.86832,15.58009],[79.86904,15.57997],[79.86888,15.58162],[79.86838,15.58323]]]}},{"type":"Feature","bbox":[79.86781,15.58302,79.87039,15.58541],"properties":{"ward":12,"name":"12Th Ward"},"geometry":{"type":"Polygon","coordinates":[[[79.86781,15.58339],[79.86821,15.58541],[79.87025,15.58457],[79.87039,15.58306],[79.86941,15.58325],[79.86933,15.58302],[79.86781,15.58339]]]}},{"type":"Feature","bbox":[79.86466,15.57649,79.86904,15.58563],"properties":{"ward":13,"name":"13Th Ward"},"geometry":{"type":"Polygon","coordinates":[[[79.86466,15.57649],[79.86487,15.57806],[79.86571,15.58083],[79.86644,15.58284],[79.86667,15.58326],[79.86683,15.58321],[79.86753,15.58563],[79.86821,15.58541],[79.86781,15.58339],[79.86838,15.58323],[79.86857,15.58288],[79.86888,15.58162],[79.86904,15.57997],[79.86832,15.58009],[79.86818,15.57912],[79.86839,15.57906],[79.8678,15.57692],[79.86466,15.57649]]]}},{"type":"Feature","bbox":[79.8617,15.5761,79.8658,15.58274],"properties":{"ward":14,"name":"14Th Ward"},"geometry":{"type":"Polygon","coordinates":[[[79.86513,15.58274],[79.8658,15.58254],[79.86407,15.57747],[79.86347,15.57631],[79.8617,15.5761],[79.8622,15.57967],[79.86248,15.58063],[79.86245,15.58146],[79.86325,15.58148],[79.86365,15.58271],[79.86498,15.58228],[79.86513,15.58274]]]}},{"type":"Feature","bbox":[79.86347,15.57631,79.86753,15.58629],"properties":{"ward":15,"name":"15Th Ward"},"geometry":{"type":"Polygon","coordinates":[[[79.86575,15.58629],[79.86753,15.58563],[79.86683,15.58321],[79.86667,15.58326],[79.86644,15.58284],[79.86571,15.58083],[79.86487,15.57806],[79.86466,15.57649],[79.86347,15.57631],[79.86407,15.57747],[79.8658,15.58254],[79.86565,15.58258],[79.8664,15.58454],[79.86652,15.58557],[79.86595,15.58559],[79.86592,15.585],[79.86574,15.585],[79.8657,15.58462],[79.86453,15.58512],[79.86528,15.58531],[79.86565,15.5856],[79.86575,15.58629]]]}},{"type":"Feature","bbox":[79.85507,15.5761,79.86652,15.58559],"properties":{"ward":16,"name":"16Th Ward"},"geometry":{"type":"Polygon","coordinates":[[[79.8617,15.5761],[79.8598,15.57656],[79.85881,15.57728],[79.85589,15.57999],[79.85507,15.58115],[79.86157,15.58298],[79.86279,15.58461],[79.86453,15.58512],[79.8657,15.58462],[79.86574,15.585],[79.86592,15.585],[79.86595,15.58559],[79.86652,15.58557],[79.8664,15.58454],[79.86565,15.58258],[79.86513,15.58274],[79.86498,15.58228],[79.86365,15.58271],[79.86325,15.58148],[79.86245,15.58146],[79.86248,15.58063],[79.8622,15.57967],[79.8617,15.5761]]]}},{"type":"Feature","bbox":[79.85602,15.58137,79.86575,15.58672],"properties":{"ward":17,"name":"17Th Ward"},"geometry":{"type":"Polygon","coordinates":[[[79.86575,15.58629],[79.86569,15.58564],[79.86528,15.58531],[79.86279,15.58461],[79.86185,15.58316],[79.86157,15.58298],[79.85602,15.58137],[79.85751,15.58517],[79.85819,15.58495],[79.86014,15.58477],[79.86075,15.58539],[79.86145,15.58672],[79.86575,15.58629]]]}},{"type":"Feature","bbox":[79.85391,15.58115,79.86145,15.58739],"properties":{"ward":18,"name":"18Th Ward"},"geometry":{"type":"Polygon","coordinates":[[[79.86145,15.58672],[79.86075,15.58539],[79.86014,15.58477],[79.85819,15.58495],[79.85751,15.58517],[79.85602,15.58137],[79.85507,15.58115],[79.85404,15.58365],[79.85391,15.58632],[79.85401,15.58739],[79.86145,15.58672]]]}},{"type":"Feature","bbox":[79.8308,15.58691,79.86779,15.59997],"properties":{"ward":19,"name":"19Th Ward"},"geometry":{"type":"Polygon","coordinates":[[[79.86722,15.59002],[79.86696,15.59003],[79.86586,15.59081],[79.86433,15.59114],[79.86306,15.59205],[79.86167,15.58915],[79.8615,15.58926],[79.86126,15.58846],[79.86023,15.58874],[79.85971,15.58691],[79.83613,15.58887],[79.83198,15.58886],[79.83213,15.58991],[79.83252,15.59086],[79.8308,15.59182],[79.83401,15.59536],[79.83212,15.59581],[79.83237,15.59746],[79.83486,15.59622],[79.83933,15.59584],[79.8423,15.59523],[79.84413,15.59529],[79.84825,15.59356],[79.84853,15.59398],[79.85275,15.59281],[79.85425,15.59479],[79.85616,15.59684],[79.85779,15.59653],[79.86378,15.59883],[79.86589,15.59881],[79.86613,15.59973],[79.86704,15.5994],[79.86722,15.59997],[79.86779,15.59984],[79.86714,15.59121],[79.86722,15.59002]]]}},{"type":"Feature","bbox":[79.85971,15.58603,79.86777,15.59205],"properties":{"ward":20,"name":"20Th Ward"},"geometry":{"type":"Polygon","coordinates":[[[79.86657,15.58603],[79.86576,15.5863],[79.85971,15.58691],[79.86023,15.58874],[79.86126,15.58846],[79.8615,15.58926],[79.86167,15.58915],[79.86306,15.59205],[79.86433,15.59114],[79.86586,15.59081],[79.86696,15.59003],[79.86722,15.59002],[79.86777,15.58862],[79.86752,15.58773],[79.86657,15.58603]]]}}]}