{"type":"FeatureCollection","features":[{"type":"Feature","bbox":[82.1063,17.28589,82.11944,17.30408],"properties":{"ward":1,"name":"Rajahmundry Colony Rtc Colony"},"geometry":{"type":"Polygon","coordinates":[[[82.11436,17.29679],[82.1178,17.29605],[82.11905,17.29654],[82.11944,17.29395],[82.11941,17.29237],[82.11916,17.29168],[82.11774,17.29154],[82.11762,17.2906],[82.11719,17.28935],[82.11636,17.28945],[82.11475,17.28925],[82.11491,17.28726],[82.11522,17.28589],[82.11316,17.28642],[82.11196,17.28599],[82.10944,17.28612],[82.1079,17.28689],[82.1063,17.28809],[82.10821,17.29579],[82.10822,17.30086],[82.10843,17.30149],[82.10887,17.30199],[82.11176,17.30371],[82.11271,17.30408],[82.11449,17.30129],[82.11283,17.30074],[82.11199,17.29972],[82.11257,17.29825],[82.11436,17.29679]]]}},{"type":"Feature","bbox":[82.10554,17.27049,82.11397,17.28809],"properties":{"ward":2,"name":"Shiridi Nagar"},"geometry":{"type":"Polygon","coordinates":[[[82.10964,17.28608],[82.11196,17.28599],[82.11316,17.28642],[82.11397,17.28625],[82.11316,17.28223],[82.11313,17.2814],[82.11225,17.28002],[82.11195,17.27919],[82.11183,17.27789],[82.11218,17.27729],[82.11211,17.27554],[82.11186,17.27504],[82.11168,17.27506],[82.11159,17.27409],[82.11106,17.27222],[82.11078,17.27212],[82.11057,17.27182],[82.11008,17.27049],[82.10554,17.28349],[82.1063,17.28809],[82.10811,17.28675],[82.10964,17.28608]]]}},{"type":"Feature","bbox":[82.0996,17.26514,82.11096,17.27719],"properties":{"ward":3,"name":"Lingavaram Colony"},"geometry":{"type":"Polygon","coordinates":[[[82.10769,17.27719],[82.11096,17.26818],[82.11061,17.2682],[82.11011,17.26605],[82.10797,17.26584],[82.10593,17.26514],[82.10268,17.26516],[82.09965,17.26549],[82.09992,17.26727],[82.0996,17.26794],[82.09964,17.26834],[82.10081,17.27116],[82.10149,17.2719],[82.10244,17.27367],[82.10255,17.27475],[82.10221,17.27562],[82.10241,17.27709],[82.10434,17.27655],[82.10545,17.27649],[82.10543,17.27661],[82.10708,17.27661],[82.10706,17.27715],[82.10769,17.27719]]]}},{"type":"Feature","bbox":[82.10505,17.27661,82.10774,17.2815],"properties":{"ward":4,"name":"Kambalapalem Colony"},"geometry":{"type":"Polygon","coordinates":[[[82.10774,17.2772],[82.10706,17.27715],[82.10708,17.27661],[82.10543,17.27661],[82.10512,17.27766],[82.10505,17.27894],[82.10538,17.28104],[82.10559,17.2815],[82.10626,17.28142],[82.10774,17.2772]]]}},{"type":"Feature","bbox":[82.10241,17.27655,82.10543,17.27965],"properties":{"ward":5,"name":"Mandhula Colony"},"geometry":{"type":"Polygon","coordinates":[[[82.10543,17.27657],[82.10434,17.27655],[82.10241,17.27709],[82.10266,17.27965],[82.10511,17.2793],[82.10503,17.27826],[82.10543,17.27657]]]}},{"type":"Feature","bbox":[82.10266,17.2793,82.10559,17.28167],"properties":{"ward":6,"name":"Vengalarao Colony"},"geometry":{"type":"Polygon","coordinates":[[[82.10309,17.28167],[82.10559,17.2815],[82.10538,17.28104],[82.10511,17.2793],[82.10266,17.27965],[82.10309,17.28167]]]}},{"type":"Feature","bbox":[82.0942,17.26547,82.10315,17.28306],"properties":{"ward":7,"name":"Laccharao Colony"},"geometry":{"type":"Polygon","coordinates":[[[82.10141,17.28306],[82.10312,17.28271],[82.10315,17.28254],[82.10249,17.27856],[82.1025,17.27753],[82.10222,17.27587],[82.10224,17.27538],[82.10255,17.27475],[82.10249,17.27402],[82.10239,17.27355],[82.10152,17.27194],[82.10081,17.27116],[82.09964,17.26834],[82.0996,17.26794],[82.09992,17.26727],[82.09965,17.26549],[82.09775,17.26547],[82.09471,17.26578],[82.0942,17.26975],[82.09454,17.27137],[82.09567,17.27379],[82.09503,17.27387],[82.09625,17.27606],[82.09719,17.27844],[82.09943,17.28168],[82.09978,17.2829],[82.10072,17.28288],[82.10141,17.28306]]]}},{"type":"Feature","bbox":[82.07408,17.27388,82.10088,17.29071],"properties":{"ward":8,"name":"Appannapalem"},"geometry":{"type":"Polygon","coordinates":[[[82.09591,17.28913],[82.09665,17.28805],[82.0998,17.28818],[82.10088,17.28779],[82.1002,17.28672],[82.09966,17.28645],[82.09813,17.28609],[82.09949,17.28426],[82.09976,17.28366],[82.09978,17.28285],[82.09943,17.28168],[82.09719,17.27844],[82.09582,17.27515],[82.09502,17.27388],[82.09386,17.27408],[82.09375,17.27461],[82.09334,17.2747],[82.09366,17.27533],[82.09346,17.2762],[82.09285,17.27639],[82.09224,17.27722],[82.09155,17.27783],[82.08981,17.2786],[82.08887,17.27834],[82.08639,17.27823],[82.08607,17.27805],[82.08522,17.27827],[82.08335,17.27944],[82.08045,17.28065],[82.07939,17.28172],[82.07718,17.28301],[82.07459,17.28546],[82.07408,17.28619],[82.0743,17.28629],[82.07789,17.28591],[82.08069,17.28583],[82.0824,17.28609],[82.08273,17.28624],[82.08296,17.2866],[82.08372,17.28851],[82.09118,17.28957],[82.09512,17.29071],[82.09591,17.28913]]]}},{"type":"Feature","bbox":[82.09813,17.28271,82.10471,17.28779],"properties":{"ward":9,"name":"Pallapuveedhi"},"geometry":{"type":"Polygon","coordinates":[[[82.10038,17.28692],[82.10088,17.28779],[82.10189,17.28777],[82.10228,17.28758],[82.10238,17.2873],[82.103,17.28711],[82.1039,17.28745],[82.10471,17.28747],[82.10419,17.28694],[82.10364,17.28561],[82.10307,17.28565],[82.1028,17.28547],[82.10204,17.28559],[82.10203,17.28527],[82.10284,17.28378],[82.10312,17.28271],[82.10176,17.28306],[82.09978,17.2829],[82.09976,17.28366],[82.09949,17.28426],[82.09813,17.28609],[82.09995,17.28658],[82.10038,17.28692]]]}},{"type":"Feature","bbox":[82.10203,17.28254,82.10527,17.28558],"properties":{"ward":10,"name":"Thota Veedhi"},"geometry":{"type":"Polygon","coordinates":[[[82.10375,17.28555],[82.10373,17.28465],[82.1043,17.28462],[82.10527,17.28424],[82.10505,17.2826],[82.10323,17.28292],[82.10315,17.28254],[82.10289,17.28367],[82.10203,17.28526],[82.10203,17.28558],[82.10375,17.28555]]]}},{"type":"Feature","bbox":[82.10309,17.28142,82.10626,17.28424],"properties":{"ward":11,"name":"Peddaveedhi"},"geometry":{"type":"Polygon","coordinates":[[[82.10554,17.28349],[82.10626,17.28142],[82.10309,17.28167],[82.10323,17.28292],[82.10505,17.2826],[82.10527,17.28424],[82.1056,17.28417],[82.10554,17.28349]]]}},{"type":"Feature","bbox":[82.10373,17.28417,82.10609,17.28764],"properties":{"ward":12,"name":"Rupulamma Temple Street"},"geometry":{"type":"Polygon","coordinates":[[[82.10609,17.28691],[82.1056,17.28417],[82.1043,17.28462],[82.10373,17.28465],[82.10374,17.28609],[82.10407,17.28642],[82.10424,17.28702],[82.10497,17.28764],[82.10497,17.28716],[82.10609,17.28691]]]}},{"type":"Feature","bbox":[82.1027,17.28691,82.1063,17.29138],"properties":{"ward":13,"name":"Market Area"},"geometry":{"type":"Polygon","coordinates":[[[82.10364,17.29138],[82.10602,17.28815],[82.1063,17.28809],[82.10609,17.28691],[82.10497,17.28716],[82.10497,17.28764],[82.10469,17.28746],[82.1039,17.28745],[82.103,17.28711],[82.10271,17.28719],[82.1027,17.28784],[82.10294,17.28871],[82.10277,17.2896],[82.10332,17.29109],[82.10364,17.29138]]]}},{"type":"Feature","bbox":[82.09328,17.28719,82.10364,17.29404],"properties":{"ward":14,"name":"Sainagar"},"geometry":{"type":"Polygon","coordinates":[[[82.09328,17.29366],[82.09688,17.29404],[82.09741,17.29363],[82.098,17.29369],[82.09887,17.29351],[82.09945,17.29373],[82.10071,17.29191],[82.10093,17.29199],[82.10095,17.29239],[82.1015,17.29351],[82.10291,17.29234],[82.10364,17.29138],[82.10321,17.29089],[82.10277,17.2896],[82.10294,17.28871],[82.1027,17.28784],[82.10271,17.28719],[82.10189,17.28777],[82.10089,17.28778],[82.0998,17.28818],[82.09665,17.28805],[82.09591,17.28913],[82.09512,17.29071],[82.0941,17.2904],[82.09328,17.29366]]]}},{"type":"Feature","bbox":[82.08937,17.29196,82.1015,17.30359],"properties":{"ward":15,"name":"Krishnalayam Street"},"geometry":{"type":"Polygon","coordinates":[[[82.09296,17.30307],[82.09383,17.30288],[82.09644,17.3014],[82.09634,17.30075],[82.09595,17.30028],[82.09596,17.29981],[82.09487,17.29845],[82.09475,17.29775],[82.09669,17.29635],[82.09857,17.29555],[82.09958,17.29467],[82.1015,17.29351],[82.10095,17.29239],[82.1009,17.29196],[82.10063,17.29197],[82.09945,17.29373],[82.09887,17.29351],[82.098,17.29369],[82.09741,17.29363],[82.09688,17.29404],[82.09628,17.29408],[82.09328,17.29366],[82.09305,17.29411],[82.0914,17.29558],[82.09117,17.29632],[82.09215,17.29796],[82.08991,17.3019],[82.08937,17.30359],[82.09007,17.30346],[82.09123,17.30245],[82.09226,17.30295],[82.09296,17.30307]]]}},{"type":"Feature","bbox":[82.10284,17.29041,82.10603,17.29326],"properties":{"ward":16,"name":"Devudumanyam"},"geometry":{"type":"Polygon","coordinates":[[[82.10603,17.29298],[82.1054,17.29041],[82.10435,17.29069],[82.10427,17.29053],[82.10284,17.29241],[82.10399,17.29263],[82.10401,17.29326],[82.10603,17.29298]]]}},{"type":"Feature","bbox":[82.10427,17.28809,82.10741,17.29304],"properties":{"ward":17,"name":"Ambedkar Nagar"},"geometry":{"type":"Polygon","coordinates":[[[82.10604,17.29304],[82.10741,17.29263],[82.1063,17.28809],[82.10602,17.28815],[82.10427,17.29053],[82.10435,17.29069],[82.1054,17.29041],[82.10604,17.29304]]]}},{"type":"Feature","bbox":[82.10482,17.29263,82.10823,17.29606],"properties":{"ward":18,"name":"Sitaramaraju Colony"},"geometry":{"type":"Polygon","coordinates":[[[82.10823,17.29606],[82.10741,17.29263],[82.10604,17.29304],[82.10612,17.29376],[82.10482,17.294],[82.10482,17.2944],[82.10629,17.29419],[82.10663,17.29474],[82.10823,17.29606]]]}},{"type":"Feature","bbox":[82.09473,17.29241,82.10612,17.29811],"properties":{"ward":19,"name":"Lakkavarao Colony"},"geometry":{"type":"Polygon","coordinates":[[[82.10612,17.29376],[82.10603,17.29298],[82.10401,17.29326],[82.10399,17.29263],[82.10284,17.29241],[82.10169,17.29338],[82.09958,17.29467],[82.09857,17.29555],[82.09694,17.29621],[82.09494,17.29752],[82.09473,17.29781],[82.09474,17.29811],[82.09943,17.29746],[82.09988,17.29728],[82.10299,17.29706],[82.10221,17.29589],[82.10381,17.29543],[82.1038,17.29514],[82.10482,17.29488],[82.10482,17.294],[82.10612,17.29376]]]}},{"type":"Feature","bbox":[82.09474,17.29419,82.11176,17.30495],"properties":{"ward":20,"name":"Chaitanya Nagar"},"geometry":{"type":"Polygon","coordinates":[[[82.10261,17.30495],[82.10373,17.30457],[82.10357,17.30386],[82.10268,17.30292],[82.10247,17.30228],[82.10239,17.30163],[82.10273,17.3009],[82.10476,17.30102],[82.10618,17.30175],[82.10739,17.30192],[82.10801,17.30254],[82.10952,17.30281],[82.11176,17.30371],[82.10893,17.30203],[82.10843,17.30149],[82.10821,17.30075],[82.10823,17.29606],[82.10663,17.29474],[82.10629,17.29419],[82.10482,17.2944],[82.10482,17.29488],[82.1038,17.29514],[82.10381,17.29543],[82.10221,17.29589],[82.10299,17.29706],[82.09988,17.29728],[82.09943,17.29746],[82.09474,17.29811],[82.09596,17.29981],[82.09595,17.30028],[82.09634,17.30075],[82.09644,17.3014],[82.0977,17.30131],[82.09829,17.30152],[82.09901,17.30203],[82.09947,17.30296],[82.09921,17.30296],[82.09906,17.30253],[82.09704,17.30238],[82.09672,17.30256],[82.09698,17.30322],[82.09725,17.3032],[82.09764,17.30285],[82.09807,17.30307],[82.09844,17.30362],[82.09912,17.30393],[82.10029,17.30411],[82.10261,17.30495]]]}}]}