{"type":"FeatureCollection","features":[{"type":"Feature","bbox":[77.09491,14.5676,77.12374,14.59637],"properties":{"ward":1},"geometry":{"type":"Polygon","coordinates":[[[77.10543,14.58797],[77.10552,14.58543],[77.10616,14.58565],[77.10759,14.58558],[77.10776,14.5859],[77.10868,14.58638],[77.11396,14.5855],[77.11649,14.58575],[77.11952,14.58573],[77.12065,14.58594],[77.12107,14.58475],[77.12082,14.58364],[77.12078,14.58244],[77.12144,14.58102],[77.12266,14.57941],[77.12367,14.57711],[77.12374,14.57435],[77.12251,14.57444],[77.12202,14.57299],[77.1218,14.57304],[77.12141,14.57213],[77.12132,14.57117],[77.11981,14.57111],[77.11967,14.56878],[77.11849,14.56891],[77.11691,14.56825],[77.11589,14.56806],[77.1152,14.56771],[77.11437,14.5676],[77.11327,14.57354],[77.11325,14.57572],[77.11175,14.57521],[77.11018,14.57404],[77.10991,14.57352],[77.10994,14.57308],[77.10936,14.57304],[77.10926,14.57156],[77.10834,14.57105],[77.10712,14.5717],[77.10633,14.5728],[77.10572,14.57223],[77.10291,14.57121],[77.10202,14.57248],[77.09943,14.57542],[77.09826,14.57732],[77.09583,14.57871],[77.09506,14.57987],[77.09491,14.5804],[77.09512,14.58241],[77.09588,14.58469],[77.09597,14.58477],[77.09724,14.58426],[77.09984,14.58406],[77.1001,14.58478],[77.09988,14.58538],[77.09866,14.58661],[77.09699,14.58676],[77.09719,14.58747],[77.0971,14.58887],[77.09577,14.59431],[77.10195,14.59637],[77.10362,14.5938],[77.10407,14.59127],[77.10543,14.58797]]]}},{"type":"Feature","bbox":[77.10926,14.56469,77.11457,14.57573],"properties":{"ward":2},"geometry":{"type":"Polygon","coordinates":[[[77.11331,14.57332],[77.11425,14.56851],[77.11457,14.56508],[77.11212,14.56469],[77.11125,14.5674],[77.11091,14.56741],[77.11055,14.56908],[77.11015,14.5691],[77.11013,14.5693],[77.10964,14.56939],[77.10946,14.57166],[77.10926,14.57156],[77.10936,14.57304],[77.10993,14.57307],[77.1099,14.57348],[77.1101,14.57393],[77.1112,14.57483],[77.11175,14.57521],[77.11306,14.57573],[77.11331,14.57572],[77.11331,14.57332]]]}},{"type":"Feature","bbox":[77.11437,14.56508,77.14953,14.58942],"properties":{"ward":3},"geometry":{"type":"Polygon","coordinates":[[[77.13889,14.58942],[77.1392,14.58571],[77.14267,14.58583],[77.14669,14.57985],[77.14735,14.57946],[77.14746,14.57908],[77.14947,14.57893],[77.14953,14.57443],[77.14585,14.57202],[77.14412,14.57039],[77.13672,14.56621],[77.13529,14.56572],[77.13426,14.56556],[77.13216,14.56561],[77.12395,14.5664],[77.11457,14.56508],[77.11437,14.5676],[77.1152,14.56771],[77.11589,14.56806],[77.11691,14.56825],[77.11849,14.56891],[77.11967,14.56878],[77.11981,14.57111],[77.12132,14.57117],[77.12141,14.57213],[77.1218,14.57304],[77.12202,14.57299],[77.12251,14.57444],[77.12374,14.57435],[77.12367,14.57711],[77.12266,14.57941],[77.12144,14.58102],[77.12078,14.58244],[77.12082,14.58364],[77.12107,14.58475],[77.12065,14.58594],[77.12465,14.58699],[77.12607,14.58777],[77.12924,14.58801],[77.12965,14.58819],[77.12989,14.58864],[77.13109,14.58851],[77.13171,14.5887],[77.13229,14.58913],[77.13327,14.58904],[77.13504,14.58926],[77.13889,14.58942]]]}},{"type":"Feature","bbox":[77.14077,14.539,77.1827,14.56492],"properties":{"ward":4},"geometry":{"type":"Polygon","coordinates":[[[77.18187,14.56045],[77.17967,14.55655],[77.1778,14.55372],[77.17782,14.55048],[77.17745,14.54867],[77.17578,14.54683],[77.17306,14.54726],[77.17259,14.54632],[77.17204,14.54639],[77.17168,14.54537],[77.1713,14.54554],[77.17119,14.54491],[77.16459,14.5443],[77.16455,14.54261],[77.1647,14.54205],[77.16381,14.5422],[77.16258,14.54181],[77.16265,14.54064],[77.16139,14.54053],[77.16139,14.53916],[77.16054,14.539],[77.1599,14.53928],[77.16004,14.54099],[77.1592,14.54477],[77.15809,14.54663],[77.15791,14.54776],[77.15737,14.54915],[77.1552,14.54876],[77.15324,14.54907],[77.15125,14.54897],[77.14939,14.54916],[77.14885,14.5493],[77.14771,14.55002],[77.14673,14.55031],[77.14443,14.55164],[77.14078,14.55226],[77.14077,14.55534],[77.14096,14.55576],[77.14217,14.55577],[77.14224,14.5554],[77.14283,14.55547],[77.14334,14.55495],[77.14415,14.55457],[77.14416,14.55426],[77.14599,14.55403],[77.14609,14.55443],[77.14707,14.55436],[77.14964,14.5531],[77.15188,14.55332],[77.15144,14.55445],[77.15078,14.55552],[77.1484,14.55804],[77.14797,14.55944],[77.14892,14.5593],[77.15026,14.5598],[77.15138,14.56066],[77.15254,14.56205],[77.15258,14.5626],[77.15393,14.5624],[77.15451,14.56251],[77.15497,14.56292],[77.15582,14.5631],[77.15649,14.56306],[77.15696,14.56277],[77.15795,14.56256],[77.15938,14.56247],[77.16058,14.56269],[77.16147,14.56304],[77.16532,14.5637],[77.16824,14.56374],[77.18094,14.56492],[77.1827,14.56487],[77.18187,14.56045]]]}},{"type":"Feature","bbox":[77.14039,14.53652,77.1599,14.55226],"properties":{"ward":5},"geometry":{"type":"Polygon","coordinates":[[[77.1511,14.54898],[77.15324,14.54907],[77.1552,14.54876],[77.15737,14.54915],[77.15791,14.54776],[77.15809,14.54663],[77.1592,14.54477],[77.1599,14.53944],[77.15128,14.53941],[77.1432,14.53652],[77.14286,14.54287],[77.14307,14.54304],[77.14296,14.54353],[77.14338,14.54495],[77.1431,14.54552],[77.14237,14.54569],[77.14185,14.54651],[77.14039,14.54641],[77.14078,14.55226],[77.14443,14.55164],[77.14673,14.55031],[77.14771,14.55002],[77.1489,14.54928],[77.1511,14.54898]]]}},{"type":"Feature","bbox":[77.11796,14.53441,77.1526,14.57443],"properties":{"ward":6},"geometry":{"type":"Polygon","coordinates":[[[77.15013,14.57237],[77.14994,14.57031],[77.14878,14.57032],[77.1486,14.57018],[77.1493,14.56584],[77.1502,14.56588],[77.15073,14.56553],[77.15041,14.56489],[77.15044,14.564],[77.15125,14.56361],[77.15259,14.56328],[77.15231,14.56266],[77.15258,14.5626],[77.1526,14.56224],[77.15138,14.56066],[77.15026,14.5598],[77.14892,14.5593],[77.14797,14.55944],[77.1484,14.55804],[77.15078,14.55552],[77.15144,14.55445],[77.15188,14.55332],[77.14964,14.5531],[77.14707,14.55436],[77.14609,14.55443],[77.14599,14.55403],[77.14416,14.55426],[77.14415,14.55457],[77.14334,14.55495],[77.14283,14.55547],[77.14224,14.5554],[77.14217,14.55577],[77.14096,14.55576],[77.14077,14.55534],[77.14076,14.55172],[77.14039,14.54641],[77.14185,14.54651],[77.14249,14.54559],[77.1431,14.54552],[77.14339,14.54481],[77.14296,14.54353],[77.14307,14.54304],[77.14208,14.54173],[77.14215,14.53608],[77.13884,14.53536],[77.13781,14.53443],[77.13724,14.53441],[77.13653,14.53499],[77.13609,14.53505],[77.13529,14.53552],[77.13442,14.53698],[77.13494,14.53755],[77.1326,14.5396],[77.1311,14.54053],[77.1306,14.54007],[77.13024,14.54026],[77.12909,14.5402],[77.12868,14.54096],[77.12839,14.54209],[77.12854,14.54306],[77.12774,14.54456],[77.12634,14.54501],[77.12549,14.54502],[77.12472,14.54582],[77.12454,14.54669],[77.12459,14.54733],[77.1244,14.54772],[77.12463,14.54832],[77.12416,14.54914],[77.12278,14.54923],[77.12239,14.54837],[77.12208,14.5481],[77.1218,14.54799],[77.1206,14.54803],[77.12001,14.54815],[77.11982,14.54854],[77.11842,14.54981],[77.11796,14.55124],[77.1183,14.55205],[77.11867,14.55234],[77.11904,14.55239],[77.11912,14.55305],[77.11934,14.5531],[77.11909,14.55352],[77.119,14.5562],[77.11907,14.55745],[77.11948,14.55747],[77.11937,14.55873],[77.12104,14.5606],[77.12276,14.56322],[77.12433,14.56637],[77.13216,14.56561],[77.13445,14.56557],[77.13599,14.56591],[77.14412,14.57039],[77.14585,14.57202],[77.14953,14.57443],[77.14949,14.57247],[77.15013,14.57237]]]}},{"type":"Feature","bbox":[77.11481,14.53402,77.13309,14.55362],"properties":{"ward":7},"geometry":{"type":"Polygon","coordinates":[[[77.11656,14.55362],[77.1185,14.55341],[77.11914,14.55353],[77.11934,14.5531],[77.11912,14.55305],[77.11905,14.55271],[77.11916,14.55262],[77.11904,14.55239],[77.11867,14.55234],[77.1183,14.55205],[77.11796,14.55124],[77.11842,14.54981],[77.11982,14.54854],[77.12001,14.54815],[77.1218,14.54799],[77.12239,14.54837],[77.12278,14.54923],[77.12416,14.54914],[77.12463,14.54832],[77.1244,14.54772],[77.12459,14.54733],[77.12454,14.54669],[77.12479,14.5457],[77.12549,14.54502],[77.12634,14.54501],[77.12774,14.54456],[77.12854,14.54306],[77.12839,14.54209],[77.12868,14.54096],[77.12909,14.5402],[77.13024,14.54026],[77.1306,14.54007],[77.13099,14.54032],[77.13081,14.53745],[77.1313,14.5369],[77.13238,14.53644],[77.13279,14.53577],[77.13309,14.53402],[77.13011,14.53437],[77.12841,14.53684],[77.12716,14.53732],[77.12616,14.53712],[77.12535,14.5372],[77.12532,14.53804],[77.12407,14.54046],[77.12241,14.54187],[77.12315,14.54343],[77.12267,14.54438],[77.12205,14.54474],[77.12071,14.54455],[77.12009,14.54463],[77.1199,14.54623],[77.11802,14.54766],[77.11527,14.54907],[77.11481,14.54975],[77.11517,14.55104],[77.11582,14.55239],[77.11629,14.55317],[77.11646,14.5532],[77.11656,14.55362]]]}},{"type":"Feature","bbox":[77.10644,14.55397,77.12433,14.56637],"properties":{"ward":8},"geometry":{"type":"Polygon","coordinates":[[[77.11706,14.5574],[77.1148,14.55663],[77.11478,14.55674],[77.11294,14.55596],[77.11243,14.55628],[77.11146,14.5547],[77.1107,14.55397],[77.1103,14.55588],[77.10938,14.55733],[77.10822,14.55985],[77.10752,14.56092],[77.10644,14.56358],[77.11457,14.56508],[77.12433,14.56637],[77.12302,14.56364],[77.12053,14.56],[77.1182,14.55757],[77.11706,14.5574]]]}},{"type":"Feature","bbox":[77.1107,14.5519,77.11577,14.55698],"properties":{"ward":9},"geometry":{"type":"Polygon","coordinates":[[[77.11577,14.55698],[77.11373,14.55384],[77.11176,14.5522],[77.11071,14.5519],[77.1107,14.55397],[77.11146,14.5547],[77.11243,14.55628],[77.11294,14.55596],[77.11478,14.55674],[77.1148,14.55663],[77.11577,14.55698]]]}},{"type":"Feature","bbox":[77.11048,14.54979,77.11948,14.55873],"properties":{"ward":10},"geometry":{"type":"Polygon","coordinates":[[[77.119,14.55658],[77.11909,14.55352],[77.11881,14.55343],[77.11647,14.55362],[77.11438,14.55327],[77.11476,14.55133],[77.11287,14.55093],[77.11283,14.55003],[77.11191,14.55007],[77.1109,14.54979],[77.11048,14.55041],[77.11071,14.5519],[77.11176,14.5522],[77.11373,14.55384],[77.11582,14.55699],[77.11706,14.5574],[77.11818,14.55756],[77.11937,14.55873],[77.11948,14.55747],[77.11907,14.55745],[77.119,14.55658]]]}},{"type":"Feature","bbox":[77.11275,14.54374,77.12008,14.55362],"properties":{"ward":11},"geometry":{"type":"Polygon","coordinates":[[[77.11656,14.55362],[77.11555,14.55192],[77.11481,14.54975],[77.11527,14.54907],[77.11802,14.54766],[77.1199,14.54623],[77.12008,14.54444],[77.11872,14.54434],[77.11858,14.54374],[77.11594,14.54449],[77.1157,14.54444],[77.11576,14.54455],[77.11529,14.5447],[77.11482,14.54557],[77.11477,14.54624],[77.11442,14.54674],[77.11368,14.5473],[77.1136,14.54858],[77.11275,14.54864],[77.11287,14.55093],[77.11476,14.55133],[77.11438,14.55327],[77.11656,14.55362]]]}},{"type":"Feature","bbox":[77.1109,14.53592,77.1254,14.55007],"properties":{"ward":12},"geometry":{"type":"Polygon","coordinates":[[[77.12516,14.53592],[77.12113,14.53939],[77.11855,14.54129],[77.11662,14.54193],[77.11243,14.54561],[77.1113,14.54679],[77.11143,14.5485],[77.1109,14.54979],[77.11191,14.55007],[77.11283,14.55003],[77.11275,14.54864],[77.1136,14.54858],[77.11368,14.5473],[77.11447,14.54669],[77.11477,14.54624],[77.11482,14.54557],[77.11521,14.54478],[77.11576,14.54455],[77.1157,14.54444],[77.11594,14.54449],[77.11858,14.54374],[77.11865,14.5443],[77.11954,14.54445],[77.12001,14.54438],[77.12009,14.54463],[77.12071,14.54455],[77.12205,14.54474],[77.12267,14.54438],[77.12315,14.54343],[77.12241,14.54187],[77.12407,14.54046],[77.12532,14.53804],[77.1254,14.53754],[77.12516,14.53592]]]}},{"type":"Feature","bbox":[77.1113,14.52844,77.12978,14.54679],"properties":{"ward":13},"geometry":{"type":"Polygon","coordinates":[[[77.12513,14.53598],[77.12471,14.53374],[77.12584,14.53367],[77.12571,14.53297],[77.1264,14.5331],[77.12808,14.53392],[77.12916,14.53313],[77.12933,14.53245],[77.12978,14.53169],[77.12964,14.53102],[77.12687,14.53],[77.12533,14.5298],[77.12452,14.52932],[77.1234,14.52911],[77.12232,14.52863],[77.12097,14.52844],[77.12086,14.5323],[77.11856,14.53261],[77.11738,14.53224],[77.11673,14.53228],[77.11642,14.53281],[77.11517,14.53311],[77.1152,14.53582],[77.11526,14.5361],[77.11568,14.53654],[77.11568,14.53702],[77.11492,14.53811],[77.11402,14.53819],[77.11376,14.5387],[77.11295,14.54103],[77.11217,14.54257],[77.11165,14.54403],[77.1113,14.54679],[77.11421,14.54391],[77.11662,14.54193],[77.11855,14.54129],[77.12113,14.53939],[77.12513,14.53598]]]}},{"type":"Feature","bbox":[77.10881,14.53791,77.11401,14.54686],"properties":{"ward":14},"geometry":{"type":"Polygon","coordinates":[[[77.11165,14.54403],[77.11401,14.53819],[77.11199,14.53791],[77.11179,14.5393],[77.11023,14.53925],[77.10881,14.53946],[77.10985,14.54183],[77.11009,14.54525],[77.1113,14.54686],[77.11165,14.54403]]]}},{"type":"Feature","bbox":[77.09717,14.53773,77.11141,14.54966],"properties":{"ward":15},"geometry":{"type":"Polygon","coordinates":[[[77.10336,14.54886],[77.10688,14.54805],[77.1077,14.54878],[77.10821,14.54831],[77.11005,14.54896],[77.11123,14.54909],[77.11141,14.54863],[77.1113,14.54686],[77.11006,14.5451],[77.10981,14.5417],[77.10854,14.53889],[77.10773,14.53883],[77.10768,14.53914],[77.10749,14.53915],[77.10551,14.53883],[77.10544,14.53773],[77.10476,14.53788],[77.10219,14.53774],[77.10227,14.53967],[77.10025,14.53978],[77.09873,14.54013],[77.09717,14.54074],[77.09725,14.54168],[77.09958,14.54327],[77.09891,14.54595],[77.10114,14.54715],[77.10155,14.54807],[77.10146,14.54921],[77.10215,14.54966],[77.10296,14.54936],[77.10336,14.54886]]]}},{"type":"Feature","bbox":[77.08472,14.52041,77.1052,14.54595],"properties":{"ward":16},"geometry":{"type":"Polygon","coordinates":[[[77.10025,14.53978],[77.10227,14.53967],[77.10219,14.53774],[77.105,14.53785],[77.10464,14.53519],[77.1052,14.52939],[77.10515,14.52837],[77.10463,14.52606],[77.1045,14.5243],[77.10403,14.52322],[77.10328,14.52345],[77.10283,14.52331],[77.10209,14.52378],[77.10194,14.52429],[77.10168,14.52454],[77.10112,14.52437],[77.09964,14.52439],[77.0992,14.52287],[77.09911,14.52079],[77.0981,14.52042],[77.09698,14.52041],[77.09651,14.52505],[77.09649,14.52711],[77.0952,14.52821],[77.09188,14.52912],[77.09147,14.52756],[77.0914,14.52618],[77.09101,14.52454],[77.08907,14.52544],[77.08605,14.52556],[77.08472,14.52588],[77.08607,14.53071],[77.08638,14.53469],[77.08614,14.53741],[77.08595,14.53733],[77.08605,14.53846],[77.09267,14.54159],[77.09384,14.54243],[77.09568,14.54469],[77.09891,14.54595],[77.09958,14.54327],[77.09725,14.54168],[77.09717,14.54074],[77.09873,14.54013],[77.10025,14.53978]]]}},{"type":"Feature","bbox":[77.09999,14.54805,77.11123,14.55149],"properties":{"ward":17},"geometry":{"type":"Polygon","coordinates":[[[77.1014,14.55134],[77.10526,14.55056],[77.10714,14.54918],[77.10784,14.54893],[77.10838,14.5495],[77.11048,14.55041],[77.11123,14.54909],[77.11005,14.54896],[77.10821,14.54831],[77.1077,14.54878],[77.10688,14.54805],[77.10557,14.54829],[77.10548,14.54842],[77.10336,14.54886],[77.10296,14.54936],[77.1012,14.55019],[77.09999,14.55149],[77.1014,14.55134]]]}},{"type":"Feature","bbox":[77.08068,14.53846,77.10215,14.56873],"properties":{"ward":18},"geometry":{"type":"Polygon","coordinates":[[[77.101,14.54703],[77.09917,14.54603],[77.09568,14.54469],[77.09384,14.54243],[77.09329,14.54197],[77.08605,14.53846],[77.08548,14.54021],[77.08548,14.54138],[77.08473,14.54273],[77.08305,14.55062],[77.08072,14.55425],[77.08068,14.55772],[77.08239,14.55786],[77.08345,14.55844],[77.08433,14.55929],[77.08505,14.56033],[77.08787,14.56209],[77.08494,14.56783],[77.08431,14.56839],[77.08407,14.56873],[77.08746,14.56662],[77.08982,14.56457],[77.09065,14.56339],[77.09373,14.56032],[77.09444,14.559],[77.09501,14.55637],[77.09556,14.55541],[77.10009,14.55139],[77.10094,14.55041],[77.10215,14.54966],[77.10146,14.54921],[77.10152,14.54792],[77.101,14.54703]]]}},{"type":"Feature","bbox":[77.09862,14.55089,77.10342,14.55566],"properties":{"ward":19},"geometry":{"type":"Polygon","coordinates":[[[77.10342,14.55459],[77.10331,14.55281],[77.10265,14.55266],[77.10306,14.55089],[77.1014,14.55134],[77.09999,14.55149],[77.09862,14.55274],[77.09984,14.55288],[77.09983,14.55399],[77.10099,14.55415],[77.10145,14.55438],[77.10162,14.55447],[77.1018,14.55505],[77.10274,14.5556],[77.10311,14.55566],[77.10342,14.55459]]]}},{"type":"Feature","bbox":[77.10265,14.54893,77.11067,14.55282],"properties":{"ward":20},"geometry":{"type":"Polygon","coordinates":[[[77.10992,14.55282],[77.10964,14.55169],[77.11003,14.55168],[77.11007,14.55137],[77.11067,14.55149],[77.11048,14.55041],[77.10838,14.5495],[77.10784,14.54893],[77.10714,14.54918],[77.10526,14.55056],[77.10306,14.55088],[77.10265,14.55266],[77.10331,14.55281],[77.10527,14.55257],[77.10662,14.5518],[77.10801,14.55218],[77.10884,14.55262],[77.10992,14.55282]]]}},{"type":"Feature","bbox":[77.10331,14.55137,77.11067,14.5549],"properties":{"ward":21},"geometry":{"type":"Polygon","coordinates":[[[77.10523,14.5549],[77.10904,14.55419],[77.10909,14.55406],[77.11067,14.55432],[77.11067,14.55149],[77.11007,14.55137],[77.11003,14.55168],[77.10964,14.55169],[77.10991,14.55282],[77.10884,14.55262],[77.10801,14.55218],[77.10662,14.5518],[77.10527,14.55257],[77.10331,14.55281],[77.10341,14.55471],[77.1043,14.55468],[77.10523,14.5549]]]}},{"type":"Feature","bbox":[77.07929,14.55274,77.10311,14.58261],"properties":{"ward":22},"geometry":{"type":"Polygon","coordinates":[[[77.0861,14.58157],[77.08778,14.57914],[77.08793,14.57741],[77.09035,14.57813],[77.09062,14.57806],[77.09046,14.57692],[77.09116,14.57613],[77.09112,14.57505],[77.09133,14.5743],[77.09115,14.57173],[77.09188,14.57055],[77.09209,14.56985],[77.09253,14.56935],[77.09222,14.56848],[77.09222,14.568],[77.09345,14.5663],[77.09457,14.56313],[77.09501,14.56317],[77.09581,14.56241],[77.09801,14.56152],[77.09749,14.56039],[77.09743,14.55977],[77.09817,14.55789],[77.09849,14.55759],[77.0997,14.55674],[77.1016,14.55801],[77.10269,14.5571],[77.10311,14.55566],[77.10201,14.55522],[77.10145,14.55438],[77.10099,14.55415],[77.09983,14.55399],[77.09982,14.55286],[77.09862,14.55274],[77.09556,14.55541],[77.09501,14.55637],[77.09444,14.559],[77.09373,14.56032],[77.09065,14.56339],[77.08982,14.56457],[77.08833,14.5659],[77.08724,14.56677],[77.08457,14.5684],[77.08392,14.56901],[77.08047,14.57004],[77.08048,14.57182],[77.07973,14.58068],[77.07929,14.58261],[77.0838,14.5819],[77.08479,14.58131],[77.0861,14.58157]]]}},{"type":"Feature","bbox":[77.0832,14.55406,77.11212,14.59431],"properties":{"ward":23},"geometry":{"type":"MultiPolygon","coordinates":[[[[77.09035,14.57813],[77.09036,14.57802],[77.09035,14.57802],[77.09035,14.57813]]],[[[77.09035,14.57813],[77.08793,14.57741],[77.08778,14.57913],[77.08654,14.58054],[77.08608,14.58154],[77.08583,14.58334],[77.08527,14.58515],[77.0832,14.58987],[77.09062,14.59248],[77.09355,14.59333],[77.09577,14.59431],[77.0971,14.58887],[77.09719,14.58747],[77.09699,14.58676],[77.09866,14.58661],[77.09988,14.58538],[77.1001,14.58464],[77.09997,14.58416],[77.09961,14.58406],[77.09724,14.58426],[77.09597,14.58477],[77.09512,14.58241],[77.09497,14.58006],[77.09593,14.57861],[77.09826,14.57732],[77.09943,14.57542],[77.10202,14.57248],[77.10291,14.57121],[77.10572,14.57223],[77.10633,14.5728],[77.10701,14.57181],[77.10795,14.57115],[77.10834,14.57105],[77.10946,14.57166],[77.10964,14.56939],[77.11013,14.5693],[77.11015,14.5691],[77.11055,14.56908],[77.11091,14.56741],[77.11125,14.5674],[77.11212,14.56469],[77.10644,14.56358],[77.10752,14.56092],[77.10822,14.55985],[77.10938,14.55733],[77.1103,14.55588],[77.11067,14.55432],[77.10909,14.55406],[77.10904,14.55419],[77.10523,14.5549],[77.1043,14.55468],[77.10341,14.55471],[77.10269,14.5571],[77.1016,14.55801],[77.0997,14.55674],[77.09817,14.55789],[77.09743,14.55977],[77.09749,14.56039],[77.09801,14.56152],[77.09581,14.56241],[77.09501,14.56317],[77.09457,14.56313],[77.09345,14.5663],[77.09222,14.568],[77.09222,14.56848],[77.09257,14.56926],[77.09209,14.56985],[77.09188,14.57055],[77.09115,14.57173],[77.09134,14.57412],[77.09112,14.57505],[77.09119,14.57603],[77.09046,14.57692],[77.09036,14.57802],[77.09062,14.57806],[77.09051,14.57815],[77.09035,14.57813]]]]}},{"type":"Feature","bbox":[77.08348,14.57749,77.10008,14.59425],"properties":{"ward":24},"geometry":{"type":"Polygon","coordinates":[[[77.09501,14.58067],[77.09144,14.57842],[77.09405,14.57983],[77.09138,14.57837],[77.08799,14.57749],[77.08782,14.57898],[77.08702,14.57998],[77.08585,14.58256],[77.08586,14.58362],[77.08348,14.58986],[77.08668,14.59117],[77.0907,14.59239],[77.09582,14.59425],[77.09699,14.58923],[77.09718,14.58786],[77.09699,14.58672],[77.09865,14.58655],[77.10008,14.5849],[77.09987,14.58406],[77.09725,14.5843],[77.09595,14.58474],[77.09528,14.58292],[77.09491,14.58141],[77.09501,14.58067]]]}}]}