{"type":"FeatureCollection","features":[{"type":"Feature","bbox":[75.28426,30.59506,75.29071,30.59823],"properties":{"ward":1},"geometry":{"type":"Polygon","coordinates":[[[75.28716,30.59823],[75.2894,30.59819],[75.28988,30.59782],[75.29071,30.59781],[75.29067,30.59506],[75.2899,30.59512],[75.28983,30.59533],[75.28426,30.59546],[75.28596,30.59729],[75.28716,30.59823]]]}},{"type":"Feature","bbox":[75.28301,30.58846,75.29213,30.5977],"properties":{"ward":2},"geometry":{"type":"Polygon","coordinates":[[[75.29073,30.5977],[75.29125,30.59756],[75.29164,30.59711],[75.29154,30.59677],[75.29082,30.59601],[75.29198,30.59582],[75.29211,30.59571],[75.29213,30.59501],[75.29138,30.59503],[75.29136,30.59538],[75.29076,30.59538],[75.29073,30.59487],[75.29021,30.59381],[75.29078,30.5938],[75.29076,30.59325],[75.2899,30.59313],[75.28957,30.59167],[75.2897,30.58967],[75.28921,30.58936],[75.28896,30.58887],[75.28896,30.58847],[75.28855,30.58846],[75.28861,30.59033],[75.28931,30.59032],[75.28927,30.59086],[75.28525,30.59159],[75.28301,30.59155],[75.28357,30.5924],[75.28318,30.5926],[75.28347,30.59353],[75.2861,30.5935],[75.28611,30.59404],[75.28653,30.59405],[75.28656,30.59541],[75.28842,30.59525],[75.28982,30.5953],[75.2899,30.59509],[75.2907,30.59505],[75.29073,30.5977]]]}},{"type":"Feature","bbox":[75.28205,30.58924,75.28444,30.59151],"properties":{"ward":3},"geometry":{"type":"Polygon","coordinates":[[[75.28205,30.58955],[75.28341,30.59151],[75.28444,30.5915],[75.28438,30.59126],[75.28375,30.59112],[75.28379,30.59045],[75.28441,30.59043],[75.28442,30.58963],[75.28355,30.59003],[75.28326,30.58967],[75.28296,30.58981],[75.28258,30.58924],[75.28205,30.58955]]]}},{"type":"Feature","bbox":[75.27917,30.58957,75.28355,30.5965],"properties":{"ward":4},"geometry":{"type":"Polygon","coordinates":[[[75.2814,30.59219],[75.27917,30.59329],[75.28031,30.59502],[75.28059,30.59504],[75.28059,30.59649],[75.28133,30.5965],[75.28294,30.59331],[75.28341,30.5931],[75.28312,30.59257],[75.28355,30.59242],[75.28297,30.59153],[75.28339,30.59151],[75.28325,30.59126],[75.28203,30.58957],[75.28091,30.59019],[75.28287,30.59331],[75.28235,30.59359],[75.2814,30.59219]]]}},{"type":"Feature","bbox":[75.27882,30.58565,75.28338,30.59012],"properties":{"ward":5},"geometry":{"type":"Polygon","coordinates":[[[75.28093,30.59012],[75.28337,30.58877],[75.28338,30.58565],[75.27924,30.58573],[75.27941,30.58626],[75.27882,30.58651],[75.27969,30.58743],[75.2801,30.58837],[75.27895,30.58842],[75.27955,30.58951],[75.27994,30.58985],[75.28019,30.58972],[75.27977,30.58906],[75.28028,30.58891],[75.28093,30.59012]]]}},{"type":"Feature","bbox":[75.28263,30.58338,75.29211,30.59002],"properties":{"ward":6},"geometry":{"type":"Polygon","coordinates":[[[75.29028,30.58388],[75.28936,30.58376],[75.28837,30.58385],[75.28851,30.58561],[75.28514,30.58567],[75.28509,30.58528],[75.28485,30.58527],[75.28479,30.58566],[75.28341,30.58565],[75.2834,30.58878],[75.28263,30.58924],[75.28297,30.58979],[75.28326,30.58966],[75.28355,30.59002],[75.28437,30.58962],[75.28436,30.58948],[75.28619,30.58946],[75.28675,30.58834],[75.28657,30.58718],[75.28859,30.58705],[75.2887,30.58621],[75.28892,30.58604],[75.28935,30.58605],[75.28986,30.58567],[75.28978,30.58547],[75.29033,30.5851],[75.29105,30.58498],[75.29097,30.5847],[75.29211,30.58394],[75.29159,30.58338],[75.29124,30.58355],[75.29045,30.58342],[75.29028,30.58388]]]}},{"type":"Feature","bbox":[75.27572,30.5835,75.28342,30.58648],"properties":{"ward":7},"geometry":{"type":"Polygon","coordinates":[[[75.27805,30.58354],[75.27702,30.58387],[75.27572,30.58519],[75.27618,30.58584],[75.27687,30.58558],[75.27715,30.58564],[75.27767,30.58623],[75.2786,30.58627],[75.27881,30.58648],[75.27937,30.58625],[75.27922,30.5857],[75.28342,30.58554],[75.28327,30.58517],[75.28305,30.58524],[75.28299,30.58555],[75.28232,30.58556],[75.28226,30.58509],[75.28129,30.58504],[75.28126,30.58406],[75.28075,30.58408],[75.28079,30.58438],[75.27962,30.58441],[75.27948,30.58406],[75.27892,30.58412],[75.2789,30.5835],[75.27805,30.58354]]]}},{"type":"Feature","bbox":[75.27644,30.57109,75.27961,30.58384],"properties":{"ward":8},"geometry":{"type":"Polygon","coordinates":[[[75.27656,30.57114],[75.27661,30.58192],[75.27644,30.5823],[75.27703,30.58384],[75.27804,30.58351],[75.27948,30.58329],[75.27954,30.58274],[75.27896,30.58239],[75.27791,30.58225],[75.27797,30.58133],[75.27738,30.58126],[75.27733,30.58091],[75.27677,30.58083],[75.27685,30.57922],[75.27961,30.5792],[75.27945,30.5785],[75.27671,30.5785],[75.27672,30.57488],[75.27744,30.5749],[75.2778,30.57473],[75.2775,30.57139],[75.27682,30.57109],[75.27656,30.57114]]]}},{"type":"Feature","bbox":[75.27004,30.57116,75.27929,30.58954],"properties":{"ward":9},"geometry":{"type":"Polygon","coordinates":[[[75.27635,30.57688],[75.27441,30.57697],[75.27447,30.57757],[75.27521,30.57757],[75.27513,30.57735],[75.27461,30.57721],[75.2746,30.57707],[75.2764,30.57703],[75.27637,30.57962],[75.27354,30.57964],[75.27351,30.57996],[75.2745,30.58083],[75.27639,30.58087],[75.27634,30.58203],[75.27618,30.58242],[75.27674,30.5839],[75.27612,30.58425],[75.27532,30.58435],[75.2748,30.5851],[75.27505,30.58687],[75.27311,30.58772],[75.27013,30.58767],[75.27004,30.58792],[75.27033,30.58842],[75.27239,30.58933],[75.27315,30.58954],[75.27319,30.58785],[75.27738,30.58788],[75.27929,30.58703],[75.27859,30.5863],[75.27765,30.58624],[75.27712,30.58566],[75.27696,30.58574],[75.27687,30.58562],[75.27616,30.58588],[75.27565,30.58525],[75.277,30.58385],[75.27639,30.58232],[75.27653,30.58215],[75.27655,30.58056],[75.27652,30.57116],[75.27636,30.5712],[75.27635,30.57688]]]}},{"type":"Feature","bbox":[75.27302,30.58704,75.2809,30.59432],"properties":{"ward":10},"geometry":{"type":"Polygon","coordinates":[[[75.28007,30.58837],[75.27977,30.58762],[75.27933,30.58704],[75.27783,30.58785],[75.27322,30.58797],[75.27326,30.59274],[75.27302,30.59291],[75.27302,30.59383],[75.2734,30.59432],[75.2809,30.59013],[75.28028,30.58893],[75.2798,30.58907],[75.2802,30.58972],[75.27995,30.58987],[75.27954,30.58951],[75.27892,30.58841],[75.28007,30.58837]]]}},{"type":"Feature","bbox":[75.26894,30.59022,75.28283,30.5974],"properties":{"ward":11,"name":"Green City Coloney"},"geometry":{"type":"Polygon","coordinates":[[[75.26894,30.59532],[75.26986,30.5974],[75.27113,30.59739],[75.27111,30.59607],[75.27138,30.59574],[75.27333,30.59529],[75.27492,30.59511],[75.27566,30.59417],[75.27598,30.5951],[75.27607,30.59661],[75.27664,30.59664],[75.27666,30.59714],[75.27685,30.59726],[75.27734,30.59717],[75.27831,30.59683],[75.27836,30.59553],[75.2779,30.59551],[75.27788,30.59497],[75.27748,30.595],[75.27738,30.59403],[75.27713,30.59405],[75.27711,30.59376],[75.27794,30.59369],[75.27897,30.59334],[75.28143,30.59215],[75.28237,30.59354],[75.28283,30.5933],[75.28084,30.59022],[75.27339,30.59437],[75.27298,30.59383],[75.27299,30.59288],[75.27325,30.59272],[75.27315,30.59061],[75.27205,30.59061],[75.27209,30.5911],[75.27306,30.59118],[75.27306,30.59273],[75.27267,30.59271],[75.27242,30.59318],[75.27165,30.59313],[75.2716,30.59386],[75.27091,30.59418],[75.27084,30.59332],[75.2692,30.59335],[75.269,30.59402],[75.26894,30.59532]]]}},{"type":"Feature","bbox":[75.27714,30.59329,75.28133,30.59661],"properties":{"ward":12},"geometry":{"type":"Polygon","coordinates":[[[75.27843,30.59661],[75.28133,30.59653],[75.28056,30.59651],[75.28058,30.59505],[75.2803,30.59505],[75.27915,30.59329],[75.27795,30.59371],[75.27714,30.59378],[75.27716,30.59402],[75.27742,30.59401],[75.27749,30.59498],[75.2779,30.59496],[75.27791,30.59549],[75.27838,30.59551],[75.27843,30.59661]]]}},{"type":"Feature","bbox":[75.28076,30.59323,75.28759,30.5989],"properties":{"ward":13,"name":"Dr Ambedkar Nagar"},"geometry":{"type":"Polygon","coordinates":[[[75.28076,30.59779],[75.28288,30.5978],[75.28362,30.59799],[75.28369,30.5977],[75.2856,30.59774],[75.28506,30.59885],[75.28676,30.5989],[75.28759,30.59863],[75.28594,30.59732],[75.2842,30.59542],[75.28654,30.59542],[75.28652,30.59406],[75.2861,30.59405],[75.28608,30.59351],[75.28346,30.59354],[75.28346,30.59323],[75.28296,30.59334],[75.28076,30.59779]]]}}]}