{"type":"FeatureCollection","features":[{"type":"Feature","bbox":[77.03007,23.52629,77.03545,23.53354],"properties":{"ward":1,"name":"Vivekanand Ward"},"geometry":{"type":"Polygon","coordinates":[[[77.032,23.52819],[77.03264,23.52784],[77.03272,23.52704],[77.03235,23.5266],[77.0317,23.52629],[77.03169,23.5265],[77.03144,23.52651],[77.03157,23.52695],[77.03103,23.52732],[77.03112,23.52762],[77.0307,23.52768],[77.03033,23.52732],[77.03018,23.52739],[77.0304,23.52786],[77.03023,23.52801],[77.0314,23.52883],[77.0317,23.52965],[77.03106,23.53033],[77.03095,23.53066],[77.03023,23.53095],[77.03007,23.53143],[77.03021,23.53178],[77.03087,23.532],[77.03155,23.53211],[77.03183,23.53201],[77.03194,23.53297],[77.03223,23.53294],[77.03238,23.53354],[77.0328,23.53332],[77.0325,23.5318],[77.03276,23.53165],[77.03301,23.53192],[77.03357,23.53181],[77.03545,23.53048],[77.03387,23.53003],[77.03275,23.52989],[77.03234,23.52935],[77.032,23.52819]]]}},{"type":"Feature","bbox":[76.99314,23.49289,77.03863,23.54555],"properties":{"ward":2,"name":"Dayanand Ward"},"geometry":{"type":"Polygon","coordinates":[[[77.01692,23.50678],[77.01785,23.50834],[77.01617,23.5093],[77.01602,23.50903],[77.01586,23.5091],[77.016,23.50949],[77.01566,23.50978],[77.01343,23.51095],[77.01073,23.51169],[77.01088,23.51218],[77.00642,23.51411],[77.00182,23.51537],[77.00012,23.51617],[76.99662,23.51808],[76.99561,23.51895],[76.99314,23.52059],[76.99412,23.52212],[76.99559,23.52105],[76.99507,23.51985],[76.99774,23.51824],[77.00006,23.51647],[77.00185,23.51591],[77.00411,23.51548],[77.00677,23.5145],[77.01278,23.51194],[77.01431,23.51149],[77.01461,23.51144],[77.01492,23.51325],[77.01478,23.51387],[77.01516,23.51419],[77.01543,23.5139],[77.01544,23.51359],[77.01508,23.51121],[77.01677,23.50993],[77.01806,23.50926],[77.01879,23.50951],[77.01952,23.50953],[77.01979,23.5087],[77.02029,23.50885],[77.02028,23.5091],[77.02059,23.50928],[77.02096,23.50925],[77.02094,23.50877],[77.02109,23.50876],[77.02108,23.50856],[77.022,23.50838],[77.02253,23.5098],[77.02131,23.50995],[77.02125,23.51053],[77.02198,23.51043],[77.02209,23.51208],[77.02337,23.51245],[77.02323,23.51348],[77.02342,23.5151],[77.02341,23.51554],[77.02307,23.5159],[77.0231,23.5162],[77.02288,23.51676],[77.02177,23.51695],[77.02188,23.51746],[77.02278,23.51732],[77.02354,23.51952],[77.0231,23.51965],[77.02291,23.51999],[77.02305,23.52006],[77.02245,23.52116],[77.02292,23.52137],[77.02232,23.52215],[77.02263,23.52231],[77.02369,23.52092],[77.02466,23.52056],[77.02537,23.52121],[77.02544,23.52208],[77.02522,23.52256],[77.02542,23.52263],[77.02498,23.52351],[77.0247,23.52348],[77.02463,23.52364],[77.02402,23.52357],[77.024,23.52389],[77.0237,23.52386],[77.02439,23.52408],[77.02405,23.52504],[77.02373,23.52502],[77.02364,23.52547],[77.02403,23.52555],[77.02356,23.52747],[77.02068,23.52756],[77.02071,23.52772],[77.02344,23.52778],[77.02092,23.53318],[77.02099,23.53351],[77.02081,23.53412],[77.02052,23.53854],[77.02089,23.5432],[77.02064,23.54416],[77.021,23.54553],[77.02152,23.54555],[77.02361,23.54478],[77.02337,23.5441],[77.02269,23.54311],[77.02236,23.54184],[77.02173,23.54032],[77.02156,23.53896],[77.02199,23.53508],[77.02318,23.53318],[77.02237,23.53195],[77.02447,23.52759],[77.0247,23.52752],[77.02514,23.52483],[77.02616,23.52455],[77.02737,23.52467],[77.02728,23.52361],[77.02905,23.52333],[77.02919,23.52347],[77.02937,23.52375],[77.02954,23.52484],[77.0282,23.52549],[77.028,23.52635],[77.02821,23.52654],[77.0291,23.52591],[77.02949,23.52657],[77.02932,23.52664],[77.02939,23.5268],[77.0295,23.527],[77.0297,23.52688],[77.02982,23.52712],[77.02987,23.5273],[77.02964,23.52741],[77.02976,23.5279],[77.03006,23.52776],[77.03038,23.52817],[77.03103,23.52847],[77.03139,23.52884],[77.03169,23.52966],[77.03105,23.53033],[77.03095,23.53066],[77.03023,23.53095],[77.03007,23.53143],[77.03021,23.53178],[77.03155,23.53211],[77.03183,23.53201],[77.03194,23.53298],[77.03222,23.53295],[77.03235,23.53353],[77.0328,23.53332],[77.03251,23.5318],[77.03276,23.53166],[77.03301,23.53193],[77.03357,23.53182],[77.03546,23.53048],[77.03388,23.53002],[77.03276,23.52989],[77.03235,23.52935],[77.03201,23.5282],[77.03265,23.52784],[77.03272,23.52704],[77.03236,23.5266],[77.033,23.52661],[77.03448,23.52714],[77.03463,23.52669],[77.03436,23.52669],[77.03426,23.52624],[77.0339,23.52636],[77.03199,23.52624],[77.03177,23.52605],[77.0319,23.52508],[77.03209,23.52488],[77.03305,23.5248],[77.03366,23.52346],[77.03676,23.51973],[77.03635,23.51934],[77.03192,23.52196],[77.03153,23.52202],[77.03159,23.52218],[77.03071,23.52243],[77.03011,23.52035],[77.0286,23.5207],[77.02839,23.52009],[77.0288,23.51994],[77.02855,23.51905],[77.03071,23.51864],[77.03063,23.51826],[77.03099,23.51816],[77.0311,23.51854],[77.03142,23.51847],[77.03137,23.51806],[77.03163,23.51845],[77.03227,23.51849],[77.03228,23.51863],[77.03271,23.51842],[77.03259,23.51726],[77.03055,23.5175],[77.0307,23.51553],[77.0318,23.51445],[77.03198,23.51404],[77.03394,23.51399],[77.03476,23.51377],[77.03723,23.51385],[77.03727,23.51322],[77.03688,23.51297],[77.03665,23.50915],[77.03675,23.50755],[77.03639,23.50734],[77.03563,23.50726],[77.03863,23.50276],[77.03839,23.5024],[77.0379,23.50249],[77.03769,23.50229],[77.03701,23.50221],[77.03702,23.50169],[77.03673,23.50167],[77.03651,23.50203],[77.03642,23.5031],[77.0367,23.50315],[77.03673,23.50378],[77.03651,23.50449],[77.03644,23.5047],[77.03576,23.50469],[77.03582,23.50647],[77.03437,23.50642],[77.03442,23.50787],[77.03346,23.50795],[77.03348,23.50999],[77.032,23.50994],[77.03142,23.51075],[77.02916,23.51034],[77.02917,23.50951],[77.02882,23.50947],[77.02875,23.51039],[77.02731,23.51014],[77.0272,23.51],[77.02741,23.50954],[77.02723,23.50936],[77.02651,23.51008],[77.02576,23.51002],[77.02588,23.50963],[77.02535,23.50952],[77.0256,23.50884],[77.02492,23.50841],[77.02447,23.50837],[77.02475,23.50729],[77.02696,23.50755],[77.02696,23.50695],[77.02466,23.50632],[77.02533,23.50602],[77.02516,23.50572],[77.02427,23.50595],[77.02399,23.5055],[77.02404,23.50501],[77.02579,23.50462],[77.02613,23.50427],[77.02547,23.5036],[77.02536,23.50379],[77.02548,23.50444],[77.02518,23.5046],[77.02427,23.50437],[77.0241,23.50402],[77.02374,23.50377],[77.02304,23.5039],[77.02147,23.50268],[77.0214,23.50206],[77.02247,23.50183],[77.02253,23.501],[77.02209,23.50096],[77.02027,23.50154],[77.01953,23.49886],[77.0183,23.49289],[77.01801,23.4929],[77.01803,23.49312],[77.01765,23.4931],[77.01842,23.49803],[77.01882,23.49805],[77.01916,23.50163],[77.01898,23.50197],[77.01774,23.5017],[77.01736,23.50094],[77.01726,23.5003],[77.01382,23.49947],[77.01351,23.50055],[77.0125,23.502],[77.01155,23.50184],[77.01091,23.50214],[77.00869,23.50142],[77.00658,23.50045],[77.00594,23.50092],[77.00517,23.50082],[77.00426,23.50118],[77.00429,23.50142],[77.00634,23.50112],[77.00818,23.50154],[77.0089,23.50234],[77.00931,23.50379],[77.00931,23.50445],[77.0113,23.5041],[77.01091,23.5028],[77.01259,23.50292],[77.01449,23.50436],[77.01421,23.50539],[77.01503,23.5064],[77.01692,23.50678]]]}},{"type":"Feature","bbox":[77.02784,23.52165,77.03245,23.52653],"properties":{"ward":3,"name":"Mahatma Gandhi Ward"},"geometry":{"type":"Polygon","coordinates":[[[77.02784,23.52282],[77.02786,23.52355],[77.02905,23.52333],[77.02919,23.52347],[77.02938,23.52374],[77.02955,23.52485],[77.02821,23.52549],[77.02799,23.52612],[77.02822,23.52653],[77.0291,23.5259],[77.02918,23.52603],[77.02938,23.52592],[77.02924,23.52565],[77.02974,23.52554],[77.02977,23.52567],[77.03066,23.52537],[77.0307,23.5251],[77.03108,23.52475],[77.031,23.52447],[77.03201,23.52416],[77.03191,23.52388],[77.03245,23.52352],[77.03217,23.52263],[77.03193,23.5227],[77.03174,23.52219],[77.0307,23.52244],[77.03053,23.52188],[77.02935,23.52216],[77.02912,23.52165],[77.02866,23.52183],[77.02891,23.5226],[77.02784,23.52282]]]}},{"type":"Feature","bbox":[77.02054,23.51825,77.03053,23.54552],"properties":{"ward":4,"name":"Subhash Chandra Boss Ward"},"geometry":{"type":"Polygon","coordinates":[[[77.02368,23.52546],[77.02404,23.52555],[77.02357,23.52748],[77.0207,23.52757],[77.02072,23.52771],[77.02346,23.52777],[77.02094,23.53318],[77.02054,23.53854],[77.0209,23.5432],[77.02065,23.54416],[77.02101,23.54552],[77.02213,23.54537],[77.0236,23.54477],[77.02336,23.5441],[77.02268,23.5431],[77.02234,23.54183],[77.0217,23.54032],[77.02154,23.53896],[77.02196,23.53508],[77.02316,23.53317],[77.02236,23.53196],[77.02445,23.52758],[77.02468,23.52751],[77.02511,23.52489],[77.02531,23.52472],[77.02615,23.52454],[77.02736,23.52465],[77.02727,23.5236],[77.02785,23.52355],[77.02782,23.52281],[77.02889,23.52258],[77.02864,23.52182],[77.02913,23.52164],[77.02935,23.52214],[77.03053,23.52187],[77.03009,23.52037],[77.02859,23.52072],[77.02836,23.52008],[77.02878,23.51992],[77.02829,23.51861],[77.02864,23.51839],[77.02811,23.51849],[77.02749,23.51825],[77.02732,23.5185],[77.02661,23.5185],[77.02578,23.51874],[77.02583,23.51889],[77.0251,23.5193],[77.02441,23.51947],[77.02396,23.5193],[77.02391,23.51944],[77.0231,23.51966],[77.02294,23.51998],[77.02307,23.52005],[77.02247,23.52115],[77.02295,23.52137],[77.02235,23.52214],[77.02263,23.52229],[77.02369,23.52091],[77.02466,23.52055],[77.02538,23.5212],[77.02545,23.52208],[77.02523,23.52256],[77.02543,23.52262],[77.02498,23.52352],[77.0247,23.52349],[77.02464,23.52365],[77.02403,23.52358],[77.024,23.5239],[77.02371,23.52387],[77.0244,23.52408],[77.02406,23.52506],[77.02373,23.52504],[77.02368,23.52546]]]}},{"type":"Feature","bbox":[77.02178,23.51257,77.02618,23.51953],"properties":{"ward":5,"name":"Tatya Tope Ward"},"geometry":{"type":"Polygon","coordinates":[[[77.02309,23.51588],[77.02289,23.51676],[77.02178,23.51696],[77.02189,23.51745],[77.02279,23.51731],[77.02353,23.51953],[77.02395,23.51929],[77.02444,23.51945],[77.0244,23.51895],[77.02498,23.51876],[77.02429,23.51639],[77.02618,23.51575],[77.02475,23.51257],[77.02383,23.51268],[77.02403,23.51487],[77.02381,23.51492],[77.02382,23.51508],[77.02343,23.51511],[77.02342,23.51555],[77.02309,23.51588]]]}},{"type":"Feature","bbox":[77.0243,23.51576,77.03271,23.51945],"properties":{"ward":6,"name":"Chain Singh Ward"},"geometry":{"type":"Polygon","coordinates":[[[77.0273,23.51813],[77.02619,23.51576],[77.0243,23.51639],[77.02499,23.51877],[77.02441,23.51895],[77.02445,23.51945],[77.02559,23.51907],[77.02583,23.51889],[77.02578,23.51874],[77.02661,23.51849],[77.02732,23.51849],[77.02749,23.51825],[77.02812,23.51849],[77.02865,23.51839],[77.0283,23.51861],[77.02851,23.51905],[77.03069,23.51863],[77.0306,23.51825],[77.03101,23.51815],[77.0311,23.51853],[77.03141,23.51847],[77.03131,23.51806],[77.03163,23.51845],[77.03212,23.51844],[77.03229,23.51863],[77.03271,23.51842],[77.03258,23.51726],[77.02948,23.51769],[77.02781,23.51773],[77.02748,23.51819],[77.0273,23.51813]]]}},{"type":"Feature","bbox":[76.99314,23.49289,77.03863,23.54555],"properties":{"ward":7,"name":"Bhagat Singh Ward"},"geometry":{"type":"Polygon","coordinates":[[[77.01692,23.50678],[77.01785,23.50834],[77.01617,23.5093],[77.01602,23.50903],[77.01586,23.5091],[77.016,23.50949],[77.01566,23.50978],[77.01343,23.51095],[77.01073,23.51169],[77.01088,23.51218],[77.00642,23.51411],[77.00182,23.51537],[77.00012,23.51617],[76.99662,23.51808],[76.99561,23.51895],[76.99314,23.52059],[76.99412,23.52212],[76.99559,23.52105],[76.99507,23.51985],[76.99774,23.51824],[77.00006,23.51647],[77.00185,23.51591],[77.00411,23.51548],[77.00677,23.5145],[77.01278,23.51194],[77.01431,23.51149],[77.01461,23.51144],[77.01492,23.51325],[77.01478,23.51387],[77.01516,23.51419],[77.01543,23.5139],[77.01544,23.51359],[77.01508,23.51121],[77.01677,23.50993],[77.01806,23.50926],[77.01879,23.50951],[77.01952,23.50953],[77.01979,23.5087],[77.02029,23.50885],[77.02028,23.5091],[77.02059,23.50928],[77.02096,23.50925],[77.02094,23.50877],[77.02109,23.50876],[77.02108,23.50856],[77.022,23.50838],[77.02253,23.5098],[77.02131,23.50995],[77.02125,23.51053],[77.02198,23.51043],[77.02209,23.51208],[77.02337,23.51245],[77.02323,23.51348],[77.02342,23.5151],[77.02341,23.51554],[77.02307,23.5159],[77.0231,23.5162],[77.02288,23.51676],[77.02177,23.51695],[77.02188,23.51746],[77.02278,23.51732],[77.02354,23.51952],[77.0231,23.51965],[77.02291,23.51999],[77.02305,23.52006],[77.02245,23.52116],[77.02292,23.52137],[77.02232,23.52215],[77.02263,23.52231],[77.02369,23.52092],[77.02466,23.52056],[77.02537,23.52121],[77.02544,23.52208],[77.02522,23.52256],[77.02542,23.52263],[77.02498,23.52351],[77.0247,23.52348],[77.02463,23.52364],[77.02402,23.52357],[77.024,23.52389],[77.0237,23.52386],[77.02439,23.52408],[77.02405,23.52504],[77.02373,23.52502],[77.02364,23.52547],[77.02403,23.52555],[77.02356,23.52747],[77.02068,23.52756],[77.02071,23.52772],[77.02344,23.52778],[77.02092,23.53318],[77.02099,23.53351],[77.02081,23.53412],[77.02052,23.53854],[77.02089,23.5432],[77.02064,23.54416],[77.021,23.54553],[77.02152,23.54555],[77.02361,23.54478],[77.02337,23.5441],[77.02269,23.54311],[77.02236,23.54184],[77.02173,23.54032],[77.02156,23.53896],[77.02199,23.53508],[77.02318,23.53318],[77.02237,23.53195],[77.02447,23.52759],[77.0247,23.52752],[77.02514,23.52483],[77.02616,23.52455],[77.02737,23.52467],[77.02728,23.52361],[77.02905,23.52333],[77.02919,23.52347],[77.02937,23.52375],[77.02954,23.52484],[77.0282,23.52549],[77.028,23.52635],[77.02821,23.52654],[77.0291,23.52591],[77.02949,23.52657],[77.02932,23.52664],[77.02939,23.5268],[77.0295,23.527],[77.0297,23.52688],[77.02982,23.52712],[77.02987,23.5273],[77.02964,23.52741],[77.02976,23.5279],[77.03006,23.52776],[77.03038,23.52817],[77.03103,23.52847],[77.03139,23.52884],[77.03169,23.52966],[77.03105,23.53033],[77.03095,23.53066],[77.03023,23.53095],[77.03007,23.53143],[77.03021,23.53178],[77.03155,23.53211],[77.03183,23.53201],[77.03194,23.53298],[77.03222,23.53295],[77.03235,23.53353],[77.0328,23.53332],[77.03251,23.5318],[77.03276,23.53166],[77.03301,23.53193],[77.03357,23.53182],[77.03546,23.53048],[77.03388,23.53002],[77.03276,23.52989],[77.03235,23.52935],[77.03201,23.5282],[77.03265,23.52784],[77.03272,23.52704],[77.03236,23.5266],[77.033,23.52661],[77.03448,23.52714],[77.03463,23.52669],[77.03436,23.52669],[77.03426,23.52624],[77.0339,23.52636],[77.03199,23.52624],[77.03177,23.52605],[77.0319,23.52508],[77.03209,23.52488],[77.03305,23.5248],[77.03366,23.52346],[77.03676,23.51973],[77.03635,23.51934],[77.03192,23.52196],[77.03153,23.52202],[77.03159,23.52218],[77.03071,23.52243],[77.03011,23.52035],[77.0286,23.5207],[77.02839,23.52009],[77.0288,23.51994],[77.02855,23.51905],[77.03071,23.51864],[77.03063,23.51826],[77.03099,23.51816],[77.0311,23.51854],[77.03142,23.51847],[77.03137,23.51806],[77.03163,23.51845],[77.03227,23.51849],[77.03228,23.51863],[77.03271,23.51842],[77.03259,23.51726],[77.03055,23.5175],[77.0307,23.51553],[77.0318,23.51445],[77.03198,23.51404],[77.03394,23.51399],[77.03476,23.51377],[77.03723,23.51385],[77.03727,23.51322],[77.03688,23.51297],[77.03665,23.50915],[77.03675,23.50755],[77.03639,23.50734],[77.03563,23.50726],[77.03863,23.50276],[77.03839,23.5024],[77.0379,23.50249],[77.03769,23.50229],[77.03701,23.50221],[77.03702,23.50169],[77.03673,23.50167],[77.03651,23.50203],[77.03642,23.5031],[77.0367,23.50315],[77.03673,23.50378],[77.03651,23.50449],[77.03644,23.5047],[77.03576,23.50469],[77.03582,23.50647],[77.03437,23.50642],[77.03442,23.50787],[77.03346,23.50795],[77.03348,23.50999],[77.032,23.50994],[77.03142,23.51075],[77.02916,23.51034],[77.02917,23.50951],[77.02882,23.50947],[77.02875,23.51039],[77.02731,23.51014],[77.0272,23.51],[77.02741,23.50954],[77.02723,23.50936],[77.02651,23.51008],[77.02576,23.51002],[77.02588,23.50963],[77.02535,23.50952],[77.0256,23.50884],[77.02492,23.50841],[77.02447,23.50837],[77.02475,23.50729],[77.02696,23.50755],[77.02696,23.50695],[77.02466,23.50632],[77.02533,23.50602],[77.02516,23.50572],[77.02427,23.50595],[77.02399,23.5055],[77.02404,23.50501],[77.02579,23.50462],[77.02613,23.50427],[77.02547,23.5036],[77.02536,23.50379],[77.02548,23.50444],[77.02518,23.5046],[77.02427,23.50437],[77.0241,23.50402],[77.02374,23.50377],[77.02304,23.5039],[77.02147,23.50268],[77.0214,23.50206],[77.02247,23.50183],[77.02253,23.501],[77.02209,23.50096],[77.02027,23.50154],[77.01953,23.49886],[77.0183,23.49289],[77.01801,23.4929],[77.01803,23.49312],[77.01765,23.4931],[77.01842,23.49803],[77.01882,23.49805],[77.01916,23.50163],[77.01898,23.50197],[77.01774,23.5017],[77.01736,23.50094],[77.01726,23.5003],[77.01382,23.49947],[77.01351,23.50055],[77.0125,23.502],[77.01155,23.50184],[77.01091,23.50214],[77.00869,23.50142],[77.00658,23.50045],[77.00594,23.50092],[77.00517,23.50082],[77.00426,23.50118],[77.00429,23.50142],[77.00634,23.50112],[77.00818,23.50154],[77.0089,23.50234],[77.00931,23.50379],[77.00931,23.50445],[77.0113,23.5041],[77.01091,23.5028],[77.01259,23.50292],[77.01449,23.50436],[77.01421,23.50539],[77.01503,23.5064],[77.01692,23.50678]]]}},{"type":"Feature","bbox":[77.02331,23.50928,77.03091,23.51566],"properties":{"ward":8,"name":"Chandra Shekhar Ward"},"geometry":{"type":"Polygon","coordinates":[[[77.02331,23.50935],[77.02614,23.51566],[77.02655,23.51553],[77.02639,23.51498],[77.02828,23.51449],[77.02855,23.51455],[77.02932,23.51425],[77.03044,23.51309],[77.03091,23.51306],[77.03037,23.51262],[77.02838,23.51206],[77.02751,23.51206],[77.02749,23.51231],[77.02524,23.51209],[77.02539,23.5107],[77.02472,23.51075],[77.02459,23.51043],[77.02425,23.51055],[77.02366,23.50928],[77.02331,23.50935]]]}},{"type":"Feature","bbox":[77.02209,23.51069,77.02475,23.5151],"properties":{"ward":9,"name":"Maharana Pratap Ward"},"geometry":{"type":"Polygon","coordinates":[[[77.0221,23.5113],[77.02209,23.51208],[77.02338,23.51245],[77.02323,23.51349],[77.02333,23.51492],[77.02342,23.5151],[77.02381,23.51508],[77.02381,23.51491],[77.02401,23.51486],[77.02382,23.51267],[77.02475,23.51256],[77.02386,23.51069],[77.02275,23.51071],[77.02265,23.51112],[77.0221,23.5113]]]}},{"type":"Feature","bbox":[77.01729,23.50494,77.02384,23.51129],"properties":{"ward":10,"name":"Shivaji Ward"},"geometry":{"type":"Polygon","coordinates":[[[77.01729,23.50868],[77.01776,23.50941],[77.01806,23.50925],[77.01879,23.50949],[77.01951,23.50952],[77.01979,23.50869],[77.0203,23.50884],[77.02029,23.50909],[77.02076,23.50927],[77.02095,23.50924],[77.02093,23.50876],[77.02108,23.50875],[77.02107,23.50855],[77.02201,23.50836],[77.02255,23.50982],[77.02132,23.50996],[77.02126,23.51052],[77.02199,23.51042],[77.0221,23.51129],[77.02263,23.51112],[77.02274,23.5107],[77.02382,23.51069],[77.02312,23.50875],[77.02384,23.50651],[77.02345,23.50529],[77.02286,23.50559],[77.02296,23.50545],[77.02276,23.50494],[77.0222,23.50515],[77.0221,23.50598],[77.02359,23.50642],[77.02307,23.50769],[77.02268,23.50797],[77.02172,23.50791],[77.02075,23.5081],[77.01991,23.50792],[77.01978,23.50816],[77.01934,23.50812],[77.0181,23.50872],[77.01788,23.50836],[77.01729,23.50868]]]}},{"type":"Feature","bbox":[77.01693,23.50535,77.02358,23.50871],"properties":{"ward":11,"name":"Dr Ambedkar Ward"},"geometry":{"type":"Polygon","coordinates":[[[77.01693,23.50677],[77.0181,23.50871],[77.01934,23.50811],[77.01978,23.50815],[77.0199,23.50791],[77.02075,23.50809],[77.02172,23.5079],[77.02268,23.50797],[77.02306,23.50768],[77.02358,23.50643],[77.02209,23.50599],[77.02211,23.50547],[77.02161,23.50535],[77.02144,23.5056],[77.02177,23.50635],[77.02157,23.5064],[77.02173,23.50684],[77.02072,23.50692],[77.01999,23.50677],[77.02,23.50692],[77.01978,23.50692],[77.01978,23.50674],[77.01949,23.50672],[77.01924,23.50689],[77.01855,23.50615],[77.01693,23.50677]]]}},{"type":"Feature","bbox":[76.99317,23.50868,77.01775,23.52209],"properties":{"ward":12,"name":"Laxmi Bai Ward"},"geometry":{"type":"Polygon","coordinates":[[[76.9961,23.51854],[76.99317,23.52058],[76.99413,23.52209],[76.99557,23.52104],[76.99506,23.51984],[76.99774,23.51823],[77.00006,23.51645],[77.00183,23.5159],[77.0041,23.51546],[77.007,23.5144],[77.01274,23.51195],[77.01462,23.51143],[77.01493,23.51324],[77.01479,23.51387],[77.01516,23.51418],[77.01542,23.5139],[77.01543,23.51359],[77.01507,23.51121],[77.01677,23.50993],[77.01775,23.50942],[77.01728,23.50868],[77.01617,23.50931],[77.01603,23.50904],[77.01587,23.50911],[77.01601,23.50949],[77.01568,23.50979],[77.01591,23.51012],[77.01511,23.51083],[77.01134,23.51202],[77.00641,23.51412],[77.00183,23.51538],[76.99827,23.51713],[76.9961,23.51854]],[[76.9961,23.51854],[76.9961,23.51854],[76.9961,23.51854],[76.9961,23.51854]]]}},{"type":"Feature","bbox":[77.01075,23.50984,77.0159,23.51218],"properties":{"ward":13,"name":"Rajaram Mohan Ray Ward"},"geometry":{"type":"Polygon","coordinates":[[[77.01571,23.50984],[77.01342,23.51096],[77.01075,23.5117],[77.01089,23.51218],[77.0151,23.51082],[77.0159,23.51012],[77.01571,23.50984]]]}},{"type":"Feature","bbox":[77.02316,23.50633,77.02751,23.51231],"properties":{"ward":14,"name":"Rani Durgawati Ward"},"geometry":{"type":"Polygon","coordinates":[[[77.02751,23.51206],[77.02541,23.51202],[77.02563,23.51043],[77.0254,23.51037],[77.02547,23.51011],[77.0252,23.5099],[77.0256,23.50884],[77.02492,23.50842],[77.02446,23.50838],[77.02475,23.50728],[77.02695,23.50755],[77.02696,23.50696],[77.02464,23.50633],[77.02384,23.50651],[77.02316,23.50857],[77.02317,23.50903],[77.02331,23.50935],[77.02366,23.50928],[77.02425,23.51055],[77.02459,23.51043],[77.02472,23.51075],[77.02539,23.5107],[77.02524,23.51209],[77.02749,23.51231],[77.02751,23.51206]]]}},{"type":"Feature","bbox":[77.02523,23.5017,77.0386,23.51301],"properties":{"ward":15,"name":"Mangal Pande Ward"},"geometry":{"type":"Polygon","coordinates":[[[77.03645,23.50308],[77.03672,23.50313],[77.03675,23.50378],[77.03645,23.50472],[77.03577,23.50471],[77.03585,23.50649],[77.03439,23.50643],[77.03446,23.50789],[77.03348,23.50797],[77.03351,23.51001],[77.03202,23.50996],[77.03142,23.51077],[77.02913,23.51036],[77.02916,23.50952],[77.02883,23.50948],[77.02876,23.51041],[77.02729,23.51016],[77.02718,23.51002],[77.0274,23.50953],[77.02722,23.50937],[77.02651,23.51009],[77.02574,23.51003],[77.02586,23.50964],[77.0253,23.50954],[77.02523,23.50996],[77.02548,23.5101],[77.0254,23.51036],[77.02564,23.51043],[77.02542,23.51201],[77.0284,23.51204],[77.03038,23.51261],[77.03093,23.51301],[77.03189,23.51188],[77.03429,23.50995],[77.03582,23.50679],[77.0386,23.50275],[77.03838,23.50242],[77.0379,23.50252],[77.0377,23.50231],[77.03699,23.50223],[77.037,23.50172],[77.03674,23.5017],[77.03654,23.50204],[77.03645,23.50308]]]}}]}