{"type":"FeatureCollection","features":[{"type":"Feature","bbox":[78.6673,22.83294,78.67635,22.8433],"properties":{"ward":1,"name":"Ambedkar Ward"},"geometry":{"type":"Polygon","coordinates":[[[78.67437,22.83294],[78.67297,22.83364],[78.67241,22.8351],[78.66813,22.83716],[78.6673,22.83824],[78.66796,22.83886],[78.66991,22.83995],[78.67106,22.84079],[78.6696,22.84275],[78.67059,22.8433],[78.67261,22.84225],[78.67387,22.84119],[78.67352,22.84039],[78.67337,22.83923],[78.67552,22.8362],[78.67635,22.83459],[78.67437,22.83294]]]}},{"type":"Feature","bbox":[78.67475,22.83177,78.67978,22.83463],"properties":{"ward":2,"name":"Sai Ward"},"geometry":{"type":"Polygon","coordinates":[[[78.67475,22.83289],[78.67741,22.83463],[78.67763,22.83361],[78.67801,22.83304],[78.67953,22.83298],[78.67978,22.83241],[78.6769,22.83191],[78.67574,22.83198],[78.67496,22.83177],[78.67497,22.83237],[78.67475,22.83289]]]}},{"type":"Feature","bbox":[78.67076,22.82598,78.67774,22.83294],"properties":{"ward":3,"name":"Shivshaktir Ward"},"geometry":{"type":"Polygon","coordinates":[[[78.67555,22.83008],[78.67546,22.82811],[78.67429,22.82816],[78.67397,22.82789],[78.67425,22.82734],[78.67304,22.82734],[78.67283,22.82643],[78.67076,22.82598],[78.67144,22.82899],[78.67347,22.82978],[78.67472,22.8305],[78.67452,22.83275],[78.67474,22.83294],[78.67492,22.83265],[78.67501,22.83181],[78.67588,22.83201],[78.67676,22.83189],[78.67744,22.83203],[78.67718,22.83106],[78.67774,22.83098],[78.67762,22.83065],[78.67555,22.83008]]]}},{"type":"Feature","bbox":[78.67398,22.82715,78.67788,22.83069],"properties":{"ward":4,"name":"Rani Abanti Bai Ward"},"geometry":{"type":"Polygon","coordinates":[[[78.67658,22.8303],[78.6776,22.83069],[78.67768,22.83039],[78.67788,22.83027],[78.67769,22.82975],[78.67699,22.82976],[78.6771,22.82951],[78.67702,22.82886],[78.67728,22.82799],[78.67716,22.82751],[78.67633,22.82715],[78.67419,22.82732],[78.67398,22.82785],[78.67421,22.82817],[78.67546,22.82815],[78.67549,22.8301],[78.67658,22.8303]]]}},{"type":"Feature","bbox":[78.67279,22.81744,78.68418,22.82984],"properties":{"ward":5,"name":"Kherapati Ward"},"geometry":{"type":"Polygon","coordinates":[[[78.67314,22.82737],[78.67634,22.82713],[78.67717,22.82751],[78.6773,22.82797],[78.67702,22.82887],[78.67703,22.82973],[78.67906,22.82984],[78.67919,22.82935],[78.67822,22.82902],[78.67843,22.82848],[78.67941,22.82858],[78.68095,22.82771],[78.68162,22.8259],[78.68111,22.8254],[78.68271,22.82309],[78.68418,22.82042],[78.68293,22.81937],[78.6825,22.81867],[78.68222,22.81766],[78.68175,22.81744],[78.67992,22.8186],[78.68041,22.82014],[78.68105,22.8206],[78.6785,22.82331],[78.67767,22.82382],[78.67611,22.82418],[78.67555,22.82383],[78.6748,22.82416],[78.67366,22.825],[78.67341,22.82642],[78.67279,22.82642],[78.67314,22.82737]]]}},{"type":"Feature","bbox":[78.67828,22.83166,78.6828,22.83798],"properties":{"ward":6,"name":"Kherapati Ward"},"geometry":{"type":"Polygon","coordinates":[[[78.68065,22.83248],[78.67914,22.83192],[78.67892,22.8317],[78.67864,22.83166],[78.67828,22.83213],[78.67979,22.83242],[78.67955,22.83299],[78.67958,22.83355],[78.67997,22.83377],[78.68048,22.83447],[78.68094,22.83572],[78.68103,22.83667],[78.6828,22.83798],[78.68275,22.83686],[78.68208,22.83673],[78.68234,22.83499],[78.68178,22.83405],[78.68183,22.83348],[78.68065,22.83248]]]}},{"type":"Feature","bbox":[78.6776,22.82973,78.6811,22.83276],"properties":{"ward":7,"name":"Vivekanan Ward"},"geometry":{"type":"Polygon","coordinates":[[[78.68102,22.83089],[78.68056,22.83025],[78.67854,22.82973],[78.6777,22.82975],[78.67787,22.8303],[78.67768,22.8304],[78.6776,22.83071],[78.6788,22.83086],[78.67888,22.83134],[78.67863,22.83169],[78.68067,22.83246],[78.6811,22.83276],[78.68102,22.83089]]]}},{"type":"Feature","bbox":[78.67715,22.83068,78.6789,22.83213],"properties":{"ward":8,"name":"Santravidas Ward"},"geometry":{"type":"Polygon","coordinates":[[[78.67715,22.83102],[78.67737,22.83199],[78.67829,22.83213],[78.67868,22.83142],[78.6789,22.83136],[78.67881,22.83084],[78.67761,22.83068],[78.67773,22.83098],[78.67715,22.83102]]]}},{"type":"Feature","bbox":[78.67604,22.83459,78.68635,22.84598],"properties":{"ward":9,"name":"Patel Ward"},"geometry":{"type":"Polygon","coordinates":[[[78.68635,22.84564],[78.68371,22.84248],[78.68328,22.84052],[78.68349,22.83975],[78.68301,22.83928],[78.68287,22.83834],[78.68107,22.83719],[78.67634,22.83459],[78.67604,22.83524],[78.67851,22.83705],[78.67914,22.83783],[78.67984,22.83817],[78.68084,22.83799],[78.68137,22.83909],[78.68212,22.8429],[78.68158,22.84329],[78.68153,22.84368],[78.6824,22.84355],[78.68363,22.84378],[78.68472,22.84493],[78.68503,22.84598],[78.68635,22.84564]]]}},{"type":"Feature","bbox":[78.68162,22.84353,78.6861,22.84778],"properties":{"ward":10,"name":"Sardar Ward"},"geometry":{"type":"Polygon","coordinates":[[[78.68184,22.84363],[78.68162,22.84588],[78.68218,22.84709],[78.68337,22.84717],[78.68368,22.84706],[78.68463,22.84759],[78.68487,22.84744],[78.68575,22.84778],[78.68607,22.84755],[78.6861,22.84677],[78.68586,22.8458],[78.68505,22.84598],[78.6847,22.84494],[78.68362,22.84378],[78.68239,22.84353],[78.68184,22.84363]]]}},{"type":"Feature","bbox":[78.67929,22.84879,78.68268,22.85422],"properties":{"ward":11,"name":"Bhawani Ward"},"geometry":{"type":"Polygon","coordinates":[[[78.68194,22.84882],[78.68119,22.84981],[78.68021,22.85029],[78.68018,22.85094],[78.68056,22.85162],[78.67929,22.85285],[78.67932,22.85335],[78.6796,22.85385],[78.6803,22.85422],[78.68122,22.85411],[78.68156,22.85371],[78.68156,22.85254],[78.68237,22.85047],[78.68268,22.84879],[78.68194,22.84882]]]}},{"type":"Feature","bbox":[78.68194,22.84704,78.68575,22.85046],"properties":{"ward":12,"name":"Shahid Ward"},"geometry":{"type":"Polygon","coordinates":[[[78.68236,22.85046],[78.68347,22.84981],[78.68355,22.84955],[78.68423,22.84895],[78.68564,22.84856],[78.68575,22.84777],[78.68487,22.84744],[78.68462,22.84758],[78.68369,22.84704],[78.68278,22.84709],[78.68295,22.84746],[78.68284,22.84779],[78.6825,22.84828],[78.68199,22.8486],[78.68194,22.84881],[78.68268,22.84879],[78.68236,22.85046]]]}},{"type":"Feature","bbox":[78.65822,22.84289,78.67218,22.86196],"properties":{"ward":13,"name":"Rani Laxmi Bai Ward"},"geometry":{"type":"Polygon","coordinates":[[[78.66938,22.84289],[78.66557,22.84746],[78.66397,22.84764],[78.66075,22.84714],[78.65822,22.84765],[78.65841,22.84824],[78.65952,22.84946],[78.66282,22.85003],[78.66243,22.85191],[78.66077,22.85768],[78.65977,22.86052],[78.66274,22.86196],[78.66416,22.86178],[78.66292,22.85997],[78.66217,22.85855],[78.6641,22.8537],[78.6656,22.84853],[78.66716,22.84748],[78.66883,22.84686],[78.67033,22.84658],[78.67218,22.84512],[78.67127,22.84339],[78.66938,22.84289]]]}},{"type":"Feature","bbox":[78.65967,22.81848,78.67134,22.831],"properties":{"ward":14,"name":"Gandhi Ward"},"geometry":{"type":"Polygon","coordinates":[[[78.66867,22.82797],[78.67134,22.82888],[78.67073,22.82594],[78.66716,22.82555],[78.66437,22.82485],[78.66405,22.82399],[78.66394,22.8231],[78.66406,22.82228],[78.66438,22.82127],[78.66516,22.82029],[78.66544,22.81963],[78.6652,22.81898],[78.6643,22.81848],[78.66387,22.8185],[78.66232,22.81976],[78.66159,22.82066],[78.66096,22.82252],[78.66094,22.8241],[78.662,22.82534],[78.66192,22.82661],[78.65967,22.83038],[78.66118,22.831],[78.66389,22.82814],[78.66612,22.8278],[78.66867,22.82797]]]}},{"type":"Feature","bbox":[78.629,22.81348,78.63727,22.82031],"properties":{"ward":15,"name":"Shivaji Ward"},"geometry":{"type":"Polygon","coordinates":[[[78.63478,22.81958],[78.6351,22.81845],[78.63671,22.81664],[78.63727,22.81459],[78.63631,22.81348],[78.63443,22.81379],[78.63201,22.81454],[78.63032,22.81547],[78.62943,22.81621],[78.629,22.81997],[78.6304,22.82031],[78.63263,22.82007],[78.63478,22.81958]]]}}]}