{"type":"FeatureCollection","features":[{"type":"Feature","bbox":[82.45178,25.89009,82.46447,25.89736],"properties":{"ward":1,"name":"Sarokhan Pur Ii"},"geometry":{"type":"Polygon","coordinates":[[[82.46447,25.89408],[82.45991,25.89009],[82.45455,25.89247],[82.45178,25.89328],[82.45803,25.89592],[82.45928,25.89736],[82.46037,25.89716],[82.46197,25.89623],[82.46447,25.89408]]]}},{"type":"Feature","bbox":[82.44534,25.87777,82.46434,25.89009],"properties":{"ward":2,"name":"Hankupur Udpur"},"geometry":{"type":"Polygon","coordinates":[[[82.46434,25.88885],[82.45717,25.88425],[82.45001,25.87777],[82.44534,25.88187],[82.4488,25.88472],[82.45213,25.88686],[82.45446,25.88708],[82.45522,25.88823],[82.45603,25.8881],[82.45702,25.88823],[82.45845,25.88887],[82.45991,25.89009],[82.46297,25.889],[82.46434,25.88885]]]}},{"type":"Feature","bbox":[82.44691,25.89328,82.45749,25.90706],"properties":{"ward":3,"name":"Barauli"},"geometry":{"type":"Polygon","coordinates":[[[82.45749,25.8957],[82.45178,25.89328],[82.44904,25.89449],[82.45004,25.89721],[82.45027,25.89895],[82.44999,25.9007],[82.44919,25.90152],[82.44799,25.90238],[82.44742,25.90398],[82.44691,25.90485],[82.44691,25.90557],[82.44936,25.90706],[82.45033,25.90593],[82.4509,25.90458],[82.45381,25.90177],[82.45398,25.9009],[82.45318,25.89931],[82.45335,25.89885],[82.45461,25.89767],[82.45749,25.8957]]]}},{"type":"Feature","bbox":[82.4509,25.89408,82.46679,25.90608],"properties":{"ward":4,"name":"Sarokhan Pur I"},"geometry":{"type":"Polygon","coordinates":[[[82.45675,25.90552],[82.46071,25.90425],[82.46195,25.90329],[82.46306,25.90178],[82.46416,25.89983],[82.46679,25.89586],[82.46447,25.89408],[82.46197,25.89623],[82.46037,25.89716],[82.45928,25.89736],[82.45803,25.89592],[82.45749,25.8957],[82.45461,25.89767],[82.45335,25.89885],[82.45318,25.89931],[82.45398,25.9009],[82.45381,25.90177],[82.4509,25.90458],[82.45237,25.90608],[82.45675,25.90552]]]}},{"type":"Feature","bbox":[82.44115,25.88777,82.45183,25.89674],"properties":{"ward":5,"name":"Bhaluaahi Iv"},"geometry":{"type":"Polygon","coordinates":[[[82.44904,25.89449],[82.44864,25.89329],[82.45183,25.89205],[82.45121,25.89093],[82.44907,25.88939],[82.44617,25.88777],[82.44115,25.89495],[82.442,25.89593],[82.4421,25.89648],[82.445,25.89674],[82.44661,25.89567],[82.44904,25.89449]]]}},{"type":"Feature","bbox":[82.46682,25.88579,82.47671,25.89372],"properties":{"ward":6,"name":"Sultanpur"},"geometry":{"type":"Polygon","coordinates":[[[82.46682,25.88874],[82.46786,25.89088],[82.4681,25.89217],[82.46743,25.89272],[82.4682,25.89372],[82.47067,25.89312],[82.47329,25.89342],[82.47671,25.89218],[82.47281,25.88585],[82.47257,25.88579],[82.47129,25.88669],[82.46682,25.88874]]]}},{"type":"Feature","bbox":[82.445,25.89449,82.45027,25.90238],"properties":{"ward":7,"name":"Puranibazar I"},"geometry":{"type":"Polygon","coordinates":[[[82.44904,25.89449],[82.44661,25.89567],[82.445,25.89674],[82.44622,25.89839],[82.44667,25.90047],[82.44799,25.90238],[82.44919,25.90152],[82.44999,25.9007],[82.45027,25.89895],[82.45004,25.89721],[82.44904,25.89449]]]}},{"type":"Feature","bbox":[82.44617,25.88446,82.45507,25.89093],"properties":{"ward":8,"name":"Bhaluahi I"},"geometry":{"type":"Polygon","coordinates":[[[82.45507,25.888],[82.45446,25.88708],[82.45213,25.88686],[82.44848,25.88446],[82.44617,25.88777],[82.44907,25.88939],[82.45121,25.89093],[82.45301,25.88939],[82.45507,25.888]]]}},{"type":"Feature","bbox":[82.45991,25.88874,82.4682,25.89586],"properties":{"ward":9,"name":"Sarokhan Pur Iii"},"geometry":{"type":"Polygon","coordinates":[[[82.4682,25.89372],[82.46743,25.89272],[82.4681,25.89217],[82.46786,25.89088],[82.46682,25.88874],[82.4653,25.88874],[82.46297,25.889],[82.45991,25.89009],[82.46506,25.8946],[82.46679,25.89586],[82.4682,25.89372]]]}},{"type":"Feature","bbox":[82.42128,25.86951,82.44848,25.88777],"properties":{"ward":10,"name":"Bhaluahi II"},"geometry":{"type":"Polygon","coordinates":[[[82.42656,25.88102],[82.43041,25.88273],[82.43572,25.88458],[82.4389,25.88606],[82.44617,25.88777],[82.44848,25.88446],[82.44534,25.88187],[82.44353,25.87913],[82.44049,25.87627],[82.43881,25.87445],[82.43518,25.8724],[82.43447,25.87171],[82.43375,25.87035],[82.43184,25.86951],[82.43037,25.87048],[82.42537,25.87114],[82.42376,25.87216],[82.42352,25.87293],[82.42128,25.87537],[82.42147,25.87588],[82.42271,25.87764],[82.42433,25.87888],[82.42656,25.88102]]]}},{"type":"Feature","bbox":[82.42656,25.88102,82.44617,25.89495],"properties":{"ward":11,"name":"Bhaluahi III"},"geometry":{"type":"Polygon","coordinates":[[[82.44115,25.89495],[82.44617,25.88777],[82.4389,25.88606],[82.43572,25.88458],[82.43041,25.88273],[82.42656,25.88102],[82.42704,25.88388],[82.42746,25.88433],[82.42705,25.88515],[82.42665,25.88679],[82.42722,25.88782],[82.43497,25.89286],[82.43559,25.89295],[82.43659,25.89393],[82.43869,25.89295],[82.44034,25.89341],[82.44097,25.89387],[82.44115,25.89495]]]}},{"type":"Feature","bbox":[82.45851,25.89979,82.48755,25.91527],"properties":{"ward":12,"name":"Udpurgelhwa"},"geometry":{"type":"Polygon","coordinates":[[[82.46416,25.89983],[82.46306,25.90178],[82.46195,25.90329],[82.46071,25.90425],[82.45851,25.90492],[82.46172,25.90989],[82.46287,25.91108],[82.46358,25.91154],[82.46441,25.91186],[82.46539,25.91156],[82.4664,25.91162],[82.46976,25.9141],[82.4705,25.91448],[82.47184,25.91482],[82.47294,25.91461],[82.47342,25.91434],[82.47359,25.91405],[82.47285,25.91239],[82.47288,25.91183],[82.47392,25.91116],[82.4761,25.91024],[82.47644,25.91044],[82.47762,25.91265],[82.47659,25.91457],[82.47678,25.91491],[82.47777,25.91527],[82.47928,25.91448],[82.47979,25.91383],[82.48063,25.91345],[82.48146,25.91327],[82.48462,25.91318],[82.48614,25.91248],[82.48661,25.91209],[82.48738,25.91192],[82.48755,25.91156],[82.48743,25.91096],[82.48542,25.90956],[82.4849,25.90872],[82.48159,25.90802],[82.48079,25.90768],[82.47647,25.90513],[82.47562,25.9033],[82.47519,25.90129],[82.4741,25.89979],[82.46682,25.90201],[82.46573,25.90176],[82.46459,25.90124],[82.46426,25.90056],[82.46416,25.89983]]]}},{"type":"Feature","bbox":[82.4353,25.89295,82.44667,25.90441],"properties":{"ward":13,"name":"Puranibazar Ii"},"geometry":{"type":"Polygon","coordinates":[[[82.43634,25.89479],[82.43677,25.89541],[82.43673,25.89754],[82.43582,25.89985],[82.4353,25.90058],[82.4353,25.90122],[82.43568,25.90272],[82.43721,25.90441],[82.43925,25.90394],[82.44106,25.90441],[82.44334,25.90372],[82.44648,25.90116],[82.44667,25.90047],[82.44622,25.89839],[82.445,25.89674],[82.4421,25.89648],[82.442,25.89593],[82.44115,25.89495],[82.44097,25.89387],[82.44034,25.89341],[82.43869,25.89295],[82.43659,25.89393],[82.43634,25.89479]]]}},{"type":"Feature","bbox":[82.45001,25.87567,82.47257,25.88885],"properties":{"ward":14,"name":"Sarokhanpur Iv"},"geometry":{"type":"Polygon","coordinates":[[[82.45001,25.87777],[82.45717,25.88425],[82.46434,25.88885],[82.46682,25.88874],[82.47129,25.88669],[82.47257,25.88579],[82.47167,25.88559],[82.46858,25.88546],[82.46606,25.88482],[82.4654,25.88333],[82.46525,25.8808],[82.46369,25.87952],[82.46216,25.87866],[82.45817,25.87841],[82.45689,25.87866],[82.45266,25.87567],[82.45001,25.87777]]]}},{"type":"Feature","bbox":[82.44864,25.888,82.45991,25.89449],"properties":{"ward":15,"name":"Sarokanpurn V"},"geometry":{"type":"Polygon","coordinates":[[[82.45178,25.89328],[82.45455,25.89247],[82.45991,25.89009],[82.45845,25.88887],[82.45702,25.88823],[82.45603,25.8881],[82.45522,25.88823],[82.45507,25.888],[82.45301,25.88939],[82.45121,25.89093],[82.45183,25.89205],[82.44864,25.89329],[82.44904,25.89449],[82.45178,25.89328]]]}}]}