{"type":"FeatureCollection","features":[{"type":"Feature","bbox":[78.51926,22.77396,78.54355,22.79265],"properties":{"ward":1,"name":"Mahatma Gandhi Ward"},"geometry":{"type":"Polygon","coordinates":[[[78.5435,22.78406],[78.54302,22.78376],[78.54199,22.78373],[78.54142,22.78328],[78.54077,22.78213],[78.54087,22.78032],[78.54036,22.77968],[78.54036,22.77934],[78.54097,22.77563],[78.51965,22.77396],[78.51926,22.77412],[78.51966,22.77486],[78.52237,22.77518],[78.52247,22.77562],[78.52305,22.77572],[78.52313,22.77609],[78.52412,22.77634],[78.52413,22.77739],[78.52441,22.77788],[78.52446,22.77873],[78.52507,22.78051],[78.52567,22.78151],[78.52628,22.78359],[78.52625,22.78432],[78.52669,22.78612],[78.52786,22.78652],[78.52844,22.78652],[78.52851,22.78695],[78.52904,22.78748],[78.52977,22.7874],[78.53016,22.78818],[78.53035,22.789],[78.53071,22.78903],[78.53122,22.79042],[78.53177,22.79037],[78.53203,22.79111],[78.53243,22.79126],[78.53264,22.79168],[78.53292,22.79185],[78.53395,22.79187],[78.53531,22.79265],[78.53697,22.79263],[78.53684,22.79196],[78.53696,22.79174],[78.53786,22.79117],[78.53801,22.79083],[78.53801,22.78969],[78.53873,22.78933],[78.53969,22.78968],[78.54028,22.78965],[78.54147,22.78781],[78.54355,22.78522],[78.5435,22.78406]]]}},{"type":"Feature","bbox":[78.54036,22.77311,78.54866,22.78406],"properties":{"ward":2,"name":"Maharana Pratap Ward"},"geometry":{"type":"Polygon","coordinates":[[[78.5435,22.78406],[78.54372,22.78341],[78.54362,22.78224],[78.54376,22.78156],[78.54451,22.78083],[78.54558,22.78178],[78.54718,22.78199],[78.54718,22.78132],[78.54742,22.78114],[78.54742,22.78038],[78.54718,22.78014],[78.54698,22.77884],[78.54723,22.77675],[78.54783,22.77672],[78.54787,22.77627],[78.54816,22.77592],[78.54866,22.77321],[78.54858,22.77311],[78.54727,22.77374],[78.54685,22.7748],[78.54548,22.77513],[78.54111,22.77493],[78.54036,22.77934],[78.54036,22.77968],[78.54087,22.78032],[78.54077,22.78213],[78.54142,22.78328],[78.54199,22.78373],[78.54302,22.78376],[78.5435,22.78406]]]}},{"type":"Feature","bbox":[78.54775,22.76434,78.56842,22.77771],"properties":{"ward":3,"name":"Lokmanya Tilak Ward"},"geometry":{"type":"Polygon","coordinates":[[[78.56402,22.77607],[78.56384,22.77358],[78.56489,22.77382],[78.56498,22.77248],[78.56558,22.77219],[78.56579,22.77149],[78.56638,22.77076],[78.5678,22.77057],[78.56798,22.7695],[78.56759,22.76923],[78.5675,22.76893],[78.56819,22.76667],[78.56842,22.76538],[78.56834,22.76501],[78.56655,22.76444],[78.56538,22.76435],[78.56373,22.76434],[78.56124,22.76494],[78.56186,22.76618],[78.56207,22.76902],[78.56198,22.76927],[78.56105,22.76975],[78.56099,22.7706],[78.56144,22.77069],[78.56159,22.77135],[78.56191,22.77144],[78.56221,22.77199],[78.56149,22.77233],[78.56075,22.77214],[78.55831,22.77201],[78.55453,22.77198],[78.54864,22.77336],[78.54815,22.77594],[78.54775,22.77646],[78.55957,22.77728],[78.56342,22.77771],[78.56386,22.77691],[78.56402,22.77607]]]}},{"type":"Feature","bbox":[78.55533,22.74857,78.57708,22.76555],"properties":{"ward":4,"name":"Ambedkar Ward"},"geometry":{"type":"Polygon","coordinates":[[[78.55533,22.75505],[78.55707,22.75808],[78.55762,22.75855],[78.55788,22.75976],[78.55782,22.76087],[78.5582,22.76129],[78.55846,22.76224],[78.55935,22.76273],[78.55932,22.7647],[78.56124,22.76494],[78.56373,22.76434],[78.56538,22.76435],[78.56655,22.76444],[78.56834,22.76501],[78.56843,22.76523],[78.57331,22.76526],[78.57464,22.76555],[78.5765,22.76528],[78.57708,22.76447],[78.57653,22.76296],[78.57704,22.7618],[78.5758,22.75945],[78.57587,22.75753],[78.57638,22.75699],[78.57667,22.75636],[78.57648,22.75487],[78.57527,22.75458],[78.57373,22.75461],[78.57135,22.75385],[78.56976,22.75361],[78.56946,22.75323],[78.5689,22.75181],[78.56665,22.74882],[78.56554,22.74857],[78.56485,22.74864],[78.56441,22.74908],[78.5639,22.75001],[78.56332,22.75023],[78.56171,22.75028],[78.56125,22.75053],[78.56046,22.75202],[78.56012,22.75232],[78.55957,22.75233],[78.55912,22.75202],[78.55832,22.75189],[78.55813,22.75204],[78.55781,22.75189],[78.55654,22.75189],[78.5561,22.75235],[78.55604,22.75302],[78.55647,22.75382],[78.55634,22.75424],[78.55584,22.75466],[78.55558,22.75469],[78.55533,22.75505]]]}},{"type":"Feature","bbox":[78.53801,22.75477,78.56221,22.7751],"properties":{"ward":5,"name":"Bhagat Singh Ward"},"geometry":{"type":"Polygon","coordinates":[[[78.54071,22.76252],[78.54019,22.76233],[78.5404,22.76268],[78.54021,22.76295],[78.53907,22.76299],[78.53865,22.76316],[78.53801,22.76405],[78.53801,22.76437],[78.5396,22.76524],[78.53938,22.76577],[78.53859,22.76612],[78.53843,22.76651],[78.53848,22.76684],[78.5389,22.76783],[78.53933,22.76799],[78.53983,22.76845],[78.5402,22.77015],[78.54084,22.77107],[78.54087,22.7728],[78.54132,22.77494],[78.54545,22.7751],[78.5461,22.77497],[78.54684,22.7748],[78.54727,22.77374],[78.54858,22.77311],[78.54863,22.77336],[78.55453,22.77198],[78.55831,22.77201],[78.56075,22.77214],[78.56149,22.77233],[78.56221,22.77199],[78.56191,22.77144],[78.56159,22.77135],[78.56144,22.77069],[78.56099,22.7706],[78.56105,22.76975],[78.56198,22.76927],[78.56207,22.76902],[78.56186,22.76618],[78.56125,22.76494],[78.55932,22.7647],[78.55935,22.76273],[78.55846,22.76224],[78.5582,22.76129],[78.55782,22.76087],[78.55788,22.75976],[78.55762,22.75855],[78.55707,22.75808],[78.55533,22.75505],[78.55479,22.75504],[78.55434,22.75528],[78.55379,22.75531],[78.55135,22.75477],[78.5502,22.75611],[78.54951,22.75642],[78.54883,22.75632],[78.54745,22.7566],[78.5461,22.75732],[78.54597,22.7591],[78.54576,22.75955],[78.54406,22.75941],[78.54365,22.76096],[78.54302,22.76137],[78.54194,22.76171],[78.54071,22.76252]]]}},{"type":"Feature","bbox":[78.53473,22.76764,78.54132,22.77494],"properties":{"ward":6,"name":"Sant Raidas Ward"},"geometry":{"type":"Polygon","coordinates":[[[78.5402,22.77015],[78.53982,22.76845],[78.53933,22.76799],[78.53808,22.76764],[78.53635,22.76793],[78.53509,22.76897],[78.53473,22.7691],[78.53475,22.76954],[78.53562,22.76955],[78.53583,22.7697],[78.53624,22.77026],[78.53803,22.77183],[78.53969,22.77379],[78.54086,22.77437],[78.54108,22.77493],[78.54132,22.77494],[78.54087,22.7728],[78.54084,22.77107],[78.5402,22.77015]]]}},{"type":"Feature","bbox":[78.53446,22.76954,78.54107,22.77492],"properties":{"ward":7,"name":"Dr. Syama Prasad Mukharji Ward"},"geometry":{"type":"Polygon","coordinates":[[[78.53446,22.77283],[78.53485,22.77283],[78.53488,22.77337],[78.53583,22.77334],[78.53802,22.77365],[78.53802,22.7747],[78.54107,22.77492],[78.54085,22.77437],[78.54002,22.77407],[78.5397,22.77379],[78.53805,22.77185],[78.53563,22.76956],[78.53475,22.76954],[78.53446,22.77283]]]}},{"type":"Feature","bbox":[78.53084,22.76953,78.54111,22.77563],"properties":{"ward":8,"name":"Veer Savarkar Ward"},"geometry":{"type":"Polygon","coordinates":[[[78.54111,22.77494],[78.53802,22.7747],[78.53802,22.77365],[78.53583,22.77334],[78.53488,22.77337],[78.53485,22.77283],[78.53445,22.77283],[78.53475,22.76954],[78.53324,22.76953],[78.53317,22.76985],[78.53084,22.77339],[78.53304,22.77365],[78.53302,22.7744],[78.53376,22.77445],[78.53372,22.77507],[78.54097,22.77563],[78.54111,22.77494]]]}},{"type":"Feature","bbox":[78.51789,22.76711,78.53376,22.77507],"properties":{"ward":9,"name":"Swami Vivekanad Ward"},"geometry":{"type":"Polygon","coordinates":[[[78.52124,22.76711],[78.51789,22.76712],[78.51799,22.76749],[78.5187,22.76855],[78.51879,22.7688],[78.51864,22.76915],[78.51891,22.76959],[78.51864,22.77024],[78.51966,22.77141],[78.51978,22.77181],[78.51925,22.77394],[78.53372,22.77507],[78.53376,22.77446],[78.53302,22.7744],[78.53304,22.77365],[78.53084,22.77339],[78.53317,22.76985],[78.53324,22.76953],[78.52124,22.76711]]]}},{"type":"Feature","bbox":[78.51687,22.76401,78.53475,22.76954],"properties":{"ward":10,"name":"Pt. Deen Dyal Ward"},"geometry":{"type":"Polygon","coordinates":[[[78.53278,22.76948],[78.53475,22.76954],[78.5346,22.76737],[78.53439,22.76676],[78.53302,22.76678],[78.53225,22.76633],[78.53022,22.76665],[78.52977,22.76639],[78.52961,22.76583],[78.52926,22.76576],[78.52745,22.76608],[78.52274,22.76595],[78.52259,22.76427],[78.52137,22.76417],[78.52093,22.76427],[78.52083,22.76457],[78.51812,22.76401],[78.51687,22.76424],[78.51695,22.76493],[78.51735,22.76515],[78.51756,22.76584],[78.51786,22.76611],[78.51793,22.76706],[78.52124,22.76711],[78.53278,22.76948]]]}},{"type":"Feature","bbox":[78.52658,22.76467,78.53433,22.76678],"properties":{"ward":11,"name":"Dr. Hedgevar Ward"},"geometry":{"type":"Polygon","coordinates":[[[78.53433,22.76677],[78.53381,22.7653],[78.53306,22.76515],[78.53284,22.76481],[78.53251,22.76477],[78.53192,22.765],[78.53022,22.76467],[78.52937,22.76477],[78.52941,22.76503],[78.52802,22.76527],[78.5266,22.7659],[78.52658,22.76602],[78.52825,22.76608],[78.52926,22.76576],[78.5296,22.76584],[78.52976,22.76638],[78.53021,22.76665],[78.53226,22.76633],[78.53302,22.76678],[78.53433,22.76677]]]}},{"type":"Feature","bbox":[78.52659,22.76335,78.53466,22.7659],"properties":{"ward":12,"name":"Shivaji Ward"},"geometry":{"type":"Polygon","coordinates":[[[78.53229,22.76478],[78.53309,22.76463],[78.53382,22.76474],[78.53466,22.76456],[78.53398,22.76335],[78.533,22.76371],[78.52744,22.76423],[78.52678,22.76461],[78.52661,22.76497],[78.52659,22.7659],[78.52801,22.76526],[78.5294,22.76503],[78.52937,22.76477],[78.52984,22.76467],[78.53191,22.76499],[78.53229,22.76478]]]}},{"type":"Feature","bbox":[78.53283,22.76158,78.5404,22.76909],"properties":{"ward":13,"name":"Sahid Abdul Hameed Ward"},"geometry":{"type":"Polygon","coordinates":[[[78.53795,22.76767],[78.5389,22.76783],[78.53843,22.76651],[78.53859,22.76612],[78.53938,22.76577],[78.5396,22.7654],[78.5394,22.76504],[78.53817,22.76452],[78.53801,22.76405],[78.53865,22.76316],[78.53907,22.76299],[78.54003,22.763],[78.5404,22.76268],[78.54019,22.76233],[78.54029,22.76235],[78.53992,22.762],[78.53943,22.76188],[78.53883,22.76188],[78.53794,22.76158],[78.53706,22.76188],[78.53629,22.76172],[78.53507,22.76236],[78.534,22.76337],[78.53464,22.76461],[78.53385,22.76473],[78.5331,22.76464],[78.53283,22.76482],[78.53306,22.76516],[78.53389,22.76542],[78.53457,22.76714],[78.53472,22.76909],[78.5351,22.76897],[78.53635,22.76794],[78.53795,22.76767]]]}},{"type":"Feature","bbox":[78.51369,22.74517,78.53641,22.766],"properties":{"ward":14,"name":"Rani Durgavati Ward"},"geometry":{"type":"Polygon","coordinates":[[[78.53477,22.7626],[78.53629,22.76172],[78.53641,22.76137],[78.53576,22.76128],[78.53458,22.7616],[78.53435,22.76032],[78.53389,22.75996],[78.53232,22.75999],[78.53217,22.75978],[78.5315,22.75964],[78.53104,22.75891],[78.53099,22.75763],[78.53075,22.75745],[78.53031,22.7575],[78.53021,22.75736],[78.53073,22.75656],[78.53074,22.75562],[78.53129,22.75362],[78.53067,22.75329],[78.53023,22.75234],[78.53023,22.75194],[78.53062,22.75095],[78.53033,22.75015],[78.52987,22.74976],[78.53003,22.74919],[78.52957,22.74896],[78.52898,22.74903],[78.52908,22.74886],[78.52897,22.74877],[78.52927,22.74851],[78.52925,22.74779],[78.52832,22.74708],[78.52799,22.7464],[78.52806,22.74592],[78.52791,22.74551],[78.52764,22.74556],[78.52619,22.74517],[78.52561,22.74584],[78.52446,22.74678],[78.52407,22.74589],[78.5219,22.746],[78.52185,22.74627],[78.52125,22.74636],[78.52094,22.74663],[78.51953,22.74683],[78.51911,22.7471],[78.51777,22.74724],[78.5177,22.7481],[78.51733,22.74807],[78.51728,22.74834],[78.51673,22.74832],[78.51672,22.74875],[78.5162,22.74895],[78.51715,22.7496],[78.51839,22.74992],[78.51843,22.75066],[78.51787,22.75107],[78.51784,22.75234],[78.51798,22.7526],[78.51598,22.75265],[78.51627,22.75451],[78.51682,22.75586],[78.51369,22.75788],[78.51419,22.75903],[78.5159,22.76144],[78.516,22.76238],[78.51652,22.76345],[78.51685,22.76367],[78.51688,22.76426],[78.51812,22.764],[78.52083,22.76457],[78.52093,22.76426],[78.52137,22.76417],[78.5226,22.76428],[78.52274,22.76596],[78.52657,22.766],[78.52661,22.76497],[78.5271,22.76437],[78.52792,22.76417],[78.533,22.76371],[78.534,22.76337],[78.53477,22.7626]]]}},{"type":"Feature","bbox":[78.47972,22.73283,78.52103,22.75063],"properties":{"ward":15,"name":"Sahid Raja Bhabhuti Singh Ward"},"geometry":{"type":"Polygon","coordinates":[[[78.51621,22.74895],[78.51671,22.74873],[78.51672,22.74832],[78.51727,22.74834],[78.51733,22.74807],[78.51771,22.74809],[78.51777,22.74725],[78.51908,22.7471],[78.51953,22.74683],[78.52103,22.74655],[78.51852,22.74106],[78.51635,22.74109],[78.51389,22.74151],[78.51243,22.7415],[78.51212,22.74081],[78.50992,22.74135],[78.50993,22.74174],[78.50796,22.74189],[78.50481,22.74184],[78.50474,22.74082],[78.50395,22.74053],[78.50397,22.73996],[78.50365,22.73994],[78.50344,22.73948],[78.5013,22.73938],[78.49987,22.73879],[78.49954,22.7385],[78.49837,22.73817],[78.49822,22.73837],[78.49678,22.73797],[78.49659,22.73752],[78.49516,22.73738],[78.4953,22.73606],[78.49413,22.73587],[78.49341,22.73585],[78.49324,22.736],[78.49213,22.73583],[78.4918,22.73527],[78.49095,22.735],[78.4876,22.73283],[78.48729,22.73313],[78.48557,22.73289],[78.48381,22.73294],[78.48314,22.73355],[78.48302,22.73402],[78.48251,22.73424],[78.48201,22.73417],[78.48126,22.73364],[78.48033,22.73436],[78.47984,22.73502],[78.47972,22.73546],[78.48032,22.73585],[78.48035,22.73602],[78.48041,22.73681],[78.48006,22.73721],[78.48063,22.73818],[78.48219,22.73813],[78.48257,22.73851],[78.48312,22.73857],[78.48477,22.73933],[78.4854,22.73923],[78.48772,22.73964],[78.48775,22.74002],[78.48852,22.7402],[78.48908,22.74185],[78.49001,22.74283],[78.49018,22.74392],[78.49113,22.74581],[78.49162,22.74764],[78.49188,22.74805],[78.49244,22.74838],[78.49471,22.74839],[78.49466,22.74957],[78.49602,22.75038],[78.49619,22.75042],[78.4964,22.75015],[78.49722,22.75024],[78.49802,22.74997],[78.50017,22.74978],[78.50045,22.7495],[78.50092,22.74958],[78.50103,22.75001],[78.50164,22.7501],[78.50344,22.74967],[78.5036,22.74987],[78.50595,22.75053],[78.50686,22.75063],[78.50692,22.74951],[78.50677,22.74866],[78.50711,22.74843],[78.5068,22.74803],[78.50959,22.7483],[78.51223,22.74922],[78.51457,22.74917],[78.51585,22.74881],[78.51621,22.74895]]]}}]}