{"type":"FeatureCollection","features":[{"type":"Feature","bbox":[74.75671,24.56353,74.77285,24.57673],"properties":{"ward":1,"name":"Dr. Ambedkar Ward"},"geometry":{"type":"Polygon","coordinates":[[[74.75671,24.57621],[74.75777,24.57662],[74.7598,24.57614],[74.76098,24.57607],[74.76134,24.57673],[74.76259,24.57641],[74.76379,24.57633],[74.76377,24.57548],[74.76358,24.57548],[74.76363,24.57445],[74.76554,24.57472],[74.76565,24.57477],[74.76524,24.57557],[74.76779,24.57628],[74.76795,24.5762],[74.76811,24.57593],[74.76776,24.57558],[74.768,24.5747],[74.76778,24.57434],[74.76799,24.574],[74.76886,24.57359],[74.76905,24.57298],[74.76951,24.57261],[74.76943,24.57232],[74.76892,24.57199],[74.76953,24.57183],[74.76972,24.57159],[74.76939,24.57102],[74.76995,24.5706],[74.76948,24.57029],[74.76947,24.56989],[74.7703,24.56948],[74.77019,24.56925],[74.76956,24.56895],[74.76951,24.56859],[74.76973,24.56836],[74.76974,24.56801],[74.77002,24.56759],[74.77285,24.5654],[74.77277,24.56416],[74.77214,24.56406],[74.77172,24.56353],[74.76163,24.57202],[74.76176,24.57215],[74.76165,24.57226],[74.76151,24.57212],[74.75671,24.57621]]]}},{"type":"Feature","bbox":[74.75588,24.56201,74.77144,24.57622],"properties":{"ward":2,"name":"Indira Gandhi Ward"},"geometry":{"type":"Polygon","coordinates":[[[74.76144,24.57218],[74.76165,24.57226],[74.76176,24.57215],[74.76163,24.57202],[74.77144,24.56376],[74.77131,24.56341],[74.77144,24.56328],[74.77098,24.56201],[74.77045,24.56214],[74.76938,24.563],[74.76743,24.56393],[74.76702,24.56407],[74.76679,24.56387],[74.76682,24.56366],[74.76672,24.56383],[74.76607,24.56382],[74.76585,24.5643],[74.76589,24.56476],[74.7666,24.565],[74.76611,24.56551],[74.76614,24.56564],[74.76411,24.5662],[74.76334,24.56615],[74.76297,24.56638],[74.76272,24.56629],[74.76189,24.56881],[74.76116,24.57018],[74.7599,24.57161],[74.75588,24.57476],[74.75607,24.57554],[74.75671,24.57622],[74.76144,24.57218]]]}},{"type":"Feature","bbox":[74.76272,24.56097,74.77303,24.56638],"properties":{"ward":3,"name":"Vivekanand Ward"},"geometry":{"type":"Polygon","coordinates":[[[74.76332,24.56616],[74.76411,24.5662],[74.76614,24.56564],[74.76611,24.56551],[74.7666,24.565],[74.76589,24.56476],[74.76585,24.5643],[74.76607,24.56382],[74.76672,24.56383],[74.76682,24.56366],[74.76679,24.56387],[74.76702,24.56407],[74.76752,24.5639],[74.76938,24.563],[74.77059,24.56209],[74.77098,24.56201],[74.77116,24.56256],[74.77239,24.56252],[74.77303,24.56202],[74.77152,24.56112],[74.77099,24.56156],[74.76824,24.56159],[74.76404,24.56097],[74.76272,24.56629],[74.76297,24.56638],[74.76332,24.56616]]]}},{"type":"Feature","bbox":[74.77116,24.56202,74.77326,24.56371],"properties":{"ward":4,"name":"Jawahar Ward"},"geometry":{"type":"Polygon","coordinates":[[[74.7714,24.56371],[74.77326,24.56221],[74.77303,24.56202],[74.77239,24.56252],[74.77116,24.56256],[74.77144,24.56328],[74.77131,24.5634],[74.7714,24.56371]]]}},{"type":"Feature","bbox":[74.75978,24.55351,74.77152,24.56159],"properties":{"ward":5,"name":"Shivaji Ward"},"geometry":{"type":"Polygon","coordinates":[[[74.76824,24.56159],[74.77099,24.56156],[74.77152,24.56112],[74.76975,24.56017],[74.76618,24.55884],[74.76606,24.55826],[74.76653,24.55669],[74.76648,24.55561],[74.76685,24.55413],[74.76674,24.5536],[74.76639,24.55351],[74.7661,24.55434],[74.76589,24.55454],[74.76372,24.55467],[74.76296,24.55555],[74.75992,24.55565],[74.75978,24.55832],[74.76066,24.55829],[74.76041,24.56042],[74.76265,24.56096],[74.76357,24.56106],[74.76373,24.56094],[74.76824,24.56159]]]}},{"type":"Feature","bbox":[74.77022,24.55701,74.77456,24.56221],"properties":{"ward":6,"name":"Dr. Radhakrishan Ward"},"geometry":{"type":"Polygon","coordinates":[[[74.77428,24.56049],[74.77416,24.55999],[74.77362,24.56028],[74.77331,24.5598],[74.77394,24.55879],[74.77286,24.55794],[74.77127,24.55701],[74.77022,24.56038],[74.77326,24.56221],[74.77456,24.56109],[74.77398,24.56073],[74.77428,24.56049]]]}},{"type":"Feature","bbox":[74.75888,24.53034,74.78056,24.56038],"properties":{"ward":7,"name":"Mahatma Gandhi Ward"},"geometry":{"type":"Polygon","coordinates":[[[74.77022,24.56038],[74.77459,24.54623],[74.77542,24.54603],[74.77724,24.54657],[74.77752,24.54653],[74.77821,24.54491],[74.77912,24.5442],[74.77954,24.54269],[74.78041,24.54263],[74.77989,24.54161],[74.77994,24.54065],[74.78055,24.53813],[74.78056,24.53738],[74.78026,24.53556],[74.77632,24.53309],[74.77321,24.53221],[74.77355,24.53115],[74.77262,24.53049],[74.77179,24.53034],[74.7716,24.53201],[74.77065,24.5331],[74.77077,24.53324],[74.77061,24.53379],[74.77045,24.53374],[74.77033,24.53404],[74.77032,24.53472],[74.77017,24.53476],[74.76996,24.53526],[74.76979,24.53528],[74.76981,24.53561],[74.76949,24.53561],[74.76965,24.53681],[74.76957,24.53868],[74.7684,24.53885],[74.76715,24.53879],[74.76677,24.54037],[74.76531,24.54088],[74.76486,24.54078],[74.76487,24.54103],[74.76519,24.54145],[74.76487,24.54367],[74.76561,24.54488],[74.76536,24.5456],[74.76456,24.54534],[74.76384,24.54584],[74.76354,24.54662],[74.76342,24.5466],[74.7633,24.54697],[74.76306,24.54704],[74.76275,24.54755],[74.76299,24.5476],[74.76286,24.55003],[74.76337,24.55004],[74.76335,24.5512],[74.75976,24.5513],[74.75959,24.55438],[74.75954,24.55462],[74.75899,24.55469],[74.75888,24.55555],[74.7596,24.5557],[74.76044,24.55556],[74.76292,24.55556],[74.76372,24.55467],[74.76589,24.55454],[74.7661,24.55434],[74.76639,24.55351],[74.76674,24.5536],[74.76685,24.55413],[74.76648,24.55561],[74.76653,24.55669],[74.76606,24.55826],[74.76618,24.55884],[74.77022,24.56038]]]}},{"type":"Feature","bbox":[74.77331,24.55524,74.77899,24.56109],"properties":{"ward":8,"name":"Subhash Ward"},"geometry":{"type":"Polygon","coordinates":[[[74.77456,24.56109],[74.77899,24.55745],[74.77869,24.55694],[74.77858,24.55612],[74.77797,24.55583],[74.7754,24.55524],[74.77452,24.55782],[74.77331,24.5598],[74.77362,24.56028],[74.77416,24.55999],[74.77428,24.56049],[74.77398,24.56073],[74.77456,24.56109]]]}},{"type":"Feature","bbox":[74.77462,24.55472,74.78302,24.56131],"properties":{"ward":9,"name":"Pratap Ward"},"geometry":{"type":"Polygon","coordinates":[[[74.77596,24.56131],[74.77623,24.56085],[74.7765,24.56098],[74.77692,24.56073],[74.77807,24.56102],[74.78032,24.56024],[74.78058,24.56065],[74.78115,24.56067],[74.78233,24.56036],[74.78234,24.56012],[74.78201,24.55982],[74.78207,24.55953],[74.78253,24.55925],[74.78302,24.55941],[74.78287,24.55889],[74.78293,24.55764],[74.78207,24.55775],[74.78251,24.55542],[74.78278,24.55547],[74.78285,24.55509],[74.78246,24.55472],[74.77462,24.56104],[74.77596,24.56131]]]}},{"type":"Feature","bbox":[74.77541,24.56024,74.80588,24.57831],"properties":{"ward":10,"name":"Shastri Ward"},"geometry":{"type":"Polygon","coordinates":[[[74.80074,24.57822],[74.80195,24.57753],[74.80452,24.57505],[74.80533,24.57392],[74.80588,24.57341],[74.80582,24.57316],[74.80363,24.57333],[74.80325,24.57229],[74.80154,24.57219],[74.80154,24.57172],[74.80025,24.5716],[74.80009,24.57203],[74.79922,24.57175],[74.799,24.57161],[74.79888,24.57097],[74.79819,24.57053],[74.79773,24.57049],[74.79695,24.56969],[74.79641,24.56966],[74.79575,24.57014],[74.79407,24.56972],[74.79348,24.56919],[74.79289,24.56905],[74.7926,24.56859],[74.79109,24.56748],[74.79062,24.56688],[74.79007,24.56708],[74.79022,24.56557],[74.78945,24.56423],[74.78974,24.56322],[74.78958,24.56235],[74.78973,24.56168],[74.78948,24.56157],[74.78677,24.56117],[74.78379,24.56123],[74.78173,24.56108],[74.78169,24.56071],[74.78237,24.56054],[74.78229,24.56038],[74.78115,24.56067],[74.78058,24.56065],[74.78032,24.56024],[74.77827,24.561],[74.77771,24.561],[74.77692,24.56073],[74.7765,24.56098],[74.77634,24.56091],[74.77628,24.56144],[74.77684,24.56149],[74.777,24.56217],[74.77659,24.56219],[74.77656,24.56298],[74.77592,24.56346],[74.77541,24.56433],[74.77752,24.56494],[74.77955,24.56506],[74.78057,24.56587],[74.78183,24.56632],[74.78675,24.57051],[74.79403,24.57562],[74.79508,24.57712],[74.7958,24.57781],[74.79737,24.57702],[74.79785,24.5782],[74.79972,24.57831],[74.80074,24.57822]]]}},{"type":"Feature","bbox":[74.77509,24.56085,74.777,24.56219],"properties":{"ward":11,"name":"Dayanand Ward"},"geometry":{"type":"Polygon","coordinates":[[[74.777,24.56217],[74.77684,24.56149],[74.77628,24.56144],[74.77623,24.56085],[74.77601,24.5613],[74.77524,24.56123],[74.77509,24.56165],[74.7759,24.56193],[74.77655,24.56195],[74.77659,24.56219],[74.777,24.56217]]]}},{"type":"Feature","bbox":[74.77172,24.56104,74.77524,24.56422],"properties":{"ward":12,"name":"Lakshmibai Ward"},"geometry":{"type":"Polygon","coordinates":[[[74.77503,24.56422],[74.77471,24.56235],[74.77524,24.56123],[74.77462,24.56104],[74.77172,24.56353],[74.77226,24.56411],[74.77411,24.564],[74.77503,24.56422]]]}},{"type":"Feature","bbox":[74.77471,24.56165,74.77579,24.56385],"properties":{"ward":13,"name":"Vallabh Bhai Patel Ward"},"geometry":{"type":"Polygon","coordinates":[[[74.77523,24.5626],[74.77564,24.5624],[74.77579,24.56187],[74.77509,24.56165],[74.77471,24.56242],[74.77476,24.56304],[74.77503,24.56333],[74.77507,24.56385],[74.77552,24.56322],[74.77551,24.56297],[74.77526,24.56295],[74.77523,24.5626]]]}},{"type":"Feature","bbox":[74.77503,24.56187,74.77656,24.56433],"properties":{"ward":14,"name":"Mahavir Ward"},"geometry":{"type":"Polygon","coordinates":[[[74.77656,24.56298],[74.77655,24.56195],[74.77579,24.56187],[74.77564,24.5624],[74.77523,24.56257],[74.77526,24.56295],[74.77551,24.56297],[74.77552,24.5632],[74.77507,24.56385],[74.77503,24.56422],[74.77541,24.56433],[74.77592,24.56346],[74.77656,24.56298]]]}},{"type":"Feature","bbox":[74.76939,24.56401,74.79796,24.57848],"properties":{"ward":15,"name":"Bhagat Singh Ward"},"geometry":{"type":"Polygon","coordinates":[[[74.79796,24.57848],[74.79737,24.57702],[74.7958,24.57781],[74.79508,24.57712],[74.79403,24.57562],[74.78675,24.57051],[74.78183,24.56632],[74.78057,24.56587],[74.77962,24.56508],[74.77739,24.56492],[74.77422,24.56401],[74.77277,24.56416],[74.77285,24.5654],[74.77002,24.56759],[74.76951,24.56857],[74.7696,24.56902],[74.7703,24.5694],[74.76957,24.5698],[74.76944,24.57002],[74.7695,24.5703],[74.76995,24.5706],[74.76939,24.57102],[74.76971,24.57148],[74.76962,24.57177],[74.77013,24.57198],[74.79073,24.57686],[74.79312,24.57777],[74.79631,24.57809],[74.79796,24.57848]]]}}]}