{"type":"FeatureCollection","features":[{"type":"Feature","bbox":[79.07203,21.24853,79.07987,21.2572],"properties":{"ward":1,"name":"Adarsh Nagar"},"geometry":{"type":"Polygon","coordinates":[[[79.07227,21.25077],[79.07229,21.25192],[79.07206,21.25228],[79.07203,21.25492],[79.07291,21.25601],[79.07319,21.25585],[79.07368,21.2559],[79.07487,21.25695],[79.07579,21.25681],[79.07676,21.25618],[79.07812,21.25672],[79.07871,21.2572],[79.07912,21.25716],[79.07987,21.25337],[79.07847,21.25332],[79.07848,21.25307],[79.07873,21.25305],[79.07872,21.25253],[79.07934,21.25252],[79.07917,21.25179],[79.07904,21.25181],[79.07896,21.25155],[79.07909,21.25147],[79.07905,21.25119],[79.07845,21.24972],[79.07826,21.24853],[79.0765,21.24894],[79.0766,21.25136],[79.07699,21.25242],[79.07538,21.25311],[79.07442,21.2529],[79.07248,21.25185],[79.07247,21.25064],[79.07227,21.25077]]]}},{"type":"Feature","bbox":[79.07826,21.24851,79.08129,21.25436],"properties":{"ward":2,"name":"Dhengre Layout"},"geometry":{"type":"Polygon","coordinates":[[[79.07935,21.25253],[79.07873,21.25253],[79.07874,21.25305],[79.07848,21.25308],[79.07847,21.25331],[79.07987,21.25336],[79.07981,21.25411],[79.08129,21.25436],[79.08105,21.25331],[79.08077,21.25338],[79.08046,21.2525],[79.08014,21.25255],[79.08009,21.25232],[79.08018,21.25191],[79.08081,21.25171],[79.08063,21.25106],[79.0795,21.25132],[79.07945,21.25111],[79.07989,21.25102],[79.07982,21.25062],[79.08001,21.25056],[79.07964,21.24851],[79.07826,21.24853],[79.07845,21.24973],[79.07905,21.25119],[79.0791,21.25148],[79.07896,21.25155],[79.07904,21.2518],[79.07917,21.25178],[79.07935,21.25253]]]}},{"type":"Feature","bbox":[79.08009,21.25185,79.08233,21.25445],"properties":{"ward":3,"name":"Zenda Chauk"},"geometry":{"type":"Polygon","coordinates":[[[79.08188,21.25189],[79.0811,21.2521],[79.08061,21.25211],[79.08051,21.25185],[79.08018,21.25191],[79.08009,21.25232],[79.08013,21.25255],[79.08046,21.25249],[79.08077,21.25338],[79.08106,21.2533],[79.0813,21.25436],[79.08183,21.25445],[79.08183,21.25377],[79.08224,21.25372],[79.08233,21.25357],[79.08188,21.25189]]]}},{"type":"Feature","bbox":[79.0805,21.24888,79.08526,21.25446],"properties":{"ward":4,"name":"Aaramachine"},"geometry":{"type":"Polygon","coordinates":[[[79.08061,21.2521],[79.08189,21.25188],[79.08234,21.25357],[79.08225,21.25372],[79.08183,21.25378],[79.08188,21.25446],[79.08245,21.25414],[79.08263,21.25374],[79.0831,21.25144],[79.08526,21.25072],[79.0851,21.24888],[79.08403,21.24901],[79.08159,21.25075],[79.08105,21.25089],[79.08104,21.25155],[79.0805,21.25183],[79.08061,21.2521]]]}},{"type":"Feature","bbox":[79.08519,21.24984,79.09052,21.25651],"properties":{"ward":5,"name":"Hanuman Nagar"},"geometry":{"type":"Polygon","coordinates":[[[79.08588,21.24984],[79.08519,21.24994],[79.08584,21.25651],[79.08735,21.25602],[79.08872,21.25507],[79.08907,21.25498],[79.08876,21.25406],[79.08951,21.25391],[79.08939,21.25245],[79.09042,21.2522],[79.09052,21.2518],[79.09021,21.25037],[79.09,21.25065],[79.09011,21.25145],[79.08984,21.25152],[79.08988,21.25173],[79.09014,21.2517],[79.09019,21.25202],[79.08899,21.25229],[79.08863,21.25223],[79.08812,21.25162],[79.08777,21.25177],[79.088,21.2524],[79.08648,21.25276],[79.08594,21.2514],[79.08588,21.24984]]]}},{"type":"Feature","bbox":[79.08595,21.25045,79.09018,21.25275],"properties":{"ward":6,"name":"Noor Nagar"},"geometry":{"type":"Polygon","coordinates":[[[79.0867,21.25045],[79.08598,21.25055],[79.08595,21.25139],[79.08649,21.25275],[79.088,21.2524],[79.08777,21.25177],[79.08812,21.25162],[79.08863,21.25222],[79.089,21.25228],[79.09018,21.25201],[79.09014,21.2517],[79.08987,21.25174],[79.08984,21.25151],[79.09011,21.25145],[79.08999,21.25065],[79.08975,21.25047],[79.08803,21.25052],[79.08786,21.25075],[79.0874,21.25049],[79.08734,21.25075],[79.08675,21.25078],[79.0867,21.25045]]]}},{"type":"Feature","bbox":[79.08589,21.24966,79.09023,21.25078],"properties":{"ward":7,"name":"Shriwas Nagar"},"geometry":{"type":"Polygon","coordinates":[[[79.08589,21.24986],[79.08597,21.25054],[79.0867,21.25045],[79.08675,21.25078],[79.08734,21.25075],[79.0874,21.25049],[79.08786,21.25075],[79.08803,21.25051],[79.08925,21.25043],[79.0897,21.25045],[79.08999,21.25065],[79.09023,21.25032],[79.09015,21.25011],[79.08751,21.25024],[79.08747,21.25003],[79.08692,21.25017],[79.08681,21.24966],[79.08589,21.24986]]]}},{"type":"Feature","bbox":[79.08671,21.2478,79.09286,21.25032],"properties":{"ward":8,"name":"Fule Nagar"},"geometry":{"type":"Polygon","coordinates":[[[79.08735,21.24931],[79.08671,21.2494],[79.08693,21.25016],[79.08746,21.25003],[79.08751,21.25023],[79.09015,21.25011],[79.09023,21.25032],[79.09262,21.24991],[79.09286,21.24945],[79.09206,21.24919],[79.08986,21.2478],[79.08982,21.24856],[79.08965,21.2488],[79.08904,21.24884],[79.08763,21.2486],[79.08758,21.24875],[79.08729,21.24882],[79.08735,21.24931]]]}},{"type":"Feature","bbox":[79.0863,21.24646,79.08985,21.2488],"properties":{"ward":9,"name":"Siddharth Nagar"},"geometry":{"type":"Polygon","coordinates":[[[79.08742,21.24674],[79.08645,21.24653],[79.0863,21.24719],[79.08646,21.24727],[79.0863,21.24781],[79.08639,21.24848],[79.08965,21.2488],[79.08982,21.24856],[79.08985,21.24779],[79.08765,21.24646],[79.08742,21.24674]]]}},{"type":"Feature","bbox":[79.0845,21.24343,79.08763,21.24963],"properties":{"ward":10,"name":"Indira Pragati Nagar"},"geometry":{"type":"Polygon","coordinates":[[[79.08526,21.24744],[79.08516,21.24671],[79.08495,21.24673],[79.08464,21.24343],[79.0845,21.24343],[79.08498,21.24888],[79.08512,21.24887],[79.08516,21.24963],[79.08734,21.24931],[79.08729,21.24881],[79.08758,21.24875],[79.08763,21.2486],[79.08639,21.24849],[79.0863,21.24781],[79.08646,21.24727],[79.08618,21.24714],[79.08617,21.24674],[79.08565,21.24669],[79.08569,21.24743],[79.08526,21.24744]]]}},{"type":"Feature","bbox":[79.08326,21.24225,79.08496,21.2489],"properties":{"ward":11,"name":"Shivaji Nagar"},"geometry":{"type":"Polygon","coordinates":[[[79.08426,21.2489],[79.08496,21.2489],[79.08449,21.24226],[79.08426,21.24225],[79.0843,21.24389],[79.08376,21.24392],[79.08385,21.24569],[79.08327,21.24576],[79.08326,21.24596],[79.08339,21.24598],[79.08382,21.24685],[79.08417,21.24683],[79.0843,21.24708],[79.08421,21.24744],[79.08432,21.24754],[79.08393,21.24828],[79.08418,21.24829],[79.08426,21.2489]]]}},{"type":"Feature","bbox":[79.07946,21.24744,79.08432,21.25158],"properties":{"ward":12,"name":"Manwatkar Layout"},"geometry":{"type":"Polygon","coordinates":[[[79.08157,21.2482],[79.07965,21.2485],[79.08002,21.25055],[79.07984,21.25062],[79.07989,21.25102],[79.07946,21.25112],[79.0795,21.25131],[79.08064,21.25106],[79.08083,21.25158],[79.08104,21.25155],[79.08105,21.25089],[79.08158,21.25075],[79.08403,21.24901],[79.08429,21.24897],[79.08418,21.24829],[79.08393,21.24828],[79.08432,21.24754],[79.08421,21.24744],[79.08157,21.2482]]]}},{"type":"Feature","bbox":[79.0704,21.24157,79.08304,21.25311],"properties":{"ward":13,"name":"Koradi Colony"},"geometry":{"type":"Polygon","coordinates":[[[79.0754,21.24159],[79.07535,21.24256],[79.07499,21.24338],[79.07445,21.24371],[79.07433,21.24435],[79.07476,21.24539],[79.07432,21.24607],[79.07415,21.24679],[79.07361,21.24696],[79.07334,21.24769],[79.07293,21.2481],[79.07199,21.24845],[79.07173,21.24917],[79.07148,21.24938],[79.07082,21.24949],[79.0704,21.24989],[79.07045,21.25038],[79.07084,21.25073],[79.07221,21.25039],[79.07247,21.25064],[79.07249,21.25184],[79.07442,21.25289],[79.07538,21.25311],[79.07699,21.25242],[79.07659,21.25136],[79.0765,21.24894],[79.07826,21.24853],[79.07964,21.2485],[79.08156,21.24821],[79.08304,21.2477],[79.08265,21.24719],[79.08235,21.24586],[79.08151,21.24502],[79.08236,21.24372],[79.07978,21.24228],[79.07788,21.24503],[79.07668,21.24505],[79.07633,21.24476],[79.07605,21.24476],[79.07604,21.24381],[79.07689,21.24335],[79.07662,21.24255],[79.07663,21.24208],[79.07592,21.24195],[79.07616,21.24169],[79.07603,21.24157],[79.0754,21.24159]]]}},{"type":"Feature","bbox":[79.08235,21.24577,79.0843,21.2477],"properties":{"ward":14,"name":"Kavvapara"},"geometry":{"type":"Polygon","coordinates":[[[79.08235,21.24587],[79.08265,21.24719],[79.08304,21.2477],[79.08421,21.24744],[79.0843,21.24708],[79.08417,21.24683],[79.08382,21.24685],[79.08326,21.24577],[79.08235,21.24587]]]}},{"type":"Feature","bbox":[79.07979,21.24129,79.08429,21.24587],"properties":{"ward":15,"name":"Koradi Colony"},"geometry":{"type":"Polygon","coordinates":[[[79.0815,21.24195],[79.08046,21.24129],[79.07979,21.24229],[79.08236,21.24372],[79.08151,21.24502],[79.08231,21.24587],[79.08385,21.24569],[79.08376,21.24392],[79.08429,21.24388],[79.08426,21.24225],[79.08371,21.24245],[79.0834,21.24231],[79.08307,21.24244],[79.08271,21.24228],[79.08225,21.24238],[79.08158,21.24218],[79.0815,21.24195]]]}},{"type":"Feature","bbox":[79.08451,21.2396,79.08765,21.24744],"properties":{"ward":16,"name":"Sambhaji Nagar"},"geometry":{"type":"Polygon","coordinates":[[[79.08638,21.24005],[79.08476,21.2396],[79.08451,21.2434],[79.08464,21.24341],[79.08495,21.24672],[79.08516,21.2467],[79.08526,21.24744],[79.08569,21.24743],[79.08564,21.24669],[79.08617,21.24674],[79.08629,21.24719],[79.08645,21.24653],[79.08742,21.24674],[79.08765,21.24645],[79.08753,21.24545],[79.08719,21.2452],[79.08638,21.24373],[79.08635,21.24233],[79.08617,21.24172],[79.08638,21.24005]]]}},{"type":"Feature","bbox":[79.07599,21.23893,79.08474,21.24505],"properties":{"ward":17,"name":"Koradi Colony"},"geometry":{"type":"Polygon","coordinates":[[[79.08474,21.23961],[79.0834,21.23977],[79.08296,21.23908],[79.08205,21.23893],[79.0811,21.24028],[79.0793,21.23977],[79.0791,21.24047],[79.07879,21.24077],[79.07801,21.24062],[79.07705,21.24075],[79.07599,21.24198],[79.07663,21.24208],[79.07662,21.24255],[79.07689,21.24336],[79.07604,21.24381],[79.07606,21.24476],[79.07633,21.24476],[79.07668,21.24505],[79.07788,21.24503],[79.08046,21.24127],[79.08188,21.2423],[79.08271,21.24228],[79.08307,21.24244],[79.0834,21.24231],[79.08372,21.24245],[79.08458,21.24225],[79.08474,21.23961]]]}}]}