{"type":"FeatureCollection","features":[{"type":"Feature","bbox":[79.38526,21.1471,79.41587,21.17173],"properties":{"ward":1},"geometry":{"type":"Polygon","coordinates":[[[79.41583,21.14765],[79.41369,21.14787],[79.40788,21.14793],[79.40504,21.1477],[79.40229,21.1471],[79.40186,21.14742],[79.40145,21.14853],[79.40069,21.14963],[79.40006,21.15026],[79.39972,21.15025],[79.39964,21.15003],[79.39941,21.14791],[79.39891,21.14783],[79.3981,21.14815],[79.39777,21.14773],[79.39744,21.14776],[79.39677,21.14805],[79.39677,21.14847],[79.39715,21.14949],[79.39804,21.15079],[79.39803,21.1516],[79.39487,21.15289],[79.39293,21.15319],[79.39104,21.15318],[79.38919,21.152],[79.38878,21.15229],[79.38762,21.15433],[79.38526,21.15955],[79.38657,21.16516],[79.38786,21.16906],[79.38902,21.17158],[79.38919,21.17173],[79.38939,21.17162],[79.38912,21.16712],[79.38875,21.16493],[79.38871,21.16357],[79.38918,21.16144],[79.38969,21.16025],[79.39074,21.15843],[79.39158,21.15756],[79.39241,21.15703],[79.39326,21.157],[79.39647,21.15626],[79.39758,21.15707],[79.39931,21.1574],[79.40094,21.15749],[79.40094,21.15715],[79.40039,21.15607],[79.4002,21.15498],[79.40024,21.15462],[79.40086,21.15401],[79.40298,21.15325],[79.40371,21.15323],[79.40448,21.1528],[79.4059,21.15268],[79.40753,21.15203],[79.40824,21.15192],[79.40837,21.15186],[79.4084,21.15123],[79.41212,21.1504],[79.41227,21.15034],[79.41226,21.14981],[79.41503,21.14956],[79.4151,21.14821],[79.41573,21.14815],[79.41587,21.14781],[79.41583,21.14765]]]}},{"type":"Feature","bbox":[79.39639,21.14238,79.41319,21.15019],"properties":{"ward":2},"geometry":{"type":"Polygon","coordinates":[[[79.39903,21.14615],[79.39647,21.14608],[79.39639,21.14748],[79.39657,21.14789],[79.39785,21.14753],[79.39819,21.14754],[79.39823,21.14791],[79.39942,21.14768],[79.39981,21.15019],[79.40068,21.14927],[79.40175,21.14758],[79.40257,21.14701],[79.40523,21.14759],[79.40708,21.14777],[79.41304,21.1477],[79.41319,21.14759],[79.41307,21.14719],[79.41232,21.14658],[79.40885,21.14464],[79.40645,21.14306],[79.40613,21.14293],[79.40602,21.1433],[79.40492,21.14307],[79.40231,21.14303],[79.40184,21.14238],[79.40064,21.14255],[79.40034,21.14271],[79.40016,21.14312],[79.39962,21.14326],[79.39966,21.14432],[79.39864,21.14434],[79.3982,21.14457],[79.39814,21.14488],[79.39838,21.14542],[79.39903,21.14615]],[[79.39905,21.14616],[79.39908,21.14617],[79.39909,21.1462],[79.39905,21.14616]],[[79.39909,21.1462],[79.39914,21.14623],[79.39907,21.14627],[79.39909,21.1462]]]}},{"type":"Feature","bbox":[79.38308,21.14344,79.39939,21.15922],"properties":{"ward":3},"geometry":{"type":"Polygon","coordinates":[[[79.39917,21.1463],[79.3992,21.14631],[79.39897,21.1462],[79.39891,21.14614],[79.39848,21.14555],[79.39737,21.14361],[79.39598,21.14376],[79.39429,21.14344],[79.3929,21.14347],[79.39245,21.14391],[79.39151,21.14618],[79.39068,21.14715],[79.38839,21.14823],[79.38518,21.14891],[79.38628,21.14953],[79.38535,21.14947],[79.3859,21.15084],[79.38571,21.15093],[79.38442,21.14982],[79.38337,21.14976],[79.38308,21.15036],[79.38317,21.15159],[79.38347,21.15227],[79.38368,21.15364],[79.38513,21.15922],[79.38709,21.15561],[79.3881,21.15312],[79.38883,21.1519],[79.38999,21.15218],[79.39186,21.15313],[79.39244,21.15317],[79.39547,21.15262],[79.39686,21.15182],[79.39755,21.1517],[79.39816,21.15116],[79.39703,21.14926],[79.39665,21.14829],[79.3963,21.14607],[79.39871,21.14615],[79.39939,21.1464],[79.39936,21.14597],[79.39931,21.14634],[79.39917,21.1463]],[[79.39925,21.14633],[79.39925,21.14633],[79.39926,21.14633],[79.39925,21.14633]],[[79.39925,21.14633],[79.3992,21.14631],[79.3993,21.14634],[79.39925,21.14633]],[[79.39938,21.14639],[79.39938,21.14639],[79.39937,21.14638],[79.39938,21.14639]]]}},{"type":"Feature","bbox":[79.39271,21.13911,79.40595,21.14482],"properties":{"ward":4,"name":"Nagar Panchayat To Taka Parisar"},"geometry":{"type":"Polygon","coordinates":[[[79.39273,21.14333],[79.39486,21.1434],[79.39526,21.14366],[79.39574,21.14372],[79.39731,21.14355],[79.39768,21.14372],[79.39817,21.14482],[79.39829,21.14435],[79.3991,21.14439],[79.39948,21.14423],[79.39954,21.14332],[79.40001,21.14307],[79.40018,21.14267],[79.40143,21.14226],[79.40209,21.14232],[79.40239,21.14303],[79.40472,21.14297],[79.40584,21.14313],[79.40595,21.1429],[79.40554,21.14233],[79.40434,21.14141],[79.40169,21.1401],[79.39932,21.1393],[79.39687,21.13911],[79.39271,21.13965],[79.39273,21.13983],[79.39323,21.1398],[79.39315,21.14076],[79.39335,21.14119],[79.39273,21.14333]]]}}]}