{"type":"FeatureCollection","features":[{"type":"Feature","bbox":[72.95437,21.17211,72.96168,21.17621],"properties":{"ward":1},"geometry":{"type":"Polygon","coordinates":[[[72.96167,21.17211],[72.95437,21.17475],[72.95486,21.17593],[72.95509,21.17608],[72.95667,21.17594],[72.95745,21.17621],[72.95775,21.17609],[72.95877,21.17619],[72.95964,21.17596],[72.96022,21.17545],[72.96075,21.17548],[72.96093,21.17477],[72.9608,21.17354],[72.96104,21.17356],[72.96116,21.17283],[72.96168,21.1726],[72.96167,21.17211]]]}},{"type":"Feature","bbox":[72.96073,21.16543,72.98255,21.17649],"properties":{"ward":2},"geometry":{"type":"Polygon","coordinates":[[[72.96731,21.1701],[72.96172,21.17215],[72.96173,21.17267],[72.96117,21.17296],[72.96101,21.1737],[72.96088,21.17361],[72.96094,21.17514],[72.96073,21.17552],[72.96135,21.17554],[72.96214,21.17529],[72.96301,21.17538],[72.96343,21.17581],[72.96376,21.17649],[72.96398,21.17649],[72.96436,21.1762],[72.96447,21.17566],[72.96496,21.17522],[72.96599,21.17498],[72.96644,21.1753],[72.96699,21.17529],[72.96717,21.1761],[72.97212,21.17636],[72.97366,21.17602],[72.97447,21.17631],[72.97471,21.17625],[72.97483,21.1756],[72.97598,21.17555],[72.97723,21.17475],[72.97755,21.17427],[72.97864,21.1746],[72.97891,21.17552],[72.97975,21.17504],[72.97997,21.17509],[72.98076,21.17593],[72.98135,21.1758],[72.98149,21.17551],[72.982,21.17539],[72.98158,21.17489],[72.982,21.16951],[72.98255,21.16543],[72.97108,21.16914],[72.97118,21.16604],[72.96986,21.16612],[72.96977,21.1672],[72.96848,21.16725],[72.9678,21.16715],[72.96776,21.16699],[72.96683,21.1669],[72.96668,21.16743],[72.96642,21.16741],[72.96627,21.16889],[72.96666,21.1688],[72.96668,21.16914],[72.96717,21.16916],[72.96731,21.1701]]]}},{"type":"Feature","bbox":[72.95401,21.16775,72.96727,21.17456],"properties":{"ward":3},"geometry":{"type":"Polygon","coordinates":[[[72.95428,21.17456],[72.96727,21.17017],[72.96715,21.16918],[72.96668,21.16913],[72.96667,21.1688],[72.96493,21.16893],[72.96515,21.16775],[72.96402,21.16778],[72.96391,21.16814],[72.96246,21.1683],[72.96308,21.17135],[72.96297,21.17123],[72.96182,21.17133],[72.96184,21.17071],[72.96158,21.16972],[72.96014,21.16983],[72.96011,21.16967],[72.95634,21.16974],[72.95646,21.16919],[72.9572,21.16923],[72.95715,21.16864],[72.95631,21.16856],[72.95615,21.16931],[72.95548,21.16918],[72.95528,21.17127],[72.95401,21.17135],[72.95421,21.1724],[72.95428,21.17456]]]}},{"type":"Feature","bbox":[72.95633,21.16198,72.96715,21.1713],"properties":{"ward":4},"geometry":{"type":"Polygon","coordinates":[[[72.95633,21.1685],[72.95723,21.16856],[72.95722,21.16922],[72.95651,21.16925],[72.95639,21.16973],[72.96161,21.16972],[72.96187,21.1713],[72.96306,21.17129],[72.96245,21.16829],[72.96381,21.16815],[72.96395,21.16799],[72.96387,21.16552],[72.96402,21.16386],[72.96715,21.16313],[72.967,21.16198],[72.96513,21.16238],[72.96255,21.1625],[72.95741,21.16225],[72.95723,21.1657],[72.95678,21.16758],[72.95648,21.16763],[72.95633,21.1685]]]}},{"type":"Feature","bbox":[72.96388,21.16347,72.9672,21.16894],"properties":{"ward":5},"geometry":{"type":"MultiPolygon","coordinates":[[[[72.96496,21.1689],[72.96496,21.16894],[72.96496,21.1689],[72.96496,21.1689]]],[[[72.96496,21.1689],[72.96497,21.16871],[72.96495,21.1689],[72.96496,21.1689]]],[[[72.96497,21.16871],[72.96498,21.16853],[72.96497,21.16852],[72.96497,21.16871]]],[[[72.96503,21.16772],[72.96498,21.16854],[72.96504,21.16772],[72.96503,21.16772]]],[[[72.96503,21.16772],[72.96532,21.16357],[72.96401,21.16393],[72.96388,21.16555],[72.96399,21.16779],[72.96503,21.16772]]],[[[72.96532,21.16357],[72.96504,21.16772],[72.9652,21.16778],[72.96496,21.1689],[72.96625,21.16887],[72.96641,21.16739],[72.96666,21.16743],[72.96669,21.16701],[72.96712,21.16679],[72.9672,21.16595],[72.96547,21.16578],[72.96576,21.16347],[72.96532,21.16357]]]]}},{"type":"Feature","bbox":[72.96554,21.16307,72.97074,21.16725],"properties":{"ward":6},"geometry":{"type":"Polygon","coordinates":[[[72.96712,21.16679],[72.96684,21.16688],[72.96849,21.16725],[72.96976,21.16719],[72.96984,21.16462],[72.97074,21.16457],[72.97066,21.16377],[72.97003,21.16391],[72.96998,21.16414],[72.96895,21.16422],[72.96854,21.16462],[72.96816,21.16465],[72.96815,21.1642],[72.96729,21.16411],[72.96734,21.16307],[72.96578,21.16347],[72.96554,21.1658],[72.96723,21.16592],[72.96712,21.16679]]]}},{"type":"Feature","bbox":[72.96711,21.16112,72.98281,21.16913],"properties":{"ward":7},"geometry":{"type":"MultiPolygon","coordinates":[[[[72.971,21.16856],[72.97109,21.16913],[72.98267,21.16537],[72.98281,21.16478],[72.98267,21.16366],[72.98102,21.16336],[72.98052,21.16312],[72.98047,21.16327],[72.97805,21.16223],[72.97545,21.16148],[72.97321,21.16112],[72.96911,21.16142],[72.96711,21.16185],[72.96716,21.16311],[72.96735,21.16307],[72.96729,21.1641],[72.96816,21.16419],[72.96816,21.16465],[72.96853,21.16463],[72.96895,21.16421],[72.96997,21.16412],[72.9702,21.16381],[72.97069,21.16373],[72.97076,21.16456],[72.96984,21.16463],[72.96988,21.1661],[72.97119,21.16603],[72.9712,21.16738],[72.97125,21.16712],[72.97121,21.1675],[72.97112,21.16788],[72.97104,21.1683],[72.971,21.16856]]],[[[72.971,21.16853],[72.971,21.16854],[72.97101,21.16846],[72.971,21.16853]]],[[[72.97101,21.16846],[72.97104,21.1683],[72.97105,21.16825],[72.97101,21.16846]]],[[[72.9712,21.16739],[72.9712,21.16738],[72.97105,21.16825],[72.9712,21.16739]]]]}}]}