{"type":"FeatureCollection","features":[{"type":"Feature","bbox":[76.95413,22.49978,76.97798,22.52114],"properties":{"ward":1,"name":"Sant Ravidas Ward"},"geometry":{"type":"Polygon","coordinates":[[[76.97338,22.51818],[76.97398,22.51735],[76.97642,22.51001],[76.97798,22.50338],[76.97659,22.49978],[76.97298,22.50059],[76.97307,22.5004],[76.9708,22.50123],[76.96439,22.5022],[76.96113,22.50139],[76.95849,22.50174],[76.95757,22.50165],[76.95751,22.50233],[76.95656,22.50278],[76.95551,22.50375],[76.95478,22.5047],[76.95485,22.50658],[76.95413,22.50758],[76.95421,22.5086],[76.95503,22.51084],[76.95579,22.51222],[76.95614,22.51504],[76.95606,22.51676],[76.95666,22.51842],[76.95837,22.51929],[76.96106,22.51988],[76.96138,22.52066],[76.96194,22.52114],[76.96326,22.52106],[76.9638,22.52035],[76.96568,22.51911],[76.96844,22.51811],[76.97338,22.51818]]]}},{"type":"Feature","bbox":[76.97848,22.49888,76.99163,22.50972],"properties":{"ward":2,"name":"Maa Durga Ward"},"geometry":{"type":"Polygon","coordinates":[[[76.98809,22.50212],[76.9879,22.50237],[76.98697,22.50214],[76.98689,22.50084],[76.98642,22.50065],[76.98537,22.50061],[76.98409,22.50081],[76.98154,22.50059],[76.9816,22.49888],[76.98016,22.49916],[76.98081,22.501],[76.98,22.5047],[76.97848,22.50939],[76.98156,22.50972],[76.98214,22.50957],[76.9832,22.50968],[76.98475,22.50897],[76.98635,22.50932],[76.98733,22.50912],[76.99163,22.50961],[76.98941,22.50446],[76.98867,22.50356],[76.98825,22.50277],[76.98809,22.50212]]]}},{"type":"Feature","bbox":[76.96897,22.49296,76.97889,22.50034],"properties":{"ward":3,"name":"Subhash Chandra Ward"},"geometry":{"type":"Polygon","coordinates":[[[76.97825,22.49933],[76.97889,22.49794],[76.97877,22.49645],[76.97514,22.49647],[76.97506,22.49613],[76.97533,22.49514],[76.9763,22.49426],[76.97716,22.49296],[76.97375,22.49347],[76.97256,22.4933],[76.96986,22.49341],[76.96946,22.49537],[76.96897,22.49649],[76.96923,22.49679],[76.9693,22.49717],[76.96939,22.49943],[76.97001,22.50001],[76.97065,22.50008],[76.97203,22.49989],[76.97373,22.50034],[76.97707,22.4998],[76.97825,22.49933]]]}},{"type":"Feature","bbox":[76.97508,22.49281,76.98146,22.49647],"properties":{"ward":4,"name":"Manigiri Ward"},"geometry":{"type":"Polygon","coordinates":[[[76.97877,22.49645],[76.97846,22.4957],[76.97865,22.49531],[76.98005,22.49485],[76.98139,22.49485],[76.98146,22.49422],[76.97989,22.49371],[76.97919,22.49301],[76.97859,22.49281],[76.97722,22.49289],[76.9763,22.49426],[76.97529,22.4952],[76.97508,22.49591],[76.97514,22.49647],[76.97877,22.49645]]]}},{"type":"Feature","bbox":[76.98139,22.4942,76.98255,22.49623],"properties":{"ward":5,"name":"Swami Vivekanand Ward"},"geometry":{"type":"Polygon","coordinates":[[[76.9824,22.49621],[76.9823,22.495],[76.98255,22.49429],[76.98183,22.4942],[76.98146,22.49422],[76.98139,22.49485],[76.98177,22.49526],[76.9815,22.49566],[76.98152,22.49623],[76.9824,22.49621]]]}},{"type":"Feature","bbox":[76.9823,22.49429,76.98396,22.49639],"properties":{"ward":6,"name":"Rani Avantika Bai Ward"},"geometry":{"type":"Polygon","coordinates":[[[76.98396,22.49458],[76.98358,22.49434],[76.98255,22.49429],[76.9823,22.495],[76.9824,22.49621],[76.98314,22.49639],[76.98383,22.49607],[76.98396,22.49458]]]}},{"type":"Feature","bbox":[76.98152,22.49623,76.98264,22.49685],"properties":{"ward":7,"name":"Mahatma Gandhi Ward"},"geometry":{"type":"Polygon","coordinates":[[[76.98264,22.4967],[76.98246,22.49623],[76.98152,22.49623],[76.98156,22.49685],[76.98264,22.4967]]]}},{"type":"Feature","bbox":[76.97846,22.4948,76.98173,22.49662],"properties":{"ward":8,"name":"Krishna Ward"},"geometry":{"type":"Polygon","coordinates":[[[76.9815,22.49566],[76.98173,22.49541],[76.98172,22.49516],[76.98139,22.49485],[76.98098,22.4948],[76.98005,22.49485],[76.97876,22.49522],[76.97846,22.4957],[76.97887,22.49662],[76.97993,22.49641],[76.9808,22.49576],[76.9815,22.49566]]]}},{"type":"Feature","bbox":[76.97821,22.4956,76.98156,22.49944],"properties":{"ward":9,"name":"Shri Sidhieshwar Ward"},"geometry":{"type":"Polygon","coordinates":[[[76.98009,22.49899],[76.98056,22.49819],[76.98054,22.49769],[76.98155,22.49712],[76.98156,22.4957],[76.98142,22.4956],[76.9808,22.49576],[76.97993,22.49641],[76.97886,22.49659],[76.97888,22.49798],[76.97821,22.49944],[76.98009,22.49899]]]}},{"type":"Feature","bbox":[76.98009,22.49729,76.9816,22.49916],"properties":{"ward":10,"name":"Sant Haridas Ward"},"geometry":{"type":"Polygon","coordinates":[[[76.9816,22.49888],[76.98138,22.49767],[76.98113,22.49729],[76.98054,22.49769],[76.98056,22.49819],[76.98009,22.49899],[76.98016,22.49916],[76.9816,22.49888]]]}},{"type":"Feature","bbox":[76.98122,22.49669,76.98294,22.49881],"properties":{"ward":11,"name":"Sadar Ward"},"geometry":{"type":"Polygon","coordinates":[[[76.98288,22.49825],[76.98245,22.49781],[76.98294,22.49751],[76.98277,22.49678],[76.98238,22.49669],[76.98156,22.49685],[76.98155,22.49712],[76.98122,22.49733],[76.98162,22.49874],[76.98225,22.49881],[76.98288,22.49825]]]}},{"type":"Feature","bbox":[76.98154,22.49874,76.98962,22.50247],"properties":{"ward":12,"name":"Sant Aatmaram Baba Ward"},"geometry":{"type":"Polygon","coordinates":[[[76.98962,22.50175],[76.98931,22.50154],[76.98884,22.5015],[76.98868,22.50095],[76.98738,22.50092],[76.98636,22.50003],[76.98545,22.49957],[76.98159,22.49874],[76.98154,22.50059],[76.98409,22.50081],[76.98537,22.50061],[76.98642,22.50065],[76.98689,22.50084],[76.98697,22.50214],[76.9879,22.50237],[76.98825,22.50189],[76.98862,22.50186],[76.98958,22.50247],[76.98962,22.50175]]]}},{"type":"Feature","bbox":[76.98225,22.49725,76.9841,22.49921],"properties":{"ward":13,"name":"Dr. Ambedkar Ward"},"geometry":{"type":"Polygon","coordinates":[[[76.98402,22.49725],[76.98334,22.49795],[76.98225,22.49881],[76.9841,22.49921],[76.98402,22.49725]]]}},{"type":"Feature","bbox":[76.98245,22.49458,76.98557,22.49825],"properties":{"ward":14,"name":"Sardar Patel Ward"},"geometry":{"type":"Polygon","coordinates":[[[76.98288,22.49825],[76.98458,22.49657],[76.98557,22.49596],[76.98552,22.49477],[76.98396,22.49458],[76.98383,22.49607],[76.98337,22.49635],[76.98255,22.4963],[76.98294,22.49751],[76.98245,22.49781],[76.98288,22.49825]]]}},{"type":"Feature","bbox":[76.98402,22.49485,76.99195,22.50175],"properties":{"ward":15,"name":"Maharana Pratap Ward"},"geometry":{"type":"Polygon","coordinates":[[[76.98552,22.49485],[76.98557,22.49596],[76.98458,22.49657],[76.98402,22.49725],[76.9841,22.49921],[76.98618,22.49991],[76.98738,22.50092],[76.98868,22.50095],[76.98884,22.5015],[76.98931,22.50154],[76.98962,22.50175],[76.98999,22.50168],[76.9898,22.49864],[76.99163,22.49849],[76.99195,22.4976],[76.99188,22.49501],[76.98989,22.4951],[76.98552,22.49485]]]}}]}