{"type":"FeatureCollection","features":[{"type":"Feature","bbox":[77.57184,20.91069,77.5922,20.93227],"properties":{"ward":1},"geometry":{"type":"Polygon","coordinates":[[[77.57946,20.93227],[77.58199,20.93161],[77.58402,20.93161],[77.58614,20.92819],[77.58825,20.92565],[77.58879,20.92432],[77.59044,20.91834],[77.5913,20.9172],[77.5922,20.91684],[77.59207,20.91596],[77.58978,20.91069],[77.5846,20.91198],[77.58333,20.91212],[77.58267,20.91162],[77.57593,20.91303],[77.57193,20.9141],[77.5723,20.91505],[77.57184,20.91575],[77.57282,20.91879],[77.57279,20.9205],[77.57374,20.92196],[77.57417,20.92222],[77.57548,20.92456],[77.57574,20.92538],[77.5761,20.92562],[77.57621,20.92708],[77.57946,20.93227]]]}},{"type":"Feature","bbox":[77.56803,20.89782,77.60257,20.9322],"properties":{"ward":2},"geometry":{"type":"MultiPolygon","coordinates":[[[[77.56915,20.91],[77.56941,20.91043],[77.56936,20.90918],[77.56915,20.91]]],[[[77.56941,20.91043],[77.56941,20.91056],[77.56947,20.91054],[77.56941,20.91043]]],[[[77.56947,20.91054],[77.57137,20.91372],[77.57595,20.9131],[77.58237,20.91153],[77.5834,20.91191],[77.58667,20.91108],[77.58982,20.91077],[77.59257,20.91688],[77.58888,20.92317],[77.58892,20.92475],[77.58449,20.93027],[77.58432,20.9322],[77.58467,20.93095],[77.58477,20.93187],[77.58588,20.93044],[77.58907,20.92791],[77.59169,20.92816],[77.59268,20.92742],[77.59415,20.92779],[77.59481,20.92878],[77.595,20.92937],[77.59569,20.92467],[77.59685,20.92133],[77.60038,20.91521],[77.60218,20.91031],[77.60085,20.90914],[77.60095,20.908],[77.60257,20.90823],[77.60245,20.90678],[77.60224,20.90689],[77.60203,20.90651],[77.60164,20.90661],[77.60155,20.9064],[77.60088,20.90658],[77.60097,20.9069],[77.60042,20.90711],[77.60026,20.90782],[77.59439,20.9067],[77.59249,20.90431],[77.58158,20.90235],[77.57925,20.90128],[77.57865,20.90076],[77.57735,20.90022],[77.57543,20.90005],[77.57124,20.89838],[77.56941,20.89782],[77.56825,20.90254],[77.56803,20.90622],[77.57025,20.90995],[77.57035,20.91038],[77.56947,20.91054]]]]}},{"type":"Feature","bbox":[77.59557,20.90758,77.61391,20.93486],"properties":{"ward":3},"geometry":{"type":"Polygon","coordinates":[[[77.59557,20.92941],[77.59829,20.93486],[77.60092,20.9339],[77.6079,20.93043],[77.61189,20.92979],[77.61231,20.91942],[77.61329,20.91673],[77.61391,20.91552],[77.61161,20.91376],[77.60995,20.91142],[77.61017,20.90994],[77.6081,20.90931],[77.60486,20.90881],[77.60488,20.90758],[77.60345,20.90765],[77.60334,20.90836],[77.60111,20.90816],[77.60088,20.90913],[77.60236,20.91026],[77.59834,20.91884],[77.5957,20.92382],[77.59557,20.92941]]]}},{"type":"Feature","bbox":[77.60629,20.89736,77.61993,20.91517],"properties":{"ward":4},"geometry":{"type":"Polygon","coordinates":[[[77.61476,20.90761],[77.61359,20.90664],[77.61561,20.90476],[77.61753,20.90379],[77.61993,20.90311],[77.61905,20.90082],[77.61839,20.9009],[77.61744,20.89736],[77.61459,20.89844],[77.61129,20.90062],[77.61204,20.90209],[77.61264,20.90195],[77.61361,20.90465],[77.61153,20.90464],[77.60993,20.90489],[77.60857,20.9055],[77.6066,20.90582],[77.60675,20.90633],[77.60629,20.90657],[77.60645,20.9079],[77.60745,20.90769],[77.60811,20.90924],[77.60992,20.90961],[77.60997,20.91089],[77.61265,20.91517],[77.61382,20.91512],[77.6151,20.91419],[77.61579,20.91316],[77.61816,20.91064],[77.61827,20.90926],[77.61848,20.90893],[77.61723,20.90917],[77.61642,20.90821],[77.61476,20.90761]]]}},{"type":"Feature","bbox":[77.60243,20.9063,77.60808,20.90926],"properties":{"ward":5},"geometry":{"type":"Polygon","coordinates":[[[77.60475,20.90751],[77.60491,20.90866],[77.60808,20.90926],[77.60743,20.90773],[77.60648,20.90789],[77.60641,20.90729],[77.60507,20.90738],[77.60505,20.90668],[77.60471,20.90666],[77.60471,20.90644],[77.60352,20.9063],[77.60243,20.9068],[77.60256,20.90829],[77.60332,20.90843],[77.60341,20.90741],[77.60475,20.90751]]]}},{"type":"Feature","bbox":[77.60469,20.90642,77.60645,20.90739],"properties":{"ward":6},"geometry":{"type":"Polygon","coordinates":[[[77.60626,20.90645],[77.60469,20.90642],[77.60469,20.90666],[77.60506,20.90668],[77.60509,20.90739],[77.60645,20.9073],[77.60626,20.90645]]]}},{"type":"Feature","bbox":[77.60353,20.90583,77.60678,20.90654],"properties":{"ward":7},"geometry":{"type":"Polygon","coordinates":[[[77.60423,20.90592],[77.60362,20.90607],[77.60353,20.90626],[77.60504,20.90647],[77.60622,20.9064],[77.60627,20.90654],[77.60678,20.90633],[77.60661,20.90583],[77.6059,20.90599],[77.60423,20.90592]]]}},{"type":"Feature","bbox":[77.60077,20.9056,77.60352,20.90688],"properties":{"ward":8},"geometry":{"type":"Polygon","coordinates":[[[77.60087,20.90659],[77.60156,20.9064],[77.60163,20.90661],[77.60204,20.90646],[77.60224,20.90688],[77.60352,20.90628],[77.6026,20.90593],[77.60226,20.9056],[77.60179,20.9058],[77.60185,20.90596],[77.60077,20.90619],[77.60087,20.90659]]]}},{"type":"Feature","bbox":[77.58077,20.89601,77.60225,20.90773],"properties":{"ward":9},"geometry":{"type":"Polygon","coordinates":[[[77.60058,20.90515],[77.59996,20.9041],[77.59854,20.90261],[77.5975,20.90218],[77.59724,20.90111],[77.59602,20.90043],[77.59506,20.89949],[77.59438,20.89932],[77.59265,20.89601],[77.59121,20.89618],[77.58907,20.89617],[77.58077,20.89772],[77.58085,20.90216],[77.58966,20.90362],[77.59335,20.90464],[77.59379,20.90499],[77.59411,20.90623],[77.59442,20.90657],[77.60005,20.90773],[77.60049,20.90715],[77.60028,20.90634],[77.60185,20.90597],[77.6018,20.9058],[77.60225,20.9056],[77.60203,20.90532],[77.60066,20.90572],[77.60058,20.90515]]]}},{"type":"Feature","bbox":[77.59265,20.89393,77.60387,20.90629],"properties":{"ward":10},"geometry":{"type":"Polygon","coordinates":[[[77.60279,20.90023],[77.60123,20.89769],[77.59946,20.89558],[77.59924,20.89444],[77.59652,20.89393],[77.59647,20.89443],[77.59454,20.8947],[77.59488,20.89491],[77.59418,20.89539],[77.59345,20.89551],[77.59265,20.89603],[77.5944,20.89928],[77.5951,20.8996],[77.59726,20.90121],[77.59749,20.90218],[77.59852,20.90258],[77.59991,20.90408],[77.60055,20.9051],[77.60069,20.90571],[77.60201,20.90533],[77.60252,20.9059],[77.60353,20.90629],[77.60361,20.90587],[77.60349,20.90573],[77.60344,20.90453],[77.60384,20.90379],[77.60278,20.90368],[77.60275,20.90326],[77.60387,20.90245],[77.60279,20.90023]]]}},{"type":"Feature","bbox":[77.60349,20.90412,77.60432,20.90583],"properties":{"ward":11},"geometry":{"type":"Polygon","coordinates":[[[77.60366,20.90583],[77.60432,20.90532],[77.60404,20.90469],[77.60429,20.90446],[77.60415,20.90412],[77.60373,20.90412],[77.60349,20.90456],[77.60366,20.90583]]]}},{"type":"Feature","bbox":[77.60359,20.90494,77.60693,20.90606],"properties":{"ward":12},"geometry":{"type":"Polygon","coordinates":[[[77.60359,20.90606],[77.60423,20.90593],[77.6059,20.906],[77.60693,20.90577],[77.60685,20.90541],[77.60647,20.90556],[77.60635,20.90494],[77.60593,20.90509],[77.60587,20.90495],[77.60505,20.90498],[77.60468,20.90512],[77.60359,20.90606]]]}},{"type":"Feature","bbox":[77.60685,20.90435,77.60922,20.90576],"properties":{"ward":13},"geometry":{"type":"Polygon","coordinates":[[[77.60685,20.9054],[77.60692,20.90576],[77.60922,20.90532],[77.60904,20.90478],[77.60868,20.90468],[77.60834,20.90478],[77.60825,20.90435],[77.60798,20.90436],[77.60727,20.9054],[77.60685,20.9054]]]}},{"type":"Feature","bbox":[77.60613,20.89431,77.61743,20.90553],"properties":{"ward":14},"geometry":{"type":"Polygon","coordinates":[[[77.60613,20.90298],[77.60706,20.90366],[77.60659,20.9042],[77.60631,20.90429],[77.6065,20.90553],[77.60723,20.90541],[77.60804,20.90433],[77.60827,20.90439],[77.60835,20.90478],[77.60906,20.90476],[77.60927,20.90527],[77.60994,20.90491],[77.61172,20.90461],[77.61362,20.90457],[77.61308,20.90286],[77.6126,20.90196],[77.61206,20.90207],[77.61127,20.90065],[77.6146,20.89843],[77.61743,20.89736],[77.61698,20.89431],[77.61407,20.8952],[77.61354,20.89489],[77.6089,20.89575],[77.60813,20.89897],[77.60806,20.90081],[77.6063,20.90181],[77.60613,20.90298]]]}},{"type":"Feature","bbox":[77.60499,20.90296,77.60708,20.90505],"properties":{"ward":15},"geometry":{"type":"Polygon","coordinates":[[[77.60603,20.90436],[77.60576,20.90459],[77.60594,20.90505],[77.60638,20.90495],[77.6063,20.90429],[77.60708,20.90369],[77.60609,20.90296],[77.60499,20.90322],[77.60511,20.90354],[77.60569,20.90363],[77.60603,20.90436]]]}},{"type":"Feature","bbox":[77.60406,20.90321,77.60601,20.90535],"properties":{"ward":16},"geometry":{"type":"Polygon","coordinates":[[[77.60428,20.90415],[77.60431,20.90448],[77.60406,20.90456],[77.60433,20.90493],[77.6044,20.90535],[77.60502,20.90498],[77.60587,20.90492],[77.60576,20.90462],[77.60601,20.90436],[77.60586,20.90391],[77.60569,20.90363],[77.6051,20.90355],[77.60498,20.90321],[77.60472,20.9033],[77.6048,20.90387],[77.60428,20.90415]]]}},{"type":"Feature","bbox":[77.59343,20.87695,77.6103,20.90417],"properties":{"ward":17},"geometry":{"type":"MultiPolygon","coordinates":[[[[77.59514,20.88419],[77.59536,20.88304],[77.59343,20.88225],[77.59514,20.88419]]],[[[77.59536,20.88304],[77.59769,20.88522],[77.60531,20.88602],[77.60666,20.88584],[77.60463,20.88393],[77.60391,20.88216],[77.6028,20.88095],[77.60174,20.88008],[77.60156,20.87955],[77.60048,20.8793],[77.59954,20.88056],[77.59907,20.88014],[77.5992,20.88289],[77.59577,20.88098],[77.59536,20.88304]]],[[[77.60156,20.87955],[77.60315,20.87992],[77.60113,20.87695],[77.60031,20.87796],[77.60072,20.879],[77.60156,20.87955]]],[[[77.60531,20.88602],[77.59916,20.88684],[77.60101,20.89262],[77.60227,20.89391],[77.6029,20.8955],[77.60467,20.9014],[77.60345,20.90165],[77.60385,20.90245],[77.60274,20.90326],[77.60278,20.90368],[77.60372,20.90373],[77.60386,20.90379],[77.60372,20.90404],[77.60425,20.90417],[77.60478,20.90385],[77.60471,20.90329],[77.60612,20.90293],[77.60635,20.90169],[77.60811,20.90078],[77.60819,20.89858],[77.60856,20.8976],[77.60891,20.89574],[77.60879,20.89277],[77.6103,20.88852],[77.60781,20.88764],[77.60655,20.88787],[77.60697,20.8862],[77.60531,20.88602]]]]}}]}