{"type":"FeatureCollection","features":[{"type":"Feature","bbox":[76.55487,9.68163,76.56169,9.6926],"properties":{"ward":1},"geometry":{"type":"Polygon","coordinates":[[[76.56148,9.69097],[76.56169,9.68964],[76.56119,9.68832],[76.56114,9.68202],[76.55888,9.68163],[76.55745,9.68168],[76.55736,9.68277],[76.55659,9.68582],[76.5558,9.68759],[76.55487,9.6892],[76.55522,9.68971],[76.55592,9.68977],[76.55664,9.69011],[76.55682,9.69014],[76.55697,9.68984],[76.55912,9.69024],[76.55943,9.69111],[76.55961,9.69249],[76.55984,9.6926],[76.56148,9.69097]]]}},{"type":"Feature","bbox":[76.56114,9.68202,76.57097,9.69234],"properties":{"ward":2},"geometry":{"type":"Polygon","coordinates":[[[76.56619,9.69113],[76.56698,9.68983],[76.56847,9.68933],[76.56891,9.68939],[76.56903,9.68978],[76.57097,9.6873],[76.57089,9.68633],[76.56953,9.68488],[76.56632,9.68336],[76.5639,9.68263],[76.5627,9.68264],[76.56114,9.68202],[76.56119,9.68832],[76.56169,9.68964],[76.56148,9.69097],[76.56217,9.69097],[76.56308,9.69058],[76.56306,9.69098],[76.56331,9.69154],[76.56407,9.69117],[76.56432,9.69172],[76.56463,9.69169],[76.56486,9.69198],[76.56585,9.69234],[76.56619,9.69113]]]}},{"type":"Feature","bbox":[76.56114,9.67548,76.57428,9.68418],"properties":{"ward":3},"geometry":{"type":"Polygon","coordinates":[[[76.57428,9.67874],[76.57219,9.67677],[76.57027,9.67548],[76.56795,9.67624],[76.56371,9.67824],[76.56287,9.67939],[76.56204,9.68151],[76.56114,9.68202],[76.5627,9.68264],[76.5639,9.68263],[76.56632,9.68336],[76.56811,9.68418],[76.56895,9.68292],[76.56989,9.68291],[76.57113,9.68169],[76.57164,9.68168],[76.57366,9.6799],[76.57428,9.67874]]]}},{"type":"Feature","bbox":[76.56879,9.67038,76.57998,9.67956],"properties":{"ward":4},"geometry":{"type":"Polygon","coordinates":[[[76.57998,9.67806],[76.57919,9.67733],[76.57751,9.67226],[76.5744,9.67086],[76.5733,9.67087],[76.57182,9.67038],[76.56879,9.67118],[76.57027,9.67548],[76.57219,9.67677],[76.57526,9.67956],[76.57748,9.67917],[76.57857,9.67848],[76.57998,9.67806]]]}},{"type":"Feature","bbox":[76.56811,9.67806,76.58099,9.68937],"properties":{"ward":5},"geometry":{"type":"Polygon","coordinates":[[[76.57564,9.68915],[76.57573,9.68876],[76.57698,9.68884],[76.57743,9.68673],[76.57831,9.6856],[76.5781,9.68549],[76.57818,9.68469],[76.578,9.68466],[76.57803,9.68423],[76.5788,9.68178],[76.57878,9.68105],[76.57938,9.68103],[76.57948,9.68079],[76.57981,9.68092],[76.58041,9.67982],[76.58099,9.67807],[76.57998,9.67806],[76.57857,9.67848],[76.57748,9.67917],[76.57526,9.67956],[76.57428,9.67874],[76.57366,9.6799],[76.57164,9.68168],[76.57113,9.68169],[76.56989,9.68291],[76.56895,9.68292],[76.56811,9.68418],[76.56953,9.68488],[76.57089,9.68633],[76.57097,9.6873],[76.57188,9.68803],[76.57169,9.68925],[76.57383,9.68937],[76.57564,9.68915]]]}},{"type":"Feature","bbox":[76.58299,9.67977,76.59239,9.6868],"properties":{"ward":6},"geometry":{"type":"Polygon","coordinates":[[[76.59239,9.68649],[76.59238,9.68524],[76.59152,9.68422],[76.59094,9.68221],[76.58497,9.68086],[76.58301,9.67977],[76.58299,9.68051],[76.58353,9.68203],[76.58386,9.68249],[76.58379,9.6831],[76.58446,9.68346],[76.58499,9.68414],[76.58571,9.68424],[76.58626,9.68485],[76.58692,9.68524],[76.58844,9.68532],[76.58977,9.68651],[76.59035,9.6868],[76.59088,9.68679],[76.59102,9.68657],[76.59212,9.68662],[76.59239,9.68649]]]}},{"type":"Feature","bbox":[76.59094,9.68052,76.59993,9.68649],"properties":{"ward":7},"geometry":{"type":"Polygon","coordinates":[[[76.59589,9.68541],[76.59607,9.68509],[76.5968,9.6852],[76.59829,9.685],[76.59856,9.68376],[76.59942,9.68201],[76.59993,9.68052],[76.59781,9.681],[76.59335,9.68272],[76.59094,9.68221],[76.59152,9.68422],[76.59238,9.68524],[76.59239,9.68649],[76.59295,9.68638],[76.59349,9.686],[76.59409,9.68596],[76.59467,9.68562],[76.59589,9.68541]]]}},{"type":"Feature","bbox":[76.58301,9.67552,76.59993,9.68272],"properties":{"ward":8},"geometry":{"type":"Polygon","coordinates":[[[76.59993,9.68052],[76.59922,9.67982],[76.59753,9.67907],[76.59707,9.67783],[76.59639,9.67808],[76.59536,9.67887],[76.59443,9.67888],[76.59232,9.67729],[76.59056,9.67552],[76.58885,9.67663],[76.58778,9.67779],[76.5867,9.67816],[76.58486,9.67959],[76.58301,9.67977],[76.58497,9.68086],[76.59335,9.68272],[76.59781,9.681],[76.59993,9.68052]]]}},{"type":"Feature","bbox":[76.59055,9.67054,76.5989,9.67888],"properties":{"ward":9},"geometry":{"type":"Polygon","coordinates":[[[76.59707,9.67783],[76.59701,9.67741],[76.59719,9.67693],[76.5989,9.67466],[76.59881,9.67436],[76.59811,9.67399],[76.59847,9.6731],[76.59804,9.67193],[76.5946,9.67096],[76.59311,9.67097],[76.59186,9.67054],[76.59135,9.67143],[76.59055,9.67373],[76.59056,9.67552],[76.59232,9.67729],[76.59443,9.67888],[76.59536,9.67887],[76.59639,9.67808],[76.59707,9.67783]]]}},{"type":"Feature","bbox":[76.57881,9.6698,76.59186,9.67977],"properties":{"ward":10},"geometry":{"type":"Polygon","coordinates":[[[76.59056,9.67552],[76.59055,9.67373],[76.59135,9.67143],[76.59186,9.67054],[76.59013,9.67],[76.58863,9.6698],[76.58713,9.66981],[76.58641,9.67022],[76.58654,9.67065],[76.58253,9.6736],[76.58167,9.67494],[76.58026,9.67594],[76.57881,9.67621],[76.57919,9.67733],[76.57998,9.67806],[76.58099,9.67807],[76.58168,9.67859],[76.58151,9.67914],[76.58248,9.67954],[76.58273,9.67938],[76.58301,9.67977],[76.58486,9.67959],[76.5867,9.67816],[76.58778,9.67779],[76.58885,9.67663],[76.59056,9.67552]]]}},{"type":"Feature","bbox":[76.58608,9.66233,76.59924,9.67193],"properties":{"ward":11},"geometry":{"type":"Polygon","coordinates":[[[76.596,9.66632],[76.59517,9.66562],[76.59404,9.66347],[76.59311,9.66233],[76.59202,9.66342],[76.59148,9.66467],[76.59071,9.66523],[76.58905,9.66541],[76.58799,9.66582],[76.58716,9.6656],[76.58632,9.66586],[76.58608,9.66684],[76.58647,9.66843],[76.58615,9.66944],[76.58641,9.67022],[76.58713,9.66981],[76.58863,9.6698],[76.59013,9.67],[76.59311,9.67097],[76.5946,9.67096],[76.59804,9.67193],[76.59865,9.67114],[76.59923,9.67077],[76.59924,9.67053],[76.59884,9.67009],[76.59884,9.66949],[76.59868,9.66923],[76.59783,9.66927],[76.59774,9.6686],[76.59743,9.6684],[76.5967,9.66867],[76.59635,9.66848],[76.59632,9.66771],[76.59575,9.66749],[76.596,9.66632]]]}},{"type":"Feature","bbox":[76.57784,9.65927,76.59311,9.67621],"properties":{"ward":12},"geometry":{"type":"Polygon","coordinates":[[[76.58654,9.67065],[76.58615,9.66944],[76.58647,9.66843],[76.58608,9.66684],[76.58632,9.66586],[76.58716,9.6656],[76.58799,9.66582],[76.58905,9.66541],[76.59071,9.66523],[76.59148,9.66467],[76.59202,9.66342],[76.59311,9.66233],[76.59136,9.66122],[76.59132,9.6601],[76.58716,9.65927],[76.58555,9.66025],[76.58466,9.6622],[76.58151,9.66633],[76.58301,9.66925],[76.58075,9.66994],[76.57913,9.6711],[76.57857,9.67262],[76.57784,9.67326],[76.57881,9.67621],[76.58026,9.67594],[76.58167,9.67494],[76.58253,9.6736],[76.58654,9.67065]]]}},{"type":"Feature","bbox":[76.56879,9.65871,76.58716,9.67326],"properties":{"ward":13},"geometry":{"type":"Polygon","coordinates":[[[76.58716,9.65927],[76.58545,9.65914],[76.58462,9.65871],[76.5834,9.65911],[76.58233,9.65912],[76.58161,9.65884],[76.58147,9.65926],[76.58157,9.66053],[76.58118,9.66222],[76.57754,9.6643],[76.57424,9.66778],[76.57101,9.66944],[76.56879,9.67118],[76.57182,9.67038],[76.5733,9.67087],[76.5744,9.67086],[76.57751,9.67226],[76.57784,9.67326],[76.57857,9.67262],[76.57913,9.6711],[76.58075,9.66994],[76.58301,9.66925],[76.58151,9.66633],[76.58466,9.6622],[76.58555,9.66025],[76.58716,9.65927]]]}},{"type":"Feature","bbox":[76.58109,9.64794,76.59389,9.6601],"properties":{"ward":14},"geometry":{"type":"Polygon","coordinates":[[[76.59273,9.65675],[76.59351,9.65426],[76.59389,9.65013],[76.59385,9.64963],[76.59347,9.64938],[76.59275,9.64969],[76.59199,9.65026],[76.59138,9.65028],[76.59022,9.64872],[76.58965,9.64817],[76.58906,9.64794],[76.58862,9.64817],[76.58794,9.6491],[76.58667,9.65036],[76.5818,9.65074],[76.58109,9.65038],[76.58165,9.65138],[76.58291,9.6522],[76.58252,9.65314],[76.58253,9.65429],[76.58333,9.65569],[76.58333,9.6564],[76.58462,9.65871],[76.58545,9.65914],[76.58923,9.65958],[76.59132,9.6601],[76.59168,9.65892],[76.59273,9.65675]]]}},{"type":"Feature","bbox":[76.57414,9.63745,76.58088,9.64985],"properties":{"ward":15},"geometry":{"type":"Polygon","coordinates":[[[76.57966,9.64616],[76.57904,9.64357],[76.5785,9.63944],[76.57812,9.6387],[76.57773,9.63822],[76.57687,9.63789],[76.57449,9.63745],[76.57471,9.64186],[76.57414,9.64432],[76.57416,9.64662],[76.57522,9.6471],[76.57852,9.64707],[76.58041,9.64912],[76.58088,9.64985],[76.57966,9.64616]]]}},{"type":"Feature","bbox":[76.56617,9.63093,76.57471,9.64662],"properties":{"ward":16},"geometry":{"type":"Polygon","coordinates":[[[76.57449,9.63745],[76.57357,9.637],[76.57324,9.63658],[76.57255,9.6342],[76.57211,9.63397],[76.57088,9.63425],[76.56938,9.6351],[76.56867,9.63525],[76.56792,9.635],[76.56735,9.63442],[76.56688,9.63193],[76.56642,9.63093],[76.56617,9.63249],[76.56668,9.63362],[76.56623,9.63504],[76.56627,9.64046],[76.56817,9.64379],[76.56971,9.64585],[76.5725,9.64617],[76.57416,9.64662],[76.57414,9.64432],[76.57471,9.64186],[76.57449,9.63745]]]}},{"type":"Feature","bbox":[76.56877,9.64585,76.58291,9.65429],"properties":{"ward":17},"geometry":{"type":"Polygon","coordinates":[[[76.58165,9.65138],[76.58041,9.64912],[76.57852,9.64707],[76.57522,9.6471],[76.57416,9.64662],[76.5725,9.64617],[76.56971,9.64585],[76.56968,9.64656],[76.56877,9.64795],[76.5693,9.64873],[76.57705,9.65335],[76.58253,9.65429],[76.58252,9.65314],[76.58291,9.6522],[76.58165,9.65138]]]}},{"type":"Feature","bbox":[76.55885,9.62723,76.56668,9.64046],"properties":{"ward":18},"geometry":{"type":"Polygon","coordinates":[[[76.56642,9.63093],[76.56535,9.62982],[76.56271,9.62771],[76.56122,9.62723],[76.55956,9.62733],[76.55885,9.6295],[76.55886,9.63166],[76.55923,9.6342],[76.5607,9.63613],[76.56179,9.63658],[76.56627,9.64046],[76.56623,9.63504],[76.56668,9.63362],[76.56617,9.63249],[76.56642,9.63093]]]}},{"type":"Feature","bbox":[76.55377,9.6243,76.56627,9.64152],"properties":{"ward":19},"geometry":{"type":"Polygon","coordinates":[[[76.55971,9.64152],[76.56191,9.6415],[76.56479,9.64069],[76.56627,9.64046],[76.56179,9.63658],[76.5607,9.63613],[76.55923,9.6342],[76.55886,9.63166],[76.55885,9.6295],[76.55956,9.62733],[76.55812,9.62717],[76.55747,9.62689],[76.55692,9.62605],[76.55706,9.62475],[76.55668,9.62458],[76.55664,9.62431],[76.55618,9.6243],[76.55588,9.62489],[76.55614,9.62512],[76.55604,9.62568],[76.5557,9.62582],[76.55515,9.62708],[76.55515,9.62729],[76.55562,9.62777],[76.55432,9.62755],[76.55377,9.63179],[76.55408,9.63468],[76.5547,9.63686],[76.55554,9.63811],[76.55847,9.64068],[76.55971,9.64152]]]}},{"type":"Feature","bbox":[76.5426,9.6265,76.5547,9.63686],"properties":{"ward":20},"geometry":{"type":"Polygon","coordinates":[[[76.55432,9.62755],[76.55319,9.62731],[76.55279,9.6275],[76.552,9.62751],[76.54947,9.62695],[76.54612,9.6265],[76.5459,9.62871],[76.54553,9.62985],[76.545,9.63031],[76.5443,9.63038],[76.54407,9.63097],[76.5436,9.63137],[76.54348,9.6319],[76.5426,9.63181],[76.543,9.63264],[76.54363,9.63322],[76.54383,9.63383],[76.54379,9.63461],[76.54447,9.63504],[76.54494,9.63557],[76.54947,9.63664],[76.55197,9.63662],[76.5547,9.63686],[76.55408,9.63468],[76.55377,9.63179],[76.55432,9.62755]]]}},{"type":"Feature","bbox":[76.54461,9.63557,76.55847,9.64295],"properties":{"ward":21},"geometry":{"type":"Polygon","coordinates":[[[76.55847,9.64068],[76.55554,9.63811],[76.5547,9.63686],[76.55197,9.63662],[76.54947,9.63664],[76.54494,9.63557],[76.54493,9.63965],[76.54461,9.64142],[76.54474,9.6419],[76.54544,9.64271],[76.54896,9.64276],[76.55082,9.64233],[76.55203,9.64232],[76.55542,9.64295],[76.55608,9.64265],[76.55847,9.64068]]]}},{"type":"Feature","bbox":[76.54544,9.64068,76.56103,9.64936],"properties":{"ward":22},"geometry":{"type":"Polygon","coordinates":[[[76.55877,9.64574],[76.55989,9.64386],[76.56028,9.64346],[76.56103,9.64151],[76.55971,9.64152],[76.55847,9.64068],[76.55608,9.64265],[76.55542,9.64295],[76.55203,9.64232],[76.55082,9.64233],[76.54896,9.64276],[76.54544,9.64271],[76.54575,9.64312],[76.54576,9.64395],[76.54733,9.64685],[76.54927,9.64936],[76.55155,9.64836],[76.55323,9.64716],[76.55493,9.64669],[76.55724,9.64575],[76.55877,9.64574]]]}},{"type":"Feature","bbox":[76.55877,9.64046,76.56971,9.65119],"properties":{"ward":23},"geometry":{"type":"Polygon","coordinates":[[[76.56806,9.64907],[76.56968,9.64656],[76.56971,9.64585],[76.56817,9.64379],[76.56627,9.64046],[76.56479,9.64069],[76.56191,9.6415],[76.56103,9.64151],[76.56028,9.64346],[76.55989,9.64386],[76.55877,9.64574],[76.55981,9.6459],[76.56091,9.64577],[76.56199,9.64626],[76.56281,9.64752],[76.56331,9.64936],[76.56431,9.65059],[76.56556,9.65119],[76.56598,9.65091],[76.56664,9.64993],[76.56806,9.64907]]]}},{"type":"Feature","bbox":[76.56556,9.64795,76.58333,9.6564],"properties":{"ward":24},"geometry":{"type":"Polygon","coordinates":[[[76.58253,9.65429],[76.57705,9.65335],[76.5693,9.64873],[76.56877,9.64795],[76.56806,9.64907],[76.56664,9.64993],[76.56598,9.65091],[76.56556,9.65119],[76.5667,9.65239],[76.56881,9.6534],[76.56989,9.65431],[76.57098,9.65478],[76.57407,9.65475],[76.576,9.65426],[76.57792,9.65451],[76.57963,9.65501],[76.58112,9.65591],[76.58333,9.6564],[76.58333,9.65569],[76.58253,9.65429]]]}},{"type":"Feature","bbox":[76.56989,9.65426,76.58462,9.66187],"properties":{"ward":25},"geometry":{"type":"Polygon","coordinates":[[[76.57876,9.65765],[76.58233,9.65912],[76.5834,9.65911],[76.58462,9.65871],[76.58333,9.6564],[76.58112,9.65591],[76.57963,9.65501],[76.57792,9.65451],[76.576,9.65426],[76.57407,9.65475],[76.57098,9.65478],[76.56989,9.65431],[76.57116,9.65563],[76.57192,9.65709],[76.57224,9.65864],[76.57227,9.66187],[76.57294,9.66162],[76.57413,9.66015],[76.57666,9.6582],[76.57876,9.65765]]]}},{"type":"Feature","bbox":[76.56726,9.65765,76.58161,9.67118],"properties":{"ward":26},"geometry":{"type":"Polygon","coordinates":[[[76.58161,9.65884],[76.57876,9.65765],[76.57666,9.6582],[76.57413,9.66015],[76.57294,9.66162],[76.57227,9.66187],[76.57233,9.66232],[76.57131,9.66353],[76.57098,9.66459],[76.5701,9.6658],[76.56936,9.66733],[76.56829,9.66812],[76.56799,9.66935],[76.56726,9.67077],[76.56879,9.67118],[76.57101,9.66944],[76.57424,9.66778],[76.57754,9.6643],[76.58118,9.66222],[76.58157,9.66053],[76.58147,9.65926],[76.58161,9.65884]]]}},{"type":"Feature","bbox":[76.5591,9.66187,76.57233,9.67244],"properties":{"ward":27},"geometry":{"type":"Polygon","coordinates":[[[76.56726,9.67077],[76.56799,9.66935],[76.56829,9.66812],[76.56936,9.66733],[76.5701,9.6658],[76.57098,9.66459],[76.57131,9.66353],[76.57233,9.66232],[76.57227,9.66187],[76.56778,9.66283],[76.56544,9.66446],[76.5613,9.66609],[76.56005,9.66733],[76.5591,9.6686],[76.56149,9.67244],[76.56323,9.6711],[76.56601,9.67107],[76.56726,9.67077]]]}},{"type":"Feature","bbox":[76.56414,9.6534,76.57227,9.66446],"properties":{"ward":28},"geometry":{"type":"Polygon","coordinates":[[[76.57227,9.66187],[76.57224,9.65864],[76.57192,9.65709],[76.57116,9.65563],[76.56989,9.65431],[76.56881,9.6534],[76.56815,9.65362],[76.56662,9.65483],[76.56628,9.6559],[76.56494,9.65824],[76.56414,9.66157],[76.56446,9.66303],[76.56544,9.66446],[76.56778,9.66283],[76.57227,9.66187]]]}},{"type":"Feature","bbox":[76.55708,9.64574,76.56881,9.65824],"properties":{"ward":29},"geometry":{"type":"Polygon","coordinates":[[[76.56881,9.6534],[76.5667,9.65239],[76.56556,9.65119],[76.56431,9.65059],[76.56331,9.64936],[76.56281,9.64752],[76.56199,9.64626],[76.56091,9.64577],[76.55981,9.6459],[76.55877,9.64574],[76.55708,9.64947],[76.55767,9.65133],[76.55768,9.65259],[76.55852,9.65372],[76.56011,9.65371],[76.56037,9.65546],[76.56129,9.6568],[76.56494,9.65824],[76.56628,9.6559],[76.56662,9.65483],[76.56815,9.65362],[76.56881,9.6534]]]}},{"type":"Feature","bbox":[76.54927,9.64574,76.55877,9.6555],"properties":{"ward":30},"geometry":{"type":"Polygon","coordinates":[[[76.55852,9.65372],[76.55768,9.65259],[76.55767,9.65133],[76.55708,9.64947],[76.55877,9.64574],[76.55724,9.64575],[76.55493,9.64669],[76.55323,9.64716],[76.55155,9.64836],[76.54927,9.64936],[76.55001,9.65063],[76.55073,9.65251],[76.55113,9.6555],[76.55335,9.65511],[76.55454,9.6551],[76.55655,9.65454],[76.55852,9.65372]]]}},{"type":"Feature","bbox":[76.55028,9.65371,76.56494,9.66259],"properties":{"ward":31},"geometry":{"type":"Polygon","coordinates":[[[76.56456,9.66001],[76.56494,9.65824],[76.56129,9.6568],[76.56037,9.65546],[76.56011,9.65371],[76.55852,9.65372],[76.55655,9.65454],[76.55454,9.6551],[76.55335,9.65511],[76.55113,9.6555],[76.5512,9.65644],[76.55093,9.65819],[76.55104,9.6587],[76.5506,9.65951],[76.55028,9.66099],[76.5514,9.66259],[76.55604,9.66218],[76.55899,9.66081],[76.56081,9.66079],[76.56292,9.66003],[76.56456,9.66001]]]}},{"type":"Feature","bbox":[76.5514,9.66001,76.56544,9.6686],"properties":{"ward":32},"geometry":{"type":"Polygon","coordinates":[[[76.56544,9.66446],[76.56446,9.66303],[76.56414,9.66157],[76.56456,9.66001],[76.56292,9.66003],[76.56081,9.66079],[76.55899,9.66081],[76.55604,9.66218],[76.5514,9.66259],[76.55193,9.66379],[76.55373,9.66446],[76.55624,9.66664],[76.5591,9.6686],[76.56005,9.66733],[76.5613,9.66609],[76.56544,9.66446]]]}},{"type":"Feature","bbox":[76.55115,9.6638,76.56149,9.67462],"properties":{"ward":33},"geometry":{"type":"Polygon","coordinates":[[[76.56149,9.67244],[76.5591,9.6686],[76.55624,9.66664],[76.55373,9.66446],[76.55192,9.6638],[76.55184,9.66462],[76.55228,9.66687],[76.5523,9.6679],[76.55115,9.67069],[76.55272,9.67133],[76.55684,9.67129],[76.55687,9.67462],[76.56025,9.67344],[76.56149,9.67244]]]}},{"type":"Feature","bbox":[76.54992,9.67047,76.55693,9.67773],"properties":{"ward":34},"geometry":{"type":"Polygon","coordinates":[[[76.55693,9.67729],[76.55684,9.67129],[76.55272,9.67133],[76.55047,9.67047],[76.55003,9.67131],[76.54992,9.67225],[76.55018,9.67356],[76.55058,9.67459],[76.55047,9.67518],[76.55063,9.67531],[76.55219,9.67491],[76.55227,9.67628],[76.55204,9.67666],[76.55197,9.67729],[76.55278,9.67762],[76.55374,9.67773],[76.55624,9.67715],[76.55693,9.67729]]]}},{"type":"Feature","bbox":[76.55687,9.67077,76.57027,9.68202],"properties":{"ward":35},"geometry":{"type":"Polygon","coordinates":[[[76.57027,9.67548],[76.56879,9.67118],[76.56726,9.67077],[76.56601,9.67107],[76.56323,9.6711],[76.56025,9.67344],[76.55687,9.67462],[76.55693,9.67729],[76.55757,9.67746],[76.5574,9.67945],[76.55745,9.68168],[76.55888,9.68163],[76.56114,9.68202],[76.56204,9.68151],[76.56287,9.67939],[76.56371,9.67824],[76.56795,9.67624],[76.57027,9.67548]]]}}]}