{"type":"FeatureCollection","features":[{"type":"Feature","bbox":[76.17419,10.84153,76.18486,10.84918],"properties":{"ward":1},"geometry":{"type":"Polygon","coordinates":[[[76.17521,10.84153],[76.17465,10.84365],[76.17489,10.84421],[76.17455,10.84501],[76.17419,10.84504],[76.17438,10.84523],[76.17445,10.84596],[76.17433,10.84805],[76.17503,10.84784],[76.17529,10.84802],[76.17569,10.84891],[76.17579,10.84878],[76.17659,10.84885],[76.17718,10.84918],[76.17737,10.84862],[76.17803,10.84815],[76.17832,10.84802],[76.17906,10.84824],[76.18007,10.8478],[76.18019,10.84718],[76.17998,10.8465],[76.18041,10.84625],[76.18125,10.84623],[76.18118,10.84607],[76.18165,10.84593],[76.18164,10.84557],[76.18183,10.84544],[76.18229,10.84554],[76.18209,10.84576],[76.18226,10.84596],[76.18214,10.847],[76.18351,10.84744],[76.18358,10.84703],[76.18438,10.84607],[76.18429,10.84579],[76.18486,10.84504],[76.18436,10.84472],[76.18398,10.84372],[76.18355,10.84346],[76.18206,10.84343],[76.17917,10.84383],[76.17864,10.84367],[76.17778,10.84397],[76.17755,10.84385],[76.17693,10.84249],[76.17692,10.84194],[76.17662,10.84154],[76.17521,10.84153]]]}},{"type":"Feature","bbox":[76.17662,10.83949,76.18853,10.84516],"properties":{"ward":2},"geometry":{"type":"Polygon","coordinates":[[[76.18728,10.84173],[76.18704,10.84065],[76.18681,10.84064],[76.18686,10.84045],[76.18845,10.84062],[76.18853,10.83971],[76.18624,10.83973],[76.18295,10.83949],[76.18165,10.83958],[76.17951,10.8407],[76.17836,10.84111],[76.17706,10.84116],[76.17662,10.84154],[76.17692,10.84194],[76.17693,10.84249],[76.17755,10.84385],[76.17778,10.84397],[76.17864,10.84367],[76.17917,10.84383],[76.18206,10.84343],[76.18355,10.84346],[76.18398,10.84372],[76.18436,10.84472],[76.18461,10.84493],[76.18486,10.84504],[76.18537,10.84494],[76.18535,10.84512],[76.18598,10.84516],[76.18602,10.84497],[76.18747,10.84476],[76.1876,10.8446],[76.18719,10.84338],[76.1875,10.8424],[76.18703,10.84212],[76.18728,10.84173]]]}},{"type":"Feature","bbox":[76.17706,10.83301,76.18853,10.84116],"properties":{"ward":3},"geometry":{"type":"Polygon","coordinates":[[[76.18137,10.83568],[76.1808,10.83628],[76.18037,10.83729],[76.17873,10.83824],[76.17782,10.83927],[76.17706,10.84116],[76.17836,10.84111],[76.17951,10.8407],[76.18165,10.83958],[76.18295,10.83949],[76.18624,10.83973],[76.18853,10.83971],[76.18752,10.8359],[76.18652,10.83476],[76.18448,10.83368],[76.18426,10.83344],[76.18425,10.83301],[76.18311,10.83377],[76.18306,10.83434],[76.18255,10.83538],[76.18137,10.83568]]]}},{"type":"Feature","bbox":[76.18421,10.82663,76.19258,10.83724],"properties":{"ward":4},"geometry":{"type":"Polygon","coordinates":[[[76.18583,10.83233],[76.18421,10.8322],[76.18426,10.83344],[76.185,10.83401],[76.18652,10.83476],[76.18752,10.8359],[76.18796,10.83724],[76.19014,10.83542],[76.18983,10.83349],[76.18999,10.83273],[76.1922,10.83094],[76.19258,10.83006],[76.19247,10.82816],[76.19158,10.82663],[76.19099,10.82692],[76.19038,10.82769],[76.18935,10.82936],[76.18791,10.83127],[76.18685,10.8321],[76.18583,10.83233]]]}},{"type":"Feature","bbox":[76.18983,10.82274,76.20205,10.83542],"properties":{"ward":5},"geometry":{"type":"Polygon","coordinates":[[[76.1914,10.82519],[76.19138,10.82616],[76.19247,10.82816],[76.19258,10.83006],[76.1922,10.83094],[76.18999,10.83273],[76.18983,10.83349],[76.19014,10.83542],[76.19114,10.83467],[76.19571,10.83265],[76.1947,10.83056],[76.19608,10.8291],[76.19927,10.82905],[76.19988,10.82913],[76.19997,10.8293],[76.20065,10.8293],[76.20149,10.82984],[76.20205,10.82938],[76.20174,10.82883],[76.20187,10.82826],[76.20177,10.82805],[76.20143,10.82789],[76.20168,10.82693],[76.20163,10.82657],[76.20123,10.82619],[76.20128,10.82479],[76.19877,10.82416],[76.1982,10.82362],[76.19721,10.82321],[76.19676,10.82274],[76.19366,10.82444],[76.19271,10.82439],[76.1919,10.82466],[76.1914,10.82519]]]}},{"type":"Feature","bbox":[76.18479,10.82218,76.19158,10.83233],"properties":{"ward":6},"geometry":{"type":"Polygon","coordinates":[[[76.19158,10.82663],[76.19138,10.82616],[76.1914,10.82519],[76.19093,10.82425],[76.19133,10.82314],[76.18969,10.82341],[76.18936,10.8229],[76.18929,10.82247],[76.18896,10.82218],[76.18825,10.82229],[76.18732,10.82296],[76.1873,10.82485],[76.18696,10.8252],[76.18606,10.82534],[76.18479,10.82613],[76.1852,10.82821],[76.18537,10.83036],[76.18583,10.83233],[76.18685,10.8321],[76.18791,10.83127],[76.18935,10.82936],[76.19038,10.82769],[76.19099,10.82692],[76.19158,10.82663]]]}},{"type":"Feature","bbox":[76.18224,10.81922,76.18732,10.82613],"properties":{"ward":7},"geometry":{"type":"Polygon","coordinates":[[[76.18479,10.82613],[76.18606,10.82534],[76.18696,10.8252],[76.1873,10.82485],[76.18732,10.82296],[76.1871,10.8229],[76.18703,10.82119],[76.18677,10.82088],[76.18676,10.81965],[76.18646,10.81922],[76.18498,10.81925],[76.18407,10.81944],[76.18247,10.82012],[76.18224,10.82211],[76.18235,10.82482],[76.18317,10.82575],[76.18454,10.82569],[76.18479,10.82613]]]}},{"type":"Feature","bbox":[76.18339,10.81263,76.19188,10.82341],"properties":{"ward":8},"geometry":{"type":"Polygon","coordinates":[[[76.18732,10.82296],[76.18825,10.82229],[76.18896,10.82218],[76.18929,10.82247],[76.18936,10.8229],[76.18969,10.82341],[76.19133,10.82314],[76.1913,10.8219],[76.19162,10.82125],[76.19188,10.81899],[76.19165,10.81781],[76.19174,10.81474],[76.19157,10.81292],[76.19137,10.81263],[76.19048,10.81263],[76.18969,10.81291],[76.1892,10.81354],[76.18916,10.81405],[76.1884,10.8147],[76.18533,10.81504],[76.18505,10.8153],[76.18448,10.81752],[76.18404,10.81765],[76.18355,10.81737],[76.18339,10.81976],[76.18407,10.81944],[76.18498,10.81925],[76.18658,10.81927],[76.18676,10.81965],[76.18677,10.82088],[76.18703,10.82119],[76.1871,10.8229],[76.18732,10.82296]]]}},{"type":"Feature","bbox":[76.18355,10.80881,76.19676,10.82519],"properties":{"ward":9},"geometry":{"type":"Polygon","coordinates":[[[76.18363,10.81649],[76.18355,10.81737],[76.18427,10.81765],[76.18448,10.81752],[76.18505,10.8153],[76.18533,10.81504],[76.1884,10.8147],[76.18916,10.81405],[76.1892,10.81354],[76.18969,10.81291],[76.19048,10.81263],[76.19137,10.81263],[76.19157,10.81292],[76.19174,10.81474],[76.19165,10.81781],[76.19188,10.81899],[76.19162,10.82125],[76.1913,10.8219],[76.19129,10.82344],[76.19092,10.82407],[76.19097,10.82442],[76.1914,10.82519],[76.1919,10.82466],[76.19271,10.82439],[76.19366,10.82444],[76.19676,10.82274],[76.19551,10.81778],[76.1956,10.81694],[76.19604,10.8158],[76.1958,10.81355],[76.19598,10.81258],[76.19521,10.81098],[76.1949,10.80967],[76.1941,10.80911],[76.19244,10.80881],[76.19196,10.8091],[76.19014,10.80947],[76.18609,10.81011],[76.18503,10.81349],[76.1842,10.81483],[76.18363,10.81649]]]}},{"type":"Feature","bbox":[76.1949,10.8096,76.20551,10.82479],"properties":{"ward":10},"geometry":{"type":"Polygon","coordinates":[[[76.20389,10.81948],[76.20412,10.81581],[76.20505,10.81521],[76.20528,10.81528],[76.20543,10.81507],[76.20551,10.81376],[76.20435,10.81299],[76.20333,10.81198],[76.20224,10.81193],[76.20075,10.81132],[76.19893,10.81001],[76.19805,10.80989],[76.19615,10.81016],[76.19589,10.8096],[76.19544,10.80976],[76.1949,10.80967],[76.19521,10.81098],[76.19598,10.81258],[76.1958,10.81355],[76.19604,10.8158],[76.1956,10.81694],[76.19551,10.81778],[76.19676,10.82274],[76.19721,10.82321],[76.1982,10.82362],[76.19877,10.82416],[76.20128,10.82479],[76.20222,10.82302],[76.20283,10.82272],[76.20276,10.82169],[76.2033,10.82166],[76.20389,10.81948]]]}},{"type":"Feature","bbox":[76.18885,10.80518,76.19624,10.80976],"properties":{"ward":11},"geometry":{"type":"Polygon","coordinates":[[[76.19505,10.80586],[76.19226,10.80518],[76.18992,10.8053],[76.18885,10.80579],[76.18904,10.80632],[76.18939,10.80654],[76.19056,10.80658],[76.19125,10.80679],[76.19194,10.80773],[76.19235,10.80887],[76.19318,10.80885],[76.1941,10.80911],[76.1949,10.80967],[76.19544,10.80976],[76.19587,10.80963],[76.19624,10.80877],[76.1962,10.80821],[76.19532,10.8076],[76.19496,10.80702],[76.19505,10.80586]]]}},{"type":"Feature","bbox":[76.19492,10.80348,76.20333,10.81198],"properties":{"ward":12},"geometry":{"type":"Polygon","coordinates":[[[76.20121,10.80937],[76.20086,10.80673],[76.20118,10.80677],[76.20075,10.80387],[76.20047,10.80401],[76.20001,10.80397],[76.19899,10.80359],[76.19756,10.80348],[76.19642,10.80376],[76.19594,10.80408],[76.1955,10.80467],[76.19505,10.80586],[76.19492,10.80681],[76.19532,10.8076],[76.1962,10.80821],[76.19624,10.80877],[76.19589,10.8096],[76.19615,10.81016],[76.19805,10.80989],[76.19879,10.80996],[76.20075,10.81132],[76.20224,10.81193],[76.20333,10.81198],[76.20211,10.81026],[76.20121,10.80937]]]}},{"type":"Feature","bbox":[76.19249,10.7976,76.2031,10.80586],"properties":{"ward":13},"geometry":{"type":"Polygon","coordinates":[[[76.19249,10.80522],[76.19505,10.80586],[76.1955,10.80467],[76.19594,10.80408],[76.19642,10.80376],[76.19736,10.80349],[76.19899,10.80359],[76.20001,10.80397],[76.20047,10.80401],[76.20095,10.80367],[76.20166,10.8037],[76.20255,10.80398],[76.2026,10.80293],[76.20274,10.80225],[76.2031,10.8016],[76.20303,10.80138],[76.20117,10.80077],[76.20031,10.80021],[76.19941,10.79883],[76.19922,10.79824],[76.1985,10.79766],[76.19799,10.7976],[76.19713,10.79797],[76.19651,10.798],[76.19623,10.79811],[76.19587,10.79914],[76.19428,10.79998],[76.19366,10.80075],[76.19357,10.80166],[76.19336,10.80205],[76.19264,10.80271],[76.19249,10.80522]]]}},{"type":"Feature","bbox":[76.19624,10.78476,76.20321,10.80102],"properties":{"ward":14},"geometry":{"type":"Polygon","coordinates":[[[76.20188,10.79767],[76.20199,10.79649],[76.20184,10.7963],[76.20257,10.79392],[76.20224,10.79375],[76.20217,10.79273],[76.20259,10.79258],[76.20262,10.79188],[76.20321,10.79166],[76.20314,10.78838],[76.20241,10.78758],[76.20102,10.78695],[76.20051,10.78655],[76.20045,10.78605],[76.20078,10.78546],[76.20029,10.78476],[76.19713,10.78616],[76.19744,10.78993],[76.19731,10.79122],[76.19667,10.79287],[76.19633,10.79323],[76.19659,10.79431],[76.19624,10.79744],[76.19645,10.79803],[76.19713,10.79797],[76.19799,10.7976],[76.1985,10.79766],[76.19922,10.79824],[76.19941,10.79883],[76.20031,10.80021],[76.20117,10.80077],[76.20161,10.80081],[76.2019,10.80102],[76.20203,10.79997],[76.2016,10.79785],[76.20188,10.79767]]]}},{"type":"Feature","bbox":[76.18997,10.78616,76.19745,10.79446],"properties":{"ward":15},"geometry":{"type":"Polygon","coordinates":[[[76.19063,10.79278],[76.19192,10.79405],[76.19339,10.79446],[76.19449,10.79433],[76.19598,10.7936],[76.19667,10.79287],[76.19731,10.79122],[76.19745,10.78901],[76.19713,10.78616],[76.19133,10.78849],[76.18997,10.78944],[76.19063,10.79278]]]}},{"type":"Feature","bbox":[76.1897,10.79278,76.19659,10.79843],"properties":{"ward":16},"geometry":{"type":"Polygon","coordinates":[[[76.19513,10.79836],[76.19645,10.79803],[76.19624,10.79693],[76.19659,10.79431],[76.19633,10.79323],[76.19567,10.79386],[76.19521,10.79406],[76.19449,10.79433],[76.19339,10.79446],[76.19192,10.79405],[76.19063,10.79278],[76.19051,10.79397],[76.19061,10.79597],[76.19041,10.79743],[76.1897,10.7984],[76.19091,10.79843],[76.19148,10.79826],[76.19513,10.79836]]]}},{"type":"Feature","bbox":[76.18773,10.79811,76.19623,10.80579],"properties":{"ward":17},"geometry":{"type":"Polygon","coordinates":[[[76.1897,10.7984],[76.18876,10.79871],[76.18898,10.8],[76.18886,10.80049],[76.18814,10.80099],[76.18773,10.802],[76.18892,10.80428],[76.18885,10.80579],[76.18992,10.8053],[76.19249,10.80522],[76.19264,10.80271],[76.19336,10.80205],[76.19357,10.80166],[76.19366,10.80075],[76.19428,10.79998],[76.19587,10.79914],[76.19623,10.79811],[76.19513,10.79836],[76.19148,10.79826],[76.19091,10.79843],[76.1897,10.7984]]]}},{"type":"Feature","bbox":[76.18426,10.78944,76.19063,10.80288],"properties":{"ward":18},"geometry":{"type":"Polygon","coordinates":[[[76.1897,10.7984],[76.19036,10.79757],[76.19061,10.79597],[76.19051,10.79397],[76.19063,10.79278],[76.18997,10.78944],[76.18816,10.79168],[76.18678,10.79377],[76.18426,10.79971],[76.18597,10.80272],[76.18716,10.80288],[76.1881,10.80265],[76.18773,10.802],[76.18814,10.80099],[76.18886,10.80049],[76.18898,10.8],[76.18876,10.79871],[76.1897,10.7984]]]}},{"type":"Feature","bbox":[76.17565,10.78257,76.20029,10.80263],"properties":{"ward":19},"geometry":{"type":"Polygon","coordinates":[[[76.18314,10.79915],[76.1785,10.79965],[76.17769,10.79947],[76.17688,10.80107],[76.17565,10.80255],[76.17692,10.80263],[76.18043,10.80209],[76.1825,10.8012],[76.18317,10.80072],[76.18426,10.79971],[76.18678,10.79377],[76.18816,10.79168],[76.18997,10.78944],[76.19133,10.78849],[76.19813,10.78578],[76.20029,10.78476],[76.19971,10.78371],[76.19962,10.78378],[76.19781,10.78257],[76.19687,10.78276],[76.1956,10.78328],[76.19322,10.78322],[76.19198,10.78297],[76.18857,10.78293],[76.18758,10.78264],[76.18663,10.78319],[76.18413,10.78549],[76.18336,10.78645],[76.18308,10.78922],[76.18329,10.79161],[76.18399,10.79475],[76.18458,10.79657],[76.1842,10.79809],[76.18314,10.79915]]]}},{"type":"Feature","bbox":[76.18028,10.79971,76.18604,10.8087],"properties":{"ward":20},"geometry":{"type":"Polygon","coordinates":[[[76.18028,10.80212],[76.18161,10.80367],[76.18181,10.80432],[76.18181,10.80494],[76.18146,10.80629],[76.18154,10.80665],[76.18335,10.80764],[76.1845,10.80848],[76.18518,10.8087],[76.18599,10.80824],[76.18599,10.80725],[76.18515,10.80451],[76.1857,10.80402],[76.18604,10.80335],[76.186,10.80276],[76.18426,10.79971],[76.1825,10.8012],[76.18028,10.80212]]]}},{"type":"Feature","bbox":[76.18515,10.80265,76.19235,10.81012],"properties":{"ward":21},"geometry":{"type":"Polygon","coordinates":[[[76.1881,10.80265],[76.18716,10.80288],[76.18597,10.80272],[76.18604,10.80335],[76.1857,10.80402],[76.18515,10.80451],[76.18599,10.80725],[76.18609,10.81012],[76.19014,10.80947],[76.19196,10.8091],[76.19235,10.80887],[76.19194,10.80773],[76.19125,10.80679],[76.19056,10.80658],[76.18939,10.80654],[76.18904,10.80632],[76.18885,10.80579],[76.18892,10.80428],[76.1881,10.80265]]]}},{"type":"Feature","bbox":[76.18009,10.80824,76.18609,10.81672],"properties":{"ward":22},"geometry":{"type":"Polygon","coordinates":[[[76.18363,10.81649],[76.1842,10.81483],[76.18503,10.81349],[76.18567,10.81167],[76.18609,10.81012],[76.18599,10.80824],[76.18518,10.8087],[76.18422,10.8083],[76.18397,10.80864],[76.18263,10.80921],[76.18264,10.8095],[76.18216,10.8103],[76.18181,10.81167],[76.18171,10.81182],[76.1812,10.81189],[76.18072,10.81249],[76.18049,10.81327],[76.18009,10.81386],[76.18023,10.81537],[76.18081,10.81639],[76.18172,10.81672],[76.18332,10.81642],[76.18363,10.81649]]]}},{"type":"Feature","bbox":[76.17565,10.80212,76.18422,10.80921],"properties":{"ward":23},"geometry":{"type":"Polygon","coordinates":[[[76.18263,10.80921],[76.18397,10.80864],[76.18422,10.8083],[76.18335,10.80764],[76.18154,10.80665],[76.18146,10.80629],[76.18181,10.80494],[76.18181,10.80432],[76.18161,10.80367],[76.18028,10.80212],[76.17692,10.80263],[76.17565,10.80255],[76.17566,10.80427],[76.17637,10.80533],[76.17709,10.80561],[76.17736,10.80595],[76.17831,10.80602],[76.17865,10.80622],[76.17961,10.80756],[76.18091,10.80815],[76.18128,10.80876],[76.18263,10.80921]]]}},{"type":"Feature","bbox":[76.17255,10.80252,76.18265,10.81189],"properties":{"ward":24},"geometry":{"type":"Polygon","coordinates":[[[76.17565,10.80255],[76.17465,10.80252],[76.17433,10.80272],[76.17284,10.80263],[76.17255,10.80439],[76.17263,10.80568],[76.17291,10.80667],[76.17382,10.80761],[76.17646,10.80857],[76.17797,10.80992],[76.17833,10.80997],[76.17887,10.81043],[76.17948,10.81057],[76.1812,10.81189],[76.18171,10.81182],[76.18223,10.81008],[76.18264,10.8095],[76.18265,10.80923],[76.18128,10.80876],[76.18091,10.80815],[76.17961,10.80756],[76.17865,10.80622],[76.17831,10.80602],[76.17736,10.80595],[76.17709,10.80561],[76.17637,10.80533],[76.17566,10.80427],[76.17565,10.80255]]]}},{"type":"Feature","bbox":[76.16825,10.79554,76.17769,10.8106],"properties":{"ward":25},"geometry":{"type":"Polygon","coordinates":[[[76.17045,10.79554],[76.16981,10.79699],[76.16951,10.7973],[76.17028,10.79787],[76.17041,10.79992],[76.16993,10.80049],[76.16981,10.80097],[76.16847,10.8011],[76.16825,10.80152],[76.1683,10.80197],[76.16863,10.80247],[76.1691,10.80263],[76.16946,10.80252],[76.16971,10.80311],[76.17026,10.80311],[76.17036,10.80332],[76.17079,10.80333],[76.17077,10.80302],[76.17107,10.80297],[76.17117,10.80404],[76.17102,10.80418],[76.17104,10.80471],[76.17156,10.80471],[76.17157,10.80564],[76.17182,10.80573],[76.17187,10.80603],[76.1722,10.80601],[76.1723,10.80626],[76.17257,10.80637],[76.17254,10.80698],[76.17228,10.80759],[76.17155,10.80735],[76.17156,10.80756],[76.1714,10.80761],[76.1716,10.80776],[76.17153,10.80806],[76.1721,10.80801],[76.17207,10.80842],[76.17225,10.80855],[76.17251,10.80813],[76.17288,10.80817],[76.17299,10.80844],[76.17357,10.80852],[76.17367,10.80825],[76.17396,10.80828],[76.17392,10.80864],[76.17441,10.8088],[76.17443,10.8094],[76.1754,10.80946],[76.17528,10.8106],[76.17623,10.80923],[76.17645,10.80856],[76.17382,10.80761],[76.17291,10.80667],[76.17263,10.80568],[76.17255,10.80439],[76.17284,10.80263],[76.17559,10.80262],[76.17688,10.80107],[76.17769,10.79947],[76.17569,10.7989],[76.17045,10.79554]]]}},{"type":"Feature","bbox":[76.17528,10.80856,76.18363,10.82654],"properties":{"ward":26},"geometry":{"type":"Polygon","coordinates":[[[76.17602,10.82223],[76.17608,10.82466],[76.17625,10.82511],[76.17775,10.82484],[76.17816,10.82455],[76.17926,10.8243],[76.18035,10.82429],[76.18091,10.82452],[76.18162,10.82535],[76.18213,10.8257],[76.18274,10.82654],[76.18288,10.82584],[76.18312,10.82571],[76.18256,10.82512],[76.1823,10.82457],[76.18227,10.82169],[76.18247,10.82012],[76.18339,10.81976],[76.18363,10.81649],[76.18332,10.81642],[76.18172,10.81672],[76.18081,10.81639],[76.18023,10.81537],[76.18009,10.81386],[76.18049,10.81327],[76.18072,10.81249],[76.1812,10.81189],[76.17948,10.81057],[76.17887,10.81043],[76.17833,10.80997],[76.17759,10.80968],[76.17645,10.80856],[76.17623,10.80923],[76.17528,10.8106],[76.17559,10.81113],[76.17633,10.81082],[76.17643,10.81103],[76.17572,10.81147],[76.17565,10.81163],[76.17585,10.8119],[76.17608,10.81197],[76.17602,10.8115],[76.17634,10.81138],[76.17658,10.81137],[76.17682,10.8117],[76.17705,10.81165],[76.17742,10.81258],[76.17722,10.81282],[76.17874,10.81566],[76.17787,10.81597],[76.17737,10.81637],[76.17722,10.81626],[76.17693,10.81636],[76.17648,10.81658],[76.1763,10.81685],[76.17655,10.81726],[76.17728,10.81678],[76.17771,10.81718],[76.17719,10.81733],[76.17699,10.81759],[76.17708,10.81795],[76.1769,10.81893],[76.17649,10.81923],[76.17568,10.81948],[76.17546,10.82137],[76.17602,10.82223]]]}},{"type":"Feature","bbox":[76.18114,10.82569,76.18583,10.83568],"properties":{"ward":27},"geometry":{"type":"Polygon","coordinates":[[[76.18425,10.83301],[76.18421,10.8322],[76.18583,10.83233],[76.18537,10.83036],[76.1852,10.82821],[76.18486,10.82624],[76.18454,10.82569],[76.18312,10.82571],[76.18288,10.82584],[76.18281,10.82644],[76.18203,10.82823],[76.18231,10.82883],[76.1823,10.8301],[76.18206,10.83081],[76.18199,10.83239],[76.18114,10.83508],[76.18116,10.83542],[76.18137,10.83568],[76.18255,10.83538],[76.18306,10.83434],[76.18311,10.83377],[76.18425,10.83301]]]}},{"type":"Feature","bbox":[76.17504,10.82429,76.18274,10.84154],"properties":{"ward":28},"geometry":{"type":"Polygon","coordinates":[[[76.1751,10.83673],[76.17504,10.83735],[76.17549,10.83821],[76.17536,10.8383],[76.17514,10.84066],[76.17521,10.84153],[76.17662,10.84154],[76.17706,10.84116],[76.17762,10.83964],[76.17831,10.83867],[76.17873,10.83824],[76.18037,10.83729],[76.1808,10.83628],[76.18137,10.83568],[76.18116,10.83542],[76.18114,10.83508],[76.18199,10.83239],[76.18206,10.83081],[76.1823,10.8301],[76.18231,10.82883],[76.18202,10.82829],[76.18274,10.82654],[76.18213,10.8257],[76.18162,10.82535],[76.18091,10.82452],[76.18035,10.82429],[76.17926,10.8243],[76.17816,10.82455],[76.17775,10.82484],[76.17625,10.82511],[76.17669,10.82538],[76.1771,10.8252],[76.17736,10.82562],[76.17735,10.82618],[76.17701,10.82716],[76.17711,10.82726],[76.17674,10.82796],[76.17721,10.82816],[76.17715,10.82858],[76.1768,10.82893],[76.17693,10.82917],[76.17668,10.82927],[76.17661,10.82992],[76.17562,10.8302],[76.17535,10.83067],[76.17535,10.83178],[76.17509,10.83196],[76.17539,10.83406],[76.17526,10.83448],[76.17509,10.8345],[76.17523,10.83495],[76.17552,10.83505],[76.17573,10.83536],[76.17548,10.83589],[76.17559,10.83673],[76.1751,10.83673]]]}}]}