{"type":"FeatureCollection","features":[{"type":"Feature","bbox":[79.82791,21.07108,79.83366,21.08228],"properties":{"ward":1},"geometry":{"type":"Polygon","coordinates":[[[79.82964,21.07175],[79.82891,21.07179],[79.8287,21.07294],[79.82805,21.07453],[79.82791,21.07532],[79.82814,21.07547],[79.82815,21.07598],[79.82844,21.07607],[79.82859,21.07759],[79.82994,21.08228],[79.83366,21.08226],[79.83228,21.07568],[79.83158,21.07475],[79.83098,21.07267],[79.83106,21.07234],[79.83072,21.0721],[79.8307,21.07127],[79.83044,21.07108],[79.82964,21.07175]]]}},{"type":"Feature","bbox":[79.83047,21.07057,79.84021,21.08224],"properties":{"ward":2},"geometry":{"type":"Polygon","coordinates":[[[79.8309,21.07063],[79.83047,21.07107],[79.83071,21.07127],[79.83074,21.07208],[79.83108,21.07234],[79.83101,21.07266],[79.83158,21.07475],[79.8323,21.07567],[79.83369,21.08224],[79.83917,21.082],[79.83956,21.08196],[79.83998,21.08168],[79.83988,21.08138],[79.84021,21.08071],[79.84011,21.0804],[79.83973,21.08053],[79.83948,21.08019],[79.83972,21.07931],[79.83996,21.07937],[79.84006,21.07901],[79.83976,21.07879],[79.83907,21.07904],[79.83832,21.07884],[79.83822,21.07869],[79.8384,21.07833],[79.83801,21.07826],[79.83766,21.07757],[79.83771,21.07735],[79.83711,21.07697],[79.83738,21.07653],[79.83731,21.07636],[79.83675,21.07586],[79.83611,21.07565],[79.83631,21.07466],[79.83603,21.07398],[79.83486,21.07311],[79.83351,21.0714],[79.83257,21.07073],[79.83191,21.07057],[79.8309,21.07063]]]}},{"type":"Feature","bbox":[79.83259,21.06965,79.84649,21.08249],"properties":{"ward":3},"geometry":{"type":"Polygon","coordinates":[[[79.83259,21.07069],[79.83404,21.07191],[79.83487,21.0731],[79.83601,21.07393],[79.83636,21.07464],[79.83619,21.07568],[79.83671,21.07583],[79.83724,21.07622],[79.83743,21.07653],[79.8372,21.07695],[79.83771,21.07735],[79.83782,21.07794],[79.83801,21.07816],[79.83851,21.07843],[79.83834,21.07877],[79.83915,21.07899],[79.83971,21.07874],[79.84006,21.07901],[79.84013,21.07914],[79.83997,21.07944],[79.83978,21.07938],[79.83955,21.08004],[79.83965,21.08042],[79.8401,21.08034],[79.84025,21.08067],[79.83995,21.08139],[79.84003,21.08169],[79.8397,21.08196],[79.84013,21.08249],[79.84112,21.0824],[79.84268,21.08152],[79.84649,21.08112],[79.84635,21.08056],[79.84553,21.07971],[79.84518,21.07965],[79.84481,21.07934],[79.84411,21.07721],[79.84346,21.0767],[79.84337,21.07624],[79.84276,21.07606],[79.84223,21.07564],[79.84276,21.07496],[79.84243,21.07379],[79.83967,21.07],[79.83626,21.07006],[79.836,21.06965],[79.83538,21.06967],[79.83373,21.06994],[79.8326,21.07032],[79.83259,21.07069]]]}},{"type":"Feature","bbox":[79.83337,21.06742,79.8594,21.0824],"properties":{"ward":4},"geometry":{"type":"Polygon","coordinates":[[[79.84087,21.06776],[79.83337,21.06888],[79.83371,21.06993],[79.83599,21.06962],[79.83627,21.07005],[79.83969,21.06998],[79.84246,21.07378],[79.8428,21.07499],[79.84226,21.07565],[79.84278,21.07605],[79.84337,21.0762],[79.84349,21.07668],[79.84415,21.07723],[79.84483,21.07931],[79.84552,21.07968],[79.84637,21.08054],[79.84659,21.08121],[79.84709,21.08112],[79.84755,21.08132],[79.8477,21.08175],[79.84817,21.082],[79.84832,21.08206],[79.84855,21.0818],[79.84914,21.08176],[79.8496,21.08213],[79.85039,21.0824],[79.85076,21.08196],[79.85161,21.08142],[79.85266,21.08133],[79.85303,21.08106],[79.85376,21.08124],[79.85431,21.08175],[79.85467,21.08187],[79.85579,21.08191],[79.85622,21.08208],[79.85639,21.08186],[79.85836,21.0818],[79.8594,21.08151],[79.85861,21.07965],[79.85809,21.07976],[79.85796,21.07847],[79.85736,21.07845],[79.8571,21.07695],[79.85518,21.0771],[79.8552,21.07619],[79.85361,21.07624],[79.85339,21.07524],[79.85237,21.07522],[79.85229,21.07396],[79.85142,21.07006],[79.84767,21.07036],[79.84734,21.06854],[79.8442,21.06879],[79.84401,21.06783],[79.84352,21.06785],[79.84345,21.06742],[79.84328,21.06745],[79.84331,21.06773],[79.8431,21.06778],[79.84307,21.06747],[79.84266,21.06755],[79.8427,21.06778],[79.84091,21.068],[79.84087,21.06776]]]}},{"type":"Feature","bbox":[79.83095,21.06889,79.8337,21.07069],"properties":{"ward":5},"geometry":{"type":"Polygon","coordinates":[[[79.83096,21.07062],[79.83197,21.07054],[79.83255,21.07069],[79.83257,21.07028],[79.8337,21.06995],[79.83336,21.06889],[79.83095,21.0693],[79.83127,21.06984],[79.83121,21.07036],[79.83096,21.07062]]]}},{"type":"Feature","bbox":[79.82891,21.06929,79.83123,21.07174],"properties":{"ward":6},"geometry":{"type":"Polygon","coordinates":[[[79.83089,21.06929],[79.82896,21.06963],[79.82891,21.07171],[79.82946,21.07174],[79.82993,21.0715],[79.83111,21.07046],[79.83123,21.06982],[79.83089,21.06929]]]}},{"type":"Feature","bbox":[79.82638,21.07294,79.82866,21.07533],"properties":{"ward":7},"geometry":{"type":"Polygon","coordinates":[[[79.827,21.07294],[79.82638,21.07493],[79.82719,21.07533],[79.82785,21.07528],[79.82806,21.07434],[79.82866,21.07296],[79.827,21.07294]]]}},{"type":"Feature","bbox":[79.82597,21.06962,79.82896,21.07294],"properties":{"ward":8},"geometry":{"type":"Polygon","coordinates":[[[79.827,21.07293],[79.82865,21.07294],[79.82896,21.07084],[79.82893,21.06962],[79.82597,21.07025],[79.82621,21.07162],[79.8276,21.07167],[79.827,21.07293]]]}},{"type":"Feature","bbox":[79.82459,21.06435,79.83041,21.0702],"properties":{"ward":9},"geometry":{"type":"Polygon","coordinates":[[[79.82528,21.06458],[79.82474,21.06485],[79.82459,21.06535],[79.82498,21.06826],[79.82534,21.06941],[79.82584,21.06927],[79.82607,21.0702],[79.82804,21.06977],[79.82799,21.06895],[79.82814,21.06851],[79.82946,21.06734],[79.83041,21.06692],[79.8302,21.06605],[79.82951,21.06511],[79.82932,21.06524],[79.82892,21.0647],[79.82876,21.06473],[79.82871,21.06443],[79.82765,21.06435],[79.82655,21.06468],[79.82528,21.06458]]]}},{"type":"Feature","bbox":[79.82802,21.06712,79.83032,21.06976],"properties":{"ward":10},"geometry":{"type":"Polygon","coordinates":[[[79.82802,21.06893],[79.82805,21.06976],[79.83032,21.06934],[79.82995,21.06885],[79.83008,21.06712],[79.82941,21.06739],[79.8283,21.06839],[79.82802,21.06893]]]}},{"type":"Feature","bbox":[79.82992,21.06689,79.83267,21.06934],"properties":{"ward":11},"geometry":{"type":"Polygon","coordinates":[[[79.83043,21.06693],[79.83011,21.06714],[79.82992,21.06827],[79.82997,21.06884],[79.83033,21.06934],[79.83267,21.06895],[79.83259,21.06737],[79.83201,21.06736],[79.83197,21.0669],[79.83169,21.06689],[79.8312,21.06701],[79.83095,21.06735],[79.83064,21.06742],[79.83043,21.06693]]]}},{"type":"Feature","bbox":[79.83053,21.06581,79.84001,21.06894],"properties":{"ward":12},"geometry":{"type":"Polygon","coordinates":[[[79.83053,21.06689],[79.83066,21.06739],[79.83093,21.06733],[79.83118,21.06699],[79.83168,21.06688],[79.83198,21.06691],[79.83203,21.06733],[79.83259,21.06737],[79.83271,21.06894],[79.83984,21.06766],[79.84001,21.06707],[79.83968,21.06661],[79.83981,21.0665],[79.8347,21.06615],[79.83258,21.06581],[79.83259,21.06656],[79.8309,21.06643],[79.83053,21.06689]]]}},{"type":"Feature","bbox":[79.83092,21.06449,79.8398,21.06654],"properties":{"ward":13},"geometry":{"type":"Polygon","coordinates":[[[79.83092,21.06643],[79.83256,21.06654],[79.83257,21.06578],[79.83538,21.06617],[79.8398,21.06645],[79.83955,21.06601],[79.83904,21.06616],[79.83889,21.06603],[79.83865,21.06509],[79.83873,21.06477],[79.83338,21.06449],[79.83145,21.06471],[79.83136,21.06563],[79.83092,21.06643]]]}},{"type":"Feature","bbox":[79.82902,21.06336,79.83902,21.06475],"properties":{"ward":14},"geometry":{"type":"Polygon","coordinates":[[[79.83162,21.06357],[79.82902,21.06426],[79.82924,21.06457],[79.83013,21.06442],[79.83143,21.0645],[79.83149,21.06469],[79.83316,21.06448],[79.83872,21.06475],[79.83902,21.06336],[79.83162,21.06357]]]}},{"type":"Feature","bbox":[79.8287,21.06443,79.83142,21.06693],"properties":{"ward":15},"geometry":{"type":"Polygon","coordinates":[[[79.83044,21.06693],[79.8313,21.0657],[79.83142,21.0645],[79.83012,21.06443],[79.82923,21.06459],[79.8287,21.06444],[79.82876,21.0647],[79.82894,21.06469],[79.82933,21.06522],[79.82952,21.06511],[79.83018,21.06598],[79.83044,21.06693]]]}},{"type":"Feature","bbox":[79.81342,21.04261,79.8316,21.06475],"properties":{"ward":16},"geometry":{"type":"Polygon","coordinates":[[[79.82389,21.05956],[79.82487,21.06475],[79.82577,21.06449],[79.82676,21.06464],[79.82754,21.06433],[79.82912,21.06451],[79.82868,21.06362],[79.82882,21.06353],[79.82872,21.06285],[79.82894,21.06279],[79.82887,21.06237],[79.83061,21.0619],[79.83064,21.06108],[79.83092,21.06079],[79.83112,21.05971],[79.831,21.05806],[79.83002,21.05664],[79.82985,21.05472],[79.8299,21.05311],[79.83003,21.05275],[79.8305,21.05227],[79.8316,21.04855],[79.83062,21.04261],[79.83011,21.04277],[79.82958,21.04376],[79.82832,21.04288],[79.82771,21.04319],[79.82657,21.04415],[79.82507,21.04442],[79.82312,21.04505],[79.82207,21.04479],[79.82196,21.04497],[79.82204,21.04641],[79.82161,21.04719],[79.82166,21.04804],[79.82138,21.0485],[79.82054,21.04864],[79.82013,21.04931],[79.81945,21.0492],[79.81957,21.05015],[79.81849,21.05067],[79.81802,21.05146],[79.8175,21.05186],[79.8174,21.0525],[79.81639,21.05269],[79.81617,21.05318],[79.81614,21.05417],[79.81575,21.05449],[79.81531,21.05538],[79.81471,21.05611],[79.81464,21.05648],[79.81342,21.05729],[79.82219,21.05719],[79.82221,21.05801],[79.82278,21.05916],[79.82305,21.05937],[79.82389,21.05956]]]}},{"type":"Feature","bbox":[79.8287,21.04134,79.84055,21.06424],"properties":{"ward":17},"geometry":{"type":"Polygon","coordinates":[[[79.82902,21.06424],[79.83161,21.06355],[79.83891,21.06333],[79.83871,21.06215],[79.83892,21.06173],[79.83937,21.06142],[79.83924,21.06178],[79.83966,21.06165],[79.83988,21.06061],[79.8405,21.06007],[79.84055,21.05974],[79.84022,21.05841],[79.83888,21.05726],[79.83832,21.05654],[79.83782,21.05636],[79.83774,21.05584],[79.83819,21.05479],[79.8376,21.05369],[79.83787,21.05229],[79.83742,21.0511],[79.83805,21.05068],[79.83615,21.04134],[79.83274,21.04162],[79.83119,21.04193],[79.83063,21.04259],[79.83163,21.04856],[79.83053,21.05228],[79.82996,21.05297],[79.82989,21.05475],[79.83005,21.05663],[79.83102,21.05805],[79.83115,21.05975],[79.831,21.06063],[79.83067,21.06115],[79.83063,21.06191],[79.82891,21.0623],[79.82895,21.06279],[79.82872,21.06286],[79.82885,21.06353],[79.8287,21.06365],[79.82902,21.06424]]]}}]}