{"type":"FeatureCollection","features":[{"type":"Feature","bbox":[75.81764,11.17277,75.83002,11.181],"properties":{"ward":1,"name":"Pathirikad"},"geometry":{"type":"Polygon","coordinates":[[[75.82877,11.181],[75.83002,11.17625],[75.82924,11.17639],[75.82826,11.17633],[75.8279,11.17649],[75.82796,11.17749],[75.82669,11.1774],[75.82624,11.17727],[75.82654,11.17621],[75.82654,11.17549],[75.8253,11.17546],[75.82434,11.17509],[75.82387,11.17473],[75.82373,11.17489],[75.82348,11.17473],[75.8229,11.17472],[75.82282,11.17455],[75.82217,11.17455],[75.82193,11.17516],[75.8214,11.1753],[75.82138,11.17485],[75.81988,11.17306],[75.81945,11.17277],[75.81876,11.17298],[75.81764,11.1741],[75.81877,11.17489],[75.82045,11.17867],[75.821,11.1793],[75.82238,11.18013],[75.82359,11.18044],[75.82877,11.181]]]}},{"type":"Feature","bbox":[75.82307,11.17072,75.83075,11.17749],"properties":{"ward":2,"name":"Kolalithara"},"geometry":{"type":"Polygon","coordinates":[[[75.83002,11.17625],[75.83075,11.17297],[75.83047,11.17298],[75.82989,11.17072],[75.82854,11.17102],[75.82757,11.17177],[75.82787,11.17287],[75.82856,11.17362],[75.82903,11.17451],[75.82916,11.17541],[75.82821,11.17569],[75.82754,11.17614],[75.82684,11.17431],[75.82632,11.17344],[75.82308,11.17217],[75.82307,11.17274],[75.82396,11.17448],[75.82387,11.17473],[75.82434,11.17509],[75.8253,11.17546],[75.82654,11.17549],[75.82654,11.17621],[75.82624,11.17727],[75.82796,11.17749],[75.8279,11.17649],[75.82826,11.17633],[75.82924,11.17639],[75.83002,11.17625]]]}},{"type":"Feature","bbox":[75.82486,11.16875,75.83075,11.17614],"properties":{"ward":3,"name":"Chenaparamb North"},"geometry":{"type":"Polygon","coordinates":[[[75.83075,11.17297],[75.83069,11.17019],[75.82979,11.1705],[75.82931,11.16988],[75.82965,11.16922],[75.82883,11.16875],[75.82846,11.16944],[75.82799,11.16948],[75.82731,11.17008],[75.82736,11.17025],[75.82667,11.17056],[75.82668,11.17089],[75.82587,11.17091],[75.82557,11.17115],[75.8251,11.17106],[75.82486,11.17281],[75.82635,11.17348],[75.82684,11.17431],[75.82754,11.17614],[75.82821,11.17569],[75.82916,11.17541],[75.82903,11.17451],[75.82856,11.17362],[75.82787,11.17287],[75.82757,11.17177],[75.82854,11.17102],[75.82989,11.17072],[75.83047,11.17298],[75.83075,11.17297]]]}},{"type":"Feature","bbox":[75.82905,11.16719,75.83531,11.17955],"properties":{"ward":4,"name":"Farook"},"geometry":{"type":"Polygon","coordinates":[[[75.82931,11.17955],[75.82978,11.17802],[75.83052,11.17689],[75.8314,11.17628],[75.83301,11.1761],[75.83469,11.17506],[75.83513,11.17443],[75.83531,11.17333],[75.83349,11.17237],[75.83344,11.17197],[75.83305,11.17184],[75.83319,11.17111],[75.83453,11.16864],[75.83431,11.16857],[75.83359,11.1677],[75.83294,11.16719],[75.83192,11.16837],[75.8306,11.16785],[75.83073,11.17323],[75.82905,11.17951],[75.82931,11.17955]]]}},{"type":"Feature","bbox":[75.82946,11.17044,75.84435,11.17913],"properties":{"ward":5,"name":"Feroke Town"},"geometry":{"type":"Polygon","coordinates":[[[75.83715,11.17733],[75.8389,11.17698],[75.83905,11.17654],[75.84018,11.17654],[75.84006,11.17575],[75.84117,11.1757],[75.84157,11.17536],[75.84135,11.17497],[75.84234,11.17429],[75.84435,11.17376],[75.84419,11.17298],[75.84396,11.17298],[75.84391,11.17221],[75.84305,11.17216],[75.84216,11.17189],[75.84067,11.17206],[75.84064,11.17152],[75.84038,11.17149],[75.84026,11.17044],[75.83952,11.17111],[75.83825,11.17173],[75.83698,11.17211],[75.83581,11.17275],[75.8353,11.17335],[75.83513,11.17443],[75.83466,11.17507],[75.83301,11.1761],[75.8314,11.17628],[75.83052,11.17689],[75.82978,11.17802],[75.82946,11.17906],[75.82992,11.17913],[75.83002,11.17875],[75.83142,11.1787],[75.83171,11.1784],[75.83278,11.17837],[75.83252,11.17774],[75.8333,11.17713],[75.83715,11.17733]]]}},{"type":"Feature","bbox":[75.82877,11.17713,75.83917,11.18426],"properties":{"ward":6,"name":"Chandakadavu"},"geometry":{"type":"Polygon","coordinates":[[[75.83715,11.18223],[75.83892,11.18236],[75.83862,11.17954],[75.83908,11.17958],[75.83917,11.17917],[75.83872,11.17853],[75.83762,11.17872],[75.83713,11.1773],[75.8333,11.17713],[75.83252,11.17774],[75.83278,11.17837],[75.83171,11.1784],[75.83142,11.1787],[75.83002,11.17875],[75.82992,11.17913],[75.82946,11.17906],[75.82931,11.17955],[75.82905,11.17951],[75.82877,11.181],[75.83088,11.18116],[75.83248,11.18156],[75.83371,11.18246],[75.83487,11.18426],[75.83711,11.18284],[75.83672,11.18235],[75.83715,11.18223]]]}},{"type":"Feature","bbox":[75.83715,11.17518,75.84295,11.18247],"properties":{"ward":7,"name":"Kottapadam"},"geometry":{"type":"Polygon","coordinates":[[[75.84295,11.17676],[75.84188,11.17518],[75.84117,11.1757],[75.84006,11.17575],[75.84018,11.17654],[75.83905,11.17654],[75.8389,11.17698],[75.83715,11.17733],[75.83762,11.17872],[75.83872,11.17853],[75.83917,11.17917],[75.83908,11.17958],[75.83862,11.17954],[75.83892,11.18236],[75.84075,11.18247],[75.84085,11.18234],[75.84091,11.18135],[75.84105,11.18128],[75.84079,11.18095],[75.84065,11.18013],[75.84028,11.1801],[75.84031,11.17901],[75.84066,11.17842],[75.8414,11.17852],[75.84131,11.1781],[75.84151,11.17787],[75.8415,11.17749],[75.84201,11.17735],[75.84295,11.17676]]]}},{"type":"Feature","bbox":[75.83487,11.17676,75.84528,11.18993],"properties":{"ward":8,"name":"Petta South"},"geometry":{"type":"Polygon","coordinates":[[[75.83958,11.18988],[75.83959,11.18912],[75.83974,11.18887],[75.83957,11.18807],[75.83977,11.18739],[75.83962,11.18567],[75.83949,11.18514],[75.83898,11.18473],[75.83903,11.18384],[75.84079,11.18434],[75.84172,11.18432],[75.84528,11.18305],[75.84402,11.18276],[75.84418,11.18129],[75.84384,11.18117],[75.84392,11.1788],[75.84347,11.17759],[75.84295,11.17676],[75.84201,11.17735],[75.8415,11.17749],[75.84151,11.17787],[75.84131,11.1781],[75.8414,11.17852],[75.84066,11.17842],[75.84031,11.17901],[75.84028,11.1801],[75.84065,11.18013],[75.84079,11.18095],[75.84105,11.18128],[75.84091,11.18135],[75.84075,11.18247],[75.83684,11.18229],[75.83672,11.18235],[75.83711,11.18284],[75.83487,11.18426],[75.83572,11.18626],[75.83631,11.18824],[75.83663,11.18993],[75.83958,11.18988]]]}},{"type":"Feature","bbox":[75.83898,11.18384,75.84489,11.18952],"properties":{"ward":9,"name":"Petta North"},"geometry":{"type":"Polygon","coordinates":[[[75.8415,11.1888],[75.84168,11.18904],[75.84243,11.1886],[75.84267,11.1888],[75.84306,11.18836],[75.84395,11.18676],[75.84448,11.18635],[75.84437,11.18613],[75.84489,11.18563],[75.84459,11.18531],[75.84451,11.1842],[75.84328,11.18417],[75.84313,11.18388],[75.84172,11.18432],[75.8409,11.18435],[75.83903,11.18384],[75.83898,11.18473],[75.83949,11.18514],[75.83962,11.18567],[75.83977,11.18739],[75.83957,11.18807],[75.83974,11.18887],[75.83959,11.18912],[75.83962,11.18952],[75.8415,11.1888]]]}},{"type":"Feature","bbox":[75.84313,11.17719,75.85227,11.18563],"properties":{"ward":10,"name":"Chungam"},"geometry":{"type":"Polygon","coordinates":[[[75.84489,11.18563],[75.84653,11.18397],[75.84717,11.18376],[75.84754,11.18385],[75.84769,11.18331],[75.84811,11.18304],[75.84976,11.18265],[75.85227,11.1824],[75.85178,11.18033],[75.84877,11.18156],[75.84849,11.18137],[75.84864,11.18097],[75.84817,11.18054],[75.84786,11.1807],[75.84771,11.18041],[75.84785,11.17905],[75.84836,11.17895],[75.84835,11.17861],[75.84935,11.17799],[75.84922,11.17719],[75.84839,11.17726],[75.84789,11.17748],[75.84749,11.17736],[75.8472,11.17755],[75.8458,11.17784],[75.84582,11.17939],[75.84399,11.17953],[75.84381,11.18042],[75.84384,11.18117],[75.84418,11.18128],[75.84402,11.18276],[75.84528,11.18305],[75.84313,11.18388],[75.84328,11.18417],[75.84449,11.18418],[75.84459,11.18531],[75.84489,11.18563]]]}},{"type":"Feature","bbox":[75.84315,11.17379,75.84922,11.17953],"properties":{"ward":11,"name":"Kakkattupara"},"geometry":{"type":"Polygon","coordinates":[[[75.84922,11.17719],[75.84875,11.17523],[75.84771,11.17507],[75.8477,11.17442],[75.84676,11.17412],[75.84669,11.17386],[75.84618,11.17379],[75.84494,11.17402],[75.84496,11.17636],[75.84376,11.17663],[75.84315,11.17703],[75.84389,11.17868],[75.84399,11.17953],[75.84582,11.17939],[75.8458,11.17784],[75.8472,11.17755],[75.84749,11.17736],[75.84789,11.17748],[75.84839,11.17726],[75.84922,11.17719]]]}},{"type":"Feature","bbox":[75.84771,11.17525,75.85225,11.18156],"properties":{"ward":12,"name":"Vazhapottathara"},"geometry":{"type":"Polygon","coordinates":[[[75.84877,11.18156],[75.85203,11.18022],[75.85199,11.1795],[75.85225,11.17805],[75.85198,11.17692],[75.85123,11.17691],[75.8511,11.17708],[75.85099,11.17696],[75.851,11.1755],[75.84876,11.17525],[75.84897,11.1765],[75.8492,11.17674],[75.84935,11.17799],[75.84835,11.17861],[75.84836,11.17895],[75.84786,11.17904],[75.84771,11.18041],[75.84786,11.1807],[75.84817,11.18054],[75.84864,11.18097],[75.84849,11.18137],[75.84877,11.18156]]]}},{"type":"Feature","bbox":[75.84134,11.17161,75.85145,11.17703],"properties":{"ward":13,"name":"Kallithodi"},"geometry":{"type":"Polygon","coordinates":[[[75.84771,11.17507],[75.851,11.1755],[75.85114,11.17493],[75.85145,11.17468],[75.85132,11.17331],[75.85111,11.17307],[75.85103,11.17181],[75.85003,11.17184],[75.84998,11.17161],[75.84835,11.17191],[75.8482,11.17236],[75.84714,11.17245],[75.84706,11.17289],[75.84608,11.17307],[75.84599,11.1733],[75.84517,11.17347],[75.84521,11.17368],[75.84268,11.17412],[75.84134,11.175],[75.84157,11.17536],[75.84197,11.17521],[75.84315,11.17703],[75.84376,11.17663],[75.84498,11.17634],[75.84495,11.174],[75.84595,11.1738],[75.84669,11.17386],[75.84676,11.17412],[75.8477,11.17442],[75.84771,11.17507]]]}},{"type":"Feature","bbox":[75.85094,11.17367,75.85554,11.1824],"properties":{"ward":14,"name":"Kunnathmotta"},"geometry":{"type":"Polygon","coordinates":[[[75.85554,11.1782],[75.85509,11.17792],[75.85516,11.17418],[75.85315,11.17394],[75.85286,11.17367],[75.85134,11.17368],[75.85145,11.17472],[75.85111,11.175],[75.85094,11.17674],[75.8511,11.17708],[75.85123,11.17691],[75.85198,11.17692],[75.85221,11.1777],[75.85203,11.18022],[75.85178,11.18033],[75.85227,11.1824],[75.85382,11.18236],[75.85426,11.1807],[75.85554,11.1782]]]}},{"type":"Feature","bbox":[75.84992,11.16874,75.85517,11.17418],"properties":{"ward":15,"name":"Kallikoodam"},"geometry":{"type":"Polygon","coordinates":[[[75.85388,11.16874],[75.85221,11.16901],[75.85188,11.16921],[75.85187,11.16958],[75.85168,11.1697],[75.84992,11.16978],[75.85001,11.17182],[75.85103,11.17181],[75.85111,11.17307],[75.85125,11.17309],[75.85135,11.17368],[75.85286,11.17367],[75.85315,11.17394],[75.85516,11.17418],[75.85517,11.17265],[75.85494,11.17158],[75.85479,11.17115],[75.8544,11.17119],[75.85388,11.16874]]]}},{"type":"Feature","bbox":[75.85388,11.16708,75.86471,11.1782],"properties":{"ward":16,"name":"Vadakebazar"},"geometry":{"type":"Polygon","coordinates":[[[75.8571,11.1766],[75.8582,11.17685],[75.8588,11.17678],[75.86092,11.17581],[75.86066,11.17534],[75.86112,11.17399],[75.86109,11.17338],[75.86138,11.17316],[75.86134,11.17287],[75.86301,11.17279],[75.8645,11.17166],[75.86471,11.17094],[75.86376,11.17001],[75.86411,11.16911],[75.86405,11.16874],[75.86272,11.16752],[75.86077,11.16708],[75.85978,11.16784],[75.86019,11.16856],[75.85978,11.1687],[75.85904,11.16826],[75.85884,11.16909],[75.85946,11.16954],[75.85952,11.17012],[75.85918,11.17105],[75.85892,11.17255],[75.85897,11.17388],[75.85928,11.1741],[75.85873,11.17574],[75.85796,11.17547],[75.85842,11.17398],[75.85804,11.17334],[75.85792,11.17251],[75.8575,11.17246],[75.85747,11.17185],[75.85636,11.17166],[75.85597,11.17024],[75.85599,11.16871],[75.85388,11.16874],[75.8544,11.17119],[75.85481,11.17118],[75.85505,11.17254],[75.85516,11.17255],[75.85509,11.17793],[75.85554,11.1782],[75.8558,11.17787],[75.85666,11.17741],[75.8571,11.1766]]]}},{"type":"Feature","bbox":[75.85377,11.16008,75.86077,11.17574],"properties":{"ward":17,"name":"Malayilthazham"},"geometry":{"type":"Polygon","coordinates":[[[75.85903,11.17186],[75.85953,11.16986],[75.85941,11.16948],[75.85884,11.16909],[75.85902,11.1683],[75.85911,11.16821],[75.85978,11.1687],[75.86019,11.16856],[75.85978,11.16784],[75.86077,11.16708],[75.86072,11.16656],[75.86022,11.16605],[75.86032,11.16475],[75.86021,11.1642],[75.85943,11.16269],[75.85947,11.16197],[75.86007,11.16097],[75.85971,11.16008],[75.85933,11.16035],[75.85947,11.16143],[75.85931,11.16144],[75.85867,11.16349],[75.85864,11.16416],[75.85883,11.16497],[75.85783,11.16532],[75.85632,11.16523],[75.8545,11.16588],[75.85459,11.1668],[75.85377,11.16826],[75.85388,11.16874],[75.85599,11.16871],[75.85597,11.17024],[75.85636,11.17166],[75.85747,11.17185],[75.8575,11.17246],[75.85792,11.17251],[75.85804,11.17334],[75.85842,11.17398],[75.85796,11.17547],[75.85871,11.17574],[75.85928,11.1741],[75.85897,11.17388],[75.85903,11.17186]]]}},{"type":"Feature","bbox":[75.85329,11.15629,75.85971,11.16556],"properties":{"ward":18,"name":"Pullikadavu"},"geometry":{"type":"Polygon","coordinates":[[[75.85642,11.16522],[75.85783,11.16532],[75.85883,11.16497],[75.85864,11.16416],[75.85867,11.16349],[75.85931,11.16144],[75.85947,11.16143],[75.85933,11.16035],[75.85971,11.16008],[75.85846,11.15793],[75.85688,11.15755],[75.85628,11.15646],[75.85576,11.15629],[75.85395,11.15649],[75.85329,11.1572],[75.8541,11.15841],[75.85408,11.15961],[75.85498,11.15988],[75.85487,11.1605],[75.85499,11.16165],[75.85571,11.16167],[75.85605,11.16219],[75.85604,11.16261],[75.85587,11.16268],[75.85591,11.1637],[75.85571,11.16458],[75.85529,11.1649],[75.85537,11.16556],[75.85642,11.16522]]]}},{"type":"Feature","bbox":[75.85185,11.1572,75.85603,11.16826],"properties":{"ward":19,"name":"Perumugham"},"geometry":{"type":"Polygon","coordinates":[[[75.85529,11.16492],[75.85571,11.16458],[75.85603,11.16206],[75.85571,11.16167],[75.85499,11.16165],[75.85487,11.1605],[75.85498,11.15988],[75.85409,11.15964],[75.8541,11.15841],[75.85329,11.1572],[75.85286,11.15766],[75.85332,11.15848],[75.85326,11.16014],[75.85332,11.16058],[75.8535,11.16061],[75.85364,11.16115],[75.85352,11.16124],[75.85355,11.16194],[75.85301,11.162],[75.85292,11.16328],[75.85388,11.16344],[75.85395,11.16484],[75.85192,11.16484],[75.85185,11.16558],[75.85236,11.16738],[75.85331,11.16811],[75.85377,11.16826],[75.85459,11.1668],[75.85447,11.16592],[75.85535,11.16559],[75.85529,11.16492]]]}},{"type":"Feature","bbox":[75.84942,11.15661,75.85393,11.16974],"properties":{"ward":20,"name":"West Perumugham"},"geometry":{"type":"Polygon","coordinates":[[[75.85049,11.16974],[75.85179,11.16966],[75.85187,11.16922],[75.85221,11.16901],[75.85388,11.16874],[75.85377,11.16826],[75.85331,11.16811],[75.85233,11.16734],[75.85184,11.16553],[75.85192,11.16484],[75.85393,11.16488],[75.85388,11.16344],[75.85292,11.16328],[75.85301,11.162],[75.85355,11.16194],[75.85352,11.16124],[75.85364,11.16115],[75.8535,11.16061],[75.85331,11.16055],[75.85332,11.15848],[75.85314,11.15805],[75.85286,11.15766],[75.85238,11.15806],[75.85176,11.15808],[75.85133,11.15776],[75.85081,11.15699],[75.85038,11.15663],[75.85013,11.15661],[75.84942,11.1569],[75.85007,11.15766],[75.84987,11.15914],[75.8505,11.15917],[75.85125,11.16427],[75.85006,11.16458],[75.85017,11.16517],[75.85055,11.16517],[75.85061,11.16574],[75.84988,11.16585],[75.84981,11.16622],[75.85021,11.16666],[75.85049,11.16974]]]}},{"type":"Feature","bbox":[75.84547,11.1569,75.85125,11.16622],"properties":{"ward":21,"name":"Kallampara"},"geometry":{"type":"Polygon","coordinates":[[[75.84998,11.16584],[75.85061,11.16574],[75.85055,11.16517],[75.85017,11.16517],[75.85006,11.16458],[75.85125,11.16427],[75.8505,11.15917],[75.84987,11.15914],[75.85007,11.15766],[75.84942,11.1569],[75.84881,11.15706],[75.84763,11.15798],[75.84676,11.15753],[75.84619,11.15866],[75.84547,11.15907],[75.84547,11.1601],[75.84567,11.16015],[75.84572,11.16055],[75.84602,11.16032],[75.84666,11.16028],[75.84774,11.15986],[75.84805,11.16064],[75.84809,11.16256],[75.84937,11.16272],[75.84954,11.16383],[75.84938,11.16521],[75.84914,11.16538],[75.84905,11.16587],[75.84981,11.16622],[75.84998,11.16584]]]}},{"type":"Feature","bbox":[75.83944,11.15728,75.84809,11.16385],"properties":{"ward":22,"name":"West Kallampara"},"geometry":{"type":"Polygon","coordinates":[[[75.84436,11.16214],[75.84461,11.16218],[75.84455,11.16264],[75.84585,11.16319],[75.84677,11.1632],[75.84686,11.16252],[75.84809,11.16256],[75.84805,11.16064],[75.84774,11.15986],[75.84666,11.16028],[75.84602,11.16032],[75.84572,11.16055],[75.84567,11.16015],[75.84547,11.16011],[75.84547,11.15907],[75.84619,11.15866],[75.84676,11.15753],[75.84538,11.15728],[75.84437,11.1575],[75.84289,11.15833],[75.84221,11.15839],[75.84068,11.15811],[75.84008,11.15814],[75.83944,11.15844],[75.84044,11.15993],[75.84047,11.16039],[75.84116,11.16123],[75.84124,11.16313],[75.84154,11.1638],[75.84231,11.16385],[75.84235,11.16327],[75.84283,11.16273],[75.84393,11.16258],[75.84436,11.16214]]]}},{"type":"Feature","bbox":[75.84229,11.16212,75.85028,11.16784],"properties":{"ward":23,"name":"Muthuvattupara"},"geometry":{"type":"Polygon","coordinates":[[[75.85028,11.16763],[75.85015,11.16652],[75.84967,11.16612],[75.84905,11.16587],[75.84914,11.16538],[75.84938,11.16521],[75.84954,11.16383],[75.84937,11.16272],[75.84686,11.16252],[75.84677,11.1632],[75.84585,11.16319],[75.84455,11.16264],[75.84461,11.16218],[75.84445,11.16212],[75.84393,11.16258],[75.84287,11.1627],[75.84235,11.16327],[75.84229,11.16628],[75.84467,11.16608],[75.84462,11.1649],[75.84558,11.16485],[75.84565,11.16472],[75.84687,11.16483],[75.84708,11.16456],[75.84755,11.16489],[75.84749,11.16581],[75.8477,11.16588],[75.84778,11.16718],[75.84856,11.16719],[75.84867,11.16784],[75.85028,11.16763]]]}},{"type":"Feature","bbox":[75.84462,11.16456,75.85049,11.17247],"properties":{"ward":24,"name":"Puthukuzhipadam"},"geometry":{"type":"Polygon","coordinates":[[[75.84998,11.17161],[75.84992,11.16978],[75.85049,11.16974],[75.85038,11.16766],[75.84867,11.16784],[75.84856,11.16719],[75.84778,11.16718],[75.8477,11.16588],[75.84749,11.16581],[75.84755,11.16489],[75.84708,11.16456],[75.84687,11.16483],[75.84565,11.16472],[75.84558,11.16485],[75.84462,11.1649],[75.84467,11.16608],[75.84527,11.16609],[75.8453,11.16824],[75.84517,11.16853],[75.84528,11.16965],[75.8455,11.17056],[75.84587,11.17052],[75.84592,11.17112],[75.84624,11.17114],[75.84629,11.17139],[75.8469,11.17134],[75.84712,11.17247],[75.84817,11.17237],[75.84835,11.17191],[75.84998,11.17161]]]}},{"type":"Feature","bbox":[75.84022,11.16607,75.84712,11.17377],"properties":{"ward":25,"name":"Nallurangadi"},"geometry":{"type":"Polygon","coordinates":[[[75.84712,11.17247],[75.8469,11.17134],[75.84629,11.17139],[75.84624,11.17114],[75.84592,11.17113],[75.84587,11.17052],[75.84551,11.17057],[75.84538,11.17019],[75.84517,11.16855],[75.8453,11.16824],[75.84526,11.16607],[75.84229,11.16628],[75.842,11.16692],[75.84145,11.16948],[75.8413,11.1696],[75.84022,11.16955],[75.84038,11.17149],[75.84064,11.17152],[75.84067,11.17206],[75.84216,11.17189],[75.84305,11.17216],[75.84391,11.17221],[75.84396,11.17298],[75.84419,11.17298],[75.84437,11.17377],[75.84521,11.17368],[75.84517,11.17347],[75.84599,11.1733],[75.84608,11.17307],[75.84706,11.17289],[75.84712,11.17247]]]}},{"type":"Feature","bbox":[75.8361,11.15844,75.84233,11.16871],"properties":{"ward":26,"name":"Nallur"},"geometry":{"type":"Polygon","coordinates":[[[75.84168,11.16871],[75.842,11.16692],[75.84233,11.1662],[75.84231,11.16385],[75.84154,11.1638],[75.84141,11.16356],[75.84124,11.16313],[75.84118,11.16128],[75.84047,11.16039],[75.84044,11.15993],[75.83944,11.15844],[75.83809,11.15919],[75.83633,11.15964],[75.83657,11.16064],[75.83682,11.16103],[75.8361,11.16141],[75.83638,11.16323],[75.8362,11.16364],[75.8367,11.16498],[75.8373,11.16489],[75.8378,11.16623],[75.838,11.1662],[75.83812,11.16647],[75.8384,11.16642],[75.83871,11.16806],[75.83981,11.16807],[75.83994,11.16835],[75.84104,11.16847],[75.84168,11.16871]]]}},{"type":"Feature","bbox":[75.82942,11.15757,75.83682,11.16548],"properties":{"ward":27,"name":"Puttekaadu"},"geometry":{"type":"Polygon","coordinates":[[[75.83622,11.16354],[75.83638,11.16323],[75.8361,11.16141],[75.83643,11.16126],[75.83682,11.16103],[75.83657,11.16064],[75.83633,11.15964],[75.83504,11.15963],[75.83345,11.15926],[75.83271,11.15847],[75.8312,11.15765],[75.83064,11.15757],[75.82942,11.15774],[75.83044,11.16441],[75.83205,11.16433],[75.83205,11.1641],[75.83401,11.16354],[75.83583,11.16548],[75.83667,11.1649],[75.83622,11.16354]]]}},{"type":"Feature","bbox":[75.83304,11.16489,75.84168,11.17333],"properties":{"ward":28,"name":"Ambalangadi"},"geometry":{"type":"Polygon","coordinates":[[[75.84026,11.17044],[75.84023,11.16953],[75.84135,11.16958],[75.84168,11.16871],[75.84104,11.16847],[75.83994,11.16835],[75.83981,11.16807],[75.83871,11.16806],[75.8384,11.16642],[75.83812,11.16647],[75.838,11.1662],[75.8378,11.16623],[75.8373,11.16489],[75.83681,11.16503],[75.83667,11.1649],[75.83583,11.16548],[75.83644,11.16635],[75.83607,11.16665],[75.8365,11.16821],[75.83624,11.16832],[75.83583,11.16805],[75.83453,11.16862],[75.83322,11.17106],[75.83304,11.17179],[75.83344,11.17197],[75.83349,11.17237],[75.83531,11.17333],[75.83607,11.17258],[75.83952,11.17111],[75.84026,11.17044]]]}},{"type":"Feature","bbox":[75.83044,11.16354,75.8365,11.16859],"properties":{"ward":29,"name":"Munnilampadam"},"geometry":{"type":"Polygon","coordinates":[[[75.83583,11.16548],[75.83401,11.16354],[75.83205,11.1641],[75.83205,11.16433],[75.83044,11.16441],[75.83058,11.16615],[75.83157,11.16637],[75.833,11.16722],[75.83436,11.16859],[75.83512,11.16842],[75.83583,11.16805],[75.83624,11.16832],[75.8365,11.16821],[75.83607,11.16665],[75.83644,11.16635],[75.83583,11.16548]]]}},{"type":"Feature","bbox":[75.825,11.15774,75.83294,11.16837],"properties":{"ward":30,"name":"Puttekadu West"},"geometry":{"type":"Polygon","coordinates":[[[75.83058,11.16615],[75.82942,11.15774],[75.82698,11.15813],[75.82673,11.15852],[75.82645,11.16082],[75.82613,11.16117],[75.82572,11.16113],[75.825,11.16237],[75.82525,11.16251],[75.82524,11.16396],[75.82847,11.16374],[75.82911,11.16394],[75.8291,11.16451],[75.8287,11.16467],[75.82881,11.16565],[75.83034,11.16548],[75.83044,11.16783],[75.83192,11.16837],[75.83294,11.16719],[75.83157,11.16637],[75.83058,11.16615]]]}},{"type":"Feature","bbox":[75.82252,11.16374,75.83068,11.16988],"properties":{"ward":31,"name":"Pootholam"},"geometry":{"type":"Polygon","coordinates":[[[75.8306,11.16785],[75.83044,11.16783],[75.83034,11.16548],[75.82881,11.16565],[75.8287,11.16467],[75.8291,11.16451],[75.8291,11.16393],[75.82847,11.16374],[75.82413,11.164],[75.82417,11.16423],[75.82287,11.16483],[75.82284,11.16566],[75.82264,11.16623],[75.82269,11.16742],[75.82252,11.16803],[75.82317,11.16833],[75.82436,11.16834],[75.8246,11.16813],[75.82497,11.16813],[75.82572,11.16908],[75.82726,11.1686],[75.82883,11.16875],[75.83068,11.16988],[75.8306,11.16785]]]}},{"type":"Feature","bbox":[75.82185,11.16813,75.83069,11.17281],"properties":{"ward":32,"name":"Chenaparamb South"},"geometry":{"type":"MultiPolygon","coordinates":[[[[75.82971,11.16926],[75.82931,11.16988],[75.82979,11.1705],[75.83069,11.17019],[75.83068,11.16988],[75.82971,11.16926]]],[[[75.82512,11.17104],[75.82557,11.17115],[75.82587,11.17091],[75.82668,11.17089],[75.82667,11.17056],[75.82736,11.17025],[75.82731,11.17008],[75.82767,11.16988],[75.82779,11.16961],[75.82848,11.16942],[75.82875,11.16876],[75.82726,11.1686],[75.82572,11.16908],[75.82497,11.16813],[75.8246,11.16813],[75.82436,11.16834],[75.82323,11.16834],[75.82295,11.16821],[75.82284,11.16868],[75.82262,11.16873],[75.82235,11.1694],[75.82215,11.1701],[75.82221,11.17083],[75.82185,11.17186],[75.82486,11.17281],[75.82512,11.17104]]]]}},{"type":"Feature","bbox":[75.81881,11.16237,75.82525,11.17186],"properties":{"ward":33,"name":"Pandipadam"},"geometry":{"type":"Polygon","coordinates":[[[75.82297,11.1682],[75.82252,11.16803],[75.82269,11.16742],[75.82264,11.16623],[75.82284,11.16566],[75.82287,11.16483],[75.82417,11.16423],[75.82413,11.164],[75.82524,11.16396],[75.82525,11.16251],[75.825,11.16237],[75.82447,11.16248],[75.82375,11.16291],[75.8229,11.16298],[75.82291,11.16323],[75.82182,11.16365],[75.81881,11.16386],[75.81909,11.16519],[75.81998,11.16494],[75.82102,11.165],[75.8212,11.1652],[75.82108,11.16651],[75.82129,11.16795],[75.82154,11.16804],[75.82146,11.16871],[75.82125,11.16876],[75.82127,11.16915],[75.82142,11.16923],[75.82138,11.16969],[75.82121,11.1697],[75.8212,11.17016],[75.82138,11.17022],[75.82127,11.17124],[75.82139,11.17131],[75.82133,11.17162],[75.82185,11.17186],[75.82221,11.17083],[75.82215,11.1701],[75.82235,11.1694],[75.82262,11.16873],[75.82284,11.16868],[75.82297,11.1682]]]}},{"type":"Feature","bbox":[75.81749,11.15612,75.82572,11.16378],"properties":{"ward":34,"name":"Thekkethala"},"geometry":{"type":"Polygon","coordinates":[[[75.8229,11.16298],[75.82375,11.16291],[75.82447,11.16248],[75.825,11.16237],[75.82572,11.16113],[75.82506,11.16049],[75.82491,11.15848],[75.8243,11.15698],[75.82387,11.15655],[75.8226,11.15612],[75.82175,11.15654],[75.82137,11.15633],[75.81985,11.15704],[75.81749,11.15977],[75.81888,11.16187],[75.81977,11.16188],[75.82009,11.16136],[75.82082,11.1613],[75.82087,11.16249],[75.82032,11.16255],[75.82039,11.16378],[75.82189,11.16363],[75.82291,11.16323],[75.8229,11.16298]]]}},{"type":"Feature","bbox":[75.8117,11.15831,75.82087,11.16456],"properties":{"ward":35,"name":"Kotharthode"},"geometry":{"type":"Polygon","coordinates":[[[75.81618,11.16426],[75.81682,11.1643],[75.81668,11.16385],[75.81817,11.16363],[75.81854,11.1636],[75.81868,11.16387],[75.82039,11.16378],[75.82032,11.16255],[75.82087,11.16249],[75.82082,11.1613],[75.82009,11.16136],[75.81977,11.16188],[75.81888,11.16187],[75.81749,11.15977],[75.81701,11.16016],[75.81602,11.16012],[75.81329,11.15834],[75.81232,11.15831],[75.81203,11.15852],[75.8118,11.15909],[75.8117,11.1601],[75.8117,11.16186],[75.81201,11.16414],[75.81372,11.16379],[75.81443,11.16456],[75.81618,11.16426]]]}},{"type":"Feature","bbox":[75.81201,11.1636,75.81909,11.1741],"properties":{"ward":36,"name":"Madathilpadam West"},"geometry":{"type":"Polygon","coordinates":[[[75.81722,11.16567],[75.81844,11.16563],[75.81909,11.1654],[75.81889,11.16405],[75.81854,11.1636],[75.81668,11.16385],[75.81681,11.1643],[75.81619,11.16425],[75.81452,11.16456],[75.81372,11.16379],[75.81201,11.16414],[75.81218,11.16519],[75.81406,11.16915],[75.81521,11.17283],[75.81764,11.1741],[75.81876,11.17298],[75.81767,11.17251],[75.81803,11.17071],[75.81793,11.17052],[75.81813,11.16894],[75.8184,11.16882],[75.81784,11.16793],[75.81722,11.16567]]]}},{"type":"Feature","bbox":[75.81721,11.16497,75.82154,11.17162],"properties":{"ward":37,"name":"Madathilpadam East"},"geometry":{"type":"Polygon","coordinates":[[[75.82135,11.17019],[75.8212,11.17014],[75.82142,11.16923],[75.82127,11.16915],[75.82125,11.16876],[75.82146,11.16871],[75.82154,11.16804],[75.82129,11.16795],[75.82108,11.16651],[75.82115,11.16514],[75.82102,11.165],[75.8195,11.16497],[75.81949,11.16513],[75.81909,11.16519],[75.81909,11.1654],[75.81876,11.16544],[75.81875,11.16557],[75.81721,11.16566],[75.81784,11.16793],[75.81894,11.16966],[75.82133,11.17162],[75.82135,11.17019]]]}},{"type":"Feature","bbox":[75.81767,11.16882,75.82396,11.1753],"properties":{"ward":38,"name":"Iriyampadam"},"geometry":{"type":"Polygon","coordinates":[[[75.82373,11.17489],[75.82396,11.17448],[75.82307,11.17274],[75.82308,11.17217],[75.82139,11.17166],[75.81898,11.16971],[75.8184,11.16882],[75.81813,11.16894],[75.81793,11.17052],[75.81803,11.17071],[75.81767,11.17251],[75.81876,11.17298],[75.81932,11.17275],[75.81988,11.17306],[75.82138,11.17485],[75.8214,11.1753],[75.82193,11.17516],[75.82217,11.17455],[75.82282,11.17455],[75.8229,11.17472],[75.82348,11.17473],[75.82373,11.17489]]]}}]}