{"type":"FeatureCollection","features":[{"type":"Feature","bbox":[76.8658,18.52079,76.8813,18.53465],"properties":{"ward":1,"name":"Lecturer Colony"},"geometry":{"type":"Polygon","coordinates":[[[76.87917,18.5215],[76.8788,18.52079],[76.86848,18.52906],[76.8658,18.52923],[76.86613,18.53074],[76.86792,18.53175],[76.86937,18.53095],[76.86956,18.52972],[76.87367,18.52626],[76.87466,18.52754],[76.8754,18.52904],[76.8751,18.53024],[76.8772,18.53142],[76.87809,18.53342],[76.87839,18.53465],[76.88082,18.53436],[76.8813,18.52975],[76.87978,18.52595],[76.87932,18.52408],[76.87917,18.5215]]]}},{"type":"Feature","bbox":[76.87884,18.52038,76.88717,18.52969],"properties":{"ward":2,"name":"Vastivaad"},"geometry":{"type":"Polygon","coordinates":[[[76.87922,18.52038],[76.87884,18.52076],[76.87924,18.52149],[76.8794,18.52409],[76.87984,18.52579],[76.8814,18.52969],[76.88366,18.52901],[76.88717,18.524],[76.8861,18.52289],[76.87922,18.52038]]]}},{"type":"Feature","bbox":[76.87571,18.51866,76.88584,18.52268],"properties":{"ward":3,"name":"Chavan Plotting"},"geometry":{"type":"Polygon","coordinates":[[[76.87914,18.52029],[76.88584,18.52268],[76.88375,18.52032],[76.88265,18.52073],[76.88093,18.51866],[76.88063,18.51889],[76.88065,18.51912],[76.88038,18.51922],[76.88023,18.51907],[76.87852,18.51946],[76.8783,18.51975],[76.87794,18.51954],[76.87571,18.51968],[76.87613,18.52205],[76.87682,18.52222],[76.87914,18.52029]]]}},{"type":"Feature","bbox":[76.85174,18.51088,76.87787,18.52086],"properties":{"ward":4,"name":"Adarsh Colony,Mahadev Mandir"},"geometry":{"type":"Polygon","coordinates":[[[76.86001,18.51266],[76.85174,18.51494],[76.85279,18.52086],[76.86969,18.51284],[76.86986,18.51416],[76.87141,18.51581],[76.87521,18.51604],[76.87577,18.51955],[76.87787,18.51946],[76.87524,18.51475],[76.8714,18.51088],[76.86674,18.51114],[76.86001,18.51266]]]}},{"type":"Feature","bbox":[76.87654,18.51654,76.87937,18.51968],"properties":{"ward":5,"name":"Rehmat Nagar, Indira Nagar"},"geometry":{"type":"Polygon","coordinates":[[[76.87654,18.5169],[76.87793,18.51948],[76.87828,18.51968],[76.8785,18.51945],[76.87937,18.5192],[76.87836,18.51673],[76.87763,18.51718],[76.87726,18.51654],[76.87654,18.5169]]]}},{"type":"Feature","bbox":[76.87841,18.51581,76.88096,18.51921],"properties":{"ward":6,"name":"Siddharth Nagar,Indira Nagar"},"geometry":{"type":"Polygon","coordinates":[[[76.87941,18.51921],[76.88026,18.51904],[76.88041,18.51916],[76.88093,18.5186],[76.88096,18.51735],[76.88019,18.5168],[76.87987,18.51581],[76.87841,18.51671],[76.87941,18.51921]]]}},{"type":"Feature","bbox":[76.87668,18.51373,76.87979,18.51708],"properties":{"ward":7,"name":"Rehmat Nagar"},"geometry":{"type":"Polygon","coordinates":[[[76.87979,18.51574],[76.87819,18.51373],[76.87668,18.51476],[76.87728,18.51648],[76.87765,18.51708],[76.87979,18.51574]]]}},{"type":"Feature","bbox":[76.87284,18.51083,76.87723,18.51686],"properties":{"ward":8,"name":"R.B. Nagar"},"geometry":{"type":"Polygon","coordinates":[[[76.8753,18.51473],[76.87652,18.51686],[76.87723,18.51646],[76.87521,18.51083],[76.87284,18.51226],[76.8753,18.51473]]]}},{"type":"Feature","bbox":[76.8751,18.50989,76.87818,18.51471],"properties":{"ward":9,"name":"Sathe Nagar"},"geometry":{"type":"Polygon","coordinates":[[[76.87642,18.50989],[76.8751,18.5104],[76.87667,18.51471],[76.87815,18.51362],[76.87818,18.51308],[76.87743,18.51097],[76.87723,18.50995],[76.87642,18.50989]]]}},{"type":"Feature","bbox":[76.87197,18.50987,76.87514,18.51218],"properties":{"ward":10,"name":"Jogwada,Sathe Nagar"},"geometry":{"type":"Polygon","coordinates":[[[76.87311,18.51012],[76.87197,18.51129],[76.87279,18.51218],[76.87514,18.51078],[76.8748,18.50987],[76.87362,18.51027],[76.87356,18.51055],[76.87335,18.51058],[76.87311,18.51012]]]}},{"type":"Feature","bbox":[76.84915,18.50704,76.87449,18.51489],"properties":{"ward":11,"name":"Limboni"},"geometry":{"type":"Polygon","coordinates":[[[76.87255,18.50765],[76.86477,18.50704],[76.86096,18.5075],[76.85834,18.50947],[76.84926,18.51241],[76.84915,18.51326],[76.8516,18.51489],[76.86643,18.5111],[76.87143,18.51079],[76.87195,18.5112],[76.8731,18.51003],[76.87449,18.50897],[76.87394,18.50879],[76.87354,18.50793],[76.87303,18.50799],[76.87255,18.50765]]]}},{"type":"Feature","bbox":[76.87314,18.50886,76.87639,18.51053],"properties":{"ward":12,"name":"Ganesh Mandir, Jadhav Galli"},"geometry":{"type":"Polygon","coordinates":[[[76.87454,18.50907],[76.87314,18.51009],[76.87337,18.51053],[76.87353,18.5105],[76.87359,18.51025],[76.87479,18.50985],[76.87503,18.51037],[76.87639,18.50986],[76.87619,18.50886],[76.87504,18.50906],[76.87487,18.50888],[76.87468,18.5091],[76.87454,18.50907]]]}},{"type":"Feature","bbox":[76.87452,18.5041,76.87669,18.50903],"properties":{"ward":13,"name":"Brahman Galli, Komti Galli"},"geometry":{"type":"Polygon","coordinates":[[[76.87452,18.50895],[76.87462,18.50903],[76.87489,18.50881],[76.87505,18.50899],[76.87624,18.50884],[76.87669,18.50826],[76.87613,18.5075],[76.87548,18.5041],[76.87526,18.50415],[76.87492,18.50463],[76.87491,18.50798],[76.87462,18.50807],[76.87452,18.50895]]]}},{"type":"Feature","bbox":[76.87165,18.50483,76.87454,18.50888],"properties":{"ward":14,"name":"Khadakpura"},"geometry":{"type":"Polygon","coordinates":[[[76.87447,18.50888],[76.87454,18.50783],[76.8727,18.50691],[76.87259,18.50637],[76.87271,18.50495],[76.87248,18.50483],[76.87165,18.50747],[76.87254,18.5076],[76.87305,18.50794],[76.87353,18.50786],[76.87395,18.5087],[76.87447,18.50888]]]}},{"type":"Feature","bbox":[76.87269,18.50557,76.87486,18.50794],"properties":{"ward":15,"name":"Peth Mohalla"},"geometry":{"type":"Polygon","coordinates":[[[76.87269,18.50563],[76.87273,18.50685],[76.8744,18.50767],[76.87466,18.50794],[76.87486,18.5079],[76.87485,18.50593],[76.87397,18.50596],[76.87288,18.50557],[76.87269,18.50563]]]}},{"type":"Feature","bbox":[76.87251,18.50358,76.87484,18.5059],"properties":{"ward":16,"name":"Jaybhawani Gali"},"geometry":{"type":"Polygon","coordinates":[[[76.87395,18.5059],[76.87481,18.50586],[76.87484,18.50494],[76.87355,18.50486],[76.8735,18.50452],[76.87392,18.50445],[76.8737,18.50372],[76.87289,18.50358],[76.87251,18.50477],[76.87274,18.50491],[76.87271,18.50558],[76.8729,18.50552],[76.87395,18.5059]]]}},{"type":"Feature","bbox":[76.86945,18.46976,76.89678,18.5048],"properties":{"ward":17,"name":"Laxmi Nagar Mahurwadi"},"geometry":{"type":"Polygon","coordinates":[[[76.88751,18.46976],[76.87864,18.49014],[76.86945,18.49481],[76.87285,18.50342],[76.8738,18.50368],[76.87413,18.5045],[76.87477,18.5048],[76.875,18.50417],[76.87558,18.50398],[76.87661,18.50279],[76.88164,18.4896],[76.88821,18.48598],[76.88802,18.4833],[76.89175,18.47901],[76.89408,18.47712],[76.89678,18.47403],[76.89205,18.47358],[76.89072,18.47053],[76.88751,18.46976]]]}}]}