{"type":"FeatureCollection","features":[{"type":"Feature","bbox":[73.22525,17.97507,73.24979,18.00046],"properties":{"ward":1,"name":"Konzardhangarwadi"},"geometry":{"type":"Polygon","coordinates":[[[73.22804,18.00046],[73.22898,17.99873],[73.23053,17.99696],[73.23098,17.99673],[73.23148,17.9969],[73.2346,17.99627],[73.23558,17.99563],[73.23623,17.99498],[73.23709,17.99491],[73.23774,17.99391],[73.23804,17.9937],[73.23846,17.99247],[73.23905,17.99233],[73.2396,17.99259],[73.24005,17.9924],[73.24026,17.99243],[73.24038,17.9928],[73.24051,17.99281],[73.24123,17.99237],[73.2417,17.99242],[73.242,17.99174],[73.24312,17.99127],[73.24362,17.99048],[73.2438,17.99073],[73.24411,17.99063],[73.24441,17.99],[73.24424,17.98809],[73.24481,17.98769],[73.24622,17.98735],[73.24682,17.98682],[73.2469,17.98667],[73.24665,17.98612],[73.2469,17.98503],[73.24767,17.98459],[73.24794,17.98361],[73.24887,17.98277],[73.24979,17.98124],[73.24973,17.98068],[73.24931,17.97987],[73.24892,17.97848],[73.24917,17.97816],[73.24929,17.97756],[73.24856,17.97754],[73.24815,17.97734],[73.2471,17.97571],[73.24627,17.97519],[73.24507,17.97529],[73.24353,17.97507],[73.24279,17.97537],[73.24278,17.97612],[73.2424,17.97761],[73.24126,17.98068],[73.23869,17.98327],[73.23842,17.98382],[73.23748,17.98482],[73.23639,17.9869],[73.23541,17.98811],[73.23511,17.98894],[73.23381,17.99012],[73.23288,17.99151],[73.23089,17.99176],[73.23068,17.99224],[73.23062,17.99329],[73.23042,17.99354],[73.23012,17.99362],[73.2295,17.99344],[73.22919,17.99318],[73.22891,17.99347],[73.2287,17.99342],[73.22835,17.99365],[73.22805,17.99393],[73.2271,17.99622],[73.22525,17.99752],[73.22571,17.99926],[73.22681,17.99944],[73.22804,18.00046]]]}},{"type":"Feature","bbox":[73.22823,17.98696,73.25068,18.00143],"properties":{"ward":2,"name":"Konzar"},"geometry":{"type":"Polygon","coordinates":[[[73.22886,17.99911],[73.22823,18.00036],[73.22865,18.00003],[73.22905,18.00103],[73.22982,18.00089],[73.23031,18.00022],[73.23055,17.99943],[73.23069,17.99933],[73.23174,17.99942],[73.23249,17.99975],[73.23309,18.00117],[73.23335,18.00143],[73.2341,18.00136],[73.23446,18.00056],[73.23574,18.00016],[73.23649,18.00033],[73.23768,18.0003],[73.23831,18.0012],[73.23889,18.00128],[73.23951,17.99983],[73.23973,17.99985],[73.23987,17.99966],[73.24,17.99975],[73.24024,17.99947],[73.24113,17.99922],[73.242,17.99845],[73.24259,17.99815],[73.24298,17.99809],[73.24339,17.99863],[73.24371,17.99879],[73.24456,17.99884],[73.24493,17.99862],[73.24504,17.99829],[73.24596,17.99766],[73.24683,17.99765],[73.24839,17.99883],[73.24891,17.99797],[73.24907,17.99718],[73.24888,17.99574],[73.24898,17.99494],[73.24989,17.99423],[73.25042,17.99427],[73.25062,17.99396],[73.25068,17.99336],[73.25006,17.99164],[73.24908,17.99081],[73.24853,17.99057],[73.24786,17.98985],[73.24693,17.98696],[73.24618,17.98761],[73.24522,17.98767],[73.24449,17.98791],[73.24425,17.98832],[73.24439,17.98843],[73.24451,17.99011],[73.2443,17.99075],[73.24358,17.99086],[73.24309,17.99138],[73.24201,17.99192],[73.2417,17.99271],[73.24129,17.99262],[73.24034,17.99301],[73.24011,17.99253],[73.23958,17.99278],[73.23929,17.99257],[73.23846,17.9926],[73.23809,17.99382],[73.23715,17.99505],[73.23631,17.99506],[73.2352,17.99604],[73.23375,17.99666],[73.23231,17.99677],[73.23155,17.99704],[73.23095,17.99686],[73.23002,17.99756],[73.22886,17.99911]]]}},{"type":"Feature","bbox":[73.24841,17.98728,73.25504,18.00008],"properties":{"ward":3,"name":"Bhekatwadi"},"geometry":{"type":"Polygon","coordinates":[[[73.24841,17.99889],[73.24913,17.99948],[73.24936,17.99925],[73.24981,17.99942],[73.2502,17.99982],[73.25092,18.00008],[73.25123,17.99973],[73.25129,17.99916],[73.25168,17.99856],[73.25193,17.99844],[73.25265,17.9985],[73.25349,17.99809],[73.25418,17.99815],[73.2549,17.99715],[73.25504,17.99567],[73.25484,17.99537],[73.25433,17.99512],[73.2543,17.99467],[73.25377,17.99448],[73.25369,17.99363],[73.25394,17.9926],[73.25412,17.99042],[73.25397,17.99009],[73.25501,17.98807],[73.25434,17.9879],[73.25368,17.98799],[73.25238,17.98785],[73.25191,17.98728],[73.25124,17.98936],[73.25135,17.99124],[73.25122,17.99144],[73.25005,17.99152],[73.25032,17.99181],[73.25075,17.99384],[73.2505,17.99432],[73.24958,17.99452],[73.24907,17.99494],[73.24893,17.9955],[73.24913,17.99647],[73.24905,17.99757],[73.24841,17.99889]]]}},{"type":"Feature","bbox":[73.25372,17.98874,73.25701,17.99817],"properties":{"ward":4,"name":"Durgwadi1"},"geometry":{"type":"Polygon","coordinates":[[[73.25477,17.98874],[73.25429,17.98935],[73.25402,17.99011],[73.25416,17.9904],[73.25399,17.99256],[73.25372,17.99364],[73.2538,17.99444],[73.25433,17.99465],[73.25438,17.99507],[73.25488,17.99529],[73.25507,17.99572],[73.2549,17.99734],[73.25424,17.99817],[73.2557,17.99797],[73.25675,17.99809],[73.25701,17.99784],[73.25685,17.99719],[73.25691,17.99582],[73.25651,17.99391],[73.25571,17.99233],[73.25598,17.99138],[73.25599,17.99032],[73.25665,17.99034],[73.25668,17.99017],[73.25543,17.98962],[73.2554,17.9892],[73.25477,17.98874]]]}},{"type":"Feature","bbox":[73.25476,17.98809,73.2561,17.98982],"properties":{"ward":5,"name":"Durgwadi2"},"geometry":{"type":"Polygon","coordinates":[[[73.25551,17.98952],[73.25605,17.98982],[73.2561,17.9892],[73.25589,17.98857],[73.25605,17.98835],[73.25506,17.98809],[73.25476,17.98867],[73.25541,17.98908],[73.25551,17.98952]]]}},{"type":"Feature","bbox":[73.25578,17.99018,73.26139,17.99794],"properties":{"ward":6,"name":"Adarshnagar"},"geometry":{"type":"Polygon","coordinates":[[[73.2568,17.99018],[73.25671,17.99048],[73.25605,17.99039],[73.25604,17.9915],[73.25578,17.99222],[73.25658,17.99388],[73.25701,17.99584],[73.25693,17.99725],[73.25716,17.99794],[73.25749,17.99774],[73.25877,17.99763],[73.25912,17.99692],[73.25947,17.99675],[73.25979,17.99686],[73.25997,17.99738],[73.26089,17.99786],[73.26103,17.99775],[73.26139,17.9956],[73.26107,17.99476],[73.26044,17.99398],[73.25959,17.99387],[73.25932,17.99296],[73.2581,17.99232],[73.25769,17.99182],[73.25781,17.99114],[73.25744,17.99099],[73.25703,17.99054],[73.25712,17.99037],[73.2568,17.99018]]]}},{"type":"Feature","bbox":[73.25682,17.98912,73.26237,17.99625],"properties":{"ward":7,"name":"Boricha Mal"},"geometry":{"type":"Polygon","coordinates":[[[73.25682,17.99013],[73.25721,17.99032],[73.2571,17.99051],[73.25784,17.99108],[73.25774,17.99176],[73.25815,17.99226],[73.25939,17.99293],[73.25969,17.99382],[73.26042,17.99391],[73.26101,17.99444],[73.26148,17.99554],[73.26143,17.99597],[73.26184,17.99625],[73.26212,17.99609],[73.26216,17.99577],[73.26237,17.99564],[73.26203,17.99468],[73.26098,17.99327],[73.2611,17.9926],[73.26074,17.99223],[73.26065,17.99183],[73.25973,17.99116],[73.25989,17.99001],[73.2597,17.98954],[73.25852,17.99033],[73.25829,17.99067],[73.25684,17.98912],[73.25682,17.99013]]]}},{"type":"Feature","bbox":[73.25637,17.98831,73.25955,17.99057],"properties":{"ward":8,"name":"Keshavsheth Lendhe Nagar"},"geometry":{"type":"Polygon","coordinates":[[[73.25674,17.98909],[73.2573,17.98937],[73.25828,17.99057],[73.25845,17.99027],[73.25955,17.98948],[73.25872,17.98893],[73.25822,17.98831],[73.25699,17.9886],[73.25637,17.98848],[73.25674,17.98909]]]}},{"type":"Feature","bbox":[73.25596,17.9884,73.25679,17.99013],"properties":{"ward":9,"name":"Sapatewadi"},"geometry":{"type":"Polygon","coordinates":[[[73.25621,17.9884],[73.25596,17.98862],[73.25611,17.98889],[73.25609,17.98983],[73.25675,17.99013],[73.25679,17.98934],[73.25621,17.9884]]]}},{"type":"Feature","bbox":[73.25212,17.9803,73.2569,17.98837],"properties":{"ward":10,"name":"Sainagar"},"geometry":{"type":"Polygon","coordinates":[[[73.25626,17.98837],[73.25591,17.98748],[73.25565,17.98554],[73.25584,17.98498],[73.25651,17.98431],[73.25679,17.98369],[73.2569,17.98091],[73.2568,17.98055],[73.2564,17.9803],[73.25544,17.98031],[73.25512,17.98035],[73.25501,17.98062],[73.25582,17.98162],[73.25593,17.98199],[73.25564,17.98233],[73.25617,17.98264],[73.25594,17.98355],[73.25513,17.98386],[73.25419,17.98367],[73.25369,17.98469],[73.25369,17.98513],[73.25319,17.98601],[73.2533,17.98642],[73.25321,17.98753],[73.25212,17.98759],[73.25247,17.98786],[73.25362,17.98796],[73.2542,17.98786],[73.25626,17.98837]]]}},{"type":"Feature","bbox":[73.25056,17.98542,73.25188,17.98744],"properties":{"ward":11,"name":"Baudhwadi 1"},"geometry":{"type":"Polygon","coordinates":[[[73.25188,17.98722],[73.2517,17.98694],[73.25159,17.98542],[73.25116,17.98574],[73.25131,17.98614],[73.25115,17.98671],[73.25064,17.98678],[73.25056,17.98723],[73.25159,17.98744],[73.25188,17.98722]]]}},{"type":"Feature","bbox":[73.25019,17.98574,73.2513,17.9867],"properties":{"ward":12,"name":"Baudhwadi2"},"geometry":{"type":"Polygon","coordinates":[[[73.25019,17.98665],[73.25115,17.9867],[73.2513,17.98614],[73.25115,17.98574],[73.25082,17.98608],[73.25061,17.98599],[73.25026,17.98621],[73.25019,17.98665]]]}},{"type":"Feature","bbox":[73.24675,17.98232,73.25187,17.99152],"properties":{"ward":13,"name":"Kumbharwadi Turewadi"},"geometry":{"type":"Polygon","coordinates":[[[73.25187,17.98731],[73.25159,17.98749],[73.25077,17.98737],[73.25056,17.98728],[73.25063,17.98678],[73.25019,17.98666],[73.25026,17.9862],[73.25061,17.98597],[73.25082,17.98607],[73.25109,17.98575],[73.2507,17.98552],[73.25049,17.98481],[73.2505,17.98395],[73.25024,17.98353],[73.2506,17.98296],[73.25025,17.98263],[73.2494,17.98232],[73.24796,17.98376],[73.24785,17.98455],[73.24701,17.98527],[73.24675,17.98596],[73.24704,17.98666],[73.24701,17.98719],[73.24768,17.98877],[73.2479,17.98979],[73.24851,17.99046],[73.24998,17.99152],[73.25123,17.9913],[73.25137,17.99092],[73.25123,17.99047],[73.25124,17.9892],[73.2515,17.98817],[73.2518,17.98784],[73.25187,17.98731]]]}},{"type":"Feature","bbox":[73.24939,17.97902,73.25684,17.98609],"properties":{"ward":14,"name":"Turewadisonarwadi"},"geometry":{"type":"Polygon","coordinates":[[[73.25062,17.98433],[73.25072,17.98366],[73.25098,17.9835],[73.25125,17.98409],[73.2516,17.9841],[73.25214,17.98445],[73.25244,17.98493],[73.25256,17.98555],[73.2532,17.98609],[73.25418,17.98366],[73.25515,17.98384],[73.25593,17.98354],[73.25615,17.98265],[73.25562,17.98234],[73.25591,17.98198],[73.25581,17.98164],[73.255,17.98063],[73.25527,17.98014],[73.25585,17.97966],[73.25684,17.97926],[73.25674,17.97902],[73.25532,17.9794],[73.25449,17.98004],[73.25375,17.98002],[73.25338,17.9803],[73.25258,17.98022],[73.25226,17.97968],[73.25192,17.97953],[73.2507,17.9802],[73.24979,17.98043],[73.24984,17.98145],[73.24939,17.98231],[73.25057,17.9828],[73.2505,17.9833],[73.25027,17.98356],[73.25062,17.98433]]]}},{"type":"Feature","bbox":[73.25051,17.9838,73.25164,17.98573],"properties":{"ward":15,"name":"Gandhichauk 1"},"geometry":{"type":"Polygon","coordinates":[[[73.25164,17.98542],[73.25141,17.98478],[73.25073,17.9838],[73.25051,17.9848],[73.25073,17.98553],[73.25115,17.98573],[73.25164,17.98542]]]}},{"type":"Feature","bbox":[73.25073,17.98349,73.25327,17.98759],"properties":{"ward":16,"name":"Gandhichauk 2"},"geometry":{"type":"Polygon","coordinates":[[[73.25171,17.98693],[73.25211,17.98759],[73.2532,17.98753],[73.25327,17.98638],[73.25319,17.9861],[73.25256,17.98558],[73.25243,17.98494],[73.25214,17.98447],[73.25159,17.98411],[73.25124,17.9841],[73.25092,17.98349],[73.25073,17.98365],[73.25077,17.98391],[73.25142,17.98477],[73.25163,17.98535],[73.25171,17.98693]]]}},{"type":"Feature","bbox":[73.25513,17.97927,73.25821,17.98854],"properties":{"ward":17,"name":"Shivajinagar"},"geometry":{"type":"Polygon","coordinates":[[[73.25821,17.98825],[73.25786,17.98785],[73.25745,17.98789],[73.25733,17.98769],[73.25739,17.9867],[73.25755,17.98627],[73.25778,17.98627],[73.2579,17.98584],[73.25778,17.98536],[73.25789,17.98483],[73.25712,17.98465],[73.25733,17.98422],[73.25753,17.98299],[73.25776,17.9829],[73.25783,17.98134],[73.25719,17.98031],[73.25683,17.97927],[73.25587,17.97967],[73.25513,17.98033],[73.2564,17.98027],[73.25681,17.98052],[73.25693,17.98092],[73.25683,17.98367],[73.25658,17.98429],[73.2557,17.98536],[73.25577,17.98663],[73.25632,17.9884],[73.25697,17.98854],[73.25821,17.98825]]]}}]}