{"type":"FeatureCollection","features":[{"type":"Feature","bbox":[75.84341,11.07605,75.84874,11.08128],"properties":{"ward":1},"geometry":{"type":"Polygon","coordinates":[[[75.84527,11.07616],[75.84341,11.08128],[75.84514,11.08105],[75.84576,11.08007],[75.84646,11.07984],[75.847,11.07828],[75.84847,11.0792],[75.84874,11.07674],[75.84713,11.07605],[75.84665,11.07692],[75.84527,11.07616]]]}},{"type":"Feature","bbox":[75.84817,11.07214,75.8514,11.08033],"properties":{"ward":2},"geometry":{"type":"Polygon","coordinates":[[[75.8514,11.0726],[75.84966,11.07214],[75.84837,11.07277],[75.84817,11.07648],[75.84874,11.07674],[75.84847,11.0792],[75.8493,11.07962],[75.84912,11.08029],[75.84936,11.08033],[75.85018,11.07851],[75.85094,11.07586],[75.8514,11.0726]]]}},{"type":"Feature","bbox":[75.84936,11.07194,75.85476,11.08198],"properties":{"ward":3},"geometry":{"type":"Polygon","coordinates":[[[75.85476,11.07445],[75.85363,11.07343],[75.85149,11.07194],[75.85094,11.07586],[75.85018,11.07851],[75.84936,11.08033],[75.8506,11.08055],[75.85226,11.08128],[75.85325,11.08114],[75.85343,11.08186],[75.85424,11.08198],[75.85476,11.07445]]]}},{"type":"Feature","bbox":[75.85149,11.06404,75.86008,11.07587],"properties":{"ward":4},"geometry":{"type":"Polygon","coordinates":[[[75.85623,11.07587],[75.86008,11.06404],[75.85253,11.06407],[75.85149,11.07194],[75.85363,11.07343],[75.85623,11.07587]]]}},{"type":"Feature","bbox":[75.85412,11.07445,75.85947,11.08543],"properties":{"ward":5},"geometry":{"type":"Polygon","coordinates":[[[75.85412,11.08543],[75.8573,11.08437],[75.85885,11.0843],[75.85947,11.08453],[75.85857,11.0809],[75.8572,11.07731],[75.85623,11.07587],[75.85476,11.07445],[75.85424,11.08198],[75.85462,11.08204],[75.85412,11.08543]]]}},{"type":"Feature","bbox":[75.85623,11.0731,75.86527,11.08499],"properties":{"ward":6},"geometry":{"type":"Polygon","coordinates":[[[75.86444,11.08259],[75.86488,11.08205],[75.86514,11.08135],[75.86506,11.08085],[75.86527,11.08043],[75.86263,11.07885],[75.86273,11.07478],[75.85712,11.0731],[75.85623,11.07587],[75.8572,11.07731],[75.85857,11.0809],[75.85947,11.08453],[75.86102,11.08499],[75.86195,11.08499],[75.86244,11.08479],[75.86304,11.08376],[75.86319,11.08262],[75.86444,11.08259]]]}},{"type":"Feature","bbox":[75.85712,11.0694,75.8717,11.08043],"properties":{"ward":7},"geometry":{"type":"Polygon","coordinates":[[[75.8717,11.07752],[75.87123,11.07595],[75.86693,11.07592],[75.86687,11.07432],[75.86579,11.07268],[75.86527,11.07113],[75.85831,11.0694],[75.85712,11.0731],[75.86273,11.07478],[75.86263,11.07885],[75.86527,11.08043],[75.8652,11.07965],[75.86597,11.07891],[75.86642,11.07917],[75.86719,11.0793],[75.86798,11.0801],[75.86848,11.08025],[75.86894,11.08005],[75.8697,11.07898],[75.87037,11.07854],[75.87105,11.07835],[75.8717,11.07752]]]}},{"type":"Feature","bbox":[75.85831,11.05619,75.86687,11.07432],"properties":{"ward":8},"geometry":{"type":"Polygon","coordinates":[[[75.86617,11.06933],[75.86438,11.06666],[75.86395,11.06494],[75.8641,11.06358],[75.86509,11.06059],[75.86529,11.05944],[75.86529,11.05815],[75.86492,11.05619],[75.86217,11.0575],[75.85831,11.0694],[75.86527,11.07113],[75.86579,11.07268],[75.86687,11.07432],[75.86682,11.07136],[75.86617,11.06933]]]}},{"type":"Feature","bbox":[75.86617,11.06618,75.87123,11.07595],"properties":{"ward":9},"geometry":{"type":"Polygon","coordinates":[[[75.87028,11.06618],[75.86953,11.06657],[75.86958,11.06713],[75.8662,11.06757],[75.86617,11.06933],[75.86647,11.06997],[75.86694,11.07244],[75.86693,11.07592],[75.87123,11.07595],[75.87044,11.07145],[75.87118,11.07043],[75.87028,11.06618]]]}},{"type":"Feature","bbox":[75.87028,11.06459,75.87652,11.07752],"properties":{"ward":10},"geometry":{"type":"Polygon","coordinates":[[[75.87652,11.07536],[75.87481,11.07437],[75.87419,11.0737],[75.87399,11.07324],[75.87407,11.07277],[75.87534,11.07041],[75.87564,11.06894],[75.87569,11.06753],[75.87447,11.06504],[75.87283,11.06459],[75.87028,11.06618],[75.87118,11.07043],[75.87044,11.07145],[75.87123,11.07595],[75.8717,11.07752],[75.87337,11.07567],[75.87403,11.07552],[75.87559,11.07576],[75.87652,11.07536]]]}},{"type":"Feature","bbox":[75.86854,11.05844,75.8851,11.06753],"properties":{"ward":11},"geometry":{"type":"Polygon","coordinates":[[[75.88373,11.06704],[75.8844,11.06701],[75.88484,11.06656],[75.8851,11.06568],[75.88503,11.06497],[75.88432,11.06336],[75.88217,11.06061],[75.88176,11.06027],[75.88081,11.06017],[75.87861,11.06065],[75.87788,11.0606],[75.87662,11.05975],[75.8759,11.05857],[75.87512,11.05871],[75.87428,11.05844],[75.87149,11.059],[75.86854,11.06113],[75.86953,11.06657],[75.87283,11.06459],[75.87447,11.06504],[75.87569,11.06753],[75.87589,11.06676],[75.87621,11.0663],[75.87656,11.06602],[75.87746,11.06578],[75.87891,11.06591],[75.88373,11.06704]]]}},{"type":"Feature","bbox":[75.86395,11.05531,75.87701,11.06933],"properties":{"ward":12},"geometry":{"type":"Polygon","coordinates":[[[75.86958,11.06713],[75.86854,11.06113],[75.87149,11.059],[75.87428,11.05844],[75.87512,11.05871],[75.8759,11.05857],[75.87576,11.05772],[75.87584,11.05713],[75.87701,11.05584],[75.87396,11.05596],[75.86674,11.05531],[75.86492,11.05619],[75.86529,11.05815],[75.86529,11.05944],[75.86509,11.06059],[75.8641,11.06358],[75.86395,11.06494],[75.86438,11.06666],[75.86617,11.06933],[75.8662,11.06757],[75.86958,11.06713]]]}},{"type":"Feature","bbox":[75.8576,11.04729,75.86674,11.05778],"properties":{"ward":13},"geometry":{"type":"Polygon","coordinates":[[[75.86217,11.0575],[75.86674,11.05531],[75.86597,11.05202],[75.86453,11.04729],[75.86136,11.04921],[75.85978,11.04972],[75.8576,11.05778],[75.85922,11.05766],[75.86051,11.05697],[75.86125,11.05708],[75.86217,11.0575]]]}},{"type":"Feature","bbox":[75.85978,11.04187,75.8651,11.04972],"properties":{"ward":14},"geometry":{"type":"Polygon","coordinates":[[[75.86136,11.04921],[75.86508,11.04709],[75.86451,11.04531],[75.8651,11.04455],[75.86458,11.04268],[75.86254,11.04187],[75.85978,11.04972],[75.86136,11.04921]]]}},{"type":"Feature","bbox":[75.86453,11.04339,75.87396,11.05596],"properties":{"ward":15},"geometry":{"type":"Polygon","coordinates":[[[75.86838,11.04339],[75.86508,11.04709],[75.86453,11.04729],[75.86597,11.05202],[75.86674,11.05531],[75.87396,11.05596],[75.86838,11.04339]]]}},{"type":"Feature","bbox":[75.86838,11.03667,75.88077,11.05596],"properties":{"ward":16},"geometry":{"type":"Polygon","coordinates":[[[75.87701,11.05584],[75.87853,11.0551],[75.87879,11.05479],[75.87872,11.05424],[75.87795,11.05336],[75.87802,11.05277],[75.87857,11.05268],[75.8801,11.05331],[75.88068,11.05305],[75.88077,11.0526],[75.88026,11.05195],[75.87804,11.05004],[75.87782,11.04945],[75.87778,11.04796],[75.87743,11.04702],[75.87685,11.04637],[75.87527,11.04533],[75.87433,11.04449],[75.87321,11.04293],[75.873,11.04186],[75.87338,11.04028],[75.87467,11.03881],[75.87525,11.03845],[75.87587,11.0383],[75.87651,11.03848],[75.87701,11.0389],[75.87768,11.03912],[75.87762,11.03823],[75.87896,11.03667],[75.87548,11.03675],[75.87339,11.03789],[75.86838,11.04339],[75.87396,11.05596],[75.87701,11.05584]]]}},{"type":"Feature","bbox":[75.86254,11.02753,75.86945,11.04709],"properties":{"ward":17},"geometry":{"type":"Polygon","coordinates":[[[75.86508,11.04709],[75.86945,11.04221],[75.86842,11.04054],[75.86719,11.03897],[75.86813,11.03534],[75.86737,11.0336],[75.86826,11.02971],[75.86696,11.02753],[75.86412,11.03711],[75.86254,11.04187],[75.86458,11.04268],[75.8651,11.04455],[75.86451,11.04531],[75.86508,11.04709]]]}},{"type":"Feature","bbox":[75.86719,11.02971,75.8735,11.04221],"properties":{"ward":18},"geometry":{"type":"Polygon","coordinates":[[[75.8735,11.03783],[75.87108,11.03425],[75.86826,11.02971],[75.86737,11.0336],[75.86813,11.03534],[75.86719,11.03897],[75.86842,11.04054],[75.86945,11.04221],[75.87295,11.03826],[75.8735,11.03783]]]}},{"type":"Feature","bbox":[75.86909,11.02144,75.87749,11.03783],"properties":{"ward":19},"geometry":{"type":"Polygon","coordinates":[[[75.87631,11.03665],[75.87749,11.03306],[75.87426,11.03228],[75.87397,11.03094],[75.87424,11.02914],[75.8733,11.0284],[75.87396,11.02548],[75.87368,11.02418],[75.87427,11.02216],[75.87198,11.02144],[75.87105,11.02302],[75.87058,11.02419],[75.87025,11.02774],[75.86909,11.03099],[75.8735,11.03783],[75.87548,11.03675],[75.87631,11.03665]]]}},{"type":"Feature","bbox":[75.87631,11.01887,75.89006,11.03667],"properties":{"ward":20},"geometry":{"type":"Polygon","coordinates":[[[75.88992,11.02641],[75.89006,11.02259],[75.88991,11.02218],[75.87915,11.01887],[75.87762,11.02223],[75.88272,11.02458],[75.88027,11.02862],[75.87839,11.03122],[75.87749,11.03306],[75.87631,11.03665],[75.87896,11.03667],[75.87911,11.0353],[75.87955,11.03453],[75.88118,11.03383],[75.88305,11.03269],[75.88411,11.03161],[75.88652,11.0311],[75.88746,11.02935],[75.88738,11.02813],[75.889,11.02836],[75.88954,11.02812],[75.88866,11.02665],[75.88868,11.02626],[75.88899,11.02614],[75.88992,11.02641]]]}},{"type":"Feature","bbox":[75.87198,11.01803,75.88272,11.03306],"properties":{"ward":21},"geometry":{"type":"Polygon","coordinates":[[[75.87915,11.01887],[75.87611,11.01828],[75.87239,11.01803],[75.87236,11.02085],[75.87198,11.02144],[75.87427,11.02216],[75.87368,11.02418],[75.87396,11.02548],[75.8733,11.0284],[75.87424,11.02914],[75.87397,11.03094],[75.87426,11.03228],[75.87749,11.03306],[75.87839,11.03122],[75.88027,11.02862],[75.88272,11.02458],[75.87762,11.02223],[75.87915,11.01887]]]}},{"type":"Feature","bbox":[75.86696,11.01937,75.87236,11.03099],"properties":{"ward":22},"geometry":{"type":"Polygon","coordinates":[[[75.87105,11.02302],[75.87236,11.02085],[75.86891,11.01937],[75.86696,11.02753],[75.86909,11.03099],[75.87025,11.02774],[75.87058,11.02419],[75.87105,11.02302]]]}},{"type":"Feature","bbox":[75.86459,11.01769,75.87239,11.02753],"properties":{"ward":23},"geometry":{"type":"Polygon","coordinates":[[[75.87236,11.02085],[75.87239,11.01803],[75.86603,11.01769],[75.86459,11.0237],[75.86696,11.02753],[75.86891,11.01937],[75.87236,11.02085]]]}},{"type":"Feature","bbox":[75.86123,11.01767,75.86603,11.02641],"properties":{"ward":24},"geometry":{"type":"Polygon","coordinates":[[[75.86386,11.02641],[75.86495,11.0221],[75.86603,11.01769],[75.86548,11.01767],[75.86531,11.01804],[75.8649,11.01833],[75.86472,11.0198],[75.86158,11.0194],[75.86123,11.02398],[75.86264,11.02487],[75.8626,11.02557],[75.86386,11.02641]]]}},{"type":"Feature","bbox":[75.85856,11.01899,75.86158,11.02596],"properties":{"ward":25},"geometry":{"type":"Polygon","coordinates":[[[75.85964,11.01909],[75.85856,11.02442],[75.85903,11.02537],[75.86093,11.02596],[75.86158,11.0194],[75.86109,11.01934],[75.86068,11.01899],[75.85964,11.01909]]]}},{"type":"Feature","bbox":[75.8576,11.02442,75.86022,11.02906],"properties":{"ward":26},"geometry":{"type":"Polygon","coordinates":[[[75.85856,11.02442],[75.8576,11.0285],[75.85939,11.02906],[75.86022,11.02576],[75.85903,11.02537],[75.85856,11.02442]]]}},{"type":"Feature","bbox":[75.85919,11.0237,75.86696,11.03489],"properties":{"ward":27},"geometry":{"type":"Polygon","coordinates":[[[75.86696,11.02753],[75.86459,11.0237],[75.86386,11.02641],[75.8626,11.02557],[75.86264,11.02487],[75.86123,11.02398],[75.86093,11.02596],[75.86022,11.02576],[75.85919,11.02972],[75.86023,11.0301],[75.86018,11.03068],[75.86251,11.03151],[75.86186,11.03383],[75.86476,11.03489],[75.86696,11.02753]]]}},{"type":"Feature","bbox":[75.85701,11.0285,75.86251,11.03629],"properties":{"ward":28},"geometry":{"type":"Polygon","coordinates":[[[75.8576,11.0285],[75.85701,11.03104],[75.85753,11.03137],[75.85744,11.03516],[75.86111,11.03629],[75.86251,11.03151],[75.86018,11.03068],[75.86023,11.0301],[75.85919,11.02972],[75.85939,11.02906],[75.8576,11.0285]]]}},{"type":"Feature","bbox":[75.8563,11.03104,75.85753,11.03516],"properties":{"ward":29},"geometry":{"type":"Polygon","coordinates":[[[75.85701,11.03104],[75.8563,11.03441],[75.85685,11.03498],[75.85744,11.03516],[75.85753,11.03137],[75.85701,11.03104]]]}},{"type":"Feature","bbox":[75.8558,11.03441,75.85685,11.03678],"properties":{"ward":30},"geometry":{"type":"Polygon","coordinates":[[[75.8563,11.03441],[75.8558,11.03678],[75.85685,11.03498],[75.8563,11.03441]]]}},{"type":"Feature","bbox":[75.85491,11.03383,75.86476,11.05001],"properties":{"ward":31},"geometry":{"type":"Polygon","coordinates":[[[75.8558,11.03678],[75.85491,11.04013],[75.85941,11.04176],[75.85797,11.04457],[75.85613,11.04957],[75.85771,11.05001],[75.85978,11.04972],[75.86254,11.04187],[75.86476,11.03489],[75.86186,11.03383],[75.86111,11.03629],[75.85685,11.03498],[75.8558,11.03678]]]}},{"type":"Feature","bbox":[75.85373,11.04013,75.85941,11.0468],"properties":{"ward":32},"geometry":{"type":"Polygon","coordinates":[[[75.85491,11.04013],[75.85373,11.04445],[75.85589,11.04524],[75.85578,11.04643],[75.85711,11.0468],[75.85797,11.04457],[75.85941,11.04176],[75.85491,11.04013]]]}},{"type":"Feature","bbox":[75.85227,11.04445,75.85711,11.05261],"properties":{"ward":33},"geometry":{"type":"Polygon","coordinates":[[[75.85373,11.04445],[75.85266,11.04838],[75.85227,11.05216],[75.8545,11.05261],[75.85522,11.0509],[75.85613,11.04957],[75.85711,11.0468],[75.85578,11.04643],[75.85589,11.04524],[75.85373,11.04445]]]}},{"type":"Feature","bbox":[75.85045,11.05709,75.8511,11.05934],"properties":{"ward":36},"geometry":{"type":"Polygon","coordinates":[[[75.8511,11.05709],[75.85045,11.05927],[75.85097,11.05934],[75.8511,11.05709]]]}},{"type":"Feature","bbox":[75.85097,11.05216,75.8545,11.05958],"properties":{"ward":37},"geometry":{"type":"Polygon","coordinates":[[[75.85227,11.05216],[75.85213,11.05361],[75.8511,11.05709],[75.85097,11.05934],[75.85299,11.05958],[75.85352,11.0556],[75.85389,11.05485],[75.8545,11.05261],[75.85227,11.05216]]]}},{"type":"Feature","bbox":[75.85253,11.04957,75.86217,11.06407],"properties":{"ward":38},"geometry":{"type":"Polygon","coordinates":[[[75.86008,11.06404],[75.86217,11.0575],[75.86125,11.05708],[75.86051,11.05697],[75.85922,11.05766],[75.8576,11.05778],[75.85978,11.04972],[75.85771,11.05001],[75.85613,11.04957],[75.85522,11.0509],[75.85352,11.0556],[75.85302,11.05867],[75.85297,11.0607],[75.85253,11.06407],[75.86008,11.06404]]]}},{"type":"Feature","bbox":[75.84943,11.05928,75.85299,11.06548],"properties":{"ward":39},"geometry":{"type":"Polygon","coordinates":[[[75.85237,11.06548],[75.85299,11.05958],[75.85054,11.05928],[75.84943,11.06297],[75.8502,11.06307],[75.84983,11.06495],[75.85237,11.06548]]]}},{"type":"Feature","bbox":[75.84936,11.05927,75.85054,11.06296],"properties":{"ward":40},"geometry":{"type":"Polygon","coordinates":[[[75.85045,11.05927],[75.84936,11.06296],[75.85054,11.05928],[75.85045,11.05927]]]}},{"type":"Feature","bbox":[75.84822,11.06679,75.84823,11.06681],"properties":{"ward":41},"geometry":{"type":"Polygon","coordinates":[[[75.84823,11.06679],[75.84822,11.0668],[75.84822,11.06681],[75.84823,11.06679]]]}},{"type":"Feature","bbox":[75.84781,11.06296,75.8502,11.06819],"properties":{"ward":42},"geometry":{"type":"Polygon","coordinates":[[[75.84936,11.06296],[75.84822,11.06681],[75.84781,11.06819],[75.84991,11.06816],[75.84983,11.06495],[75.8502,11.06307],[75.84936,11.06296]]]}},{"type":"Feature","bbox":[75.84879,11.06495,75.85237,11.0726],"properties":{"ward":43},"geometry":{"type":"Polygon","coordinates":[[[75.8514,11.0726],[75.85237,11.06548],[75.84983,11.06495],[75.84991,11.06816],[75.84879,11.06818],[75.84966,11.07214],[75.8514,11.0726]]]}},{"type":"Feature","bbox":[75.84662,11.06818,75.84966,11.07277],"properties":{"ward":44},"geometry":{"type":"Polygon","coordinates":[[[75.84781,11.06819],[75.84662,11.07221],[75.84837,11.07277],[75.84966,11.07214],[75.84879,11.06818],[75.84781,11.06819]]]}},{"type":"Feature","bbox":[75.84527,11.07221,75.84837,11.07692],"properties":{"ward":45},"geometry":{"type":"Polygon","coordinates":[[[75.84662,11.07221],[75.84527,11.07616],[75.84665,11.07692],[75.84713,11.07605],[75.84817,11.07648],[75.84837,11.07277],[75.84662,11.07221]]]}}]}