{"type":"FeatureCollection","features":[{"type":"Feature","bbox":[75.9405,11.15882,75.9513,11.17074],"properties":{"ward":1},"geometry":{"type":"Polygon","coordinates":[[[75.95057,11.16585],[75.94989,11.16398],[75.94919,11.16328],[75.94846,11.16218],[75.94809,11.16133],[75.9481,11.16082],[75.94721,11.1601],[75.94681,11.16],[75.94624,11.15933],[75.94616,11.15903],[75.94578,11.15882],[75.94442,11.15982],[75.94246,11.16035],[75.94214,11.16063],[75.9405,11.16333],[75.94388,11.16457],[75.94453,11.16566],[75.94458,11.16647],[75.94533,11.16635],[75.9472,11.16649],[75.94767,11.16695],[75.94773,11.16825],[75.9486,11.16925],[75.94944,11.16986],[75.9513,11.17074],[75.95076,11.16941],[75.95012,11.16883],[75.95045,11.16828],[75.95021,11.16638],[75.95057,11.16585]]]}},{"type":"Feature","bbox":[75.94809,11.15908,75.95604,11.16759],"properties":{"ward":2},"geometry":{"type":"Polygon","coordinates":[[[75.95596,11.16738],[75.95592,11.16613],[75.95604,11.16564],[75.9551,11.16406],[75.95541,11.16289],[75.95428,11.16126],[75.95423,11.16097],[75.95327,11.15989],[75.95266,11.1595],[75.95137,11.15908],[75.9481,11.16082],[75.94809,11.16133],[75.94846,11.16218],[75.94919,11.16328],[75.94989,11.16398],[75.95011,11.16447],[75.951,11.16466],[75.95188,11.16538],[75.95291,11.16583],[75.95423,11.16709],[75.9554,11.16754],[75.95577,11.16759],[75.95596,11.16738]]]}},{"type":"Feature","bbox":[75.95011,11.16447,75.96159,11.17254],"properties":{"ward":3},"geometry":{"type":"Polygon","coordinates":[[[75.96032,11.16994],[75.96044,11.16855],[75.96159,11.16757],[75.96017,11.165],[75.95991,11.16572],[75.95967,11.16595],[75.95918,11.16587],[75.95777,11.16637],[75.95602,11.16651],[75.95596,11.16738],[75.95577,11.16759],[75.95423,11.16709],[75.95291,11.16583],[75.95188,11.16538],[75.951,11.16466],[75.95011,11.16447],[75.95057,11.16585],[75.95021,11.16638],[75.95045,11.16828],[75.95012,11.16883],[75.95076,11.16941],[75.9513,11.17074],[75.95216,11.17116],[75.95317,11.17215],[75.95378,11.17254],[75.9541,11.17239],[75.95448,11.17177],[75.95619,11.17108],[75.95642,11.17085],[75.95651,11.17055],[75.95635,11.16978],[75.95798,11.16901],[75.96032,11.16994]]]}},{"type":"Feature","bbox":[75.94578,11.15377,75.96017,11.16651],"properties":{"ward":4},"geometry":{"type":"Polygon","coordinates":[[[75.96017,11.165],[75.95955,11.16401],[75.95937,11.16293],[75.95716,11.15978],[75.95589,11.15832],[75.95475,11.15733],[75.95382,11.15611],[75.95368,11.15526],[75.95303,11.15418],[75.95297,11.15377],[75.95223,11.15406],[75.94684,11.1574],[75.94585,11.15844],[75.94578,11.15882],[75.94616,11.15903],[75.94624,11.15933],[75.94681,11.16],[75.94721,11.1601],[75.9481,11.16082],[75.95137,11.15908],[75.95266,11.1595],[75.95327,11.15989],[75.95423,11.16097],[75.95428,11.16126],[75.95541,11.16289],[75.9551,11.16406],[75.95604,11.16564],[75.95592,11.16613],[75.95602,11.16651],[75.95777,11.16637],[75.95918,11.16587],[75.95967,11.16595],[75.95991,11.16572],[75.96017,11.165]]]}},{"type":"Feature","bbox":[75.95297,11.14998,75.96466,11.16761],"properties":{"ward":5},"geometry":{"type":"Polygon","coordinates":[[[75.96011,11.1574],[75.95956,11.15623],[75.95868,11.15524],[75.96016,11.15403],[75.95992,11.15302],[75.95977,11.15268],[75.95919,11.15246],[75.95878,11.15187],[75.95816,11.15146],[75.95774,11.14998],[75.95435,11.15299],[75.95297,11.15377],[75.95303,11.15418],[75.95368,11.15526],[75.95382,11.15611],[75.95475,11.15733],[75.95589,11.15832],[75.95716,11.15978],[75.95937,11.16293],[75.95955,11.16401],[75.96159,11.16757],[75.96227,11.16761],[75.9623,11.16745],[75.96268,11.16742],[75.96407,11.16678],[75.96466,11.16582],[75.9646,11.1655],[75.96388,11.16432],[75.96343,11.16431],[75.96191,11.16247],[75.96133,11.16014],[75.96021,11.15806],[75.96011,11.1574]]]}},{"type":"Feature","bbox":[75.96032,11.16706,75.97078,11.17392],"properties":{"ward":6},"geometry":{"type":"Polygon","coordinates":[[[75.97066,11.16793],[75.97051,11.16761],[75.96999,11.16762],[75.9695,11.16733],[75.96843,11.16706],[75.96728,11.16713],[75.96589,11.16756],[75.96471,11.16767],[75.96159,11.16757],[75.96044,11.16855],[75.96032,11.16994],[75.96225,11.17062],[75.96241,11.17112],[75.96208,11.17158],[75.96208,11.172],[75.96247,11.17223],[75.96284,11.17239],[75.9641,11.17169],[75.96457,11.17192],[75.96529,11.17392],[75.96713,11.17384],[75.96798,11.17353],[75.96884,11.17292],[75.97031,11.17116],[75.97078,11.16978],[75.97066,11.16793]]]}},{"type":"Feature","bbox":[75.9645,11.15472,75.97306,11.16793],"properties":{"ward":7},"geometry":{"type":"Polygon","coordinates":[[[75.97306,11.15634],[75.97245,11.15547],[75.97146,11.15636],[75.97063,11.1567],[75.96946,11.1567],[75.96856,11.15649],[75.96741,11.15598],[75.96547,11.15472],[75.9645,11.15578],[75.96569,11.15707],[75.96623,11.15734],[75.96694,11.158],[75.9671,11.15859],[75.96741,11.15894],[75.96718,11.15942],[75.96726,11.16008],[75.96706,11.1604],[75.96703,11.16095],[75.96682,11.1612],[75.96809,11.16225],[75.96865,11.16378],[75.96874,11.16478],[75.96896,11.16531],[75.96863,11.16711],[75.9695,11.16733],[75.96999,11.16762],[75.97051,11.16761],[75.97066,11.16793],[75.97063,11.16748],[75.97094,11.16656],[75.97172,11.16557],[75.9718,11.16465],[75.97165,11.1635],[75.97266,11.16097],[75.97266,11.15967],[75.97297,11.15875],[75.97306,11.15634]]]}},{"type":"Feature","bbox":[75.96011,11.15714,75.96896,11.16761],"properties":{"ward":8},"geometry":{"type":"Polygon","coordinates":[[[75.96863,11.16711],[75.96896,11.16531],[75.96874,11.16478],[75.96865,11.16378],[75.96809,11.16225],[75.96733,11.16172],[75.96416,11.1586],[75.96259,11.1577],[75.96184,11.15758],[75.96082,11.15714],[75.96011,11.1574],[75.96021,11.15806],[75.96133,11.16014],[75.96191,11.16247],[75.96343,11.16431],[75.96388,11.16432],[75.9646,11.1655],[75.96466,11.16582],[75.96407,11.16678],[75.96268,11.16742],[75.9623,11.16745],[75.96227,11.16761],[75.96546,11.16761],[75.96728,11.16713],[75.96863,11.16711]]]}},{"type":"Feature","bbox":[75.95868,11.15296,75.96741,11.1612],"properties":{"ward":9},"geometry":{"type":"Polygon","coordinates":[[[75.96547,11.15472],[75.96473,11.15425],[75.96276,11.15392],[75.96189,11.15335],[75.96091,11.15296],[75.96001,11.15426],[75.95868,11.15524],[75.95956,11.15623],[75.96011,11.1574],[75.96082,11.15714],[75.96318,11.15802],[75.96453,11.15892],[75.96682,11.1612],[75.96703,11.16095],[75.96706,11.1604],[75.96729,11.15993],[75.96718,11.15942],[75.96741,11.15906],[75.9671,11.15859],[75.96708,11.1582],[75.96623,11.15734],[75.96569,11.15707],[75.96485,11.15603],[75.96452,11.15593],[75.96466,11.15553],[75.96547,11.15472]]]}},{"type":"Feature","bbox":[75.95774,11.1472,75.97245,11.1567],"properties":{"ward":10},"geometry":{"type":"Polygon","coordinates":[[[75.97245,11.15547],[75.97195,11.15466],[75.97152,11.15449],[75.97086,11.1529],[75.96989,11.15187],[75.96988,11.15142],[75.96595,11.14809],[75.9655,11.1472],[75.96458,11.14783],[75.96214,11.15039],[75.96116,11.14962],[75.96063,11.14846],[75.95914,11.14906],[75.95774,11.14998],[75.95816,11.15146],[75.95878,11.15187],[75.95919,11.15246],[75.95977,11.15268],[75.96016,11.15403],[75.96091,11.15296],[75.96135,11.15309],[75.96276,11.15392],[75.96473,11.15425],[75.96741,11.15598],[75.96856,11.15649],[75.96946,11.1567],[75.97063,11.1567],[75.97146,11.15636],[75.97245,11.15547]]]}},{"type":"Feature","bbox":[75.96505,11.14126,75.97613,11.15634],"properties":{"ward":11},"geometry":{"type":"Polygon","coordinates":[[[75.9736,11.15458],[75.97304,11.15351],[75.9724,11.15282],[75.97199,11.1521],[75.97187,11.15178],[75.97192,11.15076],[75.9736,11.14948],[75.97379,11.14947],[75.97403,11.14906],[75.97568,11.14772],[75.97569,11.14743],[75.97589,11.14725],[75.97428,11.14621],[75.97382,11.14477],[75.97383,11.14458],[75.97461,11.14411],[75.97466,11.14394],[75.97513,11.14388],[75.9751,11.14361],[75.97565,11.14318],[75.97522,11.14263],[75.97544,11.14239],[75.97578,11.1424],[75.97613,11.14193],[75.97578,11.14126],[75.97483,11.14191],[75.9723,11.14466],[75.97178,11.14497],[75.96966,11.14542],[75.96839,11.14634],[75.96788,11.14582],[75.9676,11.14585],[75.96686,11.14523],[75.96505,11.14584],[75.96529,11.14674],[75.96595,11.14809],[75.96988,11.15142],[75.96989,11.15187],[75.97086,11.1529],[75.97152,11.15449],[75.97195,11.15466],[75.97306,11.15634],[75.97306,11.15553],[75.97267,11.15461],[75.97283,11.15446],[75.9736,11.15458]]]}},{"type":"Feature","bbox":[75.97187,11.14375,75.98101,11.15472],"properties":{"ward":12},"geometry":{"type":"Polygon","coordinates":[[[75.98022,11.14569],[75.98001,11.14589],[75.97679,11.14598],[75.97512,11.14375],[75.97513,11.14388],[75.97466,11.14394],[75.97461,11.14411],[75.97383,11.14458],[75.97428,11.14621],[75.97589,11.14725],[75.97569,11.14743],[75.97568,11.14772],[75.97403,11.14906],[75.97379,11.14947],[75.9736,11.14948],[75.97192,11.15076],[75.97187,11.15178],[75.97199,11.1521],[75.9724,11.15282],[75.97304,11.15351],[75.9736,11.15458],[75.97663,11.15446],[75.97944,11.15403],[75.98033,11.15472],[75.98042,11.15454],[75.98027,11.15431],[75.98021,11.15309],[75.97993,11.15294],[75.97999,11.15222],[75.97951,11.15106],[75.97954,11.14968],[75.98021,11.14962],[75.98078,11.14924],[75.98093,11.14891],[75.98101,11.14831],[75.98069,11.14791],[75.98048,11.14609],[75.98022,11.14569]]]}},{"type":"Feature","bbox":[75.97494,11.13832,75.98334,11.14598],"properties":{"ward":13},"geometry":{"type":"Polygon","coordinates":[[[75.98001,11.14589],[75.98116,11.14492],[75.98132,11.14494],[75.98206,11.1436],[75.98279,11.14337],[75.98308,11.14229],[75.98334,11.14198],[75.98307,11.14128],[75.98263,11.14123],[75.98249,11.1407],[75.98217,11.14042],[75.98183,11.14042],[75.98068,11.13853],[75.98032,11.13832],[75.97947,11.13886],[75.9772,11.13883],[75.97605,11.13902],[75.97494,11.1398],[75.97506,11.1403],[75.97536,11.14046],[75.97613,11.14193],[75.97578,11.1424],[75.97524,11.1425],[75.97565,11.14318],[75.9751,11.14361],[75.97512,11.14375],[75.97552,11.14413],[75.97627,11.14545],[75.97679,11.14598],[75.98001,11.14589]]]}},{"type":"Feature","bbox":[75.97951,11.14179,75.98729,11.15688],"properties":{"ward":14},"geometry":{"type":"Polygon","coordinates":[[[75.98506,11.15593],[75.98636,11.15414],[75.98583,11.15366],[75.98518,11.15268],[75.9851,11.15228],[75.98639,11.15066],[75.98729,11.14898],[75.98706,11.14765],[75.98588,11.14686],[75.98551,11.14636],[75.98543,11.1453],[75.98607,11.14396],[75.98556,11.14283],[75.9856,11.14256],[75.98531,11.14204],[75.98495,11.14179],[75.98357,11.14208],[75.98334,11.14198],[75.98308,11.14229],[75.98279,11.14337],[75.98206,11.1436],[75.98132,11.14494],[75.98116,11.14492],[75.98022,11.14569],[75.98048,11.14609],[75.98069,11.14791],[75.98101,11.14831],[75.98093,11.14891],[75.98078,11.14924],[75.98021,11.14962],[75.97954,11.14968],[75.97951,11.15106],[75.97999,11.15222],[75.97993,11.15294],[75.98021,11.15309],[75.98027,11.15431],[75.98042,11.15454],[75.98033,11.15472],[75.98157,11.15631],[75.98223,11.1567],[75.98296,11.15688],[75.98446,11.15613],[75.98439,11.15604],[75.98484,11.15585],[75.98506,11.15593]]]}},{"type":"Feature","bbox":[75.98032,11.13587,75.98962,11.14398],"properties":{"ward":15},"geometry":{"type":"Polygon","coordinates":[[[75.98938,11.13748],[75.98754,11.13732],[75.98562,11.13659],[75.98437,11.13587],[75.98172,11.13728],[75.98032,11.13832],[75.98068,11.13853],[75.98183,11.14042],[75.98217,11.14042],[75.98249,11.1407],[75.98263,11.14123],[75.98307,11.14128],[75.98334,11.14198],[75.98357,11.14208],[75.98495,11.14179],[75.98531,11.14204],[75.9856,11.14256],[75.98556,11.14283],[75.98607,11.14396],[75.98734,11.14398],[75.98792,11.14377],[75.98916,11.14259],[75.98935,11.14222],[75.98962,11.14078],[75.98945,11.14017],[75.98953,11.13868],[75.98931,11.13777],[75.98938,11.13748]]]}},{"type":"Feature","bbox":[75.9851,11.13739,76.00421,11.15414],"properties":{"ward":16},"geometry":{"type":"Polygon","coordinates":[[[75.98716,11.15241],[75.98806,11.15139],[75.99337,11.14787],[75.99566,11.14704],[75.99664,11.1464],[75.99711,11.14587],[75.99829,11.14332],[75.99983,11.14222],[76.00085,11.14215],[76.00137,11.14254],[76.0017,11.14354],[76.00217,11.144],[76.0024,11.14415],[76.00318,11.14408],[76.00388,11.14284],[76.00421,11.14084],[76.00392,11.14069],[76.00337,11.13946],[76.00332,11.13877],[76.0029,11.13739],[76.00198,11.13776],[76.00125,11.13857],[76.00078,11.13876],[76.00051,11.13908],[75.99912,11.13972],[75.99758,11.13965],[75.99731,11.13947],[75.99706,11.13852],[75.99576,11.13863],[75.99557,11.13843],[75.99546,11.13776],[75.99509,11.13775],[75.99452,11.1378],[75.99451,11.13825],[75.99412,11.13925],[75.9936,11.13957],[75.9929,11.13962],[75.992,11.13912],[75.99108,11.13747],[75.98938,11.13748],[75.98931,11.13777],[75.98953,11.13868],[75.98945,11.14017],[75.98962,11.14078],[75.98935,11.14222],[75.98916,11.14259],[75.98792,11.14377],[75.98734,11.14398],[75.98607,11.14396],[75.98543,11.1453],[75.98551,11.14636],[75.98588,11.14686],[75.98706,11.14765],[75.98723,11.14822],[75.98729,11.14898],[75.98708,11.14953],[75.9851,11.15228],[75.98518,11.15268],[75.98583,11.15366],[75.98636,11.15414],[75.98716,11.15241]]]}},{"type":"Feature","bbox":[75.98415,11.13153,75.99581,11.13962],"properties":{"ward":17},"geometry":{"type":"Polygon","coordinates":[[[75.99452,11.1378],[75.99403,11.13727],[75.99397,11.13645],[75.99488,11.13441],[75.99581,11.13345],[75.99431,11.1338],[75.99371,11.13411],[75.9913,11.13452],[75.98985,11.13306],[75.98892,11.13153],[75.98716,11.13226],[75.98578,11.13306],[75.986,11.13337],[75.98598,11.13376],[75.98567,11.13425],[75.9849,11.13495],[75.9842,11.1352],[75.98415,11.1354],[75.98442,11.13597],[75.98754,11.13732],[75.99108,11.13747],[75.992,11.13912],[75.9929,11.13962],[75.9936,11.13957],[75.99412,11.13925],[75.99451,11.13825],[75.99452,11.1378]]]}},{"type":"Feature","bbox":[75.99397,11.13253,76.00371,11.13966],"properties":{"ward":18},"geometry":{"type":"Polygon","coordinates":[[[76.0029,11.13739],[76.00371,11.13606],[76.00333,11.13523],[76.00205,11.13407],[76.00203,11.13361],[76.00169,11.13318],[76.00174,11.13293],[76.00128,11.13272],[75.99859,11.13253],[75.99582,11.13344],[75.99488,11.13441],[75.99397,11.13645],[75.99403,11.13727],[75.9942,11.13758],[75.99452,11.1378],[75.99546,11.13776],[75.99557,11.13843],[75.99576,11.13863],[75.99706,11.13852],[75.99731,11.13947],[75.99758,11.13965],[75.99942,11.13966],[76.00051,11.13908],[76.00078,11.13876],[76.00106,11.13874],[76.00198,11.13776],[76.0029,11.13739]]]}},{"type":"Feature","bbox":[76.0029,11.13114,76.00898,11.14084],"properties":{"ward":19},"geometry":{"type":"Polygon","coordinates":[[[76.00827,11.13845],[76.00865,11.13791],[76.00897,11.13698],[76.00898,11.13637],[76.00806,11.13437],[76.00723,11.13189],[76.00796,11.13114],[76.00661,11.13122],[76.00576,11.13158],[76.00477,11.13167],[76.00443,11.13212],[76.00462,11.1327],[76.00441,11.13375],[76.00333,11.13523],[76.00372,11.13623],[76.0029,11.13739],[76.00368,11.14028],[76.00421,11.14084],[76.00429,11.13999],[76.00492,11.13945],[76.00547,11.1393],[76.00663,11.1393],[76.0074,11.13907],[76.00827,11.13845]]]}},{"type":"Feature","bbox":[75.99978,11.12427,76.01031,11.13122],"properties":{"ward":20},"geometry":{"type":"Polygon","coordinates":[[[76.00796,11.13114],[76.00856,11.13056],[76.01031,11.12816],[76.00997,11.12774],[76.00999,11.12604],[76.00937,11.12597],[76.00898,11.12628],[76.00867,11.1262],[76.00907,11.1252],[76.00907,11.12466],[76.00891,11.12443],[76.00861,11.12427],[76.00572,11.12459],[76.00508,11.12445],[76.00401,11.12512],[76.00174,11.12501],[76.00059,11.1254],[75.99978,11.12597],[76.00008,11.12695],[76.0014,11.1292],[76.00187,11.13065],[76.00204,11.13074],[76.00305,11.13031],[76.00386,11.12991],[76.00418,11.12959],[76.00551,11.12899],[76.00584,11.12918],[76.00661,11.13122],[76.00796,11.13114]]]}},{"type":"Feature","bbox":[75.9927,11.12791,76.00661,11.13523],"properties":{"ward":21},"geometry":{"type":"Polygon","coordinates":[[[76.00661,11.13122],[76.00584,11.12918],[76.00551,11.12899],[76.00418,11.12959],[76.00386,11.12991],[76.00305,11.13031],[76.00204,11.13074],[76.00187,11.13065],[76.0014,11.1292],[76.00072,11.12791],[75.99917,11.12827],[75.99661,11.12968],[75.99564,11.13002],[75.99372,11.13016],[75.99315,11.1304],[75.9927,11.1308],[75.99349,11.13215],[75.99468,11.1337],[75.99695,11.13317],[75.99771,11.13275],[75.99859,11.13253],[76.00128,11.13272],[76.00174,11.13293],[76.00169,11.13318],[76.00203,11.13361],[76.00205,11.13407],[76.00222,11.1343],[76.00333,11.13523],[76.00441,11.13375],[76.00462,11.1327],[76.00448,11.13193],[76.00477,11.13167],[76.00576,11.13158],[76.00661,11.13122]]]}},{"type":"Feature","bbox":[75.99492,11.10961,76.01036,11.12656],"properties":{"ward":22},"geometry":{"type":"Polygon","coordinates":[[[75.9993,11.12641],[76.00122,11.1251],[76.00222,11.125],[76.00401,11.12512],[76.00508,11.12445],[76.00572,11.12459],[76.00713,11.12443],[76.00667,11.12404],[76.00668,11.12358],[76.00692,11.12304],[76.0084,11.12287],[76.00996,11.12153],[76.01035,11.11965],[76.01036,11.11811],[76.00907,11.11587],[76.00853,11.11464],[76.00722,11.11356],[76.00646,11.11233],[76.00634,11.11136],[76.00836,11.11031],[76.00652,11.10961],[76.00533,11.1099],[76.00149,11.1129],[76.00001,11.11559],[75.99795,11.11678],[75.9959,11.1188],[75.99565,11.11935],[75.99555,11.12073],[75.99492,11.12196],[75.99493,11.12366],[75.9956,11.12405],[75.99722,11.12443],[75.99814,11.12643],[75.99869,11.12656],[75.9993,11.12641]]]}},{"type":"Feature","bbox":[75.98892,11.12338,76.00072,11.13452],"properties":{"ward":23},"geometry":{"type":"Polygon","coordinates":[[[75.99468,11.1337],[75.99349,11.13215],[75.9927,11.1308],[75.99315,11.1304],[75.99372,11.13016],[75.99564,11.13002],[75.99661,11.12968],[75.99917,11.12827],[76.00072,11.12791],[76.00008,11.12695],[75.99978,11.12597],[75.9993,11.12641],[75.99869,11.12656],[75.99814,11.12643],[75.99722,11.12443],[75.9956,11.12405],[75.99485,11.12347],[75.99291,11.12338],[75.99304,11.12531],[75.9939,11.12618],[75.99357,11.12724],[75.98892,11.13153],[75.98985,11.13306],[75.9913,11.13452],[75.99371,11.13411],[75.99468,11.1337]]]}},{"type":"Feature","bbox":[75.98533,11.09813,76.01502,11.12347],"properties":{"ward":24},"geometry":{"type":"Polygon","coordinates":[[[75.99485,11.12347],[75.99492,11.12196],[75.99555,11.12073],[75.99565,11.11935],[75.99636,11.11825],[75.99795,11.11678],[76.00001,11.11559],[76.00149,11.1129],[76.00533,11.1099],[76.00652,11.10961],[76.00836,11.11031],[76.00955,11.10966],[76.01023,11.10875],[76.01166,11.10605],[76.01179,11.10448],[76.01313,11.10334],[76.01438,11.1027],[76.01502,11.10201],[76.01486,11.10206],[76.01491,11.10169],[76.01461,11.10123],[76.01422,11.10108],[76.01235,11.10108],[76.01197,11.10062],[76.00997,11.09946],[76.0087,11.09813],[76.00504,11.10027],[76.00222,11.10223],[76.0019,11.10296],[76.0008,11.10421],[76.00033,11.10432],[76.00006,11.10462],[75.99749,11.10536],[75.9944,11.10778],[75.9931,11.10861],[75.99256,11.10876],[75.98918,11.10884],[75.98825,11.10909],[75.98672,11.11036],[75.98533,11.11111],[75.98787,11.11664],[75.98982,11.11913],[75.99115,11.1196],[75.99145,11.11989],[75.99119,11.12042],[75.99021,11.12128],[75.99012,11.12163],[75.99159,11.1224],[75.99291,11.12338],[75.99485,11.12347]]]}},{"type":"Feature","bbox":[75.97911,11.11111,75.9939,11.13306],"properties":{"ward":25},"geometry":{"type":"Polygon","coordinates":[[[75.98892,11.13153],[75.99323,11.12764],[75.99357,11.12724],[75.9939,11.12618],[75.99304,11.12531],[75.99291,11.12338],[75.99159,11.1224],[75.99012,11.12163],[75.99021,11.12128],[75.99119,11.12042],[75.99145,11.11989],[75.99115,11.1196],[75.98982,11.11913],[75.98787,11.11664],[75.98533,11.11111],[75.98294,11.11195],[75.98061,11.11173],[75.98029,11.11223],[75.97911,11.11225],[75.97967,11.11567],[75.97974,11.11696],[75.97931,11.12164],[75.97987,11.1227],[75.97995,11.12375],[75.98027,11.12451],[75.98045,11.12563],[75.98113,11.12711],[75.9816,11.12723],[75.98198,11.12713],[75.98225,11.12658],[75.98287,11.12624],[75.98365,11.12681],[75.98485,11.12819],[75.98478,11.12885],[75.98506,11.12961],[75.98311,11.13084],[75.98295,11.1311],[75.98351,11.1321],[75.98486,11.13253],[75.98578,11.13306],[75.98716,11.13226],[75.98892,11.13153]]]}},{"type":"Feature","bbox":[75.97175,11.11219,75.98506,11.13186],"properties":{"ward":26},"geometry":{"type":"Polygon","coordinates":[[[75.9826,11.13142],[75.98311,11.13084],[75.98506,11.12961],[75.98478,11.12885],[75.98485,11.12819],[75.98365,11.12681],[75.98287,11.12624],[75.98225,11.12658],[75.98198,11.12713],[75.9816,11.12723],[75.98113,11.12711],[75.9808,11.1266],[75.97995,11.12375],[75.97987,11.1227],[75.97931,11.12164],[75.97974,11.11696],[75.97967,11.11567],[75.97911,11.11225],[75.97862,11.11219],[75.97749,11.11505],[75.97643,11.11861],[75.9764,11.11929],[75.97685,11.12043],[75.97711,11.12072],[75.97707,11.12102],[75.97584,11.12173],[75.9753,11.12181],[75.97475,11.12227],[75.97393,11.1225],[75.97312,11.12296],[75.97265,11.12352],[75.97224,11.12367],[75.97175,11.12459],[75.97189,11.12602],[75.97216,11.12673],[75.97381,11.12544],[75.97502,11.12631],[75.97567,11.12735],[75.97575,11.12888],[75.97615,11.12999],[75.97706,11.13091],[75.9774,11.13088],[75.97781,11.13186],[75.97882,11.13132],[75.97948,11.13069],[75.97973,11.1307],[75.98101,11.12984],[75.98215,11.13132],[75.9826,11.13142]]]}},{"type":"Feature","bbox":[75.96432,11.112,75.97862,11.13523],"properties":{"ward":27},"geometry":{"type":"Polygon","coordinates":[[[75.97122,11.13508],[75.97212,11.13458],[75.97102,11.13308],[75.9708,11.13228],[75.97085,11.13198],[75.97132,11.13139],[75.97121,11.13021],[75.96921,11.12865],[75.9719,11.12707],[75.97216,11.12673],[75.97189,11.12602],[75.97175,11.12459],[75.97224,11.12367],[75.97265,11.12352],[75.97312,11.12296],[75.97393,11.1225],[75.97475,11.12227],[75.9753,11.12181],[75.97584,11.12173],[75.97707,11.12102],[75.97711,11.12072],[75.97685,11.12043],[75.9764,11.11929],[75.97643,11.11861],[75.97749,11.11505],[75.97862,11.11219],[75.97291,11.112],[75.97295,11.11211],[75.97155,11.11286],[75.9715,11.11309],[75.97064,11.11396],[75.96892,11.11486],[75.96846,11.11486],[75.96716,11.11716],[75.96669,11.11747],[75.96459,11.11806],[75.96432,11.11931],[75.96437,11.11997],[75.96461,11.1207],[75.96533,11.12151],[75.9657,11.12227],[75.96684,11.12592],[75.96631,11.12587],[75.96691,11.12888],[75.96706,11.13049],[75.96767,11.13286],[75.96744,11.13378],[75.96627,11.13523],[75.96919,11.13512],[75.96956,11.13494],[75.97122,11.13508]]]}},{"type":"Feature","bbox":[75.96921,11.12544,75.97781,11.13671],"properties":{"ward":28},"geometry":{"type":"Polygon","coordinates":[[[75.97502,11.13659],[75.97533,11.13644],[75.9755,11.13613],[75.97568,11.13496],[75.97619,11.13421],[75.97645,11.13401],[75.97698,11.13416],[75.97772,11.13381],[75.97776,11.13348],[75.97755,11.13298],[75.97717,11.13259],[75.97744,11.13208],[75.97781,11.13186],[75.9774,11.13088],[75.97706,11.13091],[75.97615,11.12999],[75.97575,11.12888],[75.97567,11.12735],[75.97502,11.12631],[75.97381,11.12544],[75.97219,11.12669],[75.9719,11.12707],[75.96921,11.12865],[75.97121,11.13021],[75.97132,11.13139],[75.97085,11.13198],[75.9708,11.13228],[75.97102,11.13308],[75.97212,11.13458],[75.97321,11.13411],[75.97353,11.13552],[75.97402,11.13664],[75.97441,11.13671],[75.9745,11.1365],[75.97478,11.13643],[75.97502,11.13659]]]}},{"type":"Feature","bbox":[75.97449,11.12984,75.986,11.1398],"properties":{"ward":29},"geometry":{"type":"Polygon","coordinates":[[[75.97947,11.13886],[75.98172,11.13728],[75.98437,11.13587],[75.9842,11.1352],[75.9849,11.13495],[75.98598,11.13376],[75.986,11.13337],[75.98578,11.13306],[75.98486,11.13253],[75.98351,11.1321],[75.98295,11.1311],[75.9826,11.13142],[75.98215,11.13132],[75.98101,11.12984],[75.97973,11.1307],[75.97948,11.13069],[75.97882,11.13132],[75.97744,11.13208],[75.97722,11.13234],[75.97717,11.13259],[75.97755,11.13298],[75.97776,11.13348],[75.97772,11.13381],[75.97698,11.13416],[75.97645,11.13401],[75.97592,11.13449],[75.97568,11.13496],[75.9755,11.13613],[75.97533,11.13644],[75.97502,11.13659],[75.97476,11.13714],[75.97449,11.13834],[75.97491,11.13931],[75.97482,11.13954],[75.97494,11.1398],[75.97605,11.13902],[75.9772,11.13883],[75.97947,11.13886]]]}},{"type":"Feature","bbox":[75.97034,11.13411,75.97578,11.14475],"properties":{"ward":30},"geometry":{"type":"Polygon","coordinates":[[[75.97578,11.14126],[75.97536,11.14046],[75.97495,11.14006],[75.97482,11.13954],[75.97491,11.13931],[75.97449,11.13834],[75.97502,11.13659],[75.97478,11.13643],[75.9745,11.1365],[75.97441,11.13671],[75.97402,11.13664],[75.97353,11.13552],[75.97321,11.13411],[75.97122,11.13508],[75.9719,11.13643],[75.97034,11.13979],[75.97061,11.13995],[75.97075,11.14045],[75.97104,11.14073],[75.97122,11.1418],[75.97143,11.14214],[75.97133,11.14322],[75.97173,11.14424],[75.97214,11.14475],[75.97483,11.14191],[75.97578,11.14126]]]}},{"type":"Feature","bbox":[75.96467,11.13494,75.97214,11.14542],"properties":{"ward":31},"geometry":{"type":"Polygon","coordinates":[[[75.97214,11.14475],[75.97173,11.14424],[75.97133,11.14322],[75.97143,11.14214],[75.97122,11.1418],[75.97104,11.14073],[75.97075,11.14045],[75.97061,11.13995],[75.97034,11.13979],[75.9719,11.13643],[75.97122,11.13508],[75.96956,11.13494],[75.96919,11.13512],[75.96627,11.13523],[75.9655,11.13592],[75.96467,11.13621],[75.96496,11.13688],[75.96489,11.13905],[75.96512,11.13952],[75.96606,11.13992],[75.96721,11.13925],[75.96789,11.13925],[75.96815,11.13951],[75.96819,11.14052],[75.96789,11.14143],[75.9679,11.14191],[75.969,11.14308],[75.96966,11.14542],[75.97178,11.14497],[75.97214,11.14475]]]}},{"type":"Feature","bbox":[75.9636,11.13925,75.96966,11.14634],"properties":{"ward":32},"geometry":{"type":"Polygon","coordinates":[[[75.96966,11.14542],[75.969,11.14308],[75.9679,11.14191],[75.96789,11.14143],[75.96819,11.14052],[75.96815,11.13951],[75.96789,11.13925],[75.96721,11.13925],[75.96606,11.13992],[75.96512,11.13952],[75.96441,11.1408],[75.96454,11.14105],[75.96448,11.14176],[75.9636,11.14292],[75.96422,11.14425],[75.96475,11.14487],[75.96493,11.14569],[75.96505,11.14584],[75.96686,11.14523],[75.9676,11.14585],[75.96788,11.14582],[75.96839,11.14634],[75.96966,11.14542]]]}},{"type":"Feature","bbox":[75.95984,11.13621,75.96512,11.14292],"properties":{"ward":33},"geometry":{"type":"Polygon","coordinates":[[[75.96512,11.13952],[75.96489,11.13905],[75.96496,11.13688],[75.96467,11.13621],[75.9644,11.13631],[75.96425,11.1367],[75.96311,11.13666],[75.96303,11.13695],[75.96175,11.1379],[75.96189,11.13848],[75.96166,11.13875],[75.9602,11.13868],[75.95984,11.13932],[75.9601,11.14051],[75.96066,11.14147],[75.9606,11.14209],[75.96277,11.14217],[75.9636,11.14292],[75.96448,11.14176],[75.96454,11.14105],[75.96441,11.1408],[75.96512,11.13952]]]}},{"type":"Feature","bbox":[75.9523,11.13577,75.96311,11.14397],"properties":{"ward":34},"geometry":{"type":"Polygon","coordinates":[[[75.9606,11.14209],[75.96066,11.14147],[75.9601,11.14051],[75.95984,11.13932],[75.95994,11.13901],[75.9602,11.13868],[75.96166,11.13875],[75.96189,11.13848],[75.96175,11.1379],[75.96303,11.13695],[75.96311,11.13666],[75.96122,11.13661],[75.96053,11.13608],[75.95898,11.13577],[75.95735,11.13577],[75.95526,11.13623],[75.9534,11.1373],[75.9523,11.13837],[75.95347,11.13979],[75.95426,11.14397],[75.95483,11.14368],[75.95603,11.1426],[75.9573,11.14213],[75.9606,11.14209]]]}},{"type":"Feature","bbox":[75.95295,11.14213,75.9655,11.14907],"properties":{"ward":35},"geometry":{"type":"Polygon","coordinates":[[[75.9655,11.1472],[75.96475,11.14487],[75.96422,11.14425],[75.9636,11.14292],[75.96277,11.14217],[75.9573,11.14213],[75.95603,11.1426],[75.95483,11.14368],[75.95295,11.14455],[75.95361,11.14535],[75.95461,11.14592],[75.95497,11.1459],[75.95595,11.14538],[75.95676,11.14462],[75.95773,11.14439],[75.95835,11.14453],[75.95868,11.14468],[75.95935,11.14574],[75.96023,11.14642],[75.96056,11.14708],[75.96208,11.14724],[75.96329,11.14907],[75.96344,11.14907],[75.96458,11.14783],[75.9655,11.1472]]]}},{"type":"Feature","bbox":[75.94975,11.14439,75.96056,11.14901],"properties":{"ward":36},"geometry":{"type":"Polygon","coordinates":[[[75.95235,11.14901],[75.95381,11.14858],[75.95409,11.14823],[75.95822,11.14819],[75.96056,11.14708],[75.96023,11.14642],[75.95935,11.14574],[75.95868,11.14468],[75.95773,11.14439],[75.95676,11.14462],[75.95595,11.14538],[75.95497,11.1459],[75.95414,11.14575],[75.95311,11.14485],[75.95029,11.14514],[75.94986,11.14556],[75.94975,11.1461],[75.95018,11.1473],[75.9511,11.14803],[75.95139,11.14847],[75.95235,11.14901]]]}},{"type":"Feature","bbox":[75.95217,11.14708,75.96329,11.15377],"properties":{"ward":37},"geometry":{"type":"Polygon","coordinates":[[[75.95297,11.15377],[75.95435,11.15299],[75.95659,11.15088],[75.95914,11.14906],[75.96063,11.14846],[75.96116,11.14962],[75.96214,11.15039],[75.96329,11.14907],[75.96208,11.14724],[75.96056,11.14708],[75.96008,11.14741],[75.95975,11.14739],[75.95778,11.14828],[75.95409,11.14823],[75.95381,11.14858],[75.95255,11.14899],[75.95256,11.15009],[75.95244,11.15065],[75.95217,11.151],[75.95262,11.15179],[75.95272,11.15215],[75.95245,11.1526],[75.95297,11.15377]]]}},{"type":"Feature","bbox":[75.94305,11.13837,75.95426,11.1547],"properties":{"ward":38},"geometry":{"type":"Polygon","coordinates":[[[75.95139,11.14847],[75.9511,11.14803],[75.95018,11.1473],[75.94981,11.14647],[75.94986,11.14556],[75.95029,11.14514],[75.95311,11.14485],[75.95295,11.14455],[75.95426,11.14397],[75.95347,11.13979],[75.9523,11.13837],[75.95091,11.13899],[75.94928,11.1409],[75.94888,11.14105],[75.94795,11.1419],[75.94748,11.14373],[75.94748,11.14511],[75.94725,11.14634],[75.9467,11.1481],[75.946,11.14902],[75.94515,11.14971],[75.94421,11.15032],[75.94328,11.15063],[75.94305,11.1509],[75.9438,11.15208],[75.94577,11.15404],[75.94586,11.15443],[75.94617,11.1547],[75.94852,11.15261],[75.94858,11.15239],[75.94741,11.15162],[75.94749,11.15127],[75.94897,11.14987],[75.94951,11.14969],[75.95139,11.14847]]]}},{"type":"Feature","bbox":[75.94617,11.14847,75.95296,11.15686],"properties":{"ward":39},"geometry":{"type":"Polygon","coordinates":[[[75.95296,11.15377],[75.95245,11.1526],[75.95272,11.15215],[75.95262,11.15179],[75.95217,11.151],[75.95244,11.15065],[75.95256,11.15009],[75.95255,11.14899],[75.95235,11.14901],[75.95139,11.14847],[75.94951,11.14969],[75.94897,11.14987],[75.94749,11.15127],[75.94741,11.15162],[75.94858,11.15239],[75.94852,11.15261],[75.94617,11.1547],[75.94619,11.15499],[75.94771,11.15686],[75.95223,11.15406],[75.95296,11.15377]]]}},{"type":"Feature","bbox":[75.93915,11.1509,75.94771,11.16333],"properties":{"ward":40},"geometry":{"type":"Polygon","coordinates":[[[75.94578,11.15882],[75.94585,11.15844],[75.94684,11.1574],[75.94771,11.15686],[75.94634,11.1553],[75.94577,11.15404],[75.9438,11.15208],[75.94305,11.1509],[75.94196,11.15262],[75.9411,11.15469],[75.93946,11.15645],[75.93915,11.15737],[75.9393,11.15799],[75.94033,11.15965],[75.93919,11.16023],[75.94009,11.16191],[75.94022,11.16308],[75.9405,11.16333],[75.94214,11.16063],[75.94246,11.16035],[75.94442,11.15982],[75.94578,11.15882]]]}}]}