{"type":"FeatureCollection","features":[{"type":"Feature","bbox":[77.52924,18.8518,77.53214,18.85553],"properties":{"ward":1},"geometry":{"type":"Polygon","coordinates":[[[77.53104,18.8518],[77.53017,18.85318],[77.52993,18.85346],[77.52959,18.85351],[77.52924,18.85539],[77.52956,18.85553],[77.53032,18.85551],[77.53056,18.85514],[77.53065,18.8546],[77.53214,18.85293],[77.53207,18.85254],[77.53182,18.85225],[77.53104,18.8518]]]}},{"type":"Feature","bbox":[77.53221,18.84942,77.53634,18.85294],"properties":{"ward":2},"geometry":{"type":"Polygon","coordinates":[[[77.53297,18.85196],[77.53221,18.85235],[77.53238,18.85294],[77.53462,18.85269],[77.53494,18.8523],[77.53591,18.85259],[77.53634,18.85108],[77.53621,18.85017],[77.53533,18.84957],[77.53477,18.84942],[77.53475,18.84984],[77.53386,18.8512],[77.53297,18.85196]]]}},{"type":"Feature","bbox":[77.53593,18.8504,77.5416,18.8544],"properties":{"ward":3},"geometry":{"type":"Polygon","coordinates":[[[77.5416,18.85367],[77.54134,18.85299],[77.53965,18.85178],[77.53659,18.8504],[77.53651,18.85051],[77.53623,18.85218],[77.53593,18.8528],[77.53599,18.8541],[77.53713,18.8544],[77.53756,18.85386],[77.53837,18.85348],[77.53869,18.85315],[77.53951,18.85315],[77.53993,18.85337],[77.5402,18.85381],[77.5416,18.85367]]]}},{"type":"Feature","bbox":[77.53977,18.8505,77.54489,18.85406],"properties":{"ward":4},"geometry":{"type":"Polygon","coordinates":[[[77.53977,18.85167],[77.54182,18.85306],[77.54431,18.85406],[77.54436,18.85373],[77.54489,18.85301],[77.54304,18.85255],[77.54138,18.85174],[77.54071,18.85138],[77.54008,18.8505],[77.53977,18.85167]]]}},{"type":"Feature","bbox":[77.53252,18.84593,77.53993,18.85163],"properties":{"ward":5},"geometry":{"type":"Polygon","coordinates":[[[77.53252,18.84786],[77.5341,18.84894],[77.53564,18.84959],[77.53685,18.85037],[77.53952,18.85163],[77.53965,18.85099],[77.53993,18.85054],[77.53848,18.84941],[77.5378,18.84966],[77.53683,18.84939],[77.53458,18.84829],[77.53386,18.84644],[77.53276,18.84593],[77.53254,18.84678],[77.53252,18.84786]]]}},{"type":"Feature","bbox":[77.53132,18.84811,77.53463,18.85219],"properties":{"ward":6},"geometry":{"type":"Polygon","coordinates":[[[77.53241,18.84811],[77.53132,18.8516],[77.53202,18.85219],[77.53252,18.85212],[77.53362,18.85136],[77.53403,18.8505],[77.53459,18.84985],[77.53463,18.84935],[77.53406,18.8492],[77.53241,18.84811]]]}},{"type":"Feature","bbox":[77.52903,18.85065,77.53125,18.85342],"properties":{"ward":7},"geometry":{"type":"Polygon","coordinates":[[[77.52903,18.85314],[77.52947,18.85292],[77.52955,18.85342],[77.53008,18.85324],[77.53125,18.85065],[77.53072,18.85094],[77.5296,18.85113],[77.52924,18.85138],[77.52903,18.85314]]]}},{"type":"Feature","bbox":[77.52766,18.8499,77.52985,18.85336],"properties":{"ward":8},"geometry":{"type":"Polygon","coordinates":[[[77.52901,18.85007],[77.52805,18.84998],[77.52815,18.85162],[77.52768,18.85235],[77.52766,18.85292],[77.52784,18.85325],[77.52839,18.85336],[77.52864,18.85324],[77.52907,18.85214],[77.52916,18.85126],[77.52985,18.85097],[77.52953,18.8499],[77.52901,18.85007]]]}},{"type":"Feature","bbox":[77.52668,18.84751,77.52955,18.84995],"properties":{"ward":9},"geometry":{"type":"Polygon","coordinates":[[[77.527,18.84791],[77.52668,18.84811],[77.52726,18.84948],[77.52793,18.84965],[77.52821,18.84995],[77.52898,18.84994],[77.52955,18.8497],[77.52924,18.84773],[77.52934,18.84751],[77.527,18.84791]]]}},{"type":"Feature","bbox":[77.52981,18.84985,77.53146,18.85105],"properties":{"ward":10},"geometry":{"type":"Polygon","coordinates":[[[77.52981,18.84998],[77.52992,18.85084],[77.53011,18.85105],[77.53087,18.85075],[77.53146,18.85012],[77.53063,18.84985],[77.52981,18.84998]]]}},{"type":"Feature","bbox":[77.52934,18.84736,77.53224,18.84999],"properties":{"ward":11},"geometry":{"type":"Polygon","coordinates":[[[77.53224,18.84805],[77.53033,18.84736],[77.5301,18.84753],[77.52952,18.8476],[77.52934,18.84783],[77.52952,18.84816],[77.52979,18.84975],[77.53072,18.84976],[77.53164,18.84999],[77.53165,18.84957],[77.53224,18.84805]]]}},{"type":"Feature","bbox":[77.53036,18.84475,77.53265,18.84792],"properties":{"ward":12},"geometry":{"type":"Polygon","coordinates":[[[77.53036,18.84512],[77.53094,18.84731],[77.53233,18.84792],[77.53265,18.84475],[77.53192,18.84547],[77.53036,18.84512]]]}},{"type":"Feature","bbox":[77.52664,18.8449,77.53078,18.8478],"properties":{"ward":13},"geometry":{"type":"Polygon","coordinates":[[[77.52756,18.84641],[77.52679,18.84675],[77.52664,18.84758],[77.52687,18.8478],[77.5295,18.84732],[77.53074,18.84727],[77.53078,18.8468],[77.53059,18.84646],[77.5305,18.84552],[77.52994,18.8449],[77.52742,18.84556],[77.52756,18.84641]]]}},{"type":"Feature","bbox":[77.52232,18.84418,77.52749,18.84834],"properties":{"ward":14},"geometry":{"type":"Polygon","coordinates":[[[77.52561,18.84436],[77.52551,18.84596],[77.52522,18.84639],[77.52449,18.84668],[77.52322,18.84676],[77.52232,18.84718],[77.52295,18.84818],[77.52378,18.84834],[77.52417,18.84807],[77.52469,18.84725],[77.52515,18.84695],[77.52749,18.84639],[77.52743,18.84593],[77.52703,18.84524],[77.52681,18.84418],[77.52561,18.84436]]]}},{"type":"Feature","bbox":[77.52677,18.84333,77.52976,18.84542],"properties":{"ward":15},"geometry":{"type":"Polygon","coordinates":[[[77.52781,18.84345],[77.52677,18.84333],[77.52693,18.84351],[77.52681,18.84408],[77.52698,18.84489],[77.52734,18.84542],[77.52916,18.84514],[77.52976,18.84484],[77.52781,18.84345]]]}},{"type":"Feature","bbox":[77.52564,18.84315,77.52686,18.84432],"properties":{"ward":16,"name":"Chavan Galli"},"geometry":{"type":"Polygon","coordinates":[[[77.52564,18.84432],[77.5266,18.84421],[77.52681,18.84393],[77.52686,18.84351],[77.52571,18.84315],[77.52564,18.84432]]]}},{"type":"Feature","bbox":[77.53071,18.83989,77.53463,18.84516],"properties":{"ward":17},"geometry":{"type":"Polygon","coordinates":[[[77.5328,18.84516],[77.53343,18.84293],[77.53463,18.84227],[77.53458,18.84197],[77.53377,18.84106],[77.53327,18.84074],[77.53283,18.84068],[77.53217,18.84011],[77.53156,18.83989],[77.53103,18.83999],[77.53073,18.84062],[77.53071,18.84218],[77.53315,18.84365],[77.53274,18.84461],[77.5328,18.84516]]]}}]}