{"type":"FeatureCollection","features":[{"type":"Feature","bbox":[73.32051,19.45797,73.32576,19.46158],"properties":{"ward":1,"name":"Tambadmal,Bendwad,Khanshet,Modkan,Taka"},"geometry":{"type":"Polygon","coordinates":[[[73.32051,19.46054],[73.32093,19.46142],[73.3244,19.46158],[73.32454,19.46152],[73.32468,19.46064],[73.32537,19.45987],[73.32576,19.45869],[73.32464,19.45797],[73.32382,19.45807],[73.32249,19.45919],[73.32103,19.46004],[73.32051,19.46054]]]}},{"type":"Feature","bbox":[73.31117,19.45108,73.31715,19.4579],"properties":{"ward":2,"name":"Ganeshwadi"},"geometry":{"type":"Polygon","coordinates":[[[73.31117,19.45786],[73.31199,19.4579],[73.31319,19.45764],[73.31381,19.45695],[73.31487,19.45637],[73.31715,19.45623],[73.3152,19.45344],[73.31404,19.45108],[73.31373,19.45128],[73.31219,19.45422],[73.31238,19.45468],[73.31117,19.45786]]]}},{"type":"Feature","bbox":[73.31713,19.45661,73.323,19.46074],"properties":{"ward":3,"name":"Chandanwadi,Samarthnagar"},"geometry":{"type":"Polygon","coordinates":[[[73.3175,19.45822],[73.31713,19.45883],[73.31928,19.46039],[73.32002,19.46074],[73.32229,19.45908],[73.323,19.45826],[73.32138,19.45756],[73.31908,19.45708],[73.3182,19.45661],[73.31802,19.45718],[73.31753,19.45773],[73.3175,19.45822]]]}},{"type":"Feature","bbox":[73.32449,19.45351,73.3292,19.4586],"properties":{"ward":4,"name":"Bramhanali, Kasar Ali"},"geometry":{"type":"Polygon","coordinates":[[[73.32449,19.45726],[73.32596,19.4586],[73.32662,19.45738],[73.32724,19.45738],[73.32761,19.45754],[73.32841,19.45663],[73.3292,19.45542],[73.32906,19.45499],[73.32742,19.45351],[73.32676,19.4538],[73.32615,19.45433],[73.3258,19.45501],[73.32506,19.45589],[73.32449,19.45726]]]}},{"type":"Feature","bbox":[73.31973,19.45484,73.32479,19.45803],"properties":{"ward":5,"name":"Bramhanali,Vrundavan Society"},"geometry":{"type":"Polygon","coordinates":[[[73.32305,19.45803],[73.32418,19.45739],[73.32479,19.45597],[73.32477,19.45536],[73.3239,19.45484],[73.32285,19.45515],[73.32208,19.45497],[73.32147,19.45513],[73.32107,19.45496],[73.32048,19.45529],[73.31983,19.4562],[73.31973,19.45693],[73.32011,19.45726],[73.32114,19.45726],[73.32305,19.45803]]]}},{"type":"Feature","bbox":[73.32757,19.45155,73.33016,19.45502],"properties":{"ward":6,"name":"Gonenagar,Gawalipada"},"geometry":{"type":"Polygon","coordinates":[[[73.32757,19.45322],[73.32773,19.45364],[73.32843,19.45435],[73.32906,19.45469],[73.32928,19.45502],[73.32952,19.45491],[73.33016,19.45289],[73.33006,19.45155],[73.32899,19.45171],[73.32757,19.45322]]]}},{"type":"Feature","bbox":[73.32345,19.45136,73.32514,19.45317],"properties":{"ward":7,"name":"Kasturi Co.,Gopalnagar"},"geometry":{"type":"Polygon","coordinates":[[[73.32384,19.45211],[73.32345,19.45311],[73.32438,19.45317],[73.32459,19.45299],[73.32514,19.45158],[73.32444,19.45136],[73.32411,19.45197],[73.32384,19.45211]]]}},{"type":"Feature","bbox":[73.31419,19.4506,73.31784,19.45399],"properties":{"ward":8,"name":"Agraroad,So B Basawant Marg"},"geometry":{"type":"Polygon","coordinates":[[[73.31419,19.45111],[73.31629,19.45399],[73.31753,19.45385],[73.31784,19.45298],[73.31716,19.45066],[73.31669,19.4506],[73.31419,19.45111]]]}},{"type":"Feature","bbox":[73.3147,19.45218,73.32065,19.45688],"properties":{"ward":9,"name":"Tawadenagar,Warghadenagar"},"geometry":{"type":"Polygon","coordinates":[[[73.31919,19.45688],[73.31964,19.45631],[73.31995,19.45539],[73.32065,19.45454],[73.32046,19.45422],[73.3198,19.45475],[73.31887,19.45518],[73.3185,19.455],[73.31815,19.45453],[73.31782,19.45332],[73.31774,19.45406],[73.31622,19.45415],[73.3147,19.45218],[73.31507,19.453],[73.31629,19.4546],[73.31664,19.45548],[73.3171,19.45574],[73.31798,19.45577],[73.3186,19.4566],[73.31919,19.45688]]]}},{"type":"Feature","bbox":[73.32553,19.45025,73.32842,19.4531],"properties":{"ward":10,"name":"Popat Shet Wada Agraroad"},"geometry":{"type":"Polygon","coordinates":[[[73.32621,19.45061],[73.32553,19.45157],[73.32731,19.4531],[73.32842,19.4519],[73.32825,19.45126],[73.32782,19.45075],[73.327,19.45025],[73.32621,19.45061]]]}},{"type":"Feature","bbox":[73.32467,19.45165,73.32711,19.45412],"properties":{"ward":11,"name":"Jain Mandir Marg,Bhendi Ali"},"geometry":{"type":"Polygon","coordinates":[[[73.32467,19.45306],[73.32612,19.45412],[73.32711,19.45325],[73.32709,19.45306],[73.32655,19.45282],[73.32609,19.45219],[73.32531,19.45165],[73.32467,19.45306]]]}},{"type":"Feature","bbox":[73.3206,19.45322,73.32592,19.45521],"properties":{"ward":12,"name":"Kasar Ali"},"geometry":{"type":"Polygon","coordinates":[[[73.32125,19.45409],[73.3206,19.45485],[73.32078,19.45494],[73.32095,19.45482],[73.32387,19.45453],[73.32536,19.45521],[73.32592,19.45418],[73.32472,19.45333],[73.32355,19.45322],[73.32267,19.45352],[73.32229,19.4535],[73.32125,19.45409]]]}},{"type":"Feature","bbox":[73.32467,19.45165,73.32711,19.45412],"properties":{"ward":13,"name":"Chachad Wada, Bhoudh Wada"},"geometry":{"type":"Polygon","coordinates":[[[73.32467,19.45306],[73.32612,19.45412],[73.32711,19.45325],[73.32709,19.45306],[73.32655,19.45282],[73.32609,19.45219],[73.32531,19.45165],[73.32467,19.45306]]]}},{"type":"Feature","bbox":[73.32221,19.45083,73.32435,19.45302],"properties":{"ward":14,"name":"Mirchi Gali,Dns Bank,Muslim Mohalla"},"geometry":{"type":"Polygon","coordinates":[[[73.32331,19.45302],[73.32352,19.45245],[73.32435,19.45123],[73.32314,19.45083],[73.32221,19.4515],[73.32273,19.45167],[73.32313,19.45215],[73.32331,19.45302]]]}},{"type":"Feature","bbox":[73.32331,19.44955,73.32622,19.45147],"properties":{"ward":15,"name":"Sawant Vihar"},"geometry":{"type":"Polygon","coordinates":[[[73.32331,19.45077],[73.32542,19.45147],[73.32622,19.45036],[73.3256,19.44965],[73.32533,19.44955],[73.32331,19.45077]]]}},{"type":"Feature","bbox":[73.32773,19.44951,73.33017,19.45178],"properties":{"ward":16,"name":"Rambag,Jambhulpada"},"geometry":{"type":"Polygon","coordinates":[[[73.32858,19.45178],[73.33017,19.45111],[73.32975,19.45051],[73.32841,19.44951],[73.32773,19.45049],[73.3283,19.45105],[73.32858,19.45178]]]}},{"type":"Feature","bbox":[73.3255,19.44793,73.32814,19.45035],"properties":{"ward":17,"name":"Gangaroad,Pathanwada,Deshmukhwadi"},"geometry":{"type":"Polygon","coordinates":[[[73.32757,19.45035],[73.32814,19.44933],[73.32725,19.44793],[73.3255,19.44949],[73.3262,19.45014],[73.32709,19.45017],[73.32757,19.45035]]]}}]}