{"type":"FeatureCollection","features":[{"type":"Feature","bbox":[79.64145,20.29076,79.65865,20.31234],"properties":{"ward":1,"name":"Jaiswal Colony"},"geometry":{"type":"Polygon","coordinates":[[[79.65181,20.29254],[79.64668,20.29317],[79.64554,20.29432],[79.64169,20.29651],[79.64192,20.29717],[79.64254,20.29788],[79.64241,20.29816],[79.64205,20.29836],[79.64215,20.29893],[79.64245,20.29938],[79.6424,20.29961],[79.64228,20.29981],[79.64171,20.29979],[79.64164,20.30047],[79.64177,20.30078],[79.64145,20.30172],[79.64177,20.30231],[79.64308,20.30251],[79.64329,20.30297],[79.64392,20.30317],[79.64416,20.30369],[79.64602,20.30428],[79.64649,20.30469],[79.64736,20.30462],[79.64765,20.30486],[79.64775,20.30529],[79.64821,20.3052],[79.64854,20.30555],[79.64885,20.30555],[79.64948,20.30454],[79.64991,20.30439],[79.65069,20.30439],[79.65157,20.30463],[79.65232,20.30514],[79.65289,20.30502],[79.65308,20.30514],[79.65318,20.30548],[79.65266,20.30612],[79.65303,20.3068],[79.65291,20.30707],[79.65318,20.30734],[79.65357,20.30721],[79.65365,20.30745],[79.65341,20.30774],[79.65373,20.30794],[79.6541,20.30854],[79.65375,20.30942],[79.65392,20.31006],[79.65354,20.31073],[79.65375,20.31113],[79.65414,20.3111],[79.65441,20.31129],[79.65472,20.31183],[79.65463,20.31214],[79.65512,20.31234],[79.65525,20.31231],[79.65813,20.29903],[79.65865,20.29603],[79.65853,20.29561],[79.65558,20.29094],[79.65523,20.29106],[79.65504,20.29076],[79.65409,20.29142],[79.65229,20.29204],[79.65181,20.29254]],[[79.65183,20.29254],[79.65251,20.29256],[79.653,20.29263],[79.65183,20.29254]]]}},{"type":"Feature","bbox":[79.6553,20.2906,79.67681,20.31311],"properties":{"ward":2,"name":"Madnapur Ward"},"geometry":{"type":"Polygon","coordinates":[[[79.65682,20.29251],[79.65694,20.29308],[79.65854,20.29562],[79.65865,20.29616],[79.6553,20.31211],[79.65536,20.31244],[79.65575,20.31205],[79.65613,20.31203],[79.65739,20.31311],[79.65756,20.31306],[79.65767,20.31293],[79.65732,20.31223],[79.65741,20.31192],[79.65769,20.3116],[79.65804,20.31165],[79.65824,20.31152],[79.65899,20.31082],[79.65947,20.31075],[79.65982,20.31091],[79.66017,20.31045],[79.66119,20.31034],[79.66154,20.31049],[79.66181,20.31077],[79.66178,20.31093],[79.66203,20.31101],[79.66269,20.31052],[79.66311,20.31039],[79.66397,20.3105],[79.66434,20.30967],[79.66475,20.30946],[79.66558,20.30967],[79.66595,20.30959],[79.66607,20.3102],[79.66674,20.31097],[79.66671,20.31114],[79.66754,20.31158],[79.6679,20.31208],[79.66956,20.31212],[79.66969,20.31183],[79.66944,20.31138],[79.66921,20.3103],[79.6694,20.30989],[79.67117,20.30943],[79.67215,20.30963],[79.67272,20.30993],[79.67468,20.30875],[79.67681,20.3077],[79.67505,20.30418],[79.6737,20.30213],[79.67365,20.29686],[79.67463,20.29513],[79.67504,20.29514],[79.6767,20.29308],[79.67652,20.29291],[79.67476,20.29293],[79.67423,20.29276],[79.67442,20.29096],[79.6738,20.29116],[79.67361,20.2915],[79.6732,20.29142],[79.67244,20.2906],[79.671,20.29088],[79.67084,20.29149],[79.67045,20.29152],[79.66938,20.29203],[79.66885,20.29182],[79.66832,20.29207],[79.66806,20.29236],[79.66888,20.29467],[79.66788,20.29501],[79.66707,20.29495],[79.66403,20.29405],[79.6599,20.29189],[79.65719,20.29232],[79.65682,20.29251]]]}},{"type":"Feature","bbox":[79.6558,20.2912,79.66886,20.295],"properties":{"ward":3,"name":"Heti Ward"},"geometry":{"type":"Polygon","coordinates":[[[79.66886,20.29467],[79.66753,20.29121],[79.66468,20.29136],[79.66447,20.29181],[79.66409,20.29162],[79.66405,20.29136],[79.66207,20.29148],[79.66195,20.2913],[79.66147,20.29146],[79.65986,20.2912],[79.65934,20.29163],[79.65904,20.29161],[79.65889,20.29125],[79.65844,20.29136],[79.6558,20.29127],[79.65665,20.29264],[79.65718,20.29232],[79.6599,20.29188],[79.66474,20.29429],[79.6672,20.29497],[79.66788,20.295],[79.66886,20.29467]]]}},{"type":"Feature","bbox":[79.64615,20.28732,79.65783,20.29305],"properties":{"ward":4,"name":"Wrundawan Colony"},"geometry":{"type":"Polygon","coordinates":[[[79.65489,20.28945],[79.6535,20.28732],[79.65061,20.28944],[79.65,20.28922],[79.64874,20.28963],[79.64868,20.28924],[79.6482,20.2893],[79.64767,20.28971],[79.64749,20.28954],[79.64763,20.28919],[79.64781,20.28913],[79.64772,20.28891],[79.6471,20.28935],[79.64715,20.2891],[79.64665,20.28906],[79.6462,20.2899],[79.6465,20.2909],[79.64624,20.29095],[79.64615,20.29157],[79.64675,20.29305],[79.64861,20.29276],[79.64882,20.29258],[79.65131,20.29199],[79.6516,20.29224],[79.6541,20.29142],[79.65504,20.29077],[79.65522,20.29106],[79.65558,20.29094],[79.65579,20.29127],[79.65736,20.29131],[79.65736,20.29104],[79.65716,20.29095],[79.65739,20.29052],[79.65768,20.29061],[79.65783,20.29006],[79.65772,20.28996],[79.65619,20.28887],[79.65513,20.28832],[79.65489,20.28945]]]}},{"type":"Feature","bbox":[79.65639,20.28789,79.66197,20.29164],"properties":{"ward":5,"name":"Jatlapur Tukum"},"geometry":{"type":"Polygon","coordinates":[[[79.65716,20.29097],[79.65736,20.29132],[79.6577,20.29134],[79.65888,20.29124],[79.65905,20.29162],[79.65935,20.29164],[79.65985,20.2912],[79.66147,20.29146],[79.66197,20.2913],[79.66141,20.29047],[79.66057,20.29048],[79.66038,20.29015],[79.66,20.29035],[79.65907,20.29039],[79.65812,20.28935],[79.65792,20.28811],[79.65709,20.28789],[79.6569,20.288],[79.65639,20.28902],[79.65783,20.29008],[79.65768,20.29061],[79.6574,20.29053],[79.65716,20.29097]]]}},{"type":"Feature","bbox":[79.66038,20.28555,79.66707,20.29181],"properties":{"ward":6,"name":"Khati Moholla"},"geometry":{"type":"Polygon","coordinates":[[[79.66143,20.28871],[79.66038,20.29013],[79.66054,20.29044],[79.66069,20.29055],[79.66142,20.29047],[79.66208,20.29147],[79.66405,20.29137],[79.66409,20.29162],[79.66446,20.29181],[79.66469,20.29137],[79.66706,20.29113],[79.66707,20.29067],[79.66487,20.28555],[79.66418,20.28613],[79.66181,20.28734],[79.66143,20.28871]]]}},{"type":"Feature","bbox":[79.65791,20.26573,79.67397,20.29225],"properties":{"ward":7,"name":"Ambedkar Chouk"},"geometry":{"type":"Polygon","coordinates":[[[79.65804,20.28762],[79.65791,20.2881],[79.65818,20.28945],[79.65911,20.2904],[79.66013,20.29033],[79.66138,20.28879],[79.66181,20.28734],[79.66419,20.28613],[79.66487,20.28556],[79.6673,20.29122],[79.66753,20.29121],[79.66804,20.29225],[79.66885,20.29182],[79.66938,20.29203],[79.67046,20.29152],[79.67085,20.29149],[79.671,20.29087],[79.67244,20.29061],[79.6732,20.29142],[79.6736,20.29149],[79.67378,20.2912],[79.67349,20.29095],[79.67298,20.2895],[79.67309,20.28928],[79.67344,20.28927],[79.67332,20.2887],[79.67312,20.28854],[79.6731,20.28808],[79.67396,20.28744],[79.67397,20.28682],[79.67307,20.28525],[79.67187,20.28464],[79.67211,20.28442],[79.67213,20.28417],[79.67176,20.28369],[79.67164,20.28283],[79.67107,20.28252],[79.67114,20.28202],[79.67081,20.28116],[79.67125,20.28054],[79.67121,20.27874],[79.67081,20.27746],[79.67153,20.27691],[79.67267,20.27532],[79.67187,20.27466],[79.67148,20.27478],[79.67121,20.2747],[79.67103,20.27434],[79.67019,20.27373],[79.66961,20.27395],[79.66922,20.27374],[79.66877,20.27289],[79.66884,20.27265],[79.66849,20.27224],[79.66794,20.27222],[79.66751,20.27197],[79.66733,20.27152],[79.66747,20.2703],[79.6664,20.26965],[79.66566,20.27],[79.66489,20.26655],[79.66328,20.26573],[79.66295,20.26662],[79.66249,20.26905],[79.66229,20.27284],[79.66247,20.27655],[79.66281,20.2796],[79.66448,20.2841],[79.66283,20.28458],[79.6629,20.28484],[79.66184,20.28557],[79.66012,20.28628],[79.66021,20.28684],[79.65924,20.2875],[79.65898,20.28759],[79.65872,20.28745],[79.65804,20.28762]]]}},{"type":"Feature","bbox":[79.65675,20.28579,79.66022,20.28811],"properties":{"ward":8,"name":"Azad Chouk"},"geometry":{"type":"MultiPolygon","coordinates":[[[[79.65895,20.28748],[79.65899,20.28759],[79.65925,20.2875],[79.66022,20.28684],[79.66013,20.28627],[79.65987,20.28593],[79.65865,20.2862],[79.6583,20.28616],[79.65822,20.28589],[79.65784,20.2861],[79.65784,20.28579],[79.65675,20.28629],[79.65701,20.28687],[79.657,20.28725],[79.65678,20.28763],[79.65699,20.28787],[79.65791,20.28811],[79.65803,20.28763],[79.65895,20.28748]]],[[[79.65899,20.28759],[79.65898,20.28759],[79.65899,20.28759],[79.65899,20.28759]]]]}},{"type":"Feature","bbox":[79.65356,20.28694,79.65689,20.28948],"properties":{"ward":9,"name":"Gurudev Chouk"},"geometry":{"type":"Polygon","coordinates":[[[79.65689,20.28801],[79.65638,20.28702],[79.65619,20.28694],[79.65609,20.28737],[79.65565,20.28778],[79.6553,20.2878],[79.65511,20.2883],[79.65471,20.28804],[79.6542,20.2872],[79.65356,20.28728],[79.65481,20.28948],[79.65514,20.28832],[79.65639,20.28901],[79.65689,20.28801]]]}},{"type":"Feature","bbox":[79.65421,20.2862,79.65701,20.2883],"properties":{"ward":10,"name":"Walmik Chouk"},"geometry":{"type":"Polygon","coordinates":[[[79.65675,20.2863],[79.65579,20.2862],[79.65555,20.28685],[79.65421,20.2872],[79.65473,20.28806],[79.65511,20.2883],[79.65529,20.2878],[79.65565,20.28778],[79.65608,20.28737],[79.65619,20.28694],[79.65635,20.28698],[79.6567,20.28766],[79.65687,20.28754],[79.65701,20.28687],[79.65675,20.2863]]]}},{"type":"Feature","bbox":[79.63934,20.26558,79.65423,20.28971],"properties":{"ward":11,"name":"Indira Nagar"},"geometry":{"type":"Polygon","coordinates":[[[79.64021,20.26954],[79.63938,20.27056],[79.63934,20.27082],[79.63985,20.27158],[79.64006,20.2723],[79.64082,20.27287],[79.64205,20.27452],[79.64232,20.27453],[79.64259,20.27418],[79.64281,20.27415],[79.6432,20.2745],[79.64377,20.2747],[79.64432,20.27422],[79.64478,20.27419],[79.64511,20.27381],[79.64543,20.27405],[79.6452,20.27481],[79.64562,20.27541],[79.64692,20.27515],[79.64721,20.27466],[79.64747,20.2745],[79.64819,20.2749],[79.64928,20.27441],[79.65014,20.27454],[79.65032,20.27516],[79.65037,20.27585],[79.65011,20.27643],[79.64939,20.27672],[79.6493,20.2772],[79.6495,20.27812],[79.64959,20.28067],[79.65022,20.28169],[79.65066,20.28282],[79.64961,20.28269],[79.64788,20.28312],[79.64557,20.28334],[79.64393,20.28416],[79.64236,20.28536],[79.64254,20.2859],[79.64417,20.28705],[79.64553,20.28642],[79.64586,20.28639],[79.64642,20.28671],[79.64684,20.28787],[79.64685,20.2884],[79.64663,20.289],[79.64715,20.2891],[79.64711,20.28934],[79.64773,20.28891],[79.64781,20.28913],[79.64763,20.2892],[79.64749,20.28955],[79.64767,20.28971],[79.6482,20.2893],[79.64868,20.28924],[79.64875,20.28962],[79.6499,20.28922],[79.65062,20.28937],[79.65321,20.28745],[79.65423,20.28717],[79.65384,20.28581],[79.65344,20.28565],[79.6537,20.28489],[79.65372,20.28277],[79.65375,20.26645],[79.65362,20.26566],[79.65292,20.2658],[79.65164,20.2664],[79.64928,20.26648],[79.64491,20.26576],[79.64259,20.26638],[79.64114,20.26558],[79.64089,20.2687],[79.64068,20.26923],[79.64021,20.26954]]]}},{"type":"Feature","bbox":[79.61987,20.27021,79.65066,20.29714],"properties":{"ward":12,"name":"Mahatma Fule Chouk"},"geometry":{"type":"Polygon","coordinates":[[[79.6467,20.29303],[79.64611,20.29129],[79.64624,20.29095],[79.64649,20.2909],[79.64621,20.2899],[79.64685,20.2884],[79.64662,20.28705],[79.64642,20.28671],[79.64587,20.2864],[79.64534,20.28646],[79.64416,20.28706],[79.64254,20.2859],[79.64236,20.28536],[79.64393,20.28416],[79.64591,20.28324],[79.64788,20.28312],[79.64961,20.28269],[79.65066,20.28283],[79.65022,20.28169],[79.64958,20.28062],[79.6495,20.27816],[79.64929,20.27698],[79.64939,20.27672],[79.65011,20.27643],[79.65037,20.27585],[79.65024,20.27467],[79.64928,20.27441],[79.64819,20.2749],[79.64747,20.2745],[79.64692,20.27515],[79.64588,20.27544],[79.64556,20.27539],[79.64534,20.27513],[79.6452,20.27481],[79.64543,20.27405],[79.64511,20.27381],[79.64465,20.27427],[79.64432,20.27422],[79.64377,20.2747],[79.6432,20.2745],[79.64281,20.27415],[79.64259,20.27418],[79.64232,20.27453],[79.64205,20.27452],[79.64082,20.27287],[79.64006,20.2723],[79.63985,20.27158],[79.63934,20.27082],[79.63943,20.27039],[79.63966,20.27021],[79.63847,20.27081],[79.63794,20.27131],[79.63767,20.27181],[79.63725,20.27347],[79.63636,20.27513],[79.63556,20.27588],[79.63299,20.27693],[79.63241,20.27742],[79.63236,20.27852],[79.63294,20.27943],[79.63292,20.28029],[79.63155,20.28248],[79.62974,20.28376],[79.62774,20.28418],[79.62447,20.28552],[79.62144,20.28896],[79.62125,20.2898],[79.62145,20.29113],[79.62133,20.29191],[79.62089,20.29332],[79.61987,20.29517],[79.62046,20.29603],[79.62067,20.29714],[79.62134,20.29707],[79.62338,20.29606],[79.62383,20.29557],[79.62536,20.29467],[79.6263,20.29455],[79.62719,20.29394],[79.63122,20.29328],[79.63231,20.29327],[79.63275,20.29297],[79.63287,20.29249],[79.63304,20.29245],[79.63478,20.29305],[79.63736,20.29473],[79.63858,20.2947],[79.64063,20.29519],[79.6409,20.29564],[79.64098,20.29641],[79.64136,20.29659],[79.64227,20.2959],[79.64259,20.29588],[79.64544,20.29426],[79.6467,20.29303]]]}},{"type":"Feature","bbox":[79.65383,20.28505,79.65792,20.28721],"properties":{"ward":13,"name":"Shashtri Chouk"},"geometry":{"type":"Polygon","coordinates":[[[79.65579,20.2862],[79.65676,20.2863],[79.65784,20.2858],[79.65792,20.28552],[79.65777,20.28505],[79.65596,20.28566],[79.65548,20.28616],[79.65383,20.28586],[79.65419,20.28721],[79.65554,20.28685],[79.65579,20.2862]]]}},{"type":"Feature","bbox":[79.65684,20.28059,79.66448,20.28628],"properties":{"ward":14,"name":"Ram Mandir Chouk"},"geometry":{"type":"Polygon","coordinates":[[[79.65798,20.28313],[79.65684,20.28347],[79.65734,20.28426],[79.65745,20.2849],[79.65779,20.28512],[79.65792,20.28553],[79.65784,20.2861],[79.65822,20.28589],[79.6583,20.28617],[79.65911,20.28618],[79.65987,20.28594],[79.66013,20.28628],[79.66184,20.28557],[79.66291,20.28484],[79.66284,20.28457],[79.66403,20.28434],[79.66448,20.28411],[79.6633,20.28094],[79.66248,20.28109],[79.66229,20.28059],[79.66217,20.28124],[79.65914,20.28165],[79.65912,20.28187],[79.65872,20.28207],[79.65868,20.28247],[79.6581,20.28268],[79.65798,20.28313]],[[79.65795,20.2833],[79.65798,20.28313],[79.65799,20.28313],[79.65795,20.2833]]]}},{"type":"Feature","bbox":[79.6535,20.28399,79.65764,20.28616],"properties":{"ward":15,"name":"Shivaji Chouk"},"geometry":{"type":"Polygon","coordinates":[[[79.65376,20.28492],[79.6535,20.28572],[79.65548,20.28616],[79.65596,20.28566],[79.65764,20.285],[79.65746,20.28492],[79.65734,20.28426],[79.65713,20.28399],[79.6568,20.28402],[79.65583,20.28472],[79.65515,20.28454],[79.65376,20.28492]]]}},{"type":"Feature","bbox":[79.65508,20.26482,79.66356,20.28472],"properties":{"ward":16,"name":"Bharat Mata Chouk"},"geometry":{"type":"Polygon","coordinates":[[[79.65688,20.28352],[79.65708,20.28332],[79.65798,20.28314],[79.6581,20.28267],[79.65868,20.28247],[79.65872,20.28207],[79.65912,20.28187],[79.65914,20.28165],[79.66217,20.28124],[79.66222,20.28059],[79.66248,20.28108],[79.66329,20.28094],[79.66281,20.2796],[79.66267,20.27866],[79.66229,20.27284],[79.66249,20.26906],[79.66294,20.26671],[79.66356,20.2649],[79.66339,20.26482],[79.66311,20.26485],[79.66068,20.26638],[79.65859,20.26741],[79.65709,20.27532],[79.65654,20.28223],[79.65508,20.28264],[79.65555,20.28338],[79.65538,20.28362],[79.65553,20.28408],[79.65546,20.28462],[79.65583,20.28472],[79.65659,20.28413],[79.65712,20.28399],[79.65688,20.28352]]]}},{"type":"Feature","bbox":[79.65369,20.26647,79.65853,20.28486],"properties":{"ward":17,"name":"Dussawar Colony"},"geometry":{"type":"Polygon","coordinates":[[[79.65369,20.26647],[79.65371,20.28486],[79.65515,20.28454],[79.65545,20.28461],[79.65553,20.28409],[79.65537,20.28363],[79.65555,20.28339],[79.65508,20.28264],[79.65654,20.28223],[79.65708,20.27547],[79.65853,20.2675],[79.65691,20.26708],[79.65515,20.26699],[79.65369,20.26647]]]}}]}