{"type":"FeatureCollection","features":[{"type":"Feature","bbox":[79.68218,19.71831,79.69191,19.72435],"properties":{"ward":1,"name":"Shivaji Ward"},"geometry":{"type":"Polygon","coordinates":[[[79.68347,19.71848],[79.68218,19.72435],[79.68565,19.72418],[79.68898,19.72372],[79.69077,19.72332],[79.69191,19.72289],[79.69124,19.72284],[79.69018,19.7223],[79.68974,19.72101],[79.69015,19.72078],[79.69009,19.7205],[79.69039,19.72028],[79.69036,19.7201],[79.69122,19.71972],[79.69093,19.7194],[79.68802,19.72038],[79.6854,19.72052],[79.68561,19.71831],[79.68347,19.71848]]]}},{"type":"Feature","bbox":[79.68986,19.71983,79.69309,19.72283],"properties":{"ward":2,"name":"By Pass Road"},"geometry":{"type":"Polygon","coordinates":[[[79.68986,19.72106],[79.69028,19.72222],[79.69122,19.72265],[79.69224,19.72283],[79.69309,19.72252],[79.6913,19.71983],[79.69046,19.72014],[79.6905,19.72037],[79.69019,19.72054],[79.69026,19.72084],[79.68986,19.72106]]]}},{"type":"Feature","bbox":[79.6886,19.71752,79.69734,19.72249],"properties":{"ward":3,"name":"Goveri Heti"},"geometry":{"type":"Polygon","coordinates":[[[79.691,19.7193],[79.69327,19.72249],[79.69384,19.72241],[79.69734,19.72094],[79.69729,19.71931],[79.69409,19.71878],[79.6902,19.71761],[79.6894,19.71752],[79.68928,19.71814],[79.6886,19.71863],[79.68902,19.7189],[79.691,19.7193]]]}},{"type":"Feature","bbox":[79.68554,19.71888,79.69081,19.72036],"properties":{"ward":4,"name":"Indira Nagar"},"geometry":{"type":"Polygon","coordinates":[[[79.68774,19.71942],[79.68565,19.71952],[79.68554,19.72036],[79.68786,19.72027],[79.69081,19.71934],[79.68882,19.71888],[79.68774,19.71942]]]}},{"type":"Feature","bbox":[79.68566,19.71829,79.68876,19.71944],"properties":{"ward":5,"name":"Indira Nagar Area"},"geometry":{"type":"Polygon","coordinates":[[[79.6857,19.71895],[79.68566,19.71942],[79.68717,19.71944],[79.68797,19.71928],[79.68876,19.71884],[79.68809,19.71829],[79.68767,19.71857],[79.68774,19.71889],[79.68744,19.71899],[79.68696,19.71904],[79.68676,19.71875],[79.6857,19.71895]]]}},{"type":"Feature","bbox":[79.68347,19.71484,79.68799,19.71891],"properties":{"ward":6,"name":"Vyankatpur Road"},"geometry":{"type":"Polygon","coordinates":[[[79.68358,19.7153],[79.68347,19.71837],[79.68567,19.71818],[79.68577,19.71882],[79.68678,19.71864],[79.68689,19.71889],[79.68738,19.71891],[79.68761,19.71882],[79.68759,19.71854],[79.68799,19.71823],[79.68439,19.71484],[79.68406,19.71495],[79.68405,19.71518],[79.68358,19.7153]]]}},{"type":"Feature","bbox":[79.68521,19.71493,79.68927,19.71855],"properties":{"ward":7,"name":"Gandhi Chowk"},"geometry":{"type":"Polygon","coordinates":[[[79.68521,19.71548],[79.68856,19.71855],[79.68927,19.71798],[79.68892,19.71534],[79.68732,19.71493],[79.68539,19.71531],[79.68521,19.71548]]]}},{"type":"Feature","bbox":[79.68529,19.71354,79.6889,19.71522],"properties":{"ward":8,"name":"Mata Ward"},"geometry":{"type":"Polygon","coordinates":[[[79.68652,19.71415],[79.68673,19.71499],[79.68729,19.71487],[79.6889,19.71522],[79.68881,19.71362],[79.68663,19.71354],[79.68539,19.71413],[79.68529,19.71444],[79.68563,19.71446],[79.68652,19.71415]]]}},{"type":"Feature","bbox":[79.6853,19.7142,79.68667,19.71521],"properties":{"ward":9,"name":"Panchshil Ward"},"geometry":{"type":"Polygon","coordinates":[[[79.6853,19.7145],[79.68537,19.71521],[79.68667,19.71499],[79.6865,19.7142],[79.6853,19.7145]]]}},{"type":"Feature","bbox":[79.68371,19.71318,79.68551,19.71543],"properties":{"ward":10,"name":"Old Bus Stop"},"geometry":{"type":"Polygon","coordinates":[[[79.68371,19.71404],[79.68517,19.71543],[79.68532,19.71528],[79.68524,19.71448],[79.68551,19.7136],[79.68533,19.71318],[79.68488,19.71339],[79.68482,19.71361],[79.68371,19.71404]]]}},{"type":"Feature","bbox":[79.68543,19.71207,79.68929,19.71405],"properties":{"ward":11,"name":"Mata Ward"},"geometry":{"type":"Polygon","coordinates":[[[79.68555,19.71339],[79.68543,19.71405],[79.68661,19.71348],[79.68821,19.71362],[79.68929,19.71344],[79.68918,19.71207],[79.68834,19.71214],[79.68757,19.71258],[79.68739,19.71298],[79.68555,19.71339]]]}},{"type":"Feature","bbox":[79.6831,19.71227,79.6853,19.714],"properties":{"ward":12,"name":"Bhagat Singh Ward"},"geometry":{"type":"Polygon","coordinates":[[[79.6831,19.71347],[79.68367,19.714],[79.68476,19.71359],[79.68485,19.71335],[79.6853,19.71314],[79.68455,19.71227],[79.68422,19.71306],[79.6831,19.71347]]]}},{"type":"Feature","bbox":[79.67282,19.7132,79.68418,19.71739],"properties":{"ward":13,"name":"Mahadevguda"},"geometry":{"type":"Polygon","coordinates":[[[79.67282,19.71526],[79.67327,19.71739],[79.67903,19.7167],[79.67969,19.71646],[79.67969,19.71605],[79.68391,19.71506],[79.68391,19.71483],[79.68418,19.71475],[79.68286,19.71341],[79.68247,19.7132],[79.67282,19.71526]]]}},{"type":"Feature","bbox":[79.68403,19.71011,79.68915,19.71331],"properties":{"ward":14,"name":"Dhanwantri Nagar"},"geometry":{"type":"Polygon","coordinates":[[[79.6848,19.71244],[79.68554,19.71331],[79.68734,19.71294],[79.68748,19.71255],[79.68794,19.71229],[79.68915,19.71198],[79.68861,19.71011],[79.68403,19.71061],[79.68407,19.71104],[79.68442,19.71169],[79.68498,19.71151],[79.68533,19.71216],[79.6848,19.71244]]]}},{"type":"Feature","bbox":[79.68321,19.71096,79.68525,19.71239],"properties":{"ward":15,"name":"Mahadev Ward"},"geometry":{"type":"Polygon","coordinates":[[[79.6836,19.71125],[79.68321,19.71218],[79.68452,19.71204],[79.68474,19.71239],[79.68525,19.71215],[79.68495,19.7116],[79.68438,19.71179],[79.68397,19.71096],[79.6836,19.71125]]]}},{"type":"Feature","bbox":[79.68179,19.71211,79.68449,19.71341],"properties":{"ward":16,"name":"Azad Hind Square"},"geometry":{"type":"Polygon","coordinates":[[[79.68179,19.71261],[79.68211,19.71313],[79.68245,19.71306],[79.68305,19.71341],[79.68416,19.71301],[79.68449,19.71211],[79.68362,19.71214],[79.68179,19.71261]]]}},{"type":"Feature","bbox":[79.67262,19.71243,79.68201,19.71506],"properties":{"ward":17,"name":"Ram Mandir Ward"},"geometry":{"type":"Polygon","coordinates":[[[79.67262,19.71353],[79.67278,19.71506],[79.68201,19.71312],[79.68169,19.71263],[79.67333,19.71243],[79.67262,19.71353]]]}}]}