{"type":"FeatureCollection","features":[{"type":"Feature","bbox":[73.10461,18.13402,73.11114,18.13906],"properties":{"ward":1},"geometry":{"type":"Polygon","coordinates":[[[73.1051,18.13714],[73.10461,18.13774],[73.10477,18.13826],[73.10613,18.13906],[73.10628,18.1381],[73.10764,18.1371],[73.10792,18.13706],[73.10929,18.13805],[73.10989,18.13821],[73.11103,18.13632],[73.11075,18.13621],[73.11099,18.13544],[73.11072,18.13531],[73.11071,18.13482],[73.11114,18.13421],[73.11041,18.13402],[73.10941,18.13482],[73.10873,18.13566],[73.10571,18.13675],[73.1051,18.13714]]]}},{"type":"Feature","bbox":[73.10998,18.13429,73.11242,18.13825],"properties":{"ward":2},"geometry":{"type":"Polygon","coordinates":[[[73.11108,18.13632],[73.10998,18.13821],[73.11037,18.13825],[73.11229,18.13796],[73.11213,18.13576],[73.11242,18.1348],[73.1123,18.13442],[73.11115,18.13429],[73.11079,18.13476],[73.11073,18.13527],[73.11107,18.13548],[73.11078,18.13619],[73.11108,18.13632]]]}},{"type":"Feature","bbox":[73.11214,18.13443,73.11451,18.13805],"properties":{"ward":3},"geometry":{"type":"Polygon","coordinates":[[[73.11235,18.13443],[73.11242,18.1348],[73.11214,18.13582],[73.11214,18.13661],[73.1123,18.13805],[73.11249,18.13805],[73.11289,18.13792],[73.11338,18.13745],[73.11374,18.13678],[73.11405,18.13673],[73.1143,18.1357],[73.11422,18.13554],[73.11451,18.13502],[73.11346,18.13462],[73.11235,18.13443]]]}},{"type":"Feature","bbox":[73.11411,18.13503,73.12845,18.14506],"properties":{"ward":4},"geometry":{"type":"Polygon","coordinates":[[[73.11411,18.13636],[73.11595,18.1374],[73.11686,18.13815],[73.11865,18.13821],[73.11976,18.13903],[73.1209,18.1404],[73.12242,18.14276],[73.12395,18.14438],[73.12564,18.14502],[73.12745,18.14506],[73.12744,18.14444],[73.12805,18.14248],[73.12845,18.14033],[73.12324,18.13903],[73.12177,18.13881],[73.12169,18.13833],[73.12119,18.13784],[73.11955,18.13754],[73.11452,18.13503],[73.11425,18.13554],[73.11411,18.13636]]]}},{"type":"Feature","bbox":[73.11633,18.13252,73.12294,18.13798],"properties":{"ward":5},"geometry":{"type":"Polygon","coordinates":[[[73.1173,18.1338],[73.11704,18.13489],[73.11685,18.13497],[73.11633,18.13596],[73.11956,18.13754],[73.12084,18.13768],[73.1214,18.13798],[73.12176,18.13709],[73.12207,18.13685],[73.12196,18.1367],[73.12213,18.13652],[73.12192,18.13643],[73.1229,18.13557],[73.12294,18.13523],[73.12183,18.13449],[73.12142,18.13371],[73.12062,18.13318],[73.11912,18.13312],[73.11839,18.13252],[73.11741,18.13263],[73.11705,18.13373],[73.1173,18.1338]]]}},{"type":"Feature","bbox":[73.11339,18.13252,73.11739,18.13592],"properties":{"ward":6},"geometry":{"type":"Polygon","coordinates":[[[73.11377,18.13327],[73.11339,18.13458],[73.11633,18.13592],[73.11683,18.13494],[73.11702,18.13487],[73.11729,18.13382],[73.117,18.13374],[73.11739,18.13263],[73.11618,18.13283],[73.11506,18.13252],[73.11432,18.1335],[73.11377,18.13327]]]}},{"type":"Feature","bbox":[73.11155,18.13347,73.11357,18.13455],"properties":{"ward":7},"geometry":{"type":"Polygon","coordinates":[[[73.11169,18.13347],[73.11155,18.13431],[73.11337,18.13455],[73.11357,18.13364],[73.11169,18.13347]]]}},{"type":"Feature","bbox":[73.11017,18.13323,73.11144,18.13427],"properties":{"ward":8},"geometry":{"type":"Polygon","coordinates":[[[73.11044,18.13346],[73.11017,18.13392],[73.1114,18.13427],[73.11144,18.1341],[73.1111,18.13371],[73.11112,18.1333],[73.1108,18.13323],[73.11044,18.13346]]]}},{"type":"Feature","bbox":[73.10713,18.13191,73.11124,18.13392],"properties":{"ward":9},"geometry":{"type":"Polygon","coordinates":[[[73.10749,18.13191],[73.10713,18.13307],[73.11016,18.13392],[73.11044,18.13345],[73.1108,18.13322],[73.1111,18.13329],[73.11124,18.13294],[73.10962,18.13208],[73.10878,18.13247],[73.10749,18.13191]]]}},{"type":"Feature","bbox":[73.10576,18.13375,73.11036,18.13645],"properties":{"ward":10},"geometry":{"type":"Polygon","coordinates":[[[73.10672,18.13432],[73.10576,18.1343],[73.10579,18.13548],[73.10646,18.13645],[73.10871,18.13563],[73.10941,18.13476],[73.11036,18.13401],[73.10943,18.13375],[73.10923,18.13426],[73.10791,18.13415],[73.10777,18.13426],[73.10675,18.13405],[73.10672,18.13432]]]}},{"type":"Feature","bbox":[73.1034,18.13429,73.10644,18.13765],"properties":{"ward":11},"geometry":{"type":"Polygon","coordinates":[[[73.10574,18.13429],[73.1037,18.13432],[73.1034,18.13522],[73.10361,18.13557],[73.10358,18.13601],[73.10421,18.13655],[73.10425,18.13708],[73.10452,18.13702],[73.10441,18.13752],[73.1046,18.13765],[73.1051,18.13712],[73.10644,18.13645],[73.10576,18.13548],[73.10574,18.13429]]]}},{"type":"Feature","bbox":[73.10366,18.13241,73.10941,18.13431],"properties":{"ward":12},"geometry":{"type":"Polygon","coordinates":[[[73.10375,18.13428],[73.10668,18.13431],[73.1067,18.13401],[73.1092,18.13423],[73.10941,18.1337],[73.10624,18.13298],[73.10565,18.1327],[73.10548,18.13241],[73.10482,18.13262],[73.10453,18.13254],[73.10429,18.13274],[73.10366,18.13288],[73.10381,18.1333],[73.10375,18.13428]]]}},{"type":"Feature","bbox":[73.10446,18.1299,73.10763,18.13308],"properties":{"ward":13},"geometry":{"type":"Polygon","coordinates":[[[73.10605,18.1299],[73.10508,18.13166],[73.10449,18.13221],[73.10446,18.13247],[73.10493,18.13258],[73.10549,18.13237],[73.10599,18.13286],[73.10709,18.13308],[73.10736,18.132],[73.10756,18.13184],[73.10763,18.13103],[73.10748,18.13077],[73.10687,18.13072],[73.10663,18.13029],[73.10605,18.1299]]]}},{"type":"Feature","bbox":[73.10612,18.10513,73.12671,18.13291],"properties":{"ward":14},"geometry":{"type":"Polygon","coordinates":[[[73.10861,18.12389],[73.10612,18.12989],[73.10666,18.13026],[73.10689,18.13069],[73.10749,18.13075],[73.10766,18.13103],[73.10764,18.13197],[73.10881,18.13245],[73.10962,18.13206],[73.1112,18.13291],[73.11155,18.1318],[73.11123,18.13065],[73.11187,18.12942],[73.11187,18.1278],[73.11731,18.12736],[73.12013,18.12863],[73.12235,18.12594],[73.12421,18.12319],[73.12562,18.12076],[73.12671,18.11731],[73.12596,18.11451],[73.12552,18.11422],[73.12552,18.11213],[73.12656,18.10778],[73.12542,18.10667],[73.12263,18.10575],[73.11992,18.10513],[73.11904,18.10753],[73.11471,18.10787],[73.11446,18.1097],[73.11237,18.114],[73.11243,18.1182],[73.11001,18.12155],[73.10861,18.12389]]]}},{"type":"Feature","bbox":[73.11111,18.1278,73.11335,18.13356],"properties":{"ward":15},"geometry":{"type":"Polygon","coordinates":[[[73.11162,18.13178],[73.11111,18.13327],[73.11214,18.13355],[73.11235,18.13356],[73.11277,18.13295],[73.11335,18.12928],[73.11324,18.12828],[73.11296,18.1278],[73.11193,18.12785],[73.11194,18.1295],[73.11132,18.13065],[73.11162,18.13178]]]}},{"type":"Feature","bbox":[73.11258,18.12751,73.12019,18.13356],"properties":{"ward":16},"geometry":{"type":"Polygon","coordinates":[[[73.11325,18.12807],[73.11346,18.12921],[73.113,18.13241],[73.11286,18.13304],[73.11258,18.13343],[73.11348,18.13356],[73.11375,18.13324],[73.11432,18.13348],[73.11502,18.13257],[73.11619,18.13281],[73.11848,18.13254],[73.11906,18.13293],[73.12019,18.13043],[73.11995,18.12927],[73.12002,18.12879],[73.11709,18.12751],[73.11325,18.12807]]]}},{"type":"Feature","bbox":[73.11912,18.12086,73.13162,18.14028],"properties":{"ward":17},"geometry":{"type":"Polygon","coordinates":[[[73.12154,18.13787],[73.12185,18.13859],[73.12867,18.14028],[73.12933,18.13794],[73.13013,18.1337],[73.13047,18.13312],[73.13162,18.12899],[73.13148,18.12335],[73.12905,18.12482],[73.12625,18.12388],[73.12568,18.1221],[73.12572,18.12086],[73.12276,18.12572],[73.12022,18.12875],[73.12015,18.12971],[73.12042,18.13048],[73.11912,18.13307],[73.1197,18.133],[73.12063,18.13316],[73.12143,18.13369],[73.12186,18.13447],[73.12297,18.13523],[73.12287,18.13575],[73.12262,18.13581],[73.12279,18.13602],[73.1224,18.13593],[73.12197,18.13642],[73.12221,18.13654],[73.122,18.13669],[73.12217,18.13687],[73.12174,18.13716],[73.12154,18.13787]]]}}]}