{"type":"FeatureCollection","features":[{"type":"Feature","bbox":[74.96457,18.57243,74.99437,18.60004],"properties":{"ward":1,"name":"Gaykarwadi"},"geometry":{"type":"Polygon","coordinates":[[[74.97612,18.60004],[74.97902,18.59509],[74.98433,18.5904],[74.9876,18.58541],[74.98869,18.58306],[74.99035,18.58094],[74.99437,18.57408],[74.98978,18.57243],[74.98694,18.57453],[74.98476,18.57353],[74.98456,18.57629],[74.9803,18.57697],[74.97534,18.57824],[74.97343,18.57831],[74.96825,18.57764],[74.96457,18.57917],[74.96552,18.58184],[74.96723,18.58539],[74.96914,18.58799],[74.97238,18.59683],[74.97378,18.59887],[74.97612,18.60004]]]}},{"type":"Feature","bbox":[74.98889,18.54817,75.0484,18.60894],"properties":{"ward":2,"name":"Jogeshwar Wadi"},"geometry":{"type":"Polygon","coordinates":[[[74.98981,18.57228],[74.99451,18.57401],[74.99059,18.58099],[74.99001,18.58174],[74.99439,18.58291],[74.99492,18.58024],[74.99872,18.58095],[75.00065,18.58314],[74.99973,18.58574],[75.00677,18.58648],[75.00677,18.5873],[75.0037,18.58936],[75.00301,18.59122],[75.00332,18.59221],[75.00699,18.59186],[75.0096,18.59191],[75.00897,18.59454],[75.00936,18.59497],[75.01055,18.59525],[75.01271,18.59547],[75.01251,18.6019],[75.01659,18.60206],[75.01698,18.60496],[75.01889,18.60894],[75.02217,18.60867],[75.02443,18.60798],[75.02542,18.60742],[75.0334,18.60535],[75.03721,18.60454],[75.04064,18.60287],[75.03882,18.60255],[75.03828,18.59999],[75.03917,18.5977],[75.04092,18.59705],[75.04171,18.59393],[75.03756,18.59341],[75.03846,18.59227],[75.03854,18.59122],[75.03484,18.58787],[75.03299,18.58598],[75.03202,18.58569],[75.03199,18.58485],[75.03255,18.58467],[75.0299,18.58087],[75.0246,18.57465],[75.02913,18.57386],[75.02794,18.5718],[75.02743,18.57188],[75.02597,18.56972],[75.02428,18.5688],[75.02401,18.56723],[75.0236,18.56672],[75.02349,18.56568],[75.02718,18.56461],[75.02735,18.56418],[75.03241,18.56358],[75.03259,18.56069],[75.03475,18.56111],[75.03864,18.56103],[75.04044,18.56152],[75.04455,18.56121],[75.04808,18.56046],[75.04817,18.55976],[75.0484,18.5594],[75.04452,18.55105],[75.04334,18.54817],[75.03196,18.54893],[75.02792,18.54949],[75.02332,18.54981],[75.01924,18.54945],[75.01373,18.55364],[75.01266,18.55395],[75.01375,18.55474],[75.01334,18.55544],[75.0148,18.55886],[75.01513,18.56134],[75.01405,18.56108],[75.01365,18.562],[75.0126,18.5625],[75.01128,18.56626],[75.01013,18.5671],[75.00658,18.56689],[75.00668,18.56627],[75.00361,18.56593],[75.0034,18.56669],[74.99985,18.56622],[74.99863,18.56726],[74.99551,18.56324],[74.99394,18.56418],[74.99074,18.56554],[74.99123,18.56624],[74.98889,18.56712],[74.98981,18.57228]]]}},{"type":"Feature","bbox":[75.01068,18.5366,75.04323,18.55326],"properties":{"ward":3,"name":"Dhere, Newase, Samudra Mala"},"geometry":{"type":"Polygon","coordinates":[[[75.014,18.55291],[75.01914,18.54925],[75.02331,18.54962],[75.0275,18.54937],[75.03165,18.54883],[75.03554,18.54853],[75.04323,18.54813],[75.04201,18.546],[75.04072,18.54299],[75.03765,18.54296],[75.03744,18.54079],[75.03438,18.54126],[75.03397,18.53842],[75.03368,18.53837],[75.03353,18.53865],[75.03157,18.53913],[75.02911,18.54003],[75.02755,18.54095],[75.02675,18.53911],[75.0245,18.54047],[75.02364,18.5366],[75.02256,18.53665],[75.02119,18.53707],[75.0198,18.53686],[75.01837,18.53707],[75.01705,18.53761],[75.01452,18.53818],[75.0141,18.53901],[75.01371,18.54171],[75.01327,18.54273],[75.01312,18.54362],[75.01353,18.54417],[75.01269,18.54623],[75.01233,18.54675],[75.01198,18.54719],[75.01068,18.54817],[75.01081,18.54909],[75.01172,18.54905],[75.01205,18.54947],[75.01252,18.5493],[75.01314,18.55095],[75.01382,18.55138],[75.01393,18.55271],[75.01381,18.55326],[75.014,18.55291]]]}},{"type":"Feature","bbox":[75.01114,18.55059,75.01375,18.55394],"properties":{"ward":4,"name":"Samarth Nagar"},"geometry":{"type":"Polygon","coordinates":[[[75.01169,18.55314],[75.01258,18.55394],[75.01357,18.55359],[75.01375,18.55249],[75.01363,18.5515],[75.01286,18.55059],[75.01221,18.55082],[75.01114,18.55078],[75.01169,18.55314]]]}},{"type":"Feature","bbox":[75.00823,18.55124,75.01169,18.55419],"properties":{"ward":5,"name":"Buwasaheb Nagar"},"geometry":{"type":"Polygon","coordinates":[[[75.00823,18.55419],[75.00983,18.55255],[75.01,18.55255],[75.01024,18.55293],[75.01052,18.55303],[75.01103,18.55318],[75.01169,18.55312],[75.0112,18.55124],[75.01027,18.55135],[75.01029,18.55151],[75.01005,18.55154],[75.01002,18.55171],[75.0089,18.55181],[75.00823,18.55419]]]}},{"type":"Feature","bbox":[75.00808,18.55255,75.01359,18.55579],"properties":{"ward":6,"name":"Yasin Nagar"},"geometry":{"type":"Polygon","coordinates":[[[75.00822,18.5542],[75.00808,18.55559],[75.01142,18.55579],[75.01359,18.55474],[75.01172,18.55313],[75.01104,18.55318],[75.01052,18.55303],[75.00983,18.55255],[75.00822,18.5542]]]}},{"type":"Feature","bbox":[75.00667,18.55473,75.01502,18.56692],"properties":{"ward":7,"name":"Patil Galli"},"geometry":{"type":"Polygon","coordinates":[[[75.00827,18.55822],[75.00667,18.56684],[75.00885,18.56677],[75.01015,18.56692],[75.01112,18.56627],[75.01174,18.56487],[75.01209,18.56339],[75.01257,18.56236],[75.01354,18.56194],[75.01396,18.561],[75.01502,18.56119],[75.01463,18.55879],[75.01325,18.55545],[75.01362,18.55473],[75.01143,18.55579],[75.00807,18.55559],[75.00827,18.55822]]]}},{"type":"Feature","bbox":[74.99895,18.55559,75.00821,18.56683],"properties":{"ward":8,"name":"Post Office Area"},"geometry":{"type":"Polygon","coordinates":[[[75.00744,18.55579],[74.99958,18.56613],[74.99895,18.56683],[74.99986,18.56607],[75.00336,18.56659],[75.00354,18.56584],[75.00675,18.5662],[75.00804,18.55959],[75.00821,18.55817],[75.0081,18.55559],[75.00744,18.55579]]]}},{"type":"Feature","bbox":[74.99561,18.55412,75.0082,18.56717],"properties":{"ward":9,"name":"Vithai Nagar"},"geometry":{"type":"Polygon","coordinates":[[[74.99561,18.56317],[74.99865,18.56717],[75.00713,18.55611],[75.00809,18.55555],[75.0082,18.55412],[75.00614,18.55558],[75.00574,18.55625],[75.00146,18.55948],[74.99561,18.56317]]]}},{"type":"Feature","bbox":[74.98679,18.55156,75.00879,18.56541],"properties":{"ward":10,"name":"Belekar Coloney"},"geometry":{"type":"Polygon","coordinates":[[[74.99294,18.55339],[74.98679,18.55829],[74.98839,18.56205],[74.99074,18.56541],[74.99338,18.5644],[75.00151,18.55944],[75.00569,18.55633],[75.00615,18.55554],[75.00821,18.55416],[75.00879,18.55224],[75.00837,18.55221],[75.00831,18.55186],[75.00757,18.55182],[75.00735,18.55277],[75.00647,18.55274],[75.00227,18.55156],[74.99581,18.55185],[74.99294,18.55339]]]}},{"type":"Feature","bbox":[74.96705,18.55857,74.99078,18.57796],"properties":{"ward":11,"name":"Bargewadi"},"geometry":{"type":"Polygon","coordinates":[[[74.97532,18.57781],[74.9843,18.57593],[74.98438,18.57298],[74.98694,18.574],[74.98936,18.57224],[74.98849,18.56703],[74.99078,18.56614],[74.98743,18.56062],[74.98669,18.55857],[74.98367,18.5598],[74.98104,18.56043],[74.97838,18.56093],[74.97308,18.5611],[74.97143,18.56166],[74.97107,18.56244],[74.97193,18.56475],[74.97162,18.56669],[74.96724,18.56796],[74.96764,18.5707],[74.96726,18.57238],[74.96705,18.57436],[74.96769,18.57746],[74.96835,18.57708],[74.9738,18.57796],[74.97532,18.57781]]]}},{"type":"Feature","bbox":[74.96946,18.53542,75.00899,18.56143],"properties":{"ward":12,"name":"Shahaji Nagar"},"geometry":{"type":"Polygon","coordinates":[[[74.99573,18.55176],[75.00232,18.55147],[75.00463,18.55219],[75.00724,18.5527],[75.00757,18.55172],[75.00839,18.5518],[75.00845,18.55215],[75.00872,18.55213],[75.00899,18.55038],[75.00877,18.54886],[75.00781,18.54902],[75.00692,18.54967],[75.00533,18.5498],[74.99862,18.54889],[74.99523,18.54875],[74.9925,18.54884],[74.98414,18.54804],[74.98015,18.54749],[74.97953,18.54644],[74.97708,18.54597],[74.97737,18.54493],[74.97773,18.54443],[74.97918,18.54306],[74.98056,18.5413],[74.98079,18.53542],[74.97604,18.5379],[74.97274,18.53767],[74.97052,18.53678],[74.96989,18.5363],[74.96946,18.53683],[74.96992,18.53754],[74.96996,18.53842],[74.97086,18.53972],[74.97052,18.5405],[74.97107,18.54264],[74.97241,18.54424],[74.97401,18.54537],[74.97489,18.55033],[74.975,18.55484],[74.97406,18.55668],[74.97379,18.55827],[74.97162,18.56143],[74.97322,18.56103],[74.97682,18.56092],[74.9803,18.56045],[74.9833,18.55979],[74.98529,18.55909],[74.98786,18.55731],[74.99275,18.55337],[74.99573,18.55176]]]}},{"type":"Feature","bbox":[75.00891,18.54917,75.01122,18.55181],"properties":{"ward":13,"name":"Bhandewadi"},"geometry":{"type":"Polygon","coordinates":[[[75.00912,18.55035],[75.00894,18.55181],[75.01002,18.55169],[75.01028,18.55137],[75.01122,18.55124],[75.01114,18.55076],[75.01092,18.55054],[75.01077,18.54917],[75.00891,18.54949],[75.00912,18.55035]]]}},{"type":"Feature","bbox":[75.01077,18.54913,75.01286,18.55082],"properties":{"ward":14,"name":"Bhawani Nagar"},"geometry":{"type":"Polygon","coordinates":[[[75.01105,18.55074],[75.01223,18.55082],[75.01286,18.55059],[75.01248,18.54936],[75.01203,18.54958],[75.01185,18.54913],[75.01077,18.54917],[75.01105,18.55074]]]}},{"type":"Feature","bbox":[75.00887,18.54077,75.0136,18.54948],"properties":{"ward":15,"name":"Bhawani Nagar"},"geometry":{"type":"Polygon","coordinates":[[[75.00887,18.54797],[75.00893,18.54948],[75.01074,18.54913],[75.01062,18.54813],[75.01189,18.54717],[75.01264,18.54625],[75.01344,18.54419],[75.01303,18.54362],[75.01319,18.54272],[75.0136,18.54171],[75.01064,18.54077],[75.01004,18.54371],[75.00887,18.54797]]]}},{"type":"Feature","bbox":[74.9774,18.52881,75.00883,18.54977],"properties":{"ward":16,"name":"Akkabai Nagar"},"geometry":{"type":"Polygon","coordinates":[[[75.00544,18.54977],[75.00692,18.54954],[75.00781,18.54897],[75.00883,18.54875],[75.00848,18.54803],[75.00776,18.54713],[74.99402,18.53397],[74.99167,18.53101],[74.98913,18.52881],[74.98818,18.52933],[74.98645,18.53105],[74.98101,18.53536],[74.98079,18.54135],[74.97995,18.54246],[74.97756,18.54495],[74.9774,18.54582],[74.9797,18.5463],[74.98037,18.54731],[74.98528,18.54807],[74.99261,18.54871],[74.998,18.5487],[75.00544,18.54977]]]}},{"type":"Feature","bbox":[74.98931,18.51152,75.01305,18.54783],"properties":{"ward":17,"name":"Bhandewadi"},"geometry":{"type":"Polygon","coordinates":[[[75.00878,18.54783],[75.01017,18.54265],[75.01041,18.5409],[75.01031,18.53924],[75.01094,18.53312],[75.01104,18.52972],[75.01231,18.52362],[75.01305,18.52117],[75.01301,18.51281],[75.01118,18.51203],[75.00929,18.51158],[75.00733,18.51178],[75.00575,18.51152],[75.00092,18.51175],[75.00044,18.51336],[75.00033,18.51598],[74.99894,18.51631],[74.99766,18.51911],[74.998,18.51997],[74.99552,18.52158],[74.99334,18.52332],[74.99352,18.52416],[74.99145,18.52518],[74.99063,18.52628],[74.98985,18.52685],[74.99009,18.52795],[74.98931,18.52848],[74.99207,18.53093],[74.99387,18.53343],[75.00599,18.54496],[75.00878,18.54783]]]}}]}