{"type":"FeatureCollection","features":[{"type":"Feature","bbox":[91.71526,26.53498,91.73362,26.54875],"properties":{"ward":1},"geometry":{"type":"Polygon","coordinates":[[[91.71526,26.54766],[91.71578,26.54784],[91.72094,26.54801],[91.724,26.54794],[91.72433,26.54867],[91.72458,26.54875],[91.72702,26.54874],[91.73087,26.54837],[91.73095,26.5461],[91.7336,26.54584],[91.73362,26.54284],[91.73209,26.54276],[91.73101,26.54247],[91.72965,26.54169],[91.72981,26.54034],[91.72871,26.53708],[91.72668,26.53499],[91.7252,26.53498],[91.72519,26.53608],[91.72236,26.53616],[91.72174,26.53707],[91.72051,26.53826],[91.71664,26.53767],[91.71585,26.53781],[91.7156,26.5397],[91.71526,26.54766]]]}},{"type":"Feature","bbox":[91.72234,26.52919,91.72881,26.53616],"properties":{"ward":2},"geometry":{"type":"Polygon","coordinates":[[[91.72234,26.53616],[91.72519,26.53609],[91.72521,26.53498],[91.72845,26.53508],[91.72881,26.53344],[91.7236,26.52919],[91.72292,26.53115],[91.72234,26.53616]]]}},{"type":"Feature","bbox":[91.72669,26.52554,91.74497,26.54296],"properties":{"ward":3},"geometry":{"type":"Polygon","coordinates":[[[91.73347,26.54282],[91.73367,26.54259],[91.73792,26.54296],[91.73852,26.54284],[91.73981,26.54209],[91.73966,26.54146],[91.73854,26.54022],[91.73945,26.53993],[91.7395,26.53924],[91.74497,26.53885],[91.74481,26.53568],[91.74003,26.53599],[91.73982,26.53571],[91.73662,26.53054],[91.73633,26.52885],[91.73703,26.52808],[91.73731,26.52647],[91.73544,26.52554],[91.73244,26.52615],[91.73338,26.52881],[91.72982,26.53064],[91.7282,26.53046],[91.72703,26.53207],[91.72881,26.53344],[91.72845,26.53508],[91.72669,26.535],[91.72871,26.53708],[91.72982,26.54035],[91.72965,26.54169],[91.73105,26.54248],[91.73204,26.54274],[91.73347,26.54282]]]}},{"type":"Feature","bbox":[91.7247,26.52419,91.73337,26.53205],"properties":{"ward":4},"geometry":{"type":"MultiPolygon","coordinates":[[[[91.7262,26.53141],[91.72621,26.53141],[91.72612,26.53136],[91.7262,26.53141]]],[[[91.72621,26.53141],[91.72637,26.53152],[91.72632,26.53148],[91.72621,26.53141]]],[[[91.7264,26.53154],[91.72703,26.53205],[91.72821,26.53045],[91.72981,26.53063],[91.73337,26.52881],[91.73174,26.52419],[91.7247,26.5245],[91.72511,26.53046],[91.7264,26.53154]]]]}},{"type":"Feature","bbox":[91.71792,26.52439,91.72508,26.53043],"properties":{"ward":5},"geometry":{"type":"Polygon","coordinates":[[[91.71943,26.52484],[91.71792,26.52439],[91.72508,26.53043],[91.72469,26.52449],[91.72242,26.52446],[91.71943,26.52484]]]}},{"type":"Feature","bbox":[91.70905,26.5211,91.72358,26.53824],"properties":{"ward":6},"geometry":{"type":"Polygon","coordinates":[[[91.71398,26.5211],[91.71356,26.52157],[91.71274,26.52162],[91.71243,26.52218],[91.70933,26.52266],[91.70905,26.52303],[91.70957,26.52507],[91.70989,26.52518],[91.71016,26.52701],[91.7114,26.52686],[91.7113,26.52993],[91.71179,26.52983],[91.71186,26.52958],[91.7128,26.52964],[91.71284,26.52981],[91.71556,26.52964],[91.7157,26.53204],[91.7216,26.53201],[91.72172,26.53368],[91.72025,26.53408],[91.7203,26.53575],[91.71321,26.53605],[91.71309,26.53696],[91.71586,26.53704],[91.71577,26.53794],[91.71623,26.53768],[91.71664,26.53767],[91.7205,26.53824],[91.72197,26.53677],[91.72234,26.53614],[91.72292,26.53113],[91.72358,26.52918],[91.71398,26.5211]]]}},{"type":"Feature","bbox":[91.70876,26.51619,91.72655,26.52483],"properties":{"ward":7},"geometry":{"type":"Polygon","coordinates":[[[91.70876,26.51648],[91.71789,26.52429],[91.7194,26.52483],[91.7227,26.52442],[91.72468,26.52447],[91.72472,26.52271],[91.72506,26.52074],[91.72482,26.51977],[91.72655,26.51751],[91.72593,26.51711],[91.72484,26.51699],[91.72472,26.51792],[91.72345,26.51788],[91.7232,26.51839],[91.72351,26.51861],[91.72244,26.51878],[91.72224,26.51906],[91.72222,26.51979],[91.71983,26.52009],[91.71923,26.51655],[91.71793,26.51635],[91.71356,26.51643],[91.70995,26.51619],[91.70876,26.51648]]]}},{"type":"Feature","bbox":[91.72305,26.504,91.7355,26.52609],"properties":{"ward":8},"geometry":{"type":"Polygon","coordinates":[[[91.7252,26.51481],[91.72485,26.51697],[91.72608,26.51714],[91.72659,26.51752],[91.72489,26.51963],[91.72509,26.52078],[91.72468,26.52315],[91.72479,26.52451],[91.73173,26.52417],[91.73246,26.52609],[91.73532,26.52547],[91.7355,26.52505],[91.73312,26.50432],[91.72514,26.504],[91.72305,26.50835],[91.72481,26.50854],[91.72406,26.51226],[91.72652,26.51286],[91.72651,26.51478],[91.7252,26.51481]]]}}]}