{"type":"FeatureCollection","features":[{"type":"Feature","bbox":[74.42156,17.55468,74.46506,17.59784],"properties":{"ward":1},"geometry":{"type":"Polygon","coordinates":[[[74.43641,17.56765],[74.43759,17.56864],[74.43801,17.56867],[74.43851,17.56843],[74.43902,17.56866],[74.44017,17.57014],[74.43998,17.57043],[74.43874,17.5707],[74.43782,17.57064],[74.4365,17.57085],[74.43629,17.57058],[74.43608,17.57057],[74.43516,17.5708],[74.43133,17.5655],[74.42911,17.56501],[74.42857,17.56514],[74.42794,17.5655],[74.42775,17.56582],[74.42522,17.56734],[74.42451,17.56796],[74.42435,17.56926],[74.42242,17.57132],[74.42188,17.5723],[74.42156,17.57483],[74.42409,17.57575],[74.42601,17.57674],[74.42959,17.57731],[74.43033,17.57788],[74.43064,17.58292],[74.43231,17.58265],[74.43253,17.5828],[74.43254,17.58302],[74.43449,17.58324],[74.4346,17.58603],[74.43401,17.58614],[74.43399,17.58691],[74.43456,17.58938],[74.43501,17.59034],[74.43512,17.59135],[74.43411,17.59134],[74.43382,17.59218],[74.43419,17.59393],[74.43285,17.59451],[74.43084,17.59497],[74.43124,17.59607],[74.43078,17.59653],[74.43069,17.59706],[74.43234,17.59699],[74.43291,17.59682],[74.43507,17.59563],[74.43562,17.59588],[74.43716,17.59784],[74.43822,17.59757],[74.43898,17.59684],[74.43908,17.59628],[74.43815,17.59433],[74.43817,17.59336],[74.43962,17.59313],[74.44271,17.59206],[74.4438,17.59202],[74.44477,17.59235],[74.44616,17.59219],[74.44814,17.59165],[74.44902,17.59168],[74.44991,17.59104],[74.45145,17.5942],[74.45189,17.59426],[74.45191,17.5933],[74.45142,17.59271],[74.45116,17.5911],[74.45278,17.59037],[74.45274,17.58983],[74.45312,17.58881],[74.45343,17.58458],[74.4551,17.58345],[74.45667,17.58266],[74.45837,17.58216],[74.45909,17.5817],[74.45968,17.5809],[74.4607,17.57701],[74.46254,17.57597],[74.46338,17.57509],[74.46366,17.57449],[74.46357,17.57403],[74.46414,17.57311],[74.46506,17.57206],[74.46438,17.57182],[74.46215,17.57157],[74.4626,17.56956],[74.46191,17.56941],[74.46171,17.56955],[74.46043,17.56925],[74.46032,17.56935],[74.46,17.57106],[74.45656,17.57033],[74.45643,17.56999],[74.45504,17.57005],[74.45484,17.57018],[74.45472,17.57064],[74.45315,17.57079],[74.45301,17.56787],[74.45335,17.56388],[74.45313,17.56015],[74.44999,17.56002],[74.44809,17.55961],[74.44466,17.55827],[74.44578,17.55814],[74.4457,17.55793],[74.44416,17.55821],[74.44383,17.55679],[74.44385,17.55468],[74.44263,17.55497],[74.44064,17.5562],[74.43904,17.55753],[74.4366,17.55736],[74.43674,17.5586],[74.43317,17.56043],[74.43436,17.56431],[74.43517,17.56505],[74.43492,17.56486],[74.43517,17.5651],[74.43551,17.56613],[74.43569,17.56684],[74.43553,17.56708],[74.43563,17.56734],[74.43641,17.56765]],[[74.43727,17.56829],[74.43706,17.56809],[74.43732,17.56833],[74.43727,17.56829]]]}},{"type":"Feature","bbox":[74.43731,17.59106,74.45141,17.60123],"properties":{"ward":2},"geometry":{"type":"Polygon","coordinates":[[[74.43731,17.59787],[74.43754,17.59901],[74.43761,17.60057],[74.44034,17.59968],[74.44092,17.59931],[74.4439,17.59819],[74.44376,17.59939],[74.44605,17.59956],[74.4459,17.59999],[74.44596,17.60068],[74.44617,17.60104],[74.44685,17.60123],[74.44798,17.5996],[74.45039,17.59983],[74.45008,17.59966],[74.45013,17.59846],[74.4508,17.59845],[74.45091,17.59731],[74.44942,17.59718],[74.4504,17.5955],[74.45141,17.59425],[74.4499,17.59106],[74.44902,17.5917],[74.44806,17.59174],[74.44601,17.59234],[74.44477,17.59245],[74.44385,17.5921],[74.44277,17.59215],[74.43969,17.59322],[74.43829,17.59346],[74.43826,17.59426],[74.43921,17.59628],[74.43908,17.59683],[74.43828,17.59762],[74.43731,17.59787]]]}},{"type":"Feature","bbox":[74.43694,17.59425,74.45533,17.61252],"properties":{"ward":3},"geometry":{"type":"Polygon","coordinates":[[[74.43768,17.6007],[74.43832,17.6053],[74.43762,17.60574],[74.43694,17.60585],[74.43702,17.60594],[74.43776,17.60599],[74.43808,17.60576],[74.43864,17.60571],[74.43989,17.60603],[74.43975,17.60638],[74.44117,17.60681],[74.44159,17.60714],[74.44428,17.60786],[74.44741,17.60841],[74.44752,17.61252],[74.44832,17.612],[74.44999,17.61136],[74.4513,17.61128],[74.4526,17.61092],[74.45179,17.60489],[74.4521,17.60021],[74.45245,17.60006],[74.45367,17.60011],[74.45533,17.59946],[74.45142,17.59425],[74.45042,17.59556],[74.44955,17.59712],[74.45093,17.5973],[74.45081,17.59846],[74.45015,17.59847],[74.45009,17.59965],[74.4504,17.59971],[74.45041,17.59984],[74.44799,17.59963],[74.44685,17.60125],[74.44616,17.60107],[74.44594,17.6007],[74.44587,17.59999],[74.44602,17.59958],[74.4437,17.59943],[74.44388,17.59824],[74.44097,17.59936],[74.44038,17.59975],[74.43768,17.6007]]]}},{"type":"Feature","bbox":[74.4512,17.59025,74.45428,17.59626],"properties":{"ward":4},"geometry":{"type":"Polygon","coordinates":[[[74.45303,17.59626],[74.453,17.59425],[74.45347,17.59445],[74.45428,17.59445],[74.45359,17.59321],[74.45338,17.59184],[74.45316,17.59168],[74.45333,17.59025],[74.4512,17.5911],[74.45145,17.59273],[74.45193,17.59329],[74.45195,17.59362],[74.45192,17.5943],[74.45144,17.59424],[74.45303,17.59626]]]}},{"type":"Feature","bbox":[74.45191,17.59307,74.48471,17.64027],"properties":{"ward":5},"geometry":{"type":"Polygon","coordinates":[[[74.45303,17.59427],[74.45322,17.59639],[74.45538,17.59947],[74.45368,17.60014],[74.45246,17.60008],[74.45212,17.60022],[74.45191,17.60484],[74.45272,17.61098],[74.45538,17.60978],[74.45671,17.61059],[74.45743,17.6136],[74.45921,17.61384],[74.46109,17.61372],[74.46302,17.61678],[74.46455,17.61585],[74.46427,17.61484],[74.46632,17.61448],[74.46863,17.61778],[74.46886,17.61993],[74.47268,17.62044],[74.47004,17.62535],[74.4655,17.62347],[74.46427,17.62808],[74.464,17.63258],[74.46437,17.63265],[74.46577,17.63348],[74.46517,17.63628],[74.46572,17.63636],[74.46866,17.64027],[74.47037,17.64013],[74.47057,17.6357],[74.47209,17.63164],[74.4758,17.62794],[74.47493,17.62697],[74.47578,17.6265],[74.47704,17.62624],[74.47802,17.62583],[74.47849,17.62497],[74.48107,17.62324],[74.48038,17.61973],[74.48051,17.61679],[74.48006,17.61359],[74.47954,17.61124],[74.48133,17.60793],[74.482,17.607],[74.48403,17.60677],[74.48471,17.60458],[74.47825,17.60187],[74.47528,17.60049],[74.47407,17.59975],[74.47132,17.60039],[74.46951,17.6006],[74.46826,17.5992],[74.4672,17.59899],[74.46635,17.59842],[74.46561,17.59844],[74.46507,17.59802],[74.46371,17.59778],[74.46172,17.59708],[74.46104,17.59699],[74.46101,17.59679],[74.46027,17.59678],[74.46012,17.59625],[74.45968,17.59572],[74.45829,17.59446],[74.45836,17.59393],[74.45816,17.59346],[74.4577,17.5934],[74.45709,17.59367],[74.45495,17.59307],[74.45432,17.59327],[74.45394,17.59354],[74.45436,17.5945],[74.45347,17.59447],[74.45303,17.59427]]]}},{"type":"Feature","bbox":[74.45283,17.57447,74.49119,17.6045],"properties":{"ward":6},"geometry":{"type":"MultiPolygon","coordinates":[[[[74.45333,17.58642],[74.45344,17.58567],[74.45349,17.5853],[74.45333,17.58642]]],[[[74.45359,17.58465],[74.45321,17.58877],[74.45285,17.58975],[74.45283,17.5904],[74.45334,17.59015],[74.45319,17.59165],[74.45339,17.5918],[74.45362,17.59318],[74.45388,17.59352],[74.45496,17.59301],[74.45708,17.59364],[74.45769,17.59338],[74.45816,17.59344],[74.45839,17.59392],[74.45832,17.59444],[74.46013,17.59618],[74.46028,17.59677],[74.46102,17.59679],[74.46105,17.59698],[74.46173,17.59706],[74.46376,17.59778],[74.46509,17.59799],[74.46563,17.59841],[74.46636,17.59838],[74.46721,17.59897],[74.46827,17.59916],[74.46952,17.60058],[74.47132,17.60036],[74.47406,17.59973],[74.47599,17.60079],[74.47904,17.60216],[74.48469,17.6045],[74.48493,17.60209],[74.48615,17.59942],[74.48707,17.59828],[74.48786,17.59667],[74.4884,17.59509],[74.48853,17.59378],[74.48896,17.59196],[74.49055,17.58692],[74.49119,17.58572],[74.49119,17.58536],[74.48901,17.58574],[74.48616,17.58574],[74.48544,17.58536],[74.48435,17.58519],[74.48211,17.58539],[74.48112,17.58558],[74.48113,17.58629],[74.47944,17.58655],[74.47657,17.58741],[74.47592,17.58563],[74.47492,17.58583],[74.475,17.58617],[74.47143,17.58725],[74.4713,17.58647],[74.47186,17.58629],[74.47104,17.58373],[74.4697,17.5843],[74.46866,17.5832],[74.46686,17.58074],[74.46515,17.58165],[74.46478,17.57891],[74.46416,17.5788],[74.46402,17.57727],[74.46412,17.57628],[74.46372,17.57447],[74.46356,17.575],[74.46255,17.57611],[74.46076,17.57719],[74.45977,17.58094],[74.45912,17.58181],[74.45842,17.58227],[74.45672,17.58274],[74.45509,17.58358],[74.45359,17.58465]]]]}}]}