{"type":"FeatureCollection","features":[{"type":"Feature","bbox":[77.69864,12.82927,77.70193,12.83487],"properties":{"ward":1},"geometry":{"type":"Polygon","coordinates":[[[77.70193,12.83334],[77.70162,12.83095],[77.69966,12.83117],[77.69952,12.83003],[77.69969,12.82996],[77.69978,12.82927],[77.69864,12.82941],[77.69914,12.83296],[77.7002,12.83487],[77.70193,12.83334]]]}},{"type":"Feature","bbox":[77.69799,12.81888,77.70709,12.83334],"properties":{"ward":2},"geometry":{"type":"Polygon","coordinates":[[[77.70534,12.8304],[77.70709,12.82776],[77.70697,12.8257],[77.70614,12.82224],[77.70545,12.8204],[77.70443,12.82053],[77.70347,12.82029],[77.70236,12.81956],[77.7009,12.81888],[77.70078,12.81965],[77.70097,12.82114],[77.70084,12.82204],[77.70104,12.82307],[77.69946,12.82389],[77.69962,12.82437],[77.69922,12.82478],[77.69869,12.8261],[77.69799,12.82629],[77.69864,12.82941],[77.69978,12.82927],[77.69969,12.82996],[77.69952,12.83003],[77.69966,12.83117],[77.70162,12.83095],[77.70193,12.83334],[77.70534,12.8304]]]}},{"type":"Feature","bbox":[77.70534,12.81587,77.71979,12.83053],"properties":{"ward":3},"geometry":{"type":"Polygon","coordinates":[[[77.71979,12.82887],[77.71916,12.82634],[77.71913,12.82557],[77.71939,12.82497],[77.71935,12.82376],[77.71922,12.82225],[77.71878,12.82133],[77.71884,12.82086],[77.71756,12.82018],[77.71773,12.81921],[77.71722,12.81749],[77.71697,12.81715],[77.71586,12.81674],[77.71548,12.81587],[77.71602,12.81752],[77.71592,12.81871],[77.71561,12.81933],[77.71536,12.82088],[77.715,12.82108],[77.71315,12.82126],[77.71266,12.82145],[77.71252,12.82187],[77.71268,12.82302],[77.71215,12.82494],[77.70866,12.82516],[77.70864,12.82578],[77.70733,12.8262],[77.70709,12.82776],[77.70534,12.8304],[77.70825,12.83042],[77.71285,12.82995],[77.71292,12.83048],[77.71428,12.83053],[77.71614,12.82986],[77.71636,12.82961],[77.71979,12.82887]]]}},{"type":"Feature","bbox":[77.71455,12.81142,77.72831,12.82896],"properties":{"ward":4},"geometry":{"type":"Polygon","coordinates":[[[77.72708,12.81823],[77.7268,12.81823],[77.71822,12.81334],[77.7158,12.8129],[77.71569,12.81185],[77.71544,12.81186],[77.71531,12.81142],[77.71464,12.81146],[77.71455,12.81165],[77.71486,12.8123],[77.71537,12.81437],[77.71488,12.81571],[77.71549,12.81588],[77.71586,12.81674],[77.71708,12.81726],[77.71769,12.81898],[77.71756,12.82018],[77.71884,12.82086],[77.71878,12.82133],[77.71922,12.82225],[77.71935,12.82376],[77.71939,12.82497],[77.71913,12.82557],[77.71916,12.82634],[77.71979,12.82887],[77.72023,12.82896],[77.72009,12.82845],[77.72018,12.82848],[77.72021,12.82818],[77.72168,12.82798],[77.72173,12.82767],[77.72629,12.82804],[77.72704,12.82702],[77.72751,12.8269],[77.72763,12.82639],[77.72812,12.82632],[77.72831,12.82592],[77.72808,12.82582],[77.72771,12.82352],[77.72708,12.81823]]]}},{"type":"Feature","bbox":[77.70545,12.81568,77.71602,12.82776],"properties":{"ward":5},"geometry":{"type":"Polygon","coordinates":[[[77.71548,12.81587],[77.71475,12.81568],[77.71464,12.81599],[77.71297,12.81631],[77.71282,12.81651],[77.70977,12.81702],[77.70923,12.81747],[77.70936,12.81834],[77.70917,12.81907],[77.70782,12.81909],[77.70732,12.81846],[77.70699,12.81912],[77.70699,12.81962],[77.70675,12.82021],[77.70545,12.8204],[77.70614,12.82224],[77.70697,12.8257],[77.70709,12.82776],[77.70733,12.8262],[77.70864,12.82578],[77.70866,12.82516],[77.71215,12.82494],[77.71268,12.82302],[77.71252,12.82167],[77.71281,12.82133],[77.715,12.82108],[77.71536,12.82088],[77.71561,12.81933],[77.71592,12.81871],[77.71602,12.81752],[77.71548,12.81587]]]}},{"type":"Feature","bbox":[77.70058,12.81449,77.70934,12.82053],"properties":{"ward":6},"geometry":{"type":"Polygon","coordinates":[[[77.70443,12.82053],[77.70675,12.82021],[77.70699,12.81962],[77.70699,12.81912],[77.70732,12.81846],[77.70789,12.81911],[77.70917,12.81907],[77.70934,12.81851],[77.70934,12.81775],[77.70929,12.81753],[77.70905,12.81742],[77.70897,12.81659],[77.70799,12.81661],[77.70791,12.81606],[77.70754,12.81551],[77.70641,12.81456],[77.70612,12.81449],[77.70473,12.81459],[77.7022,12.81616],[77.70065,12.81721],[77.70063,12.81737],[77.70058,12.81793],[77.70085,12.81871],[77.70081,12.81903],[77.7009,12.81888],[77.70236,12.81956],[77.70347,12.82029],[77.70443,12.82053]]]}},{"type":"Feature","bbox":[77.70661,12.80662,77.71533,12.81747],"properties":{"ward":8},"geometry":{"type":"Polygon","coordinates":[[[77.71488,12.81571],[77.71515,12.81478],[77.71533,12.8146],[77.7153,12.81405],[77.71486,12.8123],[77.71455,12.81165],[77.71427,12.81144],[77.71429,12.81114],[77.71389,12.81041],[77.71319,12.80998],[77.71327,12.80941],[77.71353,12.80924],[77.71346,12.80881],[77.71317,12.80862],[77.71303,12.80822],[77.71127,12.80752],[77.71083,12.80764],[77.70994,12.80744],[77.70912,12.80693],[77.70853,12.80688],[77.70827,12.80662],[77.70661,12.80666],[77.70729,12.80821],[77.70815,12.80836],[77.70893,12.80877],[77.70864,12.81052],[77.70905,12.81742],[77.70923,12.81747],[77.70983,12.817],[77.71282,12.81651],[77.71297,12.81631],[77.71464,12.81599],[77.71475,12.81568],[77.71488,12.81571]]]}},{"type":"Feature","bbox":[77.71317,12.80538,77.73202,12.81913],"properties":{"ward":9},"geometry":{"type":"Polygon","coordinates":[[[77.71638,12.80538],[77.71583,12.80575],[77.71546,12.80574],[77.71569,12.80639],[77.7144,12.80699],[77.71387,12.80687],[77.71406,12.80741],[77.71369,12.80793],[77.71345,12.80883],[77.71353,12.80924],[77.71333,12.8093],[77.71317,12.80973],[77.71319,12.80998],[77.71389,12.81041],[77.71438,12.81158],[77.71459,12.81167],[77.71464,12.81146],[77.71498,12.81148],[77.715,12.81135],[77.71531,12.81142],[77.71544,12.81186],[77.71569,12.81185],[77.7158,12.8129],[77.71822,12.81334],[77.7268,12.81823],[77.72708,12.81816],[77.73041,12.81913],[77.73152,12.81808],[77.73202,12.81493],[77.73137,12.81231],[77.73132,12.81075],[77.73077,12.80935],[77.72976,12.80803],[77.72882,12.80583],[77.72659,12.80572],[77.72543,12.80547],[77.72311,12.80585],[77.72151,12.80563],[77.71983,12.80571],[77.71855,12.80538],[77.71854,12.80553],[77.71638,12.80538]]]}},{"type":"Feature","bbox":[77.71252,12.80221,77.71787,12.8058],"properties":{"ward":10},"geometry":{"type":"Polygon","coordinates":[[[77.71638,12.80538],[77.71703,12.80448],[77.7175,12.80415],[77.71773,12.8033],[77.71763,12.80313],[77.71787,12.80273],[77.71763,12.80221],[77.71474,12.80312],[77.71461,12.80268],[77.71379,12.80285],[77.71368,12.80242],[77.71325,12.80243],[77.71325,12.80279],[77.71289,12.803],[77.71292,12.80321],[77.71252,12.80324],[77.71258,12.8037],[77.71289,12.80388],[77.71319,12.80488],[77.71439,12.80494],[77.71546,12.8058],[77.71583,12.80575],[77.71638,12.80538]]]}},{"type":"Feature","bbox":[77.71165,12.79482,77.72095,12.80346],"properties":{"ward":11},"geometry":{"type":"Polygon","coordinates":[[[77.71787,12.80273],[77.71857,12.80231],[77.71886,12.80172],[77.71851,12.80085],[77.71899,12.80068],[77.71967,12.80002],[77.71983,12.79955],[77.72086,12.79826],[77.72095,12.79709],[77.72065,12.79606],[77.72082,12.79596],[77.72071,12.79537],[77.72034,12.79482],[77.71996,12.79499],[77.72029,12.79552],[77.71933,12.79591],[77.71909,12.79569],[77.71758,12.79797],[77.71647,12.79913],[77.71486,12.80025],[77.71165,12.80189],[77.71208,12.8031],[77.7125,12.80346],[77.71252,12.80324],[77.71292,12.80321],[77.71289,12.803],[77.71325,12.80279],[77.71325,12.80243],[77.71368,12.80242],[77.71379,12.80285],[77.71461,12.80268],[77.71472,12.80311],[77.71763,12.80221],[77.71787,12.80273]]]}},{"type":"Feature","bbox":[77.7086,12.79409,77.71909,12.80213],"properties":{"ward":12},"geometry":{"type":"Polygon","coordinates":[[[77.71165,12.80189],[77.71486,12.80025],[77.71647,12.79913],[77.71758,12.79797],[77.71909,12.79569],[77.71736,12.79544],[77.7162,12.7951],[77.71432,12.79411],[77.714,12.79409],[77.71399,12.79532],[77.71361,12.79534],[77.71332,12.79415],[77.71216,12.79424],[77.71229,12.79575],[77.71245,12.79579],[77.71258,12.79668],[77.71047,12.79689],[77.70987,12.79845],[77.70919,12.79918],[77.7086,12.79935],[77.70927,12.80211],[77.71045,12.80213],[77.71165,12.80189]]]}},{"type":"Feature","bbox":[77.70927,12.80189,77.71569,12.80881],"properties":{"ward":13},"geometry":{"type":"Polygon","coordinates":[[[77.71546,12.8058],[77.71439,12.80494],[77.71314,12.80484],[77.71289,12.80388],[77.7122,12.80329],[77.71165,12.80189],[77.71045,12.80213],[77.70927,12.80211],[77.71057,12.80759],[77.71127,12.80752],[77.71165,12.80777],[77.7129,12.80814],[77.71319,12.80866],[77.71346,12.80881],[77.71369,12.80793],[77.71406,12.80741],[77.71387,12.80687],[77.7144,12.80699],[77.71569,12.80639],[77.71546,12.8058]]]}},{"type":"Feature","bbox":[77.70511,12.80041,77.71057,12.80759],"properties":{"ward":14},"geometry":{"type":"Polygon","coordinates":[[[77.71057,12.80759],[77.70885,12.80041],[77.70813,12.80063],[77.70692,12.80069],[77.70685,12.80092],[77.70603,12.80094],[77.70584,12.80071],[77.70582,12.80088],[77.70534,12.80088],[77.70511,12.80174],[77.70526,12.80251],[77.70581,12.80249],[77.70601,12.80344],[77.70643,12.80361],[77.70685,12.80412],[77.70817,12.8044],[77.70867,12.80492],[77.70909,12.8056],[77.70887,12.80694],[77.70912,12.80693],[77.70989,12.80742],[77.71057,12.80759]]]}},{"type":"Feature","bbox":[77.69996,12.79963,77.70904,12.80694],"properties":{"ward":15},"geometry":{"type":"Polygon","coordinates":[[[77.70511,12.80174],[77.70568,12.79978],[77.70525,12.79963],[77.70438,12.8011],[77.70354,12.80108],[77.70041,12.80227],[77.70032,12.80264],[77.70056,12.80297],[77.69996,12.80292],[77.70002,12.80312],[77.70032,12.80315],[77.70062,12.80377],[77.70022,12.80411],[77.70058,12.80519],[77.70103,12.80539],[77.70128,12.80529],[77.7013,12.8055],[77.70288,12.80578],[77.70449,12.80648],[77.70677,12.80667],[77.70816,12.8066],[77.70887,12.80694],[77.70904,12.80546],[77.70824,12.80444],[77.70685,12.80412],[77.70643,12.80361],[77.70601,12.80344],[77.70581,12.80249],[77.70525,12.80249],[77.70511,12.80174]]]}},{"type":"Feature","bbox":[77.70534,12.79974,77.70885,12.80094],"properties":{"ward":16},"geometry":{"type":"Polygon","coordinates":[[[77.70885,12.80041],[77.70869,12.79974],[77.70559,12.80005],[77.70534,12.80088],[77.70582,12.80088],[77.70584,12.80071],[77.70603,12.80094],[77.70685,12.80092],[77.70692,12.80069],[77.70813,12.80063],[77.70885,12.80041]]]}},{"type":"Feature","bbox":[77.70525,12.79894,77.70869,12.80005],"properties":{"ward":17},"geometry":{"type":"Polygon","coordinates":[[[77.70869,12.79974],[77.7086,12.79935],[77.70797,12.79939],[77.70779,12.79923],[77.70786,12.79898],[77.70725,12.79894],[77.70681,12.79895],[77.70674,12.79928],[77.70543,12.79935],[77.70525,12.79963],[77.70568,12.79978],[77.70559,12.80005],[77.70869,12.79974]]]}},{"type":"Feature","bbox":[77.70543,12.79579,77.7086,12.79939],"properties":{"ward":18},"geometry":{"type":"Polygon","coordinates":[[[77.7086,12.79935],[77.70772,12.79579],[77.70748,12.79584],[77.70663,12.79633],[77.70645,12.79722],[77.70549,12.79743],[77.70593,12.79758],[77.70589,12.79837],[77.70543,12.79935],[77.70674,12.79928],[77.70681,12.79895],[77.70725,12.79894],[77.70786,12.79898],[77.70779,12.79923],[77.70797,12.79939],[77.7086,12.79935]]]}},{"type":"Feature","bbox":[77.70772,12.79306,77.71397,12.79935],"properties":{"ward":19},"geometry":{"type":"Polygon","coordinates":[[[77.71397,12.79533],[77.71392,12.79378],[77.71257,12.79341],[77.7124,12.79306],[77.71123,12.79314],[77.70977,12.79394],[77.70791,12.79555],[77.70772,12.79579],[77.7086,12.79935],[77.70919,12.79918],[77.70987,12.79845],[77.71047,12.79689],[77.71258,12.79668],[77.71245,12.79579],[77.71229,12.79575],[77.71216,12.79424],[77.71332,12.79415],[77.71361,12.79534],[77.71397,12.79533]]]}},{"type":"Feature","bbox":[77.70424,12.775,77.71247,12.79743],"properties":{"ward":20},"geometry":{"type":"Polygon","coordinates":[[[77.70772,12.79579],[77.70977,12.79394],[77.71123,12.79314],[77.71247,12.79305],[77.71185,12.79006],[77.71188,12.78833],[77.71208,12.78722],[77.71222,12.7872],[77.712,12.7856],[77.71235,12.78548],[77.71204,12.78386],[77.71058,12.78127],[77.71041,12.77978],[77.70854,12.77579],[77.70657,12.775],[77.70724,12.79045],[77.70569,12.79082],[77.70661,12.79547],[77.70424,12.79591],[77.70443,12.79706],[77.70549,12.79743],[77.70645,12.79722],[77.70663,12.79633],[77.70772,12.79579]]]}},{"type":"Feature","bbox":[77.68559,12.78532,77.70622,12.79591],"properties":{"ward":21},"geometry":{"type":"Polygon","coordinates":[[[77.70622,12.7955],[77.70615,12.79483],[77.70572,12.79428],[77.70559,12.79386],[77.70561,12.79329],[77.70597,12.79283],[77.70553,12.79046],[77.70519,12.79049],[77.70511,12.79008],[77.70476,12.78993],[77.70417,12.79022],[77.70322,12.78873],[77.70301,12.78786],[77.70205,12.78784],[77.70179,12.7857],[77.70014,12.78551],[77.69457,12.78532],[77.69309,12.78626],[77.69316,12.7868],[77.69276,12.78821],[77.69259,12.78847],[77.69186,12.78881],[77.69028,12.78863],[77.68958,12.78829],[77.68954,12.78864],[77.68918,12.78857],[77.68679,12.78692],[77.68581,12.79056],[77.6857,12.79051],[77.68559,12.79074],[77.68827,12.79194],[77.68908,12.79229],[77.68917,12.79186],[77.69055,12.79241],[77.6913,12.79293],[77.69145,12.79272],[77.69265,12.79269],[77.6927,12.79247],[77.69298,12.79236],[77.70031,12.79223],[77.70158,12.79271],[77.70253,12.79344],[77.70382,12.79405],[77.70424,12.79591],[77.70622,12.7955]]]}},{"type":"Feature","bbox":[77.69342,12.77523,77.70659,12.7955],"properties":{"ward":22},"geometry":{"type":"Polygon","coordinates":[[[77.70659,12.79548],[77.7054,12.78972],[77.70371,12.78788],[77.70334,12.78723],[77.7031,12.78483],[77.7038,12.78283],[77.70388,12.78209],[77.70221,12.7795],[77.70163,12.77523],[77.70086,12.77612],[77.69876,12.77709],[77.69927,12.77978],[77.69761,12.78046],[77.69755,12.78083],[77.69786,12.78171],[77.69782,12.78207],[77.69708,12.78247],[77.69586,12.78398],[77.69362,12.78554],[77.69342,12.78596],[77.69436,12.7854],[77.69509,12.78526],[77.70179,12.7857],[77.70205,12.78784],[77.70301,12.78786],[77.70322,12.78873],[77.70417,12.79022],[77.70476,12.78993],[77.70511,12.79008],[77.70519,12.79049],[77.70553,12.79046],[77.70597,12.79283],[77.70561,12.79329],[77.70559,12.79386],[77.70572,12.79428],[77.70615,12.79483],[77.70622,12.7955],[77.70659,12.79548]]]}},{"type":"Feature","bbox":[77.70163,12.77415,77.70724,12.79082],"properties":{"ward":23},"geometry":{"type":"Polygon","coordinates":[[[77.70657,12.775],[77.70415,12.77415],[77.70239,12.77434],[77.70163,12.77523],[77.70221,12.7795],[77.70388,12.78209],[77.7038,12.78283],[77.7031,12.78483],[77.70334,12.78723],[77.70371,12.78788],[77.7054,12.78972],[77.70569,12.79082],[77.70724,12.79045],[77.70657,12.775]]]}}]}