{"type":"FeatureCollection","features":[{"type":"Feature","bbox":[73.8243,17.79952,73.82935,17.80488],"properties":{"ward":1,"name":"Aambedkar Nagar"},"geometry":{"type":"Polygon","coordinates":[[[73.82935,17.80462],[73.82887,17.80215],[73.8283,17.8012],[73.82799,17.80086],[73.82776,17.80089],[73.82675,17.79952],[73.8243,17.80243],[73.82478,17.80312],[73.82509,17.803],[73.82515,17.80316],[73.82548,17.80315],[73.82882,17.80488],[73.82935,17.80462]]]}},{"type":"Feature","bbox":[73.82689,17.79789,73.83309,17.80621],"properties":{"ward":2,"name":"Aambedkar Nagar"},"geometry":{"type":"Polygon","coordinates":[[[73.83269,17.80548],[73.83309,17.80342],[73.83297,17.80228],[73.8325,17.80102],[73.83235,17.80108],[73.83214,17.80059],[73.83169,17.80069],[73.83135,17.8],[73.83149,17.79983],[73.83056,17.79874],[73.83032,17.799],[73.82929,17.79851],[73.82738,17.79789],[73.82727,17.7987],[73.82689,17.79958],[73.82786,17.80085],[73.82808,17.80082],[73.82833,17.80107],[73.82894,17.80213],[73.82941,17.80465],[73.82889,17.80492],[73.83053,17.80579],[73.83115,17.80531],[73.83133,17.80535],[73.83231,17.80621],[73.83269,17.80548]]]}},{"type":"Feature","bbox":[73.82919,17.79797,73.83619,17.81006],"properties":{"ward":3,"name":"Gandhi Nagar"},"geometry":{"type":"Polygon","coordinates":[[[73.8346,17.80102],[73.83421,17.80031],[73.83331,17.79994],[73.83269,17.79941],[73.83197,17.79938],[73.83147,17.79882],[73.83071,17.79833],[73.83016,17.79813],[73.82989,17.79824],[73.82929,17.79797],[73.82943,17.79809],[73.82919,17.79839],[73.83029,17.79891],[73.83053,17.79864],[73.83149,17.79977],[73.83134,17.79994],[73.83169,17.80065],[73.83215,17.80055],[73.83237,17.80105],[73.83253,17.80099],[73.83294,17.80207],[73.8331,17.80394],[73.83285,17.80522],[73.83233,17.80634],[73.8338,17.80763],[73.83614,17.81006],[73.83601,17.80967],[73.83619,17.80548],[73.8354,17.80493],[73.83521,17.80447],[73.83467,17.80387],[73.83457,17.80327],[73.8348,17.80212],[73.8346,17.80102]]]}},{"type":"Feature","bbox":[73.83141,17.79684,73.84528,17.81005],"properties":{"ward":4,"name":"Gore Vasti"},"geometry":{"type":"Polygon","coordinates":[[[73.84458,17.80288],[73.84528,17.80141],[73.84453,17.80118],[73.84432,17.80268],[73.8427,17.80233],[73.84154,17.80162],[73.84158,17.80239],[73.84102,17.80278],[73.8404,17.80177],[73.83872,17.80114],[73.8378,17.80043],[73.83688,17.80034],[73.83632,17.79989],[73.83609,17.79986],[73.83604,17.79999],[73.83566,17.79979],[73.83413,17.79867],[73.83301,17.79722],[73.83245,17.79684],[73.83141,17.79765],[73.83189,17.79816],[73.8326,17.79938],[73.83331,17.79994],[73.83421,17.80031],[73.8346,17.80102],[73.8348,17.80212],[73.83457,17.80327],[73.83467,17.80387],[73.83521,17.80447],[73.8354,17.80493],[73.83619,17.80548],[73.83601,17.80967],[73.83616,17.81005],[73.84275,17.80511],[73.84458,17.80288]]]}},{"type":"Feature","bbox":[73.82856,17.79401,73.83234,17.79767],"properties":{"ward":5,"name":"Old Panchayat Samiti"},"geometry":{"type":"Polygon","coordinates":[[[73.83052,17.79503],[73.82906,17.79401],[73.82856,17.79482],[73.82965,17.79595],[73.83139,17.79685],[73.83101,17.79753],[73.83137,17.79767],[73.83134,17.79756],[73.83234,17.79681],[73.83052,17.79503]]]}},{"type":"Feature","bbox":[73.82787,17.79482,73.83134,17.79755],"properties":{"ward":6,"name":"Venna Chowk"},"geometry":{"type":"Polygon","coordinates":[[[73.83134,17.79684],[73.82951,17.79587],[73.82849,17.79482],[73.82787,17.79601],[73.82833,17.79622],[73.82826,17.79634],[73.8292,17.79711],[73.82951,17.79672],[73.83008,17.79718],[73.83096,17.79755],[73.83134,17.79684]]]}},{"type":"Feature","bbox":[73.82726,17.79604,73.8326,17.79938],"properties":{"ward":7,"name":"Mery -Angel School"},"geometry":{"type":"Polygon","coordinates":[[[73.83195,17.79936],[73.8326,17.79938],[73.83156,17.79776],[73.83008,17.79718],[73.82951,17.79672],[73.8292,17.79711],[73.82826,17.79634],[73.82833,17.79622],[73.82777,17.79604],[73.82739,17.79677],[73.8275,17.79678],[73.82726,17.79777],[73.82919,17.79839],[73.82943,17.79808],[73.82929,17.79796],[73.82989,17.79824],[73.8301,17.79813],[73.83049,17.79822],[73.83137,17.79874],[73.83195,17.79936]]]}},{"type":"Feature","bbox":[73.81995,17.79645,73.8275,17.80243],"properties":{"ward":8,"name":"B.S.N.L. Area"},"geometry":{"type":"Polygon","coordinates":[[[73.82494,17.80149],[73.8268,17.79943],[73.82716,17.7986],[73.8275,17.79678],[73.82725,17.7968],[73.82709,17.79649],[73.82677,17.79647],[73.82688,17.79732],[73.82551,17.79651],[73.82351,17.79714],[73.82281,17.79689],[73.82229,17.79701],[73.82158,17.79645],[73.81995,17.79889],[73.82052,17.79921],[73.82078,17.79882],[73.82118,17.79922],[73.82156,17.79924],[73.82198,17.7995],[73.82208,17.79986],[73.82255,17.80009],[73.82257,17.80034],[73.82345,17.80151],[73.8243,17.80243],[73.82494,17.80149]]]}},{"type":"Feature","bbox":[73.82158,17.7943,73.82777,17.79732],"properties":{"ward":9,"name":"Venna High School"},"geometry":{"type":"Polygon","coordinates":[[[73.82688,17.79732],[73.82677,17.79647],[73.82709,17.79649],[73.82736,17.79684],[73.82777,17.79604],[73.82722,17.79588],[73.82762,17.79513],[73.82735,17.79489],[73.82719,17.79508],[73.82607,17.7947],[73.82585,17.7943],[73.82546,17.79438],[73.82477,17.79524],[73.82369,17.79493],[73.82244,17.79484],[73.8217,17.79516],[73.82158,17.79645],[73.82229,17.79701],[73.82281,17.79689],[73.82354,17.79713],[73.82372,17.79697],[73.82551,17.79651],[73.82688,17.79732]]]}},{"type":"Feature","bbox":[73.82722,17.79362,73.82904,17.79601],"properties":{"ward":10,"name":"Tahashil Karyalaya"},"geometry":{"type":"Polygon","coordinates":[[[73.82904,17.79409],[73.82833,17.79362],[73.82735,17.79489],[73.82762,17.79513],[73.82722,17.79588],[73.82787,17.79601],[73.82851,17.79476],[73.82904,17.79409]]]}},{"type":"Feature","bbox":[73.82556,17.793,73.82833,17.79508],"properties":{"ward":11,"name":"Bhairavnath Mandir"},"geometry":{"type":"Polygon","coordinates":[[[73.82719,17.79508],[73.82833,17.79362],[73.82714,17.793],[73.82556,17.79434],[73.82592,17.79433],[73.82607,17.7947],[73.82719,17.79508]]]}},{"type":"Feature","bbox":[73.82173,17.79245,73.82662,17.79524],"properties":{"ward":12,"name":"Kumbhar Vaada"},"geometry":{"type":"Polygon","coordinates":[[[73.82477,17.79524],[73.82591,17.79392],[73.82601,17.79398],[73.82662,17.79348],[73.82639,17.79315],[73.8264,17.79285],[73.82582,17.79291],[73.82532,17.79258],[73.82445,17.79272],[73.82372,17.79245],[73.82324,17.79257],[73.82315,17.79307],[73.8227,17.79384],[73.82235,17.79414],[73.82173,17.79511],[73.8222,17.79484],[73.82278,17.79486],[73.82369,17.79493],[73.82477,17.79524]]]}},{"type":"Feature","bbox":[73.82165,17.7868,73.82615,17.79292],"properties":{"ward":13,"name":"Vitthal Mandir"},"geometry":{"type":"Polygon","coordinates":[[[73.82615,17.79286],[73.82569,17.79217],[73.82545,17.79089],[73.82503,17.79015],[73.82403,17.78928],[73.82266,17.78735],[73.82243,17.7868],[73.82184,17.78706],[73.82165,17.78805],[73.82236,17.78899],[73.82332,17.79086],[73.82353,17.79157],[73.82359,17.7919],[73.82324,17.79257],[73.82372,17.79245],[73.82445,17.79272],[73.82533,17.79258],[73.82586,17.79292],[73.82615,17.79286]]]}},{"type":"Feature","bbox":[73.82568,17.79173,73.82758,17.79348],"properties":{"ward":14,"name":"Z.P.School Medha"},"geometry":{"type":"Polygon","coordinates":[[[73.82712,17.79301],[73.82728,17.79308],[73.82737,17.79269],[73.82758,17.79255],[73.82734,17.79232],[73.8272,17.79186],[73.82687,17.79207],[73.82689,17.79248],[73.82663,17.79249],[73.82607,17.79173],[73.82568,17.79214],[73.82615,17.79286],[73.82637,17.7928],[73.82639,17.79315],[73.82662,17.79348],[73.82712,17.79301]]]}},{"type":"Feature","bbox":[73.8272,17.78905,73.83198,17.79395],"properties":{"ward":15,"name":"Rural Hospital"},"geometry":{"type":"Polygon","coordinates":[[[73.82934,17.79395],[73.83198,17.79134],[73.83139,17.79089],[73.83113,17.79111],[73.83043,17.79015],[73.82959,17.79014],[73.82891,17.78905],[73.82854,17.78921],[73.82778,17.79022],[73.82739,17.79049],[73.82798,17.79117],[73.82768,17.79143],[73.82774,17.79155],[73.8272,17.79186],[73.82734,17.79232],[73.82758,17.79255],[73.82737,17.79269],[73.82728,17.79308],[73.82885,17.79389],[73.82934,17.79395]]]}},{"type":"Feature","bbox":[73.82598,17.78529,73.83495,17.79134],"properties":{"ward":16,"name":"Police Station"},"geometry":{"type":"Polygon","coordinates":[[[73.83198,17.79134],[73.83495,17.78843],[73.83168,17.78656],[73.83081,17.78645],[73.83047,17.78588],[73.82959,17.78529],[73.82836,17.78611],[73.82598,17.78847],[73.82694,17.78932],[73.82693,17.78985],[73.8274,17.79049],[73.82854,17.78921],[73.82891,17.78905],[73.82958,17.79013],[73.83043,17.79015],[73.83113,17.79111],[73.83139,17.79089],[73.83198,17.79134]]]}},{"type":"Feature","bbox":[73.82243,17.78069,73.82959,17.79248],"properties":{"ward":17,"name":"Samarth Mandir"},"geometry":{"type":"Polygon","coordinates":[[[73.82685,17.79248],[73.82687,17.79207],[73.82774,17.79155],[73.82768,17.79143],[73.82798,17.79117],[73.82697,17.78992],[73.82694,17.78932],[73.82598,17.78847],[73.82836,17.78611],[73.82959,17.78529],[73.82917,17.78513],[73.8291,17.78476],[73.82857,17.78479],[73.82833,17.7846],[73.82789,17.78455],[73.82807,17.78433],[73.82749,17.78405],[73.82797,17.78305],[73.82787,17.78288],[73.82802,17.78242],[73.82785,17.78212],[73.8281,17.78107],[73.82804,17.78091],[73.82712,17.78069],[73.82652,17.78249],[73.8259,17.78345],[73.82543,17.784],[73.82375,17.78493],[73.82309,17.78654],[73.82243,17.7868],[73.82266,17.78735],[73.82403,17.78928],[73.82512,17.79027],[73.82545,17.79089],[73.82568,17.79214],[73.82607,17.79173],[73.8266,17.79246],[73.82685,17.79248]]]}}]}