{"type":"FeatureCollection","features":[{"type":"Feature","bbox":[78.41053,21.17149,78.41685,21.17445],"properties":{"ward":1,"name":"Matangpura"},"geometry":{"type":"Polygon","coordinates":[[[78.41076,21.17445],[78.41248,21.17256],[78.41374,21.17262],[78.41529,21.17295],[78.41637,21.17294],[78.41685,21.17257],[78.41674,21.17176],[78.4135,21.17185],[78.41272,21.1718],[78.41214,21.17149],[78.41099,21.1723],[78.41053,21.17371],[78.41076,21.17445]]]}},{"type":"Feature","bbox":[78.40983,21.17103,78.41398,21.1747],"properties":{"ward":2,"name":"Matamay Mandir"},"geometry":{"type":"Polygon","coordinates":[[[78.41056,21.17467],[78.41036,21.17413],[78.41037,21.17334],[78.41072,21.17243],[78.4112,21.17187],[78.41209,21.17134],[78.41255,21.17139],[78.41285,21.17166],[78.41398,21.17167],[78.41302,21.17103],[78.41121,21.1713],[78.41096,21.17209],[78.41035,21.17217],[78.41006,21.17285],[78.40983,21.17298],[78.40997,21.17373],[78.40988,21.1744],[78.41016,21.1747],[78.41056,21.17467]]]}},{"type":"Feature","bbox":[78.41041,21.17037,78.4129,21.17209],"properties":{"ward":3,"name":"Lendipura"},"geometry":{"type":"Polygon","coordinates":[[[78.41041,21.17209],[78.41084,21.17207],[78.41114,21.17127],[78.41136,21.17112],[78.4129,21.17088],[78.41226,21.17045],[78.4111,21.17037],[78.41041,21.17209]]]}},{"type":"Feature","bbox":[78.40941,21.17011,78.41093,21.1728],"properties":{"ward":4,"name":"Khari Ward"},"geometry":{"type":"Polygon","coordinates":[[[78.40941,21.1707],[78.40976,21.17271],[78.40995,21.1728],[78.41093,21.17036],[78.41063,21.17015],[78.41009,21.17011],[78.40941,21.1707]]]}},{"type":"Feature","bbox":[78.41059,21.16916,78.41256,21.1703],"properties":{"ward":5,"name":"Chimachi Vihir"},"geometry":{"type":"Polygon","coordinates":[[[78.4108,21.17011],[78.41128,21.17029],[78.41226,21.1703],[78.41196,21.16977],[78.41256,21.16927],[78.4124,21.16916],[78.41183,21.16949],[78.41059,21.16975],[78.4108,21.17011]]]}},{"type":"Feature","bbox":[78.41035,21.16641,78.41231,21.16957],"properties":{"ward":6,"name":"Mahadev Mandir"},"geometry":{"type":"Polygon","coordinates":[[[78.41054,21.16957],[78.41229,21.16905],[78.41231,21.16854],[78.4117,21.1673],[78.41115,21.16669],[78.41116,21.16641],[78.41086,21.16646],[78.41139,21.16756],[78.41154,21.16845],[78.41114,21.16867],[78.41035,21.16865],[78.41054,21.16957]]]}},{"type":"Feature","bbox":[78.40871,21.16802,78.41049,21.16998],"properties":{"ward":7,"name":"Malipura"},"geometry":{"type":"Polygon","coordinates":[[[78.40907,21.16899],[78.40906,21.16977],[78.41049,21.16998],[78.41014,21.16812],[78.4096,21.1682],[78.40887,21.16802],[78.40871,21.16853],[78.40907,21.16899]]]}},{"type":"Feature","bbox":[78.41027,21.16483,78.41298,21.16856],"properties":{"ward":8,"name":"Juna Bajar Chowk"},"geometry":{"type":"Polygon","coordinates":[[[78.41027,21.16736],[78.41031,21.16851],[78.4105,21.16856],[78.41109,21.16855],[78.41137,21.16835],[78.41115,21.16727],[78.4107,21.16637],[78.41114,21.16628],[78.41175,21.16565],[78.41298,21.16538],[78.4129,21.16483],[78.41103,21.16507],[78.41036,21.16531],[78.41051,21.16597],[78.41027,21.16736]]]}},{"type":"Feature","bbox":[78.40608,21.16348,78.4097,21.16591],"properties":{"ward":9,"name":"Police Station"},"geometry":{"type":"Polygon","coordinates":[[[78.40608,21.16548],[78.40706,21.16591],[78.40788,21.16536],[78.4097,21.16463],[78.40951,21.16384],[78.40876,21.16375],[78.40836,21.16348],[78.40741,21.16388],[78.40674,21.16438],[78.40617,21.16507],[78.40608,21.16548]]]}},{"type":"Feature","bbox":[78.41013,21.16106,78.41459,21.16518],"properties":{"ward":10,"name":"Motha Athwadi Bajar"},"geometry":{"type":"Polygon","coordinates":[[[78.41013,21.16458],[78.4103,21.16518],[78.41289,21.16462],[78.41314,21.16482],[78.41412,21.16433],[78.4138,21.16315],[78.41334,21.16264],[78.41365,21.16203],[78.41459,21.16108],[78.41293,21.16106],[78.41313,21.16286],[78.413,21.1636],[78.41255,21.16368],[78.41258,21.16406],[78.41013,21.16458]]]}},{"type":"Feature","bbox":[78.40748,21.16495,78.4103,21.16782],"properties":{"ward":11,"name":"Durga Nagar"},"geometry":{"type":"Polygon","coordinates":[[[78.40947,21.16739],[78.40905,21.16777],[78.41007,21.16782],[78.4103,21.16593],[78.40996,21.16495],[78.40758,21.16585],[78.40748,21.16607],[78.4094,21.16644],[78.40952,21.16664],[78.40947,21.16739]]]}},{"type":"Feature","bbox":[78.40984,21.16139,78.41278,21.16428],"properties":{"ward":12,"name":"Jilha Parishad School"},"geometry":{"type":"Polygon","coordinates":[[[78.40985,21.16373],[78.41004,21.16428],[78.41225,21.16387],[78.41221,21.16348],[78.41278,21.16338],[78.41269,21.16139],[78.41195,21.16141],[78.41202,21.16294],[78.41084,21.16328],[78.41064,21.16323],[78.41065,21.16295],[78.40984,21.16305],[78.40985,21.16373]]]}},{"type":"Feature","bbox":[78.40977,21.16103,78.41266,21.16299],"properties":{"ward":13,"name":"Falodyan Office"},"geometry":{"type":"Polygon","coordinates":[[[78.40989,21.16138],[78.40977,21.16282],[78.41075,21.1627],[78.41086,21.16299],[78.41179,21.16285],[78.41173,21.16126],[78.41266,21.16115],[78.41264,21.16103],[78.41157,21.16104],[78.40989,21.16138]]]}},{"type":"Feature","bbox":[78.39923,21.16143,78.40961,21.16509],"properties":{"ward":14,"name":"Shikshak Colony"},"geometry":{"type":"Polygon","coordinates":[[[78.40702,21.16179],[78.40023,21.16228],[78.39923,21.16417],[78.40081,21.16509],[78.40127,21.165],[78.40185,21.16316],[78.40287,21.1633],[78.40525,21.16432],[78.40579,21.16472],[78.40626,21.16403],[78.40777,21.16311],[78.40822,21.16306],[78.40906,21.16348],[78.40947,21.16335],[78.40961,21.16143],[78.40702,21.16179]]]}},{"type":"Feature","bbox":[78.4068,21.15596,78.41342,21.16125],"properties":{"ward":15,"name":"Indira Nagar"},"geometry":{"type":"Polygon","coordinates":[[[78.4068,21.16018],[78.40708,21.16125],[78.412,21.16044],[78.4108,21.16008],[78.41041,21.15965],[78.4106,21.15938],[78.41045,21.1592],[78.41128,21.15754],[78.41234,21.15741],[78.41342,21.15651],[78.41273,21.15643],[78.41142,21.15596],[78.41019,21.1588],[78.41001,21.1597],[78.40965,21.15987],[78.4068,21.16018]]]}},{"type":"Feature","bbox":[78.40092,21.15611,78.40947,21.16139],"properties":{"ward":16,"name":"Charde Mangal Karayalay"},"geometry":{"type":"Polygon","coordinates":[[[78.40263,21.15867],[78.40092,21.16139],[78.4064,21.16106],[78.40618,21.16002],[78.40947,21.15937],[78.40858,21.15611],[78.40622,21.15675],[78.40512,21.15776],[78.40263,21.15867]]]}},{"type":"Feature","bbox":[78.40898,21.15526,78.41356,21.15856],"properties":{"ward":17,"name":"Gajanan Maharaj Mandir"},"geometry":{"type":"Polygon","coordinates":[[[78.40898,21.15576],[78.40981,21.15856],[78.41117,21.15561],[78.41319,21.15611],[78.41356,21.15599],[78.41175,21.15529],[78.41038,21.15526],[78.41035,21.15552],[78.40898,21.15576]]]}}]}