{"type":"FeatureCollection","features":[{"type":"Feature","bbox":[77.64637,12.79602,77.66296,12.8056],"properties":{"ward":1},"geometry":{"type":"Polygon","coordinates":[[[77.66296,12.80536],[77.66052,12.79748],[77.65795,12.79832],[77.65688,12.79602],[77.65567,12.79662],[77.65391,12.79696],[77.65313,12.79741],[77.65165,12.79757],[77.65,12.79812],[77.64987,12.79799],[77.64948,12.79808],[77.64948,12.79827],[77.64928,12.79834],[77.6481,12.79862],[77.64791,12.79853],[77.64637,12.79897],[77.64669,12.8038],[77.64706,12.80443],[77.65044,12.80443],[77.65163,12.80423],[77.65371,12.80446],[77.65705,12.80411],[77.65842,12.8044],[77.65909,12.80436],[77.66003,12.80549],[77.66036,12.80558],[77.66128,12.80547],[77.66163,12.8056],[77.66161,12.80548],[77.66296,12.80536]]]}},{"type":"Feature","bbox":[77.66065,12.79785,77.67434,12.80536],"properties":{"ward":2},"geometry":{"type":"Polygon","coordinates":[[[77.66065,12.79785],[77.66296,12.80536],[77.66686,12.80475],[77.67434,12.80297],[77.67375,12.801],[77.67281,12.79891],[77.664,12.79793],[77.66065,12.79785]]]}},{"type":"Feature","bbox":[77.64956,12.78472,77.66052,12.79832],"properties":{"ward":3},"geometry":{"type":"Polygon","coordinates":[[[77.66052,12.79748],[77.65668,12.78668],[77.65636,12.78472],[77.65412,12.78739],[77.65119,12.78532],[77.64956,12.78808],[77.65266,12.79017],[77.65323,12.79077],[77.65425,12.79142],[77.65449,12.79195],[77.65464,12.7919],[77.65478,12.79249],[77.65429,12.7929],[77.65446,12.79407],[77.65467,12.79487],[77.65494,12.79519],[77.65551,12.79665],[77.65688,12.79602],[77.65795,12.79832],[77.66052,12.79748]]]}},{"type":"Feature","bbox":[77.64379,12.78808,77.65551,12.79897],"properties":{"ward":4},"geometry":{"type":"Polygon","coordinates":[[[77.65551,12.79665],[77.65494,12.79519],[77.65467,12.79487],[77.65446,12.79407],[77.65429,12.7929],[77.65478,12.79249],[77.65464,12.7919],[77.65449,12.79195],[77.65425,12.79142],[77.65323,12.79077],[77.65266,12.79017],[77.64956,12.78808],[77.64895,12.78922],[77.64836,12.78975],[77.64742,12.79028],[77.64664,12.79051],[77.64598,12.79121],[77.64444,12.79185],[77.6446,12.79209],[77.64467,12.79335],[77.64512,12.7945],[77.64379,12.795],[77.6448,12.79862],[77.64637,12.79897],[77.64791,12.79853],[77.6481,12.79862],[77.64928,12.79834],[77.64948,12.79827],[77.64948,12.79808],[77.64987,12.79799],[77.65,12.79812],[77.65165,12.79757],[77.65313,12.79741],[77.65391,12.79696],[77.65551,12.79665]]]}},{"type":"Feature","bbox":[77.64038,12.78339,77.65119,12.79236],"properties":{"ward":5},"geometry":{"type":"Polygon","coordinates":[[[77.64446,12.79183],[77.64598,12.79121],[77.64664,12.79051],[77.64799,12.78999],[77.64895,12.78922],[77.65119,12.78532],[77.64801,12.78339],[77.6465,12.78586],[77.64572,12.78587],[77.64518,12.78615],[77.64456,12.78522],[77.6437,12.78525],[77.64256,12.78616],[77.64065,12.78687],[77.64108,12.78787],[77.64038,12.78825],[77.64168,12.79236],[77.64289,12.79184],[77.64387,12.79179],[77.64412,12.79114],[77.64446,12.79183]]]}},{"type":"Feature","bbox":[77.6417,12.77227,77.65888,12.78739],"properties":{"ward":6},"geometry":{"type":"Polygon","coordinates":[[[77.65636,12.78472],[77.65636,12.78048],[77.65888,12.77499],[77.65244,12.77604],[77.65111,12.77583],[77.65124,12.77576],[77.64995,12.77545],[77.64845,12.77227],[77.64584,12.77531],[77.64341,12.77971],[77.6417,12.7824],[77.64177,12.78301],[77.64265,12.783],[77.64267,12.78327],[77.64305,12.78329],[77.64432,12.78437],[77.6465,12.78586],[77.64804,12.78339],[77.65224,12.78601],[77.65412,12.78739],[77.65636,12.78472]]]}},{"type":"Feature","bbox":[77.64017,12.7824,77.6465,12.78687],"properties":{"ward":7},"geometry":{"type":"Polygon","coordinates":[[[77.6465,12.78586],[77.64432,12.78437],[77.64305,12.78329],[77.64267,12.78327],[77.64265,12.783],[77.64177,12.78301],[77.6417,12.7824],[77.64017,12.78434],[77.64065,12.78687],[77.64256,12.78616],[77.6437,12.78525],[77.64456,12.78522],[77.64518,12.78615],[77.64572,12.78587],[77.6465,12.78586]]]}},{"type":"Feature","bbox":[77.63912,12.78434,77.64062,12.78699],"properties":{"ward":8},"geometry":{"type":"Polygon","coordinates":[[[77.64062,12.78673],[77.64034,12.78566],[77.64017,12.78434],[77.63912,12.78552],[77.63924,12.7864],[77.63938,12.78699],[77.64062,12.78673]]]}},{"type":"Feature","bbox":[77.63808,12.78552,77.63938,12.78699],"properties":{"ward":9},"geometry":{"type":"Polygon","coordinates":[[[77.63912,12.78552],[77.63808,12.78645],[77.63886,12.7869],[77.63938,12.78699],[77.63912,12.78552]]]}},{"type":"Feature","bbox":[77.63526,12.78645,77.64168,12.79708],"properties":{"ward":10},"geometry":{"type":"Polygon","coordinates":[[[77.64168,12.79236],[77.64038,12.78825],[77.64108,12.78787],[77.64062,12.78673],[77.63957,12.787],[77.63886,12.7869],[77.63808,12.78645],[77.63758,12.78665],[77.6385,12.78825],[77.63627,12.79012],[77.63548,12.79263],[77.63547,12.79423],[77.63526,12.79541],[77.63547,12.79634],[77.63672,12.79708],[77.63799,12.79657],[77.63781,12.79637],[77.6378,12.79595],[77.63794,12.79575],[77.63774,12.7944],[77.63879,12.79405],[77.63881,12.79381],[77.64028,12.79324],[77.64168,12.79236]]]}},{"type":"Feature","bbox":[77.63637,12.78665,77.6385,12.7892],"properties":{"ward":11},"geometry":{"type":"Polygon","coordinates":[[[77.63758,12.78665],[77.63685,12.78667],[77.63637,12.78693],[77.63681,12.78879],[77.63723,12.78887],[77.63746,12.7892],[77.6385,12.78825],[77.63758,12.78665]]]}},{"type":"Feature","bbox":[77.63397,12.78693,77.63746,12.79038],"properties":{"ward":12},"geometry":{"type":"Polygon","coordinates":[[[77.63628,12.79011],[77.63746,12.7892],[77.63723,12.78887],[77.63681,12.78879],[77.63637,12.78693],[77.63397,12.7872],[77.63427,12.79034],[77.63519,12.79038],[77.63568,12.79003],[77.63628,12.79011]]]}},{"type":"Feature","bbox":[77.62888,12.7872,77.63689,12.79754],"properties":{"ward":13},"geometry":{"type":"Polygon","coordinates":[[[77.63689,12.79709],[77.63634,12.79694],[77.63564,12.7965],[77.63539,12.7962],[77.63527,12.79564],[77.63552,12.79237],[77.63628,12.79011],[77.63568,12.79003],[77.63519,12.79038],[77.63427,12.79034],[77.63397,12.7872],[77.62888,12.78891],[77.62924,12.79074],[77.62921,12.79135],[77.63041,12.79141],[77.6305,12.7898],[77.63017,12.78881],[77.63039,12.78851],[77.63076,12.7884],[77.63107,12.79078],[77.63109,12.7913],[77.62898,12.79287],[77.62963,12.79621],[77.6323,12.7964],[77.63595,12.79754],[77.63689,12.79709]]]}},{"type":"Feature","bbox":[77.62221,12.77718,77.63291,12.78891],"properties":{"ward":14},"geometry":{"type":"Polygon","coordinates":[[[77.63291,12.78751],[77.63255,12.78627],[77.6299,12.78428],[77.63006,12.78279],[77.63074,12.78114],[77.62983,12.77718],[77.62998,12.77872],[77.62981,12.77972],[77.62884,12.77971],[77.62874,12.77982],[77.62578,12.77972],[77.62578,12.78052],[77.62537,12.78151],[77.62473,12.78218],[77.62435,12.78309],[77.62328,12.7831],[77.62221,12.78419],[77.62314,12.78445],[77.6239,12.78448],[77.62396,12.78489],[77.62459,12.78504],[77.62458,12.78522],[77.62501,12.78563],[77.62539,12.78547],[77.62578,12.78588],[77.62631,12.78601],[77.62707,12.78672],[77.62699,12.78692],[77.62715,12.7869],[77.62733,12.78746],[77.62771,12.78729],[77.62843,12.78769],[77.62912,12.7878],[77.62884,12.78863],[77.62888,12.78891],[77.63291,12.78751]]]}},{"type":"Feature","bbox":[77.62875,12.77154,77.63444,12.78751],"properties":{"ward":15},"geometry":{"type":"Polygon","coordinates":[[[77.63373,12.78727],[77.63372,12.78637],[77.63329,12.78633],[77.6332,12.78603],[77.63326,12.78581],[77.63392,12.78576],[77.63401,12.78539],[77.63404,12.7842],[77.6338,12.78207],[77.63172,12.7819],[77.63155,12.78097],[77.63444,12.78015],[77.63375,12.77692],[77.6333,12.77688],[77.6319,12.77154],[77.63083,12.77208],[77.63102,12.77271],[77.6307,12.77274],[77.62899,12.77386],[77.62903,12.7741],[77.62875,12.7741],[77.62983,12.77718],[77.63074,12.78114],[77.63006,12.78279],[77.6299,12.78428],[77.63255,12.78627],[77.63291,12.78751],[77.63373,12.78727]]]}},{"type":"Feature","bbox":[77.6332,12.78573,77.63601,12.78727],"properties":{"ward":16},"geometry":{"type":"Polygon","coordinates":[[[77.63373,12.78727],[77.63601,12.78704],[77.63564,12.78573],[77.6342,12.78604],[77.63392,12.78576],[77.6332,12.78586],[77.63329,12.78633],[77.63372,12.78637],[77.63373,12.78727]]]}},{"type":"Feature","bbox":[77.6339,12.78404,77.638,12.78704],"properties":{"ward":17},"geometry":{"type":"Polygon","coordinates":[[[77.63601,12.78704],[77.63685,12.78667],[77.638,12.78653],[77.63763,12.78552],[77.6369,12.78512],[77.63681,12.78404],[77.63405,12.78446],[77.6339,12.7856],[77.63403,12.78594],[77.63425,12.78603],[77.63561,12.78572],[77.63601,12.78704]]]}},{"type":"Feature","bbox":[77.63155,12.77962,77.63736,12.78446],"properties":{"ward":18},"geometry":{"type":"Polygon","coordinates":[[[77.63681,12.78404],[77.63736,12.78254],[77.63689,12.78209],[77.63647,12.77962],[77.63155,12.78097],[77.63172,12.7819],[77.63378,12.78203],[77.63405,12.78446],[77.63681,12.78404]]]}},{"type":"Feature","bbox":[77.6319,12.7683,77.6395,12.78504],"properties":{"ward":19},"geometry":{"type":"Polygon","coordinates":[[[77.63841,12.78499],[77.6385,12.78406],[77.63832,12.78381],[77.63833,12.78347],[77.63877,12.78343],[77.63879,12.78298],[77.63834,12.7827],[77.63833,12.7825],[77.6395,12.78244],[77.63948,12.7814],[77.6393,12.78073],[77.63859,12.78079],[77.63855,12.7794],[77.63871,12.77912],[77.63844,12.77649],[77.63609,12.77622],[77.63659,12.77363],[77.63633,12.7683],[77.63518,12.76941],[77.6347,12.77016],[77.6319,12.77154],[77.6333,12.77688],[77.63375,12.77692],[77.63444,12.78015],[77.6365,12.77964],[77.63689,12.78209],[77.63736,12.78254],[77.63682,12.78395],[77.63687,12.78504],[77.63841,12.78499]]]}},{"type":"Feature","bbox":[77.63687,12.78499,77.63841,12.78653],"properties":{"ward":20},"geometry":{"type":"Polygon","coordinates":[[[77.638,12.78653],[77.63838,12.78609],[77.63841,12.78499],[77.63687,12.78504],[77.63703,12.78528],[77.63763,12.78552],[77.638,12.78653]]]}},{"type":"Feature","bbox":[77.63832,12.78344,77.64065,12.78609],"properties":{"ward":21},"geometry":{"type":"Polygon","coordinates":[[[77.63838,12.78609],[77.63952,12.78512],[77.64065,12.78376],[77.6398,12.78351],[77.63834,12.78344],[77.63832,12.78381],[77.6385,12.78406],[77.63838,12.78609]]]}},{"type":"Feature","bbox":[77.63832,12.78117,77.6417,12.78376],"properties":{"ward":22},"geometry":{"type":"Polygon","coordinates":[[[77.6417,12.7824],[77.64163,12.78117],[77.64076,12.78138],[77.63948,12.7814],[77.6395,12.78244],[77.63833,12.7825],[77.63832,12.78264],[77.63877,12.78292],[77.63877,12.78343],[77.64006,12.78355],[77.64065,12.78376],[77.6417,12.7824]]]}},{"type":"Feature","bbox":[77.63609,12.76403,77.64845,12.78232],"properties":{"ward":23},"geometry":{"type":"Polygon","coordinates":[[[77.64845,12.77227],[77.64799,12.77092],[77.64804,12.77034],[77.6472,12.76974],[77.64637,12.76712],[77.64492,12.76475],[77.64348,12.76403],[77.64075,12.76435],[77.63795,12.76691],[77.63837,12.7673],[77.63831,12.76746],[77.63663,12.76874],[77.63633,12.7683],[77.63659,12.77363],[77.63609,12.77622],[77.63844,12.77649],[77.63871,12.77912],[77.63855,12.7794],[77.63859,12.78079],[77.6393,12.78073],[77.63948,12.7814],[77.63961,12.78143],[77.64076,12.78138],[77.64163,12.78117],[77.64177,12.78232],[77.64341,12.77971],[77.64584,12.77531],[77.64845,12.77227]]]}}]}