{"type":"FeatureCollection","features":[{"type":"Feature","bbox":[73.63062,20.56183,73.6361,20.56559],"properties":{"ward":1},"geometry":{"type":"Polygon","coordinates":[[[73.63572,20.56353],[73.6361,20.56323],[73.63593,20.56255],[73.63553,20.56239],[73.63538,20.56198],[73.63489,20.56183],[73.63495,20.56238],[73.63477,20.56252],[73.6323,20.56311],[73.63146,20.56384],[73.63096,20.56388],[73.63062,20.56509],[73.63258,20.56559],[73.63352,20.56505],[73.63446,20.56378],[73.63512,20.56352],[73.63572,20.56353]]]}},{"type":"Feature","bbox":[73.63539,20.56186,73.63712,20.56256],"properties":{"ward":2},"geometry":{"type":"Polygon","coordinates":[[[73.63539,20.56203],[73.63552,20.5624],[73.63595,20.56256],[73.63712,20.56186],[73.63539,20.56203]]]}},{"type":"Feature","bbox":[73.63748,20.55974,73.6396,20.56163],"properties":{"ward":3},"geometry":{"type":"Polygon","coordinates":[[[73.63864,20.56119],[73.63748,20.56158],[73.63761,20.56163],[73.63863,20.56129],[73.63934,20.56051],[73.6396,20.55997],[73.63952,20.55979],[73.63931,20.55974],[73.63892,20.56002],[73.63883,20.56038],[73.63849,20.56072],[73.63864,20.56119]]]}},{"type":"Feature","bbox":[73.63721,20.56033,73.63864,20.56157],"properties":{"ward":4},"geometry":{"type":"Polygon","coordinates":[[[73.63747,20.56157],[73.63864,20.56119],[73.63849,20.56071],[73.63806,20.56107],[73.63781,20.56084],[73.63774,20.56047],[73.63758,20.56053],[73.63752,20.56033],[73.63721,20.56042],[73.63747,20.56157]]]}},{"type":"Feature","bbox":[73.63488,20.56082,73.63721,20.56203],"properties":{"ward":5},"geometry":{"type":"Polygon","coordinates":[[[73.63721,20.5617],[73.63704,20.56082],[73.63488,20.56163],[73.6349,20.56182],[73.6354,20.56203],[73.6371,20.56185],[73.63721,20.5617]]]}},{"type":"Feature","bbox":[73.63096,20.56167,73.63417,20.56324],"properties":{"ward":6},"geometry":{"type":"Polygon","coordinates":[[[73.63413,20.56246],[73.63417,20.56187],[73.63382,20.56167],[73.63096,20.56241],[73.63098,20.56324],[73.63376,20.56261],[73.63413,20.56246]]]}},{"type":"Feature","bbox":[73.63485,20.55945,73.63704,20.56152],"properties":{"ward":7},"geometry":{"type":"Polygon","coordinates":[[[73.635,20.56152],[73.63605,20.56127],[73.63634,20.56117],[73.63637,20.56096],[73.63704,20.56081],[73.63654,20.55945],[73.63638,20.56004],[73.63605,20.56025],[73.63602,20.56049],[73.63511,20.56086],[73.63515,20.56102],[73.63485,20.56119],[73.635,20.56152]]]}},{"type":"Feature","bbox":[73.63051,20.55862,73.63532,20.56167],"properties":{"ward":8},"geometry":{"type":"Polygon","coordinates":[[[73.63218,20.56167],[73.63532,20.56095],[73.63501,20.55946],[73.63384,20.55862],[73.63051,20.55998],[73.63106,20.56166],[73.63218,20.56167]]]}},{"type":"Feature","bbox":[73.63405,20.55805,73.6353,20.55947],"properties":{"ward":9},"geometry":{"type":"Polygon","coordinates":[[[73.63513,20.55805],[73.63405,20.55825],[73.63421,20.55866],[73.63413,20.55878],[73.63447,20.55908],[73.63434,20.55931],[73.63456,20.55947],[73.6353,20.5594],[73.63513,20.55805]]]}},{"type":"Feature","bbox":[73.63514,20.5574,73.63747,20.56175],"properties":{"ward":10},"geometry":{"type":"Polygon","coordinates":[[[73.63531,20.55941],[73.63599,20.5592],[73.63601,20.55899],[73.63624,20.55888],[73.63677,20.56],[73.63722,20.56175],[73.63747,20.56159],[73.63666,20.5583],[73.63626,20.5574],[73.63545,20.55751],[73.6354,20.558],[73.63514,20.55807],[73.63531,20.55941]]]}},{"type":"Feature","bbox":[73.63667,20.55836,73.63749,20.56043],"properties":{"ward":11},"geometry":{"type":"Polygon","coordinates":[[[73.63667,20.5584],[73.63722,20.56043],[73.63749,20.56035],[73.63748,20.55936],[73.63725,20.55836],[73.63667,20.5584]]]}},{"type":"Feature","bbox":[73.63725,20.55826,73.63833,20.56022],"properties":{"ward":12},"geometry":{"type":"Polygon","coordinates":[[[73.63725,20.55836],[73.63752,20.55984],[73.6374,20.56007],[73.63751,20.56022],[73.63833,20.55956],[73.63832,20.55874],[73.63815,20.55826],[73.63725,20.55836]]]}},{"type":"Feature","bbox":[73.63839,20.55881,73.64059,20.56014],"properties":{"ward":13},"geometry":{"type":"Polygon","coordinates":[[[73.63889,20.56014],[73.63931,20.55974],[73.64032,20.56011],[73.64059,20.55994],[73.64049,20.55954],[73.63957,20.55965],[73.63935,20.55882],[73.6392,20.55881],[73.63839,20.55942],[73.63844,20.55969],[73.63889,20.56014]]]}},{"type":"Feature","bbox":[73.63885,20.55139,73.64287,20.55964],"properties":{"ward":14},"geometry":{"type":"Polygon","coordinates":[[[73.63935,20.55883],[73.63956,20.55964],[73.64046,20.55954],[73.64148,20.55783],[73.64158,20.55691],[73.64287,20.55293],[73.64276,20.55244],[73.64199,20.5517],[73.64072,20.55139],[73.6392,20.55195],[73.63885,20.55819],[73.63915,20.55896],[73.63935,20.55883]]]}},{"type":"Feature","bbox":[73.63738,20.55266,73.63915,20.55944],"properties":{"ward":15},"geometry":{"type":"Polygon","coordinates":[[[73.63839,20.55944],[73.63915,20.55895],[73.63886,20.55821],[73.63902,20.55273],[73.63818,20.55266],[73.63738,20.55302],[73.63839,20.55944]]]}},{"type":"Feature","bbox":[73.63276,20.54902,73.63888,20.56107],"properties":{"ward":16},"geometry":{"type":"Polygon","coordinates":[[[73.63806,20.56107],[73.63866,20.5606],[73.63888,20.56014],[73.63839,20.55944],[73.63836,20.55862],[73.6369,20.5494],[73.63597,20.54953],[73.63285,20.54902],[73.63276,20.54967],[73.63613,20.55548],[73.63632,20.55625],[73.63622,20.55737],[73.63669,20.5584],[73.63812,20.55824],[73.63835,20.55954],[73.6375,20.56033],[73.63758,20.56052],[73.63774,20.56046],[73.6378,20.56084],[73.63806,20.56107]]]}},{"type":"Feature","bbox":[73.62908,20.54856,73.63632,20.56106],"properties":{"ward":17},"geometry":{"type":"Polygon","coordinates":[[[73.63284,20.54904],[73.63254,20.54896],[73.63213,20.54856],[73.6309,20.54883],[73.63092,20.54907],[73.63026,20.54864],[73.62954,20.5488],[73.62936,20.54862],[73.62912,20.54863],[73.62962,20.55131],[73.62942,20.55153],[73.62936,20.55211],[73.62946,20.55335],[73.62908,20.55328],[73.62951,20.5539],[73.6303,20.55634],[73.63092,20.55933],[73.63184,20.55942],[73.63209,20.56106],[73.63225,20.56033],[73.63226,20.55898],[73.63302,20.55897],[73.63402,20.55962],[73.63416,20.55953],[73.63447,20.55909],[73.63412,20.55879],[73.63421,20.55866],[73.63404,20.55824],[73.6354,20.558],[73.63544,20.55751],[73.63622,20.55738],[73.63632,20.55628],[73.63613,20.55548],[73.63276,20.54968],[73.63284,20.54904]]]}}]}