{"type":"FeatureCollection","features":[{"type":"Feature","bbox":[77.06743,18.2649,77.08127,18.29726],"properties":{"ward":1,"name":"Mahadev Galli"},"geometry":{"type":"Polygon","coordinates":[[[77.07939,18.2649],[77.07897,18.26643],[77.07742,18.26938],[77.07637,18.27085],[77.07497,18.27568],[77.07393,18.27733],[77.07096,18.28328],[77.06943,18.2856],[77.06763,18.28943],[77.06743,18.29161],[77.06745,18.29347],[77.0707,18.29412],[77.06973,18.29718],[77.07798,18.29726],[77.07792,18.28831],[77.07951,18.28461],[77.08127,18.27764],[77.0807,18.26843],[77.08057,18.2673],[77.08034,18.2673],[77.08033,18.26705],[77.08052,18.26692],[77.08032,18.26592],[77.08045,18.26588],[77.08042,18.26541],[77.08036,18.26525],[77.07978,18.26531],[77.07977,18.26499],[77.07939,18.2649]]]}},{"type":"Feature","bbox":[77.07792,18.26578,77.10888,18.30223],"properties":{"ward":2,"name":"Landge Galli"},"geometry":{"type":"Polygon","coordinates":[[[77.08096,18.26681],[77.08036,18.26698],[77.08034,18.2673],[77.08057,18.2673],[77.0807,18.26843],[77.08127,18.27764],[77.07951,18.28461],[77.07792,18.28831],[77.07798,18.29726],[77.07874,18.29726],[77.07867,18.30152],[77.08002,18.30223],[77.08114,18.30208],[77.08207,18.30217],[77.08348,18.30193],[77.08418,18.29239],[77.08813,18.29125],[77.09133,18.29091],[77.09383,18.29111],[77.09578,18.29032],[77.0989,18.2925],[77.09928,18.298],[77.10255,18.29745],[77.10537,18.29784],[77.10811,18.29873],[77.10888,18.29884],[77.10316,18.29102],[77.09699,18.28664],[77.0915,18.28128],[77.0889,18.27697],[77.08702,18.27466],[77.08575,18.27203],[77.08541,18.26994],[77.08411,18.26833],[77.08321,18.26776],[77.08297,18.26598],[77.08252,18.26594],[77.08248,18.26578],[77.08193,18.2658],[77.08169,18.2664],[77.08104,18.26648],[77.08096,18.26681]]]}},{"type":"Feature","bbox":[77.08297,18.26199,77.11599,18.30073],"properties":{"ward":3,"name":"Panchayat Samiti Parisar"},"geometry":{"type":"Polygon","coordinates":[[[77.08297,18.26598],[77.08321,18.26776],[77.08411,18.26833],[77.08541,18.26994],[77.08575,18.27203],[77.08702,18.27466],[77.0889,18.27697],[77.0915,18.28128],[77.09699,18.28664],[77.10316,18.29102],[77.10888,18.29884],[77.10992,18.29968],[77.11217,18.30048],[77.11358,18.30073],[77.11494,18.30073],[77.11546,18.28678],[77.11595,18.28067],[77.11599,18.2782],[77.1155,18.27645],[77.11593,18.27155],[77.11468,18.2677],[77.10344,18.26784],[77.10254,18.26759],[77.10176,18.26705],[77.09841,18.26199],[77.09583,18.26281],[77.09489,18.2633],[77.09122,18.26418],[77.08938,18.2649],[77.08835,18.26552],[77.08297,18.26598]]]}},{"type":"Feature","bbox":[77.08529,18.25987,77.09773,18.26574],"properties":{"ward":4,"name":"Landge Mangal Karyalay Parisar"},"geometry":{"type":"Polygon","coordinates":[[[77.08835,18.26552],[77.08938,18.2649],[77.09122,18.26418],[77.09489,18.2633],[77.09583,18.26281],[77.09773,18.26228],[77.09732,18.26145],[77.09406,18.26131],[77.09236,18.26184],[77.09049,18.26202],[77.0894,18.26274],[77.08799,18.26289],[77.08694,18.261],[77.08682,18.26054],[77.08692,18.26022],[77.08557,18.25987],[77.08529,18.26108],[77.08598,18.26375],[77.08618,18.26566],[77.08682,18.26574],[77.08835,18.26552]]]}},{"type":"Feature","bbox":[77.08271,18.26369,77.08615,18.26534],"properties":{"ward":5,"name":"Sidharth Nagar"},"geometry":{"type":"Polygon","coordinates":[[[77.08271,18.26469],[77.08362,18.26496],[77.08365,18.2648],[77.08517,18.26488],[77.08518,18.26534],[77.08615,18.26532],[77.08598,18.26375],[77.08383,18.26386],[77.08294,18.26369],[77.08271,18.26469]]]}},{"type":"Feature","bbox":[77.08272,18.26475,77.08618,18.26595],"properties":{"ward":6,"name":"Gandhi Chowk Parisar"},"geometry":{"type":"Polygon","coordinates":[[[77.08362,18.26496],[77.08272,18.26475],[77.0828,18.26595],[77.08618,18.26566],[77.08615,18.26532],[77.08518,18.26534],[77.08517,18.26488],[77.08365,18.2648],[77.08362,18.26496]]]}},{"type":"Feature","bbox":[77.08032,18.26507,77.08193,18.26683],"properties":{"ward":7,"name":"Lulle Galli"},"geometry":{"type":"Polygon","coordinates":[[[77.08051,18.26683],[77.08096,18.26681],[77.08104,18.26648],[77.08169,18.2664],[77.08191,18.266],[77.08193,18.2658],[77.08158,18.26577],[77.08158,18.26542],[77.08098,18.26507],[77.08036,18.26512],[77.08045,18.26588],[77.08032,18.26592],[77.08051,18.26683]]]}},{"type":"Feature","bbox":[77.07939,18.2643,77.0815,18.26531],"properties":{"ward":8,"name":"Gaundi Galli"},"geometry":{"type":"Polygon","coordinates":[[[77.0796,18.2643],[77.07939,18.2649],[77.07977,18.26499],[77.07978,18.26531],[77.08098,18.26507],[77.08097,18.26485],[77.08147,18.26466],[77.0815,18.26433],[77.0796,18.2643]]]}},{"type":"Feature","bbox":[77.0796,18.26382,77.08282,18.26466],"properties":{"ward":9,"name":"Dhangar Galli"},"geometry":{"type":"Polygon","coordinates":[[[77.08142,18.26433],[77.08271,18.26466],[77.08282,18.26397],[77.08151,18.26382],[77.07986,18.26386],[77.0796,18.2643],[77.08142,18.26433]]]}},{"type":"Feature","bbox":[77.06342,18.26353,77.07993,18.29161],"properties":{"ward":10,"name":"Fukat Nagar"},"geometry":{"type":"Polygon","coordinates":[[[77.07626,18.26452],[77.07583,18.26651],[77.07185,18.26933],[77.07157,18.26981],[77.06686,18.27134],[77.06445,18.27247],[77.06362,18.27412],[77.06342,18.27462],[77.06347,18.27571],[77.06391,18.27698],[77.06443,18.27784],[77.06459,18.27926],[77.06525,18.28051],[77.06582,18.28218],[77.06574,18.28774],[77.0641,18.29124],[77.06652,18.29119],[77.06743,18.29161],[77.06754,18.29001],[77.06785,18.28882],[77.06943,18.2856],[77.07096,18.28328],[77.07393,18.27733],[77.07497,18.27568],[77.07637,18.27085],[77.07742,18.26938],[77.07897,18.26643],[77.07993,18.26353],[77.07881,18.26356],[77.0786,18.26428],[77.07852,18.2654],[77.07626,18.26452]]]}},{"type":"Feature","bbox":[77.03555,18.24866,77.08026,18.27344],"properties":{"ward":11,"name":"Mseb Parisar"},"geometry":{"type":"Polygon","coordinates":[[[77.07881,18.26356],[77.07993,18.26353],[77.08026,18.25901],[77.07968,18.25906],[77.07961,18.2589],[77.07886,18.25887],[77.07887,18.25869],[77.07818,18.25851],[77.07818,18.2592],[77.07697,18.25942],[77.07672,18.25864],[77.07331,18.25919],[77.07128,18.25796],[77.06869,18.25676],[77.06448,18.25526],[77.06413,18.25367],[77.0472,18.24866],[77.04275,18.25298],[77.03929,18.25242],[77.03668,18.25864],[77.03555,18.26348],[77.03712,18.27108],[77.04372,18.27108],[77.05984,18.27244],[77.06218,18.27207],[77.0625,18.27344],[77.06686,18.27134],[77.07157,18.26981],[77.07185,18.26933],[77.07583,18.26651],[77.07626,18.26452],[77.07852,18.2654],[77.0786,18.26428],[77.07881,18.26356]]]}},{"type":"Feature","bbox":[77.08097,18.26433,77.0828,18.26595],"properties":{"ward":12,"name":"Virbhadra Galli"},"geometry":{"type":"Polygon","coordinates":[[[77.0815,18.26433],[77.08147,18.26466],[77.08097,18.26485],[77.08099,18.26517],[77.08158,18.26542],[77.08158,18.26577],[77.08248,18.26578],[77.08252,18.26594],[77.0828,18.26595],[77.08271,18.26466],[77.0815,18.26433]]]}},{"type":"Feature","bbox":[77.07986,18.2613,77.08326,18.26396],"properties":{"ward":13,"name":"Sathe Nagar"},"geometry":{"type":"Polygon","coordinates":[[[77.0828,18.26396],[77.08326,18.26291],[77.08152,18.26241],[77.08146,18.26185],[77.08014,18.2613],[77.07986,18.26386],[77.0828,18.26396]]]}},{"type":"Feature","bbox":[77.08294,18.25975,77.08598,18.26386],"properties":{"ward":14,"name":"Basweshwar Nagar"},"geometry":{"type":"Polygon","coordinates":[[[77.08529,18.26108],[77.08557,18.25987],[77.08524,18.25975],[77.08443,18.26076],[77.08362,18.26204],[77.08294,18.26369],[77.08383,18.26386],[77.08598,18.26375],[77.08529,18.26108]]]}},{"type":"Feature","bbox":[77.08014,18.26031,77.08443,18.26291],"properties":{"ward":15,"name":"Khandoba Galli"},"geometry":{"type":"Polygon","coordinates":[[[77.08152,18.26241],[77.08326,18.26291],[77.08443,18.26076],[77.08372,18.26052],[77.08187,18.26031],[77.08186,18.26161],[77.08014,18.26124],[77.08146,18.26185],[77.08152,18.26241]]]}},{"type":"Feature","bbox":[77.08014,18.25829,77.08524,18.26161],"properties":{"ward":16,"name":"Vidya Nagar"},"geometry":{"type":"Polygon","coordinates":[[[77.08014,18.26124],[77.08186,18.26161],[77.08187,18.26031],[77.08372,18.26052],[77.08443,18.26076],[77.08524,18.25975],[77.08029,18.25829],[77.08014,18.26124]]]}},{"type":"Feature","bbox":[77.0432,18.23477,77.10216,18.26289],"properties":{"ward":17,"name":"Jawai Nagar"},"geometry":{"type":"Polygon","coordinates":[[[77.08026,18.25901],[77.08029,18.25829],[77.08692,18.26022],[77.08682,18.26054],[77.08694,18.261],[77.08799,18.26289],[77.0894,18.26274],[77.09049,18.26202],[77.09236,18.26184],[77.09406,18.26131],[77.09801,18.26146],[77.10115,18.24899],[77.10216,18.24196],[77.10083,18.24142],[77.09954,18.24135],[77.0985,18.24099],[77.09689,18.24081],[77.0932,18.23982],[77.08685,18.23862],[77.08506,18.23845],[77.07996,18.23928],[77.07945,18.23989],[77.07846,18.23982],[77.07812,18.24015],[77.07759,18.24027],[77.07477,18.23928],[77.07333,18.23955],[77.07019,18.24054],[77.06711,18.24036],[77.05924,18.23723],[77.05011,18.23477],[77.04821,18.23845],[77.04494,18.24173],[77.04426,18.24262],[77.0432,18.2466],[77.04338,18.24869],[77.04373,18.24926],[77.04512,18.24856],[77.04652,18.24846],[77.06413,18.25367],[77.06448,18.25526],[77.06869,18.25676],[77.07128,18.25796],[77.07331,18.25919],[77.07672,18.25864],[77.07697,18.25942],[77.07818,18.2592],[77.07818,18.25851],[77.07887,18.25869],[77.07886,18.25887],[77.07961,18.2589],[77.07968,18.25906],[77.08026,18.25901]]]}}]}