{"type":"FeatureCollection","features":[{"type":"Feature","bbox":[74.19935,21.8371,74.21396,21.84692],"properties":{"ward":1},"geometry":{"type":"Polygon","coordinates":[[[74.21371,21.84436],[74.21396,21.84396],[74.21068,21.84201],[74.21072,21.84114],[74.21152,21.8389],[74.21142,21.83771],[74.2085,21.83728],[74.20516,21.8371],[74.20336,21.83737],[74.20055,21.83734],[74.19996,21.83721],[74.1995,21.83741],[74.19938,21.83765],[74.19935,21.8385],[74.19987,21.83905],[74.19995,21.83953],[74.19966,21.84562],[74.20711,21.84692],[74.20845,21.84613],[74.20992,21.84559],[74.21062,21.84502],[74.21215,21.84518],[74.21266,21.84478],[74.21371,21.84436]]]}},{"type":"Feature","bbox":[74.18495,21.83056,74.21199,21.84586],"properties":{"ward":2},"geometry":{"type":"Polygon","coordinates":[[[74.20752,21.83719],[74.21141,21.8377],[74.21126,21.83668],[74.21184,21.83501],[74.21174,21.83373],[74.21199,21.83166],[74.2089,21.83101],[74.20455,21.83056],[74.20364,21.83102],[74.20255,21.83114],[74.20192,21.83138],[74.19997,21.83328],[74.19917,21.83387],[74.19744,21.83483],[74.19677,21.835],[74.19545,21.83575],[74.19362,21.83647],[74.19299,21.83769],[74.19168,21.83898],[74.19032,21.83924],[74.18945,21.83985],[74.18848,21.84131],[74.18615,21.84238],[74.18495,21.84338],[74.18555,21.8444],[74.18542,21.84503],[74.18552,21.84523],[74.18765,21.84575],[74.18865,21.84586],[74.19442,21.84518],[74.19873,21.84546],[74.19964,21.84569],[74.19997,21.84046],[74.19987,21.83906],[74.19936,21.83849],[74.1995,21.8374],[74.19998,21.8372],[74.20046,21.83732],[74.2039,21.83734],[74.20514,21.8371],[74.20752,21.83719]]]}},{"type":"Feature","bbox":[74.21069,21.82583,74.21771,21.84398],"properties":{"ward":3},"geometry":{"type":"Polygon","coordinates":[[[74.21373,21.82583],[74.21177,21.82784],[74.21221,21.83056],[74.21196,21.83132],[74.21172,21.83374],[74.21185,21.835],[74.21124,21.83669],[74.21153,21.8389],[74.21071,21.84111],[74.21069,21.84198],[74.21403,21.84398],[74.21454,21.84266],[74.21519,21.83941],[74.2154,21.83901],[74.21543,21.83527],[74.21644,21.83258],[74.21679,21.83203],[74.21701,21.83004],[74.21771,21.82816],[74.21742,21.82615],[74.21637,21.82595],[74.21488,21.82599],[74.21373,21.82583]]]}},{"type":"Feature","bbox":[74.21541,21.82563,74.21952,21.83901],"properties":{"ward":4},"geometry":{"type":"Polygon","coordinates":[[[74.21742,21.82614],[74.21771,21.82816],[74.21702,21.83003],[74.2168,21.83202],[74.21643,21.83257],[74.21543,21.83526],[74.21541,21.83901],[74.2161,21.83827],[74.21747,21.83745],[74.21789,21.83492],[74.21853,21.83283],[74.21868,21.83173],[74.21851,21.83013],[74.21888,21.82709],[74.21947,21.82693],[74.21952,21.82627],[74.21817,21.82563],[74.21742,21.82614]]]}},{"type":"Feature","bbox":[74.21747,21.82627,74.22065,21.8374],"properties":{"ward":5},"geometry":{"type":"Polygon","coordinates":[[[74.21952,21.82627],[74.21947,21.82692],[74.21889,21.82709],[74.21851,21.83011],[74.21868,21.83173],[74.21853,21.83283],[74.21788,21.83494],[74.21747,21.8374],[74.21838,21.83696],[74.21882,21.83636],[74.21939,21.83591],[74.21981,21.83502],[74.22037,21.83483],[74.21982,21.83327],[74.21981,21.83281],[74.22018,21.82944],[74.22056,21.8293],[74.22065,21.82881],[74.22058,21.82759],[74.21994,21.82646],[74.21952,21.82627]]]}},{"type":"Feature","bbox":[74.21994,21.82646,74.22232,21.8293],"properties":{"ward":6},"geometry":{"type":"Polygon","coordinates":[[[74.22059,21.82759],[74.22056,21.8293],[74.22197,21.82929],[74.22232,21.82696],[74.22183,21.82702],[74.21994,21.82646],[74.22059,21.82759]]]}},{"type":"Feature","bbox":[74.21981,21.82678,74.22883,21.8364],"properties":{"ward":7},"geometry":{"type":"Polygon","coordinates":[[[74.22299,21.82688],[74.22233,21.82696],[74.22198,21.82928],[74.22056,21.82929],[74.22019,21.82944],[74.21981,21.8328],[74.21983,21.83326],[74.22038,21.83484],[74.22075,21.83463],[74.22111,21.83472],[74.22142,21.83544],[74.22166,21.83561],[74.22213,21.8355],[74.22317,21.83576],[74.22388,21.83547],[74.2255,21.83602],[74.22784,21.8364],[74.22833,21.83612],[74.22851,21.83563],[74.22773,21.83417],[74.22737,21.83279],[74.22744,21.83235],[74.22864,21.831],[74.22883,21.83055],[74.22869,21.83007],[74.22632,21.82678],[74.22532,21.82733],[74.22299,21.82688]]]}},{"type":"Feature","bbox":[74.22047,21.82219,74.22632,21.82732],"properties":{"ward":8},"geometry":{"type":"Polygon","coordinates":[[[74.22114,21.82292],[74.22047,21.82354],[74.22049,21.82404],[74.22108,21.82681],[74.22182,21.82701],[74.223,21.82688],[74.22533,21.82732],[74.22632,21.82678],[74.22501,21.8246],[74.22257,21.82282],[74.22233,21.82225],[74.22157,21.82219],[74.22077,21.82252],[74.22114,21.82292]]]}},{"type":"Feature","bbox":[74.2191,21.82373,74.22108,21.82683],"properties":{"ward":9},"geometry":{"type":"Polygon","coordinates":[[[74.2191,21.8253],[74.21911,21.82607],[74.22108,21.82683],[74.22046,21.82373],[74.21936,21.82428],[74.2191,21.8253]]]}},{"type":"Feature","bbox":[74.21817,21.82252,74.22114,21.82608],"properties":{"ward":10},"geometry":{"type":"Polygon","coordinates":[[[74.2189,21.82501],[74.21817,21.82563],[74.2191,21.82608],[74.2191,21.82529],[74.21936,21.82428],[74.22046,21.82373],[74.22046,21.82354],[74.22114,21.82293],[74.22077,21.82252],[74.21926,21.82306],[74.21908,21.82389],[74.21915,21.82458],[74.2189,21.82501]]]}},{"type":"Feature","bbox":[74.21601,21.82292,74.21926,21.82425],"properties":{"ward":11},"geometry":{"type":"Polygon","coordinates":[[[74.21601,21.82338],[74.21657,21.82406],[74.21808,21.82425],[74.21846,21.82395],[74.21908,21.8239],[74.21926,21.82306],[74.21606,21.82292],[74.21601,21.82338]]]}},{"type":"Feature","bbox":[74.21373,21.82389,74.21915,21.82614],"properties":{"ward":12},"geometry":{"type":"Polygon","coordinates":[[[74.21742,21.82614],[74.2189,21.82501],[74.21915,21.82457],[74.21908,21.82389],[74.21846,21.82395],[74.21791,21.82428],[74.21755,21.82413],[74.21547,21.82402],[74.21495,21.82429],[74.21434,21.82431],[74.21373,21.82583],[74.21742,21.82614]]]}},{"type":"Feature","bbox":[74.20201,21.82495,74.21373,21.83165],"properties":{"ward":13},"geometry":{"type":"Polygon","coordinates":[[[74.20242,21.83112],[74.20363,21.83102],[74.20456,21.83056],[74.20561,21.83061],[74.20889,21.831],[74.21133,21.83162],[74.21198,21.83165],[74.21222,21.83055],[74.21175,21.82785],[74.21373,21.82583],[74.21217,21.82545],[74.21059,21.82555],[74.20937,21.82583],[74.20804,21.82573],[74.20601,21.82548],[74.20422,21.82495],[74.20386,21.82563],[74.20243,21.82639],[74.20207,21.827],[74.20201,21.82791],[74.20234,21.8291],[74.20242,21.83112]]]}},{"type":"Feature","bbox":[74.17718,21.82809,74.20244,21.84321],"properties":{"ward":14},"geometry":{"type":"Polygon","coordinates":[[[74.18621,21.82917],[74.18244,21.82923],[74.18213,21.83064],[74.18142,21.83162],[74.17967,21.83296],[74.17841,21.83688],[74.17788,21.83801],[74.17718,21.84091],[74.17737,21.84151],[74.17885,21.84285],[74.17947,21.84303],[74.18225,21.84321],[74.18402,21.84288],[74.18466,21.84296],[74.18498,21.8432],[74.1862,21.84234],[74.18856,21.84125],[74.18943,21.83983],[74.18997,21.83946],[74.19043,21.83918],[74.19166,21.83897],[74.19301,21.83768],[74.19365,21.83645],[74.19543,21.83574],[74.19678,21.835],[74.19749,21.83485],[74.19874,21.8341],[74.19996,21.83328],[74.20196,21.83136],[74.20244,21.83115],[74.20237,21.82917],[74.202,21.82809],[74.19811,21.8289],[74.19327,21.82964],[74.18901,21.8297],[74.18621,21.82917]]]}},{"type":"Feature","bbox":[74.18243,21.82151,74.21657,21.82969],"properties":{"ward":15},"geometry":{"type":"Polygon","coordinates":[[[74.21217,21.82546],[74.21372,21.82582],[74.21434,21.82431],[74.21495,21.8243],[74.21547,21.82403],[74.21657,21.82406],[74.21604,21.82346],[74.21605,21.82292],[74.21418,21.82259],[74.21257,21.82181],[74.21176,21.82195],[74.21073,21.82153],[74.20825,21.82151],[74.20713,21.82213],[74.20382,21.82186],[74.20177,21.82257],[74.20094,21.8234],[74.19861,21.82462],[74.19802,21.82521],[74.19753,21.82534],[74.1955,21.82413],[74.19484,21.82433],[74.19385,21.8239],[74.19268,21.82424],[74.19246,21.82495],[74.19074,21.82516],[74.1901,21.82557],[74.18926,21.8258],[74.18745,21.82592],[74.18565,21.82725],[74.18379,21.828],[74.18243,21.82916],[74.18588,21.82916],[74.18903,21.82969],[74.19427,21.8296],[74.20203,21.82808],[74.20221,21.82661],[74.20364,21.82585],[74.20422,21.82496],[74.20601,21.82549],[74.20937,21.82583],[74.21058,21.82555],[74.21217,21.82546]]]}},{"type":"Feature","bbox":[74.20231,21.80865,74.21966,21.82292],"properties":{"ward":16},"geometry":{"type":"Polygon","coordinates":[[[74.21419,21.82258],[74.21605,21.82292],[74.21606,21.82237],[74.21649,21.82165],[74.21655,21.82127],[74.21623,21.82017],[74.21704,21.81953],[74.21966,21.8138],[74.21933,21.81204],[74.21863,21.80978],[74.21804,21.80865],[74.21576,21.80967],[74.2144,21.80984],[74.2135,21.80973],[74.21068,21.81038],[74.20758,21.81048],[74.20696,21.81064],[74.20637,21.81151],[74.20581,21.81315],[74.20437,21.81337],[74.20295,21.8141],[74.2025,21.81462],[74.20233,21.81503],[74.20231,21.81703],[74.20272,21.81827],[74.20277,21.82118],[74.20263,21.82218],[74.20439,21.82184],[74.20725,21.82211],[74.20828,21.82153],[74.20988,21.82148],[74.21075,21.82153],[74.21177,21.82197],[74.21257,21.82182],[74.21419,21.82258]]]}},{"type":"Feature","bbox":[74.21606,21.80834,74.22686,21.82309],"properties":{"ward":17},"geometry":{"type":"Polygon","coordinates":[[[74.21606,21.82237],[74.21606,21.82292],[74.21845,21.82309],[74.21953,21.82306],[74.22156,21.82218],[74.22234,21.82226],[74.22253,21.82168],[74.22412,21.82],[74.22525,21.81694],[74.22686,21.81472],[74.22669,21.81347],[74.226,21.81252],[74.2259,21.81149],[74.22269,21.81018],[74.21929,21.80843],[74.21863,21.80834],[74.21806,21.80866],[74.21865,21.80981],[74.21934,21.81207],[74.21966,21.8138],[74.21713,21.81936],[74.21623,21.82017],[74.21655,21.82127],[74.21649,21.82166],[74.21606,21.82237]]]}}]}