{"type":"FeatureCollection","features":[{"type":"Feature","bbox":[77.06172,20.58117,77.06662,20.58749],"properties":{"ward":1},"geometry":{"type":"Polygon","coordinates":[[[77.06329,20.58179],[77.06172,20.5815],[77.06257,20.58739],[77.06336,20.58749],[77.06662,20.5816],[77.06622,20.58141],[77.06522,20.58136],[77.06455,20.58117],[77.06329,20.58179]]]}},{"type":"Feature","bbox":[77.06307,20.57914,77.07104,20.58928],"properties":{"ward":2},"geometry":{"type":"Polygon","coordinates":[[[77.06933,20.58094],[77.06925,20.58006],[77.06821,20.5805],[77.06717,20.58062],[77.06714,20.57966],[77.06692,20.57962],[77.06673,20.57914],[77.06607,20.57931],[77.06645,20.58022],[77.06684,20.58056],[77.06684,20.58118],[77.06341,20.58747],[77.06307,20.58928],[77.06845,20.58893],[77.06883,20.5879],[77.06937,20.58243],[77.07104,20.58233],[77.07092,20.58112],[77.06933,20.58094]]]}},{"type":"Feature","bbox":[77.06927,20.5795,77.0741,20.58218],"properties":{"ward":3},"geometry":{"type":"Polygon","coordinates":[[[77.07076,20.58075],[77.06927,20.58001],[77.06935,20.58089],[77.07098,20.58109],[77.07107,20.58218],[77.07316,20.58217],[77.07297,20.58117],[77.0741,20.58099],[77.07389,20.58054],[77.07374,20.5795],[77.07318,20.57992],[77.07316,20.58009],[77.07276,20.58016],[77.07278,20.58053],[77.07165,20.58082],[77.07076,20.58075]]]}},{"type":"Feature","bbox":[77.0693,20.5794,77.0737,20.58083],"properties":{"ward":4},"geometry":{"type":"Polygon","coordinates":[[[77.06989,20.57965],[77.0693,20.58001],[77.06979,20.58037],[77.07117,20.58083],[77.07165,20.58081],[77.07275,20.58051],[77.07272,20.58016],[77.07314,20.58008],[77.07331,20.57975],[77.0737,20.5795],[77.07354,20.5794],[77.07191,20.57959],[77.07165,20.57948],[77.07072,20.57976],[77.0703,20.57982],[77.06989,20.57965]]]}},{"type":"Feature","bbox":[77.07021,20.57778,77.07349,20.57972],"properties":{"ward":5},"geometry":{"type":"Polygon","coordinates":[[[77.07261,20.57778],[77.07021,20.57819],[77.07076,20.57972],[77.07138,20.57948],[77.07349,20.57939],[77.07333,20.57874],[77.07261,20.57778]]]}},{"type":"Feature","bbox":[77.0691,20.5772,77.07096,20.57975],"properties":{"ward":6},"geometry":{"type":"Polygon","coordinates":[[[77.0695,20.57888],[77.07011,20.57975],[77.07073,20.57972],[77.07019,20.57817],[77.07096,20.57797],[77.07077,20.5772],[77.07028,20.57735],[77.06956,20.57808],[77.0691,20.57874],[77.0695,20.57888]]]}},{"type":"Feature","bbox":[77.06714,20.57864,77.06989,20.58058],"properties":{"ward":7},"geometry":{"type":"Polygon","coordinates":[[[77.06757,20.57884],[77.06714,20.57876],[77.06719,20.58058],[77.0685,20.58036],[77.06989,20.57961],[77.06947,20.57891],[77.06909,20.57877],[77.06856,20.57864],[77.06757,20.57884]]]}},{"type":"Feature","bbox":[77.06237,20.57877,77.06641,20.58062],"properties":{"ward":8},"geometry":{"type":"Polygon","coordinates":[[[77.06436,20.57925],[77.06237,20.57939],[77.06251,20.58043],[77.06404,20.58034],[77.06423,20.58049],[77.0652,20.58045],[77.06593,20.58062],[77.06614,20.58031],[77.06641,20.58023],[77.0661,20.57967],[77.06593,20.57877],[77.06553,20.57895],[77.06475,20.57898],[77.06436,20.57925]]]}},{"type":"Feature","bbox":[77.06162,20.58025,77.06682,20.58177],"properties":{"ward":9},"geometry":{"type":"Polygon","coordinates":[[[77.06398,20.58034],[77.06162,20.5804],[77.06171,20.58147],[77.06328,20.58177],[77.06457,20.58113],[77.06521,20.58134],[77.06625,20.58139],[77.06663,20.58159],[77.06682,20.58115],[77.06682,20.58058],[77.06644,20.58025],[77.06615,20.58033],[77.06595,20.58065],[77.06398,20.58034]]]}},{"type":"Feature","bbox":[77.0622,20.57687,77.06766,20.57961],"properties":{"ward":10},"geometry":{"type":"Polygon","coordinates":[[[77.06594,20.57875],[77.06604,20.57927],[77.06675,20.57912],[77.06697,20.5796],[77.06715,20.57961],[77.06712,20.57873],[77.06766,20.57873],[77.06758,20.5776],[77.06706,20.57742],[77.06636,20.57687],[77.06575,20.57731],[77.06503,20.57741],[77.06384,20.57798],[77.0622,20.57819],[77.06238,20.57937],[77.06433,20.57922],[77.06482,20.57893],[77.06552,20.57892],[77.06594,20.57875]]]}},{"type":"Feature","bbox":[77.06074,20.57423,77.06529,20.5783],"properties":{"ward":11},"geometry":{"type":"Polygon","coordinates":[[[77.06123,20.5783],[77.06384,20.57796],[77.06529,20.57734],[77.06509,20.57642],[77.06516,20.5757],[77.06437,20.57529],[77.06415,20.57544],[77.06372,20.57427],[77.06327,20.57448],[77.06074,20.57423],[77.06123,20.5783]]]}},{"type":"Feature","bbox":[77.06373,20.57407,77.06647,20.57734],"properties":{"ward":12},"geometry":{"type":"Polygon","coordinates":[[[77.06511,20.5764],[77.06531,20.57734],[77.06575,20.57729],[77.06647,20.57682],[77.0662,20.57626],[77.06509,20.57558],[77.06503,20.57532],[77.06548,20.57517],[77.06541,20.57447],[77.06482,20.57463],[77.06454,20.57407],[77.06373,20.57427],[77.06416,20.57543],[77.06437,20.57528],[77.06518,20.57572],[77.06511,20.5764]]]}},{"type":"Feature","bbox":[77.06651,20.57505,77.07117,20.57875],"properties":{"ward":13},"geometry":{"type":"Polygon","coordinates":[[[77.06761,20.57757],[77.0677,20.57875],[77.06854,20.5786],[77.06847,20.57818],[77.06972,20.57722],[77.06999,20.57666],[77.07043,20.57635],[77.07083,20.57634],[77.07117,20.57505],[77.06794,20.576],[77.06714,20.57661],[77.06651,20.57686],[77.06697,20.57731],[77.06761,20.57757]]]}},{"type":"Feature","bbox":[77.06852,20.57491,77.07254,20.57874],"properties":{"ward":14},"geometry":{"type":"Polygon","coordinates":[[[77.06899,20.57874],[77.07054,20.57721],[77.07078,20.57719],[77.07094,20.57788],[77.07112,20.57796],[77.07254,20.57774],[77.07201,20.57607],[77.07184,20.57491],[77.07119,20.57505],[77.07085,20.57637],[77.07044,20.57639],[77.06999,20.5767],[77.06968,20.57728],[77.06852,20.57818],[77.06857,20.57861],[77.06899,20.57874]]]}},{"type":"Feature","bbox":[77.06504,20.574,77.07201,20.57679],"properties":{"ward":15},"geometry":{"type":"Polygon","coordinates":[[[77.07192,20.574],[77.06545,20.57455],[77.06549,20.57518],[77.06504,20.57533],[77.06519,20.5757],[77.06622,20.57624],[77.06649,20.57679],[77.06851,20.57576],[77.07029,20.57516],[77.07201,20.57487],[77.07192,20.574]]]}},{"type":"Feature","bbox":[77.05979,20.5675,77.06518,20.57445],"properties":{"ward":16},"geometry":{"type":"Polygon","coordinates":[[[77.0612,20.57111],[77.06169,20.5743],[77.06327,20.57445],[77.06451,20.57404],[77.0643,20.57342],[77.06371,20.57337],[77.06345,20.57296],[77.06309,20.57144],[77.06518,20.57103],[77.06517,20.57027],[77.0645,20.57041],[77.06404,20.5675],[77.05979,20.5682],[77.06026,20.57129],[77.0612,20.57111]]]}},{"type":"Feature","bbox":[77.05785,20.56821,77.06024,20.57167],"properties":{"ward":17},"geometry":{"type":"Polygon","coordinates":[[[77.05978,20.56821],[77.05799,20.56871],[77.05785,20.56904],[77.0579,20.57167],[77.06024,20.5713],[77.05978,20.56821]]]}}]}