{"type":"FeatureCollection","features":[{"type":"Feature","bbox":[74.22828,20.3312,74.24826,20.34918],"properties":{"ward":1,"name":"Aher Colony"},"geometry":{"type":"Polygon","coordinates":[[[74.2319,20.34629],[74.23478,20.34658],[74.23591,20.34606],[74.23706,20.34641],[74.23814,20.34636],[74.23935,20.34595],[74.24041,20.346],[74.24185,20.34633],[74.24338,20.34633],[74.24455,20.34652],[74.24524,20.34694],[74.2459,20.34765],[74.24632,20.34918],[74.24653,20.34812],[74.24826,20.34568],[74.24781,20.34443],[74.2474,20.33829],[74.24684,20.33684],[74.24584,20.33605],[74.24396,20.33565],[74.24385,20.335],[74.24325,20.33369],[74.24407,20.33325],[74.24404,20.33281],[74.2442,20.33266],[74.24401,20.33267],[74.24386,20.33149],[74.24328,20.3316],[74.24258,20.3312],[74.24223,20.33128],[74.24199,20.33173],[74.24114,20.33225],[74.23935,20.33273],[74.23792,20.33203],[74.2377,20.33236],[74.23808,20.33341],[74.23787,20.33435],[74.23646,20.33513],[74.23561,20.33531],[74.23608,20.33659],[74.2358,20.33688],[74.2304,20.33746],[74.22986,20.33777],[74.22978,20.3381],[74.2294,20.3383],[74.22894,20.33824],[74.22862,20.33856],[74.22828,20.33906],[74.22834,20.33972],[74.22894,20.3412],[74.22902,20.34261],[74.22924,20.3432],[74.22959,20.34388],[74.23116,20.34474],[74.2319,20.34629]]]}},{"type":"Feature","bbox":[74.24578,20.33425,74.28231,20.35517],"properties":{"ward":2,"name":"Kartikeshwar Colony"},"geometry":{"type":"Polygon","coordinates":[[[74.24861,20.3458],[74.24674,20.34851],[74.24666,20.34911],[74.24625,20.34992],[74.24599,20.35116],[74.24578,20.35147],[74.24598,20.35219],[74.24641,20.35227],[74.24667,20.3528],[74.24724,20.35279],[74.24871,20.35235],[74.24894,20.35275],[74.24852,20.35423],[74.25004,20.35456],[74.25106,20.35517],[74.25172,20.35511],[74.25232,20.35362],[74.25362,20.35262],[74.25389,20.35263],[74.25415,20.35212],[74.25499,20.35228],[74.25596,20.35166],[74.25687,20.35218],[74.25739,20.35208],[74.25843,20.35304],[74.25925,20.35261],[74.26206,20.35169],[74.26257,20.35014],[74.2637,20.35031],[74.26445,20.35096],[74.26529,20.35117],[74.26791,20.35136],[74.2686,20.35076],[74.26912,20.34806],[74.27005,20.34765],[74.27081,20.34657],[74.26822,20.34552],[74.26681,20.34401],[74.26648,20.34279],[74.26672,20.34057],[74.2693,20.33907],[74.2726,20.34002],[74.27505,20.34134],[74.27784,20.34304],[74.28231,20.34654],[74.28225,20.34481],[74.28182,20.34261],[74.27172,20.33847],[74.24708,20.33425],[74.24737,20.33642],[74.24724,20.33665],[74.2477,20.33793],[74.24828,20.34435],[74.24861,20.3458]]]}},{"type":"Feature","bbox":[74.24337,20.32908,74.28924,20.34241],"properties":{"ward":3,"name":"Bagawan Galli"},"geometry":{"type":"Polygon","coordinates":[[[74.24403,20.33531],[74.24587,20.33577],[74.24661,20.33612],[74.24704,20.33657],[74.24722,20.33635],[74.24693,20.33413],[74.24735,20.33409],[74.27199,20.33828],[74.28182,20.34241],[74.28291,20.34027],[74.28578,20.34055],[74.28724,20.3411],[74.28808,20.34189],[74.28842,20.34056],[74.28924,20.33981],[74.28668,20.33877],[74.2837,20.33937],[74.28109,20.33946],[74.27778,20.33838],[74.27483,20.33678],[74.27282,20.33628],[74.27131,20.33622],[74.26907,20.33664],[74.268,20.33705],[74.26663,20.33533],[74.26514,20.33428],[74.26288,20.33304],[74.26004,20.33198],[74.25816,20.33092],[74.25642,20.32908],[74.24805,20.3334],[74.24719,20.33349],[74.24709,20.33169],[74.24664,20.33177],[74.24672,20.33219],[74.24588,20.33233],[74.24583,20.33304],[74.2445,20.3333],[74.24337,20.3338],[74.24402,20.33498],[74.24403,20.33531]]]}},{"type":"Feature","bbox":[74.20601,20.32692,74.2376,20.35044],"properties":{"ward":4,"name":"Indrayani Colony"},"geometry":{"type":"Polygon","coordinates":[[[74.20601,20.34937],[74.20612,20.3497],[74.20681,20.34988],[74.21312,20.35044],[74.22182,20.34758],[74.22406,20.3467],[74.22729,20.34644],[74.22987,20.34728],[74.23128,20.34734],[74.23162,20.34655],[74.23132,20.3457],[74.23047,20.34471],[74.22979,20.34455],[74.22899,20.34362],[74.22847,20.34132],[74.22805,20.34041],[74.22798,20.33906],[74.22854,20.33798],[74.22927,20.33796],[74.22962,20.3375],[74.2312,20.33689],[74.23551,20.33653],[74.23519,20.33495],[74.23626,20.33475],[74.23731,20.33426],[74.2376,20.33354],[74.23729,20.33229],[74.23759,20.33176],[74.23409,20.33088],[74.22884,20.3299],[74.22582,20.32853],[74.22345,20.32773],[74.21845,20.32692],[74.21674,20.33001],[74.21639,20.33162],[74.21584,20.33153],[74.21588,20.33203],[74.21563,20.33275],[74.21613,20.33401],[74.2161,20.3343],[74.21516,20.33508],[74.21444,20.33535],[74.21424,20.33595],[74.21362,20.33605],[74.2137,20.3372],[74.21242,20.33758],[74.21246,20.33818],[74.21204,20.33898],[74.21151,20.33926],[74.21082,20.33923],[74.21017,20.33975],[74.21009,20.34001],[74.20968,20.34017],[74.20972,20.34037],[74.20945,20.34049],[74.2088,20.34173],[74.20853,20.34165],[74.20842,20.34224],[74.20806,20.34274],[74.20755,20.34289],[74.2076,20.3432],[74.2072,20.34394],[74.20737,20.34492],[74.2077,20.34526],[74.20766,20.34555],[74.20708,20.34644],[74.20646,20.34644],[74.20617,20.34672],[74.20622,20.34707],[74.20605,20.34737],[74.20628,20.34869],[74.20601,20.34937]]]}},{"type":"Feature","bbox":[74.21851,20.31751,74.24182,20.33252],"properties":{"ward":5,"name":"Gurukrupa Colony"},"geometry":{"type":"Polygon","coordinates":[[[74.21851,20.32672],[74.2228,20.32739],[74.22498,20.328],[74.2288,20.3297],[74.23679,20.33124],[74.23932,20.33252],[74.24056,20.33219],[74.24182,20.33151],[74.23726,20.32938],[74.23802,20.32876],[74.23851,20.32806],[74.23738,20.32773],[74.23521,20.32617],[74.23424,20.32599],[74.23207,20.32486],[74.23084,20.32399],[74.22473,20.31879],[74.22162,20.31751],[74.22134,20.31809],[74.22212,20.31982],[74.2217,20.32139],[74.22222,20.32227],[74.22209,20.32269],[74.2218,20.32327],[74.22141,20.3232],[74.22015,20.32397],[74.21904,20.32408],[74.21871,20.32472],[74.21851,20.32672]]]}},{"type":"Feature","bbox":[74.23736,20.3272,74.24199,20.33148],"properties":{"ward":6,"name":"Vanjar Galli"},"geometry":{"type":"Polygon","coordinates":[[[74.23736,20.32936],[74.24159,20.33138],[74.24189,20.33148],[74.24199,20.33131],[74.24179,20.33027],[74.24156,20.33005],[74.24171,20.33004],[74.24178,20.32965],[74.24169,20.32922],[74.24187,20.3292],[74.2418,20.3288],[74.24116,20.32867],[74.24108,20.32843],[74.24026,20.32846],[74.23986,20.3272],[74.23894,20.32722],[74.23849,20.32826],[74.23791,20.32899],[74.23736,20.32936]]]}},{"type":"Feature","bbox":[74.24111,20.32824,74.24328,20.33114],"properties":{"ward":7,"name":"Naikwadipura"},"geometry":{"type":"Polygon","coordinates":[[[74.24117,20.32865],[74.2418,20.32878],[74.24189,20.32922],[74.24171,20.32924],[74.2418,20.32966],[74.24173,20.33005],[74.2416,20.33006],[74.2418,20.33026],[74.24201,20.33114],[74.24239,20.33102],[74.24238,20.33004],[74.24303,20.3299],[74.24297,20.32919],[74.24328,20.329],[74.24296,20.32824],[74.24132,20.3283],[74.24111,20.32842],[74.24117,20.32865]]]}},{"type":"Feature","bbox":[74.24241,20.32808,74.24509,20.33335],"properties":{"ward":8,"name":"Kotawalvada"},"geometry":{"type":"Polygon","coordinates":[[[74.24244,20.331],[74.24279,20.33103],[74.2431,20.33148],[74.24391,20.33124],[74.24408,20.33257],[74.24433,20.33254],[74.24436,20.33279],[74.24412,20.33284],[74.24424,20.33335],[74.24484,20.33321],[74.24481,20.333],[74.24509,20.33279],[74.24503,20.33248],[74.24469,20.33255],[74.24462,20.33211],[74.24485,20.33205],[74.24451,20.33116],[74.24419,20.3312],[74.24418,20.33073],[74.24446,20.33072],[74.24429,20.32854],[74.24389,20.32847],[74.24389,20.32808],[74.24302,20.32836],[74.2433,20.32901],[74.243,20.32921],[74.24306,20.32992],[74.24241,20.33007],[74.24244,20.331]]]}},{"type":"Feature","bbox":[74.24419,20.32848,74.24638,20.3332],"properties":{"ward":9,"name":"Mullawada"},"geometry":{"type":"Polygon","coordinates":[[[74.24486,20.3332],[74.24579,20.33303],[74.24587,20.33229],[74.24569,20.33112],[74.24638,20.331],[74.24638,20.3306],[74.24625,20.33005],[74.24575,20.33015],[74.24534,20.32918],[74.24474,20.32935],[74.2445,20.32848],[74.24431,20.3285],[74.24449,20.33074],[74.24419,20.33075],[74.24421,20.33117],[74.24453,20.33114],[74.24488,20.33206],[74.24464,20.33213],[74.2447,20.33252],[74.24505,20.33246],[74.24512,20.3328],[74.24484,20.33302],[74.24486,20.3332]]]}},{"type":"Feature","bbox":[74.24543,20.32837,74.2492,20.33345],"properties":{"ward":10,"name":"Hanuman Nagar"},"geometry":{"type":"Polygon","coordinates":[[[74.2459,20.3323],[74.24668,20.33216],[74.24662,20.33175],[74.2471,20.33165],[74.24725,20.33345],[74.24804,20.33337],[74.2492,20.33282],[74.24892,20.33053],[74.24823,20.32906],[74.24844,20.32877],[74.24842,20.32845],[74.24679,20.32837],[74.24617,20.32861],[74.24628,20.32927],[74.24618,20.32948],[74.24592,20.32958],[74.2458,20.32938],[74.24543,20.32931],[74.24577,20.33013],[74.24626,20.33002],[74.24639,20.3306],[74.2464,20.33102],[74.24571,20.33115],[74.2459,20.3323]]]}},{"type":"Feature","bbox":[74.23588,20.28847,74.28097,20.32118],"properties":{"ward":11,"name":"Nikam Vasti"},"geometry":{"type":"Polygon","coordinates":[[[74.23706,20.31462],[74.24014,20.31384],[74.24048,20.31572],[74.24323,20.31538],[74.24351,20.31633],[74.24481,20.31621],[74.24501,20.32118],[74.24599,20.32111],[74.24595,20.3193],[74.24662,20.31929],[74.24666,20.31955],[74.25175,20.31929],[74.25424,20.32009],[74.25607,20.31878],[74.2594,20.31781],[74.26728,20.31829],[74.27314,20.31624],[74.27656,20.31449],[74.28004,20.3131],[74.28097,20.3107],[74.27957,20.30763],[74.28067,20.30705],[74.28049,20.30672],[74.28004,20.30663],[74.27973,20.30634],[74.27999,20.30565],[74.27979,20.30508],[74.27903,20.30418],[74.2777,20.30358],[74.27725,20.30273],[74.27616,20.30337],[74.27534,20.3033],[74.27408,20.30256],[74.27357,20.30184],[74.27074,20.30012],[74.26887,20.2992],[74.26397,20.2996],[74.26321,20.29908],[74.2587,20.30044],[74.25538,20.30095],[74.2553,20.29988],[74.25509,20.29965],[74.25514,20.2991],[74.25443,20.29831],[74.25439,20.2976],[74.2532,20.29616],[74.25215,20.29579],[74.24994,20.29582],[74.24977,20.29447],[74.24999,20.29059],[74.25023,20.28973],[74.25083,20.2898],[74.25087,20.28956],[74.25023,20.28909],[74.24973,20.28896],[74.24795,20.28888],[74.24757,20.289],[74.24776,20.29392],[74.24561,20.29379],[74.24202,20.29387],[74.24195,20.29275],[74.24142,20.29151],[74.24208,20.29056],[74.24263,20.28894],[74.2414,20.28852],[74.2393,20.28847],[74.23762,20.28922],[74.23777,20.29569],[74.23852,20.30013],[74.23832,20.30067],[74.23886,20.30247],[74.23846,20.30298],[74.2388,20.30394],[74.23852,20.30485],[74.23807,20.30553],[74.23588,20.30584],[74.23617,20.30726],[74.23706,20.31462]]]}},{"type":"Feature","bbox":[74.2443,20.31979,74.25417,20.32946],"properties":{"ward":12,"name":"Ambedkar Nagar"},"geometry":{"type":"Polygon","coordinates":[[[74.2443,20.32776],[74.24444,20.32779],[74.24448,20.32809],[74.24514,20.32814],[74.24513,20.32841],[74.24618,20.32857],[74.24714,20.32828],[74.24844,20.32841],[74.24847,20.32876],[74.24882,20.32905],[74.2497,20.32907],[74.25062,20.32946],[74.25175,20.32772],[74.25417,20.32024],[74.25295,20.31979],[74.25077,20.32147],[74.24982,20.32252],[74.24864,20.32305],[74.247,20.32419],[74.24488,20.32452],[74.24463,20.32681],[74.2443,20.32776]]]}},{"type":"Feature","bbox":[74.24024,20.32744,74.24626,20.32956],"properties":{"ward":13,"name":"Gosavi Wada"},"geometry":{"type":"Polygon","coordinates":[[[74.24028,20.32843],[74.24048,20.32851],[74.24169,20.32823],[74.24174,20.32835],[74.24298,20.32822],[74.24298,20.32834],[74.2439,20.32805],[74.24391,20.32845],[74.24452,20.32847],[74.24475,20.32933],[74.24535,20.32916],[74.24594,20.32956],[74.24626,20.32926],[74.24613,20.3285],[74.24509,20.32844],[74.2451,20.32817],[74.24445,20.32813],[74.24442,20.32782],[74.24424,20.32778],[74.2444,20.32747],[74.2443,20.32744],[74.24037,20.32793],[74.24024,20.32797],[74.24028,20.32843]]]}},{"type":"Feature","bbox":[74.22086,20.30793,74.23869,20.32804],"properties":{"ward":14,"name":"Mahatha Fule Nagar"},"geometry":{"type":"Polygon","coordinates":[[[74.22169,20.31737],[74.22485,20.31873],[74.22606,20.31991],[74.22832,20.32161],[74.23103,20.32408],[74.23213,20.32479],[74.23421,20.32591],[74.23535,20.32616],[74.23714,20.32751],[74.23858,20.32804],[74.23869,20.32782],[74.23853,20.32755],[74.23661,20.32531],[74.23566,20.32286],[74.23338,20.31797],[74.22922,20.31239],[74.22728,20.31022],[74.22555,20.30793],[74.22467,20.30809],[74.22379,20.30857],[74.22123,20.3092],[74.22121,20.30958],[74.22145,20.31019],[74.22107,20.31069],[74.22121,20.31141],[74.22086,20.31227],[74.22158,20.31406],[74.22119,20.31506],[74.22207,20.31611],[74.22207,20.31658],[74.22169,20.31737]]]}},{"type":"Feature","bbox":[74.22406,20.29766,74.23936,20.32775],"properties":{"ward":15,"name":"Savata Nagar"},"geometry":{"type":"Polygon","coordinates":[[[74.22406,20.3057],[74.22744,20.31037],[74.22955,20.31265],[74.23336,20.31781],[74.23546,20.32225],[74.23654,20.32503],[74.23871,20.32775],[74.23936,20.32521],[74.23815,20.32517],[74.2381,20.32408],[74.23722,20.32352],[74.23665,20.3229],[74.23726,20.32294],[74.23828,20.32391],[74.23908,20.32387],[74.23868,20.32171],[74.23725,20.31711],[74.23664,20.31398],[74.23655,20.3127],[74.23646,20.31237],[74.23496,20.31277],[74.23484,20.31206],[74.23633,20.31181],[74.23578,20.30685],[74.23371,20.30025],[74.23265,20.29766],[74.22794,20.29852],[74.2279,20.29991],[74.22737,20.30256],[74.22618,20.30252],[74.22553,20.30314],[74.22635,20.30392],[74.22614,20.30404],[74.22548,20.30379],[74.22465,20.30399],[74.22433,20.30443],[74.22434,20.30542],[74.22406,20.3057]]]}},{"type":"Feature","bbox":[74.23904,20.31842,74.25279,20.32793],"properties":{"ward":16,"name":"Marchant Colony"},"geometry":{"type":"Polygon","coordinates":[[[74.23904,20.32714],[74.23989,20.32717],[74.24004,20.32787],[74.2402,20.32793],[74.2444,20.32743],[74.24483,20.32446],[74.24695,20.32412],[74.24854,20.32305],[74.24975,20.32248],[74.25038,20.32176],[74.25279,20.3198],[74.25169,20.31943],[74.24655,20.31974],[74.24648,20.31938],[74.24604,20.3194],[74.24608,20.32129],[74.24491,20.32126],[74.24476,20.31842],[74.24259,20.31871],[74.24141,20.31995],[74.24105,20.32064],[74.24003,20.32349],[74.23904,20.32714]]]}},{"type":"Feature","bbox":[74.23491,20.31182,74.24479,20.32513],"properties":{"ward":17,"name":"Adinath Nagar"},"geometry":{"type":"Polygon","coordinates":[[[74.23821,20.32513],[74.23934,20.32512],[74.24078,20.32099],[74.24139,20.3198],[74.2421,20.31905],[74.24257,20.31863],[74.24479,20.31833],[74.2447,20.31629],[74.24345,20.31642],[74.24318,20.31543],[74.24043,20.31584],[74.24008,20.3139],[74.237,20.31478],[74.23659,20.31182],[74.23491,20.3121],[74.23498,20.31271],[74.23649,20.31232],[74.23731,20.31711],[74.23871,20.32169],[74.23913,20.32388],[74.23825,20.32394],[74.23723,20.32298],[74.23676,20.32296],[74.23732,20.32354],[74.23814,20.32407],[74.23821,20.32513]]]}}]}