{"type":"FeatureCollection","features":[{"type":"Feature","bbox":[74.8557,12.78728,74.86338,12.79689],"properties":{"ward":1},"geometry":{"type":"Polygon","coordinates":[[[74.86157,12.79625],[74.86116,12.79505],[74.86196,12.79345],[74.86199,12.7927],[74.86226,12.79223],[74.86208,12.79191],[74.86231,12.79178],[74.86235,12.79103],[74.8627,12.79045],[74.8631,12.79022],[74.86338,12.78916],[74.86338,12.78804],[74.86314,12.78771],[74.86104,12.78757],[74.86003,12.78728],[74.85999,12.78739],[74.86022,12.78749],[74.85981,12.78827],[74.85948,12.78822],[74.85942,12.78842],[74.85955,12.78847],[74.85903,12.78973],[74.85881,12.78989],[74.85857,12.78982],[74.85828,12.79059],[74.85613,12.79258],[74.85656,12.79259],[74.85668,12.79355],[74.85733,12.7934],[74.85716,12.79401],[74.85618,12.79414],[74.85626,12.79509],[74.8557,12.79507],[74.85578,12.79534],[74.85604,12.79528],[74.8561,12.79552],[74.85664,12.79542],[74.85665,12.79521],[74.85824,12.79481],[74.85864,12.79689],[74.85999,12.79674],[74.86157,12.79625]]]}},{"type":"Feature","bbox":[74.86081,12.79202,74.86698,12.8],"properties":{"ward":2},"geometry":{"type":"Polygon","coordinates":[[[74.86694,12.7945],[74.86596,12.79325],[74.86476,12.79245],[74.86362,12.79202],[74.86226,12.79223],[74.86201,12.79263],[74.8619,12.7936],[74.86115,12.79511],[74.86139,12.7955],[74.86175,12.79695],[74.86128,12.79819],[74.86081,12.79875],[74.8624,12.79928],[74.86257,12.8],[74.86375,12.79959],[74.866,12.7994],[74.86625,12.79604],[74.86652,12.79549],[74.86688,12.7957],[74.86698,12.79538],[74.86628,12.79501],[74.86694,12.7945]]]}},{"type":"Feature","bbox":[74.86208,12.78871,74.8718,12.79718],"properties":{"ward":3},"geometry":{"type":"Polygon","coordinates":[[[74.87119,12.79584],[74.8717,12.79467],[74.87148,12.7943],[74.8718,12.79344],[74.8717,12.79306],[74.86956,12.79271],[74.86729,12.79134],[74.8663,12.79102],[74.86522,12.78985],[74.86332,12.78871],[74.86338,12.78916],[74.8631,12.79022],[74.86264,12.79052],[74.86235,12.79103],[74.86231,12.79178],[74.86208,12.79191],[74.86226,12.79223],[74.86362,12.79202],[74.8654,12.79282],[74.86639,12.79367],[74.86694,12.7945],[74.86736,12.79475],[74.86749,12.79452],[74.86796,12.79492],[74.86784,12.7952],[74.86826,12.79529],[74.86926,12.79592],[74.86937,12.79616],[74.8689,12.79681],[74.86877,12.79668],[74.86874,12.79686],[74.86905,12.79718],[74.86989,12.79616],[74.87026,12.79653],[74.87119,12.79584]]]}},{"type":"Feature","bbox":[74.86981,12.79467,74.88569,12.80731],"properties":{"ward":4},"geometry":{"type":"MultiPolygon","coordinates":[[[[74.88115,12.80468],[74.88175,12.80432],[74.88246,12.80446],[74.88256,12.80406],[74.88483,12.80459],[74.88569,12.80171],[74.8853,12.80147],[74.88471,12.80138],[74.88383,12.80226],[74.88249,12.80244],[74.88032,12.80166],[74.88035,12.80226],[74.87952,12.80257],[74.8791,12.80312],[74.87912,12.8035],[74.87894,12.80367],[74.87959,12.80441],[74.88028,12.80484],[74.88115,12.80489],[74.88115,12.80468]]],[[[74.87082,12.80731],[74.87209,12.80104],[74.87319,12.80101],[74.87407,12.79973],[74.87509,12.80027],[74.87507,12.80128],[74.87561,12.80182],[74.87666,12.80048],[74.87709,12.80127],[74.87703,12.80154],[74.8769,12.80162],[74.87668,12.80126],[74.87589,12.80215],[74.87628,12.80255],[74.87648,12.80242],[74.87726,12.80325],[74.8781,12.80226],[74.87826,12.80182],[74.87839,12.80184],[74.8787,12.80092],[74.87959,12.80095],[74.87865,12.79983],[74.87809,12.79806],[74.8768,12.79724],[74.87575,12.79614],[74.87416,12.79544],[74.87314,12.79544],[74.8722,12.79507],[74.8717,12.79467],[74.87119,12.79584],[74.87114,12.79739],[74.87027,12.79798],[74.86981,12.79891],[74.8705,12.79924],[74.87087,12.79965],[74.87139,12.79979],[74.87077,12.80167],[74.86999,12.8015],[74.86986,12.80271],[74.87082,12.80731]]]]}},{"type":"Feature","bbox":[74.87589,12.80384,74.88199,12.81225],"properties":{"ward":5},"geometry":{"type":"Polygon","coordinates":[[[74.88005,12.80576],[74.87742,12.80384],[74.87724,12.80423],[74.8774,12.80449],[74.87589,12.80574],[74.87591,12.81015],[74.8779,12.81072],[74.8799,12.81225],[74.88074,12.81088],[74.88045,12.81049],[74.88048,12.80995],[74.88091,12.80852],[74.88106,12.80854],[74.88118,12.80808],[74.88129,12.80737],[74.88096,12.80733],[74.88112,12.80681],[74.8815,12.80689],[74.88199,12.8061],[74.88134,12.80602],[74.88093,12.80622],[74.88026,12.8061],[74.88005,12.80576]]]}},{"type":"Feature","bbox":[74.87812,12.80171,74.89312,12.81317],"properties":{"ward":6},"geometry":{"type":"Polygon","coordinates":[[[74.89312,12.80844],[74.89227,12.807],[74.89074,12.80498],[74.88914,12.80359],[74.88803,12.80372],[74.88569,12.80171],[74.88483,12.80459],[74.88256,12.80406],[74.88246,12.80446],[74.88175,12.80432],[74.88115,12.80468],[74.88115,12.80489],[74.88052,12.80491],[74.87959,12.80441],[74.87894,12.80367],[74.87812,12.80424],[74.88005,12.80576],[74.88026,12.8061],[74.88093,12.80622],[74.88134,12.80602],[74.88199,12.8061],[74.8815,12.80689],[74.88112,12.80681],[74.88096,12.80733],[74.88129,12.80737],[74.88118,12.80808],[74.88106,12.80854],[74.88091,12.80852],[74.88048,12.80995],[74.88045,12.81049],[74.88074,12.81088],[74.8799,12.81225],[74.88113,12.81317],[74.88274,12.81139],[74.88594,12.80915],[74.89125,12.8095],[74.89312,12.80844]]]}},{"type":"Feature","bbox":[74.85998,12.77676,74.86836,12.78945],"properties":{"ward":7},"geometry":{"type":"Polygon","coordinates":[[[74.86519,12.78774],[74.8651,12.78736],[74.86523,12.78714],[74.86573,12.78696],[74.86582,12.78652],[74.8663,12.78613],[74.86649,12.78549],[74.86635,12.78498],[74.8665,12.78381],[74.86629,12.78328],[74.86644,12.78221],[74.86687,12.78237],[74.8674,12.7823],[74.86699,12.78029],[74.86713,12.77799],[74.8682,12.77808],[74.86836,12.77768],[74.86836,12.77735],[74.86731,12.77676],[74.86567,12.77803],[74.86546,12.77866],[74.86575,12.77936],[74.86573,12.78084],[74.86537,12.78097],[74.86538,12.7808],[74.86487,12.78067],[74.86225,12.78139],[74.86128,12.78432],[74.85998,12.78726],[74.86104,12.78757],[74.8632,12.78774],[74.86338,12.78804],[74.86332,12.78871],[74.86438,12.78945],[74.86453,12.78896],[74.86493,12.78868],[74.86501,12.78799],[74.86519,12.78774]]]}},{"type":"Feature","bbox":[74.8651,12.7772,74.87299,12.78831],"properties":{"ward":8},"geometry":{"type":"Polygon","coordinates":[[[74.87023,12.78404],[74.87169,12.77954],[74.87263,12.77978],[74.87299,12.77874],[74.87129,12.7779],[74.8691,12.7772],[74.86895,12.7775],[74.86836,12.77735],[74.8682,12.77808],[74.86715,12.77797],[74.86699,12.78029],[74.8674,12.7823],[74.86687,12.78237],[74.86644,12.78221],[74.86629,12.78328],[74.8665,12.78381],[74.86635,12.78498],[74.86649,12.78549],[74.8663,12.78613],[74.86582,12.78652],[74.86573,12.78696],[74.86523,12.78714],[74.8651,12.78736],[74.86519,12.78774],[74.86623,12.78805],[74.86663,12.7878],[74.86764,12.78831],[74.86857,12.78717],[74.86798,12.7868],[74.86839,12.78592],[74.86876,12.78579],[74.86895,12.78529],[74.86915,12.78535],[74.86937,12.78499],[74.86966,12.78513],[74.87002,12.78438],[74.86985,12.78408],[74.86995,12.78392],[74.87023,12.78404]]]}},{"type":"Feature","bbox":[74.86438,12.78224,74.8756,12.7931],"properties":{"ward":9},"geometry":{"type":"Polygon","coordinates":[[[74.87541,12.78819],[74.87557,12.78793],[74.87531,12.78733],[74.87393,12.78658],[74.87411,12.78642],[74.87359,12.78531],[74.87383,12.78472],[74.87402,12.78474],[74.87401,12.78393],[74.87376,12.78378],[74.87341,12.7839],[74.8736,12.78261],[74.87275,12.78242],[74.87262,12.78263],[74.87077,12.78224],[74.87023,12.78404],[74.86995,12.78392],[74.86985,12.78408],[74.87002,12.78438],[74.86966,12.78513],[74.86937,12.78499],[74.86915,12.78535],[74.86895,12.78529],[74.86876,12.78579],[74.86839,12.78592],[74.86798,12.7868],[74.86857,12.78717],[74.86764,12.78831],[74.86663,12.7878],[74.86623,12.78805],[74.86526,12.7877],[74.86501,12.78799],[74.86493,12.78868],[74.86453,12.78896],[74.86438,12.78945],[74.86522,12.78985],[74.86618,12.79096],[74.86729,12.79134],[74.86956,12.79271],[74.87212,12.7931],[74.87273,12.79184],[74.87315,12.79185],[74.87334,12.79156],[74.87388,12.7913],[74.87436,12.79066],[74.87497,12.79081],[74.87499,12.79059],[74.8756,12.79035],[74.8755,12.78967],[74.87487,12.78956],[74.87502,12.78903],[74.87528,12.78899],[74.87533,12.78865],[74.87477,12.7884],[74.87506,12.78807],[74.87541,12.78819]]]}},{"type":"Feature","bbox":[74.87149,12.78807,74.87959,12.79623],"properties":{"ward":10},"geometry":{"type":"Polygon","coordinates":[[[74.87924,12.79003],[74.87791,12.78997],[74.87704,12.79054],[74.87665,12.79036],[74.87715,12.78932],[74.87627,12.7891],[74.87564,12.78859],[74.87549,12.78826],[74.87506,12.78807],[74.87477,12.7884],[74.87533,12.78865],[74.87528,12.78899],[74.87502,12.78903],[74.87487,12.78956],[74.8755,12.78967],[74.8756,12.79035],[74.87499,12.79059],[74.87497,12.79081],[74.87436,12.79066],[74.87388,12.7913],[74.87334,12.79156],[74.87315,12.79185],[74.8727,12.79187],[74.87213,12.79309],[74.8717,12.79306],[74.8718,12.79344],[74.87149,12.79422],[74.87154,12.79447],[74.8722,12.79507],[74.87324,12.79547],[74.8743,12.79548],[74.87584,12.79623],[74.87768,12.79591],[74.87938,12.79526],[74.87947,12.79487],[74.87906,12.79415],[74.87959,12.79376],[74.87921,12.79295],[74.87888,12.79293],[74.87887,12.79267],[74.87915,12.79213],[74.87911,12.79137],[74.87935,12.79129],[74.87924,12.79003]]]}},{"type":"Feature","bbox":[74.87584,12.78956,74.89093,12.80372],"properties":{"ward":11},"geometry":{"type":"Polygon","coordinates":[[[74.88803,12.80372],[74.88916,12.80343],[74.88924,12.80214],[74.8894,12.80179],[74.88964,12.80169],[74.88991,12.80064],[74.89048,12.80064],[74.89054,12.79991],[74.8899,12.79965],[74.89093,12.79839],[74.89006,12.79761],[74.88917,12.79861],[74.88873,12.79755],[74.88884,12.79737],[74.88863,12.79647],[74.88838,12.79605],[74.88801,12.79567],[74.88715,12.79573],[74.88704,12.79551],[74.88732,12.79535],[74.88744,12.79484],[74.88676,12.79377],[74.88637,12.79343],[74.88514,12.79338],[74.88539,12.7919],[74.88519,12.79137],[74.88462,12.7909],[74.88428,12.79116],[74.88396,12.79093],[74.88382,12.7913],[74.88346,12.79123],[74.88278,12.79095],[74.88151,12.78975],[74.88049,12.78956],[74.87986,12.78958],[74.8795,12.78981],[74.87924,12.79003],[74.87935,12.79129],[74.87911,12.79137],[74.87915,12.79213],[74.87887,12.79267],[74.87888,12.79293],[74.87921,12.79295],[74.87959,12.79376],[74.87906,12.79415],[74.87947,12.79487],[74.87945,12.79519],[74.87768,12.79591],[74.87584,12.79623],[74.8768,12.79724],[74.87805,12.798],[74.87841,12.79928],[74.87894,12.80031],[74.87959,12.80095],[74.88037,12.80098],[74.88032,12.80166],[74.8805,12.80176],[74.88249,12.80244],[74.88383,12.80226],[74.88462,12.80141],[74.88497,12.80139],[74.88613,12.80202],[74.88803,12.80372]]]}},{"type":"Feature","bbox":[74.88898,12.79809,74.90191,12.80844],"properties":{"ward":12},"geometry":{"type":"Polygon","coordinates":[[[74.89744,12.80124],[74.89694,12.80152],[74.89621,12.80152],[74.89575,12.8012],[74.89529,12.80152],[74.89324,12.80152],[74.89248,12.80036],[74.89198,12.79996],[74.89192,12.79968],[74.89248,12.79943],[74.89288,12.79944],[74.89302,12.799],[74.89254,12.7987],[74.89061,12.79809],[74.89093,12.79839],[74.88989,12.79969],[74.89054,12.79991],[74.89048,12.80064],[74.88991,12.80064],[74.88964,12.80169],[74.8894,12.80179],[74.88924,12.80214],[74.88916,12.80343],[74.88898,12.80355],[74.89107,12.80532],[74.89312,12.80844],[74.8972,12.80611],[74.89933,12.80466],[74.90003,12.80408],[74.90101,12.80283],[74.90191,12.80224],[74.90061,12.8019],[74.89764,12.80152],[74.89744,12.80124]]]}},{"type":"Feature","bbox":[74.88676,12.79084,74.89744,12.80152],"properties":{"ward":13},"geometry":{"type":"Polygon","coordinates":[[[74.89744,12.80124],[74.89691,12.80028],[74.89413,12.79644],[74.88954,12.79084],[74.88835,12.79221],[74.8878,12.79311],[74.88676,12.79377],[74.88744,12.79484],[74.88732,12.79535],[74.88704,12.79551],[74.88715,12.79573],[74.88801,12.79567],[74.88838,12.79605],[74.88863,12.79647],[74.88884,12.79737],[74.88873,12.79755],[74.88917,12.79861],[74.89006,12.79761],[74.89061,12.79809],[74.89254,12.7987],[74.89302,12.799],[74.89288,12.79944],[74.89248,12.79943],[74.89192,12.79968],[74.89198,12.79996],[74.89248,12.80036],[74.89324,12.80152],[74.89529,12.80152],[74.89575,12.8012],[74.89621,12.80152],[74.89694,12.80152],[74.89744,12.80124]]]}},{"type":"Feature","bbox":[74.88256,12.78626,74.88954,12.79377],"properties":{"ward":14},"geometry":{"type":"Polygon","coordinates":[[[74.88954,12.79084],[74.88653,12.78771],[74.88615,12.78631],[74.88502,12.78626],[74.88379,12.78679],[74.88357,12.788],[74.88374,12.78837],[74.88356,12.78884],[74.8832,12.78888],[74.8831,12.78974],[74.88332,12.78995],[74.88256,12.79075],[74.88382,12.7913],[74.88396,12.79093],[74.88428,12.79116],[74.88462,12.7909],[74.88519,12.79137],[74.88539,12.7919],[74.88514,12.79338],[74.88637,12.79343],[74.88676,12.79377],[74.88728,12.79333],[74.88738,12.79345],[74.8878,12.79311],[74.88835,12.79221],[74.88954,12.79084]]]}},{"type":"Feature","bbox":[74.87077,12.77581,74.88615,12.79075],"properties":{"ward":15},"geometry":{"type":"Polygon","coordinates":[[[74.88615,12.78631],[74.88511,12.78238],[74.87906,12.77958],[74.87446,12.7761],[74.87319,12.77581],[74.87306,12.77652],[74.87329,12.77672],[74.87339,12.77763],[74.8732,12.77771],[74.87284,12.77942],[74.8726,12.7798],[74.87169,12.77954],[74.87077,12.78224],[74.87262,12.78263],[74.87275,12.78242],[74.8736,12.78261],[74.87341,12.7839],[74.87376,12.78378],[74.87401,12.78393],[74.87402,12.78474],[74.87383,12.78472],[74.87359,12.78531],[74.87411,12.78642],[74.87393,12.78658],[74.87531,12.78733],[74.87557,12.78793],[74.87541,12.78819],[74.87564,12.78859],[74.87627,12.7891],[74.87715,12.78932],[74.87665,12.79036],[74.87704,12.79054],[74.87791,12.78997],[74.87924,12.79003],[74.87986,12.78958],[74.88049,12.78956],[74.88151,12.78975],[74.88256,12.79075],[74.88332,12.78995],[74.8831,12.78974],[74.8832,12.78888],[74.88356,12.78884],[74.88374,12.78837],[74.88357,12.788],[74.88379,12.78679],[74.88502,12.78626],[74.88615,12.78631]]]}},{"type":"Feature","bbox":[74.8691,12.77295,74.87341,12.77874],"properties":{"ward":16},"geometry":{"type":"Polygon","coordinates":[[[74.87306,12.77652],[74.87341,12.77506],[74.87238,12.77463],[74.86993,12.77295],[74.86973,12.77337],[74.87061,12.77385],[74.87035,12.77429],[74.87005,12.77437],[74.86974,12.77501],[74.86955,12.7767],[74.86917,12.77671],[74.8691,12.7772],[74.87129,12.7779],[74.87299,12.77874],[74.8732,12.77771],[74.87339,12.77763],[74.87329,12.77672],[74.87306,12.77652]]]}},{"type":"Feature","bbox":[74.86667,12.77066,74.87061,12.77748],"properties":{"ward":17},"geometry":{"type":"Polygon","coordinates":[[[74.86903,12.77746],[74.86917,12.77671],[74.86955,12.7767],[74.86974,12.77501],[74.87005,12.77437],[74.87035,12.77429],[74.87061,12.77384],[74.86973,12.77337],[74.86993,12.77295],[74.86706,12.77066],[74.86723,12.77201],[74.86704,12.7724],[74.8667,12.77242],[74.86667,12.7729],[74.86708,12.77301],[74.86679,12.77374],[74.86773,12.77479],[74.86731,12.77676],[74.86877,12.77748],[74.86903,12.77746]]]}}]}