{"type":"FeatureCollection","features":[{"type":"Feature","bbox":[78.61875,27.39745,78.62997,27.40682],"properties":{"ward":1,"name":"Rajpur Khas"},"geometry":{"type":"Polygon","coordinates":[[[78.62232,27.40614],[78.62363,27.40484],[78.62393,27.40482],[78.62435,27.40429],[78.62505,27.40488],[78.62709,27.40329],[78.62793,27.40403],[78.62866,27.40396],[78.62966,27.4029],[78.62997,27.40149],[78.6289,27.4009],[78.6282,27.40084],[78.62791,27.40108],[78.6275,27.40066],[78.62711,27.40098],[78.62645,27.40028],[78.62703,27.39968],[78.62698,27.39857],[78.6276,27.39774],[78.62724,27.39745],[78.62643,27.39848],[78.62647,27.39888],[78.62679,27.39933],[78.62675,27.39957],[78.62614,27.40028],[78.62538,27.40073],[78.62548,27.40089],[78.62412,27.40155],[78.62162,27.40419],[78.62133,27.4041],[78.62025,27.40514],[78.61921,27.40441],[78.61875,27.40499],[78.61951,27.40572],[78.6201,27.40519],[78.62067,27.40567],[78.62051,27.40581],[78.62062,27.40595],[78.62081,27.4058],[78.62137,27.40616],[78.62158,27.40682],[78.62173,27.40676],[78.62165,27.40634],[78.62232,27.40614]]]}},{"type":"Feature","bbox":[78.60753,27.39382,78.6283,27.40657],"properties":{"ward":2,"name":"Ganeshpur Nagriya"},"geometry":{"type":"Polygon","coordinates":[[[78.61875,27.40499],[78.61921,27.40441],[78.62025,27.40514],[78.62133,27.4041],[78.62162,27.40419],[78.62412,27.40155],[78.62548,27.40089],[78.62538,27.40073],[78.62656,27.39976],[78.62676,27.39936],[78.62631,27.39877],[78.62635,27.39844],[78.62696,27.39758],[78.62753,27.39714],[78.62766,27.39673],[78.6283,27.39638],[78.62771,27.39585],[78.62807,27.39529],[78.62737,27.3949],[78.6276,27.39382],[78.61926,27.39384],[78.61387,27.39443],[78.60922,27.39827],[78.608,27.3989],[78.60753,27.40548],[78.60766,27.40657],[78.60881,27.4054],[78.61022,27.40508],[78.61275,27.40536],[78.61364,27.40469],[78.61546,27.40458],[78.61651,27.40478],[78.61683,27.40544],[78.61875,27.40499]]]}},{"type":"Feature","bbox":[78.60339,27.39178,78.61683,27.41055],"properties":{"ward":3,"name":"Dharmpur"},"geometry":{"type":"Polygon","coordinates":[[[78.61463,27.40894],[78.61483,27.40808],[78.61601,27.40712],[78.61683,27.40544],[78.61651,27.40478],[78.61546,27.40458],[78.61364,27.40469],[78.61275,27.40536],[78.61022,27.40508],[78.60881,27.4054],[78.60766,27.40657],[78.60753,27.40548],[78.608,27.3989],[78.60922,27.39827],[78.61325,27.39494],[78.61257,27.39396],[78.61061,27.3927],[78.60971,27.39178],[78.6065,27.39429],[78.60603,27.39791],[78.60631,27.39817],[78.60518,27.39938],[78.60358,27.402],[78.60339,27.40448],[78.60406,27.40631],[78.60581,27.40797],[78.60555,27.40863],[78.60554,27.40935],[78.60612,27.4099],[78.60736,27.41034],[78.60819,27.41034],[78.60899,27.40988],[78.61002,27.40854],[78.61036,27.40835],[78.61358,27.41035],[78.61425,27.41055],[78.61479,27.41038],[78.61463,27.40894]]]}},{"type":"Feature","bbox":[78.6006,27.37345,78.61357,27.38304],"properties":{"ward":4,"name":"Mohalla Kila"},"geometry":{"type":"Polygon","coordinates":[[[78.60314,27.37927],[78.60411,27.3789],[78.60482,27.38003],[78.60523,27.3814],[78.6057,27.38132],[78.60552,27.38103],[78.60571,27.38098],[78.60592,27.38117],[78.60742,27.37995],[78.60765,27.37989],[78.60793,27.38007],[78.60888,27.38304],[78.61011,27.38246],[78.6104,27.3826],[78.61057,27.38225],[78.60978,27.38117],[78.61197,27.37993],[78.61085,27.37818],[78.61357,27.3767],[78.6114,27.37504],[78.6036,27.37345],[78.60139,27.37368],[78.6006,27.37438],[78.60068,27.37525],[78.60314,27.37927]]]}},{"type":"Feature","bbox":[78.60286,27.3789,78.60867,27.38327],"properties":{"ward":5,"name":"Mohalla Bazar"},"geometry":{"type":"Polygon","coordinates":[[[78.60858,27.38247],[78.60781,27.38022],[78.60758,27.37996],[78.60654,27.38086],[78.60644,27.38078],[78.60592,27.38117],[78.60571,27.38098],[78.60552,27.38103],[78.6057,27.38132],[78.60523,27.3814],[78.60482,27.38003],[78.60411,27.3789],[78.60314,27.37927],[78.60327,27.37948],[78.60286,27.37976],[78.60357,27.38093],[78.60446,27.38179],[78.60438,27.38223],[78.60465,27.3823],[78.60492,27.38263],[78.60521,27.38254],[78.60546,27.38266],[78.60536,27.38219],[78.60584,27.38182],[78.60617,27.38193],[78.60633,27.38171],[78.60653,27.38215],[78.60638,27.38259],[78.60662,27.38315],[78.60758,27.38234],[78.60829,27.38262],[78.60835,27.38327],[78.60867,27.38316],[78.60858,27.38247]]]}},{"type":"Feature","bbox":[78.604,27.38234,78.61175,27.39271],"properties":{"ward":6,"name":"Mohalla Ninour"},"geometry":{"type":"Polygon","coordinates":[[[78.607,27.39129],[78.60855,27.39271],[78.61175,27.39014],[78.60945,27.38575],[78.60977,27.38376],[78.6104,27.3826],[78.61019,27.38246],[78.60888,27.38304],[78.6088,27.3842],[78.60838,27.38585],[78.60645,27.38854],[78.60836,27.38554],[78.60863,27.38433],[78.60867,27.38316],[78.60835,27.38327],[78.60829,27.38262],[78.60758,27.38234],[78.60662,27.38315],[78.60637,27.38328],[78.60627,27.38308],[78.60597,27.38319],[78.60606,27.38335],[78.60645,27.38338],[78.60614,27.38371],[78.60624,27.38393],[78.60583,27.38405],[78.60597,27.38436],[78.60561,27.38448],[78.60562,27.38422],[78.6055,27.38419],[78.6049,27.38442],[78.60475,27.38433],[78.60466,27.3845],[78.60479,27.38469],[78.60446,27.38476],[78.60451,27.38488],[78.604,27.38521],[78.60414,27.38557],[78.604,27.3861],[78.60465,27.38606],[78.60475,27.38678],[78.60463,27.38681],[78.60483,27.38686],[78.60496,27.3872],[78.60422,27.38856],[78.60616,27.38964],[78.607,27.39129]]]}},{"type":"Feature","bbox":[78.59504,27.35181,78.60858,27.37377],"properties":{"ward":7,"name":"Nagla Sweta"},"geometry":{"type":"Polygon","coordinates":[[[78.60858,27.35381],[78.60696,27.35181],[78.60528,27.35271],[78.59774,27.3583],[78.59853,27.36007],[78.59715,27.36148],[78.59504,27.36267],[78.59607,27.36505],[78.59639,27.3686],[78.59573,27.37117],[78.59851,27.37253],[78.60139,27.37368],[78.6036,27.37345],[78.60532,27.37377],[78.60545,27.3688],[78.60534,27.36767],[78.60444,27.36746],[78.60389,27.36367],[78.60326,27.3619],[78.60305,27.36187],[78.60087,27.35937],[78.60064,27.35829],[78.60693,27.35456],[78.60858,27.35381]]]}},{"type":"Feature","bbox":[78.57417,27.37103,78.60496,27.40479],"properties":{"ward":8,"name":"Ramnagar"},"geometry":{"type":"Polygon","coordinates":[[[78.57962,27.40445],[78.5827,27.40257],[78.58466,27.39771],[78.58917,27.39617],[78.59921,27.3931],[78.60419,27.38862],[78.60496,27.3872],[78.60483,27.38686],[78.60463,27.38681],[78.60475,27.38678],[78.60465,27.38606],[78.60383,27.38611],[78.60384,27.38594],[78.60349,27.3859],[78.60316,27.38563],[78.60271,27.3857],[78.60146,27.38547],[78.60167,27.38273],[78.60215,27.3826],[78.60249,27.38229],[78.60319,27.38267],[78.6041,27.3827],[78.60451,27.38188],[78.60424,27.38144],[78.60357,27.38093],[78.60296,27.37996],[78.60286,27.37976],[78.60327,27.37948],[78.60068,27.37525],[78.6006,27.37438],[78.60139,27.37368],[78.59851,27.37253],[78.59573,27.37117],[78.59458,27.37103],[78.59159,27.37174],[78.58066,27.38027],[78.58059,27.38248],[78.58138,27.38388],[78.5761,27.40184],[78.57466,27.40242],[78.57417,27.40307],[78.5745,27.40381],[78.57589,27.40339],[78.57587,27.40423],[78.57763,27.40479],[78.57962,27.40468],[78.57962,27.40445]],[[78.59162,27.37679],[78.59163,27.37678],[78.59163,27.37678],[78.59162,27.37679]]]}},{"type":"Feature","bbox":[78.57751,27.35986,78.5964,27.37117],"properties":{"ward":9,"name":"Zeda"},"geometry":{"type":"Polygon","coordinates":[[[78.57776,27.36641],[78.57833,27.3664],[78.57828,27.3668],[78.57857,27.36701],[78.57878,27.36564],[78.57978,27.36459],[78.58049,27.36526],[78.58095,27.3651],[78.58126,27.36535],[78.58156,27.36532],[78.58233,27.36626],[78.59573,27.37117],[78.5964,27.36891],[78.59607,27.36505],[78.59504,27.36267],[78.59503,27.36163],[78.58173,27.36164],[78.5802,27.36124],[78.5786,27.35986],[78.57781,27.35999],[78.57802,27.36222],[78.57751,27.36435],[78.57776,27.36641]]]}},{"type":"Feature","bbox":[78.60945,27.38315,78.63121,27.39495],"properties":{"ward":10,"name":"Umedpur"},"geometry":{"type":"Polygon","coordinates":[[[78.62757,27.39495],[78.62786,27.39382],[78.62919,27.39382],[78.63088,27.39203],[78.63088,27.39183],[78.63117,27.39183],[78.63119,27.38988],[78.63088,27.38986],[78.63088,27.38689],[78.63116,27.38689],[78.63121,27.38402],[78.63088,27.38397],[78.63088,27.38317],[78.62887,27.38315],[78.62866,27.38344],[78.62845,27.38433],[78.62845,27.38527],[78.62868,27.38691],[78.62337,27.38695],[78.62219,27.38628],[78.61998,27.38642],[78.60945,27.38575],[78.61175,27.39014],[78.60971,27.39178],[78.61061,27.3927],[78.61257,27.39396],[78.61325,27.39494],[78.61387,27.39443],[78.61926,27.39384],[78.6276,27.39382],[78.62737,27.3949],[78.62757,27.39495]]]}},{"type":"Feature","bbox":[78.60146,27.38225,78.605,27.38611],"properties":{"ward":11,"name":"Nai Basti Thana"},"geometry":{"type":"Polygon","coordinates":[[[78.60401,27.3861],[78.60401,27.38521],[78.60452,27.38488],[78.60446,27.38476],[78.60426,27.38494],[78.60414,27.38473],[78.6044,27.38433],[78.60426,27.38403],[78.60389,27.38423],[78.60376,27.38395],[78.60402,27.38367],[78.60381,27.38341],[78.60467,27.38313],[78.60458,27.38298],[78.60478,27.38275],[78.605,27.38285],[78.60483,27.38244],[78.60442,27.38225],[78.6041,27.3827],[78.60361,27.38275],[78.60249,27.38229],[78.60215,27.3826],[78.60167,27.38273],[78.60146,27.38547],[78.60271,27.3857],[78.60316,27.38563],[78.60349,27.3859],[78.60384,27.38594],[78.60383,27.38611],[78.60401,27.3861]]]}},{"type":"Feature","bbox":[78.5827,27.38856,78.60855,27.41381],"properties":{"ward":12,"name":"Nagala Chitter"},"geometry":{"type":"Polygon","coordinates":[[[78.58672,27.41381],[78.60449,27.41369],[78.60554,27.40935],[78.60555,27.40863],[78.60581,27.40797],[78.60406,27.40631],[78.60339,27.40448],[78.60358,27.402],[78.60518,27.39938],[78.60631,27.39817],[78.60603,27.39791],[78.6065,27.39429],[78.60855,27.39271],[78.607,27.39129],[78.60616,27.38964],[78.60422,27.38856],[78.59921,27.3931],[78.58917,27.39617],[78.58466,27.39771],[78.5827,27.40257],[78.58672,27.41381]]]}},{"type":"Feature","bbox":[78.60945,27.37219,78.62901,27.38695],"properties":{"ward":13,"name":"Tejpur"},"geometry":{"type":"Polygon","coordinates":[[[78.62505,27.37257],[78.62227,27.37249],[78.61963,27.37219],[78.61942,27.37481],[78.61853,27.37705],[78.61357,27.3767],[78.61085,27.37818],[78.61197,27.37993],[78.60978,27.38117],[78.61057,27.38225],[78.60977,27.38376],[78.60945,27.38575],[78.61998,27.38642],[78.62219,27.38628],[78.62337,27.38695],[78.62868,27.38691],[78.62845,27.38433],[78.62866,27.38344],[78.62887,27.38315],[78.62901,27.37748],[78.62897,27.37501],[78.62851,27.37317],[78.62505,27.37257]]]}},{"type":"Feature","bbox":[78.5764,27.36465,78.59573,27.37661],"properties":{"ward":14,"name":"Zeda"},"geometry":{"type":"Polygon","coordinates":[[[78.57832,27.37134],[78.57843,27.37127],[78.58539,27.37661],[78.59159,27.37174],[78.59458,27.37103],[78.59573,27.37117],[78.5822,27.36624],[78.58154,27.3654],[78.58125,27.3654],[78.5809,27.36514],[78.5805,27.36533],[78.57979,27.36465],[78.57883,27.36567],[78.57862,27.36702],[78.57828,27.3668],[78.57833,27.3664],[78.5764,27.36663],[78.57832,27.37134]]]}},{"type":"Feature","bbox":[78.60375,27.38171,78.60662,27.38502],"properties":{"ward":15,"name":"Mohalla Kushwaha"},"geometry":{"type":"Polygon","coordinates":[[[78.60526,27.38502],[78.60552,27.38472],[78.6056,27.3844],[78.60594,27.38434],[78.6058,27.38404],[78.60624,27.38391],[78.60614,27.38371],[78.60638,27.38346],[78.60615,27.38336],[78.60618,27.38312],[78.60632,27.38309],[78.6064,27.38326],[78.60662,27.38315],[78.60638,27.38259],[78.60653,27.38215],[78.60633,27.38171],[78.60617,27.38193],[78.60584,27.38182],[78.6055,27.38207],[78.60539,27.38225],[78.60551,27.38265],[78.60499,27.3826],[78.60499,27.38285],[78.60477,27.38275],[78.60464,27.38286],[78.60466,27.38313],[78.60386,27.38345],[78.60403,27.38366],[78.60375,27.38395],[78.60388,27.38423],[78.60427,27.38403],[78.60442,27.38432],[78.60457,27.38432],[78.60429,27.38443],[78.60428,27.38474],[78.60475,27.38466],[78.60526,27.38502]]]}}]}