{"type":"FeatureCollection","features":[{"type":"Feature","bbox":[83.45073,27.4399,83.4718,27.46624],"properties":{"ward":1,"name":"Ambedkarnagar"},"geometry":{"type":"Polygon","coordinates":[[[83.45073,27.45816],[83.45248,27.45974],[83.45498,27.46285],[83.45638,27.46392],[83.45739,27.46445],[83.45795,27.46582],[83.45898,27.46624],[83.46003,27.465],[83.46181,27.46349],[83.4619,27.46102],[83.46319,27.45416],[83.46426,27.45416],[83.46569,27.45351],[83.46651,27.45373],[83.46749,27.45319],[83.46936,27.45276],[83.4718,27.45351],[83.47145,27.45223],[83.47084,27.45182],[83.4693,27.45009],[83.46705,27.44629],[83.46558,27.44514],[83.46868,27.44426],[83.46763,27.44325],[83.46698,27.44308],[83.4655,27.4421],[83.46341,27.44137],[83.46274,27.44082],[83.45995,27.4399],[83.4591,27.4417],[83.45902,27.44275],[83.45937,27.44558],[83.45889,27.44558],[83.45767,27.44514],[83.45647,27.44514],[83.45534,27.44479],[83.45407,27.44532],[83.45301,27.44704],[83.45307,27.44854],[83.45357,27.45],[83.45399,27.4507],[83.4553,27.45192],[83.45656,27.4534],[83.45613,27.45405],[83.45551,27.45405],[83.45498,27.4546],[83.45182,27.45557],[83.45115,27.45662],[83.45073,27.45816]]]}},{"type":"Feature","bbox":[83.42616,27.44594,83.44134,27.46393],"properties":{"ward":2,"name":"Chandrashekharnagar"},"geometry":{"type":"Polygon","coordinates":[[[83.44116,27.4546],[83.44134,27.45339],[83.44039,27.45161],[83.43947,27.4509],[83.43833,27.44883],[83.43827,27.44621],[83.43751,27.44594],[83.43618,27.44649],[83.43562,27.44713],[83.43399,27.44741],[83.43352,27.44798],[83.43247,27.44817],[83.43189,27.44847],[83.43041,27.44866],[83.42865,27.44923],[83.42616,27.44962],[83.42676,27.45011],[83.42709,27.45121],[83.4285,27.45255],[83.42875,27.45382],[83.42859,27.45653],[83.42976,27.45795],[83.43014,27.45939],[83.43084,27.46077],[83.43122,27.46233],[83.43137,27.4638],[83.43213,27.46393],[83.43334,27.46339],[83.43405,27.46286],[83.43406,27.46092],[83.43423,27.46017],[83.43661,27.45917],[83.4376,27.45793],[83.43675,27.45607],[83.43661,27.45493],[83.43746,27.45472],[83.44116,27.4546]]]}},{"type":"Feature","bbox":[83.46699,27.44463,83.48422,27.47213],"properties":{"ward":3,"name":"Shashtrinagar"},"geometry":{"type":"Polygon","coordinates":[[[83.47958,27.47213],[83.48197,27.47181],[83.48422,27.4718],[83.48348,27.46931],[83.48295,27.46677],[83.48207,27.46512],[83.48137,27.46289],[83.4809,27.45987],[83.47924,27.45397],[83.47788,27.45174],[83.47645,27.45026],[83.47587,27.44898],[83.47522,27.44814],[83.47414,27.44809],[83.47258,27.44554],[83.47199,27.44501],[83.47116,27.44463],[83.46953,27.44463],[83.46768,27.44482],[83.46699,27.44511],[83.46744,27.44645],[83.46809,27.44681],[83.4685,27.44773],[83.46947,27.44934],[83.47,27.44993],[83.47046,27.45091],[83.47111,27.45149],[83.47165,27.45171],[83.47241,27.45333],[83.47375,27.45513],[83.47707,27.46296],[83.47821,27.46644],[83.47958,27.47213]]]}},{"type":"Feature","bbox":[83.43232,27.45486,83.44633,27.4733],"properties":{"ward":4,"name":"Madhavramnagar"},"geometry":{"type":"MultiPolygon","coordinates":[[[[83.44137,27.45486],[83.44184,27.45541],[83.44238,27.45559],[83.44137,27.45486]]],[[[83.44184,27.45541],[83.44092,27.45511],[83.43716,27.45545],[83.43765,27.45673],[83.43805,27.45708],[83.43838,27.45807],[83.43826,27.4589],[83.4375,27.4591],[83.43658,27.45967],[83.43547,27.46064],[83.43479,27.46073],[83.43455,27.46191],[83.43459,27.46261],[83.43432,27.46365],[83.43379,27.46364],[83.43293,27.46453],[83.43232,27.46454],[83.43246,27.4659],[83.43284,27.4674],[83.43401,27.47008],[83.43491,27.47008],[83.4354,27.47085],[83.43842,27.4707],[83.43927,27.47107],[83.4404,27.47237],[83.4411,27.47276],[83.44316,27.4733],[83.44566,27.47316],[83.44615,27.47156],[83.44576,27.46806],[83.44633,27.46712],[83.44612,27.46598],[83.44445,27.46497],[83.4461,27.46464],[83.4459,27.46367],[83.44507,27.46304],[83.44465,27.46159],[83.44504,27.46022],[83.4445,27.45889],[83.4433,27.45706],[83.44241,27.45662],[83.44243,27.4561],[83.44184,27.45541]]]]}},{"type":"Feature","bbox":[83.44331,27.45573,83.45764,27.47325],"properties":{"ward":5,"name":"Gautambuddhnagar"},"geometry":{"type":"Polygon","coordinates":[[[83.44717,27.47243],[83.44763,27.47302],[83.4538,27.47325],[83.45382,27.47231],[83.45461,27.47106],[83.45671,27.46972],[83.45764,27.46718],[83.45393,27.46302],[83.45253,27.46185],[83.45039,27.45919],[83.44906,27.45862],[83.44805,27.45798],[83.44646,27.45766],[83.44516,27.45687],[83.44409,27.45573],[83.44331,27.45588],[83.44449,27.45798],[83.44575,27.45963],[83.44598,27.46239],[83.44661,27.46349],[83.44657,27.4651],[83.44705,27.46649],[83.44681,27.47015],[83.44717,27.47243]]]}},{"type":"Feature","bbox":[83.43211,27.43801,83.44279,27.44559],"properties":{"ward":6,"name":"Gandhinagar"},"geometry":{"type":"Polygon","coordinates":[[[83.43739,27.44558],[83.43909,27.44559],[83.44019,27.44524],[83.44134,27.4444],[83.44279,27.43972],[83.44167,27.43943],[83.44122,27.43878],[83.43409,27.43801],[83.43317,27.43921],[83.4322,27.43979],[83.43211,27.44082],[83.43409,27.44324],[83.43587,27.44365],[83.4365,27.44481],[83.43739,27.44558]]]}},{"type":"Feature","bbox":[83.43906,27.44431,83.45276,27.45096],"properties":{"ward":7,"name":"Rahulnagar"},"geometry":{"type":"Polygon","coordinates":[[[83.43998,27.44611],[83.43929,27.4462],[83.43906,27.44717],[83.43907,27.44809],[83.43996,27.44988],[83.44084,27.45096],[83.44342,27.45076],[83.44504,27.45037],[83.44615,27.45036],[83.44815,27.44988],[83.45043,27.44969],[83.45246,27.44912],[83.45276,27.44846],[83.45227,27.447],[83.45225,27.44602],[83.45017,27.44456],[83.44908,27.44431],[83.44798,27.44456],[83.44527,27.44456],[83.44118,27.44498],[83.43998,27.44611]]]}},{"type":"Feature","bbox":[83.42334,27.44098,83.4366,27.44924],"properties":{"ward":8,"name":"Siddharthnagar"},"geometry":{"type":"MultiPolygon","coordinates":[[[[83.4302,27.44167],[83.431,27.44144],[83.43123,27.44121],[83.4302,27.44167]]],[[[83.4302,27.44167],[83.42643,27.44175],[83.42501,27.44215],[83.42374,27.44215],[83.42334,27.44278],[83.42435,27.44467],[83.42426,27.44693],[83.42497,27.44792],[83.42552,27.4481],[83.42628,27.44886],[83.42818,27.44924],[83.43183,27.4481],[83.4362,27.44628],[83.4366,27.44541],[83.43466,27.44357],[83.43312,27.44259],[83.43207,27.44098],[83.43075,27.44167],[83.43044,27.44167],[83.42461,27.44417],[83.4302,27.44167]]]]}},{"type":"Feature","bbox":[83.44228,27.43907,83.45953,27.44602],"properties":{"ward":9,"name":"Subhashnagar"},"geometry":{"type":"Polygon","coordinates":[[[83.44228,27.4444],[83.44285,27.44456],[83.44792,27.44406],[83.44981,27.44422],[83.45142,27.44533],[83.45285,27.44602],[83.45284,27.44567],[83.45337,27.44593],[83.45428,27.44472],[83.45544,27.44455],[83.45649,27.4448],[83.45826,27.44489],[83.45902,27.44514],[83.45891,27.44227],[83.45953,27.43992],[83.45395,27.43913],[83.44348,27.43907],[83.44316,27.44061],[83.44276,27.44106],[83.44266,27.4419],[83.44237,27.44253],[83.44228,27.4444]]]}},{"type":"Feature","bbox":[83.45507,27.454,83.46698,27.47335],"properties":{"ward":10,"name":"Jankinagar"},"geometry":{"type":"Polygon","coordinates":[[[83.45507,27.47263],[83.45694,27.47323],[83.45885,27.47335],[83.46173,27.47322],[83.46495,27.47274],[83.46407,27.47145],[83.46228,27.4709],[83.46287,27.47033],[83.46321,27.46947],[83.46361,27.46703],[83.46353,27.46643],[83.46536,27.46613],[83.46698,27.46503],[83.46659,27.45736],[83.46587,27.454],[83.46467,27.4545],[83.46366,27.45457],[83.46325,27.4559],[83.46333,27.45767],[83.46261,27.45913],[83.4626,27.46118],[83.46221,27.46233],[83.46235,27.46351],[83.46042,27.46563],[83.45969,27.46602],[83.45902,27.46661],[83.45807,27.46903],[83.45545,27.47136],[83.45507,27.47263]]]}},{"type":"Feature","bbox":[83.46371,27.46151,83.47811,27.47066],"properties":{"ward":11,"name":"Valmiki Nagar"},"geometry":{"type":"Polygon","coordinates":[[[83.46646,27.46754],[83.4664,27.46622],[83.46562,27.46662],[83.46426,27.46703],[83.46386,27.46807],[83.46371,27.4699],[83.46422,27.47044],[83.4649,27.47066],[83.46562,27.46923],[83.4663,27.46956],[83.46705,27.46956],[83.47149,27.46891],[83.47281,27.46891],[83.476,27.46817],[83.47716,27.46826],[83.47806,27.46868],[83.47811,27.46721],[83.47763,27.4664],[83.47718,27.46483],[83.47581,27.46151],[83.47172,27.46186],[83.47079,27.46232],[83.46981,27.46241],[83.46987,27.46388],[83.4706,27.46744],[83.46933,27.46786],[83.46763,27.46808],[83.46691,27.46838],[83.46646,27.46754]]]}},{"type":"Feature","bbox":[83.4644,27.46902,83.47873,27.47322],"properties":{"ward":12,"name":"Ghanshyamnagar"},"geometry":{"type":"Polygon","coordinates":[[[83.46476,27.4718],[83.46527,27.47156],[83.46529,27.47262],[83.46636,27.47322],[83.46721,27.47274],[83.47295,27.47286],[83.47477,27.47227],[83.47638,27.47261],[83.47755,27.47237],[83.47867,27.47237],[83.47873,27.47088],[83.47854,27.46944],[83.4768,27.46902],[83.47499,27.46912],[83.47125,27.46988],[83.46824,27.47],[83.46574,27.47032],[83.4644,27.47077],[83.46476,27.4718]]]}},{"type":"Feature","bbox":[83.46616,27.45343,83.4756,27.46786],"properties":{"ward":13,"name":"Bishmilnagar"},"geometry":{"type":"Polygon","coordinates":[[[83.46741,27.46427],[83.46702,27.46582],[83.46713,27.46786],[83.46849,27.46745],[83.46895,27.46714],[83.46975,27.46703],[83.46985,27.46543],[83.46929,27.46249],[83.47021,27.46187],[83.47196,27.46133],[83.47331,27.46134],[83.47424,27.46107],[83.47547,27.46124],[83.4756,27.46029],[83.47523,27.45986],[83.47424,27.45696],[83.47343,27.45581],[83.473,27.45478],[83.47213,27.45392],[83.47155,27.45364],[83.47039,27.45343],[83.46879,27.4535],[83.46793,27.45364],[83.46616,27.45428],[83.46651,27.45582],[83.4669,27.45666],[83.46713,27.46196],[83.46741,27.46427]]]}},{"type":"Feature","bbox":[83.44221,27.44912,83.45586,27.45684],"properties":{"ward":14,"name":"Lohiyanagar"},"geometry":{"type":"Polygon","coordinates":[[[83.44305,27.45126],[83.44221,27.4531],[83.44298,27.45362],[83.44412,27.4548],[83.44535,27.45514],[83.44629,27.45637],[83.44773,27.45683],[83.45039,27.45684],[83.45065,27.45579],[83.45115,27.455],[83.45333,27.45471],[83.45422,27.45384],[83.45586,27.45364],[83.45522,27.45259],[83.45429,27.45175],[83.45361,27.45067],[83.45301,27.44912],[83.45075,27.44998],[83.44909,27.45017],[83.44709,27.45066],[83.44421,27.45086],[83.44305,27.45126]]]}}]}