{"type":"FeatureCollection","features":[{"type":"Feature","bbox":[77.3412,28.62296,77.34266,28.62398],"properties":{"ward":1},"geometry":{"type":"Polygon","coordinates":[[[77.3412,28.62398],[77.34266,28.6236],[77.34246,28.62296],[77.3412,28.62398]]]}},{"type":"Feature","bbox":[77.33505,28.62622,77.34017,28.62945],"properties":{"ward":2},"geometry":{"type":"Polygon","coordinates":[[[77.33505,28.62821],[77.33607,28.62945],[77.33682,28.62889],[77.33712,28.62927],[77.3386,28.62829],[77.33834,28.62795],[77.34015,28.62681],[77.34007,28.62654],[77.34017,28.62644],[77.34004,28.62622],[77.33981,28.6263],[77.33836,28.62719],[77.3378,28.62646],[77.33505,28.62821]]]}},{"type":"Feature","bbox":[77.33783,28.62435,77.3411,28.62713],"properties":{"ward":3},"geometry":{"type":"Polygon","coordinates":[[[77.33783,28.62643],[77.33837,28.62713],[77.34006,28.62616],[77.34024,28.62644],[77.34012,28.62655],[77.34022,28.62679],[77.3411,28.62645],[77.34028,28.62566],[77.34104,28.62504],[77.3408,28.62435],[77.33783,28.62643]]]}},{"type":"Feature","bbox":[77.34034,28.62242,77.34495,28.62682],"properties":{"ward":4},"geometry":{"type":"Polygon","coordinates":[[[77.34113,28.6241],[77.34085,28.62434],[77.3411,28.62506],[77.34034,28.62563],[77.34149,28.62669],[77.34179,28.62644],[77.34205,28.62665],[77.34259,28.6264],[77.34296,28.62682],[77.34366,28.62653],[77.34282,28.62502],[77.34315,28.62478],[77.34372,28.62466],[77.34379,28.62436],[77.34495,28.62362],[77.3438,28.62242],[77.3425,28.62293],[77.34275,28.62363],[77.34113,28.6241]]]}},{"type":"Feature","bbox":[77.3403,28.62874,77.34434,28.63193],"properties":{"ward":5},"geometry":{"type":"Polygon","coordinates":[[[77.3403,28.63193],[77.34364,28.63187],[77.34275,28.63067],[77.34363,28.63006],[77.34378,28.63021],[77.34434,28.62981],[77.34324,28.62874],[77.34258,28.62905],[77.34096,28.63038],[77.34109,28.63079],[77.34039,28.63078],[77.3403,28.63193]]]}},{"type":"Feature","bbox":[77.34258,28.61345,77.34472,28.61815],"properties":{"ward":6},"geometry":{"type":"Polygon","coordinates":[[[77.34258,28.61383],[77.34271,28.617],[77.34304,28.61815],[77.34367,28.61794],[77.34307,28.61672],[77.34362,28.6166],[77.34335,28.61558],[77.34373,28.61552],[77.34386,28.61565],[77.34472,28.61511],[77.3434,28.61345],[77.34258,28.61383]]]}},{"type":"Feature","bbox":[77.3361,28.62648,77.34163,28.63099],"properties":{"ward":7},"geometry":{"type":"Polygon","coordinates":[[[77.3361,28.62953],[77.33733,28.63099],[77.33892,28.63055],[77.33911,28.6304],[77.33859,28.62992],[77.33952,28.62923],[77.33921,28.62891],[77.34163,28.62694],[77.34113,28.62648],[77.34016,28.62688],[77.33844,28.62797],[77.33871,28.62831],[77.33825,28.62862],[77.33711,28.62936],[77.33683,28.62898],[77.3361,28.62953]]]}},{"type":"Feature","bbox":[77.34257,28.61209,77.34464,28.61371],"properties":{"ward":8},"geometry":{"type":"Polygon","coordinates":[[[77.3426,28.61371],[77.34464,28.61272],[77.34427,28.61209],[77.34257,28.61253],[77.3426,28.61371]]]}},{"type":"Feature","bbox":[77.34311,28.61497,77.34735,28.6181],"properties":{"ward":9},"geometry":{"type":"Polygon","coordinates":[[[77.34311,28.61676],[77.3438,28.6181],[77.34413,28.61795],[77.34419,28.61808],[77.34585,28.61724],[77.34621,28.61771],[77.34735,28.61692],[77.34673,28.61623],[77.3465,28.61639],[77.34631,28.6161],[77.3462,28.61621],[77.34555,28.61522],[77.34534,28.61533],[77.34505,28.61497],[77.34385,28.61571],[77.3437,28.61556],[77.3434,28.61561],[77.34369,28.61661],[77.34311,28.61676]]]}},{"type":"Feature","bbox":[77.34886,28.61537,77.35454,28.62103],"properties":{"ward":10},"geometry":{"type":"Polygon","coordinates":[[[77.34943,28.61898],[77.34994,28.62004],[77.35061,28.61984],[77.35042,28.61936],[77.35272,28.61866],[77.35275,28.62103],[77.35376,28.62001],[77.35454,28.62067],[77.35442,28.61753],[77.35291,28.61762],[77.3529,28.61697],[77.35252,28.61603],[77.35255,28.61537],[77.34991,28.61592],[77.34886,28.6164],[77.34957,28.61716],[77.35022,28.61836],[77.34943,28.61898]]]}},{"type":"Feature","bbox":[77.34281,28.61872,77.34525,28.62059],"properties":{"ward":11},"geometry":{"type":"Polygon","coordinates":[[[77.343,28.62059],[77.34375,28.62057],[77.34525,28.6198],[77.3448,28.61911],[77.34446,28.61925],[77.34413,28.61872],[77.34332,28.61906],[77.34331,28.61931],[77.34281,28.61934],[77.343,28.62059]]]}},{"type":"Feature","bbox":[77.34347,28.61151,77.34796,28.61632],"properties":{"ward":12},"geometry":{"type":"Polygon","coordinates":[[[77.34347,28.6134],[77.3448,28.61506],[77.34507,28.61488],[77.34536,28.61524],[77.34557,28.61513],[77.34609,28.61595],[77.34651,28.61632],[77.34774,28.61542],[77.34737,28.61505],[77.34796,28.61485],[77.34688,28.61313],[77.34703,28.61305],[77.34612,28.61177],[77.34634,28.61167],[77.34625,28.61151],[77.34437,28.61207],[77.34479,28.61275],[77.34347,28.6134]]]}},{"type":"Feature","bbox":[77.34802,28.62619,77.35492,28.6293],"properties":{"ward":13},"geometry":{"type":"Polygon","coordinates":[[[77.34802,28.62901],[77.34897,28.62895],[77.34902,28.62919],[77.35048,28.62896],[77.35058,28.6293],[77.35163,28.6289],[77.35192,28.62902],[77.35231,28.62884],[77.35317,28.62812],[77.35492,28.62811],[77.35482,28.62619],[77.35351,28.62642],[77.35359,28.6266],[77.35232,28.62689],[77.35238,28.62715],[77.35191,28.62724],[77.35205,28.62791],[77.34823,28.62756],[77.34802,28.62901]]]}},{"type":"Feature","bbox":[77.34725,28.61079,77.34945,28.61175],"properties":{"ward":14},"geometry":{"type":"Polygon","coordinates":[[[77.34758,28.61175],[77.34853,28.61117],[77.34888,28.61175],[77.34919,28.61155],[77.34889,28.61106],[77.34945,28.61079],[77.34725,28.61127],[77.34758,28.61175]]]}},{"type":"Feature","bbox":[77.34265,28.61703,77.34706,28.61951],"properties":{"ward":15},"geometry":{"type":"Polygon","coordinates":[[[77.34282,28.61933],[77.34329,28.61929],[77.3433,28.61905],[77.34414,28.61869],[77.34448,28.61921],[77.34554,28.61871],[77.34601,28.61951],[77.34658,28.61927],[77.34706,28.61866],[77.34584,28.61729],[77.34417,28.61812],[77.34412,28.61799],[77.34379,28.61813],[77.34369,28.61796],[77.34302,28.61818],[77.34265,28.61703],[77.34282,28.61933]]]}},{"type":"Feature","bbox":[77.3387,28.62699,77.34318,28.63075],"properties":{"ward":16},"geometry":{"type":"Polygon","coordinates":[[[77.3404,28.6307],[77.34103,28.63075],[77.34089,28.63037],[77.34255,28.62902],[77.34318,28.62871],[77.34167,28.62699],[77.33932,28.62891],[77.33963,28.62921],[77.3387,28.62993],[77.33924,28.63043],[77.3404,28.6302],[77.3404,28.6307]]]}},{"type":"Feature","bbox":[77.34752,28.62008,77.3548,28.62597],"properties":{"ward":17},"geometry":{"type":"Polygon","coordinates":[[[77.34884,28.62597],[77.35042,28.6255],[77.35243,28.62457],[77.35251,28.62491],[77.35303,28.62556],[77.35386,28.62585],[77.3548,28.62583],[77.35452,28.62073],[77.35377,28.62008],[77.35258,28.62136],[77.35284,28.62205],[77.35182,28.62249],[77.35124,28.62166],[77.35076,28.6218],[77.35063,28.6216],[77.34914,28.62227],[77.3491,28.62254],[77.34958,28.62349],[77.34913,28.62368],[77.34913,28.62392],[77.3484,28.62413],[77.34814,28.62368],[77.34752,28.6239],[77.34884,28.62597]]]}},{"type":"Feature","bbox":[77.34619,28.61129,77.34906,28.61482],"properties":{"ward":18},"geometry":{"type":"Polygon","coordinates":[[[77.34628,28.61149],[77.34639,28.61168],[77.34619,28.61178],[77.34709,28.61306],[77.34695,28.61313],[77.34801,28.61482],[77.34906,28.61434],[77.34852,28.6132],[77.34871,28.61304],[77.34721,28.61129],[77.34628,28.61149]]]}},{"type":"Feature","bbox":[77.34253,28.62062,77.34455,28.62287],"properties":{"ward":19},"geometry":{"type":"Polygon","coordinates":[[[77.34299,28.62062],[77.34307,28.62245],[77.34253,28.62287],[77.34375,28.62239],[77.34312,28.62162],[77.34421,28.622],[77.34455,28.62083],[77.34299,28.62062]]]}},{"type":"Feature","bbox":[77.3438,28.61877,77.34773,28.62242],"properties":{"ward":20},"geometry":{"type":"Polygon","coordinates":[[[77.3438,28.62059],[77.34463,28.62082],[77.34426,28.622],[77.34513,28.62242],[77.34673,28.62143],[77.34661,28.62128],[77.34773,28.62037],[77.34661,28.61932],[77.34599,28.61957],[77.34554,28.61877],[77.34485,28.61908],[77.34533,28.61983],[77.3438,28.62059]]]}},{"type":"Feature","bbox":[77.34624,28.61545,77.35013,28.61998],"properties":{"ward":21},"geometry":{"type":"Polygon","coordinates":[[[77.3474,28.61998],[77.34846,28.61921],[77.34961,28.61888],[77.35013,28.61835],[77.34947,28.61716],[77.34783,28.61545],[77.34681,28.61618],[77.34747,28.61689],[77.34624,28.61777],[77.34713,28.61865],[77.3466,28.61921],[77.3474,28.61998]]]}},{"type":"Feature","bbox":[77.34156,28.62483,77.34581,28.62976],"properties":{"ward":22},"geometry":{"type":"Polygon","coordinates":[[[77.34437,28.62976],[77.34581,28.62882],[77.34312,28.62483],[77.34288,28.62504],[77.34373,28.62656],[77.34295,28.62686],[77.34256,28.62647],[77.34204,28.62671],[77.34181,28.62652],[77.34156,28.62673],[77.34437,28.62976]]]}},{"type":"Feature","bbox":[77.34824,28.62463,77.35481,28.62783],"properties":{"ward":23},"geometry":{"type":"Polygon","coordinates":[[[77.34824,28.62749],[77.35195,28.62783],[77.35182,28.62722],[77.35232,28.62711],[77.35226,28.62687],[77.35352,28.62657],[77.35345,28.6264],[77.35481,28.62616],[77.3548,28.62587],[77.35381,28.62588],[77.353,28.62565],[77.35267,28.6253],[77.3524,28.62463],[77.35044,28.62555],[77.34839,28.62618],[77.34824,28.62749]]]}},{"type":"Feature","bbox":[77.34748,28.61355,77.35255,28.61633],"properties":{"ward":24},"geometry":{"type":"Polygon","coordinates":[[[77.34882,28.61633],[77.34984,28.61587],[77.35255,28.61531],[77.35223,28.61355],[77.34905,28.61419],[77.34914,28.61438],[77.34748,28.61506],[77.34851,28.61589],[77.34882,28.61633]]]}},{"type":"Feature","bbox":[77.35231,28.61314,77.35442,28.61756],"properties":{"ward":25},"geometry":{"type":"Polygon","coordinates":[[[77.35297,28.61756],[77.35442,28.61748],[77.35418,28.61314],[77.35231,28.61353],[77.35264,28.61527],[77.35259,28.61593],[77.35298,28.61703],[77.35297,28.61756]]]}},{"type":"Feature","bbox":[77.3472,28.61873,77.35278,28.62243],"properties":{"ward":26},"geometry":{"type":"Polygon","coordinates":[[[77.35186,28.62243],[77.35278,28.62203],[77.35252,28.62135],[77.35275,28.62071],[77.35264,28.61873],[77.35049,28.61938],[77.3507,28.61985],[77.34989,28.6201],[77.34934,28.61893],[77.34851,28.61924],[77.34745,28.62005],[77.34781,28.62037],[77.3472,28.62098],[77.34748,28.62125],[77.34837,28.62075],[77.34875,28.62104],[77.34912,28.62224],[77.35066,28.62155],[77.3508,28.62175],[77.35127,28.62159],[77.35186,28.62243]]]}},{"type":"Feature","bbox":[77.34317,28.62366,77.34741,28.62826],"properties":{"ward":27},"geometry":{"type":"Polygon","coordinates":[[[77.34559,28.62826],[77.34741,28.626],[77.34596,28.62482],[77.34498,28.62366],[77.34383,28.62438],[77.34378,28.62468],[77.34317,28.62487],[77.34559,28.62826]]]}},{"type":"Feature","bbox":[77.35167,28.61089,77.35421,28.61346],"properties":{"ward":28},"geometry":{"type":"Polygon","coordinates":[[[77.3524,28.61346],[77.35421,28.61306],[77.35385,28.61118],[77.35167,28.61089],[77.3524,28.61346]]]}},{"type":"Feature","bbox":[77.34313,28.62165,77.3488,28.6261],"properties":{"ward":29},"geometry":{"type":"Polygon","coordinates":[[[77.34313,28.62165],[77.34697,28.62557],[77.34751,28.62596],[77.34813,28.6261],[77.3488,28.62603],[77.34617,28.62183],[77.34511,28.62249],[77.34313,28.62165]]]}},{"type":"Feature","bbox":[77.34622,28.62083,77.34952,28.62408],"properties":{"ward":30},"geometry":{"type":"Polygon","coordinates":[[[77.34622,28.6218],[77.3475,28.62386],[77.34818,28.62361],[77.34844,28.62408],[77.34908,28.62388],[77.34909,28.62366],[77.34952,28.62347],[77.34902,28.62251],[77.34911,28.62237],[77.34868,28.6211],[77.34834,28.62083],[77.34748,28.62133],[77.34713,28.621],[77.3467,28.62129],[77.34682,28.62143],[77.34622,28.6218]]]}},{"type":"Feature","bbox":[77.34771,28.62902,77.35088,28.63177],"properties":{"ward":31},"geometry":{"type":"Polygon","coordinates":[[[77.34771,28.63177],[77.35005,28.63173],[77.35015,28.6315],[77.35088,28.63144],[77.35088,28.62929],[77.35053,28.62936],[77.35043,28.62902],[77.34897,28.62923],[77.34893,28.62902],[77.34803,28.62908],[77.34771,28.63177]]]}},{"type":"Feature","bbox":[77.3476,28.61067,77.35232,28.61416],"properties":{"ward":32},"geometry":{"type":"Polygon","coordinates":[[[77.3485,28.61125],[77.3476,28.61178],[77.3488,28.61304],[77.34859,28.61321],[77.34885,28.61358],[77.34895,28.61416],[77.35232,28.61348],[77.35159,28.61088],[77.35009,28.61067],[77.34954,28.61079],[77.34897,28.61107],[77.34929,28.61158],[77.34886,28.61181],[77.3485,28.61125]]]}},{"type":"Feature","bbox":[77.34285,28.62888,77.34767,28.63186],"properties":{"ward":33},"geometry":{"type":"Polygon","coordinates":[[[77.34371,28.63186],[77.34761,28.63179],[77.34767,28.63126],[77.34603,28.62936],[77.34582,28.62888],[77.34374,28.63027],[77.34361,28.63013],[77.34285,28.6307],[77.34371,28.63186]]]}},{"type":"Feature","bbox":[77.34565,28.62605,77.34832,28.63117],"properties":{"ward":34},"geometry":{"type":"Polygon","coordinates":[[[77.34766,28.63117],[77.34832,28.62618],[77.34747,28.62605],[77.34565,28.62831],[77.34609,28.62935],[77.34766,28.63117]]]}}]}