{"type":"FeatureCollection","features":[{"type":"Feature","bbox":[78.59661,17.40915,78.6186,17.4193],"properties":{"ward":1},"geometry":{"type":"Polygon","coordinates":[[[78.6186,17.41822],[78.61774,17.41386],[78.61268,17.41224],[78.61022,17.4125],[78.60934,17.41233],[78.60109,17.40915],[78.6002,17.41156],[78.60056,17.41155],[78.60068,17.41196],[78.60215,17.41201],[78.60191,17.41313],[78.59913,17.41324],[78.59661,17.4137],[78.59924,17.4193],[78.60286,17.41801],[78.6069,17.41708],[78.60702,17.41768],[78.60814,17.41854],[78.6186,17.41822]]]}},{"type":"Feature","bbox":[78.60455,17.40029,78.62329,17.41386],"properties":{"ward":2},"geometry":{"type":"Polygon","coordinates":[[[78.62329,17.40029],[78.62011,17.40163],[78.61796,17.40218],[78.61691,17.40261],[78.61277,17.40284],[78.6094,17.40258],[78.60847,17.40268],[78.60767,17.40222],[78.60608,17.40186],[78.60641,17.40322],[78.60548,17.40563],[78.60514,17.40607],[78.605,17.40668],[78.60554,17.40864],[78.60517,17.40874],[78.60527,17.40936],[78.60487,17.40946],[78.6048,17.41015],[78.60455,17.41051],[78.60934,17.41233],[78.61022,17.4125],[78.61268,17.41224],[78.61774,17.41386],[78.61767,17.41218],[78.62089,17.40691],[78.6203,17.40542],[78.62326,17.4045],[78.62329,17.40029]]]}},{"type":"Feature","bbox":[78.60474,17.39249,78.62329,17.40284],"properties":{"ward":3},"geometry":{"type":"Polygon","coordinates":[[[78.62329,17.40029],[78.62151,17.39638],[78.62057,17.39249],[78.61704,17.39301],[78.61701,17.39283],[78.61411,17.39287],[78.61155,17.39408],[78.61143,17.39434],[78.61106,17.39448],[78.61095,17.39494],[78.61056,17.39498],[78.60935,17.3951],[78.60915,17.39366],[78.60495,17.39417],[78.60511,17.39847],[78.60474,17.39958],[78.60493,17.40118],[78.60511,17.40117],[78.60514,17.40141],[78.60603,17.40166],[78.60608,17.40186],[78.60767,17.40222],[78.60847,17.40268],[78.6094,17.40258],[78.61277,17.40284],[78.61691,17.40261],[78.61796,17.40218],[78.62011,17.40163],[78.62329,17.40029]]]}},{"type":"Feature","bbox":[78.60976,17.38636,78.62057,17.39446],"properties":{"ward":4},"geometry":{"type":"Polygon","coordinates":[[[78.62057,17.39249],[78.62018,17.38863],[78.6196,17.38636],[78.61656,17.38656],[78.6142,17.38717],[78.61059,17.38757],[78.6102,17.39067],[78.61052,17.39147],[78.61031,17.39152],[78.61018,17.39192],[78.61028,17.39253],[78.61016,17.39299],[78.60976,17.39336],[78.61018,17.39426],[78.61088,17.39446],[78.61131,17.39441],[78.61155,17.39408],[78.61411,17.39287],[78.61701,17.39283],[78.61704,17.39301],[78.62057,17.39249]]]}},{"type":"Feature","bbox":[78.60317,17.38742,78.61106,17.3951],"properties":{"ward":5},"geometry":{"type":"Polygon","coordinates":[[[78.61106,17.39448],[78.61018,17.39426],[78.60976,17.39336],[78.61016,17.39299],[78.61028,17.39253],[78.61018,17.39192],[78.61031,17.39152],[78.61052,17.39147],[78.6102,17.39067],[78.61059,17.38757],[78.6047,17.38742],[78.60317,17.38759],[78.60335,17.39118],[78.60353,17.39122],[78.6037,17.3925],[78.605,17.39374],[78.60495,17.39417],[78.60915,17.39366],[78.60935,17.3951],[78.61095,17.39494],[78.61106,17.39448]]]}},{"type":"Feature","bbox":[78.5933,17.38759,78.60335,17.39497],"properties":{"ward":6},"geometry":{"type":"Polygon","coordinates":[[[78.59497,17.39383],[78.59738,17.39221],[78.59812,17.39193],[78.60175,17.39102],[78.60335,17.39118],[78.60317,17.38759],[78.60101,17.38789],[78.60077,17.38774],[78.60004,17.38799],[78.59868,17.38791],[78.59849,17.38812],[78.59813,17.38803],[78.59757,17.38834],[78.59693,17.38801],[78.59376,17.38793],[78.59354,17.39104],[78.59417,17.39162],[78.59377,17.39201],[78.59394,17.3926],[78.59364,17.3932],[78.59357,17.39392],[78.5933,17.3943],[78.59361,17.39497],[78.59417,17.39469],[78.59497,17.39383]]]}},{"type":"Feature","bbox":[78.58349,17.38793,78.59417,17.39957],"properties":{"ward":7},"geometry":{"type":"Polygon","coordinates":[[[78.58761,17.3977],[78.59194,17.39551],[78.59361,17.39497],[78.5933,17.3943],[78.59357,17.39392],[78.59364,17.3932],[78.59394,17.3926],[78.59377,17.39201],[78.59417,17.39162],[78.59354,17.39104],[78.59376,17.38793],[78.58975,17.3881],[78.58983,17.38875],[78.59039,17.39017],[78.58983,17.39041],[78.59001,17.39084],[78.58965,17.39097],[78.58992,17.39183],[78.58956,17.39224],[78.58976,17.39264],[78.58915,17.39412],[78.58807,17.39531],[78.58813,17.3955],[78.58539,17.39743],[78.58349,17.39791],[78.58406,17.39957],[78.58485,17.39942],[78.58761,17.3977]]]}},{"type":"Feature","bbox":[78.56747,17.40593,78.57306,17.41061],"properties":{"ward":8},"geometry":{"type":"Polygon","coordinates":[[[78.56851,17.4079],[78.56929,17.41061],[78.57113,17.40991],[78.57117,17.40969],[78.57306,17.40888],[78.57244,17.40746],[78.57235,17.40732],[78.5722,17.40739],[78.57204,17.40667],[78.57123,17.40681],[78.57079,17.40655],[78.56941,17.40655],[78.56932,17.40618],[78.569,17.40626],[78.56891,17.40593],[78.56747,17.40627],[78.56784,17.40788],[78.56795,17.40802],[78.56851,17.4079]]]}},{"type":"Feature","bbox":[78.5811,17.4014,78.58701,17.40732],"properties":{"ward":9},"geometry":{"type":"Polygon","coordinates":[[[78.58656,17.40732],[78.58701,17.40474],[78.58529,17.40419],[78.58317,17.40279],[78.5819,17.40153],[78.58167,17.4014],[78.58134,17.40161],[78.5811,17.40209],[78.58117,17.40255],[78.58172,17.40348],[78.58248,17.40416],[78.58161,17.40581],[78.58256,17.40619],[78.58282,17.40557],[78.58427,17.40604],[78.58413,17.40646],[78.58656,17.40732]]]}},{"type":"Feature","bbox":[78.58147,17.40557,78.58961,17.40978],"properties":{"ward":10},"geometry":{"type":"Polygon","coordinates":[[[78.58961,17.4092],[78.58899,17.40895],[78.58907,17.40822],[78.58413,17.40646],[78.58427,17.40604],[78.58401,17.40594],[78.58282,17.40557],[78.58256,17.40619],[78.58161,17.40581],[78.58147,17.4061],[78.58296,17.40666],[78.58536,17.40785],[78.58537,17.40798],[78.58634,17.40828],[78.58774,17.40915],[78.58769,17.40931],[78.58941,17.40978],[78.58961,17.4092]]]}},{"type":"Feature","bbox":[78.58897,17.40822,78.59329,17.41104],"properties":{"ward":11},"geometry":{"type":"Polygon","coordinates":[[[78.59329,17.40954],[78.58907,17.40822],[78.58897,17.40855],[78.58899,17.40895],[78.58961,17.4092],[78.58943,17.40983],[78.59022,17.41002],[78.59019,17.41019],[78.59071,17.41044],[78.59273,17.41104],[78.59329,17.40954]]]}},{"type":"Feature","bbox":[78.59273,17.40691,78.59703,17.41169],"properties":{"ward":12},"geometry":{"type":"Polygon","coordinates":[[[78.59579,17.41033],[78.59655,17.40835],[78.59694,17.40846],[78.59703,17.40788],[78.59387,17.40691],[78.59289,17.4094],[78.59329,17.40954],[78.59273,17.41104],[78.59381,17.41135],[78.59386,17.41121],[78.59403,17.41126],[78.59503,17.41169],[78.59554,17.41025],[78.59579,17.41033]]]}},{"type":"Feature","bbox":[78.59499,17.40788,78.60215,17.4137],"properties":{"ward":13},"geometry":{"type":"Polygon","coordinates":[[[78.6002,17.41156],[78.60109,17.40915],[78.59703,17.40788],[78.59694,17.40846],[78.59655,17.40835],[78.5962,17.40904],[78.59579,17.41033],[78.59554,17.41025],[78.59499,17.41185],[78.59538,17.4119],[78.59557,17.41215],[78.59575,17.41207],[78.59634,17.41314],[78.59664,17.41319],[78.59661,17.4137],[78.59913,17.41324],[78.60191,17.41313],[78.60215,17.41201],[78.60068,17.41196],[78.60056,17.41155],[78.6002,17.41156]]]}},{"type":"Feature","bbox":[78.59989,17.40564,78.60427,17.41008],"properties":{"ward":14},"geometry":{"type":"Polygon","coordinates":[[[78.60273,17.40588],[78.60025,17.40564],[78.59989,17.40872],[78.60342,17.41008],[78.60373,17.4096],[78.60396,17.40804],[78.60427,17.40771],[78.60418,17.40706],[78.60375,17.40622],[78.60273,17.40588]]]}},{"type":"Feature","bbox":[78.60273,17.40095,78.60641,17.41051],"properties":{"ward":15},"geometry":{"type":"Polygon","coordinates":[[[78.60641,17.40322],[78.60603,17.40166],[78.60514,17.40141],[78.60511,17.40117],[78.60428,17.40118],[78.60333,17.40095],[78.60273,17.40588],[78.60375,17.40622],[78.60408,17.40678],[78.60427,17.40771],[78.60396,17.40804],[78.60373,17.4096],[78.60342,17.41008],[78.60455,17.41051],[78.6048,17.41015],[78.60487,17.40946],[78.60527,17.40936],[78.60517,17.40874],[78.60554,17.40864],[78.605,17.40668],[78.60514,17.40607],[78.60548,17.40563],[78.60641,17.40322]]]}},{"type":"Feature","bbox":[78.59424,17.39802,78.60511,17.40226],"properties":{"ward":16},"geometry":{"type":"Polygon","coordinates":[[[78.59787,17.40219],[78.59856,17.40044],[78.59907,17.40023],[78.59912,17.40037],[78.59958,17.40041],[78.59956,17.40061],[78.60099,17.40054],[78.60189,17.40073],[78.60327,17.40061],[78.60333,17.40095],[78.60493,17.40118],[78.60474,17.39958],[78.60511,17.39847],[78.60504,17.39809],[78.60012,17.39802],[78.59979,17.39849],[78.59708,17.39943],[78.59612,17.39925],[78.59603,17.39908],[78.59548,17.39893],[78.59424,17.39952],[78.5947,17.40073],[78.59588,17.40039],[78.59626,17.40137],[78.59679,17.40129],[78.59687,17.40226],[78.59787,17.40219]]]}},{"type":"Feature","bbox":[78.59674,17.39102,78.60507,17.39809],"properties":{"ward":17},"geometry":{"type":"Polygon","coordinates":[[[78.60504,17.39809],[78.60495,17.39417],[78.60507,17.39386],[78.60373,17.39255],[78.60353,17.39122],[78.60175,17.39102],[78.59755,17.39211],[78.59674,17.39271],[78.59759,17.39382],[78.59789,17.39361],[78.59834,17.39417],[78.59856,17.39397],[78.59914,17.39491],[78.59943,17.39476],[78.6,17.39806],[78.60199,17.39797],[78.60504,17.39809]]]}},{"type":"Feature","bbox":[78.59497,17.39271,78.6,17.39946],"properties":{"ward":18},"geometry":{"type":"Polygon","coordinates":[[[78.6,17.39806],[78.59943,17.39476],[78.59914,17.39491],[78.59856,17.39397],[78.59834,17.39417],[78.59789,17.39361],[78.59759,17.39382],[78.59674,17.39271],[78.59497,17.39383],[78.59562,17.39449],[78.59652,17.39658],[78.59519,17.3979],[78.59596,17.3986],[78.59667,17.39896],[78.59684,17.39946],[78.59979,17.39849],[78.6,17.39806]]]}},{"type":"Feature","bbox":[78.58761,17.39383,78.59684,17.40095],"properties":{"ward":19},"geometry":{"type":"Polygon","coordinates":[[[78.59174,17.40034],[78.59162,17.39991],[78.59254,17.39953],[78.59313,17.40041],[78.59344,17.4001],[78.59379,17.39928],[78.59412,17.39919],[78.59424,17.39952],[78.59545,17.39893],[78.59684,17.39946],[78.59667,17.39896],[78.59596,17.3986],[78.59519,17.3979],[78.59652,17.39658],[78.59562,17.39449],[78.59497,17.39383],[78.59399,17.39483],[78.59194,17.39551],[78.58761,17.3977],[78.58847,17.39923],[78.58894,17.39918],[78.58923,17.39994],[78.5897,17.39972],[78.59015,17.40095],[78.59174,17.40034]]]}},{"type":"Feature","bbox":[78.58146,17.3977,78.59219,17.40618],"properties":{"ward":20},"geometry":{"type":"Polygon","coordinates":[[[78.59219,17.4031],[78.59203,17.40117],[78.59174,17.40034],[78.59015,17.40095],[78.5897,17.39972],[78.58923,17.39994],[78.58894,17.39918],[78.58847,17.39923],[78.58761,17.3977],[78.58485,17.39942],[78.58406,17.39957],[78.58363,17.39982],[78.58371,17.39996],[78.58285,17.40029],[78.58219,17.40078],[78.58213,17.40067],[78.58149,17.4009],[78.58146,17.40129],[78.5819,17.40153],[78.58317,17.40279],[78.58529,17.40419],[78.59165,17.40618],[78.59219,17.4031]]]}},{"type":"Feature","bbox":[78.58655,17.40474,78.5903,17.40846],"properties":{"ward":21},"geometry":{"type":"Polygon","coordinates":[[[78.5903,17.40573],[78.58701,17.40474],[78.58655,17.40743],[78.58986,17.40846],[78.5903,17.40573]]]}},{"type":"Feature","bbox":[78.58986,17.40573,78.59387,17.4094],"properties":{"ward":22},"geometry":{"type":"Polygon","coordinates":[[[78.59387,17.40691],[78.5903,17.40573],[78.58986,17.40846],[78.59289,17.4094],[78.59387,17.40691]]]}},{"type":"Feature","bbox":[78.59165,17.40296,78.5975,17.40787],"properties":{"ward":23},"geometry":{"type":"Polygon","coordinates":[[[78.5975,17.40487],[78.59488,17.40453],[78.59488,17.40423],[78.59443,17.40418],[78.59436,17.40375],[78.59376,17.40375],[78.59363,17.40296],[78.59219,17.4031],[78.59165,17.40618],[78.59699,17.40787],[78.5975,17.40487]]]}},{"type":"Feature","bbox":[78.59699,17.40219,78.60102,17.40872],"properties":{"ward":24},"geometry":{"type":"Polygon","coordinates":[[[78.59989,17.40872],[78.60038,17.40478],[78.60064,17.4047],[78.60102,17.4026],[78.59787,17.40219],[78.59699,17.40787],[78.59989,17.40872]]]}},{"type":"Feature","bbox":[78.59787,17.40023,78.60327,17.40588],"properties":{"ward":25},"geometry":{"type":"Polygon","coordinates":[[[78.60273,17.40588],[78.60327,17.40061],[78.60189,17.40073],[78.60099,17.40054],[78.59956,17.40061],[78.59958,17.40041],[78.59912,17.40037],[78.59907,17.40023],[78.59861,17.40036],[78.59787,17.40219],[78.60102,17.4026],[78.60064,17.4047],[78.60038,17.40478],[78.60025,17.40564],[78.60273,17.40588]]]}},{"type":"Feature","bbox":[78.59162,17.39919,78.59787,17.40487],"properties":{"ward":26},"geometry":{"type":"Polygon","coordinates":[[[78.5947,17.40073],[78.59412,17.39919],[78.59379,17.39928],[78.59344,17.4001],[78.59313,17.40041],[78.59254,17.39953],[78.59162,17.39991],[78.59203,17.40117],[78.59219,17.4031],[78.59363,17.40296],[78.59376,17.40375],[78.59436,17.40375],[78.59443,17.40418],[78.59488,17.40423],[78.59488,17.40453],[78.5975,17.40487],[78.59787,17.40219],[78.59687,17.40226],[78.59679,17.40129],[78.59626,17.40137],[78.59588,17.40039],[78.5947,17.40073]]]}}]}