{"type":"FeatureCollection","features":[{"type":"Feature","bbox":[79.13106,21.37661,79.15003,21.3989],"properties":{"ward":1,"name":"Borban Ward"},"geometry":{"type":"Polygon","coordinates":[[[79.13106,21.38307],[79.13159,21.38359],[79.13199,21.38639],[79.13296,21.38699],[79.13395,21.39215],[79.13492,21.39432],[79.13479,21.39499],[79.1364,21.39551],[79.13852,21.39539],[79.14224,21.39487],[79.14237,21.3939],[79.14378,21.39506],[79.1447,21.39471],[79.14522,21.39481],[79.14547,21.39458],[79.14745,21.39519],[79.14757,21.39621],[79.14695,21.39776],[79.14687,21.3989],[79.14931,21.3989],[79.14951,21.39865],[79.14949,21.38328],[79.14913,21.38048],[79.15003,21.37661],[79.14654,21.37703],[79.13894,21.37865],[79.13106,21.38307]]]}},{"type":"Feature","bbox":[79.14928,21.37875,79.15563,21.39845],"properties":{"ward":2,"name":"Datta Tekadi Ward"},"geometry":{"type":"Polygon","coordinates":[[[79.14955,21.38118],[79.14965,21.39428],[79.14976,21.39845],[79.15211,21.398],[79.15352,21.39687],[79.15554,21.39624],[79.15528,21.39535],[79.15462,21.39046],[79.15512,21.38433],[79.15563,21.38319],[79.15483,21.38204],[79.15433,21.37981],[79.15345,21.37895],[79.15223,21.37875],[79.14952,21.37936],[79.14928,21.38036],[79.14955,21.38118]]]}},{"type":"Feature","bbox":[79.14945,21.37366,79.16762,21.39524],"properties":{"ward":3,"name":"Shiv Tekdi Ward"},"geometry":{"type":"Polygon","coordinates":[[[79.15572,21.38306],[79.15504,21.39088],[79.15598,21.39518],[79.15649,21.39524],[79.15727,21.3947],[79.15797,21.3938],[79.15847,21.39205],[79.15902,21.39167],[79.15923,21.39061],[79.16008,21.39037],[79.16044,21.39099],[79.1611,21.39027],[79.16139,21.39019],[79.16168,21.39041],[79.16281,21.39012],[79.16267,21.38992],[79.16202,21.39015],[79.16062,21.3877],[79.16013,21.38818],[79.15985,21.38816],[79.15951,21.38715],[79.1609,21.38587],[79.16104,21.38526],[79.16297,21.38361],[79.16311,21.38296],[79.1624,21.38112],[79.16247,21.38071],[79.16408,21.37917],[79.16476,21.37899],[79.16547,21.37936],[79.16599,21.37945],[79.16645,21.37931],[79.16762,21.37846],[79.1616,21.37575],[79.15928,21.37438],[79.15821,21.37393],[79.15676,21.37366],[79.15599,21.37369],[79.15431,21.37532],[79.15327,21.37595],[79.15112,21.37654],[79.15029,21.37606],[79.14998,21.37769],[79.14945,21.37921],[79.15225,21.37865],[79.15333,21.37878],[79.15435,21.37945],[79.155,21.38203],[79.15572,21.38306]]]}},{"type":"Feature","bbox":[79.15183,21.37302,79.16782,21.37832],"properties":{"ward":4,"name":"Mata Mandir Parisar Ward"},"geometry":{"type":"Polygon","coordinates":[[[79.15183,21.37462],[79.15229,21.37594],[79.15347,21.37572],[79.15423,21.37519],[79.15571,21.37376],[79.15707,21.37355],[79.15827,21.37386],[79.15987,21.37454],[79.16164,21.37567],[79.16617,21.37775],[79.16771,21.37832],[79.16782,21.37811],[79.16744,21.37752],[79.16671,21.3769],[79.16646,21.37583],[79.16565,21.37389],[79.16503,21.37374],[79.16377,21.37444],[79.16121,21.37395],[79.15891,21.37385],[79.15751,21.37348],[79.15761,21.37302],[79.15599,21.37333],[79.15431,21.37388],[79.1544,21.37415],[79.15419,21.37437],[79.15294,21.37448],[79.15211,21.37432],[79.15183,21.37462]]]}},{"type":"Feature","bbox":[79.15205,21.37056,79.16514,21.37432],"properties":{"ward":5,"name":"Pewatha Mandir Ward"},"geometry":{"type":"Polygon","coordinates":[[[79.16276,21.37404],[79.16373,21.37432],[79.16513,21.37366],[79.16514,21.37301],[79.16469,21.37206],[79.16243,21.37206],[79.16075,21.37075],[79.15882,21.37056],[79.15787,21.37117],[79.15556,21.37207],[79.1555,21.3728],[79.15444,21.37252],[79.15295,21.37244],[79.15205,21.37256],[79.1525,21.37285],[79.15271,21.37342],[79.15315,21.37334],[79.15448,21.37373],[79.1576,21.37296],[79.15761,21.37339],[79.15893,21.37377],[79.16276,21.37404]]]}},{"type":"Feature","bbox":[79.1516,21.37329,79.15429,21.37438],"properties":{"ward":6},"geometry":{"type":"Polygon","coordinates":[[[79.1516,21.37373],[79.15299,21.37438],[79.15429,21.3742],[79.15421,21.37365],[79.15309,21.37342],[79.15214,21.37364],[79.15195,21.37329],[79.15166,21.37349],[79.1516,21.37373]]]}},{"type":"Feature","bbox":[79.15031,21.37247,79.15258,21.37413],"properties":{"ward":7},"geometry":{"type":"Polygon","coordinates":[[[79.15127,21.37247],[79.15031,21.37291],[79.15059,21.37398],[79.15079,21.37413],[79.15142,21.37411],[79.15163,21.37345],[79.15197,21.37325],[79.15212,21.37332],[79.15215,21.37357],[79.15258,21.37349],[79.15237,21.37282],[79.152,21.37258],[79.15127,21.37247]]]}},{"type":"Feature","bbox":[79.1507,21.37377,79.15269,21.37641],"properties":{"ward":8},"geometry":{"type":"Polygon","coordinates":[[[79.15086,21.37543],[79.15072,21.37612],[79.15124,21.37641],[79.15226,21.37607],[79.15178,21.37465],[79.15199,21.37429],[79.15269,21.37433],[79.1516,21.37377],[79.15126,21.37505],[79.151,21.37468],[79.1507,21.37467],[79.15086,21.37543]]]}},{"type":"Feature","bbox":[79.1497,21.37393,79.15139,21.37604],"properties":{"ward":9,"name":"Patimata Mandir"},"geometry":{"type":"Polygon","coordinates":[[[79.15061,21.37604],[79.15078,21.37546],[79.15059,21.3746],[79.15103,21.3746],[79.15126,21.37495],[79.15139,21.37418],[79.15078,21.3742],[79.1505,21.37393],[79.14974,21.37394],[79.1497,21.37421],[79.15014,21.37554],[79.15061,21.37604]]]}},{"type":"Feature","bbox":[79.14837,21.37425,79.15013,21.37648],"properties":{"ward":10,"name":"Kabhepura"},"geometry":{"type":"Polygon","coordinates":[[[79.14965,21.37547],[79.14978,21.37648],[79.15003,21.37646],[79.15013,21.3759],[79.1496,21.37425],[79.14837,21.37449],[79.14843,21.37549],[79.14965,21.37547]]]}},{"type":"Feature","bbox":[79.14616,21.37322,79.14964,21.37482],"properties":{"ward":11,"name":"Domaki Pura"},"geometry":{"type":"Polygon","coordinates":[[[79.14618,21.37391],[79.14616,21.37421],[79.14771,21.37482],[79.14828,21.3748],[79.14828,21.3744],[79.14958,21.37413],[79.14964,21.37338],[79.1496,21.37322],[79.14836,21.37369],[79.14618,21.37391]]]}},{"type":"Feature","bbox":[79.13899,21.37309,79.14952,21.3772],"properties":{"ward":12,"name":"Abadi Khari"},"geometry":{"type":"Polygon","coordinates":[[[79.14113,21.37309],[79.13899,21.37354],[79.13944,21.37685],[79.14077,21.37648],[79.14196,21.37569],[79.14298,21.37531],[79.14312,21.37545],[79.14434,21.37569],[79.14465,21.3772],[79.14952,21.37641],[79.1495,21.37567],[79.14829,21.37564],[79.14819,21.37503],[79.14771,21.375],[79.14609,21.37439],[79.14591,21.37391],[79.14113,21.37309]]]}},{"type":"Feature","bbox":[79.13804,21.37033,79.14812,21.3737],"properties":{"ward":13,"name":"Gowari Pura"},"geometry":{"type":"Polygon","coordinates":[[[79.13804,21.37311],[79.13925,21.37318],[79.13996,21.37294],[79.14121,21.37282],[79.14616,21.3737],[79.14812,21.37353],[79.14802,21.37204],[79.14649,21.37228],[79.14641,21.37187],[79.14298,21.37118],[79.1415,21.37183],[79.13988,21.37033],[79.13837,21.37067],[79.13883,21.37238],[79.13807,21.37249],[79.13804,21.37311]]]}},{"type":"Feature","bbox":[79.14656,21.37029,79.15088,21.37344],"properties":{"ward":14,"name":"Muslim Pura"},"geometry":{"type":"Polygon","coordinates":[[[79.14656,21.37186],[79.14661,21.37209],[79.14816,21.3718],[79.14831,21.37344],[79.14951,21.37307],[79.14915,21.37242],[79.14911,21.37182],[79.15058,21.37168],[79.15088,21.37196],[79.1508,21.37029],[79.14896,21.37118],[79.14817,21.3711],[79.14726,21.37174],[79.14656,21.37186]]]}},{"type":"Feature","bbox":[79.14927,21.37183,79.15083,21.37384],"properties":{"ward":15,"name":"Ambedkar Chowk"},"geometry":{"type":"Polygon","coordinates":[[[79.14977,21.37343],[79.14977,21.37383],[79.15047,21.37384],[79.15024,21.37297],[79.15032,21.37277],[79.15075,21.37257],[79.15083,21.37207],[79.15059,21.37183],[79.14927,21.37189],[79.14931,21.37238],[79.14977,21.37343]]]}},{"type":"Feature","bbox":[79.15091,21.37052,79.15436,21.37249],"properties":{"ward":16,"name":"Juna Bus Stop"},"geometry":{"type":"Polygon","coordinates":[[[79.15091,21.37249],[79.15129,21.37235],[79.15149,21.37246],[79.1528,21.37234],[79.15436,21.37242],[79.15424,21.37052],[79.1523,21.37138],[79.15109,21.37162],[79.15091,21.37249]]]}},{"type":"Feature","bbox":[79.14567,21.36412,79.15523,21.37165],"properties":{"ward":17,"name":"Neharu Nagar"},"geometry":{"type":"Polygon","coordinates":[[[79.1465,21.37037],[79.14662,21.37165],[79.14721,21.37155],[79.14801,21.37088],[79.14888,21.37095],[79.15084,21.37004],[79.15112,21.37139],[79.15229,21.37107],[79.15319,21.37059],[79.1534,21.37027],[79.15523,21.36966],[79.15473,21.36735],[79.15331,21.36762],[79.1531,21.36626],[79.15197,21.36638],[79.15193,21.3666],[79.15138,21.36664],[79.15119,21.36412],[79.15024,21.3642],[79.15035,21.36558],[79.14922,21.36556],[79.14926,21.36734],[79.14878,21.3671],[79.14679,21.36711],[79.14708,21.36806],[79.14567,21.36863],[79.1465,21.37037]]]}}]}