{"type":"FeatureCollection","features":[{"type":"Feature","bbox":[74.92444,19.55247,74.92823,19.55539],"properties":{"ward":1},"geometry":{"type":"Polygon","coordinates":[[[74.92789,19.55355],[74.92721,19.55376],[74.92693,19.55264],[74.92666,19.55267],[74.92646,19.55247],[74.92454,19.55322],[74.92444,19.55403],[74.92465,19.55422],[74.92472,19.55463],[74.92519,19.55462],[74.92531,19.55539],[74.92705,19.55532],[74.92735,19.55526],[74.92761,19.55491],[74.92823,19.55485],[74.92789,19.55355]]]}},{"type":"Feature","bbox":[74.92803,19.54134,74.96281,19.56209],"properties":{"ward":2},"geometry":{"type":"Polygon","coordinates":[[[74.92885,19.55439],[74.93182,19.55291],[74.93257,19.55225],[74.9359,19.55009],[74.93797,19.54926],[74.94093,19.54905],[74.94335,19.54978],[74.94443,19.5505],[74.94561,19.55187],[74.94706,19.55521],[74.94766,19.55577],[74.95156,19.56209],[74.95235,19.56171],[74.96096,19.56012],[74.96281,19.56007],[74.96247,19.55894],[74.96016,19.55894],[74.95985,19.55629],[74.95884,19.55203],[74.95931,19.55188],[74.95913,19.55005],[74.95824,19.55028],[74.95695,19.55008],[74.95712,19.54939],[74.95496,19.54914],[74.95483,19.54688],[74.95067,19.54589],[74.94887,19.54455],[74.94795,19.54361],[74.94721,19.54253],[74.94421,19.54149],[74.94275,19.54134],[74.94149,19.54147],[74.93905,19.54239],[74.93778,19.54307],[74.93885,19.54532],[74.93865,19.54581],[74.93779,19.54598],[74.93792,19.54633],[74.93479,19.54725],[74.93528,19.54836],[74.93565,19.54986],[74.93503,19.55017],[74.9314,19.55107],[74.93059,19.55107],[74.93059,19.55005],[74.92989,19.54989],[74.92976,19.55068],[74.92952,19.55089],[74.92818,19.55112],[74.92803,19.55364],[74.92837,19.55463],[74.92885,19.55439]],[[74.92885,19.55439],[74.92885,19.55439],[74.92884,19.55439],[74.92885,19.55439]],[[74.92885,19.55439],[74.92884,19.55437],[74.92886,19.55437],[74.92885,19.55439]]]}},{"type":"Feature","bbox":[74.92995,19.5454,74.93548,19.55092],"properties":{"ward":3},"geometry":{"type":"Polygon","coordinates":[[[74.93068,19.54996],[74.93069,19.55092],[74.93181,19.5509],[74.93548,19.54977],[74.93508,19.54806],[74.93461,19.54722],[74.9338,19.54656],[74.9338,19.54588],[74.93335,19.54551],[74.93301,19.5454],[74.93257,19.54657],[74.93091,19.54799],[74.92997,19.54948],[74.92995,19.54977],[74.93024,19.54973],[74.93031,19.54996],[74.93068,19.54996]]]}},{"type":"Feature","bbox":[74.93263,19.53657,74.93912,19.54714],"properties":{"ward":4},"geometry":{"type":"Polygon","coordinates":[[[74.93473,19.54714],[74.93777,19.54621],[74.93764,19.54585],[74.93855,19.54573],[74.93869,19.5453],[74.93759,19.54302],[74.93772,19.54243],[74.93912,19.54014],[74.93909,19.53971],[74.9386,19.53864],[74.93811,19.5382],[74.9374,19.53801],[74.93655,19.53739],[74.93596,19.53657],[74.93385,19.53716],[74.93294,19.53716],[74.93353,19.53914],[74.93459,19.54042],[74.93263,19.54197],[74.93333,19.54195],[74.93419,19.5436],[74.93419,19.54441],[74.9334,19.54486],[74.93321,19.54526],[74.93393,19.54577],[74.9341,19.5467],[74.93473,19.54714]]]}},{"type":"Feature","bbox":[74.93799,19.52687,74.9533,19.5445],"properties":{"ward":5},"geometry":{"type":"Polygon","coordinates":[[[74.93799,19.54273],[74.93981,19.54173],[74.94112,19.54121],[74.94277,19.54106],[74.94431,19.54123],[74.94737,19.54222],[74.94807,19.5433],[74.94944,19.5445],[74.94949,19.53846],[74.95177,19.53792],[74.95286,19.5311],[74.95314,19.53108],[74.95281,19.53098],[74.95268,19.53029],[74.9533,19.52998],[74.95254,19.52687],[74.94108,19.53494],[74.938,19.53778],[74.93872,19.53809],[74.93946,19.53956],[74.93934,19.5403],[74.93799,19.54273]]]}},{"type":"Feature","bbox":[74.94779,19.519,74.95592,19.54665],"properties":{"ward":6},"geometry":{"type":"Polygon","coordinates":[[[74.95078,19.54575],[74.9548,19.54665],[74.95489,19.54598],[74.95454,19.54486],[74.95484,19.54364],[74.95499,19.54008],[74.95438,19.53872],[74.95457,19.5378],[74.95436,19.5366],[74.95477,19.53472],[74.95454,19.53368],[74.95416,19.52856],[74.95377,19.52639],[74.95358,19.52607],[74.95427,19.52548],[74.95422,19.52496],[74.95482,19.52368],[74.95469,19.52351],[74.95489,19.52169],[74.95557,19.52135],[74.95592,19.51973],[74.95311,19.51904],[74.95001,19.51983],[74.94949,19.519],[74.94779,19.51905],[74.94917,19.52285],[74.94996,19.52564],[74.95036,19.52555],[74.95047,19.52607],[74.95068,19.52608],[74.95126,19.52762],[74.9526,19.52675],[74.95347,19.53006],[74.9528,19.53033],[74.95292,19.53088],[74.95321,19.53087],[74.95327,19.53116],[74.95296,19.53119],[74.95195,19.53818],[74.94976,19.53867],[74.94985,19.54498],[74.95078,19.54575]]]}},{"type":"Feature","bbox":[74.93222,19.51865,74.95107,19.53779],"properties":{"ward":7},"geometry":{"type":"Polygon","coordinates":[[[74.93749,19.53779],[74.94094,19.53453],[74.95107,19.52761],[74.9508,19.52726],[74.95085,19.52699],[74.95059,19.52623],[74.95036,19.5262],[74.95029,19.5257],[74.94983,19.52579],[74.94873,19.52201],[74.94767,19.5191],[74.94145,19.51865],[74.93841,19.52284],[74.93366,19.52789],[74.93227,19.52978],[74.93222,19.5301],[74.93367,19.53155],[74.9338,19.53253],[74.93321,19.53357],[74.93323,19.53454],[74.93482,19.53506],[74.9368,19.53727],[74.93749,19.53779]]]}},{"type":"Feature","bbox":[74.92528,19.54216,74.93405,19.54803],"properties":{"ward":8},"geometry":{"type":"Polygon","coordinates":[[[74.92528,19.54612],[74.92608,19.54803],[74.92904,19.54686],[74.92985,19.54622],[74.93131,19.54591],[74.93274,19.54594],[74.93325,19.54474],[74.93405,19.54437],[74.93404,19.5437],[74.9333,19.54217],[74.9325,19.54216],[74.93206,19.54263],[74.93191,19.54319],[74.93134,19.54387],[74.93089,19.54522],[74.93017,19.54509],[74.92904,19.54405],[74.92662,19.54464],[74.92652,19.54484],[74.92566,19.54521],[74.92528,19.54612]]]}},{"type":"Feature","bbox":[74.92744,19.54602,74.93274,19.55099],"properties":{"ward":9},"geometry":{"type":"Polygon","coordinates":[[[74.92799,19.5505],[74.92812,19.55099],[74.92954,19.55079],[74.92977,19.55033],[74.92984,19.54946],[74.9308,19.54796],[74.93217,19.54687],[74.93274,19.54604],[74.93129,19.54602],[74.9299,19.54629],[74.92912,19.54689],[74.92881,19.54797],[74.92833,19.5488],[74.92744,19.54889],[74.92775,19.55057],[74.92799,19.5505]]]}},{"type":"Feature","bbox":[74.92612,19.54694,74.92905,19.54948],"properties":{"ward":10},"geometry":{"type":"Polygon","coordinates":[[[74.92612,19.5481],[74.92648,19.54948],[74.92745,19.54936],[74.92738,19.54883],[74.92829,19.54876],[74.92877,19.54795],[74.92905,19.54694],[74.92612,19.5481]]]}},{"type":"Feature","bbox":[74.92551,19.5494,74.92807,19.55368],"properties":{"ward":11},"geometry":{"type":"Polygon","coordinates":[[[74.92558,19.54971],[74.92634,19.5512],[74.9269,19.55121],[74.927,19.55153],[74.92639,19.55184],[74.92551,19.55195],[74.92577,19.55275],[74.92649,19.55239],[74.9267,19.55262],[74.92697,19.55259],[74.9271,19.55283],[74.92724,19.55368],[74.92785,19.55345],[74.92807,19.55103],[74.92797,19.55056],[74.92771,19.55064],[74.92749,19.54943],[74.92644,19.54953],[74.9264,19.5494],[74.92558,19.54971]]]}},{"type":"Feature","bbox":[74.92434,19.54895,74.92697,19.55186],"properties":{"ward":12},"geometry":{"type":"Polygon","coordinates":[[[74.92541,19.55186],[74.92636,19.55181],[74.92697,19.55151],[74.92688,19.55125],[74.9263,19.55124],[74.92602,19.55044],[74.92555,19.54975],[74.92521,19.54984],[74.92492,19.54895],[74.9245,19.54908],[74.92434,19.54922],[74.92459,19.54939],[74.92464,19.55012],[74.92442,19.55033],[74.9254,19.55094],[74.92555,19.55158],[74.92539,19.55165],[74.92541,19.55186]]]}},{"type":"Feature","bbox":[74.92352,19.55014,74.92551,19.55198],"properties":{"ward":13},"geometry":{"type":"Polygon","coordinates":[[[74.92352,19.55198],[74.92538,19.55189],[74.9253,19.55161],[74.92551,19.55155],[74.92535,19.55096],[74.92416,19.55014],[74.92406,19.55102],[74.9238,19.55139],[74.92355,19.55139],[74.92352,19.55198]]]}},{"type":"Feature","bbox":[74.92278,19.55196,74.92573,19.5555],"properties":{"ward":14},"geometry":{"type":"Polygon","coordinates":[[[74.92278,19.55327],[74.92356,19.55465],[74.92426,19.55521],[74.92524,19.5555],[74.92517,19.55467],[74.92464,19.55472],[74.92455,19.55417],[74.92435,19.5541],[74.9245,19.55314],[74.92488,19.55312],[74.92491,19.55289],[74.92573,19.55276],[74.92547,19.55196],[74.92306,19.55205],[74.92278,19.55327]]]}},{"type":"Feature","bbox":[74.89111,19.49249,74.92339,19.55559],"properties":{"ward":15},"geometry":{"type":"Polygon","coordinates":[[[74.9208,19.52164],[74.92294,19.50202],[74.92185,19.50171],[74.91328,19.50202],[74.91073,19.50183],[74.90827,19.49249],[74.90289,19.49338],[74.90314,19.49563],[74.89823,19.4966],[74.90294,19.50501],[74.90611,19.50494],[74.9088,19.51851],[74.9072,19.51909],[74.90667,19.51829],[74.90376,19.51905],[74.89876,19.5079],[74.89227,19.50908],[74.89284,19.52314],[74.89111,19.53758],[74.89895,19.54378],[74.90292,19.5465],[74.90448,19.54719],[74.90675,19.54739],[74.90645,19.55108],[74.90848,19.55181],[74.91319,19.55517],[74.91441,19.55559],[74.91594,19.55524],[74.91723,19.55442],[74.91854,19.5527],[74.91925,19.55235],[74.92265,19.55295],[74.92278,19.55174],[74.92339,19.55188],[74.92334,19.54898],[74.92294,19.54641],[74.92334,19.54621],[74.9225,19.54434],[74.92209,19.54273],[74.9223,19.54194],[74.92181,19.5375],[74.92176,19.53564],[74.9215,19.534],[74.92091,19.53199],[74.92075,19.5282],[74.9208,19.52164]]]}},{"type":"Feature","bbox":[74.92318,19.54525,74.92637,19.55132],"properties":{"ward":16},"geometry":{"type":"Polygon","coordinates":[[[74.92463,19.54561],[74.92318,19.54669],[74.92364,19.54876],[74.92358,19.55132],[74.92378,19.55131],[74.92398,19.551],[74.92412,19.55006],[74.9244,19.55025],[74.92458,19.55009],[74.92454,19.54943],[74.92426,19.54924],[74.92447,19.54901],[74.92504,19.54895],[74.92527,19.54975],[74.92637,19.54933],[74.92609,19.54817],[74.92544,19.54703],[74.92517,19.54607],[74.92558,19.54525],[74.92463,19.54561]]]}},{"type":"Feature","bbox":[74.92115,19.50101,74.94118,19.546],"properties":{"ward":17},"geometry":{"type":"Polygon","coordinates":[[[74.92271,19.54411],[74.92371,19.546],[74.92402,19.5457],[74.92646,19.54447],[74.92821,19.54391],[74.92919,19.54377],[74.93018,19.54475],[74.93079,19.54503],[74.93088,19.54449],[74.93118,19.54419],[74.9313,19.54369],[74.93172,19.54328],[74.93195,19.54245],[74.93247,19.54166],[74.9327,19.54165],[74.9343,19.54046],[74.93329,19.53927],[74.93278,19.53768],[74.93272,19.53704],[74.93386,19.53689],[74.93569,19.53639],[74.93295,19.53455],[74.93303,19.53319],[74.93356,19.53254],[74.93344,19.53158],[74.93202,19.53002],[74.93227,19.52926],[74.93277,19.5285],[74.93771,19.52333],[74.94118,19.5187],[74.94076,19.5188],[74.9395,19.51767],[74.93332,19.5163],[74.93208,19.50718],[74.93135,19.50467],[74.93057,19.50101],[74.92903,19.50128],[74.92323,19.50162],[74.9224,19.511],[74.92239,19.51437],[74.92189,19.51623],[74.92134,19.52044],[74.92115,19.52672],[74.92261,19.54153],[74.92241,19.54292],[74.92271,19.54411]]]}}]}