{"type":"FeatureCollection","features":[{"type":"Feature","bbox":[78.59412,17.42692,78.60872,17.45128],"properties":{"ward":1,"name":"Kranthi Colony Chengicherla"},"geometry":{"type":"Polygon","coordinates":[[[78.60847,17.43265],[78.60758,17.43277],[78.60649,17.43336],[78.60299,17.43261],[78.60302,17.43194],[78.60185,17.43023],[78.6011,17.42874],[78.60108,17.42763],[78.60094,17.42743],[78.5975,17.42692],[78.59713,17.4286],[78.59522,17.42849],[78.59485,17.42915],[78.59495,17.42999],[78.59469,17.42998],[78.59454,17.43103],[78.59462,17.43207],[78.59412,17.43379],[78.59428,17.43399],[78.59496,17.43737],[78.59559,17.442],[78.59527,17.44207],[78.59514,17.4428],[78.5953,17.44324],[78.59518,17.44788],[78.59489,17.44821],[78.59487,17.44919],[78.59987,17.45127],[78.60032,17.45128],[78.59997,17.44753],[78.60033,17.44753],[78.60142,17.44609],[78.6017,17.44338],[78.60164,17.44181],[78.60202,17.4403],[78.60572,17.43987],[78.6053,17.4391],[78.60611,17.43867],[78.60588,17.43735],[78.60657,17.4375],[78.60655,17.43801],[78.60726,17.43827],[78.60833,17.4382],[78.60872,17.43626],[78.60847,17.43265]]]}},{"type":"Feature","bbox":[78.59997,17.41761,78.62739,17.45485],"properties":{"ward":2,"name":"Ganesh Nagar Colony Chengicherla"},"geometry":{"type":"Polygon","coordinates":[[[78.60688,17.41761],[78.60719,17.41848],[78.60695,17.41971],[78.60581,17.42361],[78.6054,17.42442],[78.60542,17.42504],[78.60787,17.42835],[78.6086,17.4337],[78.60872,17.43626],[78.60833,17.4382],[78.60726,17.43827],[78.60655,17.43801],[78.60657,17.4375],[78.60588,17.43735],[78.60611,17.43867],[78.6053,17.4391],[78.60572,17.43987],[78.60202,17.4403],[78.60164,17.44181],[78.6017,17.44338],[78.60142,17.44609],[78.60033,17.44753],[78.59997,17.44753],[78.60032,17.45128],[78.60172,17.45127],[78.60511,17.45062],[78.60817,17.45043],[78.61159,17.449],[78.61168,17.44929],[78.61219,17.44918],[78.61233,17.4501],[78.61258,17.45062],[78.61207,17.45073],[78.61211,17.45104],[78.61255,17.45101],[78.6134,17.45485],[78.61827,17.4542],[78.61937,17.45383],[78.62204,17.45236],[78.62256,17.45247],[78.62516,17.45188],[78.62739,17.45048],[78.62681,17.44567],[78.62217,17.44537],[78.62154,17.4419],[78.62177,17.43407],[78.6229,17.43088],[78.62321,17.42812],[78.62077,17.42685],[78.61966,17.42422],[78.61885,17.42028],[78.61826,17.41858],[78.61784,17.41833],[78.60807,17.4185],[78.60688,17.41761]]]}},{"type":"Feature","bbox":[78.59638,17.41761,78.60847,17.43336],"properties":{"ward":3,"name":"Mlr Colony Chengicherla"},"geometry":{"type":"Polygon","coordinates":[[[78.60847,17.43265],[78.60787,17.42835],[78.60542,17.42504],[78.6054,17.42442],[78.60581,17.42361],[78.60695,17.41971],[78.60719,17.41848],[78.60688,17.41761],[78.6044,17.41829],[78.60424,17.41767],[78.603,17.41798],[78.59924,17.4193],[78.59851,17.4198],[78.59827,17.42213],[78.59731,17.42415],[78.59686,17.42492],[78.59665,17.42498],[78.59638,17.42622],[78.5975,17.42692],[78.60094,17.42743],[78.60108,17.42763],[78.6011,17.42874],[78.60185,17.43023],[78.60302,17.43194],[78.60299,17.43261],[78.60649,17.43336],[78.60758,17.43277],[78.60847,17.43265]]]}},{"type":"Feature","bbox":[78.59118,17.41581,78.59924,17.42622],"properties":{"ward":4,"name":"Bhavani Nagar"},"geometry":{"type":"Polygon","coordinates":[[[78.59924,17.4193],[78.59757,17.41581],[78.59339,17.41638],[78.59362,17.41829],[78.59193,17.41833],[78.59174,17.42231],[78.59118,17.42234],[78.59138,17.42279],[78.59638,17.42622],[78.59665,17.42498],[78.59686,17.42492],[78.59731,17.42415],[78.59827,17.42213],[78.59851,17.4198],[78.59924,17.4193]]]}},{"type":"Feature","bbox":[78.59086,17.4106,78.59757,17.4164],"properties":{"ward":5,"name":"Bheem Reddy Nagar Boduppal"},"geometry":{"type":"Polygon","coordinates":[[[78.59757,17.41581],[78.59663,17.41368],[78.59632,17.41372],[78.59545,17.41194],[78.59501,17.41187],[78.59498,17.41166],[78.59136,17.4106],[78.59156,17.41304],[78.5909,17.41277],[78.59086,17.41352],[78.5912,17.41368],[78.59115,17.41416],[78.59288,17.41403],[78.59279,17.41501],[78.59336,17.4164],[78.59757,17.41581]]]}},{"type":"Feature","bbox":[78.58592,17.40836,78.59156,17.41351],"properties":{"ward":6,"name":"Ashok Nagar"},"geometry":{"type":"Polygon","coordinates":[[[78.58891,17.41351],[78.59071,17.41269],[78.59156,17.41304],[78.59136,17.4106],[78.58939,17.40975],[78.58815,17.40939],[78.58646,17.40836],[78.58592,17.4109],[78.5879,17.41116],[78.58802,17.41191],[78.58819,17.41183],[78.58891,17.41351]]]}},{"type":"Feature","bbox":[78.57432,17.40459,78.58646,17.41428],"properties":{"ward":7,"name":"Laxmi Nagar Boduppal"},"geometry":{"type":"Polygon","coordinates":[[[78.58568,17.41221],[78.58646,17.40828],[78.58543,17.40796],[78.58233,17.40637],[78.58164,17.40615],[78.58148,17.4065],[78.58106,17.40637],[78.58065,17.40579],[78.5806,17.40515],[78.57986,17.40464],[78.57831,17.40459],[78.57574,17.40544],[78.57544,17.40624],[78.57467,17.4067],[78.57436,17.40729],[78.57432,17.40743],[78.57515,17.40847],[78.57499,17.40852],[78.57586,17.40937],[78.57687,17.41191],[78.5774,17.41263],[78.57905,17.41406],[78.57969,17.41428],[78.58336,17.41225],[78.58568,17.41221]]]}},{"type":"Feature","bbox":[78.57282,17.40852,78.57671,17.41297],"properties":{"ward":8,"name":"Dwaraka Nagar Boduppal"},"geometry":{"type":"Polygon","coordinates":[[[78.57671,17.41153],[78.57586,17.40937],[78.57524,17.40863],[78.57499,17.40852],[78.57453,17.40891],[78.57282,17.40917],[78.57326,17.41013],[78.57305,17.41047],[78.57356,17.41264],[78.57409,17.41251],[78.57421,17.41272],[78.57592,17.41267],[78.57594,17.41296],[78.57627,17.41297],[78.57632,17.41153],[78.57671,17.41153]]]}},{"type":"Feature","bbox":[78.57011,17.41047,78.57652,17.41556],"properties":{"ward":9,"name":"Srinivasa Colony Boduppal"},"geometry":{"type":"Polygon","coordinates":[[[78.57627,17.41297],[78.57594,17.41296],[78.57592,17.41267],[78.57421,17.41272],[78.57409,17.41251],[78.57356,17.41264],[78.57305,17.41047],[78.57259,17.41116],[78.57267,17.41163],[78.57163,17.41186],[78.5717,17.41218],[78.57071,17.41242],[78.57083,17.41286],[78.57011,17.41302],[78.57039,17.41489],[78.57357,17.41475],[78.57433,17.41416],[78.57559,17.41556],[78.57652,17.41506],[78.57623,17.41427],[78.57627,17.41297]]]}},{"type":"Feature","bbox":[78.56533,17.41302,78.57039,17.42037],"properties":{"ward":10,"name":"New Hemanagar Boduppal"},"geometry":{"type":"Polygon","coordinates":[[[78.57039,17.41489],[78.57025,17.4134],[78.57011,17.41302],[78.56974,17.41311],[78.56981,17.41352],[78.56744,17.41651],[78.56544,17.41872],[78.56533,17.41897],[78.56675,17.42037],[78.56982,17.41733],[78.56944,17.41599],[78.56969,17.4159],[78.57039,17.41489]]]}},{"type":"Feature","bbox":[78.56423,17.41897,78.57075,17.42826],"properties":{"ward":11,"name":"Hema Nagar Boduppal"},"geometry":{"type":"Polygon","coordinates":[[[78.56976,17.42561],[78.5688,17.42249],[78.56533,17.41897],[78.56423,17.42152],[78.56547,17.42275],[78.56831,17.42675],[78.56908,17.42632],[78.56963,17.42725],[78.56849,17.4276],[78.56874,17.42806],[78.56992,17.42826],[78.57057,17.42777],[78.57075,17.42729],[78.57035,17.42595],[78.56976,17.42561]]]}},{"type":"Feature","bbox":[78.56964,17.42203,78.58068,17.43005],"properties":{"ward":12,"name":"Ambedkar Nagar Boduppal"},"geometry":{"type":"Polygon","coordinates":[[[78.57439,17.43005],[78.57643,17.42852],[78.57658,17.42788],[78.57634,17.42782],[78.57649,17.42717],[78.57627,17.42705],[78.57671,17.42528],[78.58068,17.42654],[78.58063,17.42523],[78.57993,17.42517],[78.57937,17.42459],[78.57925,17.42409],[78.58059,17.42381],[78.58043,17.42312],[78.58017,17.42317],[78.57991,17.42203],[78.57717,17.42281],[78.57591,17.42384],[78.57439,17.42437],[78.57448,17.42485],[78.57386,17.42487],[78.572,17.42446],[78.57122,17.42488],[78.56967,17.42509],[78.56976,17.42561],[78.57035,17.42595],[78.57075,17.42729],[78.57057,17.42777],[78.56992,17.42826],[78.56964,17.42908],[78.57028,17.42945],[78.57052,17.4298],[78.57117,17.42999],[78.57181,17.4297],[78.57228,17.42862],[78.573,17.42907],[78.57345,17.42873],[78.57393,17.4293],[78.57343,17.4297],[78.57392,17.43004],[78.57404,17.42984],[78.57439,17.43005]]]}},{"type":"Feature","bbox":[78.57439,17.42485,78.58244,17.43276],"properties":{"ward":13,"name":"Rajiv Nagar Boduppal"},"geometry":{"type":"Polygon","coordinates":[[[78.57993,17.42517],[78.58063,17.42523],[78.58068,17.42654],[78.57671,17.42528],[78.57627,17.42705],[78.57649,17.42717],[78.57634,17.42782],[78.57658,17.42788],[78.57643,17.42852],[78.57439,17.43005],[78.57503,17.43054],[78.57492,17.4307],[78.5752,17.43086],[78.5751,17.43103],[78.57681,17.43203],[78.57709,17.43175],[78.57799,17.43276],[78.58244,17.42485],[78.57993,17.42517]]]}},{"type":"Feature","bbox":[78.57781,17.42353,78.58698,17.43784],"properties":{"ward":14,"name":"R N S Colony"},"geometry":{"type":"Polygon","coordinates":[[[78.5856,17.42451],[78.58477,17.42435],[78.58433,17.42353],[78.58299,17.42389],[78.57781,17.43305],[78.57826,17.43348],[78.5788,17.43441],[78.58198,17.43784],[78.58698,17.43524],[78.58632,17.43248],[78.58687,17.42841],[78.5856,17.42451]]]}},{"type":"Feature","bbox":[78.58198,17.42384,78.5975,17.44919],"properties":{"ward":15,"name":"Bolligudem Boduppal"},"geometry":{"type":"Polygon","coordinates":[[[78.5975,17.42692],[78.59296,17.42384],[78.59304,17.42429],[78.59163,17.42457],[78.59133,17.42615],[78.58979,17.42634],[78.58732,17.4253],[78.58616,17.42462],[78.5856,17.42451],[78.58687,17.42841],[78.58632,17.43248],[78.58698,17.43524],[78.58198,17.43784],[78.5843,17.44048],[78.58489,17.44206],[78.58529,17.44379],[78.5869,17.44484],[78.58683,17.44496],[78.58774,17.44579],[78.58977,17.44724],[78.58962,17.44749],[78.59016,17.44786],[78.59008,17.44807],[78.59113,17.44867],[78.59114,17.44898],[78.59487,17.44919],[78.59489,17.44821],[78.59518,17.44788],[78.5953,17.44324],[78.59514,17.4428],[78.59527,17.44207],[78.59559,17.442],[78.59496,17.43737],[78.59428,17.43399],[78.59412,17.43379],[78.59462,17.43207],[78.59454,17.43103],[78.59469,17.42998],[78.59495,17.42999],[78.59485,17.42915],[78.59522,17.42849],[78.59713,17.4286],[78.5975,17.42692]]]}},{"type":"Feature","bbox":[78.58259,17.4207,78.59304,17.42634],"properties":{"ward":16,"name":"Sbr Colony Boduppal"},"geometry":{"type":"Polygon","coordinates":[[[78.59296,17.42384],[78.59126,17.42271],[78.58846,17.42143],[78.58687,17.42122],[78.58518,17.4207],[78.58498,17.42085],[78.58484,17.4214],[78.58304,17.42144],[78.58326,17.42204],[78.58259,17.42224],[78.58299,17.42389],[78.58433,17.42353],[78.58477,17.42435],[78.58616,17.42462],[78.58732,17.4253],[78.58979,17.42634],[78.59133,17.42615],[78.59163,17.42457],[78.59304,17.42429],[78.59296,17.42384]]]}},{"type":"Feature","bbox":[78.58652,17.41269,78.59362,17.42279],"properties":{"ward":17,"name":"Maruthi Nagar"},"geometry":{"type":"Polygon","coordinates":[[[78.59336,17.4164],[78.59279,17.41501],[78.59288,17.41403],[78.59115,17.41416],[78.5912,17.41368],[78.59086,17.41352],[78.5909,17.41277],[78.59071,17.41269],[78.58917,17.41346],[78.58964,17.41484],[78.58652,17.41608],[78.5885,17.41989],[78.5885,17.42145],[78.59138,17.42279],[78.59118,17.42234],[78.59174,17.42231],[78.59193,17.41833],[78.59362,17.41829],[78.59336,17.4164]]]}},{"type":"Feature","bbox":[78.58461,17.4109,78.58964,17.41822],"properties":{"ward":18,"name":"Uday Nagar"},"geometry":{"type":"Polygon","coordinates":[[[78.58708,17.4172],[78.58652,17.41608],[78.58964,17.41484],[78.58917,17.41346],[78.58891,17.41351],[78.58819,17.41183],[78.58802,17.41191],[78.5879,17.41116],[78.58592,17.4109],[78.58461,17.41822],[78.58708,17.4172]]]}},{"type":"Feature","bbox":[78.57969,17.41221,78.58568,17.4187],"properties":{"ward":19,"name":"Brudavan Colony"},"geometry":{"type":"Polygon","coordinates":[[[78.58568,17.41221],[78.58336,17.41225],[78.57969,17.41428],[78.58098,17.416],[78.5827,17.41748],[78.58318,17.4187],[78.58454,17.41837],[78.58461,17.41822],[78.58568,17.41221]]]}},{"type":"Feature","bbox":[78.57623,17.41153,78.58318,17.42001],"properties":{"ward":20,"name":"Sri Sai Ram Nagar Boduppal"},"geometry":{"type":"Polygon","coordinates":[[[78.57963,17.41995],[78.58318,17.4187],[78.5827,17.41748],[78.58098,17.416],[78.57969,17.41428],[78.57905,17.41406],[78.5774,17.41263],[78.57671,17.41153],[78.57632,17.41153],[78.57623,17.41427],[78.57642,17.41452],[78.57665,17.41609],[78.57711,17.4175],[78.57661,17.41979],[78.578,17.42001],[78.57963,17.41995]]]}},{"type":"Feature","bbox":[78.57039,17.41416,78.57711,17.42117],"properties":{"ward":21,"name":"Rajashekar Colony"},"geometry":{"type":"Polygon","coordinates":[[[78.57661,17.41979],[78.57711,17.4175],[78.57665,17.41609],[78.57652,17.41506],[78.57559,17.41556],[78.57433,17.41416],[78.57357,17.41475],[78.57039,17.41489],[78.57096,17.42117],[78.57169,17.4201],[78.57257,17.41978],[78.57438,17.41946],[78.57661,17.41979]]]}},{"type":"Feature","bbox":[78.56675,17.41489,78.57096,17.42249],"properties":{"ward":22,"name":"Navodaya Colony"},"geometry":{"type":"Polygon","coordinates":[[[78.57096,17.42117],[78.57039,17.41489],[78.56969,17.4159],[78.56944,17.41599],[78.56982,17.41733],[78.56675,17.42037],[78.5688,17.42249],[78.57096,17.42117]]]}},{"type":"Feature","bbox":[78.5688,17.41946,78.57717,17.42509],"properties":{"ward":23,"name":"Mallaiah Nagar Colony"},"geometry":{"type":"Polygon","coordinates":[[[78.57717,17.42281],[78.57672,17.4214],[78.57648,17.42132],[78.57623,17.42039],[78.57661,17.42028],[78.57676,17.41981],[78.57483,17.41946],[78.57257,17.41978],[78.57169,17.4201],[78.5711,17.42107],[78.5688,17.42249],[78.56967,17.42509],[78.57122,17.42488],[78.572,17.42446],[78.57386,17.42487],[78.57448,17.42485],[78.57439,17.42437],[78.57591,17.42384],[78.57717,17.42281]]]}},{"type":"Feature","bbox":[78.57623,17.41981,78.58061,17.42281],"properties":{"ward":24,"name":"Bayanna Nagar"},"geometry":{"type":"Polygon","coordinates":[[[78.57717,17.42281],[78.58061,17.42191],[78.58021,17.42095],[78.57972,17.42057],[78.57963,17.41995],[78.578,17.42001],[78.57676,17.41981],[78.57661,17.42028],[78.57623,17.42039],[78.57648,17.42132],[78.57672,17.4214],[78.57717,17.42281]]]}},{"type":"Feature","bbox":[78.57925,17.42191,78.58299,17.42517],"properties":{"ward":25,"name":"Indira Nagar Colony"},"geometry":{"type":"Polygon","coordinates":[[[78.58244,17.42485],[78.58299,17.42389],[78.58288,17.42344],[78.58114,17.42378],[78.58076,17.42191],[78.57991,17.42203],[78.58017,17.42317],[78.58043,17.42312],[78.58059,17.42381],[78.57925,17.42409],[78.57937,17.42459],[78.57993,17.42517],[78.58244,17.42485]]]}},{"type":"Feature","bbox":[78.57963,17.41903,78.58326,17.42378],"properties":{"ward":26,"name":"Veera Reddy Nagar Boduppal"},"geometry":{"type":"Polygon","coordinates":[[[78.58288,17.42344],[78.58259,17.42224],[78.58326,17.42204],[78.58215,17.41903],[78.58056,17.41973],[78.57963,17.41995],[78.57972,17.42057],[78.58021,17.42095],[78.58061,17.42191],[78.58076,17.42191],[78.58114,17.42378],[78.58288,17.42344]]]}},{"type":"Feature","bbox":[78.58215,17.41837,78.58512,17.42144],"properties":{"ward":27,"name":"Yadav Basti"},"geometry":{"type":"Polygon","coordinates":[[[78.58512,17.42073],[78.5847,17.41978],[78.58473,17.4191],[78.58454,17.41837],[78.58215,17.41903],[78.58304,17.42144],[78.58484,17.4214],[78.58512,17.42073]]]}},{"type":"Feature","bbox":[78.58461,17.4172,78.5885,17.42145],"properties":{"ward":28,"name":"Sc Basthi"},"geometry":{"type":"Polygon","coordinates":[[[78.58708,17.4172],[78.58461,17.41822],[78.58485,17.42022],[78.58512,17.42073],[78.58687,17.42122],[78.5885,17.42145],[78.5885,17.41989],[78.58708,17.4172]]]}}]}