{"type":"FeatureCollection","features":[{"type":"Feature","bbox":[76.1778,17.04931,76.22086,17.09328],"properties":{"ward":1},"geometry":{"type":"Polygon","coordinates":[[[76.20809,17.08903],[76.20835,17.08773],[76.2108,17.0878],[76.21141,17.0869],[76.21121,17.08661],[76.21162,17.08626],[76.21306,17.08591],[76.21354,17.08553],[76.21622,17.08791],[76.21726,17.0882],[76.21625,17.0903],[76.21837,17.09079],[76.21861,17.09078],[76.2188,17.09056],[76.22,17.08466],[76.21999,17.07627],[76.22086,17.06201],[76.21817,17.06151],[76.20994,17.06095],[76.20904,17.06072],[76.20546,17.06052],[76.2036,17.06019],[76.19862,17.05984],[76.19776,17.05959],[76.19563,17.05539],[76.19183,17.04931],[76.19165,17.0503],[76.19118,17.05065],[76.19088,17.05039],[76.18793,17.05214],[76.18465,17.05374],[76.18397,17.05342],[76.1778,17.05613],[76.17837,17.05714],[76.17953,17.05845],[76.18029,17.05917],[76.18098,17.05955],[76.1794,17.06093],[76.18101,17.06514],[76.18301,17.07416],[76.18317,17.07555],[76.18357,17.07659],[76.18364,17.08066],[76.18398,17.08334],[76.18329,17.08621],[76.18392,17.09012],[76.18466,17.09328],[76.19613,17.09139],[76.20232,17.09068],[76.20577,17.08954],[76.20809,17.08903]]]}},{"type":"Feature","bbox":[76.20801,17.08553,76.21861,17.09489],"properties":{"ward":2},"geometry":{"type":"Polygon","coordinates":[[[76.21855,17.09267],[76.21861,17.09078],[76.21625,17.0903],[76.21726,17.0882],[76.21622,17.08791],[76.21354,17.08553],[76.21306,17.08591],[76.21162,17.08626],[76.21121,17.08661],[76.21141,17.0869],[76.2108,17.0878],[76.20835,17.08773],[76.20808,17.08908],[76.20801,17.09075],[76.20813,17.09092],[76.2081,17.0933],[76.20999,17.09374],[76.21327,17.09489],[76.21435,17.09371],[76.2147,17.09285],[76.21486,17.09191],[76.21578,17.09206],[76.2159,17.09167],[76.21705,17.09257],[76.21809,17.09251],[76.21811,17.09263],[76.21855,17.09267]]]}},{"type":"Feature","bbox":[76.18445,17.08903,76.21855,17.09907],"properties":{"ward":3},"geometry":{"type":"Polygon","coordinates":[[[76.21853,17.09381],[76.21855,17.09267],[76.21811,17.09263],[76.21809,17.09251],[76.21705,17.09257],[76.2159,17.09167],[76.21578,17.09206],[76.21486,17.09191],[76.2147,17.09285],[76.21435,17.09371],[76.21327,17.09489],[76.20999,17.09374],[76.2081,17.0933],[76.20809,17.08903],[76.20577,17.08954],[76.20232,17.09068],[76.19613,17.09139],[76.18466,17.09328],[76.1848,17.09392],[76.18445,17.09907],[76.19449,17.0987],[76.19437,17.09632],[76.20257,17.09589],[76.21005,17.09675],[76.21403,17.09663],[76.2142,17.09538],[76.21677,17.09617],[76.21698,17.09455],[76.21662,17.09396],[76.21853,17.09381]]]}},{"type":"Feature","bbox":[76.18415,17.09381,76.21952,17.1146],"properties":{"ward":4},"geometry":{"type":"Polygon","coordinates":[[[76.21938,17.09538],[76.21952,17.09475],[76.21852,17.09477],[76.21853,17.09381],[76.21734,17.09387],[76.21662,17.09396],[76.21698,17.09455],[76.21677,17.09617],[76.2142,17.09538],[76.21403,17.09663],[76.21005,17.09675],[76.20257,17.09589],[76.19437,17.09632],[76.19449,17.0987],[76.18445,17.09907],[76.18415,17.10323],[76.18444,17.10336],[76.18426,17.10474],[76.1861,17.10479],[76.18671,17.11277],[76.18748,17.1146],[76.19154,17.11219],[76.19311,17.11163],[76.19405,17.11103],[76.19696,17.10974],[76.20248,17.10454],[76.20654,17.10238],[76.20752,17.1017],[76.20932,17.10008],[76.21031,17.0996],[76.21813,17.09729],[76.21824,17.09678],[76.21866,17.09609],[76.21873,17.09541],[76.21938,17.09538]]]}},{"type":"Feature","bbox":[76.21852,17.09329,76.21978,17.09477],"properties":{"ward":5},"geometry":{"type":"Polygon","coordinates":[[[76.21952,17.09475],[76.21978,17.09401],[76.21917,17.09396],[76.21904,17.09329],[76.21854,17.09329],[76.21852,17.09477],[76.21952,17.09475]]]}},{"type":"Feature","bbox":[76.21854,17.09048,76.2198,17.09401],"properties":{"ward":6},"geometry":{"type":"Polygon","coordinates":[[[76.2198,17.0939],[76.21961,17.09136],[76.21948,17.09131],[76.21958,17.09055],[76.21884,17.09048],[76.21861,17.09078],[76.21854,17.09329],[76.21904,17.09329],[76.21914,17.09393],[76.2193,17.094],[76.21978,17.09401],[76.2198,17.0939]]]}},{"type":"Feature","bbox":[76.21948,17.09055,76.22198,17.0922],"properties":{"ward":7},"geometry":{"type":"Polygon","coordinates":[[[76.21964,17.0922],[76.22073,17.09215],[76.22079,17.09177],[76.22139,17.09173],[76.22121,17.09148],[76.22198,17.09137],[76.22196,17.09068],[76.22024,17.09083],[76.21958,17.09055],[76.21948,17.09131],[76.21961,17.09136],[76.21964,17.0922]]]}},{"type":"Feature","bbox":[76.21964,17.0922,76.22129,17.0941],"properties":{"ward":8},"geometry":{"type":"Polygon","coordinates":[[[76.22129,17.09357],[76.22113,17.09319],[76.22072,17.09286],[76.22048,17.0922],[76.21964,17.0922],[76.21983,17.09324],[76.21976,17.0941],[76.22046,17.09401],[76.22129,17.09357]]]}},{"type":"Feature","bbox":[76.22048,17.09173,76.22219,17.09395],"properties":{"ward":9},"geometry":{"type":"Polygon","coordinates":[[[76.22219,17.09272],[76.22139,17.09173],[76.22079,17.09177],[76.22073,17.09215],[76.22048,17.0922],[76.22072,17.09286],[76.22113,17.09319],[76.22126,17.09354],[76.22196,17.09395],[76.22206,17.09333],[76.22192,17.0929],[76.22219,17.09272]]]}},{"type":"Feature","bbox":[76.21938,17.09357,76.22178,17.09549],"properties":{"ward":10},"geometry":{"type":"Polygon","coordinates":[[[76.22178,17.09484],[76.22151,17.09472],[76.22145,17.09371],[76.22129,17.09357],[76.22046,17.09401],[76.21976,17.0941],[76.21938,17.09538],[76.22041,17.09549],[76.22178,17.09484]]]}},{"type":"Feature","bbox":[76.22145,17.09272,76.22367,17.09484],"properties":{"ward":11},"geometry":{"type":"Polygon","coordinates":[[[76.22367,17.09425],[76.22219,17.09272],[76.22192,17.0929],[76.22206,17.09333],[76.22199,17.09393],[76.22145,17.09371],[76.22151,17.09472],[76.22178,17.09484],[76.22287,17.09426],[76.22367,17.09425]]]}},{"type":"Feature","bbox":[76.21938,17.09538,76.22022,17.09735],"properties":{"ward":12},"geometry":{"type":"Polygon","coordinates":[[[76.22022,17.09654],[76.2201,17.09548],[76.21938,17.09538],[76.21959,17.09731],[76.22,17.09735],[76.22022,17.09654]]]}},{"type":"Feature","bbox":[76.21884,17.06201,76.25358,17.09137],"properties":{"ward":13},"geometry":{"type":"Polygon","coordinates":[[[76.25358,17.08141],[76.25235,17.07725],[76.25175,17.0721],[76.24613,17.07193],[76.24101,17.0694],[76.24022,17.06826],[76.23827,17.06955],[76.23737,17.06977],[76.23624,17.06963],[76.23431,17.07033],[76.23403,17.06952],[76.23314,17.06901],[76.23302,17.0681],[76.23242,17.06764],[76.23275,17.06693],[76.2329,17.06587],[76.2317,17.0633],[76.22661,17.06275],[76.22444,17.06232],[76.22372,17.06241],[76.22086,17.06201],[76.21999,17.07627],[76.22,17.08466],[76.21884,17.09048],[76.21951,17.09053],[76.22024,17.09083],[76.22196,17.09068],[76.22198,17.09137],[76.223,17.09137],[76.22304,17.09057],[76.22556,17.09008],[76.22718,17.08907],[76.23484,17.08793],[76.23973,17.08594],[76.2417,17.08552],[76.25043,17.08236],[76.25358,17.08141]]]}},{"type":"Feature","bbox":[76.22121,17.08141,76.29101,17.10845],"properties":{"ward":14},"geometry":{"type":"Polygon","coordinates":[[[76.25358,17.08141],[76.25043,17.08236],[76.2417,17.08552],[76.23973,17.08594],[76.23495,17.0879],[76.22718,17.08907],[76.22556,17.09008],[76.22304,17.09057],[76.223,17.09137],[76.22121,17.09148],[76.22315,17.09377],[76.22391,17.09437],[76.22505,17.09456],[76.22871,17.09475],[76.23311,17.09464],[76.23859,17.09686],[76.24128,17.09748],[76.24231,17.09895],[76.25135,17.10818],[76.25344,17.10829],[76.25407,17.10845],[76.25514,17.10793],[76.25634,17.10779],[76.26068,17.10748],[76.2667,17.10728],[76.26957,17.10667],[76.273,17.10638],[76.27676,17.10568],[76.28243,17.10545],[76.28452,17.1051],[76.29083,17.10465],[76.29101,17.10041],[76.29002,17.10025],[76.29034,17.09561],[76.2835,17.09553],[76.28265,17.09636],[76.28133,17.09654],[76.28017,17.09825],[76.27765,17.09788],[76.27321,17.09823],[76.26988,17.09821],[76.26439,17.09792],[76.26252,17.09754],[76.26141,17.09806],[76.26013,17.09827],[76.25852,17.09824],[76.25812,17.09602],[76.2558,17.08777],[76.25539,17.08583],[76.25455,17.08405],[76.25358,17.08141]]]}},{"type":"Feature","bbox":[76.2201,17.09423,76.25135,17.10818],"properties":{"ward":15},"geometry":{"type":"Polygon","coordinates":[[[76.25135,17.10818],[76.24231,17.09895],[76.24118,17.09743],[76.23859,17.09686],[76.23286,17.09461],[76.22871,17.09475],[76.22505,17.09456],[76.22305,17.09423],[76.22054,17.09545],[76.2201,17.09548],[76.22022,17.09654],[76.22051,17.09677],[76.22103,17.09668],[76.22123,17.09641],[76.22197,17.09645],[76.22427,17.09613],[76.22483,17.09655],[76.2254,17.09727],[76.22681,17.09793],[76.22706,17.0978],[76.22879,17.09777],[76.2297,17.098],[76.23027,17.09777],[76.23254,17.10148],[76.23452,17.10354],[76.23682,17.10411],[76.23821,17.10425],[76.24136,17.10418],[76.24432,17.10461],[76.246,17.10534],[76.24893,17.10723],[76.25022,17.10772],[76.25066,17.10804],[76.25135,17.10818]]]}},{"type":"Feature","bbox":[76.22043,17.09613,76.25118,17.11757],"properties":{"ward":16},"geometry":{"type":"Polygon","coordinates":[[[76.23725,17.11746],[76.23708,17.11681],[76.2398,17.11606],[76.24439,17.11602],[76.2477,17.11552],[76.24841,17.11174],[76.24881,17.10854],[76.25118,17.1082],[76.24893,17.10723],[76.246,17.10534],[76.24432,17.10461],[76.24136,17.10418],[76.23821,17.10425],[76.23682,17.10411],[76.23452,17.10354],[76.23254,17.10148],[76.23027,17.09777],[76.2297,17.098],[76.22879,17.09777],[76.22706,17.0978],[76.22681,17.09793],[76.2254,17.09727],[76.22483,17.09655],[76.22427,17.09613],[76.22197,17.09645],[76.22123,17.09641],[76.22103,17.09668],[76.22061,17.09679],[76.22077,17.0971],[76.22046,17.09746],[76.22043,17.09778],[76.221,17.09799],[76.22101,17.09855],[76.22055,17.09856],[76.22091,17.09872],[76.22253,17.10037],[76.22891,17.10838],[76.23243,17.11243],[76.23296,17.11314],[76.23534,17.11757],[76.23725,17.11746]]]}},{"type":"Feature","bbox":[76.2199,17.09657,76.22101,17.09855],"properties":{"ward":17},"geometry":{"type":"Polygon","coordinates":[[[76.22077,17.0971],[76.22041,17.09657],[76.22018,17.09659],[76.22,17.09735],[76.22019,17.09749],[76.22011,17.09776],[76.2199,17.09785],[76.22048,17.09855],[76.22101,17.09855],[76.221,17.09799],[76.22043,17.09778],[76.22046,17.09746],[76.22077,17.0971]]]}},{"type":"Feature","bbox":[76.20532,17.09731,76.24473,17.14631],"properties":{"ward":18},"geometry":{"type":"Polygon","coordinates":[[[76.23725,17.11746],[76.23534,17.11757],[76.23296,17.11314],[76.23243,17.11243],[76.22891,17.10838],[76.22253,17.10037],[76.21996,17.09794],[76.21991,17.09781],[76.22011,17.09776],[76.22019,17.09742],[76.21959,17.09731],[76.21959,17.09859],[76.21877,17.09885],[76.21683,17.10122],[76.21552,17.10248],[76.2141,17.10454],[76.21012,17.11819],[76.20928,17.11992],[76.20806,17.12529],[76.20783,17.13035],[76.20696,17.13799],[76.20532,17.14511],[76.20936,17.14561],[76.21362,17.14556],[76.21791,17.14576],[76.22273,17.14627],[76.22452,17.14631],[76.22899,17.146],[76.22721,17.13796],[76.23138,17.13698],[76.23076,17.13516],[76.2385,17.13335],[76.24281,17.13262],[76.24311,17.13229],[76.24379,17.132],[76.24351,17.12834],[76.24429,17.12829],[76.24429,17.12757],[76.24473,17.12653],[76.2423,17.12697],[76.24155,17.1254],[76.24083,17.12472],[76.23906,17.12156],[76.2375,17.11833],[76.23725,17.11746]]]}},{"type":"Feature","bbox":[76.18748,17.09538,76.21961,17.14511],"properties":{"ward":19},"geometry":{"type":"Polygon","coordinates":[[[76.20532,17.14511],[76.20696,17.13799],[76.20783,17.13035],[76.20806,17.12529],[76.20928,17.11992],[76.21012,17.11819],[76.2141,17.10454],[76.21552,17.10248],[76.21683,17.10122],[76.21877,17.09885],[76.21961,17.09856],[76.21938,17.09538],[76.21873,17.09541],[76.21866,17.09609],[76.21824,17.09678],[76.21813,17.09729],[76.21031,17.0996],[76.20932,17.10008],[76.20752,17.1017],[76.20654,17.10238],[76.20248,17.10454],[76.19696,17.10974],[76.19405,17.11103],[76.19311,17.11163],[76.19154,17.11219],[76.18748,17.1146],[76.18921,17.11874],[76.18906,17.12061],[76.19462,17.12141],[76.19394,17.12651],[76.19337,17.12905],[76.19322,17.13068],[76.19305,17.13069],[76.19333,17.13109],[76.19376,17.13263],[76.19421,17.13502],[76.19433,17.13747],[76.19474,17.1395],[76.19497,17.14397],[76.19634,17.1438],[76.20532,17.14511]]]}}]}