{"type":"FeatureCollection","features":[{"type":"Feature","bbox":[84.46864,25.76563,84.4731,25.76844],"properties":{"ward":1,"name":"Harijan Basti"},"geometry":{"type":"Polygon","coordinates":[[[84.46915,25.76563],[84.46864,25.76593],[84.46931,25.76743],[84.46962,25.76739],[84.46967,25.7679],[84.46998,25.76844],[84.47081,25.76783],[84.4708,25.76749],[84.4731,25.76713],[84.47298,25.76683],[84.47197,25.76664],[84.47014,25.76595],[84.47001,25.76605],[84.46915,25.76563]]]}},{"type":"Feature","bbox":[84.44953,25.75209,84.45483,25.76037],"properties":{"ward":2,"name":"Jagdeva Dhahi"},"geometry":{"type":"Polygon","coordinates":[[[84.45089,25.75668],[84.4524,25.76034],[84.45265,25.76037],[84.45366,25.75982],[84.45483,25.75875],[84.45309,25.75583],[84.45223,25.75334],[84.45279,25.75318],[84.45254,25.75258],[84.45223,25.75264],[84.45197,25.75209],[84.44953,25.75456],[84.45015,25.7563],[84.44977,25.75637],[84.44979,25.75663],[84.45089,25.75668]]]}},{"type":"Feature","bbox":[84.45201,25.75153,84.46564,25.76397],"properties":{"ward":3,"name":"Mish Ke Mathiya Shamanthai"},"geometry":{"type":"Polygon","coordinates":[[[84.45987,25.76265],[84.46411,25.76395],[84.46473,25.76397],[84.46564,25.75624],[84.45788,25.75788],[84.45701,25.75846],[84.45685,25.75822],[84.4562,25.75738],[84.45598,25.75734],[84.45558,25.75681],[84.45609,25.75655],[84.4558,25.75614],[84.45538,25.75634],[84.45517,25.75599],[84.45495,25.75608],[84.45454,25.75527],[84.45529,25.7548],[84.45478,25.75383],[84.45395,25.75409],[84.45366,25.75334],[84.45416,25.75317],[84.45372,25.7521],[84.45403,25.752],[84.45394,25.75174],[84.45371,25.7518],[84.45353,25.75153],[84.45201,25.75204],[84.45226,25.75261],[84.45255,25.75251],[84.45284,25.75319],[84.45228,25.7534],[84.45314,25.75586],[84.45479,25.75863],[84.45492,25.75874],[84.45558,25.75802],[84.45602,25.75831],[84.45622,25.75819],[84.45608,25.75801],[84.45647,25.75776],[84.45987,25.76265]]]}},{"type":"Feature","bbox":[84.46482,25.75774,84.48799,25.76862],"properties":{"ward":4,"name":"Lila Chapra"},"geometry":{"type":"Polygon","coordinates":[[[84.47336,25.76682],[84.47525,25.76646],[84.47942,25.76685],[84.48789,25.76862],[84.48786,25.7677],[84.4876,25.76744],[84.48768,25.76708],[84.48727,25.76664],[84.48755,25.76651],[84.48748,25.76614],[84.48797,25.76608],[84.48799,25.76593],[84.48748,25.76595],[84.48746,25.76568],[84.48706,25.76564],[84.48681,25.76503],[84.48641,25.76508],[84.48649,25.76534],[84.48562,25.76549],[84.48466,25.76308],[84.48413,25.76222],[84.48511,25.76166],[84.4851,25.76139],[84.48405,25.75937],[84.48281,25.75774],[84.47779,25.76033],[84.47723,25.76055],[84.47709,25.7602],[84.47596,25.76063],[84.47609,25.761],[84.47567,25.76117],[84.47334,25.76186],[84.47221,25.76193],[84.47224,25.76203],[84.47067,25.76271],[84.46764,25.76384],[84.46691,25.76316],[84.46655,25.76336],[84.46609,25.76285],[84.46523,25.76318],[84.46496,25.7628],[84.46482,25.76584],[84.46578,25.76519],[84.46672,25.7648],[84.46977,25.7657],[84.47036,25.76573],[84.4707,25.76599],[84.47336,25.76682]]]}},{"type":"Feature","bbox":[84.45972,25.76266,84.46473,25.7721],"properties":{"ward":5,"name":"Kuwar Toli"},"geometry":{"type":"Polygon","coordinates":[[[84.46008,25.76302],[84.46112,25.76318],[84.46139,25.76346],[84.46368,25.76405],[84.46353,25.76538],[84.46396,25.76606],[84.46315,25.76619],[84.46386,25.76985],[84.46412,25.7698],[84.46418,25.77095],[84.46316,25.77108],[84.46323,25.77146],[84.46296,25.77148],[84.46292,25.77198],[84.46366,25.7721],[84.46443,25.77194],[84.46464,25.77181],[84.46473,25.77144],[84.46437,25.76851],[84.46469,25.76404],[84.46405,25.76398],[84.45972,25.76266],[84.46008,25.76302]]]}},{"type":"Feature","bbox":[84.46461,25.76508,84.46995,25.77238],"properties":{"ward":6,"name":"Bariya Paschim Tola"},"geometry":{"type":"Polygon","coordinates":[[[84.46694,25.76978],[84.46795,25.76944],[84.46826,25.76904],[84.46995,25.76849],[84.46965,25.76793],[84.4696,25.76742],[84.4693,25.76747],[84.46861,25.76592],[84.46902,25.76567],[84.46714,25.76508],[84.46662,25.7651],[84.4653,25.76565],[84.46475,25.76659],[84.46461,25.76821],[84.46497,25.77146],[84.46482,25.77148],[84.46469,25.77229],[84.46578,25.77238],[84.46746,25.77123],[84.46694,25.76978]]]}},{"type":"Feature","bbox":[84.44893,25.77171,84.46461,25.77951],"properties":{"ward":7,"name":"Bariya Kanahi"},"geometry":{"type":"Polygon","coordinates":[[[84.46461,25.77202],[84.46346,25.77216],[84.4607,25.77171],[84.45821,25.7719],[84.45585,25.77182],[84.4557,25.77275],[84.45587,25.77438],[84.44893,25.7748],[84.44974,25.77734],[84.45062,25.77946],[84.45188,25.77902],[84.45292,25.77884],[84.45301,25.77943],[84.45647,25.77924],[84.45786,25.77951],[84.45862,25.77883],[84.45872,25.77899],[84.45989,25.77887],[84.45971,25.77809],[84.46053,25.77783],[84.46028,25.77733],[84.46111,25.77662],[84.46166,25.77661],[84.46161,25.7765],[84.46261,25.77592],[84.4625,25.77571],[84.46366,25.77533],[84.46426,25.77533],[84.46438,25.77393],[84.46415,25.77365],[84.46448,25.77289],[84.46461,25.77202]]]}},{"type":"Feature","bbox":[84.46424,25.77061,84.47816,25.7849],"properties":{"ward":8,"name":"Makdumpur"},"geometry":{"type":"Polygon","coordinates":[[[84.47134,25.77103],[84.47029,25.77145],[84.47044,25.77179],[84.47011,25.77192],[84.47048,25.77358],[84.47024,25.77381],[84.46972,25.77392],[84.46948,25.77458],[84.46787,25.77492],[84.46701,25.77295],[84.46608,25.7723],[84.46547,25.77246],[84.46465,25.7724],[84.46426,25.77367],[84.46446,25.7738],[84.46424,25.77679],[84.46438,25.77732],[84.4656,25.77931],[84.46674,25.7849],[84.47367,25.78393],[84.47672,25.78394],[84.47677,25.78448],[84.47649,25.78457],[84.47666,25.78481],[84.47715,25.78468],[84.47732,25.78485],[84.47816,25.78458],[84.47723,25.78361],[84.47515,25.78033],[84.47527,25.77967],[84.47366,25.77659],[84.47294,25.77404],[84.47312,25.77382],[84.47298,25.77344],[84.47334,25.77329],[84.47325,25.77313],[84.47353,25.77296],[84.47341,25.77272],[84.47286,25.772],[84.47243,25.77209],[84.47222,25.77139],[84.47202,25.77146],[84.4719,25.77127],[84.47202,25.77121],[84.47175,25.77085],[84.47181,25.77061],[84.47124,25.7708],[84.47134,25.77103]]]}},{"type":"Feature","bbox":[84.46609,25.76975,84.47127,25.77483],"properties":{"ward":9,"name":"Yogibaba Nagar/Gohaniya Tola"},"geometry":{"type":"Polygon","coordinates":[[[84.47127,25.77101],[84.47096,25.77072],[84.47035,25.76975],[84.46984,25.77005],[84.46922,25.77007],[84.46922,25.77028],[84.46718,25.77142],[84.46609,25.77223],[84.4671,25.77296],[84.46788,25.77483],[84.46941,25.77453],[84.46966,25.77391],[84.47031,25.77367],[84.47036,25.77326],[84.47007,25.77191],[84.4704,25.77178],[84.47027,25.77142],[84.47127,25.77101]]]}},{"type":"Feature","bbox":[84.46698,25.76848,84.47029,25.77121],"properties":{"ward":10,"name":"Mechiriya Tola"},"geometry":{"type":"Polygon","coordinates":[[[84.47029,25.76975],[84.47012,25.76916],[84.47027,25.76911],[84.47022,25.76884],[84.46999,25.76848],[84.46939,25.76881],[84.46829,25.76907],[84.46793,25.76949],[84.46698,25.76981],[84.4675,25.77121],[84.46918,25.77025],[84.46918,25.77005],[84.46983,25.77],[84.47029,25.76975]]]}},{"type":"Feature","bbox":[84.47002,25.76716,84.47413,25.77078],"properties":{"ward":11,"name":"Champa Sati Nagar"},"geometry":{"type":"Polygon","coordinates":[[[84.47311,25.76716],[84.47091,25.7675],[84.47083,25.76786],[84.47002,25.76845],[84.47027,25.76877],[84.47035,25.76905],[84.47022,25.76918],[84.47039,25.76971],[84.47108,25.77078],[84.4724,25.77039],[84.47413,25.77016],[84.47352,25.7694],[84.47311,25.76716]]]}},{"type":"Feature","bbox":[84.47177,25.77021,84.47484,25.77483],"properties":{"ward":12,"name":"Rakba Tola"},"geometry":{"type":"Polygon","coordinates":[[[84.47183,25.77059],[84.4719,25.77077],[84.47177,25.77083],[84.47206,25.77122],[84.47197,25.77137],[84.47223,25.77135],[84.47246,25.77201],[84.47308,25.77205],[84.47357,25.77296],[84.4733,25.77315],[84.47337,25.77331],[84.47305,25.77347],[84.47315,25.77382],[84.47304,25.77416],[84.47326,25.77483],[84.47484,25.77303],[84.47477,25.77219],[84.47429,25.77041],[84.47421,25.77021],[84.47183,25.77059]]]}},{"type":"Feature","bbox":[84.47313,25.76664,84.48089,25.77088],"properties":{"ward":13,"name":"Baduraha"},"geometry":{"type":"Polygon","coordinates":[[[84.47313,25.76689],[84.47355,25.7692],[84.47378,25.76959],[84.47443,25.77007],[84.47463,25.77088],[84.48088,25.77039],[84.48089,25.76943],[84.48003,25.76934],[84.47969,25.76708],[84.47488,25.76664],[84.47369,25.76693],[84.47313,25.76689]]]}},{"type":"Feature","bbox":[84.47336,25.77044,84.4854,25.78473],"properties":{"ward":14,"name":"Bibi Tola"},"geometry":{"type":"Polygon","coordinates":[[[84.47859,25.78436],[84.47927,25.78384],[84.47912,25.78362],[84.48001,25.78329],[84.48031,25.78356],[84.48187,25.78255],[84.48172,25.78241],[84.48242,25.78197],[84.48215,25.78153],[84.48362,25.78089],[84.48376,25.78106],[84.4839,25.781],[84.48385,25.78088],[84.4854,25.78019],[84.48509,25.77975],[84.48424,25.78013],[84.4831,25.77823],[84.48202,25.77241],[84.48204,25.77205],[84.48239,25.77194],[84.48237,25.77086],[84.48095,25.77075],[84.48095,25.77061],[84.48065,25.77044],[84.47963,25.77044],[84.47466,25.77093],[84.47493,25.77209],[84.47504,25.77303],[84.47494,25.7729],[84.47476,25.77337],[84.47336,25.77483],[84.47348,25.77581],[84.47546,25.77968],[84.47546,25.78032],[84.47568,25.78086],[84.47733,25.78349],[84.47855,25.78473],[84.47866,25.78467],[84.47859,25.78436]]]}},{"type":"Feature","bbox":[84.47986,25.76721,84.49026,25.77277],"properties":{"ward":15,"name":"Mish Ke Mathiya"},"geometry":{"type":"Polygon","coordinates":[[[84.49026,25.77111],[84.49004,25.77035],[84.48889,25.77039],[84.4889,25.7701],[84.48815,25.77],[84.48824,25.76945],[84.48789,25.7694],[84.48814,25.76875],[84.47986,25.76721],[84.48014,25.76923],[84.48097,25.76937],[84.48091,25.77042],[84.48076,25.77046],[84.48101,25.77072],[84.48241,25.77081],[84.48242,25.77194],[84.48205,25.77208],[84.48209,25.77277],[84.48359,25.77224],[84.48351,25.77153],[84.48377,25.7714],[84.48449,25.77134],[84.48466,25.77166],[84.48543,25.77168],[84.4855,25.77223],[84.48584,25.77222],[84.48612,25.7722],[84.48614,25.77182],[84.48656,25.77185],[84.48669,25.77107],[84.49026,25.77111]]]}},{"type":"Feature","bbox":[84.48262,25.77506,84.49111,25.78015],"properties":{"ward":16,"name":"Mirzapur"},"geometry":{"type":"Polygon","coordinates":[[[84.4854,25.78015],[84.48602,25.77999],[84.48604,25.77984],[84.4868,25.77941],[84.48646,25.7789],[84.48716,25.77864],[84.48732,25.77891],[84.48758,25.77887],[84.48867,25.77832],[84.48895,25.77812],[84.48891,25.77798],[84.49042,25.77716],[84.49111,25.77633],[84.49083,25.77616],[84.49085,25.77635],[84.49046,25.77655],[84.49019,25.77593],[84.49003,25.776],[84.48988,25.77577],[84.48812,25.77658],[84.48851,25.77738],[84.48785,25.77781],[84.48805,25.77809],[84.48697,25.77852],[84.48669,25.7781],[84.48659,25.77816],[84.48673,25.77836],[84.48608,25.77875],[84.48619,25.77895],[84.48541,25.77932],[84.48496,25.77864],[84.48467,25.77877],[84.48446,25.77859],[84.48365,25.77712],[84.48486,25.77683],[84.48417,25.77506],[84.48262,25.7753],[84.48297,25.77769],[84.48356,25.77905],[84.48426,25.78008],[84.48508,25.77972],[84.4854,25.78015]]]}}]}