{"type":"FeatureCollection","features":[{"type":"Feature","bbox":[81.23867,27.24591,81.24658,27.2539],"properties":{"ward":1,"name":"Khale Tola"},"geometry":{"type":"Polygon","coordinates":[[[81.24478,27.25018],[81.2426,27.24797],[81.24112,27.24591],[81.23867,27.2482],[81.23941,27.24893],[81.23959,27.24891],[81.23993,27.24938],[81.23965,27.2496],[81.24028,27.25012],[81.24033,27.25057],[81.24194,27.25213],[81.24345,27.25331],[81.2438,27.2539],[81.24658,27.25232],[81.24478,27.25018]]]}},{"type":"Feature","bbox":[81.24009,27.23937,81.24522,27.24605],"properties":{"ward":2,"name":"Shalari"},"geometry":{"type":"Polygon","coordinates":[[[81.24378,27.24353],[81.24465,27.24266],[81.24421,27.24234],[81.24522,27.24137],[81.24413,27.24035],[81.24408,27.24021],[81.24455,27.23976],[81.24419,27.23937],[81.24364,27.23963],[81.24295,27.24026],[81.24069,27.24151],[81.24023,27.24218],[81.24009,27.24365],[81.24121,27.24605],[81.2415,27.24588],[81.24205,27.24516],[81.24281,27.24381],[81.24293,27.24371],[81.24347,27.2441],[81.2438,27.24384],[81.24378,27.24353]]]}},{"type":"Feature","bbox":[81.23632,27.24373,81.24112,27.24844],"properties":{"ward":3,"name":"Bakhariya"},"geometry":{"type":"Polygon","coordinates":[[[81.23839,27.24844],[81.24112,27.2459],[81.24011,27.24373],[81.23933,27.24466],[81.23896,27.24587],[81.23851,27.24637],[81.23813,27.24664],[81.23632,27.24723],[81.23684,27.24768],[81.23786,27.24796],[81.23839,27.24844]]]}},{"type":"Feature","bbox":[81.22476,27.23736,81.23839,27.25117],"properties":{"ward":4,"name":"Belhara-Ba-Azeed Khan Mazar"},"geometry":{"type":"Polygon","coordinates":[[[81.23839,27.24844],[81.23786,27.24796],[81.23664,27.24757],[81.23621,27.24719],[81.2359,27.2466],[81.23439,27.24538],[81.23384,27.24473],[81.23441,27.24425],[81.23179,27.24068],[81.23153,27.24001],[81.23143,27.24007],[81.23061,27.23914],[81.23135,27.23881],[81.2308,27.23805],[81.23124,27.23777],[81.23085,27.23736],[81.23023,27.23781],[81.22991,27.23742],[81.2286,27.23846],[81.22798,27.23798],[81.22741,27.23835],[81.2288,27.23992],[81.22942,27.2413],[81.22476,27.24412],[81.22689,27.24775],[81.22627,27.24813],[81.22678,27.24896],[81.23177,27.24807],[81.2341,27.24979],[81.2353,27.25117],[81.23641,27.25005],[81.23839,27.24844]]]}},{"type":"Feature","bbox":[81.23061,27.22888,81.24022,27.24723],"properties":{"ward":5,"name":"Jallan Nagar"},"geometry":{"type":"Polygon","coordinates":[[[81.23632,27.24723],[81.23813,27.24664],[81.23851,27.24637],[81.23896,27.24587],[81.23933,27.24466],[81.24011,27.24373],[81.24022,27.24218],[81.23939,27.23959],[81.24021,27.23743],[81.24003,27.23698],[81.23848,27.23477],[81.23672,27.2314],[81.23584,27.22888],[81.23356,27.23021],[81.23355,27.23008],[81.23337,27.23019],[81.23301,27.22967],[81.2315,27.23058],[81.23203,27.23123],[81.23266,27.23084],[81.23295,27.23125],[81.23357,27.23091],[81.23381,27.23233],[81.2342,27.23323],[81.2335,27.23363],[81.23326,27.23323],[81.23287,27.23348],[81.23317,27.2339],[81.23366,27.23377],[81.23376,27.2339],[81.2341,27.23369],[81.23423,27.23395],[81.23376,27.23411],[81.23408,27.23468],[81.23348,27.23496],[81.23378,27.23531],[81.23358,27.23562],[81.23245,27.23629],[81.23273,27.23664],[81.23215,27.23699],[81.23202,27.2368],[81.2316,27.2371],[81.23193,27.23747],[81.23161,27.23766],[81.23211,27.23824],[81.23061,27.23914],[81.23143,27.24007],[81.23153,27.24001],[81.23179,27.24068],[81.23441,27.24425],[81.23384,27.24473],[81.23439,27.24538],[81.2359,27.2466],[81.23632,27.24723]]]}},{"type":"Feature","bbox":[81.23955,27.23003,81.24855,27.23957],"properties":{"ward":6,"name":"Bhatuwamau"},"geometry":{"type":"Polygon","coordinates":[[[81.24674,27.23615],[81.24855,27.23426],[81.2473,27.23314],[81.2465,27.232],[81.24468,27.23003],[81.24361,27.2315],[81.24338,27.23238],[81.24284,27.23314],[81.24184,27.23401],[81.24195,27.23458],[81.24081,27.23552],[81.23955,27.23628],[81.24021,27.23743],[81.24116,27.23848],[81.24163,27.23867],[81.24204,27.23911],[81.24284,27.23901],[81.24341,27.23949],[81.24374,27.23957],[81.2448,27.23893],[81.24674,27.23615]]]}},{"type":"Feature","bbox":[81.24002,27.21739,81.25112,27.23075],"properties":{"ward":7,"name":"Kachhwahan Purwa"},"geometry":{"type":"Polygon","coordinates":[[[81.24002,27.21983],[81.24151,27.22183],[81.24121,27.22196],[81.24151,27.22234],[81.24094,27.22284],[81.24125,27.22502],[81.24359,27.22821],[81.245,27.22967],[81.24468,27.23003],[81.24539,27.23075],[81.24629,27.22957],[81.24663,27.22942],[81.24658,27.22923],[81.24786,27.22799],[81.24761,27.22778],[81.24822,27.22704],[81.24806,27.22693],[81.24853,27.22645],[81.24843,27.22636],[81.24884,27.22564],[81.2491,27.22497],[81.24901,27.22488],[81.24931,27.22456],[81.24975,27.22344],[81.25112,27.22194],[81.24762,27.21739],[81.24584,27.21824],[81.24205,27.21905],[81.24002,27.21983]]]}},{"type":"Feature","bbox":[81.23459,27.21983,81.245,27.23628],"properties":{"ward":8,"name":"Mohari"},"geometry":{"type":"Polygon","coordinates":[[[81.24043,27.22022],[81.24002,27.21983],[81.23984,27.21992],[81.23459,27.2234],[81.23602,27.22528],[81.23806,27.22724],[81.23736,27.22786],[81.23578,27.22874],[81.23672,27.2314],[81.23848,27.23477],[81.23955,27.23628],[81.24081,27.23552],[81.24195,27.23458],[81.24184,27.23401],[81.24284,27.23314],[81.24338,27.23238],[81.24361,27.2315],[81.245,27.22967],[81.24359,27.22821],[81.24125,27.22502],[81.24094,27.22284],[81.24151,27.22234],[81.24121,27.22196],[81.24151,27.22183],[81.24045,27.22046],[81.24043,27.22022]]]}},{"type":"Feature","bbox":[81.23939,27.23743,81.24374,27.24218],"properties":{"ward":9,"name":"Patti"},"geometry":{"type":"Polygon","coordinates":[[[81.24322,27.23937],[81.24284,27.23901],[81.24201,27.23909],[81.24163,27.23867],[81.24116,27.23848],[81.24021,27.23743],[81.23939,27.23959],[81.24022,27.24218],[81.24069,27.24151],[81.24295,27.24027],[81.24374,27.23957],[81.24322,27.23937]]]}},{"type":"Feature","bbox":[81.2412,27.24137,81.25768,27.26273],"properties":{"ward":10,"name":"Netpurwa"},"geometry":{"type":"Polygon","coordinates":[[[81.24892,27.24774],[81.25061,27.24607],[81.25116,27.24657],[81.25171,27.24604],[81.25113,27.24501],[81.25068,27.24435],[81.24972,27.24374],[81.24941,27.24401],[81.24893,27.24373],[81.24854,27.24396],[81.24521,27.24137],[81.24421,27.24234],[81.24465,27.24266],[81.24378,27.24353],[81.24379,27.24384],[81.24347,27.2441],[81.24293,27.24371],[81.24281,27.24381],[81.24205,27.24516],[81.2415,27.24588],[81.2412,27.24605],[81.2426,27.24797],[81.24519,27.25061],[81.24691,27.2528],[81.24871,27.25576],[81.2501,27.25972],[81.2534,27.26273],[81.25768,27.25868],[81.25008,27.25189],[81.24913,27.25074],[81.24741,27.24967],[81.24892,27.24774]]]}},{"type":"Feature","bbox":[81.22777,27.24807,81.23605,27.25727],"properties":{"ward":11,"name":"Sauranga-02"},"geometry":{"type":"Polygon","coordinates":[[[81.23605,27.25506],[81.23582,27.25171],[81.2341,27.24979],[81.23192,27.24814],[81.23124,27.24807],[81.22777,27.24887],[81.2288,27.25027],[81.22817,27.25061],[81.22907,27.25241],[81.23019,27.2538],[81.23007,27.25422],[81.23171,27.25533],[81.23226,27.2555],[81.23259,27.25578],[81.23362,27.25515],[81.23411,27.25569],[81.23418,27.25677],[81.23497,27.25727],[81.23605,27.25506]]]}},{"type":"Feature","bbox":[81.22803,27.25402,81.24492,27.26665],"properties":{"ward":12,"name":"Sauranga-01"},"geometry":{"type":"Polygon","coordinates":[[[81.2342,27.26245],[81.2352,27.26321],[81.23652,27.26317],[81.24006,27.26506],[81.24126,27.26665],[81.24167,27.26636],[81.24188,27.26574],[81.24443,27.2634],[81.2432,27.26143],[81.24418,27.2604],[81.24392,27.26007],[81.24492,27.2592],[81.24255,27.25737],[81.24124,27.2568],[81.23954,27.25581],[81.23777,27.25507],[81.23592,27.25402],[81.23605,27.25506],[81.23497,27.25727],[81.23418,27.25677],[81.23411,27.25569],[81.23362,27.25515],[81.23259,27.25578],[81.23112,27.25495],[81.23002,27.25411],[81.22936,27.25445],[81.22803,27.25585],[81.22871,27.2567],[81.22925,27.25796],[81.22909,27.25864],[81.22861,27.25952],[81.22866,27.26032],[81.23033,27.2607],[81.23188,27.2613],[81.23333,27.26226],[81.2342,27.26245]]]}},{"type":"Feature","bbox":[81.23587,27.2496,81.25021,27.26048],"properties":{"ward":13,"name":"Lakshipur"},"geometry":{"type":"Polygon","coordinates":[[[81.2489,27.26001],[81.24936,27.26048],[81.25021,27.25986],[81.2499,27.25936],[81.24871,27.25576],[81.24658,27.25232],[81.2438,27.2539],[81.24345,27.25331],[81.24194,27.25213],[81.24033,27.25057],[81.24028,27.25012],[81.23965,27.2496],[81.23918,27.24991],[81.23935,27.25013],[81.23858,27.25066],[81.23799,27.25005],[81.23732,27.2505],[81.23739,27.25059],[81.23712,27.25081],[81.2376,27.25126],[81.23747,27.25176],[81.23648,27.25263],[81.23587,27.2529],[81.23592,27.25402],[81.23777,27.25507],[81.23954,27.25581],[81.24124,27.2568],[81.24255,27.25737],[81.24492,27.2592],[81.2462,27.25825],[81.24687,27.25898],[81.24746,27.25854],[81.248,27.25841],[81.24907,27.25986],[81.2489,27.26001]]]}},{"type":"Feature","bbox":[81.2353,27.2482,81.23993,27.2529],"properties":{"ward":14,"name":"Rani Kaneez Abid"},"geometry":{"type":"Polygon","coordinates":[[[81.23918,27.24991],[81.23993,27.24938],[81.23959,27.24891],[81.23941,27.24893],[81.23867,27.2482],[81.23641,27.25005],[81.2353,27.25117],[81.23586,27.25181],[81.23587,27.2529],[81.23648,27.25263],[81.23747,27.25176],[81.2376,27.25126],[81.23712,27.25081],[81.23739,27.25059],[81.23732,27.2505],[81.23799,27.25005],[81.23858,27.25066],[81.23935,27.25013],[81.23918,27.24991]]]}},{"type":"Feature","bbox":[81.24408,27.23615,81.25563,27.24597],"properties":{"ward":15,"name":"Katra"},"geometry":{"type":"Polygon","coordinates":[[[81.25277,27.24454],[81.25414,27.2434],[81.25327,27.24236],[81.25402,27.24194],[81.25563,27.24163],[81.25485,27.24026],[81.25266,27.23843],[81.25183,27.23862],[81.25128,27.23891],[81.25121,27.23916],[81.25109,27.23895],[81.24953,27.23807],[81.24674,27.23615],[81.2448,27.23893],[81.24419,27.23937],[81.24455,27.23976],[81.24408,27.24021],[81.24415,27.24039],[81.24552,27.24169],[81.24854,27.24396],[81.24893,27.24373],[81.24941,27.24401],[81.24967,27.24372],[81.25068,27.24435],[81.25168,27.24597],[81.25277,27.24454]]]}}]}