{"type":"FeatureCollection","features":[{"type":"Feature","bbox":[81.77934,27.03026,81.78196,27.0334],"properties":{"ward":1,"name":"Chamartoliya"},"geometry":{"type":"Polygon","coordinates":[[[81.78196,27.03147],[81.78084,27.03045],[81.78087,27.03026],[81.78056,27.03105],[81.77988,27.03184],[81.77934,27.03212],[81.77997,27.03268],[81.77986,27.03319],[81.77996,27.0334],[81.78196,27.03147]]]}},{"type":"Feature","bbox":[81.76713,27.03586,81.77663,27.04629],"properties":{"ward":2,"name":"Anta Dakshini"},"geometry":{"type":"Polygon","coordinates":[[[81.77566,27.03955],[81.77663,27.03753],[81.77655,27.03745],[81.77634,27.03728],[81.77598,27.03738],[81.77477,27.03622],[81.77182,27.03586],[81.77088,27.03729],[81.77069,27.03802],[81.77082,27.0392],[81.77211,27.04117],[81.77221,27.04171],[81.77187,27.04224],[81.77052,27.04328],[81.76867,27.04415],[81.76713,27.04523],[81.76746,27.04629],[81.77301,27.04303],[81.77407,27.04146],[81.77566,27.03955]]]}},{"type":"Feature","bbox":[81.77566,27.03393,81.78162,27.04079],"properties":{"ward":3,"name":"Rajpur Uttari"},"geometry":{"type":"Polygon","coordinates":[[[81.78072,27.03752],[81.78162,27.03685],[81.78103,27.03599],[81.78083,27.03498],[81.77945,27.03393],[81.7775,27.03584],[81.77566,27.03955],[81.7773,27.04012],[81.77782,27.04079],[81.77759,27.04034],[81.77941,27.03914],[81.78072,27.03752]]]}},{"type":"Feature","bbox":[81.76746,27.03955,81.77792,27.04841],"properties":{"ward":4,"name":"Anta Uttari"},"geometry":{"type":"Polygon","coordinates":[[[81.77396,27.0451],[81.77432,27.04524],[81.77543,27.04382],[81.77736,27.04258],[81.77792,27.04116],[81.77782,27.04079],[81.7773,27.04012],[81.77566,27.03955],[81.77407,27.04146],[81.77301,27.04303],[81.76746,27.04629],[81.76793,27.04841],[81.77089,27.04576],[81.77156,27.04539],[81.77235,27.04521],[81.77396,27.0451]]]}},{"type":"Feature","bbox":[81.78585,27.01444,81.80409,27.02935],"properties":{"ward":5,"name":"Nakai Purwa"},"geometry":{"type":"Polygon","coordinates":[[[81.78837,27.02935],[81.78814,27.02916],[81.79401,27.02504],[81.79976,27.02136],[81.80409,27.01883],[81.80098,27.01507],[81.79962,27.01444],[81.79698,27.016],[81.79258,27.01988],[81.78958,27.02273],[81.78758,27.02487],[81.78679,27.02548],[81.78585,27.02564],[81.78592,27.02676],[81.78674,27.02786],[81.78587,27.02852],[81.78616,27.0288],[81.7868,27.02904],[81.78837,27.02935]]]}},{"type":"Feature","bbox":[81.78084,27.02785,81.78373,27.03148],"properties":{"ward":6,"name":"Muravantola Paschimi"},"geometry":{"type":"Polygon","coordinates":[[[81.78373,27.03014],[81.78174,27.02785],[81.78101,27.02858],[81.78114,27.02855],[81.78144,27.02898],[81.78097,27.02935],[81.7811,27.02991],[81.78084,27.03045],[81.78207,27.03148],[81.78201,27.03139],[81.78373,27.03014]]]}},{"type":"Feature","bbox":[81.78676,27.03437,81.79587,27.03995],"properties":{"ward":7,"name":"Tale Purwa"},"geometry":{"type":"Polygon","coordinates":[[[81.79512,27.03651],[81.79587,27.03517],[81.79568,27.03437],[81.79448,27.03469],[81.79379,27.03507],[81.78973,27.03513],[81.7884,27.03575],[81.7872,27.0368],[81.78676,27.03891],[81.78815,27.03966],[81.78965,27.03995],[81.79197,27.03985],[81.79291,27.03867],[81.79512,27.03651]]]}},{"type":"Feature","bbox":[81.77976,27.02611,81.78674,27.03014],"properties":{"ward":8,"name":"Rajatola Purvi"},"geometry":{"type":"Polygon","coordinates":[[[81.78479,27.02947],[81.78674,27.02786],[81.78592,27.02676],[81.78144,27.02611],[81.77977,27.0268],[81.77976,27.02758],[81.78054,27.02769],[81.78101,27.02858],[81.78174,27.02785],[81.78373,27.03014],[81.78479,27.02947]]]}},{"type":"Feature","bbox":[81.77945,27.03351,81.78438,27.03729],"properties":{"ward":9,"name":"Anjahi Mohalla"},"geometry":{"type":"Polygon","coordinates":[[[81.77996,27.03351],[81.77945,27.03393],[81.78083,27.03498],[81.78103,27.03599],[81.78162,27.03685],[81.78224,27.03729],[81.78438,27.03687],[81.7839,27.036],[81.78261,27.03471],[81.77996,27.03351]]]}},{"type":"Feature","bbox":[81.77328,27.02426,81.78144,27.03209],"properties":{"ward":10,"name":"Rajatola Paschimi"},"geometry":{"type":"Polygon","coordinates":[[[81.77949,27.03205],[81.77988,27.03184],[81.78056,27.03105],[81.7811,27.02991],[81.78097,27.02935],[81.78144,27.02898],[81.7814,27.02888],[81.78097,27.02855],[81.78054,27.02769],[81.77976,27.02758],[81.77952,27.027],[81.77689,27.02431],[81.77451,27.02426],[81.77328,27.0263],[81.77715,27.02941],[81.77829,27.03122],[81.77862,27.03209],[81.77949,27.03205]]]}},{"type":"Feature","bbox":[81.78201,27.02852,81.79043,27.0361],"properties":{"ward":11,"name":"Saitakiya"},"geometry":{"type":"Polygon","coordinates":[[[81.78863,27.02957],[81.78837,27.02935],[81.78616,27.0288],[81.78587,27.02852],[81.78479,27.02947],[81.78201,27.03139],[81.78309,27.03223],[81.78492,27.03326],[81.78793,27.0361],[81.78921,27.0353],[81.79043,27.03505],[81.78902,27.03141],[81.78863,27.02957]]]}},{"type":"Feature","bbox":[81.77182,27.03305,81.7779,27.03753],"properties":{"ward":12,"name":"Rajpur Dakshini"},"geometry":{"type":"Polygon","coordinates":[[[81.77789,27.03541],[81.7779,27.0352],[81.77663,27.03398],[81.77561,27.03345],[81.77417,27.03305],[81.77303,27.03317],[81.77313,27.03326],[81.77214,27.03452],[81.77182,27.03586],[81.77477,27.03622],[81.77598,27.03738],[81.77634,27.03728],[81.77663,27.03753],[81.7775,27.03584],[81.77789,27.03541]]]}},{"type":"Feature","bbox":[81.77178,27.0263,81.77997,27.03541],"properties":{"ward":13,"name":"Mishrantola"},"geometry":{"type":"Polygon","coordinates":[[[81.77789,27.03541],[81.77996,27.0334],[81.77986,27.03319],[81.77997,27.03268],[81.7793,27.03207],[81.77862,27.03209],[81.77829,27.03122],[81.77715,27.02941],[81.77328,27.0263],[81.77178,27.02945],[81.77397,27.03028],[81.77294,27.03177],[81.77285,27.03303],[81.77303,27.03317],[81.77417,27.03305],[81.77561,27.03345],[81.77663,27.03398],[81.7779,27.0352],[81.77789,27.03541]]]}},{"type":"Feature","bbox":[81.7799,27.03142,81.78305,27.03403],"properties":{"ward":14,"name":"Naushahara Dakshini"},"geometry":{"type":"Polygon","coordinates":[[[81.7813,27.03403],[81.78305,27.0322],[81.78198,27.03142],[81.7799,27.03346],[81.7807,27.0339],[81.7813,27.03403]]]}},{"type":"Feature","bbox":[81.78126,27.0322,81.78793,27.03891],"properties":{"ward":15,"name":"Naushahara Uttari"},"geometry":{"type":"Polygon","coordinates":[[[81.78676,27.03891],[81.7872,27.0368],[81.78793,27.0361],[81.78471,27.0331],[81.78305,27.0322],[81.78126,27.03408],[81.78261,27.03471],[81.7839,27.036],[81.78438,27.03687],[81.78676,27.03891]]]}}]}