{"type":"FeatureCollection","features":[{"type":"Feature","bbox":[75.74039,14.35219,75.76179,14.35651],"properties":{"ward":1},"geometry":{"type":"Polygon","coordinates":[[[75.74705,14.35253],[75.74541,14.35285],[75.74395,14.35274],[75.74351,14.35293],[75.74353,14.35304],[75.74282,14.3531],[75.74281,14.3536],[75.74039,14.35368],[75.74134,14.3565],[75.74835,14.35651],[75.74793,14.35454],[75.75114,14.35434],[75.75905,14.35317],[75.76178,14.35308],[75.76179,14.35219],[75.7497,14.35326],[75.74776,14.35372],[75.74753,14.35299],[75.74705,14.35253]]]}},{"type":"Feature","bbox":[75.7406,14.35194,75.74282,14.35366],"properties":{"ward":2},"geometry":{"type":"Polygon","coordinates":[[[75.74282,14.3531],[75.74258,14.35297],[75.74225,14.35194],[75.74153,14.35206],[75.7409,14.35225],[75.7406,14.35366],[75.74281,14.3536],[75.74282,14.3531]]]}},{"type":"Feature","bbox":[75.7409,14.35069,75.74705,14.3531],"properties":{"ward":3},"geometry":{"type":"Polygon","coordinates":[[[75.74705,14.35253],[75.74657,14.35203],[75.74645,14.35158],[75.74642,14.3511],[75.74679,14.35074],[75.74403,14.35089],[75.74391,14.35069],[75.74271,14.35075],[75.74202,14.3509],[75.74208,14.3511],[75.74115,14.35109],[75.7412,14.3515],[75.74091,14.35186],[75.7409,14.35225],[75.74225,14.35194],[75.74258,14.35297],[75.74282,14.3531],[75.74353,14.35304],[75.74351,14.35293],[75.74395,14.35274],[75.74541,14.35285],[75.74705,14.35253]]]}},{"type":"Feature","bbox":[75.73937,14.35021,75.7412,14.35368],"properties":{"ward":4},"geometry":{"type":"Polygon","coordinates":[[[75.7406,14.35366],[75.74091,14.35186],[75.7412,14.3515],[75.74107,14.3508],[75.74071,14.3503],[75.73937,14.35021],[75.74006,14.35306],[75.74039,14.35368],[75.7406,14.35366]]]}},{"type":"Feature","bbox":[75.73836,14.33937,75.74895,14.3511],"properties":{"ward":5},"geometry":{"type":"Polygon","coordinates":[[[75.74481,14.3508],[75.74463,14.34945],[75.74385,14.34933],[75.74383,14.34873],[75.74173,14.34918],[75.74168,14.3489],[75.74269,14.34853],[75.74273,14.34833],[75.74421,14.34754],[75.74571,14.34621],[75.74683,14.34618],[75.74726,14.34469],[75.74825,14.3432],[75.74895,14.34087],[75.74515,14.34042],[75.74344,14.34039],[75.74346,14.33991],[75.74322,14.33938],[75.74205,14.33949],[75.74125,14.33937],[75.74131,14.34089],[75.74092,14.34271],[75.74119,14.34281],[75.74123,14.34314],[75.73988,14.34336],[75.73948,14.34405],[75.73962,14.34476],[75.73941,14.34504],[75.73836,14.34528],[75.73937,14.35021],[75.74071,14.3503],[75.74098,14.35056],[75.74115,14.35109],[75.74208,14.3511],[75.74202,14.3509],[75.74271,14.35075],[75.74391,14.35069],[75.74403,14.35089],[75.74481,14.3508]]]}},{"type":"Feature","bbox":[75.73427,14.34785,75.73967,14.35167],"properties":{"ward":6},"geometry":{"type":"Polygon","coordinates":[[[75.73967,14.35167],[75.7389,14.34785],[75.73689,14.34798],[75.73716,14.35011],[75.7363,14.35012],[75.73535,14.34959],[75.73457,14.34948],[75.73427,14.3506],[75.73767,14.35086],[75.73818,14.35155],[75.73967,14.35167]]]}},{"type":"Feature","bbox":[75.72743,14.34489,75.7389,14.3506],"properties":{"ward":7},"geometry":{"type":"Polygon","coordinates":[[[75.7389,14.34785],[75.73836,14.34528],[75.73665,14.34553],[75.73452,14.34533],[75.73242,14.34489],[75.73167,14.34668],[75.73032,14.34661],[75.73029,14.34677],[75.72873,14.34744],[75.72743,14.34927],[75.72744,14.35002],[75.73427,14.3506],[75.73457,14.34948],[75.73535,14.34959],[75.7363,14.35012],[75.73716,14.35011],[75.73689,14.34798],[75.7389,14.34785]]]}},{"type":"Feature","bbox":[75.72744,14.35002,75.73818,14.35155],"properties":{"ward":8},"geometry":{"type":"Polygon","coordinates":[[[75.73767,14.35086],[75.73271,14.35053],[75.72744,14.35002],[75.72749,14.35092],[75.73818,14.35155],[75.73767,14.35086]]]}},{"type":"Feature","bbox":[75.72749,14.35092,75.73829,14.35204],"properties":{"ward":9},"geometry":{"type":"Polygon","coordinates":[[[75.73818,14.35155],[75.73128,14.35106],[75.72749,14.35092],[75.7276,14.35129],[75.72868,14.35146],[75.73282,14.35155],[75.73829,14.35204],[75.73818,14.35155]]]}},{"type":"Feature","bbox":[75.7276,14.35129,75.73829,14.35285],"properties":{"ward":10},"geometry":{"type":"Polygon","coordinates":[[[75.73829,14.35204],[75.73282,14.35155],[75.72868,14.35146],[75.7276,14.35129],[75.72832,14.35248],[75.73124,14.35238],[75.73783,14.35285],[75.73826,14.3524],[75.73829,14.35204]]]}},{"type":"Feature","bbox":[75.72832,14.35238,75.73783,14.35371],"properties":{"ward":11},"geometry":{"type":"Polygon","coordinates":[[[75.73739,14.35336],[75.73783,14.35285],[75.73124,14.35238],[75.72832,14.35248],[75.72864,14.35301],[75.73025,14.35293],[75.73245,14.35306],[75.73216,14.35346],[75.73265,14.3536],[75.73733,14.35371],[75.73739,14.35336]]]}},{"type":"Feature","bbox":[75.73739,14.35155,75.74097,14.35531],"properties":{"ward":12},"geometry":{"type":"Polygon","coordinates":[[[75.7374,14.35524],[75.74097,14.35531],[75.74062,14.35412],[75.74006,14.35306],[75.73967,14.35167],[75.73818,14.35155],[75.73826,14.3524],[75.73739,14.35336],[75.73987,14.35362],[75.73991,14.35435],[75.74014,14.35438],[75.74016,14.35499],[75.73818,14.35497],[75.73819,14.35477],[75.73741,14.35472],[75.7374,14.35524]]]}},{"type":"Feature","bbox":[75.7373,14.35368,75.74016,14.35499],"properties":{"ward":13},"geometry":{"type":"Polygon","coordinates":[[[75.73987,14.35387],[75.73823,14.35368],[75.73823,14.35398],[75.73735,14.35397],[75.7373,14.35436],[75.73741,14.35472],[75.73819,14.35477],[75.73818,14.35497],[75.74016,14.35499],[75.74014,14.35438],[75.73991,14.35435],[75.73987,14.35387]]]}},{"type":"Feature","bbox":[75.72876,14.35321,75.7374,14.35524],"properties":{"ward":14},"geometry":{"type":"Polygon","coordinates":[[[75.7374,14.35524],[75.7373,14.35436],[75.7317,14.35399],[75.7315,14.35419],[75.73098,14.35432],[75.73012,14.35405],[75.72876,14.35321],[75.72917,14.35505],[75.7374,14.35524]]]}},{"type":"Feature","bbox":[75.72864,14.35293,75.73987,14.35436],"properties":{"ward":15},"geometry":{"type":"Polygon","coordinates":[[[75.7373,14.35436],[75.73735,14.35397],[75.73823,14.35398],[75.73823,14.35368],[75.73987,14.35387],[75.73987,14.35362],[75.73739,14.35336],[75.73733,14.35371],[75.73361,14.35366],[75.73216,14.35346],[75.73245,14.35306],[75.73025,14.35293],[75.72864,14.35301],[75.73012,14.35405],[75.73098,14.35432],[75.7315,14.35419],[75.7317,14.35399],[75.7373,14.35436]]]}},{"type":"Feature","bbox":[75.73973,14.35531,75.74115,14.35687],"properties":{"ward":16},"geometry":{"type":"Polygon","coordinates":[[[75.74115,14.3559],[75.74097,14.35531],[75.73973,14.35535],[75.73982,14.35687],[75.74115,14.3559]]]}},{"type":"Feature","bbox":[75.73703,14.35531,75.73982,14.35836],"properties":{"ward":17},"geometry":{"type":"Polygon","coordinates":[[[75.73703,14.35836],[75.73982,14.35687],[75.73973,14.35535],[75.73814,14.35531],[75.73783,14.35648],[75.73739,14.35639],[75.73722,14.35694],[75.73741,14.35697],[75.73703,14.35836]]]}},{"type":"Feature","bbox":[75.72791,14.35609,75.73789,14.35987],"properties":{"ward":18},"geometry":{"type":"Polygon","coordinates":[[[75.73703,14.35836],[75.73741,14.35697],[75.73722,14.35694],[75.73739,14.35639],[75.73783,14.35648],[75.73789,14.35623],[75.73645,14.35609],[75.73646,14.35632],[75.73326,14.35649],[75.73398,14.35762],[75.72791,14.3584],[75.72859,14.35919],[75.73122,14.35894],[75.73139,14.35942],[75.7326,14.35899],[75.73274,14.35911],[75.73335,14.35895],[75.73538,14.35895],[75.73497,14.35987],[75.73576,14.35912],[75.73703,14.35836]]]}},{"type":"Feature","bbox":[75.72678,14.35461,75.73814,14.3584],"properties":{"ward":19},"geometry":{"type":"Polygon","coordinates":[[[75.73789,14.35623],[75.73814,14.35531],[75.72917,14.35505],[75.72862,14.35471],[75.72775,14.35461],[75.72741,14.35466],[75.72758,14.35559],[75.72735,14.35613],[75.72678,14.35677],[75.72791,14.3584],[75.73398,14.35762],[75.73326,14.35649],[75.73646,14.35632],[75.73645,14.35609],[75.73789,14.35623]]]}},{"type":"Feature","bbox":[75.7344,14.35773,75.73836,14.36281],"properties":{"ward":20},"geometry":{"type":"Polygon","coordinates":[[[75.73836,14.35773],[75.73642,14.35864],[75.73497,14.35987],[75.7344,14.36121],[75.73462,14.3623],[75.73617,14.36189],[75.73661,14.36202],[75.73645,14.36281],[75.73693,14.36281],[75.73748,14.359],[75.73805,14.35914],[75.73836,14.35773]]]}},{"type":"Feature","bbox":[75.73693,14.35735,75.73915,14.36293],"properties":{"ward":21},"geometry":{"type":"Polygon","coordinates":[[[75.73915,14.35735],[75.73836,14.35773],[75.73805,14.35914],[75.73748,14.359],[75.73693,14.36281],[75.7377,14.36278],[75.73815,14.36293],[75.73849,14.35992],[75.73915,14.35735]]]}},{"type":"Feature","bbox":[75.73815,14.3559,75.74603,14.36446],"properties":{"ward":22},"geometry":{"type":"Polygon","coordinates":[[[75.74487,14.35657],[75.74134,14.3565],[75.74115,14.3559],[75.73915,14.35735],[75.73849,14.35992],[75.73815,14.36293],[75.73878,14.36314],[75.73884,14.36377],[75.74309,14.36446],[75.74354,14.36435],[75.74357,14.36396],[75.74512,14.36338],[75.745,14.36251],[75.74513,14.36206],[75.74541,14.36191],[75.74603,14.3582],[75.74487,14.35657]]]}},{"type":"Feature","bbox":[75.71908,14.34407,75.73242,14.35677],"properties":{"ward":23},"geometry":{"type":"Polygon","coordinates":[[[75.72917,14.35505],[75.72876,14.35321],[75.7276,14.35129],[75.72743,14.34927],[75.72873,14.34744],[75.73029,14.34677],[75.73032,14.34661],[75.73167,14.34668],[75.73242,14.34489],[75.72979,14.34506],[75.72937,14.3457],[75.72667,14.34486],[75.72427,14.34454],[75.72306,14.34407],[75.72214,14.34566],[75.72143,14.3475],[75.72319,14.34814],[75.72286,14.34897],[75.72207,14.34946],[75.72091,14.34992],[75.7194,14.35196],[75.71908,14.35217],[75.72678,14.35677],[75.72735,14.35613],[75.72758,14.35559],[75.72741,14.35466],[75.72862,14.35471],[75.72917,14.35505]]]}}]}