{"type":"FeatureCollection","features":[{"type":"Feature","bbox":[77.84573,15.94337,77.87189,15.96259],"properties":{"ward":1,"name":"Paipadu Bc Colony"},"geometry":{"type":"Polygon","coordinates":[[[77.87186,15.96129],[77.87189,15.95717],[77.87023,15.95475],[77.86778,15.95456],[77.86756,15.95353],[77.86776,15.95214],[77.86709,15.95028],[77.86736,15.94545],[77.867,15.94337],[77.84573,15.95016],[77.84601,15.95072],[77.84626,15.95056],[77.84647,15.95135],[77.84716,15.95174],[77.84741,15.95289],[77.84798,15.95325],[77.85215,15.95955],[77.8552,15.96259],[77.86042,15.96242],[77.87186,15.96129]]]}},{"type":"Feature","bbox":[77.84417,15.95016,77.8552,15.96584],"properties":{"ward":2,"name":"Paipady Sc Colony"},"geometry":{"type":"Polygon","coordinates":[[[77.84417,15.95055],[77.84429,15.95091],[77.84503,15.9516],[77.84573,15.95358],[77.84802,15.96584],[77.8552,15.96259],[77.85215,15.95955],[77.84798,15.95325],[77.84741,15.95289],[77.84716,15.95174],[77.84647,15.95135],[77.84626,15.95056],[77.84601,15.95072],[77.84573,15.95016],[77.84417,15.95055]]]}},{"type":"Feature","bbox":[77.867,15.9404,77.88058,15.96129],"properties":{"ward":3,"name":"Sr Nagar And Shanti Nagar"},"geometry":{"type":"Polygon","coordinates":[[[77.867,15.94337],[77.86736,15.94545],[77.86709,15.95028],[77.86776,15.95214],[77.86756,15.95353],[77.86778,15.95456],[77.87023,15.95475],[77.87189,15.95717],[77.87186,15.96129],[77.8755,15.961],[77.87911,15.95594],[77.88058,15.95164],[77.88044,15.94779],[77.8796,15.94449],[77.8768,15.9404],[77.867,15.94337]]]}},{"type":"Feature","bbox":[77.84348,15.92844,77.8768,15.95032],"properties":{"ward":4,"name":"Indira Nagar Colony"},"geometry":{"type":"Polygon","coordinates":[[[77.8436,15.94845],[77.84348,15.94913],[77.84492,15.95032],[77.84573,15.95016],[77.86538,15.94386],[77.8768,15.9404],[77.87534,15.93804],[77.87003,15.93146],[77.86629,15.92921],[77.86255,15.92844],[77.85938,15.92945],[77.85786,15.92974],[77.85621,15.92956],[77.85545,15.929],[77.85391,15.93356],[77.85226,15.93533],[77.84802,15.93843],[77.8475,15.93907],[77.84762,15.93975],[77.85063,15.94359],[77.85068,15.94396],[77.85026,15.94442],[77.84941,15.94494],[77.84915,15.9454],[77.84973,15.94731],[77.84891,15.94762],[77.84704,15.94798],[77.8436,15.94845]]]}},{"type":"Feature","bbox":[77.84038,15.93753,77.85068,15.94848],"properties":{"ward":5,"name":"Waddepally Bc Colony"},"geometry":{"type":"Polygon","coordinates":[[[77.84751,15.93909],[77.8452,15.93893],[77.84212,15.93824],[77.84076,15.93753],[77.84038,15.93887],[77.84066,15.94115],[77.84141,15.94405],[77.84311,15.94843],[77.84413,15.94848],[77.84891,15.94762],[77.84973,15.94731],[77.84915,15.9454],[77.84941,15.94494],[77.85026,15.94442],[77.85068,15.94396],[77.85063,15.94359],[77.84762,15.93975],[77.84751,15.93909]]]}},{"type":"Feature","bbox":[77.83797,15.92212,77.85545,15.93909],"properties":{"ward":6,"name":"Waddepally Sc Colony"},"geometry":{"type":"Polygon","coordinates":[[[77.84076,15.93753],[77.84212,15.93824],[77.8452,15.93893],[77.84751,15.93909],[77.84802,15.93843],[77.85226,15.93533],[77.85391,15.93356],[77.85545,15.929],[77.84654,15.92239],[77.84113,15.92212],[77.83797,15.92239],[77.83962,15.93187],[77.84006,15.93552],[77.84043,15.93573],[77.84087,15.93678],[77.84076,15.93753]]]}},{"type":"Feature","bbox":[77.81832,15.92239,77.84087,15.95399],"properties":{"ward":7,"name":"Jammulamadgu Colony"},"geometry":{"type":"Polygon","coordinates":[[[77.83797,15.92239],[77.83523,15.92305],[77.83452,15.92503],[77.82789,15.92781],[77.82242,15.93079],[77.81955,15.9317],[77.81866,15.93705],[77.81832,15.94128],[77.81919,15.94391],[77.81942,15.95016],[77.82067,15.9533],[77.82451,15.95399],[77.83146,15.95201],[77.83442,15.95133],[77.83653,15.95021],[77.83719,15.94925],[77.8396,15.94169],[77.84087,15.93678],[77.84043,15.93573],[77.84006,15.93552],[77.83962,15.93187],[77.83797,15.92239]]]}},{"type":"Feature","bbox":[77.8383,15.93887,77.84492,15.95136],"properties":{"ward":8,"name":"Maruthi Nagar"},"geometry":{"type":"Polygon","coordinates":[[[77.84492,15.95032],[77.84348,15.94913],[77.8436,15.94845],[77.84311,15.94843],[77.84141,15.94405],[77.84066,15.94115],[77.84038,15.93887],[77.8383,15.9456],[77.83933,15.94602],[77.84087,15.94699],[77.84175,15.94902],[77.84126,15.95125],[77.8417,15.95136],[77.84492,15.95032]]]}},{"type":"Feature","bbox":[77.82067,15.9456,77.84198,15.96082],"properties":{"ward":9,"name":"Ramachandra Nagar Colony"},"geometry":{"type":"Polygon","coordinates":[[[77.8383,15.9456],[77.83719,15.94925],[77.83653,15.95021],[77.83442,15.95133],[77.83146,15.95201],[77.82451,15.95399],[77.82067,15.9533],[77.82245,15.95634],[77.82392,15.9585],[77.82451,15.96082],[77.83503,15.95899],[77.83611,15.95853],[77.8381,15.95644],[77.83977,15.9561],[77.84198,15.95431],[77.84198,15.95256],[77.8417,15.95136],[77.84126,15.95125],[77.84175,15.94902],[77.84087,15.94699],[77.83933,15.94602],[77.8383,15.9456]]]}},{"type":"Feature","bbox":[77.82451,15.95055,77.84802,15.97081],"properties":{"ward":10,"name":"Ramalayam Colony"},"geometry":{"type":"Polygon","coordinates":[[[77.84802,15.96584],[77.84573,15.95358],[77.84503,15.9516],[77.84429,15.95091],[77.84417,15.95055],[77.8417,15.95136],[77.84198,15.95256],[77.84198,15.95431],[77.83977,15.9561],[77.8381,15.95644],[77.83611,15.95853],[77.83503,15.95899],[77.82451,15.96082],[77.82636,15.96704],[77.82831,15.97081],[77.8311,15.97054],[77.84469,15.96735],[77.84802,15.96584]]]}}]}