{"type":"FeatureCollection","features":[{"type":"Feature","bbox":[79.79294,18.86037,79.80428,18.875],"properties":{"ward":1,"name":"Brahmana Wada, Kotaboguda, Shivalayam Street"},"geometry":{"type":"Polygon","coordinates":[[[79.80428,18.86834],[79.80377,18.86684],[79.80397,18.86548],[79.80375,18.86483],[79.8033,18.86443],[79.79648,18.86405],[79.79689,18.86216],[79.79683,18.86154],[79.79633,18.86074],[79.79637,18.86037],[79.79479,18.86054],[79.79294,18.86116],[79.79367,18.86218],[79.79451,18.86519],[79.79452,18.86936],[79.79408,18.87043],[79.79477,18.87236],[79.79477,18.87426],[79.79509,18.87451],[79.7968,18.875],[79.798,18.87451],[79.80143,18.87166],[79.80226,18.87014],[79.80146,18.86989],[79.80244,18.86955],[79.80343,18.86882],[79.80408,18.86864],[79.80428,18.86834]]]}},{"type":"Feature","bbox":[79.79633,18.85651,79.83555,18.87522],"properties":{"ward":2,"name":"Jenda Wada , Bokkala Gudemchowk Mancha, Medari Wada"},"geometry":{"type":"Polygon","coordinates":[[[79.82263,18.8586],[79.82201,18.85877],[79.81822,18.85852],[79.81402,18.85781],[79.81114,18.85703],[79.80914,18.8568],[79.80098,18.85651],[79.80113,18.85757],[79.80087,18.85902],[79.79876,18.85828],[79.79862,18.85924],[79.7988,18.85997],[79.79794,18.86007],[79.79724,18.86043],[79.79637,18.86037],[79.79633,18.86074],[79.79683,18.86154],[79.79689,18.86216],[79.79648,18.86405],[79.8033,18.86443],[79.80375,18.86483],[79.80397,18.86548],[79.80377,18.86684],[79.80428,18.86834],[79.80658,18.86879],[79.8073,18.86955],[79.8073,18.87],[79.80861,18.87016],[79.81019,18.86987],[79.81088,18.87069],[79.81232,18.87187],[79.81331,18.87198],[79.81446,18.87167],[79.81675,18.8698],[79.81743,18.86888],[79.81801,18.86893],[79.8183,18.86692],[79.82123,18.86441],[79.82445,18.86442],[79.82703,18.86528],[79.82702,18.86591],[79.82801,18.86741],[79.8294,18.87195],[79.8306,18.87496],[79.83264,18.87522],[79.83474,18.87388],[79.83555,18.8725],[79.83341,18.87114],[79.8302,18.86774],[79.82804,18.86474],[79.82539,18.86169],[79.82393,18.85966],[79.82263,18.8586]]]}},{"type":"Feature","bbox":[79.79784,18.83919,79.82331,18.85902],"properties":{"ward":3,"name":"Godavari Road Right Side,Kummari Boguda Part"},"geometry":{"type":"Polygon","coordinates":[[[79.80113,18.85757],[79.80098,18.85651],[79.80495,18.85658],[79.81114,18.85703],[79.81402,18.85781],[79.81822,18.85852],[79.82201,18.85877],[79.82263,18.8586],[79.82274,18.85706],[79.82152,18.85395],[79.82171,18.84926],[79.82331,18.83919],[79.82149,18.84005],[79.82131,18.84153],[79.81843,18.84183],[79.81612,18.84233],[79.81551,18.84228],[79.81369,18.84317],[79.81385,18.84423],[79.81046,18.84609],[79.80993,18.84665],[79.80968,18.84727],[79.80831,18.84861],[79.80717,18.84938],[79.80339,18.85106],[79.80123,18.85493],[79.8008,18.85499],[79.80036,18.85475],[79.79986,18.85491],[79.79955,18.85533],[79.79865,18.85575],[79.79897,18.85648],[79.79942,18.85678],[79.79903,18.85725],[79.79784,18.85798],[79.80087,18.85902],[79.80113,18.85757]]]}},{"type":"Feature","bbox":[79.79186,18.83383,79.82331,18.85289],"properties":{"ward":4,"name":"Np Wada, Bhethala Wada, Maremma Wada, Pedda Gudem"},"geometry":{"type":"Polygon","coordinates":[[[79.79672,18.8521],[79.79829,18.85215],[79.79926,18.85171],[79.80106,18.85153],[79.80282,18.85098],[79.80373,18.85097],[79.80717,18.84938],[79.80867,18.8483],[79.80968,18.84727],[79.80993,18.84665],[79.81046,18.84609],[79.81385,18.84423],[79.81369,18.84317],[79.81551,18.84228],[79.81612,18.84233],[79.81843,18.84183],[79.82131,18.84153],[79.82149,18.84005],[79.82331,18.83919],[79.82113,18.83764],[79.81993,18.83505],[79.81959,18.83383],[79.8177,18.83496],[79.81693,18.8374],[79.8159,18.8387],[79.81311,18.83888],[79.80509,18.83823],[79.80474,18.83752],[79.80312,18.83754],[79.80295,18.83642],[79.79964,18.83646],[79.79977,18.83565],[79.79939,18.8353],[79.79837,18.83525],[79.79815,18.83551],[79.79823,18.8362],[79.79553,18.83705],[79.79499,18.83686],[79.79454,18.83699],[79.79412,18.83603],[79.7934,18.83611],[79.79332,18.83642],[79.79283,18.8365],[79.79344,18.83773],[79.79186,18.83862],[79.79229,18.84201],[79.79224,18.84383],[79.79265,18.84604],[79.79562,18.84601],[79.79585,18.85003],[79.79531,18.85005],[79.79375,18.85051],[79.79461,18.85289],[79.79672,18.8521]]]}},{"type":"Feature","bbox":[79.78469,18.83862,79.79585,18.85297],"properties":{"ward":5,"name":"Indira Nagar, Vdos Colony , Seettharam Thota Area"},"geometry":{"type":"Polygon","coordinates":[[[79.79585,18.85003],[79.79562,18.84601],[79.79265,18.84604],[79.79224,18.84383],[79.79229,18.84201],[79.79186,18.83862],[79.79073,18.8396],[79.78674,18.84207],[79.78486,18.84585],[79.78553,18.84746],[79.78469,18.84956],[79.78533,18.85092],[79.78583,18.85177],[79.78865,18.85218],[79.78892,18.85297],[79.79015,18.85285],[79.78928,18.85185],[79.7899,18.85157],[79.79213,18.85114],[79.79531,18.85005],[79.79585,18.85003]]]}},{"type":"Feature","bbox":[79.77351,18.83886,79.79163,18.85255],"properties":{"ward":6,"name":"Gerre Colony &Amp; Ngo'S Colony, Padmanagar"},"geometry":{"type":"Polygon","coordinates":[[[79.78473,18.84925],[79.78553,18.84746],[79.78486,18.84585],[79.78674,18.84207],[79.79073,18.8396],[79.79163,18.83886],[79.7901,18.83893],[79.78723,18.83947],[79.78289,18.84003],[79.78039,18.84001],[79.7777,18.84248],[79.776,18.84334],[79.77501,18.84554],[79.77351,18.84776],[79.77397,18.85158],[79.78098,18.85255],[79.78092,18.84952],[79.78236,18.84958],[79.78473,18.84925]]]}},{"type":"Feature","bbox":[79.74568,18.85183,79.78688,18.8906],"properties":{"ward":7,"name":"Oddepalli Colony, Sri Nagar Colony,Ambedkar Colony"},"geometry":{"type":"Polygon","coordinates":[[[79.76664,18.88166],[79.7677,18.87913],[79.76934,18.87682],[79.77091,18.8732],[79.77393,18.86837],[79.78099,18.86917],[79.78126,18.86772],[79.78163,18.86719],[79.78158,18.86665],[79.78611,18.86518],[79.78688,18.86314],[79.78529,18.86132],[79.78496,18.85995],[79.78512,18.8596],[79.78498,18.85906],[79.78524,18.85729],[79.78585,18.85735],[79.78593,18.85329],[79.77613,18.85183],[79.77696,18.85308],[79.77865,18.85649],[79.77764,18.85811],[79.77494,18.85951],[79.774,18.85945],[79.76825,18.86192],[79.7635,18.86539],[79.76067,18.86538],[79.75011,18.86796],[79.74568,18.87019],[79.74735,18.87106],[79.74882,18.88083],[79.75632,18.88646],[79.75576,18.8906],[79.75804,18.88942],[79.76051,18.88929],[79.76132,18.88834],[79.76264,18.8884],[79.7641,18.88726],[79.76404,18.88581],[79.76513,18.88413],[79.76532,18.88201],[79.76664,18.88166]]]}},{"type":"Feature","bbox":[79.76664,18.85871,79.79477,18.88468],"properties":{"ward":8,"name":"Sonnaila Wada Part,Mla Colony,Battigudem"},"geometry":{"type":"Polygon","coordinates":[[[79.7782,18.88199],[79.77785,18.88169],[79.77823,18.88138],[79.77854,18.88173],[79.77899,18.88166],[79.77931,18.88117],[79.77969,18.88097],[79.78,18.88111],[79.7816,18.88024],[79.78137,18.87985],[79.7817,18.87958],[79.78213,18.87954],[79.78442,18.87789],[79.79118,18.87368],[79.79477,18.87426],[79.79477,18.87236],[79.79408,18.87043],[79.79452,18.86936],[79.79451,18.86519],[79.79367,18.86218],[79.79294,18.86116],[79.79264,18.861],[79.79253,18.85895],[79.79008,18.85945],[79.7896,18.85871],[79.78852,18.85886],[79.7874,18.85879],[79.7871,18.85915],[79.78605,18.85966],[79.78512,18.8596],[79.78496,18.85995],[79.78529,18.86132],[79.78688,18.86314],[79.78611,18.86518],[79.78158,18.86665],[79.78163,18.86719],[79.78126,18.86772],[79.78099,18.86917],[79.77393,18.86837],[79.77091,18.8732],[79.76934,18.87682],[79.7677,18.87913],[79.76664,18.88166],[79.76847,18.88208],[79.76904,18.8802],[79.76903,18.87966],[79.768,18.8792],[79.76911,18.87904],[79.76915,18.87858],[79.7702,18.879],[79.77029,18.87848],[79.7709,18.87859],[79.77463,18.88196],[79.77502,18.88196],[79.77566,18.88224],[79.77573,18.88306],[79.77494,18.88366],[79.7753,18.88411],[79.77696,18.88468],[79.77714,18.8841],[79.77698,18.88324],[79.77729,18.88287],[79.77778,18.88267],[79.7782,18.88199]]]}},{"type":"Feature","bbox":[79.79262,18.85798,79.7988,18.86116],"properties":{"ward":9,"name":"Cheruv Katta Ravi Chettu Right Side,Balija Wada"},"geometry":{"type":"Polygon","coordinates":[[[79.79294,18.86116],[79.79537,18.86044],[79.79724,18.86043],[79.79794,18.86007],[79.7988,18.85997],[79.79862,18.85924],[79.79876,18.85828],[79.79784,18.85798],[79.7969,18.85856],[79.79695,18.85902],[79.79602,18.85924],[79.79594,18.85891],[79.79331,18.85938],[79.79262,18.85936],[79.79264,18.861],[79.79294,18.86116]]]}},{"type":"Feature","bbox":[79.79246,18.85575,79.79942,18.85938],"properties":{"ward":10,"name":"Rajiv Road,Jbs,Vadla Wada, Pendli Pochamma Wada"},"geometry":{"type":"Polygon","coordinates":[[[79.79695,18.85902],[79.7969,18.85856],[79.79729,18.85821],[79.79868,18.85749],[79.79942,18.85678],[79.79897,18.85648],[79.79865,18.85575],[79.79747,18.85618],[79.79752,18.85649],[79.79691,18.85684],[79.79589,18.85692],[79.79405,18.85779],[79.79246,18.85806],[79.79262,18.85936],[79.79331,18.85938],[79.79594,18.85891],[79.79602,18.85924],[79.79695,18.85902]]]}},{"type":"Feature","bbox":[79.79672,18.85098,79.80339,18.85618],"properties":{"ward":11,"name":"Kummari Boguda Part, Kamutam Wada"},"geometry":{"type":"Polygon","coordinates":[[[79.79747,18.85618],[79.79955,18.85533],[79.79986,18.85491],[79.80036,18.85475],[79.8008,18.85499],[79.80123,18.85493],[79.80339,18.85106],[79.80282,18.85098],[79.80106,18.85153],[79.79926,18.85171],[79.79829,18.85215],[79.79672,18.8521],[79.7969,18.85328],[79.7968,18.85459],[79.79747,18.85618]]]}},{"type":"Feature","bbox":[79.79118,18.8521,79.7969,18.8564],"properties":{"ward":12,"name":"Mpps School Area, Linegadda, Shishu Mandir Area"},"geometry":{"type":"Polygon","coordinates":[[[79.7968,18.85459],[79.7969,18.85328],[79.79672,18.8521],[79.79306,18.8535],[79.79274,18.85307],[79.79132,18.85338],[79.79118,18.85389],[79.79245,18.85381],[79.79308,18.85591],[79.79342,18.85631],[79.79389,18.8564],[79.7942,18.85631],[79.79444,18.85583],[79.79613,18.8551],[79.7968,18.85459]]]}},{"type":"Feature","bbox":[79.7887,18.85051,79.79461,18.85437],"properties":{"ward":13,"name":"Linegadda, Dubbagudem, Mla Camp Office"},"geometry":{"type":"Polygon","coordinates":[[[79.79118,18.85389],[79.79132,18.85338],[79.79274,18.85307],[79.79306,18.8535],[79.79461,18.85289],[79.79375,18.85051],[79.79213,18.85114],[79.79034,18.8514],[79.78928,18.85185],[79.79015,18.85285],[79.78892,18.85297],[79.7887,18.85366],[79.78931,18.85387],[79.78945,18.85437],[79.79061,18.8542],[79.79118,18.85389]]]}},{"type":"Feature","bbox":[79.78092,18.84925,79.78892,18.85366],"properties":{"ward":14,"name":"Bsnl Office, Mpdo Office Area"},"geometry":{"type":"Polygon","coordinates":[[[79.78892,18.85297],[79.78865,18.85218],[79.78583,18.85177],[79.78469,18.84956],[79.78473,18.84925],[79.78236,18.84958],[79.78092,18.84952],[79.78098,18.85255],[79.7887,18.85366],[79.78892,18.85297]]]}},{"type":"Feature","bbox":[79.78585,18.85329,79.79308,18.85886],"properties":{"ward":15,"name":"Vishwa Karama Colony,Old Current Office Area"},"geometry":{"type":"Polygon","coordinates":[[[79.78852,18.85886],[79.79081,18.85835],[79.79071,18.85778],[79.79014,18.85685],[79.79308,18.85591],[79.79245,18.85381],[79.79118,18.85389],[79.79061,18.8542],[79.78945,18.85437],[79.78931,18.85387],[79.7887,18.85366],[79.78593,18.85329],[79.78585,18.85735],[79.78754,18.85763],[79.7874,18.85879],[79.78852,18.85886]]]}},{"type":"Feature","bbox":[79.78498,18.85729,79.78754,18.85966],"properties":{"ward":16,"name":"Kothagudem Colony"},"geometry":{"type":"Polygon","coordinates":[[[79.7874,18.85879],[79.78754,18.85763],[79.78524,18.85729],[79.78498,18.85906],[79.78512,18.8596],[79.78605,18.85966],[79.7871,18.85915],[79.7874,18.85879]]]}},{"type":"Feature","bbox":[79.7896,18.85591,79.79346,18.85945],"properties":{"ward":17,"name":"Sonnaila Wada Part, Mangali Bazar,Laxmi Devara Wada"},"geometry":{"type":"Polygon","coordinates":[[[79.79008,18.85945],[79.79253,18.85895],[79.79246,18.85806],[79.79216,18.85715],[79.79346,18.85676],[79.79342,18.85631],[79.79308,18.85591],[79.79014,18.85685],[79.79071,18.85778],[79.79081,18.85835],[79.7896,18.85871],[79.79008,18.85945]]]}},{"type":"Feature","bbox":[79.79216,18.85459,79.79752,18.85806],"properties":{"ward":18,"name":"Puppala Hanuman Street Part, Jagannatha Temple Area"},"geometry":{"type":"Polygon","coordinates":[[[79.79752,18.85649],[79.7968,18.85459],[79.79613,18.8551],[79.79444,18.85583],[79.7942,18.85631],[79.79342,18.85631],[79.79346,18.85676],[79.79216,18.85715],[79.79246,18.85806],[79.79348,18.85791],[79.79405,18.85779],[79.79589,18.85692],[79.79691,18.85684],[79.79752,18.85649]]]}}]}