{"type":"FeatureCollection","features":[{"type":"Feature","bbox":[77.76581,16.37468,77.78347,16.40765],"properties":{"ward":1,"name":"Ram Nagar, Shivaji Nagar"},"geometry":{"type":"Polygon","coordinates":[[[77.78335,16.38776],[77.7824,16.38673],[77.78113,16.38369],[77.78013,16.3819],[77.77941,16.37995],[77.77886,16.37941],[77.77823,16.37835],[77.77762,16.37679],[77.77588,16.37675],[77.77611,16.37608],[77.77616,16.37468],[77.77332,16.37591],[77.77249,16.37591],[77.77051,16.38026],[77.77057,16.38139],[77.77038,16.38209],[77.76857,16.3842],[77.76581,16.3893],[77.76729,16.38955],[77.76736,16.39017],[77.76799,16.39054],[77.76832,16.39114],[77.76806,16.39251],[77.7682,16.39352],[77.77008,16.39476],[77.77129,16.39462],[77.77158,16.39591],[77.77194,16.39593],[77.77218,16.39662],[77.77248,16.39768],[77.77227,16.39834],[77.77238,16.39911],[77.7716,16.39942],[77.77145,16.40538],[77.77096,16.40618],[77.7721,16.40631],[77.7732,16.40705],[77.77475,16.40765],[77.77753,16.40714],[77.77904,16.40729],[77.77889,16.40678],[77.7794,16.40306],[77.78049,16.40294],[77.78259,16.40303],[77.78293,16.40288],[77.78332,16.40088],[77.7827,16.39871],[77.78064,16.3975],[77.78053,16.39696],[77.78098,16.39509],[77.78205,16.3937],[77.78298,16.39161],[77.78347,16.38959],[77.78335,16.38776]]]}},{"type":"Feature","bbox":[77.77588,16.37383,77.79423,16.39348],"properties":{"ward":2,"name":"Ramulu Nayak Tanda, Sri Krishna Nagar"},"geometry":{"type":"Polygon","coordinates":[[[77.79423,16.38495],[77.79193,16.38387],[77.79052,16.38282],[77.78905,16.38199],[77.7874,16.38038],[77.78137,16.37614],[77.78104,16.37578],[77.78095,16.37526],[77.78036,16.37468],[77.77798,16.37512],[77.77773,16.37385],[77.77755,16.37383],[77.77717,16.37421],[77.77616,16.37468],[77.77611,16.37608],[77.77588,16.37675],[77.77762,16.37679],[77.77823,16.37835],[77.77886,16.37941],[77.77941,16.37995],[77.78013,16.3819],[77.78113,16.38369],[77.7824,16.38673],[77.78394,16.38828],[77.7844,16.38953],[77.78439,16.39014],[77.78756,16.39097],[77.78805,16.39123],[77.78988,16.39301],[77.79134,16.39327],[77.79178,16.39348],[77.7921,16.39303],[77.7926,16.39285],[77.79249,16.39231],[77.79297,16.39071],[77.79301,16.39041],[77.79261,16.38992],[77.79273,16.38941],[77.7925,16.38902],[77.7925,16.38881],[77.79286,16.38865],[77.79317,16.38785],[77.79294,16.38649],[77.79306,16.38614],[77.79403,16.38532],[77.79423,16.38495]]]}},{"type":"Feature","bbox":[77.77543,16.3702,77.79742,16.38496],"properties":{"ward":3,"name":"Sri Krishna Nagar, Azad Nagar"},"geometry":{"type":"Polygon","coordinates":[[[77.77585,16.37476],[77.77717,16.37421],[77.77755,16.37383],[77.77773,16.37385],[77.77798,16.37512],[77.78036,16.37468],[77.78095,16.37526],[77.78104,16.37578],[77.78137,16.37614],[77.7874,16.38038],[77.78905,16.38199],[77.79052,16.38282],[77.79193,16.38387],[77.79427,16.38496],[77.79403,16.38398],[77.79343,16.38313],[77.79323,16.38227],[77.79349,16.38181],[77.79459,16.38118],[77.79505,16.381],[77.79566,16.38114],[77.7955,16.37974],[77.79594,16.3782],[77.79729,16.37805],[77.79742,16.37733],[77.79677,16.37485],[77.79685,16.37382],[77.79623,16.37389],[77.79465,16.37157],[77.79466,16.37092],[77.79447,16.37057],[77.79362,16.37146],[77.79125,16.37341],[77.79121,16.37375],[77.79066,16.37428],[77.78863,16.37417],[77.78826,16.37269],[77.78768,16.37278],[77.78734,16.37171],[77.78665,16.37189],[77.786,16.3702],[77.78334,16.3705],[77.78129,16.37123],[77.78109,16.37153],[77.77972,16.37159],[77.78007,16.37203],[77.77993,16.37245],[77.77779,16.37341],[77.77742,16.37291],[77.77543,16.37277],[77.77585,16.37476]]]}},{"type":"Feature","bbox":[77.77421,16.36635,77.79447,16.37428],"properties":{"ward":4,"name":"Old S C Colony, Kummari Veedi"},"geometry":{"type":"Polygon","coordinates":[[[77.79447,16.37057],[77.7941,16.36761],[77.79248,16.36752],[77.79241,16.36779],[77.7914,16.36793],[77.79096,16.36723],[77.79068,16.36708],[77.78884,16.36716],[77.78755,16.36756],[77.78743,16.36724],[77.78499,16.3677],[77.78458,16.36635],[77.78408,16.36644],[77.78278,16.36757],[77.78185,16.36748],[77.78158,16.36787],[77.78129,16.36905],[77.78079,16.36941],[77.7802,16.36928],[77.77989,16.36863],[77.77872,16.36848],[77.77848,16.36911],[77.77723,16.36935],[77.77708,16.3697],[77.77664,16.36994],[77.77539,16.37047],[77.77531,16.3703],[77.77421,16.37074],[77.77543,16.37244],[77.77543,16.37277],[77.77742,16.37291],[77.77779,16.37341],[77.77993,16.37245],[77.78007,16.37203],[77.77972,16.37159],[77.78109,16.37153],[77.78129,16.37123],[77.78334,16.3705],[77.786,16.3702],[77.78665,16.37189],[77.78734,16.37171],[77.78768,16.37278],[77.78826,16.37269],[77.78863,16.37417],[77.79066,16.37428],[77.79121,16.37375],[77.79125,16.37341],[77.79362,16.37146],[77.79447,16.37057]]]}},{"type":"Feature","bbox":[77.77311,16.3584,77.7945,16.37074],"properties":{"ward":5,"name":"New S C Colony"},"geometry":{"type":"Polygon","coordinates":[[[77.77311,16.37025],[77.77379,16.37014],[77.77421,16.37074],[77.77531,16.3703],[77.77539,16.37047],[77.77708,16.3697],[77.77723,16.36935],[77.77848,16.36911],[77.77872,16.36848],[77.77989,16.36863],[77.7802,16.36928],[77.78079,16.36941],[77.78129,16.36905],[77.78158,16.36787],[77.78185,16.36748],[77.78278,16.36757],[77.78408,16.36644],[77.78458,16.36635],[77.78499,16.3677],[77.78743,16.36724],[77.78755,16.36756],[77.78884,16.36716],[77.79068,16.36708],[77.79096,16.36723],[77.7914,16.36793],[77.79241,16.36779],[77.79248,16.36752],[77.7941,16.36761],[77.79408,16.36497],[77.7945,16.36381],[77.79373,16.36351],[77.79336,16.36303],[77.79306,16.36241],[77.79306,16.36111],[77.79278,16.36097],[77.79246,16.36106],[77.7918,16.36042],[77.79023,16.36065],[77.78926,16.35977],[77.78814,16.36012],[77.78738,16.35959],[77.78362,16.36227],[77.78107,16.35972],[77.78088,16.35909],[77.78056,16.35893],[77.78047,16.3584],[77.77849,16.35896],[77.77324,16.36855],[77.77311,16.37025]]]}},{"type":"Feature","bbox":[77.75247,16.35157,77.78019,16.3751],"properties":{"ward":6,"name":"B C Colony"},"geometry":{"type":"Polygon","coordinates":[[[77.75785,16.37192],[77.7671,16.3751],[77.76715,16.374],[77.76863,16.37425],[77.76966,16.37423],[77.76974,16.37459],[77.77146,16.37443],[77.7716,16.37424],[77.77275,16.37443],[77.77324,16.36855],[77.77849,16.35896],[77.78019,16.35666],[77.77565,16.35722],[77.77605,16.35456],[77.77556,16.35469],[77.77488,16.35431],[77.77424,16.35417],[77.77165,16.35421],[77.77034,16.35451],[77.77007,16.35418],[77.7691,16.35421],[77.76869,16.35333],[77.76696,16.3537],[77.76673,16.35272],[77.76651,16.35272],[77.7663,16.35157],[77.76473,16.35185],[77.7644,16.35244],[77.76372,16.35256],[77.76302,16.35291],[77.76252,16.35285],[77.76196,16.35332],[77.76083,16.35362],[77.75897,16.35395],[77.75757,16.35381],[77.75601,16.35508],[77.75493,16.35535],[77.7536,16.356],[77.75247,16.35618],[77.75295,16.35798],[77.75298,16.35946],[77.75375,16.3595],[77.754,16.3617],[77.75557,16.36268],[77.75597,16.363],[77.75598,16.36325],[77.75706,16.36329],[77.75779,16.36409],[77.75802,16.36609],[77.75856,16.3677],[77.75826,16.37033],[77.75837,16.37109],[77.75818,16.37169],[77.75785,16.37192]]]}},{"type":"Feature","bbox":[77.74798,16.37192,77.77275,16.3861],"properties":{"ward":7,"name":"B C Colony, Jogini Colony"},"geometry":{"type":"Polygon","coordinates":[[[77.76868,16.38408],[77.77038,16.38209],[77.77057,16.38139],[77.77051,16.38026],[77.77249,16.37591],[77.77275,16.37443],[77.7716,16.37424],[77.77146,16.37443],[77.76974,16.37459],[77.76966,16.37423],[77.76863,16.37425],[77.76715,16.374],[77.7671,16.3751],[77.75785,16.37192],[77.75768,16.37238],[77.75762,16.3736],[77.75694,16.37617],[77.75683,16.37735],[77.7551,16.37781],[77.7555,16.37852],[77.75456,16.379],[77.75335,16.37929],[77.75074,16.38032],[77.75066,16.38058],[77.75014,16.3809],[77.7491,16.3822],[77.74863,16.38439],[77.74827,16.38475],[77.74818,16.38546],[77.74798,16.38559],[77.74804,16.38584],[77.74853,16.38565],[77.75288,16.38356],[77.75318,16.38454],[77.75406,16.38434],[77.75443,16.38483],[77.75515,16.3853],[77.75676,16.38502],[77.7577,16.38463],[77.7582,16.38513],[77.75857,16.38581],[77.7591,16.3861],[77.75977,16.38594],[77.76138,16.38446],[77.76208,16.38529],[77.76272,16.38495],[77.76279,16.38509],[77.76348,16.38464],[77.76362,16.38434],[77.76392,16.38429],[77.76399,16.38461],[77.7638,16.38516],[77.76447,16.38534],[77.76513,16.3853],[77.7663,16.386],[77.76752,16.38444],[77.7682,16.38397],[77.76868,16.38408]]]}},{"type":"Feature","bbox":[77.77249,16.3735,77.77507,16.37591],"properties":{"ward":8,"name":"Jagan Wada, Sanosh Nagar"},"geometry":{"type":"Polygon","coordinates":[[[77.77507,16.37516],[77.77497,16.37443],[77.77404,16.37438],[77.77396,16.3735],[77.77282,16.37354],[77.77249,16.37591],[77.77332,16.37591],[77.77507,16.37516]]]}},{"type":"Feature","bbox":[77.77401,16.37127,77.77585,16.37516],"properties":{"ward":9,"name":"Subhash Nagar, Gandhi Nagar"},"geometry":{"type":"Polygon","coordinates":[[[77.77585,16.37476],[77.77543,16.37244],[77.77458,16.37127],[77.77431,16.37147],[77.77423,16.37252],[77.7743,16.37301],[77.77485,16.37303],[77.77479,16.37391],[77.77401,16.37401],[77.77404,16.37438],[77.77497,16.37443],[77.77507,16.37516],[77.77585,16.37476]]]}},{"type":"Feature","bbox":[77.77282,16.37014,77.77485,16.37401],"properties":{"ward":10,"name":"Rajaveede Venkateshwara Nagar"},"geometry":{"type":"Polygon","coordinates":[[[77.77458,16.37127],[77.77379,16.37014],[77.77311,16.37025],[77.77282,16.37354],[77.77396,16.3735],[77.77401,16.37401],[77.77479,16.37391],[77.77485,16.37303],[77.7743,16.37301],[77.77423,16.37252],[77.77431,16.37147],[77.77458,16.37127]]]}}]}