{"type":"FeatureCollection","features":[{"type":"Feature","bbox":[78.95921,17.92576,78.97652,17.95535],"properties":{"ward":1,"name":"Gopala Swamy Temple"},"geometry":{"type":"Polygon","coordinates":[[[78.97319,17.95359],[78.97453,17.95535],[78.97477,17.95503],[78.97652,17.95424],[78.97479,17.949],[78.9727,17.94491],[78.97234,17.9438],[78.97165,17.94388],[78.9714,17.94178],[78.97128,17.93727],[78.97096,17.93664],[78.97037,17.93452],[78.97048,17.93077],[78.97043,17.9302],[78.96987,17.92905],[78.97011,17.92875],[78.97206,17.92842],[78.972,17.92802],[78.97274,17.92798],[78.97272,17.92665],[78.97255,17.926],[78.97136,17.92609],[78.97121,17.92581],[78.97075,17.92576],[78.9709,17.92685],[78.97079,17.92745],[78.97031,17.92808],[78.96893,17.92816],[78.96892,17.92836],[78.9687,17.92837],[78.96877,17.92918],[78.96841,17.92923],[78.9682,17.92758],[78.96687,17.92772],[78.96618,17.92837],[78.96586,17.92986],[78.96609,17.93237],[78.96569,17.9343],[78.96565,17.93693],[78.96362,17.93961],[78.96119,17.94175],[78.96028,17.94403],[78.9595,17.94549],[78.95921,17.94696],[78.96051,17.94761],[78.96131,17.94822],[78.96251,17.95037],[78.96313,17.9512],[78.96376,17.95154],[78.96778,17.95251],[78.96931,17.95255],[78.97139,17.95217],[78.97226,17.95216],[78.97276,17.95252],[78.97319,17.95359]]]}},{"type":"Feature","bbox":[78.96987,17.92706,79.01037,17.95695],"properties":{"ward":2,"name":"Peddamma Gadda"},"geometry":{"type":"Polygon","coordinates":[[[78.97355,17.92716],[78.97274,17.92706],[78.97274,17.92798],[78.972,17.92802],[78.97206,17.92842],[78.97011,17.92875],[78.96987,17.92905],[78.97043,17.9302],[78.97048,17.93077],[78.97037,17.93452],[78.97096,17.93664],[78.97128,17.93727],[78.9714,17.94178],[78.97165,17.94388],[78.97234,17.9438],[78.9727,17.94491],[78.97479,17.949],[78.97556,17.95108],[78.97652,17.95424],[78.97477,17.95503],[78.97453,17.95535],[78.97551,17.95675],[78.97581,17.95695],[78.97882,17.95477],[78.98209,17.95399],[78.98487,17.95399],[78.98755,17.95356],[78.98777,17.95385],[78.99017,17.95339],[78.99117,17.95335],[78.99243,17.95298],[78.99277,17.95301],[78.99373,17.95506],[78.994,17.95522],[78.99483,17.95561],[78.99678,17.95505],[78.99759,17.95587],[78.9993,17.9567],[79.00106,17.95611],[79.00177,17.95478],[79.00172,17.95438],[79.00251,17.95328],[79.00415,17.95207],[79.00831,17.94958],[79.01037,17.94804],[79.00937,17.94715],[79.00806,17.94699],[79.00805,17.94618],[79.00757,17.94616],[79.00747,17.94526],[79.00811,17.94351],[79.00904,17.94325],[79.00976,17.94264],[79.00912,17.93853],[79.00923,17.93757],[79.00024,17.93532],[78.99142,17.93338],[78.98755,17.93127],[78.98586,17.93065],[78.98286,17.93021],[78.97793,17.92904],[78.97498,17.92909],[78.97406,17.92754],[78.97355,17.92716]]]}},{"type":"Feature","bbox":[78.97219,17.91225,79.0284,17.93757],"properties":{"ward":3,"name":"Ambedkar Nagar"},"geometry":{"type":"Polygon","coordinates":[[[78.97219,17.925],[78.97274,17.92706],[78.97377,17.92728],[78.97498,17.92909],[78.97793,17.92904],[78.98286,17.93021],[78.98586,17.93065],[78.98755,17.93127],[78.99142,17.93338],[79.00024,17.93532],[79.00923,17.93757],[79.00928,17.93703],[79.01001,17.93677],[79.01203,17.93663],[79.01205,17.93556],[79.01182,17.93542],[79.0111,17.93264],[79.01199,17.93228],[79.01066,17.93038],[79.00982,17.9304],[79.00576,17.92962],[79.00562,17.92855],[79.00671,17.9285],[79.00736,17.92865],[79.0092,17.92835],[79.01027,17.92813],[79.01243,17.92731],[79.01332,17.92839],[79.01496,17.92813],[79.01497,17.928],[79.01835,17.92857],[79.01838,17.92841],[79.01963,17.92813],[79.02067,17.92842],[79.02175,17.92843],[79.02522,17.92906],[79.02583,17.92887],[79.02805,17.92866],[79.0284,17.92653],[79.02834,17.92572],[79.02768,17.92356],[79.02756,17.92152],[79.02716,17.91973],[79.0254,17.9162],[79.0244,17.91469],[79.02483,17.91225],[79.00582,17.91491],[79.00283,17.91655],[78.99882,17.91783],[78.99823,17.91818],[78.99751,17.91812],[78.99588,17.91833],[78.99322,17.91906],[78.99141,17.91978],[78.9834,17.92171],[78.9798,17.92326],[78.97733,17.92382],[78.97306,17.92443],[78.97264,17.92454],[78.97264,17.92477],[78.97219,17.925]]]}},{"type":"Feature","bbox":[78.97142,17.9045,79.02483,17.925],"properties":{"ward":4,"name":"Sri Nagar Colony"},"geometry":{"type":"Polygon","coordinates":[[[78.9733,17.92035],[78.97142,17.92415],[78.97182,17.92431],[78.9722,17.925],[78.97264,17.92477],[78.97264,17.92454],[78.97306,17.92443],[78.97733,17.92382],[78.9798,17.92326],[78.9834,17.92171],[78.99141,17.91978],[78.99322,17.91906],[78.99588,17.91833],[78.99751,17.91812],[78.99823,17.91818],[78.99882,17.91783],[79.00283,17.91655],[79.00582,17.91491],[79.02483,17.91223],[79.01828,17.90816],[79.01522,17.90645],[79.01411,17.90645],[79.00927,17.9074],[79.00818,17.90748],[79.00393,17.90869],[79.00115,17.9091],[78.99864,17.90985],[78.99796,17.90848],[78.99493,17.91001],[78.99432,17.90974],[78.99332,17.90678],[78.99276,17.90577],[78.99259,17.90588],[78.99157,17.9045],[78.99111,17.90487],[78.98979,17.90506],[78.98919,17.90541],[78.98313,17.91102],[78.97537,17.91769],[78.9733,17.92035]]]}},{"type":"Feature","bbox":[78.97071,17.89962,78.98919,17.91932],"properties":{"ward":5,"name":"Beedi Colony & Amp ; Old Petrol Bunk"},"geometry":{"type":"Polygon","coordinates":[[[78.9735,17.91897],[78.97409,17.91932],[78.97537,17.91769],[78.98313,17.91102],[78.98919,17.90541],[78.98695,17.89962],[78.98443,17.90021],[78.97821,17.90363],[78.97838,17.90523],[78.97701,17.90538],[78.97742,17.90778],[78.97736,17.90894],[78.97698,17.91078],[78.97701,17.913],[78.97684,17.91325],[78.97632,17.91349],[78.97621,17.91384],[78.97666,17.91558],[78.97611,17.91607],[78.97468,17.91646],[78.97186,17.91667],[78.97071,17.91651],[78.9735,17.91897]]]}},{"type":"Feature","bbox":[78.95191,17.88119,78.98443,17.92177],"properties":{"ward":6,"name":"Gadi Thota &Amp; Banda Pally"},"geometry":{"type":"Polygon","coordinates":[[[78.97821,17.90363],[78.98443,17.90021],[78.98415,17.89943],[78.98397,17.8978],[78.9833,17.89657],[78.98306,17.89555],[78.98284,17.89261],[78.98264,17.89141],[78.98228,17.89059],[78.98287,17.89033],[78.98227,17.88796],[78.98207,17.8855],[78.97933,17.88257],[78.97876,17.88119],[78.97497,17.88136],[78.97436,17.88158],[78.97392,17.88197],[78.97345,17.88206],[78.9735,17.88219],[78.97104,17.88291],[78.9711,17.88324],[78.97028,17.8833],[78.9686,17.88305],[78.96739,17.88331],[78.96738,17.88375],[78.96375,17.88429],[78.96117,17.88494],[78.95838,17.88606],[78.95735,17.88633],[78.95567,17.88649],[78.95272,17.88949],[78.95191,17.88986],[78.953,17.89453],[78.9539,17.89723],[78.95435,17.89933],[78.95552,17.90212],[78.95405,17.9024],[78.95346,17.90507],[78.9537,17.90618],[78.9533,17.90787],[78.9539,17.90995],[78.9545,17.90978],[78.95542,17.90988],[78.9564,17.90973],[78.9568,17.90957],[78.95714,17.90884],[78.95766,17.90852],[78.95884,17.90842],[78.9591,17.90815],[78.95986,17.90787],[78.95987,17.90765],[78.96029,17.90747],[78.95993,17.90669],[78.96004,17.90603],[78.96127,17.90649],[78.96182,17.90705],[78.96211,17.91034],[78.96234,17.91108],[78.96275,17.912],[78.96341,17.91295],[78.96531,17.91518],[78.96634,17.91561],[78.96879,17.91619],[78.97043,17.91913],[78.9722,17.92177],[78.97409,17.91932],[78.9735,17.91897],[78.97071,17.91651],[78.97186,17.91667],[78.97468,17.91646],[78.97611,17.91607],[78.97666,17.91558],[78.97621,17.91384],[78.97632,17.91349],[78.97684,17.91325],[78.97701,17.913],[78.97698,17.91078],[78.97736,17.90894],[78.97742,17.90778],[78.97701,17.90538],[78.97838,17.90523],[78.97821,17.90363]]]}},{"type":"Feature","bbox":[78.96121,17.91561,78.9722,17.92544],"properties":{"ward":7,"name":"Rajeev Nagar"},"geometry":{"type":"Polygon","coordinates":[[[78.96879,17.91619],[78.96634,17.91561],[78.96739,17.91953],[78.96786,17.92064],[78.96622,17.92116],[78.96605,17.92107],[78.96497,17.92132],[78.96469,17.92178],[78.96402,17.9222],[78.96317,17.92227],[78.96309,17.92189],[78.96182,17.92196],[78.96173,17.9216],[78.96121,17.92171],[78.96134,17.92217],[78.96242,17.92335],[78.96544,17.92516],[78.96561,17.92544],[78.96735,17.92477],[78.97125,17.92286],[78.9722,17.92177],[78.97043,17.91913],[78.96879,17.91619]]]}},{"type":"Feature","bbox":[78.9506,17.90603,78.96786,17.94696],"properties":{"ward":8,"name":"Guntur Palli"},"geometry":{"type":"Polygon","coordinates":[[[78.95676,17.94543],[78.95921,17.94696],[78.9595,17.94549],[78.96028,17.94403],[78.96119,17.94175],[78.96362,17.93961],[78.96565,17.93693],[78.96569,17.9343],[78.96608,17.93285],[78.96586,17.92986],[78.96633,17.92741],[78.96593,17.92615],[78.96544,17.92516],[78.96242,17.92335],[78.96134,17.92217],[78.96121,17.92171],[78.96173,17.9216],[78.96182,17.92196],[78.96309,17.92189],[78.96317,17.92227],[78.96402,17.9222],[78.96469,17.92178],[78.96497,17.92132],[78.96605,17.92107],[78.96622,17.92116],[78.96786,17.92064],[78.96739,17.91953],[78.96634,17.91561],[78.96503,17.915],[78.96275,17.912],[78.96211,17.91034],[78.96182,17.90705],[78.96127,17.90649],[78.96004,17.90603],[78.95993,17.90669],[78.96029,17.90747],[78.95987,17.90765],[78.95986,17.90787],[78.9591,17.90815],[78.95884,17.90842],[78.95766,17.90852],[78.95714,17.90884],[78.9568,17.90957],[78.9564,17.90973],[78.95542,17.90988],[78.9545,17.90978],[78.9539,17.90995],[78.954,17.91029],[78.95312,17.9102],[78.9527,17.91122],[78.95077,17.91407],[78.9506,17.91616],[78.95069,17.92055],[78.95142,17.92335],[78.9535,17.92832],[78.95539,17.93163],[78.95574,17.93329],[78.95775,17.93901],[78.95739,17.94273],[78.95704,17.94331],[78.95607,17.9442],[78.95602,17.94448],[78.95676,17.94543]]]}},{"type":"Feature","bbox":[78.96561,17.92418,78.96857,17.92837],"properties":{"ward":9,"name":"Vasavi Garden"},"geometry":{"type":"Polygon","coordinates":[[[78.96855,17.92418],[78.96561,17.92544],[78.96633,17.92741],[78.96618,17.92837],[78.96687,17.92772],[78.96843,17.92756],[78.96819,17.92564],[78.96857,17.92565],[78.96855,17.92418]]]}},{"type":"Feature","bbox":[78.96819,17.92488,78.9709,17.92923],"properties":{"ward":10,"name":"Paka Wada"},"geometry":{"type":"Polygon","coordinates":[[[78.97002,17.92576],[78.9699,17.92495],[78.96856,17.92488],[78.96857,17.92565],[78.96819,17.92564],[78.96843,17.92756],[78.9682,17.92758],[78.96841,17.92923],[78.96877,17.92918],[78.9687,17.92837],[78.96892,17.92836],[78.96893,17.92816],[78.97031,17.92808],[78.97079,17.92745],[78.9709,17.92685],[78.97065,17.92581],[78.97002,17.92576]]]}},{"type":"Feature","bbox":[78.9699,17.92415,78.97255,17.92609],"properties":{"ward":11,"name":"Ambedkar"},"geometry":{"type":"Polygon","coordinates":[[[78.97136,17.92609],[78.97255,17.926],[78.97209,17.92475],[78.97169,17.9242],[78.97142,17.92415],[78.9713,17.92436],[78.97075,17.92443],[78.9699,17.92495],[78.97002,17.92576],[78.97092,17.92574],[78.97121,17.92581],[78.97136,17.92609]]]}},{"type":"Feature","bbox":[78.96855,17.92044,78.97322,17.92495],"properties":{"ward":12,"name":"Shivalayam Veedi"},"geometry":{"type":"Polygon","coordinates":[[[78.96855,17.92418],[78.96856,17.92488],[78.96933,17.92495],[78.9699,17.92495],[78.97075,17.92443],[78.9713,17.92436],[78.97311,17.92093],[78.97322,17.92044],[78.97142,17.92274],[78.96855,17.92418]]]}}]}