{"type":"FeatureCollection","features":[{"type":"Feature","bbox":[77.93781,25.70098,77.94164,25.70451],"properties":{"ward":1},"geometry":{"type":"Polygon","coordinates":[[[77.94051,25.70451],[77.94143,25.70396],[77.94164,25.70232],[77.93971,25.70098],[77.93798,25.70107],[77.93781,25.70176],[77.93834,25.70201],[77.9382,25.70282],[77.93857,25.70347],[77.93888,25.70384],[77.94051,25.70451]]]}},{"type":"Feature","bbox":[77.93586,25.70164,77.94052,25.70637],"properties":{"ward":2},"geometry":{"type":"Polygon","coordinates":[[[77.93723,25.70164],[77.93621,25.70239],[77.93588,25.70365],[77.93586,25.70519],[77.93654,25.70619],[77.93744,25.70637],[77.94052,25.70452],[77.93889,25.70385],[77.93819,25.70283],[77.93833,25.702],[77.93723,25.70164]]]}},{"type":"Feature","bbox":[77.92791,25.70095,77.93651,25.70616],"properties":{"ward":3},"geometry":{"type":"Polygon","coordinates":[[[77.92942,25.70102],[77.92791,25.70095],[77.92821,25.70183],[77.93162,25.70406],[77.93459,25.70576],[77.93651,25.70616],[77.93588,25.70524],[77.93587,25.7041],[77.93275,25.70275],[77.93113,25.70136],[77.92942,25.70102]]]}},{"type":"Feature","bbox":[77.93107,25.70041,77.9354,25.70347],"properties":{"ward":4},"geometry":{"type":"Polygon","coordinates":[[[77.93279,25.70278],[77.93445,25.70347],[77.9354,25.70185],[77.9354,25.70138],[77.9346,25.70072],[77.93387,25.70057],[77.93281,25.7005],[77.9318,25.70086],[77.93143,25.70041],[77.93107,25.70051],[77.93115,25.70135],[77.93279,25.70278]]]}},{"type":"Feature","bbox":[77.93445,25.70137,77.93718,25.70407],"properties":{"ward":5},"geometry":{"type":"Polygon","coordinates":[[[77.93445,25.70345],[77.93585,25.70407],[77.93622,25.70239],[77.93718,25.70166],[77.93697,25.70149],[77.93541,25.70137],[77.9354,25.70187],[77.93445,25.70345]]]}},{"type":"Feature","bbox":[77.93458,25.70059,77.93836,25.70175],"properties":{"ward":6},"geometry":{"type":"Polygon","coordinates":[[[77.93523,25.70134],[77.93697,25.70148],[77.93719,25.70166],[77.93782,25.70175],[77.93798,25.70107],[77.93836,25.70102],[77.93788,25.70059],[77.93458,25.70069],[77.93523,25.70134]]]}},{"type":"Feature","bbox":[77.93288,25.69806,77.93793,25.70069],"properties":{"ward":7},"geometry":{"type":"Polygon","coordinates":[[[77.93453,25.70069],[77.93783,25.70058],[77.9377,25.69936],[77.93793,25.69898],[77.93747,25.69885],[77.9373,25.69904],[77.93534,25.69915],[77.93509,25.69876],[77.9338,25.69806],[77.9333,25.69875],[77.93288,25.69902],[77.93453,25.70069]]]}},{"type":"Feature","bbox":[77.93142,25.69709,77.93377,25.69891],"properties":{"ward":8},"geometry":{"type":"Polygon","coordinates":[[[77.933,25.69891],[77.93377,25.69804],[77.93296,25.69723],[77.93281,25.69709],[77.93142,25.69748],[77.933,25.69891]]]}},{"type":"Feature","bbox":[77.93007,25.6942,77.93278,25.69751],"properties":{"ward":9},"geometry":{"type":"Polygon","coordinates":[[[77.93064,25.69744],[77.93128,25.69751],[77.93278,25.69709],[77.93008,25.6942],[77.93007,25.69472],[77.93064,25.69744]]]}},{"type":"Feature","bbox":[77.92788,25.69424,77.93111,25.70133],"properties":{"ward":10},"geometry":{"type":"Polygon","coordinates":[[[77.9287,25.69907],[77.92788,25.70044],[77.92791,25.70095],[77.92942,25.70101],[77.93111,25.70133],[77.93062,25.69741],[77.93003,25.69424],[77.92794,25.69524],[77.9285,25.6963],[77.92868,25.69714],[77.9287,25.69907]]]}},{"type":"Feature","bbox":[77.92546,25.69167,77.93003,25.6952],"properties":{"ward":11},"geometry":{"type":"Polygon","coordinates":[[[77.92618,25.69504],[77.92798,25.6952],[77.93003,25.69413],[77.92959,25.69343],[77.92794,25.69167],[77.92546,25.69282],[77.92618,25.69504]]]}},{"type":"Feature","bbox":[77.93063,25.69745,77.93447,25.70082],"properties":{"ward":12},"geometry":{"type":"Polygon","coordinates":[[[77.93063,25.69745],[77.9311,25.70046],[77.93141,25.70038],[77.93183,25.70082],[77.93343,25.70047],[77.93447,25.70069],[77.93292,25.69911],[77.93298,25.69891],[77.93144,25.69752],[77.93063,25.69745]]]}},{"type":"Feature","bbox":[77.92795,25.69154,77.93689,25.69827],"properties":{"ward":13},"geometry":{"type":"Polygon","coordinates":[[[77.93017,25.69424],[77.93415,25.69827],[77.93503,25.69824],[77.9366,25.69799],[77.93689,25.69757],[77.93638,25.69777],[77.93508,25.69581],[77.93449,25.69452],[77.93453,25.69406],[77.93531,25.69365],[77.93565,25.69276],[77.93425,25.69238],[77.92821,25.69154],[77.92795,25.69166],[77.92969,25.69347],[77.93017,25.69424]]]}},{"type":"Feature","bbox":[77.93451,25.69273,77.94014,25.69774],"properties":{"ward":14},"geometry":{"type":"Polygon","coordinates":[[[77.93757,25.69714],[77.93916,25.69732],[77.94014,25.69544],[77.94009,25.69366],[77.93567,25.69273],[77.93535,25.69359],[77.93462,25.69404],[77.93451,25.69452],[77.93508,25.6958],[77.93637,25.69774],[77.93757,25.69714]]]}},{"type":"Feature","bbox":[77.93412,25.69708,77.9391,25.69921],"properties":{"ward":15},"geometry":{"type":"Polygon","coordinates":[[[77.93536,25.69915],[77.93579,25.69921],[77.93698,25.69897],[77.93728,25.69904],[77.93748,25.69883],[77.93791,25.69895],[77.93883,25.69879],[77.9391,25.69731],[77.93774,25.69708],[77.93675,25.69773],[77.93657,25.69801],[77.93412,25.6983],[77.93513,25.69876],[77.93536,25.69915]]]}}]}