{"type":"FeatureCollection","features":[{"type":"Feature","bbox":[77.55767,13.28276,77.58347,13.29942],"properties":{"ward":1,"name":"Raghunathpura"},"geometry":{"type":"Polygon","coordinates":[[[77.57404,13.29942],[77.57499,13.29916],[77.5771,13.29805],[77.579,13.29601],[77.57917,13.29575],[77.57944,13.29436],[77.58123,13.29177],[77.58231,13.28931],[77.58347,13.28826],[77.58323,13.28748],[77.58301,13.2873],[77.5823,13.28504],[77.58178,13.28276],[77.57893,13.28339],[77.57719,13.28327],[77.5756,13.28363],[77.57321,13.28447],[77.5705,13.28507],[77.56976,13.28512],[77.56245,13.28436],[77.55973,13.28474],[77.55955,13.28546],[77.5589,13.28558],[77.55892,13.28588],[77.5578,13.28657],[77.55781,13.28963],[77.55767,13.29046],[77.55778,13.29207],[77.55804,13.29312],[77.55833,13.29356],[77.55851,13.29537],[77.55835,13.29736],[77.55921,13.29715],[77.56348,13.29504],[77.56329,13.29485],[77.56337,13.29444],[77.56294,13.29359],[77.56301,13.29341],[77.56698,13.2915],[77.56777,13.29093],[77.56854,13.29431],[77.5687,13.29721],[77.56835,13.29742],[77.56853,13.29777],[77.57045,13.29757],[77.57049,13.29787],[77.57101,13.29782],[77.5712,13.29826],[77.57275,13.29839],[77.57312,13.29936],[77.57404,13.29942]]]}},{"type":"Feature","bbox":[77.58178,13.2751,77.60466,13.29677],"properties":{"ward":2,"name":"Moparahalli,Aadinarayana Hosahalli, Nagadenahalli"},"geometry":{"type":"Polygon","coordinates":[[[77.60194,13.29677],[77.60164,13.29287],[77.60121,13.2913],[77.60125,13.29005],[77.60284,13.28724],[77.60466,13.28522],[77.60453,13.28487],[77.60463,13.28305],[77.60108,13.28194],[77.6011,13.28102],[77.60008,13.28101],[77.59999,13.28037],[77.59954,13.28043],[77.59894,13.28017],[77.59883,13.27887],[77.59792,13.27888],[77.59735,13.2786],[77.59635,13.27866],[77.59613,13.27784],[77.59594,13.27795],[77.59573,13.2775],[77.59559,13.27685],[77.59459,13.27653],[77.59411,13.27567],[77.5916,13.27684],[77.58988,13.27707],[77.58797,13.27604],[77.58495,13.27532],[77.58186,13.2751],[77.58198,13.27931],[77.58261,13.28259],[77.58178,13.28276],[77.5823,13.28504],[77.58301,13.2873],[77.58323,13.28748],[77.58333,13.28813],[77.58556,13.2902],[77.58845,13.29218],[77.58838,13.29332],[77.58979,13.29293],[77.59236,13.29361],[77.59308,13.29399],[77.5959,13.29421],[77.60194,13.29677]]]}},{"type":"Feature","bbox":[77.5688,13.27045,77.58261,13.28507],"properties":{"ward":3,"name":"Obadenahalli"},"geometry":{"type":"Polygon","coordinates":[[[77.57721,13.28335],[77.57893,13.28339],[77.58261,13.28259],[77.58198,13.27931],[77.58189,13.2751],[77.58138,13.27368],[77.58032,13.27163],[77.57511,13.27045],[77.57564,13.27201],[77.5741,13.27314],[77.57147,13.27429],[77.5688,13.27707],[77.56917,13.27969],[77.56955,13.28074],[77.5705,13.28507],[77.57321,13.28447],[77.5756,13.28363],[77.57721,13.28335]]]}},{"type":"Feature","bbox":[77.56079,13.26428,77.57564,13.27969],"properties":{"ward":4,"name":"Arehalli Gudddahalli-1"},"geometry":{"type":"Polygon","coordinates":[[[77.56079,13.2655],[77.56118,13.26668],[77.5638,13.26588],[77.56293,13.26884],[77.56331,13.26945],[77.56544,13.26955],[77.56572,13.26974],[77.5661,13.26973],[77.56623,13.27011],[77.5663,13.27063],[77.56588,13.27144],[77.56495,13.27213],[77.56397,13.27232],[77.56381,13.27404],[77.56363,13.27431],[77.56322,13.27435],[77.56346,13.27543],[77.56373,13.27566],[77.56398,13.27566],[77.56405,13.27599],[77.56685,13.27604],[77.5674,13.27637],[77.56823,13.27765],[77.56917,13.27969],[77.5688,13.27707],[77.57147,13.27429],[77.5741,13.27314],[77.57564,13.27201],[77.57511,13.27051],[77.57493,13.26911],[77.5728,13.26886],[77.57029,13.26587],[77.56777,13.26428],[77.56411,13.26438],[77.56079,13.2655]]]}},{"type":"Feature","bbox":[77.56381,13.24773,77.57542,13.26911],"properties":{"ward":5,"name":"Varadanahalli East"},"geometry":{"type":"Polygon","coordinates":[[[77.57493,13.26911],[77.57542,13.2661],[77.57509,13.26432],[77.57502,13.26261],[77.57515,13.26113],[77.57487,13.25961],[77.57441,13.259],[77.57374,13.25902],[77.57245,13.25836],[77.57255,13.25719],[77.57228,13.25493],[77.57202,13.25003],[77.57167,13.24804],[77.57074,13.24773],[77.56784,13.24842],[77.56456,13.2487],[77.56381,13.25213],[77.56473,13.25519],[77.56604,13.25773],[77.56651,13.25814],[77.56695,13.25998],[77.56713,13.26202],[77.56769,13.26426],[77.57029,13.26587],[77.5728,13.26886],[77.57493,13.26911]]]}},{"type":"Feature","bbox":[77.55168,13.23227,77.57171,13.24587],"properties":{"ward":6,"name":"Kasavanahalli &Amp; Bisuvnahalli"},"geometry":{"type":"Polygon","coordinates":[[[77.55214,13.24373],[77.55197,13.24392],[77.55213,13.24554],[77.55522,13.24288],[77.55833,13.24268],[77.56092,13.24285],[77.56201,13.24318],[77.56253,13.24365],[77.56353,13.24479],[77.56382,13.24587],[77.56613,13.24526],[77.5663,13.24537],[77.5679,13.24499],[77.5705,13.24408],[77.57155,13.24458],[77.57171,13.24417],[77.57154,13.24299],[77.57109,13.24294],[77.57079,13.24082],[77.57045,13.24082],[77.57029,13.23965],[77.56983,13.23974],[77.56976,13.23899],[77.57021,13.23889],[77.57005,13.23815],[77.5697,13.23817],[77.56935,13.23668],[77.56798,13.2345],[77.5662,13.23483],[77.5662,13.23495],[77.56424,13.23585],[77.56325,13.23657],[77.56176,13.23823],[77.56147,13.2382],[77.56109,13.23875],[77.55967,13.23459],[77.55981,13.23428],[77.55942,13.23303],[77.55895,13.23227],[77.55448,13.23352],[77.55302,13.23357],[77.55168,13.23469],[77.55173,13.24037],[77.55214,13.24373]]]}},{"type":"Feature","bbox":[77.55213,13.24268,77.56227,13.25157],"properties":{"ward":7,"name":"Yellupura -1"},"geometry":{"type":"Polygon","coordinates":[[[77.55252,13.2465],[77.55367,13.24807],[77.55441,13.24965],[77.55445,13.25091],[77.55418,13.25149],[77.55431,13.25157],[77.55624,13.24761],[77.55689,13.24757],[77.55725,13.24699],[77.56011,13.24714],[77.56145,13.24807],[77.56204,13.24799],[77.56219,13.24765],[77.56227,13.24342],[77.56201,13.24318],[77.56024,13.24276],[77.55833,13.24268],[77.55522,13.24288],[77.55213,13.24554],[77.55252,13.2465]]]}},{"type":"Feature","bbox":[77.5543,13.24342,77.56456,13.25411],"properties":{"ward":8,"name":"Yellupura -2"},"geometry":{"type":"Polygon","coordinates":[[[77.56227,13.24342],[77.56212,13.2479],[77.56145,13.24807],[77.56036,13.24724],[77.5597,13.24709],[77.55725,13.24699],[77.55689,13.24757],[77.55624,13.24761],[77.55431,13.25157],[77.5543,13.25411],[77.55741,13.2535],[77.55935,13.25341],[77.56381,13.25213],[77.56456,13.2487],[77.56437,13.24862],[77.56401,13.24793],[77.56384,13.24598],[77.56353,13.24479],[77.56227,13.24342]]]}},{"type":"Feature","bbox":[77.56213,13.25213,77.56769,13.2644],"properties":{"ward":9,"name":"Varadanahalli West"},"geometry":{"type":"Polygon","coordinates":[[[77.5644,13.2592],[77.56487,13.25916],[77.56551,13.2644],[77.56769,13.26426],[77.56713,13.26202],[77.56695,13.25998],[77.56651,13.25814],[77.56604,13.25773],[77.56473,13.25519],[77.56381,13.25213],[77.56213,13.25267],[77.56314,13.25647],[77.5644,13.2592]]]}},{"type":"Feature","bbox":[77.55935,13.25267,77.56551,13.2644],"properties":{"ward":10,"name":"Varadanahalli Vinayakanagara"},"geometry":{"type":"Polygon","coordinates":[[[77.56406,13.26439],[77.56551,13.2644],[77.56514,13.26067],[77.56487,13.25916],[77.5644,13.2592],[77.56314,13.25647],[77.56213,13.25267],[77.55935,13.25341],[77.5601,13.25664],[77.56076,13.25843],[77.56284,13.26216],[77.56329,13.26339],[77.56406,13.26439]]]}},{"type":"Feature","bbox":[77.55251,13.25336,77.56122,13.26056],"properties":{"ward":11,"name":"Bashettihalli Basaveshwaranagara"},"geometry":{"type":"Polygon","coordinates":[[[77.56122,13.25933],[77.5601,13.25664],[77.55936,13.25336],[77.55741,13.2535],[77.5543,13.25411],[77.55332,13.25505],[77.55253,13.2592],[77.55251,13.26047],[77.55515,13.2604],[77.55511,13.26056],[77.55686,13.26008],[77.55683,13.2599],[77.56003,13.25969],[77.56122,13.25933]]]}},{"type":"Feature","bbox":[77.55111,13.25505,77.55332,13.2593],"properties":{"ward":12,"name":"Bashettihalli Bank Circle"},"geometry":{"type":"Polygon","coordinates":[[[77.55115,13.2593],[77.55253,13.2593],[77.55332,13.25505],[77.55196,13.25677],[77.55174,13.25737],[77.55118,13.25815],[77.55111,13.25835],[77.55154,13.25833],[77.55115,13.2593]]]}},{"type":"Feature","bbox":[77.54906,13.25815,77.55253,13.26047],"properties":{"ward":13,"name":"Bashettihalli Vijaynagara"},"geometry":{"type":"Polygon","coordinates":[[[77.54906,13.26027],[77.55099,13.26009],[77.55094,13.26038],[77.55251,13.26047],[77.55253,13.2593],[77.55115,13.2593],[77.55154,13.25833],[77.55111,13.25835],[77.55118,13.25815],[77.55011,13.25851],[77.54964,13.25872],[77.54906,13.26027]]]}},{"type":"Feature","bbox":[77.55251,13.2604,77.55515,13.26136],"properties":{"ward":14,"name":"Bashettihalli Janatha Colony"},"geometry":{"type":"Polygon","coordinates":[[[77.55497,13.26115],[77.55515,13.2604],[77.55251,13.26047],[77.55255,13.26136],[77.55497,13.26115]]]}},{"type":"Feature","bbox":[77.55351,13.25933,77.56276,13.26313],"properties":{"ward":15,"name":"Bashettihalli Ramachandrappa Extension"},"geometry":{"type":"Polygon","coordinates":[[[77.5571,13.26237],[77.55778,13.26228],[77.55804,13.2625],[77.55847,13.26243],[77.55861,13.26205],[77.55948,13.26179],[77.55989,13.26294],[77.56276,13.26203],[77.56122,13.25933],[77.56003,13.25969],[77.55683,13.2599],[77.55686,13.26008],[77.55511,13.26056],[77.55497,13.26115],[77.55379,13.26127],[77.55383,13.26188],[77.55351,13.2619],[77.55351,13.26213],[77.55424,13.26211],[77.55423,13.26183],[77.55499,13.26163],[77.55546,13.26313],[77.5571,13.26237]]]}},{"type":"Feature","bbox":[77.55255,13.26127,77.55539,13.2632],"properties":{"ward":16,"name":"Ambedkar Nagar"},"geometry":{"type":"Polygon","coordinates":[[[77.55539,13.26303],[77.55499,13.26163],[77.55423,13.26183],[77.55424,13.26211],[77.55351,13.26213],[77.55351,13.2619],[77.55383,13.26188],[77.55379,13.26127],[77.55255,13.26136],[77.55265,13.2632],[77.55539,13.26303]]]}},{"type":"Feature","bbox":[77.54909,13.26009,77.55267,13.27074],"properties":{"ward":17,"name":"Bashettihalli Columbia Extension"},"geometry":{"type":"Polygon","coordinates":[[[77.55205,13.27064],[77.55261,13.26571],[77.55267,13.26355],[77.55251,13.26047],[77.55094,13.26038],[77.55099,13.26009],[77.55032,13.26023],[77.54909,13.26019],[77.54932,13.26308],[77.54925,13.26595],[77.54942,13.26593],[77.54935,13.26729],[77.54974,13.26934],[77.55044,13.26928],[77.55088,13.27074],[77.55205,13.27064]]]}},{"type":"Feature","bbox":[77.55205,13.26179,77.56396,13.27064],"properties":{"ward":18,"name":"Bashettihalli Vinayaknagara"},"geometry":{"type":"Polygon","coordinates":[[[77.56276,13.26203],[77.55989,13.26294],[77.55948,13.26179],[77.55861,13.26205],[77.55847,13.26243],[77.55804,13.2625],[77.55778,13.26228],[77.5571,13.26237],[77.55546,13.26313],[77.55265,13.2632],[77.55261,13.26571],[77.55205,13.27064],[77.55324,13.27042],[77.5532,13.27014],[77.55357,13.27004],[77.55359,13.26986],[77.55503,13.26872],[77.56067,13.26597],[77.56086,13.26538],[77.56396,13.26442],[77.56329,13.26339],[77.56276,13.26203]]]}},{"type":"Feature","bbox":[77.55317,13.2655,77.5705,13.28512],"properties":{"ward":19,"name":"Arehalli Guddadahalli -2"},"geometry":{"type":"Polygon","coordinates":[[[77.56955,13.28074],[77.56823,13.27765],[77.5674,13.27637],[77.56685,13.27604],[77.56405,13.27599],[77.56398,13.27566],[77.56373,13.27566],[77.56346,13.27543],[77.56322,13.27435],[77.56363,13.27431],[77.56381,13.27404],[77.56397,13.27232],[77.56495,13.27213],[77.56588,13.27144],[77.56631,13.27046],[77.5661,13.26973],[77.56572,13.26974],[77.56539,13.26954],[77.56331,13.26945],[77.56293,13.26884],[77.5638,13.26588],[77.56118,13.26668],[77.56079,13.2655],[77.56067,13.26597],[77.55503,13.26872],[77.55359,13.26986],[77.55357,13.27004],[77.5532,13.27014],[77.55317,13.2705],[77.55331,13.27049],[77.55465,13.27607],[77.55612,13.27611],[77.55626,13.2771],[77.55699,13.27924],[77.55722,13.27963],[77.55773,13.27992],[77.55764,13.2811],[77.55914,13.2831],[77.55919,13.28433],[77.55962,13.28432],[77.55973,13.28474],[77.56245,13.28436],[77.56976,13.28512],[77.5705,13.28507],[77.56955,13.28074]]]}}]}