{"type":"FeatureCollection","features":[{"type":"Feature","bbox":[82.00711,26.02787,82.02336,26.04599],"properties":{"ward":1,"name":"Barauli"},"geometry":{"type":"Polygon","coordinates":[[[82.01335,26.04287],[82.01356,26.04023],[82.01606,26.03603],[82.01633,26.0341],[82.02336,26.03319],[82.02275,26.02993],[82.01692,26.02889],[82.01416,26.02787],[82.01331,26.0283],[82.01266,26.02908],[82.01148,26.03152],[82.01216,26.03338],[82.01143,26.0344],[82.0129,26.03589],[82.01049,26.03705],[82.00802,26.03725],[82.00745,26.03924],[82.00802,26.04037],[82.01063,26.04087],[82.01183,26.04179],[82.01106,26.0425],[82.00946,26.04184],[82.00749,26.04204],[82.00711,26.04296],[82.00755,26.04391],[82.00981,26.04524],[82.01059,26.04599],[82.01233,26.04343],[82.01335,26.04287]]]}},{"type":"Feature","bbox":[82.01907,26.0404,82.02554,26.04808],"properties":{"ward":2,"name":"Madhavpur"},"geometry":{"type":"Polygon","coordinates":[[[82.02554,26.04545],[82.02456,26.04055],[82.02165,26.04155],[82.01907,26.0404],[82.01989,26.04808],[82.02554,26.04545]]]}},{"type":"Feature","bbox":[82.00961,26.01291,82.02723,26.02889],"properties":{"ward":3,"name":"Pandri Pal"},"geometry":{"type":"Polygon","coordinates":[[[82.02473,26.01485],[82.02269,26.01291],[82.01948,26.01346],[82.01757,26.01885],[82.01602,26.02023],[82.01498,26.01756],[82.00961,26.01726],[82.01209,26.02473],[82.01194,26.02538],[82.01331,26.0283],[82.01416,26.02787],[82.01692,26.02889],[82.01653,26.02628],[82.02002,26.0264],[82.02237,26.02773],[82.02544,26.0284],[82.02603,26.02832],[82.02655,26.02723],[82.02723,26.02671],[82.02473,26.01485]]]}},{"type":"Feature","bbox":[82.01335,26.03395,82.01908,26.04296],"properties":{"ward":4,"name":"Pure Sewaki"},"geometry":{"type":"Polygon","coordinates":[[[82.01606,26.03603],[82.01356,26.04023],[82.01335,26.04296],[82.01908,26.0404],[82.0177,26.03395],[82.01633,26.0341],[82.01606,26.03603]]]}},{"type":"Feature","bbox":[82.01059,26.04037,82.01989,26.05017],"properties":{"ward":5,"name":"Pure Baiju"},"geometry":{"type":"Polygon","coordinates":[[[82.01989,26.04808],[82.01901,26.04037],[82.01233,26.04343],[82.01059,26.04599],[82.01137,26.04675],[82.01136,26.04935],[82.0111,26.0498],[82.01238,26.05011],[82.0134,26.05017],[82.01532,26.04931],[82.01989,26.04808]]]}},{"type":"Feature","bbox":[82.0238,26.01208,82.03682,26.02857],"properties":{"ward":6,"name":"Lakhipur"},"geometry":{"type":"Polygon","coordinates":[[[82.0352,26.02467],[82.03659,26.02125],[82.03682,26.01963],[82.03274,26.01774],[82.03077,26.01208],[82.02663,26.01239],[82.0249,26.01486],[82.0238,26.01388],[82.02473,26.01485],[82.02723,26.02671],[82.029,26.02857],[82.03001,26.02645],[82.02923,26.02472],[82.03048,26.02357],[82.03299,26.02383],[82.0352,26.02467]]]}},{"type":"Feature","bbox":[82.01653,26.02628,82.02964,26.03319],"properties":{"ward":7,"name":"Lokai Ka Purwa"},"geometry":{"type":"Polygon","coordinates":[[[82.02964,26.03222],[82.02837,26.02999],[82.029,26.02857],[82.02723,26.02671],[82.02655,26.02723],[82.02603,26.02832],[82.02544,26.0284],[82.02237,26.02773],[82.02002,26.0264],[82.01653,26.02628],[82.01692,26.02889],[82.02275,26.02993],[82.02336,26.03319],[82.02964,26.03222]]]}},{"type":"Feature","bbox":[82.02554,26.04404,82.03526,26.05419],"properties":{"ward":8,"name":"Ramapur"},"geometry":{"type":"Polygon","coordinates":[[[82.02554,26.04545],[82.02723,26.05395],[82.03424,26.05419],[82.03521,26.05349],[82.03503,26.051],[82.03526,26.04604],[82.03517,26.04404],[82.02554,26.04545]]]}},{"type":"Feature","bbox":[82.01084,26.04545,82.02723,26.05395],"properties":{"ward":9,"name":"Dharauli First"},"geometry":{"type":"Polygon","coordinates":[[[82.02554,26.04545],[82.01985,26.0481],[82.01532,26.04931],[82.0134,26.05017],[82.01238,26.05011],[82.0111,26.0498],[82.01084,26.05025],[82.01195,26.05214],[82.01936,26.05369],[82.02723,26.05395],[82.02554,26.04545]]]}},{"type":"Feature","bbox":[82.02837,26.02357,82.03751,26.0339],"properties":{"ward":10,"name":"Ghanapur"},"geometry":{"type":"Polygon","coordinates":[[[82.0352,26.02467],[82.03299,26.02383],[82.03048,26.02357],[82.02923,26.02472],[82.03001,26.02645],[82.02837,26.02999],[82.02964,26.03222],[82.0324,26.03179],[82.0346,26.03375],[82.03608,26.0339],[82.03725,26.03371],[82.03681,26.03066],[82.03751,26.03027],[82.03626,26.02759],[82.03538,26.02663],[82.03613,26.02571],[82.0352,26.02467]]]}},{"type":"Feature","bbox":[82.02439,26.03179,82.03469,26.04055],"properties":{"ward":11,"name":"Bijra"},"geometry":{"type":"Polygon","coordinates":[[[82.02543,26.03287],[82.02636,26.03478],[82.02685,26.03668],[82.02646,26.03777],[82.02439,26.03846],[82.02456,26.04055],[82.03075,26.04005],[82.03285,26.03867],[82.03469,26.03826],[82.0346,26.03375],[82.0324,26.03179],[82.02543,26.03287]]]}},{"type":"Feature","bbox":[82.0177,26.03287,82.02685,26.04155],"properties":{"ward":12,"name":"Kohdaur Bazar"},"geometry":{"type":"Polygon","coordinates":[[[82.0177,26.03395],[82.01908,26.0404],[82.02165,26.04155],[82.02456,26.04055],[82.02439,26.03846],[82.02646,26.03777],[82.02685,26.03668],[82.02636,26.03478],[82.02543,26.03287],[82.0177,26.03395]]]}},{"type":"Feature","bbox":[82.02456,26.03826,82.03517,26.04545],"properties":{"ward":13,"name":"Dharauli Second"},"geometry":{"type":"Polygon","coordinates":[[[82.02456,26.04055],[82.02554,26.04545],[82.03517,26.04404],[82.03469,26.03826],[82.03285,26.03867],[82.03075,26.04005],[82.02456,26.04055]]]}}]}