{"type":"FeatureCollection","features":[{"type":"Feature","bbox":[77.82209,25.07982,77.86363,25.11755],"properties":{"ward":1},"geometry":{"type":"Polygon","coordinates":[[[77.83507,25.08433],[77.82209,25.10296],[77.82643,25.11755],[77.8427,25.1159],[77.86142,25.10526],[77.86363,25.07982],[77.83507,25.08433]]]}},{"type":"Feature","bbox":[77.85692,25.09505,77.88361,25.12164],"properties":{"ward":2},"geometry":{"type":"Polygon","coordinates":[[[77.88121,25.09505],[77.85692,25.10802],[77.86478,25.12164],[77.87446,25.11515],[77.88319,25.10758],[77.88361,25.10117],[77.88121,25.09505]]]}},{"type":"Feature","bbox":[77.86526,25.09473,77.89435,25.13709],"properties":{"ward":3},"geometry":{"type":"Polygon","coordinates":[[[77.89435,25.10303],[77.88398,25.09473],[77.88355,25.10767],[77.87475,25.11529],[77.86526,25.12172],[77.87601,25.13709],[77.89295,25.12356],[77.89435,25.10303]]]}},{"type":"Feature","bbox":[77.86353,25.07463,77.87419,25.08354],"properties":{"ward":4},"geometry":{"type":"Polygon","coordinates":[[[77.87158,25.07463],[77.86366,25.0791],[77.86388,25.07932],[77.86353,25.08354],[77.87003,25.07893],[77.87419,25.07638],[77.87158,25.07463]]]}},{"type":"Feature","bbox":[77.86151,25.07677,77.88394,25.10536],"properties":{"ward":5},"geometry":{"type":"Polygon","coordinates":[[[77.88394,25.09451],[77.87424,25.07677],[77.86374,25.0841],[77.86151,25.10521],[77.86175,25.10536],[77.88127,25.09495],[77.88366,25.10113],[77.88394,25.09451]]]}},{"type":"Feature","bbox":[77.87448,25.07343,77.8946,25.09471],"properties":{"ward":6},"geometry":{"type":"Polygon","coordinates":[[[77.8829,25.07343],[77.87448,25.07665],[77.88406,25.09471],[77.8946,25.08109],[77.88879,25.07697],[77.8829,25.07343]]]}},{"type":"Feature","bbox":[77.86339,25.07271,77.87843,25.08392],"properties":{"ward":7},"geometry":{"type":"Polygon","coordinates":[[[77.87526,25.07271],[77.87165,25.07461],[77.87428,25.07637],[77.87008,25.07894],[77.86339,25.08359],[77.86378,25.08392],[77.8744,25.07665],[77.87843,25.07507],[77.87602,25.07306],[77.87526,25.07271]]]}},{"type":"Feature","bbox":[77.87558,25.07137,77.8947,25.08089],"properties":{"ward":8},"geometry":{"type":"Polygon","coordinates":[[[77.87558,25.0727],[77.87852,25.07494],[77.8829,25.07332],[77.8947,25.08089],[77.89412,25.07871],[77.88879,25.07488],[77.88336,25.07224],[77.87959,25.07137],[77.87558,25.0727]]]}},{"type":"Feature","bbox":[77.8716,25.07185,77.8753,25.07448],"properties":{"ward":9},"geometry":{"type":"Polygon","coordinates":[[[77.87301,25.07232],[77.8716,25.07448],[77.8753,25.07264],[77.87503,25.07185],[77.87301,25.07232]]]}},{"type":"Feature","bbox":[77.87549,25.06649,77.8938,25.07852],"properties":{"ward":10},"geometry":{"type":"Polygon","coordinates":[[[77.87832,25.06976],[77.87549,25.0727],[77.87977,25.0712],[77.88375,25.07222],[77.88897,25.07504],[77.8938,25.07852],[77.88575,25.07104],[77.885,25.06843],[77.87818,25.06649],[77.88114,25.06919],[77.87832,25.06976]]]}},{"type":"Feature","bbox":[77.87441,25.06844,77.88106,25.07274],"properties":{"ward":11},"geometry":{"type":"Polygon","coordinates":[[[77.8767,25.06844],[77.87441,25.07048],[77.8754,25.07274],[77.87831,25.06972],[77.88106,25.06915],[77.88081,25.06896],[77.8767,25.06844]]]}},{"type":"Feature","bbox":[77.86367,25.07034,77.87493,25.07901],"properties":{"ward":12},"geometry":{"type":"Polygon","coordinates":[[[77.87076,25.07034],[77.86728,25.07092],[77.86367,25.07901],[77.87135,25.07461],[77.87295,25.07232],[77.87493,25.07164],[77.87437,25.07047],[77.87076,25.07034]]]}},{"type":"Feature","bbox":[77.86704,25.06372,77.88075,25.07091],"properties":{"ward":13},"geometry":{"type":"Polygon","coordinates":[[[77.86935,25.06372],[77.86704,25.07091],[77.87072,25.07029],[77.87447,25.07039],[77.87668,25.0684],[77.88075,25.06891],[77.8781,25.06636],[77.86935,25.06372]]]}},{"type":"Feature","bbox":[77.83158,25.04026,77.88526,25.08423],"properties":{"ward":14},"geometry":{"type":"Polygon","coordinates":[[[77.83517,25.08423],[77.86295,25.07955],[77.86412,25.07729],[77.86701,25.07083],[77.86932,25.06366],[77.88526,25.06847],[77.88294,25.05551],[77.8808,25.04026],[77.877,25.0414],[77.86948,25.04207],[77.85835,25.04377],[77.83877,25.04599],[77.83158,25.05428],[77.83517,25.08423]]]}},{"type":"Feature","bbox":[77.81368,25.0385,77.84872,25.1029],"properties":{"ward":15},"geometry":{"type":"Polygon","coordinates":[[[77.83511,25.08419],[77.83155,25.05429],[77.83872,25.04602],[77.84872,25.04482],[77.83677,25.03979],[77.82545,25.0385],[77.81996,25.05529],[77.81885,25.06833],[77.81949,25.07625],[77.81368,25.08679],[77.81429,25.10207],[77.82205,25.1029],[77.83511,25.08419]]]}}]}