{"type":"FeatureCollection","features":[{"type":"Feature","bbox":[79.35284,29.88266,79.36456,29.89097],"properties":{"ward":1,"name":"Ganai"},"geometry":{"type":"Polygon","coordinates":[[[79.3587,29.89078],[79.35888,29.88938],[79.35945,29.88842],[79.36004,29.88779],[79.36076,29.88767],[79.3619,29.88794],[79.36229,29.88811],[79.3632,29.88896],[79.36365,29.88913],[79.36438,29.88912],[79.36456,29.88891],[79.36449,29.88853],[79.36387,29.88782],[79.36367,29.8868],[79.36318,29.8864],[79.36092,29.88544],[79.36082,29.88465],[79.36108,29.88472],[79.36153,29.88442],[79.36112,29.8841],[79.36136,29.88309],[79.36118,29.88266],[79.35857,29.88316],[79.35724,29.88435],[79.35423,29.88602],[79.35379,29.88618],[79.35284,29.88605],[79.35308,29.888],[79.35431,29.8892],[79.35438,29.89018],[79.3548,29.89079],[79.35504,29.89097],[79.35633,29.89069],[79.3587,29.89078]]]}},{"type":"Feature","bbox":[79.34997,29.88558,79.36004,29.89715],"properties":{"ward":2,"name":"Fulai"},"geometry":{"type":"Polygon","coordinates":[[[79.35871,29.89079],[79.35612,29.89076],[79.35507,29.89103],[79.35484,29.89088],[79.35436,29.89026],[79.35428,29.88922],[79.35306,29.88801],[79.35279,29.88579],[79.35224,29.8858],[79.35163,29.88558],[79.35076,29.88662],[79.35112,29.8869],[79.34997,29.8885],[79.35067,29.88841],[79.35106,29.88856],[79.35143,29.88908],[79.35153,29.8895],[79.35141,29.89],[79.3517,29.89051],[79.35174,29.89159],[79.35139,29.892],[79.3514,29.89222],[79.35107,29.89236],[79.35119,29.89297],[79.3516,29.8931],[79.35395,29.89481],[79.35662,29.89708],[79.35694,29.89715],[79.35715,29.8967],[79.35746,29.89658],[79.35752,29.89548],[79.35776,29.89474],[79.35854,29.89421],[79.35838,29.89402],[79.35846,29.89267],[79.35874,29.89212],[79.35912,29.89192],[79.36004,29.892],[79.36002,29.89167],[79.35871,29.89079]]]}},{"type":"Feature","bbox":[79.34335,29.88327,79.35823,29.8927],"properties":{"ward":3,"name":"Dhaudhuliya"},"geometry":{"type":"Polygon","coordinates":[[[79.35101,29.89229],[79.3513,29.89214],[79.35165,29.89152],[79.35165,29.89079],[79.35131,29.88992],[79.35141,29.88931],[79.35089,29.88855],[79.3499,29.88855],[79.35104,29.88697],[79.35072,29.88664],[79.35114,29.88599],[79.35154,29.88555],[79.35174,29.88555],[79.35283,29.88573],[79.3529,29.88599],[79.35389,29.88607],[79.35727,29.88422],[79.35823,29.88327],[79.35554,29.8839],[79.35412,29.88403],[79.35308,29.88438],[79.35223,29.88491],[79.35193,29.88472],[79.34944,29.88683],[79.34812,29.88729],[79.34882,29.88805],[79.35015,29.8866],[79.35063,29.88673],[79.34925,29.88839],[79.3495,29.88856],[79.34875,29.88867],[79.34824,29.88903],[79.34827,29.88934],[79.34796,29.88949],[79.34709,29.88959],[79.34671,29.88931],[79.346,29.88924],[79.34502,29.88877],[79.34355,29.88693],[79.34335,29.88702],[79.3435,29.88834],[79.34399,29.88894],[79.34481,29.88932],[79.34558,29.88994],[79.34488,29.88997],[79.34444,29.89056],[79.34459,29.891],[79.34614,29.89187],[79.34725,29.89199],[79.3486,29.8927],[79.34901,29.89265],[79.34955,29.89189],[79.35008,29.89153],[79.35039,29.89154],[79.35101,29.89229]]]}},{"type":"Feature","bbox":[79.34295,29.87467,79.35242,29.88953],"properties":{"ward":4,"name":"Chandikhet"},"geometry":{"type":"Polygon","coordinates":[[[79.35242,29.88466],[79.35185,29.88419],[79.3515,29.88362],[79.35037,29.884],[79.34968,29.88383],[79.34935,29.88306],[79.34865,29.88267],[79.34922,29.88223],[79.34951,29.88172],[79.34936,29.88148],[79.34823,29.88138],[79.34711,29.8815],[79.34622,29.88181],[79.34555,29.88131],[79.34574,29.87808],[79.34563,29.87728],[79.34599,29.87663],[79.3445,29.87694],[79.34441,29.87628],[79.34369,29.87467],[79.34339,29.87478],[79.34395,29.87778],[79.34372,29.87876],[79.34394,29.87939],[79.34389,29.88003],[79.34303,29.88135],[79.34295,29.88184],[79.34407,29.88265],[79.34432,29.88302],[79.34375,29.88532],[79.34312,29.88638],[79.34342,29.88691],[79.34368,29.88697],[79.34414,29.88746],[79.34487,29.88855],[79.34602,29.88922],[79.3467,29.88926],[79.34701,29.88953],[79.34806,29.8894],[79.34826,29.88892],[79.34875,29.88861],[79.3493,29.8885],[79.34925,29.88832],[79.35049,29.8868],[79.35013,29.88668],[79.34885,29.88808],[79.34813,29.88743],[79.34813,29.88722],[79.34943,29.88681],[79.35175,29.88482],[79.35193,29.8847],[79.35223,29.88488],[79.35242,29.88466]]]}}]}