{"type":"FeatureCollection","features":[{"type":"Feature","bbox":[78.39785,28.66231,78.42303,28.67451],"properties":{"ward":1,"name":"Mehndipur"},"geometry":{"type":"Polygon","coordinates":[[[78.40066,28.66793],[78.40114,28.66762],[78.40324,28.66924],[78.40588,28.672],[78.40686,28.67273],[78.40963,28.67375],[78.41171,28.67405],[78.4142,28.67402],[78.41643,28.6742],[78.41802,28.67451],[78.4191,28.67166],[78.42121,28.67176],[78.42303,28.6706],[78.42113,28.6663],[78.42006,28.66552],[78.41638,28.66552],[78.41501,28.66568],[78.41349,28.66633],[78.41176,28.66641],[78.40851,28.66888],[78.40884,28.66266],[78.40013,28.66258],[78.39785,28.66231],[78.39789,28.66448],[78.39829,28.66523],[78.39839,28.66632],[78.39896,28.66685],[78.3996,28.66684],[78.40066,28.66793]]]}},{"type":"Feature","bbox":[78.40087,28.66886,78.41959,28.6876],"properties":{"ward":2,"name":"Shabdalpur Sharqui"},"geometry":{"type":"Polygon","coordinates":[[[78.40087,28.67437],[78.40942,28.68158],[78.41068,28.68281],[78.41096,28.68336],[78.41201,28.68463],[78.41383,28.6876],[78.41434,28.68743],[78.41475,28.68612],[78.41923,28.68283],[78.41959,28.68116],[78.41875,28.67769],[78.41818,28.67603],[78.418,28.67459],[78.41477,28.67408],[78.41163,28.67404],[78.40965,28.67374],[78.4085,28.67339],[78.40671,28.67272],[78.40253,28.66886],[78.40194,28.66996],[78.40087,28.67437]]]}},{"type":"Feature","bbox":[78.3911,28.67201,78.40125,28.68034],"properties":{"ward":3,"name":"Ambedkar Nagar"},"geometry":{"type":"Polygon","coordinates":[[[78.40125,28.6749],[78.39925,28.67268],[78.39834,28.67201],[78.39794,28.67264],[78.39736,28.67274],[78.39503,28.67201],[78.39406,28.67216],[78.39144,28.67365],[78.3911,28.67957],[78.39201,28.68034],[78.39476,28.67698],[78.39527,28.67653],[78.3978,28.6751],[78.39956,28.67716],[78.40075,28.67532],[78.40125,28.6749]]]}},{"type":"Feature","bbox":[78.39448,28.66871,78.39956,28.67266],"properties":{"ward":4,"name":"Bagheechi"},"geometry":{"type":"Polygon","coordinates":[[[78.3947,28.67195],[78.39548,28.67207],[78.39695,28.67264],[78.39787,28.67266],[78.39838,28.6719],[78.39904,28.66981],[78.39956,28.66871],[78.39711,28.66992],[78.39732,28.67091],[78.3956,28.67144],[78.39511,28.67069],[78.39487,28.67085],[78.39448,28.67137],[78.39479,28.67181],[78.3947,28.67195]]]}},{"type":"Feature","bbox":[78.40342,28.68136,78.41382,28.68879],"properties":{"ward":5,"name":"Chandpur Sabdalpur Ki Madaiyya"},"geometry":{"type":"Polygon","coordinates":[[[78.41053,28.68281],[78.40912,28.68136],[78.40342,28.68556],[78.40413,28.68879],[78.41038,28.68742],[78.41173,28.687],[78.41215,28.68673],[78.41238,28.68679],[78.41337,28.68785],[78.41382,28.68761],[78.41184,28.68454],[78.41053,28.68281]]]}},{"type":"Feature","bbox":[78.39838,28.66766,78.4025,28.67435],"properties":{"ward":6,"name":"Shanidev Mandir"},"geometry":{"type":"Polygon","coordinates":[[[78.40081,28.67435],[78.40193,28.66992],[78.4025,28.66879],[78.40113,28.66766],[78.3996,28.6687],[78.39906,28.66984],[78.39838,28.672],[78.39927,28.67266],[78.40081,28.67435]]]}},{"type":"Feature","bbox":[78.37658,28.66723,78.38987,28.67385],"properties":{"ward":7,"name":"Ekonda West"},"geometry":{"type":"Polygon","coordinates":[[[78.38513,28.67086],[78.38572,28.6723],[78.38666,28.67192],[78.38797,28.67129],[78.38987,28.66954],[78.38861,28.66857],[78.38725,28.66967],[78.38685,28.66927],[78.38511,28.66855],[78.38416,28.66772],[78.38377,28.6677],[78.38309,28.66723],[78.38073,28.66851],[78.38054,28.66857],[78.38015,28.66806],[78.37818,28.66897],[78.37789,28.66918],[78.3784,28.66992],[78.37658,28.67106],[78.37821,28.67289],[78.37875,28.67385],[78.382,28.67182],[78.38237,28.67229],[78.38265,28.67223],[78.38513,28.67086]]]}},{"type":"Feature","bbox":[78.37751,28.66173,78.39203,28.66951],"properties":{"ward":8,"name":"Ekonda East Out"},"geometry":{"type":"Polygon","coordinates":[[[78.39203,28.66714],[78.39008,28.6651],[78.3883,28.66373],[78.38757,28.66364],[78.38581,28.66465],[78.38637,28.66413],[78.38574,28.66363],[78.38526,28.66387],[78.38467,28.66337],[78.38538,28.66302],[78.38483,28.66254],[78.3834,28.66337],[78.38295,28.66287],[78.3835,28.66252],[78.38146,28.66234],[78.38039,28.66193],[78.37912,28.66173],[78.37764,28.66192],[78.3815,28.66371],[78.37751,28.66644],[78.38034,28.66719],[78.38143,28.66709],[78.38242,28.66665],[78.38358,28.66749],[78.38399,28.66756],[78.38461,28.6681],[78.38732,28.66951],[78.38855,28.66846],[78.38956,28.66916],[78.39203,28.66714]]]}},{"type":"Feature","bbox":[78.37722,28.66691,78.3977,28.68013],"properties":{"ward":9,"name":"Dharmshala"},"geometry":{"type":"Polygon","coordinates":[[[78.38947,28.67506],[78.39235,28.67305],[78.39387,28.67219],[78.39467,28.67194],[78.39474,28.67182],[78.39442,28.67137],[78.39508,28.67067],[78.39561,28.6714],[78.3973,28.6709],[78.39708,28.66991],[78.3977,28.66953],[78.39725,28.66824],[78.3973,28.66802],[78.39762,28.66777],[78.39711,28.66721],[78.39665,28.66748],[78.39597,28.66691],[78.39541,28.66727],[78.3945,28.66822],[78.39434,28.66895],[78.39378,28.66996],[78.39342,28.66969],[78.39308,28.67002],[78.39354,28.67079],[78.39314,28.67112],[78.39189,28.67154],[78.39147,28.67113],[78.39013,28.67164],[78.3889,28.67077],[78.3882,28.67133],[78.38561,28.67251],[78.38502,28.67112],[78.38236,28.67256],[78.38173,28.67225],[78.37836,28.67438],[78.37781,28.67505],[78.37722,28.67529],[78.37875,28.67763],[78.38078,28.68013],[78.38804,28.67646],[78.38947,28.67506]]]}},{"type":"Feature","bbox":[78.38885,28.66621,78.39518,28.67155],"properties":{"ward":10,"name":"Sadat"},"geometry":{"type":"Polygon","coordinates":[[[78.38885,28.67059],[78.39014,28.67155],[78.39146,28.67103],[78.3919,28.67147],[78.39274,28.67109],[78.39307,28.6711],[78.39347,28.67079],[78.39301,28.66999],[78.3934,28.6696],[78.39378,28.66992],[78.3943,28.66894],[78.39447,28.66822],[78.39518,28.66747],[78.39351,28.66621],[78.39252,28.66733],[78.39212,28.66722],[78.38962,28.66923],[78.38991,28.66953],[78.38885,28.67059]]]}},{"type":"Feature","bbox":[78.39731,28.66637,78.40062,28.66883],"properties":{"ward":11,"name":"Maniharan"},"geometry":{"type":"Polygon","coordinates":[[[78.39872,28.66883],[78.39959,28.66866],[78.40062,28.66792],[78.39958,28.66687],[78.39897,28.66687],[78.39837,28.66637],[78.39731,28.66658],[78.3979,28.6674],[78.3982,28.66722],[78.39872,28.66799],[78.39836,28.66824],[78.39872,28.66883]]]}},{"type":"Feature","bbox":[78.37932,28.65799,78.39814,28.66724],"properties":{"ward":12,"name":"Rehman Nagar"},"geometry":{"type":"Polygon","coordinates":[[[78.38417,28.65799],[78.37932,28.6617],[78.38046,28.6619],[78.38145,28.6623],[78.38364,28.66247],[78.38307,28.66287],[78.38342,28.66331],[78.38485,28.66249],[78.38545,28.66302],[78.38477,28.6634],[78.38526,28.66381],[78.38575,28.66359],[78.38651,28.66419],[78.38755,28.66357],[78.38831,28.66367],[78.39027,28.6652],[78.39156,28.66656],[78.3925,28.66724],[78.39344,28.66615],[78.3944,28.66679],[78.39479,28.66641],[78.39634,28.66553],[78.39685,28.66603],[78.39814,28.66502],[78.39784,28.66435],[78.39772,28.66224],[78.39194,28.65832],[78.38417,28.65799]]]}},{"type":"Feature","bbox":[78.39645,28.66506,78.3984,28.66681],"properties":{"ward":13,"name":"Qureshiyan"},"geometry":{"type":"Polygon","coordinates":[[[78.39682,28.66681],[78.39726,28.66657],[78.39835,28.66634],[78.3984,28.666],[78.39816,28.66506],[78.39645,28.66652],[78.39682,28.66681]]]}},{"type":"Feature","bbox":[78.39441,28.66557,78.39955,28.6695],"properties":{"ward":14,"name":"Ansariyan"},"geometry":{"type":"Polygon","coordinates":[[[78.39764,28.66776],[78.39727,28.66823],[78.39773,28.6695],[78.39955,28.66868],[78.39871,28.66887],[78.39835,28.66844],[78.39832,28.66821],[78.39869,28.66801],[78.39832,28.66745],[78.39818,28.66728],[78.39789,28.66745],[78.39727,28.6666],[78.39683,28.66685],[78.3964,28.66653],[78.39685,28.66608],[78.39633,28.66557],[78.39441,28.66684],[78.39523,28.66745],[78.39598,28.66688],[78.39666,28.66745],[78.39712,28.66719],[78.39764,28.66776]]]}}]}