{"type":"FeatureCollection","features":[{"type":"Feature","bbox":[76.66529,24.89771,76.67103,24.90458],"properties":{"ward":1},"geometry":{"type":"Polygon","coordinates":[[[76.66807,24.90458],[76.66945,24.90378],[76.67103,24.90129],[76.66971,24.89956],[76.66833,24.89826],[76.66741,24.89819],[76.66731,24.89771],[76.66675,24.89775],[76.66658,24.89793],[76.6665,24.89901],[76.6662,24.89989],[76.66542,24.90019],[76.66529,24.90062],[76.66541,24.90132],[76.66642,24.90189],[76.66681,24.90228],[76.66687,24.90308],[76.66745,24.90326],[76.66721,24.90437],[76.66807,24.90458]]]}},{"type":"Feature","bbox":[76.66394,24.88506,76.67357,24.8944],"properties":{"ward":2},"geometry":{"type":"Polygon","coordinates":[[[76.67162,24.89315],[76.67213,24.89239],[76.67187,24.89165],[76.67283,24.89134],[76.67357,24.89026],[76.67355,24.88959],[76.67282,24.88781],[76.67241,24.88767],[76.67149,24.8878],[76.67056,24.88828],[76.66939,24.88552],[76.669,24.88506],[76.66394,24.89265],[76.66649,24.89376],[76.66878,24.89439],[76.66916,24.8944],[76.6698,24.89376],[76.67162,24.89315]]]}},{"type":"Feature","bbox":[76.67082,24.87768,76.69757,24.89127],"properties":{"ward":3},"geometry":{"type":"Polygon","coordinates":[[[76.67843,24.8878],[76.6866,24.89014],[76.68854,24.8891],[76.69034,24.8894],[76.69372,24.89031],[76.69559,24.89127],[76.69749,24.89032],[76.69757,24.88827],[76.6942,24.88742],[76.69655,24.88336],[76.68827,24.87839],[76.68675,24.87787],[76.68466,24.87768],[76.68094,24.87856],[76.67989,24.87955],[76.67912,24.88119],[76.67906,24.88262],[76.67875,24.88274],[76.67926,24.88331],[76.67922,24.88484],[76.6799,24.88505],[76.67981,24.88532],[76.67943,24.88551],[76.67917,24.8853],[76.67861,24.88577],[76.67813,24.88578],[76.67805,24.88539],[76.67786,24.88537],[76.67769,24.885],[76.67627,24.88474],[76.67542,24.88421],[76.6733,24.88315],[76.67241,24.88288],[76.67082,24.88571],[76.67136,24.88599],[76.67261,24.88379],[76.67365,24.88429],[76.67397,24.88354],[76.67588,24.88458],[76.67529,24.8869],[76.67786,24.88734],[76.67842,24.88756],[76.67843,24.8878]]]}},{"type":"Feature","bbox":[76.67136,24.88354,76.67588,24.88752],"properties":{"ward":4},"geometry":{"type":"Polygon","coordinates":[[[76.67588,24.88458],[76.67397,24.88354],[76.67365,24.88429],[76.67261,24.88379],[76.67136,24.88599],[76.67294,24.88671],[76.67306,24.88644],[76.67325,24.88651],[76.67306,24.88716],[76.67498,24.88752],[76.67529,24.88741],[76.67529,24.8869],[76.67588,24.88458]]]}},{"type":"Feature","bbox":[76.6733,24.88181,76.6799,24.88578],"properties":{"ward":5},"geometry":{"type":"Polygon","coordinates":[[[76.67627,24.88474],[76.67769,24.885],[76.67786,24.88537],[76.67805,24.88539],[76.67813,24.88578],[76.67861,24.88577],[76.67917,24.8853],[76.67943,24.88551],[76.67981,24.88532],[76.6799,24.88505],[76.67922,24.88484],[76.67926,24.88331],[76.67875,24.88274],[76.67833,24.88287],[76.67788,24.88278],[76.67601,24.88214],[76.67587,24.88239],[76.67422,24.88181],[76.67386,24.88278],[76.67351,24.88277],[76.6733,24.88315],[76.67627,24.88474]]]}},{"type":"Feature","bbox":[76.66932,24.88105,76.67347,24.88828],"properties":{"ward":6},"geometry":{"type":"Polygon","coordinates":[[[76.67147,24.8878],[76.67282,24.88781],[76.67325,24.88651],[76.67306,24.88644],[76.67294,24.88671],[76.67082,24.88571],[76.6726,24.88245],[76.67292,24.88258],[76.67347,24.88137],[76.67268,24.88105],[76.67227,24.88182],[76.67208,24.88272],[76.67031,24.88586],[76.67003,24.88574],[76.66953,24.88515],[76.66932,24.88541],[76.67056,24.88828],[76.67147,24.8878]]]}},{"type":"Feature","bbox":[76.66953,24.87882,76.67439,24.88586],"properties":{"ward":7},"geometry":{"type":"Polygon","coordinates":[[[76.67347,24.88137],[76.67439,24.87948],[76.67309,24.87882],[76.66953,24.88515],[76.67003,24.88574],[76.67031,24.88586],[76.67208,24.88272],[76.67227,24.88182],[76.67268,24.88105],[76.67347,24.88137]]]}},{"type":"Feature","bbox":[76.67238,24.87733,76.67989,24.88319],"properties":{"ward":8},"geometry":{"type":"Polygon","coordinates":[[[76.67483,24.87864],[76.67292,24.88258],[76.6726,24.88245],[76.67238,24.88287],[76.67328,24.88319],[76.67351,24.88277],[76.67386,24.88278],[76.67422,24.88181],[76.67587,24.88239],[76.67601,24.88214],[76.67839,24.88288],[76.67906,24.88262],[76.67912,24.88119],[76.67989,24.87955],[76.67908,24.87894],[76.67758,24.87821],[76.67731,24.87803],[76.67724,24.87774],[76.67644,24.87733],[76.67613,24.87768],[76.67584,24.8785],[76.67549,24.87887],[76.67483,24.87864]]]}},{"type":"Feature","bbox":[76.67223,24.87235,76.68909,24.87955],"properties":{"ward":9},"geometry":{"type":"Polygon","coordinates":[[[76.68909,24.87621],[76.68684,24.87377],[76.6834,24.87292],[76.68019,24.87299],[76.67921,24.87323],[76.67754,24.87296],[76.67624,24.87306],[76.6763,24.87282],[76.67579,24.87235],[76.67405,24.8755],[76.67223,24.87836],[76.67439,24.87948],[76.67483,24.87864],[76.67549,24.87887],[76.67584,24.8785],[76.67613,24.87768],[76.67644,24.87733],[76.67724,24.87774],[76.67731,24.87803],[76.67758,24.87821],[76.67908,24.87894],[76.67989,24.87955],[76.68094,24.87856],[76.68466,24.87768],[76.68675,24.87787],[76.68759,24.87816],[76.6887,24.87726],[76.68909,24.87621]]]}},{"type":"Feature","bbox":[76.67013,24.87388,76.67398,24.87863],"properties":{"ward":10},"geometry":{"type":"Polygon","coordinates":[[[76.67053,24.87388],[76.67013,24.87622],[76.67208,24.87655],[76.67166,24.87852],[76.67189,24.87863],[76.67235,24.87825],[76.67398,24.87553],[76.67272,24.875],[76.67284,24.87419],[76.67053,24.87388]]]}},{"type":"Feature","bbox":[76.67182,24.87184,76.67577,24.87553],"properties":{"ward":11},"geometry":{"type":"Polygon","coordinates":[[[76.67559,24.87282],[76.67577,24.87224],[76.67379,24.87189],[76.67256,24.87184],[76.67247,24.87257],[76.67206,24.87253],[76.67182,24.87404],[76.67284,24.87419],[76.67272,24.875],[76.67398,24.87553],[76.67559,24.87282]]]}},{"type":"Feature","bbox":[76.67023,24.87095,76.67256,24.87404],"properties":{"ward":12},"geometry":{"type":"Polygon","coordinates":[[[76.67145,24.87095],[76.67094,24.87282],[76.67081,24.87285],[76.67074,24.87249],[76.67023,24.87248],[76.67053,24.87388],[76.67182,24.87404],[76.67206,24.87253],[76.67247,24.87257],[76.67256,24.87184],[76.67227,24.87179],[76.67244,24.87095],[76.67145,24.87095]]]}},{"type":"Feature","bbox":[76.67301,24.85784,76.68441,24.87323],"properties":{"ward":13},"geometry":{"type":"Polygon","coordinates":[[[76.68364,24.8705],[76.68441,24.86634],[76.68049,24.86475],[76.68187,24.86162],[76.68214,24.86065],[76.68297,24.85913],[76.68252,24.85803],[76.68082,24.85784],[76.67877,24.85876],[76.67792,24.8616],[76.67507,24.86882],[76.67472,24.86952],[76.67415,24.87002],[76.67333,24.87016],[76.67301,24.87186],[76.67577,24.87224],[76.6763,24.87282],[76.67624,24.87306],[76.67754,24.87296],[76.67921,24.87323],[76.68019,24.87299],[76.68176,24.87294],[76.68194,24.87121],[76.68262,24.87112],[76.68364,24.8705]]]}},{"type":"Feature","bbox":[76.67399,24.85002,76.68791,24.8632],"properties":{"ward":14},"geometry":{"type":"Polygon","coordinates":[[[76.6862,24.85372],[76.68791,24.85079],[76.68186,24.85002],[76.68067,24.85215],[76.67971,24.85208],[76.67885,24.85249],[76.67856,24.85313],[76.67799,24.85317],[76.67782,24.85349],[76.67784,24.85388],[76.67837,24.85393],[76.67757,24.85502],[76.67654,24.85512],[76.67537,24.8549],[76.67458,24.85728],[76.67399,24.86204],[76.674,24.86298],[76.67561,24.8632],[76.67654,24.86177],[76.67772,24.86212],[76.67877,24.85876],[76.68082,24.85784],[76.68249,24.85587],[76.6849,24.85409],[76.6862,24.85372]]]}},{"type":"Feature","bbox":[76.66798,24.86177,76.67772,24.87186],"properties":{"ward":15},"geometry":{"type":"Polygon","coordinates":[[[76.67407,24.86675],[76.6738,24.86775],[76.67246,24.86792],[76.66899,24.86924],[76.66811,24.86909],[76.66798,24.86977],[76.66978,24.8702],[76.67152,24.87014],[76.67145,24.87095],[76.67244,24.87095],[76.67227,24.87179],[76.67301,24.87186],[76.67333,24.87016],[76.67415,24.87002],[76.67472,24.86952],[76.67507,24.86882],[76.67772,24.86212],[76.67654,24.86177],[76.67561,24.8632],[76.674,24.86298],[76.67407,24.86675]]]}},{"type":"Feature","bbox":[76.66824,24.87008,76.67152,24.87285],"properties":{"ward":16},"geometry":{"type":"Polygon","coordinates":[[[76.67094,24.87282],[76.67133,24.87156],[76.67152,24.87014],[76.66978,24.8702],[76.6693,24.87008],[76.66874,24.87068],[76.66824,24.87078],[76.66842,24.87178],[76.66907,24.87253],[76.66985,24.8724],[76.67002,24.87283],[76.67034,24.87279],[76.67023,24.87248],[76.67074,24.87249],[76.67081,24.87285],[76.67094,24.87282]]]}},{"type":"Feature","bbox":[76.66709,24.87197,76.66975,24.87445],"properties":{"ward":17},"geometry":{"type":"Polygon","coordinates":[[[76.66975,24.87419],[76.6697,24.87374],[76.66896,24.87347],[76.66907,24.87239],[76.66862,24.87197],[76.66728,24.87376],[76.66709,24.87445],[76.66828,24.87412],[76.66975,24.87419]]]}},{"type":"Feature","bbox":[76.66657,24.8741,76.67017,24.87609],"properties":{"ward":18},"geometry":{"type":"Polygon","coordinates":[[[76.66709,24.87445],[76.66657,24.87584],[76.66796,24.87609],[76.66815,24.8755],[76.66904,24.87566],[76.66924,24.87459],[76.67017,24.87462],[76.67014,24.87421],[76.66859,24.8741],[76.66709,24.87445]]]}},{"type":"Feature","bbox":[76.66891,24.8724,76.67053,24.87467],"properties":{"ward":19},"geometry":{"type":"Polygon","coordinates":[[[76.67034,24.87279],[76.67002,24.87283],[76.66985,24.8724],[76.66907,24.87253],[76.66891,24.87333],[76.6697,24.87374],[76.66975,24.87419],[76.67014,24.87421],[76.67026,24.87467],[76.67039,24.87467],[76.67053,24.87388],[76.67034,24.87279]]]}},{"type":"Feature","bbox":[76.6665,24.87459,76.67208,24.87884],"properties":{"ward":20},"geometry":{"type":"Polygon","coordinates":[[[76.67108,24.87884],[76.67146,24.87822],[76.67169,24.87827],[76.67208,24.87655],[76.67013,24.87622],[76.67039,24.87467],[76.66924,24.87459],[76.66904,24.87566],[76.66815,24.8755],[76.66796,24.87609],[76.6667,24.87582],[76.6665,24.87722],[76.66681,24.878],[76.66952,24.87876],[76.66969,24.87856],[76.67108,24.87884]]]}},{"type":"Feature","bbox":[76.66186,24.87582,76.6674,24.88412],"properties":{"ward":21},"geometry":{"type":"Polygon","coordinates":[[[76.66657,24.87584],[76.66463,24.88104],[76.66186,24.88402],[76.66255,24.88412],[76.66326,24.88379],[76.66391,24.88285],[76.66562,24.88182],[76.66621,24.88175],[76.66603,24.88149],[76.6659,24.88029],[76.66716,24.88005],[76.6674,24.87822],[76.66681,24.878],[76.66656,24.87751],[76.66651,24.87684],[76.6667,24.87582],[76.66657,24.87584]]]}},{"type":"Feature","bbox":[76.6659,24.87822,76.66911,24.88136],"properties":{"ward":22},"geometry":{"type":"Polygon","coordinates":[[[76.66825,24.88009],[76.66863,24.88019],[76.66911,24.87867],[76.6674,24.87822],[76.66716,24.88005],[76.6659,24.88029],[76.66606,24.88107],[76.66692,24.88136],[76.66715,24.88012],[76.66786,24.88076],[76.66825,24.88009]]]}},{"type":"Feature","bbox":[76.66786,24.87822,76.67309,24.88541],"properties":{"ward":23},"geometry":{"type":"Polygon","coordinates":[[[76.67108,24.87884],[76.66969,24.87856],[76.66952,24.87876],[76.66911,24.87867],[76.66863,24.88019],[76.66825,24.88009],[76.66786,24.88076],[76.66822,24.88116],[76.66941,24.8817],[76.66789,24.88442],[76.66918,24.88513],[76.66932,24.88541],[76.67309,24.87882],[76.67223,24.87836],[76.67189,24.87863],[76.67166,24.87852],[76.67169,24.87827],[76.67146,24.87822],[76.67108,24.87884]]]}},{"type":"Feature","bbox":[76.66482,24.88107,76.66825,24.8864],"properties":{"ward":24},"geometry":{"type":"Polygon","coordinates":[[[76.66621,24.88175],[76.66629,24.88324],[76.66619,24.88347],[76.66567,24.88346],[76.66482,24.88532],[76.6672,24.8864],[76.66825,24.88463],[76.6679,24.8844],[76.66806,24.88408],[76.66715,24.88361],[76.66662,24.88274],[76.66687,24.88191],[76.66719,24.8819],[76.6672,24.88158],[76.66693,24.88158],[76.66692,24.88136],[76.66606,24.88107],[76.66603,24.88149],[76.66621,24.88175]]]}},{"type":"Feature","bbox":[76.66662,24.88012,76.66941,24.88407],"properties":{"ward":25},"geometry":{"type":"Polygon","coordinates":[[[76.66715,24.88012],[76.66693,24.88158],[76.6672,24.88158],[76.66719,24.8819],[76.66687,24.88191],[76.66662,24.88274],[76.66715,24.88361],[76.66807,24.88407],[76.66941,24.8817],[76.66822,24.88116],[76.66715,24.88012]]]}}]}