{"type":"FeatureCollection","features":[{"type":"Feature","bbox":[94.63647,26.01407,94.6404,26.02078],"properties":{"ward":1,"name":"Shevulho"},"geometry":{"type":"Polygon","coordinates":[[[94.63879,26.01994],[94.63893,26.02045],[94.63936,26.02078],[94.63999,26.02012],[94.6404,26.01908],[94.63864,26.01733],[94.63853,26.01671],[94.63929,26.01585],[94.6394,26.01512],[94.63882,26.01422],[94.63862,26.01407],[94.63811,26.01409],[94.63707,26.01453],[94.63647,26.0153],[94.63665,26.01557],[94.63711,26.01581],[94.63713,26.01692],[94.63743,26.01733],[94.6375,26.01776],[94.63792,26.01811],[94.63802,26.01893],[94.63845,26.01929],[94.63833,26.01975],[94.63879,26.01994]]]}},{"type":"Feature","bbox":[94.6348,26.01097,94.63948,26.01532],"properties":{"ward":2,"name":"Phushito"},"geometry":{"type":"Polygon","coordinates":[[[94.63647,26.0153],[94.63707,26.01453],[94.63811,26.01409],[94.63862,26.01407],[94.63882,26.01422],[94.63948,26.01385],[94.63919,26.01343],[94.63929,26.01261],[94.63901,26.01208],[94.63905,26.01176],[94.63893,26.01152],[94.63808,26.01097],[94.63706,26.01175],[94.6353,26.01189],[94.6348,26.01207],[94.63516,26.01305],[94.63556,26.01336],[94.63618,26.01532],[94.63647,26.0153]]]}},{"type":"Feature","bbox":[94.63245,26.00812,94.63808,26.01553],"properties":{"ward":3,"name":"I.A"},"geometry":{"type":"Polygon","coordinates":[[[94.63799,26.00919],[94.63772,26.00862],[94.63685,26.0082],[94.63583,26.00812],[94.63542,26.0084],[94.63524,26.00894],[94.63419,26.01032],[94.63425,26.01069],[94.63476,26.01107],[94.63449,26.01183],[94.63386,26.01187],[94.63296,26.01161],[94.63257,26.01206],[94.63245,26.01351],[94.63318,26.01456],[94.63415,26.01492],[94.63494,26.01553],[94.6353,26.01533],[94.63618,26.01532],[94.63556,26.01336],[94.63516,26.01305],[94.6348,26.01207],[94.6353,26.01189],[94.63706,26.01175],[94.63808,26.01097],[94.63799,26.00919]]]}},{"type":"Feature","bbox":[94.63114,26.00883,94.63472,26.01187],"properties":{"ward":4,"name":"Vikiye"},"geometry":{"type":"Polygon","coordinates":[[[94.63389,26.01046],[94.63404,26.01029],[94.63408,26.00959],[94.6335,26.00909],[94.63255,26.00883],[94.63185,26.00903],[94.63168,26.00927],[94.63114,26.00907],[94.63145,26.00947],[94.63149,26.00995],[94.63268,26.01104],[94.63288,26.01178],[94.63296,26.01161],[94.63386,26.01187],[94.63449,26.01183],[94.63472,26.01095],[94.63389,26.01046]]]}},{"type":"Feature","bbox":[94.62788,26.00573,94.63255,26.00997],"properties":{"ward":5,"name":"Adc"},"geometry":{"type":"Polygon","coordinates":[[[94.62943,26.0091],[94.63033,26.00944],[94.63091,26.00997],[94.63149,26.00995],[94.63145,26.00947],[94.63114,26.00907],[94.63168,26.00927],[94.63185,26.00903],[94.63255,26.00883],[94.63183,26.00809],[94.63201,26.00757],[94.63199,26.00702],[94.63157,26.00603],[94.63008,26.00573],[94.62965,26.00591],[94.62901,26.00662],[94.62821,26.00702],[94.62788,26.00699],[94.6282,26.00718],[94.62874,26.00705],[94.62888,26.00725],[94.62915,26.00768],[94.629,26.00869],[94.62943,26.0091]]]}},{"type":"Feature","bbox":[94.62355,26.00564,94.62915,26.00942],"properties":{"ward":6,"name":"Likikhe"},"geometry":{"type":"Polygon","coordinates":[[[94.629,26.00869],[94.62915,26.00768],[94.62874,26.00705],[94.62792,26.00712],[94.62776,26.00675],[94.62711,26.00613],[94.62641,26.00577],[94.62596,26.00564],[94.62549,26.00574],[94.62527,26.00628],[94.62391,26.00618],[94.62355,26.00647],[94.62355,26.00674],[94.62415,26.00774],[94.62461,26.00788],[94.62687,26.00753],[94.62719,26.00781],[94.62763,26.00901],[94.62812,26.00942],[94.62857,26.00937],[94.629,26.00869]]]}},{"type":"Feature","bbox":[94.62203,26.00225,94.63008,26.00702],"properties":{"ward":7,"name":"Adc"},"geometry":{"type":"Polygon","coordinates":[[[94.62415,26.00455],[94.62459,26.00508],[94.62544,26.00532],[94.62711,26.00613],[94.62788,26.00699],[94.62821,26.00702],[94.62901,26.00662],[94.62965,26.00591],[94.63008,26.00573],[94.62864,26.0055],[94.62812,26.00522],[94.62695,26.00515],[94.62653,26.00477],[94.62607,26.00478],[94.6252,26.00418],[94.62498,26.00377],[94.62405,26.00319],[94.62345,26.00242],[94.62279,26.00225],[94.62237,26.00245],[94.62203,26.00288],[94.62207,26.00312],[94.62327,26.00373],[94.62375,26.00437],[94.62415,26.00455]]]}},{"type":"Feature","bbox":[94.62223,25.99929,94.6302,26.00573],"properties":{"ward":8,"name":"Medical"},"geometry":{"type":"Polygon","coordinates":[[[94.62846,26.00209],[94.6269,26.00153],[94.62637,26.00019],[94.6258,25.99976],[94.62342,25.99929],[94.62223,25.99955],[94.62237,26.00245],[94.62279,26.00225],[94.62345,26.00242],[94.62405,26.00319],[94.62498,26.00377],[94.6252,26.00418],[94.62607,26.00478],[94.62653,26.00477],[94.62695,26.00515],[94.62812,26.00522],[94.62864,26.0055],[94.63008,26.00573],[94.6302,26.00499],[94.62924,26.00307],[94.62846,26.00209]]]}},{"type":"Feature","bbox":[94.61683,25.9948,94.62237,26.00315],"properties":{"ward":9,"name":"Forest"},"geometry":{"type":"Polygon","coordinates":[[[94.62223,25.99955],[94.62116,25.9993],[94.62014,25.99819],[94.61967,25.99566],[94.61811,25.9948],[94.61719,25.99575],[94.61683,25.99678],[94.61712,25.99772],[94.61798,25.99848],[94.62041,26.00222],[94.62108,26.00287],[94.62162,26.00315],[94.62237,26.00245],[94.62223,25.99955]]]}}]}