{"type":"FeatureCollection","features":[{"type":"Feature","bbox":[77.41589,27.09984,77.43242,27.11693],"properties":{"ward":1},"geometry":{"type":"Polygon","coordinates":[[[77.42729,27.11012],[77.42913,27.10857],[77.43092,27.10762],[77.43146,27.10713],[77.43136,27.10669],[77.43242,27.10616],[77.43205,27.10492],[77.43217,27.10435],[77.43238,27.10427],[77.43218,27.10246],[77.41589,27.09984],[77.41624,27.1054],[77.41741,27.11693],[77.42084,27.11683],[77.42104,27.11645],[77.42553,27.11249],[77.42729,27.11012]]]}},{"type":"Feature","bbox":[77.41109,27.09431,77.41741,27.11694],"properties":{"ward":2},"geometry":{"type":"Polygon","coordinates":[[[77.41741,27.11693],[77.41624,27.1054],[77.41589,27.09984],[77.41626,27.09536],[77.41487,27.09498],[77.41483,27.09515],[77.41361,27.09529],[77.41324,27.09515],[77.41238,27.09526],[77.41225,27.09431],[77.41109,27.09445],[77.41211,27.09719],[77.4127,27.10365],[77.41671,27.11548],[77.41637,27.11694],[77.41741,27.11693]]]}},{"type":"Feature","bbox":[77.40732,27.08917,77.4095,27.09146],"properties":{"ward":3},"geometry":{"type":"Polygon","coordinates":[[[77.40888,27.09048],[77.40912,27.08982],[77.40828,27.08917],[77.40831,27.08962],[77.40732,27.09],[77.40757,27.09025],[77.40794,27.09116],[77.40881,27.09098],[77.40893,27.09129],[77.4095,27.09146],[77.40942,27.09088],[77.40888,27.09048]]]}},{"type":"Feature","bbox":[77.40936,27.08494,77.4148,27.09117],"properties":{"ward":4},"geometry":{"type":"Polygon","coordinates":[[[77.41463,27.08866],[77.41418,27.08704],[77.41113,27.08588],[77.41075,27.08551],[77.41064,27.08494],[77.40936,27.08518],[77.40975,27.08816],[77.41069,27.09117],[77.41337,27.0902],[77.41395,27.08972],[77.4148,27.08871],[77.41463,27.08866]]]}},{"type":"Feature","bbox":[77.40765,27.09098,77.4097,27.09318],"properties":{"ward":5},"geometry":{"type":"Polygon","coordinates":[[[77.40958,27.09215],[77.40926,27.09168],[77.40947,27.09147],[77.40893,27.09129],[77.40881,27.09098],[77.40824,27.091],[77.40765,27.09132],[77.40825,27.09216],[77.40839,27.09318],[77.40883,27.09271],[77.40937,27.09283],[77.40928,27.09308],[77.4097,27.09314],[77.40956,27.09243],[77.40937,27.09243],[77.4094,27.09221],[77.40958,27.09215]]]}},{"type":"Feature","bbox":[77.40496,27.08512,77.4083,27.09273],"properties":{"ward":6},"geometry":{"type":"Polygon","coordinates":[[[77.40826,27.08828],[77.40795,27.08512],[77.40647,27.08533],[77.40496,27.08667],[77.40592,27.08747],[77.40619,27.09095],[77.40736,27.09132],[77.40736,27.0916],[77.40772,27.09195],[77.40782,27.09273],[77.4083,27.09266],[77.40829,27.09228],[77.40766,27.09141],[77.40794,27.09116],[77.40757,27.09025],[77.40732,27.09],[77.4076,27.08985],[77.40729,27.08942],[77.40688,27.08955],[77.40688,27.08942],[77.40694,27.08891],[77.40745,27.08857],[77.40804,27.08854],[77.40826,27.08828]]]}},{"type":"Feature","bbox":[77.41134,27.09121,77.41487,27.09526],"properties":{"ward":7},"geometry":{"type":"Polygon","coordinates":[[[77.41344,27.09434],[77.41346,27.09331],[77.41247,27.09331],[77.41209,27.09122],[77.41143,27.09121],[77.41161,27.09265],[77.41134,27.0927],[77.4118,27.09432],[77.41225,27.09431],[77.41238,27.09526],[77.41483,27.09515],[77.41487,27.09498],[77.41344,27.09434]]]}},{"type":"Feature","bbox":[77.40635,27.093,77.4127,27.10365],"properties":{"ward":8},"geometry":{"type":"Polygon","coordinates":[[[77.41211,27.09719],[77.41113,27.09468],[77.40698,27.09301],[77.40635,27.093],[77.40662,27.09636],[77.4127,27.10365],[77.41211,27.09719]]]}},{"type":"Feature","bbox":[77.40619,27.09095,77.41001,27.0941],"properties":{"ward":9},"geometry":{"type":"Polygon","coordinates":[[[77.40782,27.09273],[77.40772,27.09195],[77.40736,27.0916],[77.40736,27.09132],[77.40619,27.09095],[77.40635,27.093],[77.40698,27.09301],[77.40986,27.0941],[77.41001,27.09356],[77.4097,27.09314],[77.40928,27.09308],[77.40937,27.09283],[77.40883,27.09271],[77.40839,27.09318],[77.4083,27.09266],[77.40782,27.09273]]]}},{"type":"Feature","bbox":[77.40688,27.08512,77.41069,27.09243],"properties":{"ward":10},"geometry":{"type":"Polygon","coordinates":[[[77.40975,27.08816],[77.40936,27.08518],[77.40795,27.08512],[77.40826,27.08828],[77.40804,27.08854],[77.40745,27.08857],[77.40694,27.08891],[77.40688,27.08955],[77.40729,27.08942],[77.4076,27.08985],[77.40831,27.08962],[77.40828,27.08917],[77.40912,27.08982],[77.40888,27.09048],[77.40931,27.09073],[77.40952,27.0912],[77.40926,27.09168],[77.40958,27.09215],[77.4094,27.09221],[77.40937,27.09243],[77.40977,27.09238],[77.41009,27.0919],[77.41004,27.09146],[77.41069,27.09127],[77.40975,27.08816]]]}},{"type":"Feature","bbox":[77.41022,27.09105,77.4118,27.09445],"properties":{"ward":11},"geometry":{"type":"Polygon","coordinates":[[[77.41161,27.09265],[77.4113,27.09105],[77.41034,27.09133],[77.41022,27.09151],[77.41109,27.09445],[77.4118,27.09432],[77.41134,27.0927],[77.41161,27.09265]]]}},{"type":"Feature","bbox":[77.40956,27.09146,77.41113,27.09468],"properties":{"ward":12},"geometry":{"type":"Polygon","coordinates":[[[77.41113,27.09468],[77.41022,27.09151],[77.41004,27.09146],[77.41009,27.0919],[77.40977,27.09238],[77.40956,27.09243],[77.40958,27.09285],[77.41001,27.09356],[77.40986,27.0941],[77.41087,27.09466],[77.41113,27.09468]]]}},{"type":"Feature","bbox":[77.41128,27.08319,77.42685,27.09536],"properties":{"ward":13},"geometry":{"type":"Polygon","coordinates":[[[77.41626,27.09536],[77.42676,27.08812],[77.42685,27.08673],[77.42549,27.08319],[77.41678,27.08829],[77.41522,27.08886],[77.4148,27.08871],[77.41337,27.0902],[77.41128,27.09089],[77.41143,27.09121],[77.41209,27.09122],[77.41247,27.09331],[77.41346,27.09331],[77.41344,27.09434],[77.41487,27.09498],[77.41626,27.09536]]]}},{"type":"Feature","bbox":[77.39006,27.03699,77.39976,27.04373],"properties":{"ward":14},"geometry":{"type":"Polygon","coordinates":[[[77.39976,27.03994],[77.39598,27.0372],[77.39497,27.03699],[77.39308,27.03716],[77.39217,27.03758],[77.39143,27.03827],[77.39082,27.0392],[77.39006,27.04137],[77.39027,27.04241],[77.3911,27.04373],[77.39142,27.04333],[77.39253,27.04254],[77.39292,27.0425],[77.39306,27.04231],[77.39329,27.04245],[77.39412,27.04202],[77.39458,27.04205],[77.39495,27.0417],[77.39537,27.04214],[77.39976,27.03994]]]}},{"type":"Feature","bbox":[77.39605,27.03994,77.4077,27.05333],"properties":{"ward":15},"geometry":{"type":"Polygon","coordinates":[[[77.39773,27.05333],[77.4077,27.04986],[77.4066,27.04578],[77.40622,27.04492],[77.40515,27.04375],[77.40346,27.04242],[77.39976,27.03994],[77.39605,27.0417],[77.40148,27.04759],[77.40245,27.04822],[77.40261,27.04857],[77.40239,27.04901],[77.40186,27.04885],[77.40123,27.04824],[77.40071,27.04805],[77.39651,27.05022],[77.3975,27.05223],[77.39773,27.05333]]]}},{"type":"Feature","bbox":[77.3911,27.0417,77.40261,27.05022],"properties":{"ward":16},"geometry":{"type":"Polygon","coordinates":[[[77.40148,27.04759],[77.39605,27.0417],[77.39537,27.04214],[77.39495,27.0417],[77.39458,27.04205],[77.39412,27.04202],[77.39329,27.04245],[77.39306,27.04231],[77.39142,27.04333],[77.3911,27.04373],[77.39546,27.0488],[77.39651,27.05022],[77.40071,27.04805],[77.40123,27.04824],[77.40186,27.04885],[77.40239,27.04901],[77.40261,27.04857],[77.40245,27.04822],[77.40148,27.04759]]]}},{"type":"Feature","bbox":[77.39773,27.04986,77.41193,27.07013],"properties":{"ward":17},"geometry":{"type":"Polygon","coordinates":[[[77.41141,27.05976],[77.41061,27.0573],[77.40822,27.05156],[77.4077,27.04986],[77.39773,27.05333],[77.39863,27.05773],[77.3995,27.06093],[77.40196,27.0682],[77.40245,27.07013],[77.40369,27.06831],[77.40577,27.06613],[77.40655,27.06571],[77.40886,27.06522],[77.41193,27.06289],[77.41141,27.05976]]]}},{"type":"Feature","bbox":[77.40245,27.06289,77.41193,27.08667],"properties":{"ward":18},"geometry":{"type":"Polygon","coordinates":[[[77.41029,27.08145],[77.41084,27.07001],[77.4116,27.06638],[77.41193,27.06289],[77.40886,27.06522],[77.40655,27.06571],[77.40577,27.06613],[77.40369,27.06831],[77.40245,27.07013],[77.403,27.07229],[77.40311,27.07614],[77.40345,27.07903],[77.40412,27.08244],[77.40497,27.08557],[77.40496,27.08667],[77.40647,27.08533],[77.40795,27.08512],[77.40936,27.08518],[77.41064,27.08494],[77.41028,27.08317],[77.41029,27.08145]]]}},{"type":"Feature","bbox":[77.42549,27.07654,77.45128,27.08812],"properties":{"ward":19},"geometry":{"type":"Polygon","coordinates":[[[77.45128,27.083],[77.45091,27.07936],[77.45065,27.0786],[77.45016,27.07788],[77.44876,27.07666],[77.44365,27.07654],[77.43864,27.07724],[77.43548,27.07812],[77.43192,27.07967],[77.42549,27.08319],[77.42685,27.08673],[77.42676,27.08812],[77.44115,27.08563],[77.44917,27.08507],[77.4503,27.08455],[77.451,27.08385],[77.45128,27.083]]]}},{"type":"Feature","bbox":[77.44876,27.07663,77.45792,27.08711],"properties":{"ward":20},"geometry":{"type":"Polygon","coordinates":[[[77.45609,27.0822],[77.45456,27.07776],[77.45401,27.07686],[77.45298,27.07663],[77.44876,27.07666],[77.45016,27.07788],[77.45065,27.0786],[77.45091,27.07936],[77.45128,27.083],[77.451,27.08385],[77.4503,27.08455],[77.44917,27.08507],[77.44939,27.0857],[77.45033,27.08647],[77.45196,27.08699],[77.45293,27.08711],[77.45792,27.08594],[77.45637,27.08338],[77.45609,27.0822]]]}},{"type":"Feature","bbox":[77.41725,27.11785,77.42463,27.12224],"properties":{"ward":21},"geometry":{"type":"Polygon","coordinates":[[[77.42342,27.12066],[77.42463,27.11979],[77.42404,27.11893],[77.42283,27.11785],[77.42114,27.11831],[77.41725,27.12094],[77.41806,27.12179],[77.41858,27.12216],[77.41896,27.12224],[77.42165,27.12162],[77.42342,27.12066]]]}},{"type":"Feature","bbox":[77.43637,27.08529,77.44867,27.11461],"properties":{"ward":22},"geometry":{"type":"Polygon","coordinates":[[[77.44258,27.10188],[77.4454,27.08529],[77.44115,27.08563],[77.43637,27.08646],[77.43894,27.10549],[77.44112,27.109],[77.44281,27.11034],[77.4453,27.11341],[77.44623,27.11421],[77.44699,27.11454],[77.44797,27.11461],[77.44867,27.11448],[77.44738,27.11357],[77.44703,27.11259],[77.44615,27.11117],[77.44497,27.10717],[77.44479,27.10555],[77.44345,27.10453],[77.44364,27.10423],[77.44352,27.10349],[77.44258,27.10188]]]}},{"type":"Feature","bbox":[77.44258,27.08507,77.4644,27.11448],"properties":{"ward":23},"geometry":{"type":"Polygon","coordinates":[[[77.4612,27.09413],[77.46405,27.09279],[77.46439,27.09238],[77.4644,27.09187],[77.46295,27.09007],[77.45792,27.08594],[77.45293,27.08711],[77.45196,27.08699],[77.45033,27.08647],[77.44939,27.0857],[77.44917,27.08507],[77.4454,27.08529],[77.44258,27.10188],[77.44352,27.10349],[77.44364,27.10423],[77.44345,27.10453],[77.44479,27.10555],[77.44497,27.10717],[77.44615,27.11117],[77.44703,27.11259],[77.44738,27.11357],[77.44867,27.11448],[77.44957,27.11394],[77.44976,27.11289],[77.44963,27.10984],[77.44974,27.1076],[77.45006,27.10551],[77.45062,27.1043],[77.45468,27.09921],[77.45705,27.09592],[77.45849,27.09511],[77.4612,27.09413]]]}},{"type":"Feature","bbox":[77.41589,27.08646,77.4411,27.11724],"properties":{"ward":24},"geometry":{"type":"Polygon","coordinates":[[[77.43894,27.10549],[77.43637,27.08646],[77.42676,27.08812],[77.41626,27.09536],[77.41589,27.09984],[77.43218,27.10246],[77.43238,27.10427],[77.43217,27.10435],[77.43205,27.10492],[77.43242,27.10616],[77.43136,27.10669],[77.43146,27.10713],[77.43092,27.10762],[77.42913,27.10857],[77.42729,27.11012],[77.42553,27.11249],[77.42087,27.11662],[77.42087,27.11724],[77.42133,27.11694],[77.42555,27.11603],[77.42613,27.11575],[77.42612,27.11542],[77.42678,27.11362],[77.42785,27.11217],[77.43245,27.10857],[77.43534,27.10664],[77.43632,27.10631],[77.43742,27.10655],[77.4404,27.10877],[77.4411,27.10897],[77.43894,27.10549]]]}},{"type":"Feature","bbox":[77.41612,27.11575,77.42627,27.12094],"properties":{"ward":25},"geometry":{"type":"Polygon","coordinates":[[[77.42627,27.11803],[77.42613,27.11575],[77.42555,27.11603],[77.42133,27.11694],[77.42087,27.11724],[77.42084,27.11683],[77.41637,27.11694],[77.41612,27.11798],[77.41634,27.11938],[77.41725,27.12094],[77.42114,27.11831],[77.42283,27.11785],[77.42404,27.11893],[77.42463,27.11979],[77.42595,27.11872],[77.42627,27.11803]]]}}]}