{"type":"FeatureCollection","features":[{"type":"Feature","bbox":[77.87472,31.23568,77.88231,31.25126],"properties":{"ward":1,"name":"Chirgaon_ I"},"geometry":{"type":"Polygon","coordinates":[[[77.87649,31.25126],[77.87677,31.25062],[77.87622,31.24936],[77.87657,31.24833],[77.87688,31.24806],[77.8771,31.24741],[77.87711,31.2464],[77.87775,31.24445],[77.87757,31.24361],[77.87785,31.24238],[77.87817,31.24179],[77.87997,31.24044],[77.8803,31.24],[77.88071,31.23873],[77.88048,31.2379],[77.88163,31.23786],[77.88167,31.23763],[77.88202,31.23748],[77.88231,31.23688],[77.88216,31.23672],[77.88117,31.23671],[77.88006,31.23643],[77.87951,31.2362],[77.87932,31.23584],[77.87889,31.23568],[77.8784,31.23612],[77.87828,31.2373],[77.87725,31.2369],[77.87677,31.23641],[77.87637,31.23677],[77.87637,31.23707],[77.87593,31.23752],[77.87615,31.23889],[77.87539,31.24024],[77.87543,31.24103],[77.87631,31.24211],[77.87609,31.24373],[77.87553,31.24458],[77.87598,31.24573],[77.87609,31.24641],[77.87576,31.24696],[77.87482,31.24743],[77.87472,31.24772],[77.87529,31.24854],[77.87554,31.24934],[77.87523,31.25094],[77.87578,31.25125],[77.87649,31.25126]]]}},{"type":"Feature","bbox":[77.87393,31.23087,77.89938,31.23991],"properties":{"ward":2,"name":"Chirgaon _Ii"},"geometry":{"type":"Polygon","coordinates":[[[77.89198,31.23957],[77.89454,31.23943],[77.8962,31.23845],[77.89714,31.23821],[77.898,31.23761],[77.89928,31.23745],[77.89938,31.23738],[77.89917,31.23698],[77.89902,31.23564],[77.89869,31.23547],[77.89786,31.23565],[77.89632,31.23714],[77.89548,31.2375],[77.89447,31.23731],[77.89326,31.23631],[77.89167,31.23601],[77.88937,31.23583],[77.88851,31.236],[77.88748,31.23646],[77.88577,31.2364],[77.88376,31.23565],[77.88212,31.23438],[77.87886,31.233],[77.87789,31.23235],[77.8771,31.23147],[77.87652,31.23107],[77.87471,31.23087],[77.87428,31.23092],[77.87418,31.23109],[77.87393,31.23214],[77.8752,31.23379],[77.87671,31.23311],[77.87811,31.23443],[77.8784,31.23529],[77.8784,31.23612],[77.87889,31.23568],[77.87932,31.23584],[77.87955,31.23622],[77.88061,31.23661],[77.88227,31.23675],[77.88202,31.23748],[77.88167,31.23763],[77.88163,31.23786],[77.88287,31.23843],[77.88388,31.23942],[77.88435,31.23938],[77.88511,31.23858],[77.88594,31.23867],[77.88785,31.23843],[77.88879,31.23889],[77.88991,31.23887],[77.89015,31.23913],[77.89027,31.23971],[77.89068,31.23991],[77.89198,31.23957]]]}},{"type":"Feature","bbox":[77.87053,31.23186,77.87517,31.23418],"properties":{"ward":3,"name":"Bhonda Bazar"},"geometry":{"type":"Polygon","coordinates":[[[77.87476,31.23418],[77.87517,31.23371],[77.8741,31.23232],[77.87354,31.23191],[77.87307,31.23186],[77.87179,31.23214],[77.87081,31.23196],[77.87053,31.23213],[77.87053,31.23236],[77.87117,31.23285],[77.87168,31.23255],[77.87237,31.23242],[77.87358,31.23256],[77.87377,31.23275],[77.87391,31.23365],[77.87444,31.23376],[77.87476,31.23418]]]}},{"type":"Feature","bbox":[77.87474,31.23308,77.87843,31.2373],"properties":{"ward":4,"name":"Bhonda Colony"},"geometry":{"type":"Polygon","coordinates":[[[77.87828,31.2373],[77.87843,31.23547],[77.87806,31.23437],[77.87664,31.23308],[77.87574,31.23363],[77.87497,31.23388],[77.87474,31.23421],[77.87477,31.23479],[77.87527,31.23513],[77.87554,31.23584],[77.87614,31.23628],[77.87637,31.23677],[77.87677,31.23641],[77.87725,31.2369],[77.87828,31.2373]]]}},{"type":"Feature","bbox":[77.86898,31.22911,77.87477,31.23478],"properties":{"ward":5,"name":"Upper & Lower Bhonda"},"geometry":{"type":"Polygon","coordinates":[[[77.87477,31.23478],[77.87476,31.23418],[77.87448,31.23378],[77.87385,31.23359],[77.87367,31.23261],[77.87237,31.23242],[77.87168,31.23255],[77.87117,31.23285],[77.8705,31.23233],[77.87057,31.23207],[77.87081,31.23196],[77.87198,31.23213],[77.87324,31.23185],[77.87393,31.23214],[77.87428,31.23092],[77.87401,31.23085],[77.87222,31.22943],[77.87111,31.22911],[77.87008,31.23211],[77.86966,31.23237],[77.86938,31.23233],[77.86898,31.2328],[77.87081,31.23378],[77.87326,31.23414],[77.87477,31.23478]]]}},{"type":"Feature","bbox":[77.85495,31.22856,77.87111,31.2328],"properties":{"ward":6,"name":"Sundha"},"geometry":{"type":"Polygon","coordinates":[[[77.86944,31.23231],[77.86966,31.23237],[77.87008,31.23211],[77.87111,31.22911],[77.86926,31.22861],[77.8657,31.22952],[77.8648,31.22933],[77.86433,31.22945],[77.86224,31.22931],[77.86098,31.22941],[77.85837,31.22856],[77.85639,31.22968],[77.8558,31.22968],[77.85522,31.22947],[77.85495,31.23017],[77.85784,31.23131],[77.86003,31.23193],[77.86195,31.23225],[77.86317,31.23206],[77.86535,31.23219],[77.86725,31.23205],[77.86898,31.2328],[77.86944,31.23231]]]}},{"type":"Feature","bbox":[77.83862,31.21929,77.85522,31.23018],"properties":{"ward":7,"name":"Mandali"},"geometry":{"type":"Polygon","coordinates":[[[77.85028,31.22541],[77.84855,31.22514],[77.847,31.22518],[77.84557,31.22474],[77.84504,31.22437],[77.84403,31.22399],[77.84286,31.22291],[77.84232,31.22197],[77.84218,31.22123],[77.84197,31.22091],[77.84096,31.22028],[77.83911,31.21973],[77.83877,31.21929],[77.83862,31.21938],[77.83986,31.22101],[77.84157,31.2219],[77.84358,31.22395],[77.84517,31.22478],[77.84663,31.22578],[77.84781,31.22621],[77.84884,31.22705],[77.85113,31.22847],[77.85494,31.23018],[77.85522,31.22947],[77.8541,31.22878],[77.85386,31.22737],[77.8536,31.22678],[77.85028,31.22541]]]}}]}