{"type":"FeatureCollection","features":[{"type":"Feature","bbox":[77.41743,31.43502,77.41999,31.43752],"properties":{"ward":1,"name":"Khobra"},"geometry":{"type":"Polygon","coordinates":[[[77.4197,31.43629],[77.41999,31.4357],[77.41835,31.43502],[77.41799,31.43506],[77.41743,31.43611],[77.41775,31.43639],[77.41799,31.43752],[77.4197,31.43629]]]}},{"type":"Feature","bbox":[77.41461,31.43244,77.41799,31.43643],"properties":{"ward":2,"name":"Barad"},"geometry":{"type":"Polygon","coordinates":[[[77.4164,31.43643],[77.41745,31.4362],[77.41761,31.43561],[77.41799,31.43506],[77.41795,31.43278],[77.41746,31.43292],[77.41631,31.43292],[77.4153,31.43244],[77.41494,31.43309],[77.41461,31.43328],[77.41469,31.43437],[77.4154,31.4361],[77.4156,31.43633],[77.4164,31.43643]]]}},{"type":"Feature","bbox":[77.41795,31.42885,77.42153,31.43506],"properties":{"ward":3,"name":"Rani Bheda"},"geometry":{"type":"Polygon","coordinates":[[[77.41799,31.43506],[77.41835,31.43502],[77.41925,31.43411],[77.41904,31.43378],[77.41953,31.43329],[77.41941,31.43294],[77.41971,31.43187],[77.42098,31.43114],[77.4215,31.43058],[77.42153,31.43005],[77.42129,31.42962],[77.42001,31.42885],[77.41964,31.42892],[77.41946,31.42915],[77.41929,31.43002],[77.41859,31.43128],[77.41859,31.43171],[77.41795,31.43278],[77.41799,31.43506]]]}},{"type":"Feature","bbox":[77.41941,31.43146,77.42096,31.43344],"properties":{"ward":4,"name":"Naldehra"},"geometry":{"type":"Polygon","coordinates":[[[77.41953,31.43329],[77.42083,31.43344],[77.42096,31.43269],[77.42035,31.43146],[77.41971,31.43187],[77.41941,31.43294],[77.41953,31.43329]]]}},{"type":"Feature","bbox":[77.41835,31.43326,77.42128,31.4357],"properties":{"ward":5,"name":"Kyar Kyoni"},"geometry":{"type":"Polygon","coordinates":[[[77.42125,31.4338],[77.42088,31.43375],[77.4208,31.43341],[77.41956,31.43326],[77.41904,31.43378],[77.41925,31.43405],[77.41906,31.4344],[77.41835,31.43502],[77.41999,31.4357],[77.42058,31.43528],[77.42039,31.43454],[77.42048,31.4344],[77.42128,31.43403],[77.42125,31.4338]]]}},{"type":"Feature","bbox":[77.41999,31.43476,77.42853,31.44218],"properties":{"ward":6,"name":"Dogri"},"geometry":{"type":"Polygon","coordinates":[[[77.42737,31.44218],[77.42821,31.4421],[77.42849,31.44188],[77.42853,31.44094],[77.42841,31.44071],[77.42779,31.44035],[77.42644,31.43994],[77.42455,31.43891],[77.42281,31.43714],[77.42329,31.43636],[77.42317,31.43606],[77.42263,31.43585],[77.42211,31.43608],[77.42189,31.436],[77.42165,31.43569],[77.42167,31.43519],[77.42054,31.43476],[77.42058,31.43528],[77.41999,31.4357],[77.42013,31.43596],[77.42126,31.43653],[77.42166,31.43736],[77.42244,31.43801],[77.4231,31.43893],[77.42431,31.43981],[77.42487,31.44003],[77.42514,31.44046],[77.42548,31.44061],[77.42566,31.44189],[77.4259,31.44197],[77.42622,31.44167],[77.42668,31.442],[77.42737,31.44218]]]}},{"type":"Feature","bbox":[77.41799,31.4357,77.42673,31.444],"properties":{"ward":7,"name":"Ropri"},"geometry":{"type":"Polygon","coordinates":[[[77.42514,31.44046],[77.42487,31.44003],[77.42431,31.43981],[77.4231,31.43893],[77.42244,31.43801],[77.42166,31.43736],[77.42126,31.43653],[77.42092,31.43625],[77.42037,31.43617],[77.41999,31.4357],[77.4197,31.43629],[77.41799,31.43752],[77.41898,31.4393],[77.42016,31.44017],[77.42049,31.44005],[77.42085,31.43918],[77.42146,31.43902],[77.42245,31.43945],[77.42292,31.43995],[77.42363,31.44],[77.42431,31.44039],[77.42497,31.44143],[77.42505,31.442],[77.4256,31.44288],[77.42548,31.44334],[77.42562,31.44372],[77.42597,31.444],[77.42625,31.44394],[77.42673,31.44364],[77.42585,31.44226],[77.4259,31.44197],[77.42562,31.44183],[77.42548,31.44061],[77.42514,31.44046]]]}}]}