{"type":"FeatureCollection","features":[{"type":"Feature","bbox":[81.95253,26.94166,81.96665,26.96404],"properties":{"ward":1,"name":"Pandit Deen Dayal Upadhyay Nagar"},"geometry":{"type":"Polygon","coordinates":[[[81.96387,26.96296],[81.96403,26.96205],[81.96665,26.95735],[81.966,26.95597],[81.96418,26.95441],[81.9648,26.95264],[81.96292,26.95093],[81.96329,26.94992],[81.96465,26.94748],[81.96176,26.94602],[81.9621,26.94342],[81.95973,26.94275],[81.95422,26.94166],[81.95414,26.94376],[81.95358,26.9465],[81.95253,26.94818],[81.95254,26.94973],[81.95377,26.95355],[81.95539,26.95605],[81.95702,26.95938],[81.9577,26.96105],[81.95858,26.96404],[81.96387,26.96296]]]}},{"type":"Feature","bbox":[81.95927,26.9365,81.98653,26.96189],"properties":{"ward":2,"name":"Mahatma Gandhi Nagar"},"geometry":{"type":"Polygon","coordinates":[[[81.98587,26.95104],[81.98653,26.94921],[81.9861,26.94617],[81.98577,26.94499],[81.98484,26.94356],[81.98444,26.9432],[81.98293,26.94327],[81.9829,26.94367],[81.98009,26.94262],[81.97708,26.9412],[81.97281,26.94034],[81.96057,26.9365],[81.95927,26.93701],[81.95934,26.93758],[81.962,26.94209],[81.9621,26.94342],[81.96708,26.94469],[81.96949,26.94549],[81.9736,26.94613],[81.97445,26.94689],[81.97372,26.9477],[81.97218,26.94881],[81.97177,26.95034],[81.97211,26.95297],[81.97154,26.95493],[81.97076,26.95685],[81.97088,26.95885],[81.97031,26.96048],[81.97016,26.96189],[81.97601,26.9609],[81.97571,26.95851],[81.97632,26.95645],[81.97329,26.95274],[81.97398,26.95187],[81.97558,26.95105],[81.97651,26.95095],[81.97747,26.95056],[81.9803,26.94982],[81.98216,26.94966],[81.98326,26.94959],[81.9842,26.94991],[81.98587,26.95104]]]}},{"type":"Feature","bbox":[81.93698,26.94126,81.95858,26.96468],"properties":{"ward":3,"name":"Retadal Singh"},"geometry":{"type":"Polygon","coordinates":[[[81.95858,26.96404],[81.9577,26.96105],[81.95702,26.95938],[81.95539,26.95605],[81.95377,26.95355],[81.95254,26.94973],[81.95253,26.94818],[81.95358,26.9465],[81.95414,26.94376],[81.95022,26.9433],[81.94213,26.94126],[81.94026,26.94224],[81.93778,26.94208],[81.93698,26.94287],[81.93743,26.94344],[81.9412,26.94546],[81.94221,26.94649],[81.94328,26.94545],[81.94416,26.94515],[81.94732,26.94563],[81.94796,26.94584],[81.94833,26.9462],[81.94895,26.94956],[81.94961,26.95214],[81.95016,26.95575],[81.95422,26.96289],[81.95544,26.96468],[81.95858,26.96404]]]}},{"type":"Feature","bbox":[81.98717,26.92393,82.01059,26.94899],"properties":{"ward":4,"name":"Banga Singh Baba"},"geometry":{"type":"Polygon","coordinates":[[[81.99791,26.94811],[81.99885,26.94468],[82.00673,26.93849],[82.01001,26.93668],[82.00683,26.93356],[82.01059,26.9309],[82.00446,26.92393],[82.00172,26.92574],[81.9989,26.92869],[81.99822,26.9282],[81.99368,26.93056],[81.98763,26.93297],[81.98809,26.93407],[81.98771,26.93532],[81.98719,26.93591],[81.98717,26.93639],[81.98822,26.93917],[81.98891,26.9402],[81.98986,26.93976],[81.99069,26.94118],[81.99389,26.94389],[81.99345,26.94485],[81.99322,26.94587],[81.99364,26.94741],[81.99463,26.94899],[81.99636,26.94888],[81.99716,26.94807],[81.99791,26.94811]]]}},{"type":"Feature","bbox":[81.97329,26.94959,81.98868,26.9609],"properties":{"ward":5,"name":"Dr. Bheem Rao Ambedkar Nagar"},"geometry":{"type":"Polygon","coordinates":[[[81.98773,26.95682],[81.98687,26.95524],[81.98866,26.95329],[81.98868,26.95269],[81.98658,26.95211],[81.98637,26.95142],[81.9851,26.95042],[81.98326,26.94959],[81.9803,26.94982],[81.97747,26.95056],[81.97651,26.95095],[81.97558,26.95105],[81.97398,26.95187],[81.97329,26.95274],[81.97632,26.95645],[81.97571,26.95851],[81.97601,26.9609],[81.98103,26.9595],[81.98582,26.9578],[81.98773,26.95682]]]}},{"type":"Feature","bbox":[81.9772,26.95796,81.99556,26.98145],"properties":{"ward":6,"name":"Jamalkhani"},"geometry":{"type":"Polygon","coordinates":[[[81.993,26.96873],[81.99117,26.967],[81.9908,26.96607],[81.99018,26.96346],[81.98977,26.96253],[81.98896,26.96207],[81.98659,26.96012],[81.98536,26.95796],[81.9801,26.95976],[81.98066,26.96083],[81.97936,26.96288],[81.97993,26.96403],[81.98022,26.96538],[81.97998,26.96596],[81.97847,26.96647],[81.9772,26.9673],[81.97849,26.9693],[81.97933,26.97363],[81.97934,26.97489],[81.98056,26.97613],[81.98416,26.97273],[81.98641,26.97104],[81.98854,26.97458],[81.98886,26.97688],[81.9895,26.97789],[81.99096,26.97994],[81.99329,26.98145],[81.9941,26.98086],[81.99497,26.97982],[81.99532,26.97856],[81.99556,26.97355],[81.99467,26.97237],[81.99341,26.97005],[81.993,26.96873]]]}},{"type":"Feature","bbox":[81.98536,26.95423,81.99786,26.96873],"properties":{"ward":7,"name":"Ramapur"},"geometry":{"type":"Polygon","coordinates":[[[81.99786,26.95525],[81.99741,26.95437],[81.99629,26.95423],[81.99441,26.95435],[81.99046,26.95542],[81.98536,26.95796],[81.98659,26.96012],[81.98896,26.96207],[81.98977,26.96253],[81.99018,26.96346],[81.9908,26.96607],[81.99117,26.967],[81.993,26.96873],[81.9958,26.96634],[81.99636,26.96167],[81.99743,26.95517],[81.99786,26.95525]]]}},{"type":"Feature","bbox":[81.95065,26.95976,81.98066,26.97899],"properties":{"ward":8,"name":"Ram Newal"},"geometry":{"type":"Polygon","coordinates":[[[81.9801,26.95976],[81.97554,26.96103],[81.96545,26.96264],[81.95153,26.96538],[81.95065,26.96578],[81.95223,26.96807],[81.95297,26.97093],[81.95435,26.9731],[81.95561,26.97549],[81.95811,26.97329],[81.96101,26.97116],[81.96213,26.97066],[81.96375,26.97354],[81.96519,26.97378],[81.96571,26.97356],[81.96853,26.9752],[81.96682,26.97825],[81.97098,26.97899],[81.97425,26.97815],[81.97934,26.97489],[81.97933,26.97363],[81.97849,26.9693],[81.9772,26.9673],[81.97847,26.96647],[81.97998,26.96596],[81.98022,26.96538],[81.97993,26.96403],[81.97936,26.96288],[81.98066,26.96083],[81.9801,26.95976]]]}},{"type":"Feature","bbox":[81.96663,26.97104,81.99329,26.98904],"properties":{"ward":9,"name":"Semra"},"geometry":{"type":"Polygon","coordinates":[[[81.99329,26.98145],[81.99096,26.97994],[81.9895,26.97789],[81.98886,26.97688],[81.98854,26.97458],[81.98641,26.97104],[81.98416,26.97273],[81.98056,26.97613],[81.97934,26.97489],[81.97425,26.97815],[81.97098,26.97899],[81.96682,26.97825],[81.96663,26.97864],[81.97038,26.98531],[81.97817,26.98677],[81.98472,26.98904],[81.98767,26.98618],[81.99105,26.98365],[81.99219,26.98224],[81.99329,26.98145]]]}},{"type":"Feature","bbox":[81.98238,26.91565,82.00928,26.94327],"properties":{"ward":10,"name":"Kouchiha"},"geometry":{"type":"Polygon","coordinates":[[[81.98919,26.94068],[81.98822,26.93917],[81.98717,26.93639],[81.98719,26.93591],[81.98771,26.93532],[81.98809,26.93407],[81.98763,26.93297],[81.99368,26.93056],[81.99822,26.9282],[81.9989,26.92869],[82.00172,26.92574],[82.00446,26.92393],[82.00354,26.92288],[82.00928,26.92122],[82.00552,26.91565],[81.99879,26.91642],[81.99358,26.91956],[81.99088,26.92072],[81.98977,26.92142],[81.9892,26.92348],[81.98985,26.92455],[81.98924,26.92496],[81.98857,26.92418],[81.98793,26.9243],[81.9874,26.92495],[81.98485,26.92489],[81.98238,26.92783],[81.98282,26.92891],[81.98461,26.93176],[81.98526,26.93376],[81.98363,26.93572],[81.98286,26.93913],[81.98308,26.94122],[81.98293,26.94327],[81.98345,26.94275],[81.9856,26.94164],[81.9882,26.94117],[81.98919,26.94068]]]}},{"type":"Feature","bbox":[81.96176,26.94342,81.97445,26.96296],"properties":{"ward":11,"name":"Dhodhepur"},"geometry":{"type":"Polygon","coordinates":[[[81.97016,26.96189],[81.97031,26.96048],[81.97088,26.95885],[81.97076,26.95685],[81.97154,26.95493],[81.97211,26.95297],[81.97177,26.95034],[81.97218,26.94881],[81.97372,26.9477],[81.97445,26.94689],[81.9736,26.94613],[81.96949,26.94549],[81.96708,26.94469],[81.9621,26.94342],[81.96176,26.94602],[81.96465,26.94748],[81.96329,26.94992],[81.96292,26.95093],[81.9648,26.95264],[81.96418,26.95441],[81.966,26.95597],[81.96665,26.95735],[81.96403,26.96205],[81.96387,26.96296],[81.97016,26.96189]]]}},{"type":"Feature","bbox":[81.95844,26.92858,81.98486,26.9376],"properties":{"ward":12,"name":"Purelila"},"geometry":{"type":"Polygon","coordinates":[[[81.98344,26.93671],[81.98363,26.93572],[81.98486,26.93415],[81.98263,26.93437],[81.97954,26.93499],[81.97777,26.93441],[81.9653,26.92858],[81.96238,26.93066],[81.96115,26.93076],[81.95982,26.93053],[81.9586,26.93185],[81.95844,26.93311],[81.96,26.93578],[81.96057,26.9365],[81.96435,26.9376],[81.9654,26.93612],[81.96668,26.93582],[81.96908,26.93566],[81.97632,26.93583],[81.9782,26.93631],[81.98344,26.93671]]]}},{"type":"Feature","bbox":[81.96435,26.93566,81.98344,26.94367],"properties":{"ward":13,"name":"Kataha"},"geometry":{"type":"Polygon","coordinates":[[[81.98344,26.93671],[81.9782,26.93631],[81.97632,26.93583],[81.96908,26.93566],[81.96668,26.93582],[81.9654,26.93612],[81.96435,26.9376],[81.96887,26.93917],[81.97281,26.94034],[81.97708,26.9412],[81.98009,26.94262],[81.9829,26.94367],[81.98308,26.94122],[81.98286,26.93913],[81.98344,26.93671]]]}},{"type":"Feature","bbox":[81.98293,26.93976,81.99389,26.95682],"properties":{"ward":14,"name":"Freedom Fighter Bhanu Pratap"},"geometry":{"type":"Polygon","coordinates":[[[81.98891,26.9402],[81.98919,26.94068],[81.9882,26.94117],[81.9856,26.94164],[81.98345,26.94275],[81.98293,26.94327],[81.98444,26.9432],[81.98484,26.94356],[81.98577,26.94499],[81.9861,26.94617],[81.98653,26.94921],[81.98587,26.95104],[81.98637,26.95142],[81.98658,26.95211],[81.98868,26.95269],[81.98866,26.95329],[81.98687,26.95524],[81.98773,26.95682],[81.99046,26.95542],[81.99034,26.95389],[81.99389,26.94389],[81.99069,26.94118],[81.98986,26.93976],[81.98891,26.9402]]]}},{"type":"Feature","bbox":[81.99034,26.94587,82.00195,26.95586],"properties":{"ward":15,"name":"Freedom Fighter Devi Prasad"},"geometry":{"type":"Polygon","coordinates":[[[81.99046,26.95542],[81.99441,26.95435],[81.99629,26.95423],[81.99741,26.95437],[81.99786,26.95525],[81.99964,26.95586],[82.0009,26.95495],[82.00195,26.95363],[82.0016,26.95131],[82.00094,26.95052],[81.99979,26.95063],[81.99884,26.94963],[81.99791,26.94811],[81.99716,26.94807],[81.99636,26.94888],[81.99463,26.94899],[81.99364,26.94741],[81.99322,26.94587],[81.99034,26.95389],[81.99046,26.95542]]]}}]}