{"type":"FeatureCollection","features":[{"type":"Feature","bbox":[83.76055,26.36931,83.76481,26.37277],"properties":{"ward":1,"name":"Ambedkar Nagar"},"geometry":{"type":"Polygon","coordinates":[[[83.76481,26.3722],[83.76443,26.37053],[83.76369,26.37077],[83.76283,26.36931],[83.76113,26.36955],[83.76055,26.36989],[83.76337,26.37277],[83.76481,26.3722]]]}},{"type":"Feature","bbox":[83.76551,26.37222,83.78611,26.383],"properties":{"ward":2,"name":"Gautambudh Nagar"},"geometry":{"type":"Polygon","coordinates":[[[83.7781,26.37222],[83.77393,26.37337],[83.7698,26.37495],[83.76551,26.37539],[83.76801,26.37863],[83.772,26.383],[83.77467,26.38219],[83.77692,26.38215],[83.7781,26.38129],[83.78134,26.38052],[83.7812,26.379],[83.78299,26.37749],[83.78602,26.37653],[83.78611,26.37433],[83.78345,26.37282],[83.7781,26.37222]]]}},{"type":"Feature","bbox":[83.76385,26.37863,83.772,26.38602],"properties":{"ward":3,"name":"Azad Nagar"},"geometry":{"type":"Polygon","coordinates":[[[83.76607,26.38422],[83.76755,26.38599],[83.76946,26.38602],[83.77114,26.38469],[83.772,26.383],[83.76801,26.37863],[83.76385,26.38058],[83.76393,26.38105],[83.76607,26.38422]]]}},{"type":"Feature","bbox":[83.74383,26.36601,83.76062,26.37735],"properties":{"ward":4,"name":"Bhagat Singh Nagar"},"geometry":{"type":"Polygon","coordinates":[[[83.75691,26.36601],[83.74925,26.36633],[83.74674,26.37186],[83.74383,26.37256],[83.74446,26.37735],[83.75407,26.37666],[83.75338,26.37352],[83.75398,26.3702],[83.76055,26.36989],[83.76062,26.36961],[83.75691,26.36601]]]}},{"type":"Feature","bbox":[83.76276,26.36355,83.77773,26.37135],"properties":{"ward":5,"name":"Shivaji Nagar"},"geometry":{"type":"Polygon","coordinates":[[[83.76303,26.36958],[83.76369,26.37077],[83.76443,26.37053],[83.76449,26.36963],[83.76694,26.36886],[83.76765,26.37016],[83.76802,26.37135],[83.77074,26.37092],[83.77551,26.36918],[83.77773,26.3691],[83.77735,26.36589],[83.77211,26.36594],[83.77167,26.36355],[83.76391,26.36401],[83.76276,26.36668],[83.76303,26.36958]]]}},{"type":"Feature","bbox":[83.72883,26.36891,83.74446,26.37947],"properties":{"ward":6,"name":"Swatantrata Sangram Senani Banke Babu Nagar"},"geometry":{"type":"Polygon","coordinates":[[[83.74446,26.37735],[83.74383,26.37256],[83.73774,26.37145],[83.73581,26.37125],[83.73451,26.36891],[83.72937,26.36944],[83.72883,26.37378],[83.72995,26.37763],[83.73277,26.37577],[83.73494,26.37825],[83.73568,26.37947],[83.74352,26.37743],[83.74446,26.37735]]]}},{"type":"Feature","bbox":[83.75407,26.37539,83.76801,26.38524],"properties":{"ward":7,"name":"Lokmanya Tilak Nagar"},"geometry":{"type":"Polygon","coordinates":[[[83.76551,26.37539],[83.75407,26.37666],[83.75462,26.38128],[83.75884,26.38035],[83.76064,26.38524],[83.76607,26.38422],[83.76393,26.38105],[83.76385,26.38058],[83.76801,26.37863],[83.76551,26.37539]]]}},{"type":"Feature","bbox":[83.73446,26.35748,83.75756,26.37256],"properties":{"ward":8,"name":"Govind Ballabh Pant Nagar"},"geometry":{"type":"Polygon","coordinates":[[[83.75691,26.36601],[83.7547,26.36338],[83.7575,26.36198],[83.75717,26.35889],[83.75756,26.35748],[83.74137,26.36307],[83.74071,26.36552],[83.73446,26.36622],[83.73451,26.36891],[83.73581,26.37125],[83.73774,26.37145],[83.74383,26.37256],[83.74674,26.37186],[83.74925,26.36633],[83.75691,26.36601]]]}},{"type":"Feature","bbox":[83.7547,26.35572,83.77167,26.36989],"properties":{"ward":9,"name":"Shaheed Rampal Singh Nagar"},"geometry":{"type":"Polygon","coordinates":[[[83.77167,26.36355],[83.76956,26.35989],[83.76372,26.35572],[83.75771,26.35696],[83.75717,26.35889],[83.7575,26.36198],[83.7547,26.36338],[83.75689,26.36599],[83.76062,26.36961],[83.76055,26.36989],[83.76113,26.36955],[83.76283,26.36931],[83.76303,26.36958],[83.76276,26.36668],[83.76391,26.36401],[83.77167,26.36355]]]}},{"type":"Feature","bbox":[83.7518,26.38035,83.76755,26.3899],"properties":{"ward":10,"name":"Ramnagar"},"geometry":{"type":"Polygon","coordinates":[[[83.76755,26.38599],[83.76607,26.38422],[83.76064,26.38524],[83.75884,26.38035],[83.75462,26.38128],[83.75222,26.38412],[83.7518,26.38664],[83.75333,26.38958],[83.75672,26.38934],[83.75867,26.38832],[83.76012,26.3899],[83.76195,26.38977],[83.76656,26.3884],[83.76755,26.38599]]]}},{"type":"Feature","bbox":[83.73568,26.37666,83.75462,26.38701],"properties":{"ward":11,"name":"Rajendra Nagar"},"geometry":{"type":"Polygon","coordinates":[[[83.75407,26.37666],[83.74352,26.37743],[83.73568,26.37947],[83.73937,26.38605],[83.74789,26.38701],[83.74792,26.38618],[83.74961,26.38622],[83.7518,26.38664],[83.75222,26.38412],[83.75462,26.38128],[83.75407,26.37666]]]}},{"type":"Feature","bbox":[83.75338,26.36989,83.76551,26.37666],"properties":{"ward":12,"name":"Jai Prakash Nagar"},"geometry":{"type":"Polygon","coordinates":[[[83.76551,26.37539],[83.76337,26.37277],[83.76055,26.36989],[83.75398,26.3702],[83.75338,26.37352],[83.75407,26.37666],[83.76551,26.37539]]]}},{"type":"Feature","bbox":[83.76337,26.3691,83.7781,26.37539],"properties":{"ward":13,"name":"Gandhi Nagar"},"geometry":{"type":"Polygon","coordinates":[[[83.77773,26.3691],[83.77551,26.36918],[83.77074,26.37092],[83.76676,26.37159],[83.76337,26.37277],[83.76551,26.37539],[83.7698,26.37495],[83.77393,26.37337],[83.7781,26.37222],[83.77773,26.3691]]]}},{"type":"Feature","bbox":[83.76443,26.36886,83.76802,26.3722],"properties":{"ward":14,"name":"Nanda Nagar"},"geometry":{"type":"Polygon","coordinates":[[[83.76443,26.37053],[83.76481,26.3722],[83.76802,26.37135],[83.76765,26.37016],[83.76694,26.36886],[83.76449,26.36963],[83.76443,26.37053]]]}}]}